{"type":"Feature","properties":{"GID_2":"ESP.10.2_1","GID_0":"ESP","country":"Spain","GID_1":"ESP.10_1","province":"ComunidadValenciana","NL_NAME_1":"NA","county":"Castellón","VARNAME_2":"Castelló","NL_NAME_2":"NA","TYPE_2":"Provincia","ENGTYPE_2":"Province","CC_2":"12","HASC_2":"ES.VC.CS","name":"Castellón.county"},
"geometry":{"type": "MultiPolygon","coordinates": [[[[-0.3779,39.7999,360.2216],[-0.3282,39.8015,255.3955],[-0.316,39.7999,333.8781],[-0.3085,39.797,459.7522],[-0.2974,39.7852,182.3237],[-0.2765,39.7706,338.9739],[-0.2754,39.7641,155.4638],[-0.2715,39.7604,106.287],[-0.2736,39.7551,74.9743],[-0.2711,39.7505,68.1773],[-0.2609,39.7441,45.725],[-0.2468,39.743,22.9976],[-0.2347,39.739,11.2088],[-0.2339,39.7401,11.2088],[-0.2286,39.7368,5.2149],[-0.1885,39.7221,1.7587],[-0.1707,39.749,0.7171],[-0.1613,39.7588,0.6874],[-0.1543,39.7687,1.1316],[-0.1515,39.7699,0.7948],[-0.1418,39.7865,0.0],[-0.1368,39.7893,0.0],[-0.1196,39.816,0.6231],[-0.1018,39.8338,0.3423],[-0.0879,39.8554,0.4497],[-0.0785,39.8626,2.2456],[-0.0737,39.8618,0.0128],[-0.0726,39.8638,0.7589],[-0.0707,39.8638,0.9341],[-0.0699,39.861,0.2822],[-0.0674,39.8615,0.0],[-0.0665,39.8632,0.2323],[-0.0704,39.8649,0.9341],[-0.0693,39.8674,2.5642],[-0.0549,39.8751,1.4768],[-0.0296,39.8982,1.5246],[-0.0124,39.9071,0.0255],[-0.006,39.9146,0.3998],[-0.0007,39.9321,2.2111],[0.0018,39.9338,0.0],[0.001,39.9368,3.4193],[0.0026,39.9374,0.3928],[0.0035,39.9526,0.6253],[0.0085,39.9663,1.4515],[0.0101,39.9679,2.2416],[0.0151,39.966,0.0],[0.0213,39.9668,0.0],[0.0204,39.9674,0.0],[0.0168,39.9665,0.1683],[0.014,39.9685,0.2014],[0.0151,39.969,1.1258],[0.0196,39.9676,0.0],[0.016,39.9715,0.0],[0.0168,39.9735,0.0],[0.0201,39.9726,0.3298],[0.0204,39.969,1.4807],[0.0243,39.9712,5.9909],[0.0287,39.9668,4.6192],[0.0265,39.974,2.8353],[0.0249,39.9751,3.067],[0.026,39.9774,0.0],[0.0229,39.9776,3.252],[0.0226,39.9793,3.2022],[0.0296,40.0007,0.2745],[0.0307,40.0021,1.395],[0.0329,40.0015,0.0],[0.0315,40.0038,2.5402],[0.0343,40.0115,0.4153],[0.0362,40.0115,0.0],[0.0404,40.016,0.4059],[0.0451,40.0288,1.4764],[0.0493,40.0351,2.339],[0.0837,40.0571,8.9837],[0.091,40.0554,0.0],[0.1068,40.056,0.0],[0.1138,40.061,5.3727],[0.1201,40.0615,0.3128],[0.1274,40.0687,2.4252],[0.1351,40.0737,0.0],[0.1357,40.0801,7.0826],[0.1374,40.0818,1.8948],[0.1424,40.084,3.3562],[0.1443,40.0807,2.6524],[0.1471,40.0818,0.0],[0.149,40.0865,0.0],[0.1468,40.0871,2.2573],[0.1465,40.0915,3.4277],[0.1496,40.101,0.2165],[0.1538,40.1063,0.0],[0.1568,40.1154,0.0],[0.1721,40.1437,0.0],[0.1837,40.1632,0.4344],[0.1871,40.1649,0.0],[0.1915,40.1715,0.0],[0.2024,40.1815,0.0],[0.211,40.1838,0.0],[0.2243,40.1946,2.3357],[0.2335,40.1987,0.0],[0.2387,40.1987,0.0],[0.2562,40.2032,0.0],[0.264,40.2079,0.0],[0.2735,40.2282,0.0],[0.2729,40.2349,0.0],[0.2765,40.2376,0.9133],[0.2746,40.2382,4.2065],[0.2749,40.2396,0.2945],[0.2796,40.2446,0.546],[0.2888,40.2485,0.0],[0.2899,40.2504,0.0],[0.2868,40.2515,13.0208],[0.2868,40.2532,11.8365],[0.2913,40.254,0.0],[0.296,40.2582,0.0],[0.3043,40.2593,0.9965],[0.309,40.2668,1.0665],[0.3257,40.2754,0.0],[0.3326,40.2818,0.0],[0.3343,40.2893,2.3355],[0.3371,40.2929,1.7046],[0.3474,40.296,0.7242],[0.3504,40.2993,1.09],[0.3537,40.311,1.2237],[0.3632,40.3193,0.0],[0.3657,40.3246,0.0],[0.3868,40.3401,0.0],[0.3929,40.351,0.0],[0.3987,40.3537,0.0],[0.3993,40.3576,4.6477],[0.4026,40.3582,1.824],[0.4029,40.3557,0.0],[0.4054,40.3563,0.0],[0.4024,40.3546,0.0],[0.4024,40.3529,0.0],[0.4071,40.3557,0.5942],[0.409,40.3585,6.9201],[0.4043,40.3599,2.9944],[0.4035,40.3654,0.0],[0.4104,40.3854,2.3449],[0.4179,40.4012,4.0648],[0.4251,40.4076,0.5855],[0.4293,40.4093,0.0],[0.4337,40.4154,0.0],[0.436,40.4154,0.2535],[0.4349,40.409,0.0],[0.436,40.4093,0.0],[0.4399,40.4263,0.0],[0.449,40.4396,3.2687],[0.4535,40.4412,1.3605],[0.4574,40.4476,2.8188],[0.4596,40.4487,0.0],[0.4665,40.4607,4.1388],[0.4707,40.4629,1.7033],[0.4746,40.4613,0.601],[0.4726,40.4637,0.0],[0.476,40.4651,0.0],[0.4785,40.4621,0.0],[0.4763,40.4571,0.0],[0.4779,40.4582,0.0],[0.479,40.4635,0.0],[0.4768,40.4668,0.428],[0.4774,40.4685,3.011],[0.4857,40.4765,0.0],[0.4854,40.4799,1.6634],[0.4888,40.4837,0.0],[0.4879,40.4846,6.1341],[0.4915,40.4888,7.0003],[0.4951,40.4896,0.0],[0.4946,40.4915,8.5348],[0.504,40.5024,2.2318],[0.5057,40.5082,4.7387],[0.5135,40.5157,0.0],[0.5129,40.5176,5.2189],[0.5146,40.5182,0.574],[0.5154,40.5229,4.7437],[0.4988,40.5279,20.7437],[0.4871,40.5292,34.6423],[0.4822,40.5319,40.4121],[0.477,40.532,46.9807],[0.4604,40.5376,64.1723],[0.4565,40.5403,68.1428],[0.449,40.5413,76.3448],[0.4463,40.545,79.5156],[0.438,40.5471,82.5076],[0.4359,40.5499,94.3324],[0.4362,40.5588,96.5547],[0.4335,40.5654,103.0344],[0.4384,40.5702,121.3552],[0.4366,40.5727,128.4769],[0.444,40.5782,122.4203],[0.4307,40.5797,135.0425],[0.4046,40.5949,165.5884],[0.4064,40.5973,169.4358],[0.402,40.6024,177.5804],[0.3962,40.6025,182.8524],[0.3892,40.6066,193.2253],[0.3748,40.6064,212.809],[0.3711,40.6051,219.1929],[0.3508,40.6082,243.8828],[0.3453,40.6076,247.9971],[0.3185,40.615,280.9163],[0.3153,40.6143,284.1018],[0.3008,40.6226,300.7657],[0.2985,40.626,314.6042],[0.2923,40.6233,310.5928],[0.2789,40.6301,319.7288],[0.2759,40.6369,329.1896],[0.271,40.6383,334.8867],[0.2662,40.6442,342.9105],[0.2662,40.6462,354.0631],[0.2692,40.6479,369.2992],[0.2683,40.6596,390.8795],[0.2753,40.6705,710.582],[0.2822,40.6729,758.1711],[0.2857,40.6792,796.8482],[0.2924,40.6852,893.1769],[0.2919,40.6886,886.7307],[0.2769,40.6944,1006.3401],[0.2695,40.7034,1057.7583],[0.2619,40.706,1094.8433],[0.2508,40.7046,1096.4733],[0.2419,40.7004,937.9428],[0.236,40.7021,704.516],[0.2348,40.7063,571.7003],[0.2275,40.715,904.8785],[0.2242,40.7257,1114.4562],[0.2262,40.7332,1252.7903],[0.2171,40.7326,1264.063],[0.1973,40.7242,1330.9272],[0.1911,40.7312,1288.0024],[0.1834,40.7282,1182.7103],[0.1708,40.7329,1337.5345],[0.1684,40.7295,1313.3733],[0.1647,40.7278,1321.0217],[0.1639,40.7236,1309.967],[0.1414,40.7185,1246.5487],[0.1238,40.7208,1333.5088],[0.1166,40.7251,1344.6177],[0.1119,40.7247,1277.797],[0.1125,40.7272,1280.0425],[0.0727,40.7143,1181.4738],[0.0422,40.691,1052.4026],[0.0265,40.695,1225.9901],[0.0269,40.7004,1176.3445],[0.0243,40.7024,1098.7241],[0.0245,40.7073,1061.2339],[0.0284,40.7132,1029.5447],[0.0239,40.7176,977.9241],[0.0188,40.7196,974.2049],[0.0161,40.7233,995.1602],[0.018,40.7259,997.0726],[0.0158,40.7285,990.5001],[-0.0177,40.7312,1083.1072],[-0.0226,40.7302,1055.3092],[-0.0286,40.7263,1139.592],[-0.0307,40.7226,1168.7485],[-0.0537,40.7279,892.2009],[-0.0559,40.7268,956.3405],[-0.0647,40.7274,1088.3181],[-0.0804,40.7337,897.8563],[-0.0864,40.7382,840.5778],[-0.1074,40.7434,774.3401],[-0.1129,40.7483,841.7173],[-0.1257,40.7529,867.7047],[-0.1331,40.758,899.3375],[-0.1385,40.7663,881.0272],[-0.1438,40.7687,849.9292],[-0.1471,40.7751,821.6123],[-0.1445,40.7855,534.5211],[-0.1649,40.7887,852.7717],[-0.1667,40.7858,848.4878],[-0.1971,40.7845,855.537],[-0.1944,40.7818,837.0272],[-0.2017,40.7796,909.5123],[-0.2007,40.7772,904.7983],[-0.2024,40.7748,866.891],[-0.2055,40.7734,889.2732],[-0.2058,40.771,886.3688],[-0.2104,40.7674,878.2548],[-0.213,40.7581,907.8961],[-0.224,40.7542,919.7492],[-0.227,40.7477,904.895],[-0.2268,40.7438,936.1041],[-0.2304,40.7383,930.071],[-0.2292,40.7357,921.6633],[-0.2316,40.7328,924.5692],[-0.2328,40.7262,924.3779],[-0.2371,40.7238,938.8024],[-0.2392,40.7181,944.1832],[-0.2363,40.7097,983.9313],[-0.2335,40.7086,976.1346],[-0.2375,40.698,974.5011],[-0.2359,40.6911,1088.9695],[-0.25,40.6908,1064.2395],[-0.2609,40.6851,1074.6313],[-0.2789,40.6802,1078.5461],[-0.2894,40.6722,1059.7705],[-0.2936,40.674,1063.0989],[-0.299,40.6677,1100.8542],[-0.3061,40.664,1081.3979],[-0.3069,40.6595,1083.2207],[-0.3169,40.6636,938.5287],[-0.32,40.6678,922.8073],[-0.3221,40.6777,850.2413],[-0.3258,40.678,844.8398],[-0.3288,40.6803,821.5286],[-0.3561,40.6777,978.6682],[-0.3705,40.672,867.4885],[-0.3696,40.6701,895.7557],[-0.3728,40.6706,927.0154],[-0.3703,40.669,895.7557],[-0.372,40.6673,912.3549],[-0.378,40.6674,933.1959],[-0.3815,40.6616,897.6359],[-0.3791,40.6568,959.1025],[-0.3707,40.6508,915.7335],[-0.3727,40.6476,935.9221],[-0.3719,40.6411,982.1002],[-0.3764,40.636,1011.2753],[-0.3796,40.6236,1178.4784],[-0.3775,40.618899999999996,1266.4238],[-0.3704,40.6136,1220.6509],[-0.3602,40.6155,1189.713],[-0.344,40.6112,973.2521],[-0.3432,40.6065,899.4538],[-0.3345,40.6074,884.9607],[-0.322,40.6029,874.1321],[-0.3176,40.6081,852.5152],[-0.3115,40.6115,824.825],[-0.2991,40.6129,812.2191],[-0.2932,40.6111,825.1976],[-0.2923,40.6044,813.1167],[-0.2947,40.5998,824.7673],[-0.2933,40.5964,833.902],[-0.2954,40.5953,844.6583],[-0.2934,40.5915,851.0901],[-0.2953,40.586,857.3096],[-0.2943,40.584,854.7916],[-0.2952,40.581,870.5981],[-0.2998,40.5774,928.1119],[-0.2993,40.5738,880.5258],[-0.2948,40.5702,898.7167],[-0.296,40.5605,920.7372],[-0.2924,40.5561,936.603],[-0.294,40.554,953.3773],[-0.2902,40.5531,951.2375],[-0.2925,40.5467,954.8965],[-0.2901,40.544,972.1162],[-0.293,40.5366,986.7912],[-0.2974,40.5313,982.8788],[-0.3018,40.516,1180.0294],[-0.2994,40.5131,1134.5],[-0.2976,40.5058,1287.8644],[-0.2881,40.5096,1283.8848],[-0.2811,40.5052,1267.9827],[-0.2747,40.4969,1174.7921],[-0.2749,40.4934,1139.0343],[-0.2793,40.4886,1113.1265],[-0.2797,40.4835,1110.1498],[-0.2741,40.4817,1089.8286],[-0.2714,40.4785,1065.2733],[-0.2728,40.4737,1085.1646],[-0.2764,40.4758,1105.1915],[-0.2785,40.4754,1075.3546],[-0.2801,40.4724,1079.2175],[-0.281,40.4739,1093.7317],[-0.2832,40.4732,1110.5574],[-0.2857,40.4701,1114.2537],[-0.2873,40.4724,1118.3252],[-0.2903,40.4706,1101.0579],[-0.2954,40.4704,1132.1667],[-0.2934,40.466,1122.2909],[-0.3085,40.4658,1132.5541],[-0.3225,40.4601,1133.2921],[-0.3326,40.4591,1157.0172],[-0.337,40.4566,1151.2411],[-0.339,40.4534,1167.2092],[-0.3388,40.4489,1166.2244],[-0.3428,40.4466,1160.2661],[-0.3426,40.4435,1191.1852],[-0.3473,40.444,1234.5847],[-0.3411,40.4382,1367.6571],[-0.3328,40.4256,1584.5038],[-0.3279,40.4217,1598.4818],[-0.3166,40.4172,1377.4272],[-0.3072,40.4092,1311.1049],[-0.3013,40.3976,1154.1147],[-0.2959,40.3954,1121.1626],[-0.2852,40.3863,998.7495],[-0.2807,40.3769,903.3573],[-0.2816,40.3734,822.2542],[-0.28,40.3695,796.3109],[-0.2825,40.3702,781.0673],[-0.2839,40.3687,843.5006],[-0.2823,40.3651,797.1318],[-0.2854,40.3665,825.8947],[-0.2891,40.3655,815.3239],[-0.2892,40.3681,828.835],[-0.298,40.3617,822.2719],[-0.3045,40.3627,864.3011],[-0.3086,40.3577,844.9251],[-0.3144,40.3584,858.6357],[-0.319,40.3547,912.9183],[-0.3212,40.3501,915.6799],[-0.3316,40.3448,913.3961],[-0.3324,40.3415,925.8122],[-0.3368,40.341,1020.0966],[-0.3376,40.3394,944.4682],[-0.3406,40.34,990.3077],[-0.343,40.3343,961.132],[-0.341,40.329,966.2902],[-0.3437,40.3271,978.4388],[-0.3431,40.3254,997.2026],[-0.3465,40.3251,987.6307],[-0.3477,40.3283,991.6987],[-0.3497,40.328,996.3633],[-0.3485,40.3207,1015.5684],[-0.3535,40.318,1080.5544],[-0.352,40.3176,1023.904],[-0.3529,40.3134,1100.5315],[-0.3548,40.3148,1027.4885],[-0.3582,40.313,1043.036],[-0.3631,40.3166,1039.9021],[-0.3646,40.3137,1084.3218],[-0.3685,40.3121,1114.3153],[-0.37,40.3099,1075.2837],[-0.3672,40.3083,1085.0537],[-0.3662,40.3051,1095.4836],[-0.37,40.3066,1086.3419],[-0.3703,40.3044,1103.0209],[-0.3724,40.3041,1105.176],[-0.3725,40.3086,1120.1145],[-0.3764,40.305,1145.5881],[-0.3789,40.31,1170.5518],[-0.3845,40.3057,1141.4122],[-0.3877,40.3073,1213.0264],[-0.3901,40.3057,1201.3423],[-0.3914,40.3025,1170.9291],[-0.3899,40.2999,1176.5082],[-0.3927,40.2987,1191.5398],[-0.3946,40.3004,1171.7686],[-0.3939,40.2976,1191.5398],[-0.4001,40.2957,1184.7664],[-0.4001,40.2942,1186.4075],[-0.3903,40.288,1244.2659],[-0.3828,40.2783,1523.0635],[-0.385,40.2744,1591.7848],[-0.3836,40.2649,1642.9781],[-0.428,40.2438,1249.363],[-0.4518,40.2353,1019.7321],[-0.4638,40.2339,823.9547],[-0.4699,40.2402,835.4756],[-0.4772,40.2353,1036.4424],[-0.4866,40.2342,1213.2524],[-0.4945,40.2288,1367.1252],[-0.5015,40.2332,1492.4437],[-0.5105,40.2318,1494.0247],[-0.5292,40.2394,1611.5281],[-0.5441,40.2517,1628.1825],[-0.5478,40.2443,1689.7549],[-0.559,40.2101,1185.0343],[-0.5578,40.2009,1124.8116],[-0.5609,40.1974,1105.4541],[-0.5637,40.1887,1048.085],[-0.5721,40.1815,848.7708],[-0.5704,40.1803,881.5598],[-0.5716,40.1749,829.9601],[-0.5739,40.173,842.047],[-0.5696,40.162,772.1829],[-0.5707,40.16,764.4478],[-0.5692,40.1592,764.4478],[-0.5705,40.1554,768.1557],[-0.5747,40.1526,736.4904],[-0.5747,40.1487,733.0366],[-0.5793,40.1476,720.9002],[-0.5784,40.1381,692.2981],[-0.5869,40.1315,676.4565],[-0.5908,40.1337,674.3477],[-0.597,40.1321,658.9354],[-0.5985,40.1286,643.6125],[-0.604,40.1268,644.5117],[-0.6065,40.1283,631.1358],[-0.6286,40.1021,1003.8641],[-0.6135,40.07,780.885],[-0.619,40.0684,825.3908],[-0.6231,40.0696,824.0104],[-0.6231,40.0753,824.661],[-0.6272,40.0762,829.2136],[-0.6312,40.0735,831.2987],[-0.6307,40.071,832.7321],[-0.6334,40.0707,842.4563],[-0.6347,40.0727,855.236],[-0.6358,40.0718,842.7324],[-0.6359,40.0675,841.6523],[-0.6379,40.0697,860.7983],[-0.6416,40.0676,849.8767],[-0.6458,40.0677,865.6931],[-0.6641,40.0515,977.4215],[-0.6829,40.0443,953.1875],[-0.7028,40.0466,926.7546],[-0.7188,40.0387,944.6573],[-0.731,40.0424,964.9864],[-0.7475,40.0379,1096.8296],[-0.7536,40.0466,1010.0121],[-0.7622,40.0413,1119.6864],[-0.7628,40.0303,1079.297],[-0.7653,40.0268,1077.8989],[-0.7672,40.0101,1139.6091],[-0.7745,40.0043,1192.0614],[-0.7778,39.9983,1177.3966],[-0.7896,39.9899,1188.5947],[-0.7987,39.9914,1183.4607],[-0.8034,39.9905,1211.3969],[-0.8169,39.9823,1384.0286],[-0.8242,39.9824,1423.2454],[-0.8347,39.9794,1436.2551],[-0.8379,39.9766,1501.8896],[-0.838,39.9723,1544.9492],[-0.8414,39.969,1558.3146],[-0.8384,39.9665,1545.9196],[-0.8357,39.96,1540.6045],[-0.8396,39.9554,1545.1846],[-0.8441,39.954,1560.9614],[-0.8462,39.9477,1586.5229],[-0.8396,39.9419,1553.5095],[-0.8363,39.9284,1500.2139],[-0.8404,39.925,1526.5862],[-0.8374,39.9234,1536.0697],[-0.8331,39.9172,1539.1383],[-0.8328,39.911,1495.5999],[-0.8299,39.9068,1527.4675],[-0.8045,39.8921,1558.4091],[-0.8015,39.8847,1527.7629],[-0.7975,39.8833,1439.783],[-0.7976,39.8811,1475.6851],[-0.7937,39.8815,1483.4658],[-0.7735,39.8698,1155.7557],[-0.754,39.8433,1124.5281],[-0.7491,39.8405,1113.1536],[-0.7451,39.8358,1079.3112],[-0.7451,39.832,1055.7815],[-0.741,39.8322,1042.2709],[-0.7366,39.8292,1012.4415],[-0.7378,39.8234,957.5264],[-0.7364,39.8201,937.5492],[-0.7306,39.8167,909.6478],[-0.7305,39.815,924.2731],[-0.7279,39.8162,886.9492],[-0.7228,39.8133,933.7643],[-0.7125,39.8169,1043.8156],[-0.707,39.8352,1088.0413],[-0.6951,39.8501,959.2233],[-0.691,39.8525,948.9359],[-0.668,39.8403,911.7452],[-0.6561,39.836,887.6028],[-0.6446,39.7916,673.6174],[-0.6477,39.788,717.1301],[-0.6523,39.7541,595.1793],[-0.631,39.7464,477.0498],[-0.5882,39.7417,434.4796],[-0.5771,39.768,793.6954],[-0.577,39.7732,787.161],[-0.5585,39.7906,728.1759],[-0.5483,39.7958,811.184],[-0.5305,39.796,724.6956],[-0.5208,39.7845,703.225],[-0.5137,39.7789,826.2666],[-0.5132,39.7755,762.834],[-0.5085,39.7708,749.9575],[-0.5058,39.7595,805.9311],[-0.4982,39.7476,837.4398],[-0.4899,39.7418,758.2273],[-0.4826,39.7342,792.1074],[-0.4751,39.7319,648.7911],[-0.4636,39.7206,729.2119],[-0.4609,39.7154,809.3195],[-0.4561,39.7147,754.0795],[-0.4483,39.7164,683.3882],[-0.445,39.7189,647.4457],[-0.4374,39.7335,373.9866],[-0.439,39.7369,403.0909],[-0.433,39.7364,358.1746],[-0.4191,39.746,319.0575],[-0.4095,39.7452,293.8329],[-0.3947,39.7602,253.7715],[-0.3889,39.7687,235.5464],[-0.3869,39.7692,230.2831],[-0.3858,39.7765,326.3311],[-0.3917,39.7799,284.6698],[-0.3884,39.7906,234.9851],[-0.3827,39.7942,291.6814],[-0.3779,39.7999,360.2216]]],
[[[0.6718,39.8746,0.2202],[0.6724,39.8757,0.0],[0.6693,39.8757,0.0],[0.6701,39.8737,0.0],[0.6718,39.8746,0.2202]]],
[[[0.669,39.8913,0.0],[0.6668,39.8924,0.0],[0.6674,39.8904,0.0],[0.6701,39.8896,0.0],[0.669,39.8913,0.0]]],
[[[0.6874,39.8988,20.1922],[0.6879,39.9001,20.1922],[0.686,39.9007,0.0],[0.6826,39.8979,9.3983],[0.6826,39.8949,2.6434],[0.6849,39.8929,0.0],[0.6907,39.8951,0.0],[0.6904,39.8968,0.0],[0.6874,39.8949,6.556],[0.6838,39.8957,0.0],[0.6874,39.8988,20.1922]]]]}}