{"type":"Feature","properties":{"ISO3166-1-Alpha-3":"ESP","country":"Spain","fill":"#00F","id":"5814","name":"Castellón"},
"geometry":{"type": "Polygon","coordinates": [[[-0.04826,40.72718,1007.1396],[-0.07449,40.73085,968.3503],[-0.11996,40.75328,776.4677],[-0.13531,40.76338,908.8311],[-0.14236,40.7694,850.7697],[-0.15216,40.7749,659.053],[-0.1658,40.77991,672.5052],[-0.18389,40.77942,817.3622],[-0.19481,40.77599,889.4513],[-0.21368,40.75829,907.8961],[-0.21903,40.75193,868.2886],[-0.22342,40.74532,917.4957],[-0.22802,40.73072,901.0126],[-0.22933,40.7155,943.2271],[-0.22887,40.70801,885.0338],[-0.22923,40.70103,841.6097],[-0.23409,40.6948,998.6568],[-0.28481,40.67333,1095.1255],[-0.29308,40.66788,1117.2327],[-0.3045,40.66325,1087.2461],[-0.31305,40.66294,970.7227],[-0.32941,40.67157,895.0407],[-0.34581,40.6739,944.8831],[-0.35775,40.67191,1004.0413],[-0.36868,40.66744,934.2598],[-0.37731,40.66015,954.9449],[-0.37871,40.65261,914.3274],[-0.37659,40.64568,960.6476],[-0.3763,40.63835,1008.0447],[-0.37746,40.62426,1211.2805],[-0.3746,40.61819,1253.4716],[-0.36721,40.61447,1208.3882],[-0.35876,40.61194,1077.7156],[-0.35,40.61106,1015.5042],[-0.34269,40.60734,922.0516],[-0.33395,40.60527,946.6713],[-0.32512,40.60424,860.0845],[-0.30809,40.60871,961.7064],[-0.30042,40.60905,938.7874],[-0.29437,40.60576,840.0442],[-0.29478,40.5922,842.0253],[-0.29734,40.58414,866.3],[-0.29856,40.57665,880.5276],[-0.29649,40.56243,911.9917],[-0.29416,40.55556,964.6381],[-0.29266,40.54851,953.8303],[-0.29297,40.53406,1009.7728],[-0.29452,40.52706,1030.363],[-0.29747,40.52037,1109.1587],[-0.29793,40.5137,1157.3267],[-0.29669,40.50792,1237.2805],[-0.28186,40.50094,1208.8237],[-0.28062,40.49985,1197.219],[-0.27582,40.48753,1155.7445],[-0.27264,40.48143,1089.2632],[-0.27217,40.47572,1075.8461],[-0.27737,40.47182,1133.6249],[-0.3237,40.45696,1229.125],[-0.33385,40.45001,1393.9121],[-0.3399,40.4427,1204.8285],[-0.33866,40.43531,1413.9027],[-0.33548,40.42777,1503.1001],[-0.32935,40.42169,1613.175],[-0.31406,40.41296,1345.3403],[-0.30724,40.40792,1286.4507],[-0.29509,40.39632,1171.9204],[-0.2891,40.38921,1060.4158],[-0.28558,40.38154,1022.618],[-0.28649,40.37175,966.007],[-0.2921,40.36552,819.9521],[-0.33165,40.34565,952.6702],[-0.34121,40.33738,960.675],[-0.35716,40.31775,1164.448],[-0.36938,40.30829,1100.0773],[-0.39093,40.29558,1241.1578],[-0.39281,40.28914,1242.8022],[-0.39075,40.28214,1359.1608],[-0.3901,40.27421,1378.002],[-0.39142,40.26393,1546.4069],[-0.39793,40.25687,1454.6296],[-0.40586,40.25114,1469.8627],[-0.44232,40.23775,1009.6239],[-0.45162,40.23592,1028.756],[-0.47025,40.23506,956.2305],[-0.47947,40.23377,1044.4521],[-0.48779,40.2315,1306.6708],[-0.49549,40.23046,1401.5344],[-0.50113,40.23031,1477.136],[-0.51627,40.23336,1425.33],[-0.52536,40.2377,1509.8464],[-0.53438,40.24041,1540.1096],[-0.54422,40.2401,1456.9619],[-0.54996,40.23506,1364.3208],[-0.55182,40.22845,1266.8948],[-0.55164,40.21419,1199.6908],[-0.55304,40.20737,1179.0981],[-0.55229,40.20029,1140.2026],[-0.55637,40.18517,1026.0862],[-0.56335,40.17633,957.2245],[-0.56782,40.16907,903.4092],[-0.57004,40.15352,811.1036],[-0.57487,40.14515,748.38],[-0.58319,40.13481,679.6362],[-0.59673,40.12701,754.5823],[-0.61342,40.11391,682.8058],[-0.61766,40.10709,853.5817],[-0.61952,40.09913,987.4084],[-0.61773,40.09145,923.9965],[-0.61275,40.07771,841.3387],[-0.61435,40.07174,834.0834],[-0.68385,40.04443,953.1875],[-0.72204,40.03988,948.7986],[-0.73879,40.0403,1024.877],[-0.74669,40.04143,1038.0299],[-0.7539,40.03978,1046.3276],[-0.7577,40.03461,1064.4866],[-0.76204,40.01849,1074.6401],[-0.76618,40.00939,1138.1802],[-0.77509,40.00138,1184.1808],[-0.7778,39.99957,1166.7444],[-0.79077,39.99296,1174.7531],[-0.80142,39.99089,1201.7529],[-0.82444,39.98149,1411.1921],[-0.83121,39.97482,1439.782],[-0.83565,39.96764,1514.4163],[-0.8387,39.95257,1553.6056],[-0.83909,39.94583,1546.3459],[-0.83635,39.93994,1528.0029],[-0.8362,39.93338,1525.2788],[-0.8325,39.91942,1531.5907],[-0.82382,39.90632,1542.28],[-0.81713,39.90134,1544.1906],[-0.8092,39.89764,1527.4043],[-0.79747,39.88749,1468.2937],[-0.79129,39.87754,1376.7468],[-0.77375,39.86982,1155.7557],[-0.73701,39.82075,949.9446],[-0.71265,39.81698,1043.8156],[-0.69103,39.85233,948.9359],[-0.65603,39.83586,887.6028],[-0.6447,39.7916,673.6174],[-0.6443,39.77664,753.5498],[-0.64743,39.76636,645.0622],[-0.64664,39.7579,569.3962],[-0.63448,39.74846,480.031],[-0.61889,39.74591,483.9333],[-0.6014,39.7508,481.7011],[-0.5861,39.76069,515.1822],[-0.56999,39.78019,771.2335],[-0.5331,39.79619,749.867],[-0.4782,39.72808,634.0637],[-0.45595,39.72292,577.461],[-0.43267,39.72953,370.4198],[-0.40959,39.74532,293.8329],[-0.37933,39.78294,239.9456],[-0.34539,39.79747,252.5197],[-0.30917,39.78739,235.8193],[-0.27204,39.75109,68.1773],[-0.19449,39.71544,2.9717],[-0.0913,39.84793,0.0],[-0.02868,39.9018,3.214],[-0.00292,39.93195,1.7295],[0.0405,40.00288,0.0],[0.06617,40.03193,0.0],[0.11704,40.05634,0.0],[0.14454,40.07884,0.0],[0.20525,40.17154,0.0],[0.26474,40.20978,0.0],[0.29884,40.24677,0.0],[0.3121,40.25751,0.0],[0.33896,40.27436,0.0],[0.3506,40.2849,0.0],[0.42026,40.38825,0.0],[0.44614,40.40843,0.0],[0.45265,40.43407,0.0],[0.46616,40.45067,0.0],[0.48341,40.46503,0.0],[0.50131,40.4842,0.0],[0.51743,40.51435,0.0],[0.52376,40.52616,0.0],[0.51891,40.52895,0.0],[0.45608,40.5492,113.3825],[0.44739,40.55458,133.0225],[0.44042,40.56305,129.9895],[0.43685,40.57075,125.7275],[0.43685,40.57745,131.4969],[0.42988,40.5844,140.9633],[0.4184,40.59083,163.0046],[0.3875,40.60375,199.9776],[0.3166,40.62259,301.0512],[0.29314,40.63215,350.9931],[0.28384,40.63972,367.4921],[0.27624,40.65431,417.6102],[0.27702,40.66364,515.6802],[0.28105,40.67142,751.2837],[0.28601,40.67731,806.4422],[0.28771,40.68382,804.2046],[0.27826,40.69157,943.8198],[0.2657,40.69788,964.231],[0.24379,40.70305,855.3566],[0.23216,40.71168,753.7293],[0.22674,40.71943,922.3268],[0.22379,40.72607,1114.4562],[0.21929,40.73054,1246.0265],[0.19899,40.72718,1213.5325],[0.17304,40.7309,1269.0316],[0.14498,40.72258,1177.5599],[0.1071,40.72155,1101.8984],[0.09315,40.7195,964.4258],[0.08153,40.71643,876.2781],[0.0731,40.71271,1187.1802],[0.06427,40.7077,1010.7111],[0.0562,40.7017,976.2463],[0.04504,40.69617,910.2783],[0.0362,40.69669,1197.9424],[0.02954,40.69961,1139.1727],[0.02773,40.70584,1081.7664],[0.02814,40.71268,1029.5447],[0.02473,40.7202,928.3433],[0.01817,40.72614,997.0726],[0.00158,40.72963,854.1564],[-0.04826,40.72718,1007.1396]]]}}