{"type": "Feature","bbox": [1.3596,41.1926,2.7774,42.3233],"geometry": {"type": "MultiPolygon","coordinates": [[[[1.9985,41.2647,0.9499],[2.0274,41.2668,0.0],[2.0743,41.2771,1.2792],[2.1129,41.2893,0.0],[2.134,41.3035,1.0162],[2.1396,41.3082,3.4971],[2.144,41.316,5.4076],[2.1424,41.321,3.0099],[2.151,41.3215,4.7688],[2.1576,41.3371,4.8221],[2.1604,41.3382,3.733],[2.1629,41.3365,3.5881],[2.1649,41.3407,1.5774],[2.1607,41.3426,1.4487],[2.1568,41.3424,0.0],[2.1493,41.3315,0.0],[2.1471,41.3321,7.378],[2.1454,41.336,1.4489],[2.1499,41.3368,0.0],[2.1507,41.3426,2.2658],[2.1599,41.3457,0.0],[2.1626,41.351,3.527],[2.1679,41.349,1.2379],[2.1707,41.3515,0.0],[2.1726,41.3563,0.0],[2.1704,41.359,3.2518],[2.1762,41.3596,0.0],[2.1732,41.3638,3.4869],[2.1743,41.3651,0.7364],[2.1799,41.3643,2.9474],[2.1807,41.3654,0.961],[2.1774,41.3674,1.132],[2.1771,41.371,3.7439],[2.1821,41.3707,2.8533],[2.1824,41.3718,0.0],[2.1785,41.3749,0.7431],[2.1863,41.3776,0.0],[2.1843,41.3693,2.339],[2.186,41.366,0.732],[2.1832,41.3654,0.0],[2.1771,41.3576,0.0],[2.1754,41.3518,2.9919],[2.1713,41.3457,0.0],[2.1729,41.3418,0.6236],[2.1749,41.3496,1.3785],[2.1826,41.3632,0.0],[2.1868,41.3657,1.1938],[2.1888,41.3737,6.2791],[2.1951,41.3835,1.4953],[2.1971,41.3854,1.2835],[2.201,41.384,0.0],[2.2037,41.3871,0.0],[2.201,41.3893,0.0],[2.2021,41.3915,4.1107],[2.2049,41.3915,0.0],[2.2076,41.396,2.8363],[2.2118,41.3946,0.0],[2.2107,41.3979,5.6384],[2.2118,41.3993,6.1251],[2.2149,41.3993,0.4304],[2.2146,41.4018,5.6089],[2.2235,41.4079,4.6185],[2.2301,41.4168,2.873],[2.2343,41.4165,0.0],[2.2324,41.4179,1.1865],[2.2321,41.421,4.5083],[2.2357,41.4249,3.1561],[2.2387,41.4243,0.0],[2.2376,41.4293,6.3048],[2.2387,41.4321,5.0319],[2.2496,41.4454,3.3356],[2.2646,41.4585,0.6907],[2.2738,41.4632,0.9532],[2.3063,41.4757,5.779],[2.3096,41.474,0.2168],[2.3129,41.476,0.9035],[2.3124,41.4735,0.0],[2.3135,41.4735,0.0],[2.3193,41.4785,0.0],[2.3521,41.486,0.6438],[2.381,41.4951,0.0],[2.3835,41.4976,8.4752],[2.4076,41.5085,0.0],[2.4179,41.5165,3.2649],[2.441,41.529,3.7601],[2.4449,41.529,0.0],[2.4451,41.526,0.0],[2.4493,41.5299,0.95009999999999994],[2.4479,41.534,0.8465],[2.4499,41.536,2.0781],[2.454,41.5371,0.0],[2.4629,41.5435,0.0],[2.471,41.5468,0.0],[2.4951,41.5524,1.5163],[2.5007,41.5563,2.7631],[2.5074,41.5563,0.0],[2.5099,41.5585,0.0],[2.5096,41.5612,2.8449],[2.5154,41.5624,7.9326],[2.5521,41.5788,12.9441],[2.5596,41.5768,0.4545],[2.561,41.5788,1.7208],[2.561,41.5765,0.5565],[2.5576,41.574,0.0],[2.5604,41.5743,0.4461],[2.5643,41.5804,1.1552],[2.569,41.5829,3.6311],[2.5812,41.5857,7.1428],[2.6026,41.594,10.8908],[2.6087,41.5946,0.0],[2.6301,41.6032,0.0],[2.6418,41.6054,0.0],[2.6501,41.6099,2.4842],[2.6974,41.6224,1.8374],[2.7032,41.6265,2.0374],[2.7182,41.6287,0.0],[2.7276,41.6354,0.0],[2.7468,41.6435,0.5314],[2.759,41.6465,1.0728],[2.7735,41.6474,0.2153],[2.7774,41.6493,0.0],[2.7653,41.6662,5.6028],[2.7614,41.6693,6.469],[2.7579,41.6792,13.6051],[2.7699,41.6874,25.167],[2.7743,41.7003,63.1621],[2.7658,41.7257,274.1659],[2.7772,41.7311,251.3819],[2.7769,41.7355,288.0883],[2.7448,41.735,123.4339],[2.7248,41.7443,165.5567],[2.7074,41.741,54.9905],[2.703,41.7448,82.1667],[2.7006,41.7429,101.2336],[2.6898,41.7415,49.2402],[2.689,41.7464,53.8516],[2.6818,41.7483,106.8337],[2.6807,41.7444,52.0687],[2.6855,41.7457,59.8258],[2.6866,41.7413,47.6015],[2.6806,41.7396,44.7235],[2.6637,41.7475,60.9083],[2.6576,41.7477,57.94],[2.6563,41.7428,51.7223],[2.6471,41.744,56.1226],[2.6394,41.7429,60.4065],[2.6375,41.7337,83.4455],[2.6292,41.731,66.1996],[2.6121,41.7308,71.9717],[2.6052,41.7277,70.4645],[2.59,41.7287,80.0868],[2.5773,41.7244,78.7848],[2.569,41.7267,84.0461],[2.5473,41.7191,96.0158],[2.5376,41.7218,130.1938],[2.5336,41.7288,150.1792],[2.5307,41.7305,150.311],[2.5333,41.7348,187.3362],[2.5315,41.7386,203.6174],[2.5236,41.7421,277.5965],[2.5156,41.7487,314.8229],[2.5154,41.7535,385.3135],[2.5187,41.7558,347.5105],[2.5158,41.7621,529.0757],[2.4899,41.7655,923.1577],[2.4819,41.7716,1275.7623],[2.4692,41.7778,1120.8633],[2.4722,41.7896,1081.0635],[2.4558,41.7842,1239.8789],[2.4438,41.7892,1574.5366],[2.4429,41.799,1345.8406],[2.437,41.8026,1216.0522],[2.4266,41.8046,1146.7598],[2.4118,41.8034,1273.9043],[2.4104,41.8016,1381.3177],[2.4038,41.8019,1494.934],[2.3963,41.8057,1583.4607],[2.3882,41.8051,1601.1577],[2.3827,41.8087,1664.2922],[2.3766,41.805,1554.7427],[2.3705,41.8041,1516.7661],[2.3643,41.8067,1421.5242],[2.3543,41.8071,1378.3289],[2.3516,41.8097,1358.858],[2.3495,41.8157,1274.2295],[2.3464,41.8174,1267.585],[2.3438,41.8217,1253.5674],[2.3473,41.8324,1240.2273],[2.3449,41.8374,1129.6694],[2.333,41.8443,839.7266],[2.326,41.8557,749.1906],[2.3302,41.8559,736.7744],[2.3298,41.8593,708.0135],[2.3324,41.8635,702.1566],[2.3245,41.8722,737.0936],[2.3238,41.8755,752.1243],[2.328,41.8831,782.2844],[2.3299,41.8822,790.6375],[2.3342,41.8839,765.4121],[2.3375,41.8892,769.2636],[2.3446,41.8862,677.4908],[2.3495,41.887,622.3773],[2.3553,41.8813,592.2388],[2.3615,41.8834,599.1079],[2.3666,41.8802,721.0235],[2.3679,41.8847,643.5616],[2.3697,41.8855,624.0986],[2.3703,41.8805,663.1234],[2.3772,41.8728,843.2994],[2.3781,41.8742,809.7323],[2.3826,41.8715,686.5984],[2.3845,41.877,683.9926],[2.3872,41.8777,641.0228],[2.3872,41.8792,633.0425],[2.3937,41.879,780.082],[2.3926,41.8805,738.7204],[2.3965,41.886,656.2208],[2.4044,41.8863,788.1795],[2.4071,41.8957,702.4026],[2.4153,41.896,698.1212],[2.4176,41.8933,755.2769],[2.427,41.8961,906.8756],[2.4286,41.8944,913.1171],[2.4312,41.8944,934.7089],[2.4308,41.8904,908.8007],[2.4433,41.888,960.733],[2.4459,41.8896,946.6364],[2.4463,41.8948,1022.9988],[2.4567,41.8967,968.4969],[2.459,41.8983,1005.4542],[2.4599,41.9026,1014.8997],[2.4687,41.9047,960.4174],[2.468,41.9058,975.4335],[2.4726,41.9095,1073.0601],[2.4748,41.915,1143.3486],[2.4812,41.916,1185.5511],[2.4785,41.9204,1155.0275],[2.4801,41.9291,952.2723],[2.4708,41.9393,655.0538],[2.4625,41.9378,861.556],[2.4622,41.9413,736.0251],[2.4592,41.9444,635.2081],[2.4549,41.9409,763.9196],[2.451,41.9437,903.2316],[2.4461,41.944,858.7723],[2.4451,41.9421,853.843],[2.4422,41.9414,804.4263],[2.44,41.9437,780.7938],[2.4402,41.9467,723.3938],[2.437,41.948,657.5474],[2.438,41.9515,768.3894],[2.4421,41.9546,703.4789],[2.4415,41.9599,595.6351],[2.4395,41.9632,459.0372],[2.4324,41.9658,545.797],[2.4294,41.9654,606.7015],[2.4291,41.969,400.1662],[2.4311,41.9692,380.8735],[2.4337,41.9725,377.3179],[2.4381,41.9734,345.7329],[2.4425,41.9718,341.0131],[2.4416,41.9682,371.6642],[2.4492,41.9701,598.7013],[2.452,41.9661,432.0309],[2.4558,41.9679,478.0179],[2.4568,41.9661,589.8875],[2.4614,41.9679,634.4578],[2.4652,41.9668,525.4883],[2.4743,41.9694,679.3877],[2.4717,41.9721,790.9507],[2.4724,41.9753,778.2468],[2.4802,41.9794,899.3348],[2.4795,41.9825,910.1628],[2.488,41.9847,761.7284],[2.4688,41.993899999999996,792.3874],[2.4766,41.9974,640.1234],[2.4765,42.0013,658.4971],[2.4793,42.0014,651.7707],[2.4795,41.9983,580.9672],[2.4829,41.9967,513.0024],[2.4846,41.9992,591.139],[2.4883,41.9991,578.2941],[2.4932,42.0016,585.7098],[2.4989,42.0015,623.971],[2.4999,42.0081,569.942],[2.5033,42.0097,481.1951],[2.4952,42.0117,462.3665],[2.4959,42.0164,532.5602],[2.494,42.0212,883.3968],[2.4979,42.0212,849.607],[2.5031,42.0247,937.7216],[2.5062,42.0323,856.1841],[2.4998,42.0331,1088.1609],[2.4966,42.0368,1116.2062],[2.4923,42.0379,1140.0411],[2.4875,42.0456,1002.4146],[2.4837,42.0465,1020.853],[2.4822,42.0493,994.463],[2.4822,42.0524,1000.4105],[2.4963,42.0589,1098.7891],[2.4954,42.0605,1078.9059],[2.4904,42.0673,1023.6703],[2.4811,42.069,985.9418],[2.4773,42.0674,1002.8275],[2.4741,42.0637,1051.1907],[2.4719,42.0645,1034.8137],[2.4667,42.0738,916.5645],[2.4637,42.076,925.8222],[2.4582,42.0752,929.2948],[2.4546,42.078,859.3129],[2.4535,42.0767,883.8594],[2.4496,42.0774,864.1749],[2.4481,42.074,872.2267],[2.4435,42.0732,902.126],[2.4254,42.0625,1275.7725],[2.4206,42.0654,1282.9039],[2.4172,42.0649,1238.441],[2.4146,42.0689,1215.3203],[2.411,42.0686,1173.6844],[2.4058,42.0788,1235.1829],[2.395,42.0868,1026.7943],[2.3973,42.088,1090.8142],[2.3949,42.0912,1021.1779],[2.395,42.0952,930.0349],[2.4001,42.1022,1165.7892],[2.3948,42.1043,1177.34],[2.3799,42.1037,1234.2344],[2.3768,42.1059,1169.5371],[2.374,42.1168,1324.4487],[2.3693,42.1162,1259.0603],[2.366,42.1214,1150.3777],[2.356,42.1192,1057.6415],[2.3475,42.1213,1000.6865],[2.342,42.1202,955.4407],[2.3368,42.1165,982.3621],[2.3199,42.1159,888.0643],[2.3187,42.1136,879.3894],[2.3162,42.1142,850.1631],[2.3183,42.1133,879.3894],[2.317,42.1109,824.9739],[2.3097,42.1097,971.3921],[2.2949,42.1027,1159.6118],[2.294,42.1058,1106.8965],[2.3034,42.1125,1075.5873],[2.2983,42.1171,979.3563],[2.3016,42.119,999.2884],[2.3001,42.122,1016.1191],[2.3021,42.1225,1119.1005],[2.3012,42.1261,1112.3618],[2.3029,42.1273,1185.1035],[2.3009,42.1279,1163.3127],[2.2996,42.1342,1036.0646],[2.2936,42.1319,950.2272],[2.2916,42.1293,936.1899],[2.2867,42.1337,1039.3711],[2.2795,42.1339,1091.0181],[2.2764,42.1379,997.2997],[2.2809,42.1407,1168.123],[2.2727,42.1394,1097.1958],[2.2731,42.1425,1150.588],[2.2711,42.1428,1143.6514],[2.27,42.1452,1090.7507],[2.2688,42.1431,1119.3589],[2.2606,42.1413,1072.3313],[2.2579,42.1388,936.7596],[2.2487,42.1394,959.9069],[2.243,42.1379,946.5891],[2.2403,42.1431,785.2956],[2.2377,42.1441,729.8597],[2.2151,42.1421,714.3884],[2.2152,42.139,645.6628],[2.2101,42.1397,624.3268],[2.2106,42.137,626.0356],[2.2056,42.1335,630.0825],[2.2129,42.1293,607.9563],[2.2119,42.1277,619.5128],[2.2097,42.1277,603.8167],[2.2038,42.1319,604.8141],[2.2024,42.1283,599.243],[2.2049,42.1259,605.2459],[2.2011,42.1243,676.4449],[2.1892,42.1248,801.7716],[2.1865,42.1286,829.9623],[2.1884,42.1315,837.5217],[2.1876,42.134,924.4653],[2.1814,42.1353,968.8219],[2.1641,42.1353,980.8256],[2.1447,42.1314,932.9824],[2.1406,42.1278,899.3025],[2.1377,42.1216,839.501],[2.1259,42.1131,727.4034],[2.1238,42.1154,749.0615],[2.1134,42.1174,791.9668],[2.1051,42.1228,845.1003],[2.1011,42.1238,865.9603],[2.1003,42.1298,939.6902],[2.0976,42.1303,1006.1345],[2.101,42.1402,1156.9979],[2.0951,42.1405,1168.8812],[2.0955,42.1421,1146.515],[2.0923,42.1443,1154.2135],[2.0903,42.1423,1126.4275],[2.0858,42.1417,1084.1396],[2.0708,42.1419,970.1187],[2.0699,42.1388,974.5947],[2.0656,42.1387,962.2622],[2.061,42.1357,938.9851],[2.0546,42.1375,789.8647],[2.0517,42.1431,840.777],[2.046,42.1444,865.2808],[2.0371,42.1433,956.9338],[2.0333,42.1498,975.6687],[2.0269,42.1526,1189.2429],[2.0128,42.1493,1122.6038],[2.004,42.1495,1001.3937],[2.0059,42.1517,1062.0278],[2.0036,42.1528,904.0286],[2.0054,42.155,921.9416],[1.9969,42.1621,1134.6384],[1.9908,42.1716,1268.3534],[1.9922,42.1724,1253.6656],[1.9892,42.1767,1212.0515],[1.9915,42.1826,1156.0742],[1.9837,42.1811,1086.4834],[1.9788,42.1829,1027.3539],[1.9707,42.1802,991.8148],[1.9706,42.1782,989.2613],[1.9659,42.1788,946.0299],[1.9652,42.1991,1536.6528],[1.97,42.1975,1602.8328],[1.9764,42.1991,1492.3582],[1.9877,42.1948,1457.7205],[2.0073,42.1941,1345.4342],[1.998,42.1921,1452.1729],[1.999,42.1885,1202.9374],[2.0062,42.1838,1143.7725],[2.0016,42.177,1093.7434],[1.9956,42.1723,1196.1398],[2.0039,42.1663,1128.6021],[2.0048,42.1621,980.5584],[2.0129,42.164,1075.4434],[2.0228,42.1641,1215.6367],[2.0275,42.1666,1254.2532],[2.0279,42.1695,1251.8271],[2.0315,42.1722,1181.4172],[2.0314,42.177,1103.2798],[2.037,42.179,976.6672],[2.0453,42.176,955.2392],[2.0556,42.1756,1008.0974],[2.0605,42.1779,935.165],[2.0592,42.1791,951.895],[2.061,42.1798,949.4935],[2.0616,42.189,1049.0934],[2.0636,42.1916,1016.8933],[2.0603,42.1953,1003.2878],[2.0525,42.1958,1020.3186],[2.0536,42.2006,1064.7384],[2.0505,42.2084,1236.1086],[2.0515,42.2136,1320.2891],[2.0501,42.2159,1466.5592],[2.0533,42.2196,1414.6071],[2.0489,42.2214,1461.0641],[2.0395,42.2212,1336.3765],[2.0302,42.2159,1197.5651],[2.0232,42.2274,1000.9908],[2.0194,42.2284,985.6375],[2.0167,42.2327,935.6177],[2.0206,42.2319,949.9909],[2.0248,42.2333,962.6483],[2.0247,42.2399,977.2072],[2.0278,42.2413,976.5897],[2.0268,42.2422,1017.1467],[2.0296,42.245,994.8364],[2.0274,42.2495,1064.264],[2.0292,42.2514,1050.519],[2.0287,42.2535,1053.9404],[2.0271,42.2533,1107.611],[2.0304,42.257,1079.8202],[2.0399,42.2606,1162.9858],[2.0433,42.268,1214.2793],[2.0421,42.2694,1218.2366],[2.0484,42.275,1320.9692],[2.0515,42.2753,1317.791],[2.0524,42.2788,1436.5072],[2.0598,42.2826,1578.8589],[2.0669,42.2839,1702.8125],[2.0699,42.2916,1884.3993],[2.0664,42.2902,1899.3662],[2.057,42.2956,1853.4674],[2.0477,42.2977,1947.8527],[2.0401,42.3021,1886.0948],[2.038,42.3052,1890.5798],[2.0283,42.3063,1952.4971],[2.0185,42.3103,1951.9407],[2.014,42.3075,2016.4868],[2.0058,42.3076,2007.623],[1.9933,42.3026,1937.4357],[1.9921,42.3003,1936.79],[1.9873,42.3004,1975.437],[1.9838,42.2981,1972.0205],[1.9703,42.3033,1866.9149],[1.9487,42.3157,2176.7969],[1.9433,42.3085,2295.8052],[1.9393,42.3165,2138.5303],[1.9329,42.3187,2055.6519],[1.9212,42.317,2018.5254],[1.9031,42.3233,2378.2844],[1.8929,42.3209,2517.8254],[1.8931,42.3187,2486.3389],[1.8911,42.3174,2408.574],[1.8835,42.3172,2242.2244],[1.8831,42.3149,2226.5825],[1.8792,42.3127,2143.6758],[1.8737,42.3136,2095.752],[1.8639,42.311,2086.2156],[1.8614,42.3132,2152.572],[1.8578,42.3107,2132.825],[1.8506,42.3107,2127.9646],[1.8426,42.3064,2232.3062],[1.8373,42.3056,2099.4946],[1.8328,42.3013,2051.1101],[1.8265,42.2993,1980.3511],[1.8184,42.2995,1996.5007],[1.8146,42.3023,2000.3301],[1.8045,42.3021,1978.3501],[1.797,42.2975,1804.1868],[1.7973,42.2948,1831.845],[1.7868,42.2945,1819.2383],[1.7755,42.2909,2001.7379],[1.7624,42.2938,2108.8472],[1.7407,42.2906,2323.4609],[1.7343,42.284,2395.8833],[1.7192,42.284,2441.9807],[1.7156,42.2881,2440.6416],[1.7024,42.2849,2436.5803],[1.6751,42.2859,2354.0081],[1.6703,42.2817,2544.9949],[1.6842,42.2763,2108.1299],[1.6902,42.2771,2259.8511],[1.6951,42.2639,1847.959],[1.6854,42.2605,1828.7444],[1.6846,42.2565,2002.1412],[1.688,42.2545,1965.7212],[1.6898,42.2476,2161.957],[1.6967,42.245,2247.7637],[1.6988,42.2411,2376.6768],[1.7032,42.2399,2432.4883],[1.7042,42.2362,2361.1475],[1.7013,42.2348,2216.6072],[1.7003,42.2307,2016.7391],[1.681,42.2243,1406.6543],[1.6854,42.2208,1377.2407],[1.6804,42.2064,1576.5312],[1.6863,42.2064,1498.4272],[1.6896,42.1991,1417.9834],[1.7074,42.1901,1725.4629],[1.7132,42.1905,1869.2457],[1.7145,42.1928,1849.7574],[1.7215,42.1962,1980.8529],[1.7377,42.1895,2285.4253],[1.7368,42.1852,2080.6704],[1.738,42.185,2090.0403],[1.7363,42.1835,1844.8295],[1.7391,42.1766,1547.5923],[1.7359,42.171,1482.3033],[1.7365,42.1628,1428.8931],[1.7343,42.1594,1372.9928],[1.7206,42.1517,1506.9521],[1.7136,42.1541,1514.9497],[1.708,42.1498,1355.6309],[1.7068,42.1453,1309.2954],[1.7027,42.1421,1274.1907],[1.7038,42.1407,1250.8256],[1.6986,42.1357,1039.7795],[1.6989,42.1285,1083.3411],[1.7117,42.1195,975.455],[1.7093,42.1098,1076.9296],[1.7051,42.1067,977.5707],[1.7117,42.1016,1191.6196],[1.7225,42.0998,1027.5227],[1.7221,42.0911,1505.6235],[1.7166,42.0847,1397.2664],[1.7076,42.0827,1329.304],[1.6913,42.0871,1019.697],[1.6884,42.0815,1325.9526],[1.6883,42.0784,1202.817],[1.6914,42.0781,1330.829],[1.6897,42.0744,1158.3855],[1.6844,42.0671,992.6739],[1.6744,42.0592,1133.7229],[1.6737,42.0523,1096.7538],[1.6708,42.045,894.9346],[1.6719,42.041,839.7538],[1.6786,42.0383,770.609],[1.68,42.0465,855.1057],[1.6826,42.0499,831.5833],[1.6836,42.0481,845.3726],[1.6925,42.0462,1040.736],[1.6973,42.037,935.1727],[1.6943,42.0352,880.5342],[1.6995,42.0296,837.1134],[1.698,42.0274,820.665],[1.6888,42.0279,818.9677],[1.6897,42.0271,818.9677],[1.6837,42.0255,879.7917],[1.678,42.0186,793.3698],[1.6749,42.0196,705.2324],[1.6725,42.0181,692.6988],[1.6686,42.0137,720.7261],[1.6699,42.007,667.2045],[1.666,42.0035,610.4373],[1.6603,42.0067,602.4984],[1.664,42.0081,622.6816],[1.6653,42.0107,659.7814],[1.6623,42.0116,689.6855],[1.662,42.0154,721.031],[1.665,42.0191,767.6573],[1.6647,42.0223,855.9155],[1.6619,42.0234,780.0463],[1.6559,42.0209,710.5406],[1.6545,42.016,627.2926],[1.6517,42.014,598.465],[1.6527,42.007,561.4821],[1.6487,42.0034,555.9761],[1.6479,42.0002,535.6992],[1.6517,41.9993,547.3375],[1.652,41.9925,521.6274],[1.6554,41.9935,524.9891],[1.6577,41.9983,554.9825],[1.6551,41.9996,558.2825],[1.657,42.0013,586.1703],[1.6548,42.0024,579.155],[1.6579,42.0051,600.1735],[1.6619,42.003,598.3344],[1.662,41.9911,557.1194],[1.6682,41.9904,559.069],[1.6766,41.9944,583.3966],[1.6848,41.9949,607.6738],[1.6897,41.9903,599.0471],[1.6911,41.9908,618.946],[1.6911,41.9866,611.3369],[1.6975,41.9852,588.4477],[1.6967,41.9915,617.7301],[1.6993,41.993,632.6937],[1.6909,42.006,714.8351],[1.6978,42.0147,853.2986],[1.7078,42.0075,757.2102],[1.7069,42.0028,706.6561],[1.7128,42.0028,733.0348],[1.718,41.9995,690.7485],[1.718,41.9972,687.678],[1.7156,41.9968,655.7001],[1.7175,41.993899999999996,690.1144],[1.7155,41.9912,636.1317],[1.713,41.992,655.6749],[1.7192,41.9845,600.8019],[1.7148,41.9813,643.576],[1.6963,41.975,559.5513],[1.6828,41.9674,557.9357],[1.6788,41.9689,563.0081],[1.6718,41.9683,499.7476],[1.6705,41.9706,505.1713],[1.6695,41.9699,504.7953],[1.6694,41.9733,526.8245],[1.6753,41.9826,554.9222],[1.6679,41.9846,544.125],[1.6599,41.983,516.1859],[1.6603,41.9777,502.8456],[1.6561,41.9791,517.019],[1.6556,41.9807,515.8724],[1.6501,41.9797,530.8621],[1.6514,41.9787,537.3018],[1.6443,41.969,574.8056],[1.6457,41.959,529.7876],[1.6494,41.9566,529.7341],[1.6474,41.9529,529.3008],[1.6504,41.9448,477.0575],[1.6447,41.9438,569.1214],[1.6427,41.9405,609.4708],[1.653,41.9288,557.6147],[1.65,41.9267,579.1733],[1.6432,41.9291,471.0087],[1.6383,41.9272,477.082],[1.6325,41.9209,502.7778],[1.6223,41.9155,554.2893],[1.6228,41.9134,588.6569],[1.6171,41.91,621.4845],[1.6159,41.906,649.4612],[1.6052,41.9015,685.0138],[1.6005,41.9046,674.1906],[1.5959,41.8972,697.8457],[1.5869,41.8886,700.9119],[1.5835,41.8885,702.2549],[1.5847,41.8908,727.8478],[1.5828,41.8929,745.9595],[1.5764,41.8916,724.3508],[1.569,41.88,674.6263],[1.5834,41.8734,653.7739],[1.6018,41.8843,645.3619],[1.6027,41.8825,649.0187],[1.6059,41.8841,637.1761],[1.611,41.8806,631.5266],[1.6191,41.8816,677.2063],[1.6187,41.8776,674.0787],[1.6227,41.8707,621.9931],[1.6256,41.8691,638.1848],[1.6281,41.8602,606.858],[1.6303,41.8588,586.1474],[1.6265,41.8487,528.0413],[1.6315,41.8447,498.2758],[1.6231,41.8411,504.967],[1.6193,41.8418,508.4717],[1.61,41.8361,521.2156],[1.6155,41.8303,637.7194],[1.6115,41.8178,740.8069],[1.6024,41.8136,724.3051],[1.5933,41.812,739.4317],[1.589,41.804,755.8665],[1.594,41.8019,724.7883],[1.595,41.7965,795.252],[1.5971,41.7965,808.1141],[1.598,41.794,840.1428],[1.5959,41.7942,832.7354],[1.5971,41.7913,896.0228],[1.5998,41.7891,836.9547],[1.5922,41.7808,845.2737],[1.5936,41.778,817.4409],[1.5814,41.7756,715.6276],[1.5726,41.7822,757.7203],[1.5689,41.7774,716.8314],[1.5612,41.7774,690.754],[1.5617,41.7702,823.859],[1.5483,41.7707,743.9202],[1.5447,41.7576,740.103],[1.5341,41.7573,707.2207],[1.5361,41.755,702.2907],[1.5352,41.7529,728.4095],[1.5307,41.7526,718.5854],[1.5282,41.7591,626.4708],[1.5328,41.7636,625.5287],[1.5275,41.764,595.4094],[1.5224,41.7664,576.1405],[1.5189,41.7709,556.1033],[1.5104,41.7713,543.7595],[1.5121,41.7726,566.104],[1.5083,41.7741,568.3602],[1.5049,41.7879,628.8603],[1.4964,41.7898,638.7034],[1.4886,41.7888,594.2975],[1.4825,41.791,514.1057],[1.4877,41.7774,563.1423],[1.4815,41.775,504.3184],[1.4839,41.772,519.0763],[1.4795,41.772,515.5448],[1.4786,41.7737,528.3885],[1.4683,41.771,558.3196],[1.4671,41.7756,519.4376],[1.4611,41.7767,488.6285],[1.4693,41.7792,489.8071],[1.4698,41.7819,492.4908],[1.4735,41.7826,497.0857],[1.4696,41.7874,539.7468],[1.4718,41.792,584.4885],[1.4711,41.801,629.0585],[1.4655,41.7984,597.5302],[1.4512,41.7978,640.3257],[1.4441,41.8004,596.9426],[1.4263,41.8019,544.7347],[1.417,41.7947,445.5615],[1.4196,41.792,449.2301],[1.4216,41.7932,451.3411],[1.4185,41.788,481.002],[1.4156,41.776,620.7084],[1.4109,41.775,580.7811],[1.4115,41.7663,600.3246],[1.4074,41.7527,666.1667],[1.4037,41.7489,656.8966],[1.403,41.7453,657.7219],[1.4113,41.7408,670.4752],[1.416,41.7405,678.7161],[1.422,41.7354,700.5902],[1.4253,41.7347,707.6674],[1.4249,41.7328,708.4941],[1.4199,41.7328,699.7012],[1.4157,41.7281,680.4404],[1.4008,41.7196,699.4844],[1.382,41.7058,653.564],[1.3979,41.7056,681.8259],[1.4004,41.7044,647.2506],[1.3959,41.6961,666.0746],[1.4042,41.6949,675.843],[1.4043,41.6862,621.0491],[1.4234,41.6841,666.3982],[1.419,41.6765,664.6454],[1.4151,41.6746,657.2649],[1.4254,41.6696,698.1718],[1.4257,41.6609,717.8212],[1.4331,41.6514,704.2832],[1.4449,41.6458,642.8705],[1.4502,41.6466,600.43],[1.4483,41.6361,659.9455],[1.4435,41.6345,744.9185],[1.4401,41.6356,755.4358],[1.4312,41.634,748.2846],[1.4303,41.6298,733.2807],[1.4239,41.6318,722.183],[1.4217,41.6348,733.6775],[1.3917,41.6341,635.86],[1.3874,41.631,672.4854],[1.3863,41.626,683.7571],[1.3693,41.6213,654.7198],[1.3689,41.6173,643.3816],[1.3596,41.6136,583.4708],[1.3686,41.6104,632.0912],[1.3697,41.613,635.1446],[1.3741,41.6117,645.4189],[1.3744,41.6076,640.7421],[1.3934,41.5995,765.8002],[1.4067,41.6005,785.989],[1.4071,41.5906,687.5127],[1.4018,41.5861,728.9519],[1.3956,41.5848,716.7753],[1.3927,41.5798,739.1609],[1.3929,41.5751,767.6526],[1.3955,41.5775,766.3442],[1.4106,41.5755,774.5109],[1.4122,41.5803,784.3544],[1.4155,41.5824,776.0194],[1.4197,41.5826,740.7228],[1.4332,41.5789,632.4241],[1.4353,41.5766,644.7021],[1.4475,41.5738,636.1897],[1.4545,41.5692,723.654],[1.4396,41.563,723.8687],[1.4311,41.5557,736.7505],[1.4337,41.5505,767.4359],[1.4467,41.5524,762.2316],[1.4493,41.5454,731.8183],[1.4486,41.5371,733.4682],[1.4362,41.5393,729.5164],[1.4256,41.5319,772.8624],[1.4087,41.535,674.077],[1.4049,41.5308,654.939],[1.3996,41.5285,643.6543],[1.4006,41.5212,650.1067],[1.3978,41.5194,612.7654],[1.3988,41.5158,610.4277],[1.3964,41.5129,605.0718],[1.401,41.5121,626.2623],[1.4046,41.5066,679.5179],[1.408,41.5052,698.5487],[1.4153,41.5054,669.0908],[1.4188,41.5023,635.58],[1.4218,41.5034,610.8405],[1.4226,41.4997,598.6782],[1.437,41.4983,703.7967],[1.4461,41.4948,635.4766],[1.4498,41.4922,646.7373],[1.452,41.4864,754.3937],[1.46,41.4883,813.6023],[1.464,41.4868,839.124],[1.4656,41.484,870.2418],[1.474,41.4863,829.3605],[1.4762,41.4826,782.7927],[1.4747,41.4795,768.1223],[1.4796,41.4761,626.6394],[1.4846,41.4749,579.4586],[1.4872,41.4663,590.1829],[1.4832,41.4579,713.4694],[1.4685,41.444,757.3722],[1.4757,41.4361,794.9842],[1.4952,41.4356,910.0739],[1.4912,41.4354,862.2437],[1.4834,41.4303,826.4118],[1.4777,41.4332,828.7258],[1.4751,41.4295,831.3761],[1.4771,41.4235,729.1795],[1.4838,41.4222,705.2051],[1.4818,41.4167,674.365],[1.485,41.4135,686.7119],[1.4902,41.4015,787.2656],[1.4825,41.3986,660.2141],[1.4803,41.3879,687.7684],[1.4731,41.3808,561.3582],[1.4775,41.383,645.6426],[1.4786,41.3819,643.1919],[1.4847,41.3824,702.092],[1.4949,41.39,713.5947],[1.5052,41.3915,654.3192],[1.5093,41.3945,749.9821],[1.5119,41.3944,770.6748],[1.5189,41.3888,589.2278],[1.5311,41.3877,642.9173],[1.5368,41.3854,658.0939],[1.5457,41.3792,573.2417],[1.5468,41.3737,502.0743],[1.5522,41.3681,461.663],[1.5598,41.368,469.6344],[1.563,41.3698,408.972],[1.5694,41.3684,392.8593],[1.5705,41.3614,372.7086],[1.5741,41.3633,355.4948],[1.578,41.3625,364.1467],[1.5788,41.3564,312.2453],[1.5736,41.3554,343.6564],[1.5587,41.3432,541.3363],[1.5658,41.3397,463.0236],[1.5692,41.3326,402.4799],[1.5686,41.3305,366.2708],[1.5737,41.3249,290.4296],[1.5748,41.3152,254.8406],[1.5783,41.3159,227.9614],[1.5924,41.3116,201.42],[1.595,41.3094,207.9894],[1.5957,41.3076,206.2541],[1.5882,41.294,162.1296],[1.5959,41.2923,162.5225],[1.599,41.2893,155.0907],[1.6042,41.289,152.0404],[1.6028,41.2868,151.3867],[1.6074,41.2873,148.1946],[1.6089,41.2854,149.046],[1.6121,41.2852,146.6902],[1.6164,41.2931,144.8369],[1.6249,41.2967,157.9336],[1.6278,41.296,155.1569],[1.6312,41.2989,155.4871],[1.6368,41.296,148.5787],[1.6334,41.2945,144.188],[1.6278,41.2947,145.6436],[1.6292,41.2828,154.4757],[1.62,41.2771,128.85],[1.6238,41.2763,121.7898],[1.6236,41.2738,118.8816],[1.6259,41.273,117.2224],[1.6275,41.2696,125.7603],[1.6229,41.2668,125.8676],[1.6223,41.2639,134.1915],[1.6239,41.2626,157.2218],[1.621,41.2565,188.9636],[1.622,41.255,197.8377],[1.6197,41.2537,185.5879],[1.6177,41.2547,178.8429],[1.6166,41.2525,184.1928],[1.6114,41.2506,164.3844],[1.606,41.2504,172.2338],[1.6025,41.2534,150.0412],[1.597,41.2534,133.928],[1.5992,41.2563,132.6038],[1.595,41.2555,123.9834],[1.5962,41.2567,127.7489],[1.5935,41.258,119.1952],[1.5943,41.259,124.3973],[1.5851,41.2575,116.4298],[1.5702,41.2608,135.4145],[1.575,41.2562,114.5432],[1.5756,41.2497,101.7469],[1.5817,41.2372,89.7678],[1.5936,41.234,103.3652],[1.6026,41.2349,144.2343],[1.6142,41.2296,212.5654],[1.6142,41.226,192.6021],[1.6214,41.2232,164.2531],[1.6311,41.2245,124.1512],[1.6341,41.231,176.9126],[1.641,41.2354,166.7097],[1.6461,41.2288,131.7001],[1.644,41.2204,150.9564],[1.6476,41.2165,105.7424],[1.6479,41.2123,77.4264],[1.6532,41.2074,31.3394],[1.6463,41.2086,45.5856],[1.6466,41.2119,58.4628],[1.6413,41.2118,79.3559],[1.6408,41.2038,26.8662],[1.6452,41.1957,1.9817],[1.6543,41.1963,0.6702],[1.6535,41.1943,0.0695],[1.6487,41.1926,0.0],[1.6571,41.1935,0.0],[1.656,41.196,0.4257],[1.659,41.1968,0.3626],[1.6735,41.1974,0.2377],[1.6879,41.204,1.4054],[1.6888,41.206,2.198],[1.6965,41.2079,2.3225],[1.7076,41.2071,0.8149],[1.7107,41.2096,3.6374],[1.7218,41.2132,1.7536],[1.7276,41.2129,0.206],[1.7285,41.2115,0.5455],[1.7271,41.2099,0.0],[1.7293,41.2076,0.0],[1.729,41.2096,1.7744],[1.7315,41.2129,0.0],[1.7307,41.2151,0.0],[1.7359,41.2154,0.3054],[1.7371,41.2113,2.2124],[1.7343,41.2113,0.5084],[1.7335,41.2085,0.0],[1.729,41.2065,0.0],[1.7313,41.2057,0.0],[1.7351,41.2099,0.3746],[1.7388,41.2104,0.0],[1.7365,41.2163,2.6146],[1.7515,41.2176,4.2258],[1.7524,41.2193,5.1667],[1.7624,41.2182,0.0],[1.7629,41.2196,2.8488],[1.7713,41.2204,0.0],[1.7771,41.2235,0.0],[1.7843,41.2232,0.0],[1.7971,41.2307,3.9937],[1.8062,41.2343,4.8725],[1.8126,41.234,8.1227],[1.814,41.236,4.8471],[1.8207,41.2357,8.3849],[1.821,41.2329,0.0],[1.8246,41.2318,0.0],[1.8274,41.2332,0.0],[1.8282,41.236,6.2295],[1.8549,41.2337,0.0],[1.8562,41.2354,0.0],[1.8604,41.2357,7.3549],[1.8618,41.239,5.4493],[1.8663,41.239,0.0],[1.8651,41.2363,0.0],[1.8663,41.2363,0.0],[1.8679,41.2371,0.0],[1.8671,41.2399,0.0],[1.8693,41.2421,11.7062],[1.8929,41.2493,62.9068],[1.9007,41.2487,0.0],[1.9037,41.254,10.1392],[1.9182,41.2568,0.0],[1.9218,41.2593,2.2452],[1.9232,41.2585,0.0],[1.9229,41.2562,0.0],[1.9243,41.2565,0.0],[1.9299,41.2585,0.0],[1.9285,41.2612,1.0197],[1.9321,41.2626,2.8928],[1.9515,41.2649,0.8097],[1.9985,41.2647,0.9499]],
[[1.6333,41.3135,153.3088],[1.6425,41.313,151.14],[1.6354,41.3095,147.7818],[1.629,41.3107,148.6482],[1.6333,41.3135,153.3088]],
[[1.7183,41.8929,376.4971],[1.72,41.8954,387.4103],[1.7249,41.8931,438.2283],[1.7188,41.8824,347.2243],[1.7156,41.8859,379.13],[1.706,41.8894,395.036],[1.7097,41.8888,364.586],[1.7118,41.8911,358.7773],[1.7089,41.8939,356.5805],[1.7087,41.8969,358.6416],[1.7117,41.8962,361.8146],[1.7153,41.8922,368.7641],[1.7183,41.8929,376.4971]],
[[2.0025,42.1256,938.1146],[2.0175,42.1262,902.3176],[2.0218,42.1277,842.0305],[2.0204,42.1313,887.1429],[2.026,42.1309,853.0009],[2.0314,42.127,872.7067],[2.0298,42.1213,774.6832],[2.0197,42.1211,793.735],[2.0209,42.117,847.9706],[2.0176,42.1103,699.3524],[2.0149,42.1084,704.9223],[2.0076,42.1073,698.4835],[2.0066,42.1159,871.3306],[2.0013,42.1203,880.0361],[2.006,42.1213,801.2978],[2.0025,42.1256,938.1146]]],
[[[2.171,41.3376,0.0],[2.1726,41.3374,0.0],[2.1732,41.3393,0.0],[2.1713,41.3396,0.0],[2.171,41.3376,0.0]]],
[[[1.6879,42.1065,899.1437],[1.6919,42.1103,943.1432],[1.6917,42.1129,1158.9745],[1.6832,42.1145,1175.1357],[1.664,42.1136,1123.9539],[1.656,42.1154,1283.0983],[1.6554,42.1135,1205.928],[1.6519,42.1145,1247.8461],[1.6449,42.1126,1209.5686],[1.6676,42.1049,1211.2906],[1.6794,42.1036,1137.7964],[1.6894,42.1049,902.6677],[1.6879,42.1065,899.1437]]]]}
,"properties": {"GID_2": "ESP.6.1_1","GID_0": "ESP","country": "Spain","GID_1": "ESP.6_1","province": "Cataluña","NL_NAME_1": "NA","county": "Barcelona","VARNAME_2": "NA","NL_NAME_2": "NA","TYPE_2": "Provincia","ENGTYPE_2": "Province","CC_2": "08","HASC_2": "ES.CT.BR","name": "Barcelona.county","area_km2": 7719.177,"hist_schema_id": "Elevation0-9000","hist_area_km2": {"0": 145.313,"25": 125.354,"50": 130.366,"75": 136.175,"100": 153.187,"125": 168.699,"150": 194.962,"175": 219.743,"200": 238.635,"225": 250.537,"250": 252.294,"275": 242.13,"300": 210.989,"325": 195.983,"350": 184.669,"375": 188.564,"400": 196.389,"425": 192.098,"450": 205.788,"475": 236.581,"500": 250.059,"525": 249.449,"550": 255.617,"575": 259.32,"600": 253.546,"625": 249.039,"650": 240.683,"675": 228.399,"700": 211.898,"725": 184.748,"750": 151.9,"775": 128.979,"800": 111.857,"825": 97.74,"850": 82.315,"875": 72.887,"900": 63.354,"925": 54.389,"950": 47.684,"975": 44.426,"1000": 39.347,"1025": 35.73,"1050": 31.375,"1075": 29.339,"1100": 27.653,"1125": 25.389,"1150": 24.998,"1175": 23.797,"1200": 23.245,"1225": 23.602,"1250": 22.373,"1275": 21.173,"1300": 20.243,"1325": 17.221,"1350": 15.947,"1375": 14.187,"1400": 13.919,"1425": 13.841,"1450": 12.222,"1475": 12.348,"1500": 10.541,"1525": 10.023,"1550": 9.096,"1575": 8.986,"1600": 8.074,"1625": 7.524,"1650": 8.2,"1675": 7.224,"1700": 7.38,"1725": 5.951,"1750": 5.574,"1775": 5.008,"1800": 4.286,"1825": 4.819,"1850": 4.489,"1875": 4.724,"1900": 4.63,"1925": 4.363,"1950": 4.112,"1975": 4.347,"2000": 3.233,"2025": 3.186,"2050": 2.495,"2075": 2.448,"2100": 2.118,"2125": 2.322,"2150": 2.291,"2175": 2.354,"2200": 2.291,"2225": 1.836,"2250": 1.742,"2275": 1.49,"2300": 1.114,"2325": 0.941,"2350": 1.098,"2375": 1.129,"2400": 1.02,"2425": 0.8,"2450": 0.423,"2475": 0.392,"2500": 0.282,"2525": 0.11}}}