{"type": "Feature","id": "5809","bbox": [1.36998,41.19217,2.7785,42.31837],"geometry": {"type": "Polygon","coordinates": [[[1.98732,42.29416,1853.7437],[1.97309,42.29496,1805.9614],[1.93824,42.31429,2132.7295],[1.91391,42.31837,2238.0027],[1.84255,42.30631,2232.3062],[1.71559,42.28812,2440.6416],[1.68632,42.26212,1833.3489],[1.6832,42.25611,1991.8154],[1.68313,42.24935,2061.9797],[1.69063,42.21236,1233.4551],[1.69502,42.206,1202.7816],[1.70106,42.20105,1336.9415],[1.73207,42.18937,2156.3735],[1.7358,42.18543,2167.5527],[1.73809,42.17718,1584.4542],[1.73717,42.16829,1465.5093],[1.73352,42.16005,1426.5544],[1.72772,42.15376,1280.9193],[1.71607,42.14853,1393.0754],[1.7126,42.14588,1314.1418],[1.70818,42.13887,1220.9514],[1.70702,42.13484,1042.9065],[1.70675,42.13079,942.2385],[1.7157,42.10481,1000.4023],[1.71258,42.09602,1265.3538],[1.70706,42.09225,1146.6288],[1.69412,42.08878,1115.3512],[1.69014,42.08469,1161.9403],[1.68944,42.07926,1311.2958],[1.69313,42.06187,937.4571],[1.69238,42.05165,965.7817],[1.68878,42.04188,906.368],[1.68261,42.03356,768.8241],[1.66085,42.01843,791.9896],[1.65784,42.01168,703.0905],[1.65978,42.00359,580.718],[1.66408,41.99892,599.9247],[1.66914,41.99762,607.9946],[1.69379,42.00563,725.4767],[1.70049,42.00578,755.2847],[1.70728,42.00322,722.2356],[1.71436,41.99605,696.2415],[1.71581,41.98789,634.6327],[1.71236,41.98004,644.371],[1.70469,41.97376,583.5105],[1.69408,41.97011,565.5819],[1.66246,41.97034,501.6876],[1.65345,41.9681,560.6084],[1.64624,41.96159,534.851],[1.64356,41.95443,543.52],[1.64319,41.92916,471.0087],[1.61561,41.89569,594.9473],[1.61462,41.88417,661.8386],[1.63323,41.84872,538.712],[1.63392,41.83849,563.5792],[1.63022,41.82905,678.9943],[1.56024,41.76784,771.8299],[1.55308,41.76372,671.7006],[1.54343,41.76374,645.7195],[1.51942,41.77997,572.6594],[1.51047,41.78132,571.4829],[1.48224,41.77684,538.134],[1.47406,41.78004,495.8396],[1.45583,41.79878,614.5273],[1.44464,41.80202,579.916],[1.43227,41.80145,558.4489],[1.42076,41.79716,458.2682],[1.41219,41.78925,493.011],[1.40949,41.78254,570.9916],[1.40681,41.70415,699.7339],[1.43851,41.64351,744.9676],[1.43684,41.63676,747.1063],[1.38945,41.62852,665.1993],[1.3742,41.61934,640.7768],[1.36998,41.60293,620.929],[1.38872,41.60037,729.7174],[1.40709,41.59046,687.5127],[1.39268,41.57503,767.6526],[1.41841,41.57612,691.6339],[1.43111,41.57396,633.7605],[1.43662,41.56666,700.2961],[1.42766,41.5524,783.0129],[1.39742,41.52125,618.6757],[1.40472,41.50668,679.5179],[1.45897,41.49063,720.3695],[1.48277,41.4766,580.227],[1.48096,41.45412,735.3947],[1.47187,41.42664,742.427],[1.48527,41.40752,729.827],[1.53682,41.38524,658.0939],[1.55963,41.36626,464.2462],[1.56345,41.35825,378.9405],[1.56606,41.33411,359.9296],[1.58608,41.30103,183.0684],[1.6086,41.28849,149.9846],[1.61394,41.28179,138.0345],[1.6155,41.2724,126.7162],[1.61216,41.26479,137.2595],[1.6055,41.25897,141.8799],[1.57896,41.24921,102.716],[1.57468,41.24525,90.7786],[1.57393,41.23435,83.4011],[1.58424,41.22884,112.7293],[1.61724,41.22592,155.4268],[1.62423,41.22317,154.1716],[1.62783,41.21798,97.5288],[1.62436,41.19217,4.2998],[1.81983,41.23713,25.7195],[1.85401,41.23599,75.7503],[1.86378,41.2381,0.0],[1.88413,41.2475,38.6373],[1.95135,41.26069,0.0],[2.0197,41.26586,1.181],[2.06031,41.2746,2.3682],[2.13054,41.30366,0.554],[2.16326,41.32665,0.0],[2.19191,41.35676,0.0],[2.24041,41.42097,0.0],[2.26734,41.44864,0.0],[2.29672,41.46532,0.0],[2.37135,41.4892,0.0],[2.42897,41.51895,0.0],[2.44947,41.53522,0.8465],[2.65187,41.60529,0.0],[2.7785,41.64558,0.0],[2.76078,41.67354,9.8422],[2.7596,41.68282,12.4135],[2.76226,41.68736,24.9779],[2.77153,41.69549,43.2691],[2.77403,41.70038,63.1621],[2.76777,41.72134,157.0533],[2.74793,41.73573,139.9321],[2.7015,41.74885,60.6336],[2.68399,41.74968,112.6982],[2.66784,41.74719,85.7894],[2.63699,41.73322,64.0932],[2.54743,41.71916,96.0158],[2.4366,41.80287,1216.0522],[2.39454,41.80431,1568.95],[2.3709,41.7983,1271.4982],[2.3627,41.79867,1146.5264],[2.34605,41.80792,1142.5717],[2.32968,41.82548,1110.4495],[2.31795,41.84619,701.503],[2.31531,41.86485,735.1556],[2.3246,41.87938,778.8967],[2.33175,41.88672,738.6696],[2.33755,41.88909,769.2636],[2.38285,41.87147,686.5984],[2.39351,41.87381,825.5565],[2.42443,41.88902,907.1646],[2.44275,41.88764,960.733],[2.46226,41.91061,902.9641],[2.46297,41.9209,979.3857],[2.45235,41.93219,943.8012],[2.44416,41.93802,879.0347],[2.43928,41.94343,813.5396],[2.43985,41.94942,786.3115],[2.48938,41.99087,434.934],[2.49931,42.00506,588.0477],[2.50265,42.02594,975.5579],[2.4943,42.04677,1066.3252],[2.47843,42.06382,1028.2705],[2.45914,42.07336,923.1805],[2.41955,42.07324,1076.5801],[2.40544,42.08108,1130.1007],[2.36589,42.12135,1150.3777],[2.32717,42.11264,1073.9077],[2.3078,42.11296,1062.335],[2.29408,42.12344,1021.4716],[2.28639,42.13833,1146.9252],[2.28015,42.14345,1215.97],[2.23129,42.14215,706.6736],[2.2199,42.13829,725.3466],[2.20861,42.12991,618.3568],[2.20417,42.128,615.4293],[2.15889,42.12763,817.6822],[2.12933,42.11959,823.3206],[2.12408,42.12095,892.329],[2.09804,42.13729,1078.5845],[2.0909,42.13837,1077.6917],[2.07354,42.13596,1033.1918],[2.06555,42.13715,962.2622],[2.05884,42.14344,854.3416],[2.05561,42.15296,816.2265],[2.05419,42.1853,1049.6808],[2.05087,42.19681,1020.3186],[2.04575,42.20414,1144.4504],[2.02525,42.22344,1005.6575],[2.02389,42.22734,1016.446],[2.02918,42.25132,1050.519],[2.04311,42.26483,1290.8245],[2.04672,42.27273,1267.7297],[2.04617,42.28293,1510.5779],[2.04388,42.28911,1717.3359],[2.04065,42.29352,1824.6705],[2.03613,42.2966,1770.8398],[2.02997,42.29872,1720.8984],[2.01595,42.2994,1868.8177],[1.98732,42.29416,1853.7437]]]}
,"properties": {"ISO3166-1-Alpha-3": "ESP","country": "Spain","fill": "#F0F","name": "Barcelona","area_km2": 7742.081,"hist_schema_id": "Elevation0-9000","hist_area_km2": {"0": 179.45,"25": 124.752,"50": 131.86,"75": 136.865,"100": 154.383,"125": 171.328,"150": 198.565,"175": 220.097,"200": 239.276,"225": 250.635,"250": 251.835,"275": 241.846,"300": 210.831,"325": 196.221,"350": 185.57,"375": 189.498,"400": 196.897,"425": 192.699,"450": 206.326,"475": 236.944,"500": 250.043,"525": 248.314,"550": 254.434,"575": 258.14,"600": 251.699,"625": 246.861,"650": 237.745,"675": 225.999,"700": 209.578,"725": 182.882,"750": 152.308,"775": 131.414,"800": 114.178,"825": 99.238,"850": 83.512,"875": 74.16,"900": 63.527,"925": 53.662,"950": 46.61,"975": 43.274,"1000": 38.305,"1025": 34.594,"1050": 30.365,"1075": 29.682,"1100": 27.524,"1125": 25.936,"1150": 25.577,"1175": 24.549,"1200": 23.351,"1225": 23.41,"1250": 21.867,"1275": 20.81,"1300": 19.676,"1325": 16.954,"1350": 15.806,"1375": 13.857,"1400": 13.715,"1425": 13.48,"1450": 11.939,"1475": 12.002,"1500": 10.195,"1525": 9.834,"1550": 8.938,"1575": 8.891,"1600": 7.917,"1625": 7.383,"1650": 8.011,"1675": 7.067,"1700": 7.349,"1725": 5.951,"1750": 5.433,"1775": 4.867,"1800": 4.333,"1825": 4.443,"1850": 3.956,"1875": 3.94,"1900": 3.721,"1925": 3.61,"1950": 3.61,"1975": 3.783,"2000": 2.998,"2025": 3.171,"2050": 2.496,"2075": 2.511,"2100": 2.15,"2125": 2.307,"2150": 2.228,"2175": 2.213,"2200": 2.087,"2225": 1.883,"2250": 1.601,"2275": 1.396,"2300": 0.957,"2325": 0.753,"2350": 0.847,"2375": 0.627,"2400": 0.549,"2425": 0.408,"2450": 0.314,"2475": 0.251,"2500": 0.188}}}