{"type":"Feature","properties":{"GID_3":"ESP.5.7.7_1","GID_0":"ESP","country":"Spain","GID_1":"ESP.5_1","province":"CastillayLeón","NL_NAME_1":"NA","GID_2":"ESP.5.7_1","county":"Soria","NL_NAME_2":"NA","city":"n.a.(239)","VARNAME_3":"NA","NL_NAME_3":"NA","TYPE_3":"Comarca","ENGTYPE_3":"Comarca","CC_3":"NA","HASC_3":"NA","name":"n.a.(239).city"},
"geometry":{"type": "MultiPolygon","coordinates": [[[[-2.9534,41.6716,1066.4033],[-2.9497,41.6787,1075.9957],[-2.9459,41.6803,1084.8252],[-2.9427,41.6885,1079.7454],[-2.9339,41.6912,1100.6846],[-2.9296,41.6957,1102.3522],[-2.9294,41.7,1084.4277],[-2.9185,41.7184,1022.5038],[-2.8881,41.7125,1000.4456],[-2.8842,41.7159,1076.2971],[-2.8779,41.7166,1077.8553],[-2.865,41.7118,1030.7236],[-2.8655,41.7103,1026.257],[-2.864,41.7101,1007.9586],[-2.8523,41.7125,999.6973],[-2.8472,41.7163,999.2726],[-2.8442,41.7162,1001.5449],[-2.8435,41.7179,1021.4921],[-2.8307,41.7244,1053.6016],[-2.8314,41.7271,1081.1991],[-2.8243,41.7294,1062.4563],[-2.8226,41.733,1066.967],[-2.818,41.7335,1073.0978],[-2.8175,41.7384,1098.3698],[-2.8135,41.7411,1094.2405],[-2.8116,41.7471,1109.3231],[-2.7983,41.753,1120.6859],[-2.7953,41.7592,1129.3516],[-2.8011,41.7605,1135.2559],[-2.7995,41.7692,1149.9279],[-2.7866,41.7707,1153.7567],[-2.7678,41.7814,1217.3148],[-2.764,41.7867,1190.8595],[-2.7621,41.7932,1261.9769],[-2.7493,41.8045,1201.5159],[-2.7464,41.8053,1207.2533],[-2.7445,41.8189,1145.7941],[-2.7536,41.8186,1143.0018],[-2.753,41.8279,1101.7528],[-2.7461,41.8415,1082.6423],[-2.7343,41.8465,1092.1746],[-2.7405,41.8503,1079.0],[-2.7283,41.8526,1079.0],[-2.7251,41.8479,1079.0],[-2.7194,41.8493,1103.9446],[-2.7188,41.8513,1101.3689],[-2.7267,41.8563,1079.0],[-2.7269,41.8587,1079.0],[-2.7182,41.8644,1079.0],[-2.7063,41.8661,1099.3248],[-2.7054,41.87,1093.9871],[-2.7084,41.8702,1079.0],[-2.7031,41.8788,1080.4205],[-2.6969,41.8791,1053.6299],[-2.7029,41.8807,1092.1355],[-2.7112,41.8864,1182.3979],[-2.7147,41.8978,1336.2991],[-2.7122,41.8974,1311.3809],[-2.7219,41.9148,1345.8694],[-2.7098,41.9264,1671.8038],[-2.7137,41.929,1674.2666],[-2.719,41.9417,1675.7871],[-2.7314,41.9579,1820.4581],[-2.7346,41.9682,1809.3214],[-2.7445,41.9839,1898.621],[-2.7473,41.991,1895.845],[-2.7487,42.0151,2019.7026],[-2.7557,42.0239,1935.1968],[-2.755,42.03,1970.0735],[-2.7575,42.0326,1978.2627],[-2.7384,42.0497,1853.3761],[-2.7345,42.06,1829.0668],[-2.7273,42.0656,1844.4482],[-2.7255,42.0713,1802.2483],[-2.7225,42.0725,1723.6099],[-2.7084,42.0863,1650.6631],[-2.7075,42.0905,1462.144],[-2.7104,42.0964,1270.821],[-2.7088,42.1014,1135.4133],[-2.706,42.1025,1111.002],[-2.7067,42.1057,1158.0845],[-2.7222,42.1157,1215.6328],[-2.7284,42.1229,1299.2278],[-2.7384,42.1248,1347.165],[-2.7463,42.1239,1384.2521],[-2.7511,42.1178,1501.8441],[-2.7654,42.1248,1609.9724],[-2.7748,42.1235,1618.2345],[-2.7821,42.1141,1648.5479],[-2.7915,42.1087,1638.7621],[-2.7932,42.101,1667.6899],[-2.7901,42.0976,1589.1987],[-2.7901,42.0942,1607.1532],[-2.8033,42.0805,1640.1921],[-2.8032,42.0781,1664.7531],[-2.7984,42.0754,1661.4349],[-2.7968,42.0725,1672.0054],[-2.7949,42.0635,1753.5881],[-2.7983,42.0593,1804.9565],[-2.7979,42.0468,1879.986],[-2.8041,42.0463,1848.7902],[-2.8126,42.0366,1871.8862],[-2.8236,42.041,1821.6313],[-2.8402,42.0345,1879.5354],[-2.8446,42.0345,1879.0464],[-2.8567,42.0288,1910.601],[-2.8582,42.0227,1997.0386],[-2.8623,42.0192,2007.1068],[-2.8678,42.0178,2087.0356],[-2.8695,42.015,2066.3428],[-2.8838,42.0095,2129.7227],[-2.8894,42.0104,2142.1238],[-2.8911,42.017,2084.1108],[-2.9136,42.0228,2033.8048],[-2.9321,42.018,2043.8103],[-2.9374,42.008,1890.2567],[-2.9505,41.993899999999996,1600.9326],[-2.9517,41.9881,1525.0665],[-2.9657,41.966,1243.7205],[-2.9675,41.958,1179.5586],[-2.9599,41.9513,1164.3025],[-2.9644,41.9368,1273.8792],[-2.9707,41.9293,1417.0928],[-2.9824,41.9282,1411.8568],[-2.9875,41.9315,1392.6147],[-2.9984,41.9326,1464.8794],[-3.008,41.9222,1354.6853],[-3.0112,41.9142,1342.6326],[-3.0077,41.9088,1347.1174],[-3.0164,41.8984,1256.8857],[-3.0149,41.8962,1254.0203],[-3.0167,41.8869,1327.988],[-3.0341,41.8891,1311.9458],[-3.0381,41.8858,1295.2134],[-3.0446,41.8873,1308.7637],[-3.0452,41.8895,1324.2839],[-3.0586,41.8913,1312.7836],[-3.0635,41.8834,1280.1821],[-3.0754,41.8831,1270.7063],[-3.0877,41.8763,1218.33],[-3.0917,41.8759,1206.1423],[-3.0955,41.8816,1178.1261],[-3.0971,41.8811,1173.5643],[-3.1012,41.8773,1137.0265],[-3.1011,41.8713,1112.95],[-3.0967,41.8659,1122.9641],[-3.0971,41.8614,1108.5818],[-3.1008,41.8563,1101.1522],[-3.1076,41.8545,1093.0001],[-3.1125,41.8507,1073.6919],[-3.1135,41.8473,1065.3387],[-3.1369,41.8178,1035.1459],[-3.1341,41.8157,1043.6886],[-3.1362,41.8146,1044.8936],[-3.1361,41.8119,1057.1957],[-3.1267,41.808,1048.8306],[-3.1275,41.8057,1045.3612],[-3.1235,41.8048,1050.4895],[-3.1241,41.8015,1023.3987],[-3.121,41.7996,1021.4832],[-3.1204,41.7969,1056.5847],[-3.1161,41.7972,1025.6603],[-3.1131,41.7939,1010.876],[-3.1095,41.7939,1017.9405],[-3.1032,41.7902,1004.1453],[-3.1002,41.7855,1011.3127],[-3.1035,41.7826,1004.8771],[-3.0979,41.7813,1008.3559],[-3.0941,41.776,1003.8944],[-3.0904,41.774,1001.3885],[-3.0912,41.7721,1009.9883],[-3.0878,41.7718,994.7255],[-3.0916,41.7692,1017.2825],[-3.0865,41.7662,991.2689],[-3.0896,41.7639,1008.1896],[-3.0854,41.763,1012.7726],[-3.0814,41.76,989.0889],[-3.0825,41.7584,1018.7554],[-3.0718,41.7536,1020.7817],[-3.0722,41.7511,1034.2334],[-3.0691,41.7477,1060.9683],[-3.0299,41.7346,1001.2044],[-3.0242,41.7383,1017.1904],[-2.9986,41.7474,1012.5311],[-2.9928,41.7312,1098.9802],[-3.0011,41.7092,1008.2735],[-2.9854,41.6958,1111.3749],[-2.9769,41.6729,1040.1467],[-2.9603,41.6631,1051.2063],[-2.961,41.6673,1067.1063],[-2.9534,41.6716,1066.4033]]]]}}