{"type": "Feature","bbox": [-6.4796,41.1401,-5.7548,41.5816],"geometry": {"type": "MultiPolygon","coordinates": [[[[-5.945,41.1442,809.1817],[-5.9476,41.1478,815.2535],[-5.944,41.1505,813.3422],[-5.9337,41.1515,813.7525],[-5.9366,41.1587,816.251],[-5.9315,41.1577,824.019],[-5.9305,41.1595,829.8276],[-5.9324,41.1661,826.4199],[-5.922,41.1758,847.2189],[-5.9155,41.1743,859.9101],[-5.913,41.1783,852.3642],[-5.9151,41.1824,865.7237],[-5.9138,41.1838,861.6058],[-5.9159,41.1875,860.0122],[-5.9177,41.2049,876.2829],[-5.9212,41.2181,866.6873],[-5.9131,41.228,892.869],[-5.9134,41.2308,893.0755],[-5.8976,41.2386,967.0814],[-5.8912,41.2358,975.9644],[-5.8778,41.2374,955.2316],[-5.8692,41.2327,951.2748],[-5.8646,41.228,946.5209],[-5.861,41.2285,948.7951],[-5.8557,41.2246,945.0931],[-5.8506,41.2251,938.7885],[-5.8351,41.2203,922.9673],[-5.8086,41.2245,914.0548],[-5.8042,41.2208,913.2451],[-5.7958,41.2195,907.6904],[-5.7907,41.216,904.9464],[-5.7652,41.2158,883.002],[-5.756,41.2237,871.4307],[-5.7574,41.2276,878.8655],[-5.7548,41.2382,872.2456],[-5.7564,41.243,865.595],[-5.7558,41.2539,852.8271],[-5.7624,41.2685,862.9531],[-5.7599,41.2795,872.5479],[-5.7819,41.284,890.9108],[-5.7625,41.3161,847.9911],[-5.7664,41.3213,817.2553],[-5.7722,41.3241,793.995],[-5.7749,41.3349,777.1465],[-5.7715,41.3402,788.1523],[-5.7789,41.3448,777.9615],[-5.7828,41.3417,770.539],[-5.7857,41.342,753.2212],[-5.7867,41.34,752.3296],[-5.8064,41.3417,785.0909],[-5.8081,41.3473,766.288],[-5.8047,41.356,768.6122],[-5.7985,41.3625,765.3423],[-5.7986,41.3652,754.5573],[-5.8018,41.3678,744.9526],[-5.8016,41.3743,762.6501],[-5.7997,41.3754,750.4022],[-5.7994,41.3783,748.7702],[-5.8109,41.3778,736.8037],[-5.8123,41.3872,741.4193],[-5.8151,41.388,747.822],[-5.8131,41.391,743.0685],[-5.815,41.3926,735.6387],[-5.82,41.3955,704.106],[-5.8313,41.3951,720.0721],[-5.8176,41.409,706.4001],[-5.817,41.4124,723.1591],[-5.819,41.4157,728.2491],[-5.8129,41.4212,724.1751],[-5.8138,41.4282,711.764],[-5.816,41.4294,712.6599],[-5.8223,41.4281,703.6149],[-5.8308,41.4343,730.4006],[-5.8395,41.4356,694.122],[-5.8346,41.4425,673.4622],[-5.83,41.4453,667.9006],[-5.8334,41.4465,661.7371],[-5.834,41.4506,729.3773],[-5.8314,41.453,739.0731],[-5.8274,41.4517,737.9296],[-5.8149,41.4611,697.5026],[-5.8112,41.4609,701.8802],[-5.8103,41.4653,689.0164],[-5.8129,41.4724,695.8488],[-5.8202,41.4773,682.3781],[-5.8296,41.4777,618.3756],[-5.8378,41.4696,613.8781],[-5.8487,41.4669,620.568],[-5.8542,41.4669,624.7845],[-5.8629,41.4725,612.0],[-5.8641,41.4757,613.9541],[-5.863,41.4875,609.6682],[-5.8658,41.4934,622.5753],[-5.8563,41.5041,607.8091],[-5.8556,41.5095,610.5739],[-5.8595,41.5181,620.8386],[-5.8641,41.5195,610.3428],[-5.8704,41.5142,622.5901],[-5.8798,41.502,604.1003],[-5.8853,41.4899,606.3029],[-5.8839,41.4757,608.9044],[-5.8808,41.4696,613.6055],[-5.8818,41.4665,649.2546],[-5.8918,41.4639,614.3663],[-5.8953,41.4599,629.9839],[-5.888,41.4481,604.0207],[-5.8909,41.4439,640.9543],[-5.9036,41.4393,627.0532],[-5.9124,41.4399,607.5415],[-5.9156,41.4368,664.4384],[-5.9149,41.4313,599.6849],[-5.9204,41.4315,599.0],[-5.927,41.4337,620.1953],[-5.9563,41.4535,613.5997],[-5.971,41.4547,613.6094],[-5.9855,41.4608,644.5782],[-6.0019,41.4565,617.2473],[-6.0178,41.4585,609.999],[-6.0328,41.466,619.1157],[-6.0475,41.4712,614.1481],[-6.0526,41.4714,608.4309],[-6.0703,41.4822,608.5677],[-6.0805,41.4943,596.5],[-6.0849,41.4917,592.2977],[-6.086,41.4882,570.085],[-6.0905,41.4893,575.5303],[-6.0924,41.4919,568.1277],[-6.0849,41.5017,578.399],[-6.0837,41.5153,588.7037],[-6.0875,41.5194,608.3947],[-6.0916,41.5207,609.3488],[-6.0972,41.5191,577.1121],[-6.1062,41.5209,593.3616],[-6.11,41.5247,593.9326],[-6.1081,41.5533,565.0961],[-6.1274,41.5579,584.7974],[-6.1307,41.5638,652.2461],[-6.148,41.5675,570.3506],[-6.1502,41.5771,562.5],[-6.1588,41.5816,562.25],[-6.1733,41.5812,609.0756],[-6.176,41.5771,572.2155],[-6.1863,41.5761,573.0535],[-6.1925,41.5733,576.3068],[-6.2013,41.5682,541.2483],[-6.2117,41.5591,607.7562],[-6.2173,41.5505,542.397],[-6.2174,41.5427,570.4014],[-6.2266,41.5346,526.2432],[-6.2369,41.5213,547.9407],[-6.2426,41.5192,544.4535],[-6.2458,41.5158,536.7144],[-6.2577,41.5141,535.8922],[-6.258,41.5119,529.1742],[-6.2507,41.5009,520.375],[-6.2558,41.4971,560.9452],[-6.2643,41.4988,546.708],[-6.2663,41.4977,519.7455],[-6.2679,41.4943,517.0],[-6.2618,41.4868,477.261],[-6.2686,41.4871,493.5732],[-6.284,41.479,522.2742],[-6.2859,41.4665,482.1356],[-6.2962,41.4598,469.5552],[-6.3057,41.4483,475.2348],[-6.297,41.4398,477.9854],[-6.2949,41.4352,475.3228],[-6.31,41.4194,461.599],[-6.319,41.4155,486.8983],[-6.3268,41.4164,464.0445],[-6.3336,41.4093,460.0605],[-6.3324,41.4052,460.5768],[-6.3201,41.4009,460.4275],[-6.3172,41.3971,456.0],[-6.3176,41.3939,457.1205],[-6.3154,41.3901,473.1142],[-6.3176,41.3857,457.6425],[-6.3258,41.3868,459.3484],[-6.3413,41.38,463.5415],[-6.3525,41.3783,472.7523],[-6.3617,41.3834,503.14],[-6.3657,41.3883,414.0967],[-6.3666,41.3934,397.0837],[-6.3713,41.392,426.3404],[-6.3768,41.3872,433.9633],[-6.3883,41.3855,461.239],[-6.3929,41.3788,412.5449],[-6.3935,41.3698,396.7701],[-6.3853,41.3631,402.8121],[-6.3796,41.3642,409.9583],[-6.3771,41.363,401.4976],[-6.3764,41.3601,393.0],[-6.3797,41.3563,395.0016],[-6.3921,41.3499,414.8621],[-6.4051,41.3503,411.0771],[-6.4153,41.3479,392.375],[-6.4265,41.3333,399.1821],[-6.4181,41.3261,392.0],[-6.4338,41.3202,392.0],[-6.439,41.3133,401.993],[-6.4395,41.3105,441.9769],[-6.4371,41.3079,392.0],[-6.4376,41.3053,401.8699],[-6.4493,41.2988,392.0],[-6.4594,41.2977,392.0],[-6.4688,41.3013,390.8409],[-6.4796,41.2942,330.7272],[-6.4789,41.2884,348.9693],[-6.4774,41.2876,347.5934],[-6.4652,41.2862,356.8812],[-6.4542,41.2921,397.9601],[-6.4452,41.2839,386.143],[-6.439,41.2839,439.6352],[-6.4237,41.2797,377.4167],[-6.4214,41.2825,434.0034],[-6.4168,41.2828,399.3831],[-6.4138,41.2809,395.1872],[-6.4146,41.276,392.8934],[-6.3912,41.2789,428.6287],[-6.3825,41.2857,446.5556],[-6.3721,41.2863,442.1022],[-6.3658,41.2846,460.901],[-6.3635,41.2816,481.3032],[-6.3537,41.2786,538.1642],[-6.3486,41.2755,510.7596],[-6.3475,41.2727,530.4623],[-6.3348,41.2716,645.6813],[-6.325,41.2683,657.8685],[-6.3176,41.2709,717.0],[-6.3113,41.2634,717.0],[-6.3012,41.2599,717.0],[-6.2988,41.2573,717.0],[-6.2884,41.2547,717.0],[-6.2775,41.2547,717.0],[-6.2741,41.2572,717.0],[-6.268,41.2556,717.0],[-6.2522,41.2424,717.0],[-6.2343,41.2384,717.0],[-6.2311,41.2328,717.0],[-6.2251,41.2277,717.0],[-6.2039,41.22,717.0],[-6.2009,41.2202,717.0],[-6.1913,41.214,717.0],[-6.1783,41.2087,717.0],[-6.1642,41.2077,717.0],[-6.1434,41.1978,717.0],[-6.1344,41.1904,717.0],[-6.1262,41.1966,717.0],[-6.1241,41.2029,719.2836],[-6.121,41.2037,724.4688],[-6.1092,41.2126,769.1129],[-6.0999,41.2103,806.3357],[-6.0924,41.2125,810.8834],[-6.0739,41.2113,805.8342],[-6.0693,41.2168,817.4824],[-6.0655,41.2176,835.4861],[-6.0619,41.221,843.4286],[-6.0584,41.2147,828.4301],[-6.0466,41.209,810.5823],[-6.0087,41.2005,844.466],[-6.0109,41.1938,837.1729],[-6.0181,41.1903,832.465],[-6.0274,41.1791,824.058],[-6.0281,41.1665,798.2635],[-6.0217,41.1553,799.0346],[-6.0097,41.1521,805.1261],[-6.0024,41.1531,806.0992],[-5.9849,41.1733,820.3576],[-5.9791,41.1746,830.0803],[-5.974,41.1726,816.0753],[-5.9713,41.1688,807.3705],[-5.9719,41.1623,796.6182],[-5.9687,41.1567,796.4142],[-5.9664,41.1559,812.9061],[-5.9628,41.149,823.5111],[-5.9631,41.146,824.4342],[-5.9555,41.1436,812.2203],[-5.9531,41.1401,811.4062],[-5.945,41.1442,809.1817]]]]}
,"properties": {"GID_3": "ESP.5.9.5_1","GID_0": "ESP","country": "Spain","GID_1": "ESP.5_1","province": "CastillayLeón","NL_NAME_1": "NA","GID_2": "ESP.5.9_1","county": "Zamora","NL_NAME_2": "NA","city": "n.a.(272)","VARNAME_3": "NA","NL_NAME_3": "NA","TYPE_3": "Comarca","ENGTYPE_3": "Comarca","CC_3": "NA","HASC_3": "NA","name": "n.a.(272).city","area_km2": 1481.995,"hist_schema_id": "Elevation0-9000","hist_area_km2": {"325": 0.064,"350": 0.271,"375": 0.414,"400": 2.787,"425": 1.959,"450": 3.104,"475": 2.547,"500": 2.849,"525": 4.438,"550": 4.185,"575": 6.298,"600": 11.373,"625": 17.737,"650": 24.301,"675": 35.376,"700": 70.148,"725": 168.984,"750": 253.44,"775": 324.135,"800": 259.893,"825": 134.784,"850": 66.905,"875": 47.68,"900": 28.183,"925": 8.275,"950": 1.69,"975": 0.175}}}