{"type":"Feature","properties":{"GID_3":"ESP.10.3.8_1","GID_0":"ESP","country":"Spain","GID_1":"ESP.10_1","province":"ComunidadValenciana","NL_NAME_1":"NA","GID_2":"ESP.10.3_1","county":"Valencia","NL_NAME_2":"NA","city":"HortaOest","VARNAME_3":"NA","NL_NAME_3":"NA","TYPE_3":"Comarca","ENGTYPE_3":"Comarca","CC_3":"NA","HASC_3":"NA","name":"Horta_Oest.city"},
"geometry":{"type": "MultiPolygon","coordinates": [[[[-0.4197,39.4315,23.6362],[-0.4315,39.4518,27.9929],[-0.4204,39.4521,21.9164],[-0.4161,39.454,21.4424],[-0.4112,39.4665,29.0884],[-0.418,39.4688,34.7398],[-0.411,39.4726,36.2894],[-0.4069,39.4728,27.7793],[-0.4132,39.479,23.9926],[-0.4102,39.4814,24.6207],[-0.426,39.488,33.2602],[-0.4247,39.4912,31.1774],[-0.4303,39.5001,42.7214],[-0.4308,39.5056,74.0607],[-0.4233,39.5073,50.9483],[-0.4276,39.511,52.8079],[-0.4187,39.5174,57.5409],[-0.4239,39.5203,56.8029],[-0.4255,39.5236,75.4169],[-0.4325,39.5269,77.8802],[-0.4499,39.5457,124.1516],[-0.4622,39.5527,126.7073],[-0.4685,39.5589,130.3155],[-0.4755,39.5606,136.1049],[-0.4819,39.5651,127.1757],[-0.4815,39.5706,129.3892],[-0.4899,39.5698,120.9372],[-0.4957,39.5747,124.3428],[-0.5003,39.5727,127.4188],[-0.5076,39.5786,156.1703],[-0.5099,39.5856,127.8547],[-0.5167,39.5851,118.1517],[-0.5215,39.5761,106.2512],[-0.5097,39.569,117.947],[-0.5124,39.5627,115.202],[-0.5015,39.5608,117.0138],[-0.5167,39.5397,92.8514],[-0.5184,39.5266,60.8282],[-0.5152,39.525,59.7307],[-0.515,39.5227,64.2759],[-0.525,39.5137,114.347],[-0.5295,39.5072,104.9562],[-0.5262,39.4809,78.6341],[-0.5292,39.4708,80.9088],[-0.5525,39.4705,89.464],[-0.5509,39.4479,86.4609],[-0.5345,39.4437,73.604],[-0.5547,39.4288,151.8833],[-0.5659,39.4288,292.9478],[-0.5812,39.4302,294.7371],[-0.6039,39.4356,209.3367],[-0.6055,39.439,191.4788],[-0.6172,39.4442,234.7125],[-0.6127,39.4376,156.4639],[-0.6127,39.4311,205.8719],[-0.6092,39.4274,189.7813],[-0.6039,39.41,175.0818],[-0.5993,39.4101,170.3722],[-0.5933,39.4041,172.3332],[-0.5906,39.3919,225.6894],[-0.574,39.3869,178.1984],[-0.5499,39.3891,212.3141],[-0.5365,39.3869,169.3542],[-0.5096,39.3986,136.673],[-0.4756,39.3983,59.2129],[-0.4507,39.4028,30.9757],[-0.4263,39.4181,21.2208],[-0.421,39.4195,21.3018],[-0.4208,39.4241,27.8063],[-0.4255,39.426,24.7134],[-0.426,39.4306,29.3931],[-0.4197,39.4315,23.6362]]]]}}