{"type":"Feature","properties":{"GID_3":"ESP.1.8.5_1","GID_0":"ESP","country":"Spain","GID_1":"ESP.1_1","province":"Andalucía","NL_NAME_1":"NA","GID_2":"ESP.1.8_1","county":"Sevilla","NL_NAME_2":"NA","city":"n.a.(230)","VARNAME_3":"NA","NL_NAME_3":"NA","TYPE_3":"Comarca","ENGTYPE_3":"Comarca","CC_3":"NA","HASC_3":"NA","name":"n.a.(230).city"},
"geometry":{"type": "MultiPolygon","coordinates": [[[[-6.2536,36.8939,0.5733],[-6.2429,36.8944,0.0],[-6.2308,36.8981,0.0],[-6.2114,36.9087,0.0],[-6.2016,36.9166,0.0],[-6.1883,36.9395,0.0],[-6.1566,37.0195,0.3722],[-6.1519,37.0249,0.0],[-6.1435,37.0295,0.0],[-6.1204,37.0368,0.0],[-6.1078,37.0446,0.9196],[-6.1024,37.0495,0.5976],[-6.0825,37.0761,1.2397],[-6.0784,37.0758,1.2637],[-6.0749,37.073,1.3571],[-6.0732,37.0689,1.3187],[-6.0749,37.061,1.2375],[-6.0731,37.0594,1.3679],[-6.0533,37.0542,0.9748],[-6.0452,37.0557,1.2635],[-6.0356,37.0892,1.3143],[-6.0424,37.1056,1.2824],[-6.0418,37.1091,0.2178],[-6.029,37.1165,0.562],[-6.0264,37.1216,1.5046],[-6.0302,37.1268,0.5281],[-6.0431,37.1293,1.008],[-6.0487,37.1327,1.2161],[-6.0382,37.1428,0.9527],[-6.0393,37.1501,1.1574],[-6.0424,37.1517,1.5278],[-6.0567,37.1511,1.1],[-6.0616,37.1554,0.9815],[-6.0616,37.1579,1.2492],[-6.0529,37.1637,1.3713],[-6.0441,37.1664,1.1193],[-6.0319,37.1674,1.3929],[-6.0282,37.1693,1.2333],[-6.0274,37.1763,1.4233],[-6.0333,37.182,1.6613],[-6.0398,37.1966,2.0481],[-6.0434,37.1972,2.3469],[-6.0521,37.1951,1.4912],[-6.056,37.1973,0.8044],[-6.0508,37.212,0.3573],[-6.0525,37.2164,2.417],[-6.0577,37.2157,1.8194],[-6.0636,37.2064,2.0051],[-6.0759,37.206,1.9921],[-6.0768,37.2118,8.3135],[-6.0741,37.2151,0.0],[-6.0538,37.2284,1.0938],[-6.0535,37.2308,2.9935],[-6.0605,37.244,4.7741],[-6.0611,37.2486,0.0],[-6.0596,37.2619,0.0],[-6.0543,37.2726,1.2332],[-6.0798,37.2802,18.278],[-6.0859,37.2856,24.6888],[-6.0978,37.2888,21.0813],[-6.1072,37.2889,31.8877],[-6.1128,37.2943,36.1503],[-6.1147,37.2987,37.8857],[-6.1213,37.303,47.486],[-6.1311,37.3031,50.5988],[-6.1379,37.2982,46.7389],[-6.1411,37.2917,43.7293],[-6.1423,37.2862,46.3941],[-6.1385,37.275,30.9125],[-6.1414,37.2591,23.6395],[-6.1528,37.2564,40.9394],[-6.1647,37.26,29.1198],[-6.1726,37.2545,20.4809],[-6.1795,37.2564,14.2973],[-6.1811,37.2594,19.3931],[-6.1887,37.2642,27.603],[-6.1979,37.2728,41.3344],[-6.2016,37.2729,39.9045],[-6.2056,37.2759,50.3135],[-6.2106,37.285,44.2524],[-6.2061,37.2889,47.7965],[-6.2049,37.2926,51.6414],[-6.2144,37.3076,73.0453],[-6.211,37.3106,72.1758],[-6.2157,37.3112,72.7829],[-6.2162,37.3139,75.8098],[-6.2222,37.3176,81.7601],[-6.22,37.3189,85.6011],[-6.2203,37.3204,85.6011],[-6.2254,37.3206,88.5076],[-6.2296,37.3182,81.0407],[-6.236,37.321,80.3037],[-6.2404,37.3194,61.9452],[-6.2426,37.3237,49.4387],[-6.2455,37.3244,19.4216],[-6.2453,37.327,19.2166],[-6.2522,37.3278,16.534],[-6.2678,37.3195,28.5787],[-6.2744,37.3181,48.6561],[-6.2906,37.3191,37.2333],[-6.2896,37.3178,40.7403],[-6.2919,37.3119,40.1686],[-6.2888,37.3048,31.8307],[-6.2847,37.3008,30.4086],[-6.282,37.2863,25.5486],[-6.2799,37.2827,21.7435],[-6.2764,37.2813,17.0526],[-6.274,37.2763,14.7017],[-6.2759,37.2761,19.2137],[-6.2748,37.2736,20.0734],[-6.2831,37.2677,43.0118],[-6.2928,37.2665,43.1889],[-6.3008,37.2629,35.3379],[-6.3105,37.2646,42.9271],[-6.3312,37.2644,34.1938],[-6.3316,37.2692,35.2637],[-6.3369,37.2748,48.8382],[-6.3488,37.2661,57.7886],[-6.3542,37.2555,53.453],[-6.3511,37.2496,51.9364],[-6.3554,37.2419,50.32],[-6.3597,37.2381,44.186],[-6.3451,37.2183,23.1999],[-6.3478,37.2093,21.0935],[-6.3505,37.2077,20.0334],[-6.3497,37.2031,19.217],[-6.3532,37.199,20.4044],[-6.3519,37.1982,20.4862],[-6.3529,37.1961,16.6848],[-6.3504,37.1806,25.1613],[-6.336,37.1696,7.4454],[-6.3486,37.1524,1.6837],[-6.3528,37.1504,1.3828],[-6.3528,37.1474,1.2999],[-6.3595,37.1384,1.0161],[-6.3554,37.1345,1.2707],[-6.3485,37.1324,1.3419],[-6.3463,37.1292,0.9313],[-6.343,37.128,1.0642],[-6.3422,37.123,1.0838],[-6.3436,37.1207,1.0355],[-6.3494,37.1211,1.0445],[-6.3535,37.1182,1.0942],[-6.3599,37.1173,1.316],[-6.3562,37.1107,0.6029],[-6.3683,37.1043,0.3795],[-6.3765,37.0976,0.2557],[-6.3854,37.0837,0.467],[-6.3862,37.0744,1.0963],[-6.3806,37.0596,0.6857],[-6.3798,37.0484,0.6795],[-6.3567,37.0002,0.6761],[-6.3539,36.9863,0.6555],[-6.361,36.9719,0.6956],[-6.3596,36.9597,1.075],[-6.3637,36.9458,0.7448],[-6.373,36.9366,0.6803],[-6.3787,36.9347,0.9186],[-6.3709,36.9268,0.7084],[-6.3567,36.9191,1.0278],[-6.3446,36.907,1.0027],[-6.3345,36.9033,0.0],[-6.3309,36.8988,0.0],[-6.2968,36.9052,0.1621],[-6.2781,36.9109,0.0],[-6.2737,36.9089,0.0],[-6.2627,36.8979,0.1841],[-6.2536,36.8939,0.5733]]]]}}