{"type": "Feature","bbox": [-5.4832,43.0902,-4.5105,43.5351],"geometry": {"type": "MultiPolygon","coordinates": [[[[-5.1534,43.1109,1770.0658],[-5.1477,43.1151,1934.8411],[-5.1406,43.1029,1994.8942],[-5.1204,43.1006,1673.1112],[-5.1016,43.1018,1818.1005],[-5.0956,43.1077,1652.1422],[-5.0992,43.1158,1605.7739],[-5.091,43.1295,984.4437],[-5.0903,43.134,862.5679],[-5.0948,43.143,637.2378],[-5.0856,43.1482,803.8873],[-5.0874,43.1531,569.8336],[-5.0828,43.1582,503.8601],[-5.0784,43.1604,453.9778],[-5.0762,43.1726,441.4689],[-5.0781,43.1752,424.717],[-5.0758,43.1815,403.9364],[-5.0543,43.1795,1498.7394],[-5.0532,43.1827,1559.62],[-5.0408,43.1846,1526.4924],[-5.0307,43.1836,1776.0082],[-5.0208,43.1851,1816.7268],[-5.0174,43.1819,1496.0309],[-5.0014,43.1763,1460.3511],[-4.9968,43.1731,1246.1914],[-4.9965,43.1854,1090.134],[-4.9789,43.2005,2174.853],[-4.9702,43.2022,2302.811],[-4.971,43.2044,2281.3096],[-4.9638,43.2124,2289.2271],[-4.9519,43.2144,2204.5647],[-4.9519,43.2193,2217.0044],[-4.9422,43.2249,2037.3083],[-4.9322,43.2249,1854.7711],[-4.9194,43.2275,1831.8264],[-4.9125,43.2368,1380.6083],[-4.8935,43.2384,589.6764],[-4.882,43.232,849.3167],[-4.8735,43.2296,1597.5574],[-4.8601,43.2184,2132.3545],[-4.8595,43.2155,2145.0388],[-4.8625,43.2122,2195.3101],[-4.8601,43.2084,2258.1587],[-4.8616,43.2056,2064.8826],[-4.8568,43.2041,2323.2832],[-4.8527,43.1963,2509.0935],[-4.8391,43.1897,2437.6863],[-4.8409,43.1807,2503.0356],[-4.8308,43.1786,2248.3076],[-4.819,43.1789,2499.8394],[-4.8174,43.184,2497.7153],[-4.8111,43.1813,2349.5723],[-4.8054,43.1821,2198.498],[-4.7895,43.1855,2076.2195],[-4.7778,43.192,1924.1672],[-4.7533,43.1846,1837.2605],[-4.7457,43.1841,2303.5203],[-4.7383,43.1863,2124.5869],[-4.7337,43.1904,2294.2815],[-4.7334,43.1946,2381.5898],[-4.7368,43.1995,2143.105],[-4.736,43.2089,2110.103],[-4.7282,43.2167,1869.0989],[-4.7319,43.2209,1754.3435],[-4.7298,43.224,1617.2875],[-4.7216,43.2295,1503.178],[-4.7207,43.2392,1321.0955],[-4.7285,43.2479,1297.2074],[-4.7309,43.2573,1397.5874],[-4.7256,43.2563,1331.0515],[-4.7232,43.2582,1344.0785],[-4.7115,43.2609,1214.2627],[-4.706,43.2668,1372.4631],[-4.7048,43.2653,1402.1296],[-4.6967,43.2658,1395.5317],[-4.6933,43.2639,1398.1309],[-4.6898,43.2664,1463.559],[-4.6861,43.2653,1491.161],[-4.6829,43.2676,1455.739],[-4.6776,43.268,1332.6074],[-4.6693,43.2652,1315.8195],[-4.6591,43.2645,1180.7333],[-4.6537,43.2658,1113.1469],[-4.6502,43.2688,904.777],[-4.6318,43.2676,129.7795],[-4.6348,43.2687,103.9593],[-4.6364,43.2717,102.408],[-4.636,43.2764,86.6364],[-4.6311,43.2777,80.5213],[-4.6267,43.2816,106.9646],[-4.6238,43.2883,86.9458],[-4.6204,43.2879,93.7886],[-4.6184,43.2905,85.9631],[-4.6075,43.2952,90.41],[-4.6065,43.3005,125.22],[-4.5983,43.2985,622.77],[-4.5909,43.2932,778.7149],[-4.5817,43.2915,797.6772],[-4.5802,43.2896,767.6526],[-4.5732,43.2894,786.6906],[-4.5694,43.2918,782.3678],[-4.5552,43.2881,849.1143],[-4.5508,43.2846,878.2581],[-4.5527,43.2719,1111.1666],[-4.5477,43.2686,1053.4244],[-4.5359,43.2702,864.0292],[-4.5326,43.2753,703.4502],[-4.5234,43.2781,643.6295],[-4.5216,43.2806,511.1148],[-4.5185,43.294,471.9997],[-4.519,43.3099,230.1161],[-4.527,43.3276,200.9059],[-4.5223,43.3357,182.8563],[-4.5229,43.3381,262.1036],[-4.5394,43.3439,43.5473],[-4.5367,43.3443,31.2623],[-4.5374,43.3468,20.1017],[-4.5342,43.3512,66.6745],[-4.5343,43.3534,7.5089],[-4.5387,43.3554,37.1149],[-4.5351,43.3585,7.5873],[-4.5307,43.3587,34.9741],[-4.5353,43.3647,5.7684],[-4.5344,43.3683,23.0469],[-4.5208,43.3661,1.72],[-4.5229,43.3686,1.235],[-4.5213,43.3716,1.8061],[-4.5105,43.3806,0.0],[-4.513,43.3896,0.0],[-4.5122,43.3932,4.1601],[-4.5235,43.3976,0.0],[-4.5301,43.3979,0.0],[-4.5346,43.4004,26.4681],[-4.5471,43.3999,0.0],[-4.5501,43.3968,10.6877],[-4.5565,43.3985,1.0419],[-4.5576,43.3976,0.0],[-4.5568,43.3937,71.4975],[-4.5596,43.3929,9.4549],[-4.5615,43.394,0.0],[-4.5682,43.3932,0.0],[-4.5701,43.3951,0.0],[-4.5743,43.3943,0.0],[-4.5812,43.3996,0.0],[-4.5907,43.3974,0.0],[-4.6015,43.3971,0.0],[-4.6154,43.3976,0.0],[-4.6187,43.3993,0.0],[-4.6243,43.3979,7.9729],[-4.6412,43.4032,0.0],[-4.6538,43.401,11.0287],[-4.6632,43.4046,6.0607],[-4.6643,43.4065,7.9606],[-4.6712,43.4082,5.5376],[-4.6829,43.4096,0.0],[-4.6918,43.4082,10.0241],[-4.6957,43.4093,5.6013],[-4.699,43.4132,0.0],[-4.7046,43.4124,0.0],[-4.7063,43.4107,0.0],[-4.7096,43.4129,0.0],[-4.7129,43.4118,21.1088],[-4.7126,43.4154,0.0],[-4.7215,43.4165,10.9667],[-4.7249,43.4193,0.0],[-4.7407,43.4179,0.0],[-4.7454,43.4196,0.0],[-4.7462,43.4224,0.0],[-4.7501,43.4218,0.9753],[-4.7507,43.4235,1.0346],[-4.7568,43.4257,0.0],[-4.7638,43.426,1.2301],[-4.7654,43.429,0.0],[-4.7707,43.4307,0.0],[-4.7868,43.4321,0.0],[-4.7888,43.4329,0.0],[-4.7874,43.4349,4.6813],[-4.7882,43.436,0.0],[-4.791,43.4354,10.6406],[-4.7929,43.4326,0.0],[-4.7962,43.4346,0.0],[-4.7993,43.4332,0.0],[-4.8068,43.4338,0.0],[-4.8099,43.4351,4.0222],[-4.8093,43.4388,0.0],[-4.814,43.4399,3.0653],[-4.8235,43.4385,3.8527],[-4.824,43.4368,3.4421],[-4.8262,43.4365,2.5626],[-4.8249,43.4379,0.0],[-4.8257,43.439,0.0],[-4.8349,43.441,2.0627],[-4.8393,43.4401,14.8992],[-4.839,43.4465,3.2452],[-4.8487,43.4457,0.0],[-4.8504,43.4449,2.4727],[-4.8493,43.4432,0.0],[-4.8521,43.4421,0.0],[-4.8546,43.4424,1.7371],[-4.8549,43.4463,3.3445],[-4.874,43.4421,0.0],[-4.8829,43.4485,0.0],[-4.8963,43.4496,0.0],[-4.8968,43.4518,6.3763],[-4.904,43.4524,0.0],[-4.904,43.454,0.0],[-4.9118,43.4538,0.0],[-4.916,43.4574,0.0],[-4.9238,43.4579,4.6869],[-4.9268,43.4599,2.4531],[-4.9263,43.4626,0.0],[-4.9299,43.4626,0.0],[-4.9351,43.4593,8.5127],[-4.936,43.461,0.0],[-4.9393,43.4593,3.6278],[-4.9457,43.4615,0.0],[-4.9549,43.4607,0.0],[-4.9729,43.4624,0.0],[-4.9763,43.4624,0.0],[-4.9801,43.459,2.2115],[-4.9843,43.4615,1.5563],[-4.9868,43.4604,10.047],[-4.9882,43.4618,0.6858],[-4.9915,43.4593,4.5782],[-5.0124,43.4604,10.5584],[-5.0135,43.4588,10.5584],[-5.0218,43.4618,16.9785],[-5.036,43.4607,9.8057],[-5.0515,43.4632,38.8766],[-5.0543,43.4646,1.6027],[-5.0563,43.4693,0.0],[-5.0643,43.469,0.0],[-5.066,43.4654,6.4229],[-5.0735,43.466,2.9168],[-5.0757,43.4671,8.0722],[-5.0746,43.4704,0.0],[-5.0854,43.4762,0.0],[-5.0949,43.4774,0.0],[-5.1029,43.4749,21.3908],[-5.1157,43.4768,48.6322],[-5.1187,43.4829,7.5714],[-5.1226,43.4849,1.7621],[-5.1293,43.484,0.7685],[-5.1351,43.4799,4.5242],[-5.1493,43.4774,11.5788],[-5.1529,43.479,0.0],[-5.1599,43.4787,13.1354],[-5.1649,43.4765,59.9067],[-5.1699,43.4765,23.042],[-5.1712,43.4746,22.2695],[-5.1788,43.4743,18.479],[-5.1815,43.4762,9.1926],[-5.1854,43.4754,45.8039],[-5.1932,43.4779,9.868],[-5.1957,43.4751,15.8027],[-5.2032,43.4768,0.0],[-5.2076,43.474,0.0],[-5.2151,43.4735,5.2463],[-5.2254,43.4801,1.0781],[-5.2251,43.4815,1.652],[-5.2229,43.4815,0.0],[-5.2238,43.4843,5.5186],[-5.2296,43.486,3.4806],[-5.2329,43.4901,6.2025],[-5.2387,43.4915,22.1778],[-5.2501,43.5013,0.0],[-5.2557,43.5015,0.0],[-5.2624,43.4993,10.7343],[-5.2629,43.5026,0.0],[-5.2701,43.5082,0.0],[-5.2665,43.5124,0.0],[-5.2679,43.5149,11.0538],[-5.2649,43.5168,11.3483],[-5.266,43.5182,16.7962],[-5.2721,43.5201,24.7708],[-5.2793,43.5262,3.4448],[-5.2854,43.5276,23.1942],[-5.2876,43.5304,24.8115],[-5.2921,43.531,34.5134],[-5.2949,43.5351,0.0],[-5.3018,43.5351,10.7837],[-5.3068,43.5326,27.8221],[-5.3119,43.5335,19.7017],[-5.3128,43.5267,117.1607],[-5.311,43.5193,128.9986],[-5.3154,43.5155,149.0783],[-5.3259,43.513,124.7072],[-5.3348,43.5082,144.9741],[-5.3372,43.5056,154.4214],[-5.3388,43.4918,210.2107],[-5.3439,43.4874,258.3709],[-5.3444,43.481,161.4212],[-5.3378,43.4729,183.49],[-5.3359,43.4667,322.1515],[-5.3421,43.46,274.8082],[-5.336,43.4507,89.509],[-5.3397,43.4267,257.7424],[-5.3429,43.4242,208.357],[-5.3477,43.4267,302.7795],[-5.3564,43.4181,435.8702],[-5.359,43.4181,439.575],[-5.3661,43.4069,455.7747],[-5.3715,43.3925,285.4969],[-5.383,43.3856,513.7856],[-5.4295,43.3839,433.0871],[-5.4256,43.3638,236.8508],[-5.4279,43.3627,258.6321],[-5.4211,43.354,283.4637],[-5.4189,43.343,578.8642],[-5.4201,43.3406,686.0066],[-5.4264,43.3361,730.8005],[-5.4302,43.3361,667.151],[-5.4417,43.3285,554.3873],[-5.4568,43.3232,731.7157],[-5.4629,43.3177,874.567],[-5.4638,43.3113,911.6831],[-5.4699,43.3032,734.002],[-5.4667,43.2989,692.4257],[-5.4742,43.294,470.7389],[-5.4733,43.2915,620.2401],[-5.481,43.2898,818.0703],[-5.4832,43.284,883.4022],[-5.4814,43.2761,1087.0309],[-5.4755,43.2723,974.1906],[-5.4662,43.2695,1048.8169],[-5.4635,43.2659,1004.6914],[-5.4665,43.2614,1113.2969],[-5.4658,43.2589,1055.37],[-5.4303,43.2533,685.6257],[-5.4184,43.2606,463.7863],[-5.4161,43.2594,475.942],[-5.4158,43.2639,398.5757],[-5.4197,43.2697,366.2028],[-5.4063,43.2699,498.6086],[-5.3959,43.2725,620.4414],[-5.3872,43.2769,831.9698],[-5.3808,43.2662,948.1969],[-5.3816,43.2639,1039.3152],[-5.3782,43.262,1149.6936],[-5.3769,43.258,1156.2899],[-5.3727,43.2573,1180.4692],[-5.3708,43.2536,1056.5679],[-5.3638,43.2564,858.5485],[-5.356,43.2536,725.3978],[-5.3486,43.2537,818.7068],[-5.3369,43.2482,1118.5916],[-5.3333,43.2518,924.3121],[-5.3283,43.2538,911.1508],[-5.3147,43.2566,607.8414],[-5.3092,43.2562,630.8198],[-5.2922,43.2503,839.5336],[-5.2856,43.2404,1396.175],[-5.2889,43.2266,1485.3196],[-5.2701,43.2179,950.9744],[-5.2487,43.2111,1720.0977],[-5.249,43.2076,1637.9789],[-5.2587,43.1978,1668.3197],[-5.251,43.1887,1739.0033],[-5.2522,43.1853,1700.3689],[-5.2417,43.1791,1538.8535],[-5.2145,43.1728,1869.8806],[-5.2173,43.1657,1519.1411],[-5.2151,43.1579,1457.8472],[-5.2166,43.1542,1468.9657],[-5.2153,43.1441,1597.5112],[-5.2075,43.1353,1747.1699],[-5.196,43.1315,1675.8087],[-5.1956,43.1283,1451.4888],[-5.1881,43.1172,1568.7177],[-5.1912,43.1151,1502.0643],[-5.1957,43.1149,1520.3962],[-5.199,43.112,1532.967],[-5.2067,43.0923,1782.3562],[-5.2011,43.0902,1691.5403],[-5.1989,43.0927,1638.2379],[-5.1911,43.0953,1608.7444],[-5.1885,43.0997,1583.1165],[-5.1753,43.1,1568.2758],[-5.1678,43.1024,1586.7155],[-5.163,43.1092,1799.4088],[-5.1599,43.111,1787.8003],[-5.1575,43.1099,1773.053],[-5.1534,43.1109,1770.0658]]],
[[[-4.5743,43.3996,2.753],[-4.5757,43.4001,1.7254],[-4.5771,43.3979,1.2758],[-4.5743,43.3971,4.1663],[-4.5743,43.3996,2.753]]]]}
,"properties": {"GID_3": "ESP.17.1.7_1","GID_0": "ESP","country": "Spain","GID_1": "ESP.17_1","province": "PrincipadodeAsturias","NL_NAME_1": "NA","GID_2": "ESP.17.1_1","county": "Asturias","NL_NAME_2": "NA","city": "Oriente","VARNAME_3": "NA","NL_NAME_3": "NA","TYPE_3": "Comarca","ENGTYPE_3": "Comarca","CC_3": "NA","HASC_3": "NA","name": "Oriente.city","area_km2": 1925.402,"hist_schema_id": "Elevation0-9000","hist_area_km2": {"0": 18.243,"25": 56.264,"50": 70.638,"75": 56.311,"100": 56.074,"125": 59.818,"150": 60.501,"175": 58.068,"200": 58.011,"225": 59.432,"250": 55.755,"275": 51.395,"300": 50.782,"325": 51.262,"350": 48.814,"375": 45.286,"400": 46.847,"425": 46.664,"450": 44.769,"475": 41.025,"500": 40.733,"525": 39.07,"550": 36.187,"575": 35.758,"600": 33.138,"625": 32.337,"650": 30.966,"675": 28.716,"700": 26.265,"725": 26.128,"750": 25.404,"775": 23.692,"800": 22.056,"825": 21.287,"850": 20.223,"875": 18.806,"900": 19.069,"925": 18.142,"950": 17.633,"975": 19.113,"1000": 19.285,"1025": 18.915,"1050": 18.36,"1075": 17.65,"1100": 17.08,"1125": 15.69,"1150": 14.489,"1175": 13.269,"1200": 12.915,"1225": 11.881,"1250": 11.14,"1275": 10.63,"1300": 9.626,"1325": 9.92,"1350": 9.89,"1375": 9.952,"1400": 9.195,"1425": 8.748,"1450": 8.5,"1475": 7.928,"1500": 7.99,"1525": 6.739,"1550": 6.368,"1575": 5.75,"1600": 5.626,"1625": 5.518,"1650": 4.653,"1675": 3.88,"1700": 3.648,"1725": 2.798,"1750": 3.385,"1775": 2.813,"1800": 2.643,"1825": 2.318,"1850": 2.179,"1875": 2.179,"1900": 2.457,"1925": 1.963,"1950": 2.117,"1975": 1.731,"2000": 1.87,"2025": 1.654,"2050": 1.963,"2075": 1.561,"2100": 1.824,"2125": 1.453,"2150": 1.19,"2175": 1.267,"2200": 1.468,"2225": 1.453,"2250": 1.329,"2275": 1.329,"2300": 0.881,"2325": 0.927,"2350": 0.556,"2375": 0.464,"2400": 0.448,"2425": 0.541,"2450": 0.294,"2475": 0.201,"2500": 0.093,"2525": 0.124,"2550": 0.015}}}