{"type":"Feature","properties":{"featurecla":"River","scalerank":8,"rivernum":892,"dissolve":"892River","name":"Esla1","name_alt":null,"note":null,"min_zoom":7.0,"strokeweig":0.2,"name_en":"Esla","min_label":8.0},
"geometry":{"type": "LineString","coordinates": [[-5.2776855468749773,42.593377996869116,835.5955],[-5.3384765624999773,42.54218170780662,814.5563],[-5.3790039062499773,42.51996491093162,802.0954],[-5.4705078124999886,42.488153387494116,783.5776],[-5.5206054687499773,42.459588934369116,776.4456],[-5.5519287109374886,42.41608307499412,766.315],[-5.5630859374999773,42.364374090619116,768.765],[-5.552734375,42.31110260624412,756.9801],[-5.54541015625,42.301044012494117,745.0366],[-5.536865234375,42.29364655155662,744.5402],[-5.5314208984374886,42.284784246869116,741.1315],[-5.533203125,42.270526434369117,740.2842],[-5.5735351562499886,42.15509674686912,726.3766],[-5.5979492187499886,42.021014715619117,733.3119],[-5.6114990234374886,41.99616119999412,702.9535],[-5.632080078125,41.97394440311912,720.6244],[-5.7744628906249886,41.86981842655662,747.5547],[-5.7806884765624886,41.86212799686912,733.6309],[-5.7848388671874886,41.85285065311912,686.4057],[-5.7930664062499773,41.822284246869117,677.9907],[-5.7972167968749773,41.81549713749412,681.23],[-5.8130371093749886,41.79755280155662,695.0027],[-5.8173828125,41.790057684369117,680.0833],[-5.8202392578124886,41.782245184369117,672.5],[-5.8212890625,41.77411530155662,699.105],[-5.8200195312499829,41.76557037968162,695.4808],[-5.8155273437499773,41.757342840619117,695.8505],[-5.8025390624999886,41.746600653119117,690.4921],[-5.796875,41.74054596561912,687.6483],[-5.7935546874999773,41.72565338749412,707.0621],[-5.8028320312499773,41.71625397343162,686.0327],[-5.8328613281249773,41.704852606244117,697.6345],[-5.8585693359374886,41.69098541874412,680.8674],[-5.8707031249999773,41.682391668744117,671.0],[-5.8813964843749886,41.672967840619116,723.3165],[-5.8916503906249886,41.65985748905662,675.0165],[-5.9082519531249886,41.63080475468162,723.7216],[-5.91845703125,41.61762116093162,679.035],[-5.9319824218749773,41.60932037968162,723.8735],[-5.9629882812499773,41.59747955936912,662.5],[-5.9723388671874886,41.58612702030662,751.9518],[-5.9737304687499773,41.57623932499412,681.6636],[-5.968994140625,41.54633209843162,706.5654],[-5.9700195312499886,41.53607819218162,691.0986],[-5.9735595703124886,41.52875397343162,734.0122],[-5.978125,41.52204010624412,742.2184],[-5.9825195312499773,41.51349518436912,703.3818],[-6.009033203125,41.50958893436912,729.8683],[-6.024658203125,41.50385162968162,747.2855],[-6.0352539062499773,41.490838934369116,601.9614]]}}