{"type":"Feature","properties":{"GID_3":"ESP.13.1.4_1","GID_0":"ESP","country":"Spain","GID_1":"ESP.13_1","province":"IslasBaleares","NL_NAME_1":"NA","GID_2":"ESP.13.1_1","county":"Baleares","NL_NAME_2":"NA","city":"n.a.(54)","VARNAME_3":"NA","NL_NAME_3":"NA","TYPE_3":"Comarca","ENGTYPE_3":"Comarca","CC_3":"NA","HASC_3":"NA","name":"n.a.(54).city"},
"geometry":{"type": "MultiPolygon","coordinates": [[[[3.3735,39.5651,9.0626],[3.3743,39.5682,0.0],[3.3771,39.5696,0.0],[3.3757,39.5729,2.9759],[3.379,39.5762,0.8],[3.3954,39.5751,0.0],[3.404,39.5788,4.1529],[3.4029,39.5835,0.0],[3.3946,39.5838,0.0],[3.3871,39.5876,0.4079],[3.3849,39.5932,0.2917],[3.3865,39.6029,0.787],[3.3887,39.6029,0.0],[3.3932,39.614,0.0],[3.3921,39.6188,6.0018],[3.3963,39.6243,6.8618],[3.3974,39.6287,1.7821],[3.4001,39.6301,0.0],[3.3999,39.6321,4.692],[3.4021,39.6326,0.4862],[3.4032,39.6357,1.6747],[3.4063,39.6371,2.2886],[3.4101,39.6374,9.8721],[3.4154,39.6343,2.3149],[3.4279,39.6318,0.0],[3.4343,39.6321,28.2023],[3.4368,39.6338,0.0],[3.4363,39.6368,0.0],[3.4393,39.6418,5.0539],[3.4374,39.6479,4.059],[3.4407,39.656,5.0972],[3.4432,39.6574,1.0383],[3.4476,39.6549,0.0],[3.4551,39.6549,0.0],[3.4565,39.6571,0.0],[3.4568,39.6607,0.0],[3.4543,39.6618,7.3815],[3.4549,39.6671,0.0],[3.4535,39.6693,23.8772],[3.4576,39.671,9.8874],[3.4538,39.6743,31.7894],[3.4571,39.6801,0.0],[3.4529,39.6821,10.8952],[3.4582,39.684,0.0],[3.4582,39.6893,0.0],[3.4551,39.689,0.0],[3.454,39.6924,0.0],[3.4563,39.6954,0.0],[3.4565,39.699,0.0],[3.4551,39.6999,2.5861],[3.4565,39.7007,0.0],[3.4568,39.7057,5.4106],[3.4613,39.7074,4.1235],[3.4621,39.7099,10.1058],[3.4632,39.7088,0.151],[3.4699,39.7124,22.5614],[3.4749,39.7093,1.3397],[3.4774,39.7126,0.0],[3.4763,39.7149,34.8017],[3.4782,39.7146,11.4101],[3.479,39.7163,0.0],[3.4771,39.7165,25.6829],[3.4768,39.7201,0.0],[3.4729,39.7212,0.0],[3.4651,39.7204,39.0849],[3.4521,39.7218,9.0675],[3.4518,39.7243,9.2693],[3.4565,39.7271,0.0],[3.4551,39.7276,0.0],[3.4524,39.7263,1.3151],[3.4529,39.7287,5.3879],[3.4582,39.7335,0.0],[3.4593,39.7374,15.4036],[3.4624,39.7382,0.0],[3.4621,39.741,14.0273],[3.459,39.7412,22.806],[3.4579,39.7438,29.7483],[3.4615,39.7482,4.604],[3.451,39.7435,71.1113],[3.4404,39.7454,14.7424],[3.4326,39.7449,7.4995],[3.4318,39.7476,0.0],[3.4279,39.7499,18.4108],[3.4276,39.7515,0.0],[3.4182,39.7513,6.205],[3.4126,39.7551,7.9319],[3.4099,39.7596,0.0],[3.4054,39.759,1.7802],[3.4063,39.7618,9.9827],[3.4046,39.764,0.0],[3.3993,39.7629,10.5937],[3.3971,39.7649,7.1833],[3.3799,39.7654,10.9548],[3.3737,39.769,0.0],[3.3737,39.7732,0.0],[3.3718,39.7749,0.0],[3.3601,39.7788,0.0],[3.351,39.7882,51.5477],[3.3474,39.7896,12.0418],[3.3351,39.784,10.3412],[3.334,39.7771,0.0],[3.3321,39.7746,0.0],[3.3349,39.7735,17.2818],[3.3357,39.769,0.0],[3.3301,39.7643,0.0],[3.3307,39.761,69.2271],[3.3268,39.7599,4.5817],[3.3263,39.7579,12.5634],[3.3218,39.7585,0.0],[3.3204,39.7568,6.3889],[3.3176,39.7576,0.0],[3.3071,39.7546,0.3575],[3.3026,39.7504,4.075],[3.3001,39.7501,0.2311],[3.3007,39.7479,4.272],[3.2976,39.7487,3.3065],[3.2885,39.7451,1.6974],[3.286,39.7401,6.1184],[3.2787,39.7401,2.967],[3.2674,39.734,0.0],[3.2585,39.7343,0.4738],[3.2537,39.7293,0.6522],[3.239,39.731,0.8997],[3.2276,39.7027,19.5111],[3.2241,39.698,14.089],[3.2327,39.6966,55.9837],[3.2362,39.6918,91.0604],[3.2394,39.695,88.3239],[3.2537,39.6832,172.2441],[3.2447,39.6758,192.6268],[3.2287,39.668,127.5627],[3.2098,39.6788,18.2136],[3.2041,39.6674,18.6875],[3.1975,39.6654,20.8917],[3.1961,39.6591,25.2228],[3.1877,39.651,29.9837],[3.1798,39.6537,140.3048],[3.1575,39.627,185.9238],[3.1607,39.6226,48.1536],[3.1584,39.6187,48.242],[3.1636,39.6168,147.0433],[3.1614,39.6001,138.1725],[3.1493,39.5946,47.5746],[3.1493,39.5909,48.117],[3.1588,39.584,51.1592],[3.152,39.5798,51.8253],[3.1556,39.575,54.2547],[3.1445,39.5688,60.7296],[3.1583,39.5459,99.7631],[3.1471,39.5442,70.0675],[3.1381,39.538,76.4771],[3.1291,39.5423,62.883],[3.125,39.5291,71.4751],[3.1276,39.5253,67.9973],[3.132,39.5255,69.5755],[3.1327,39.5206,68.3733],[3.1394,39.5219,71.9152],[3.1386,39.5189,70.3059],[3.1471,39.5119,76.4645],[3.1496,39.5144,76.6053],[3.1474,39.5168,75.0777],[3.1523,39.5195,74.5455],[3.1552,39.5168,76.9317],[3.1592,39.5183,80.3553],[3.1641,39.5146,89.6633],[3.1625,39.5121,90.3493],[3.1703,39.5093,105.5965],[3.1695,39.504,100.5984],[3.1751,39.5007,126.5391],[3.1933,39.5007,181.0651],[3.2033,39.4828,126.4865],[3.2166,39.4748,120.1029],[3.2058,39.463,162.9231],[3.2244,39.4545,102.7081],[3.2776,39.4386,0.0],[3.279,39.4501,0.0],[3.2779,39.4532,0.0],[3.2801,39.4546,0.0],[3.2782,39.4574,2.9596],[3.281,39.4576,3.6277],[3.2832,39.4682,0.0],[3.2901,39.4771,0.0],[3.2912,39.481,7.6649],[3.2896,39.4815,7.6649],[3.2904,39.4837,2.6111],[3.2885,39.4849,0.0],[3.2938,39.4846,0.0],[3.2946,39.4896,7.4002],[3.2935,39.4918,2.0352],[3.2946,39.494,5.077],[3.2974,39.4949,1.4363],[3.2974,39.4968,1.5819],[3.299,39.4963,0.0],[3.2999,39.4976,0.0],[3.2968,39.4993,3.3871],[3.3024,39.5001,0.0],[3.301,39.5035,9.5194],[3.3126,39.5135,0.0],[3.3121,39.516,3.0063],[3.3157,39.5157,4.7271],[3.3171,39.5171,4.1221],[3.3163,39.5204,2.3601],[3.3221,39.5215,3.0036],[3.3296,39.529,25.6987],[3.3401,39.534,0.0],[3.3401,39.5357,0.0],[3.3371,39.5371,0.0],[3.3365,39.541,9.1595],[3.3379,39.541,1.3321],[3.3385,39.5374,0.0],[3.3404,39.5371,1.5848],[3.341,39.5404,0.0],[3.3535,39.5449,0.0],[3.3615,39.5507,5.1058],[3.3685,39.5504,0.0],[3.3688,39.556,1.6514],[3.3732,39.556,2.1785],[3.3754,39.5596,1.4025],[3.3749,39.5626,0.9689],[3.3763,39.5646,0.0],[3.3735,39.5651,9.0626]]]]}}