{"type": "Feature","bbox": [-6.5778,37.941,-5.8342,38.4658],"geometry": {"type": "MultiPolygon","coordinates": [[[[-6.046,37.9969,584.4861],[-6.0406,37.995,615.3834],[-6.0312,37.9977,622.7192],[-6.0241,37.9933,585.6639],[-6.017,37.9911,611.8964],[-6.0129,37.9934,573.6501],[-6.0061,37.9914,550.2854],[-5.9934,37.9996,381.3143],[-5.9868,37.998,378.9876],[-5.9774,37.9998,373.9639],[-5.9613,37.9997,335.0],[-5.9557,37.9984,335.0],[-5.9536,37.9954,335.0],[-5.945,38.007,336.4879],[-5.9448,38.0107,337.0061],[-5.9404,38.0149,335.0],[-5.9363,38.0244,334.5],[-5.9368,38.028,338.5668],[-5.9326,38.0315,343.6783],[-5.9366,38.0387,349.5477],[-5.9341,38.0469,366.779],[-5.9283,38.0502,387.3873],[-5.9192,38.0498,378.6545],[-5.9179,38.0562,377.9868],[-5.9132,38.0596,382.6034],[-5.9116,38.0628,389.4126],[-5.9089,38.0629,386.6449],[-5.9079,38.0683,393.282],[-5.9107,38.0782,399.9295],[-5.9292,38.0892,434.2041],[-5.9277,38.0912,434.424],[-5.9291,38.0964,450.6619],[-5.9276,38.0973,454.7161],[-5.9264,38.1044,476.904],[-5.9141,38.1176,612.6132],[-5.9128,38.1227,620.5901],[-5.9072,38.124,629.0586],[-5.8952,38.1305,711.1827],[-5.8808,38.1322,840.9527],[-5.8768,38.1379,697.2141],[-5.8785,38.1466,641.2628],[-5.8767,38.1484,624.4146],[-5.8774,38.1554,613.1522],[-5.8746,38.1584,579.9177],[-5.8565,38.1615,553.0906],[-5.8551,38.1695,544.664],[-5.8514,38.1719,541.675],[-5.8466,38.1714,542.8535],[-5.8377,38.1744,530.2247],[-5.8385,38.184,597.7031],[-5.8342,38.1961,565.7344],[-5.8476,38.2106,617.0571],[-5.8565,38.2171,598.8932],[-5.8672,38.2203,612.3187],[-5.8744,38.2175,611.9722],[-5.8816,38.2116,620.2606],[-5.8845,38.2054,621.5641],[-5.907,38.2349,598.0022],[-5.9062,38.239,595.6735],[-5.9101,38.2362,597.8619],[-5.9229,38.2398,572.9302],[-5.9335,38.2385,585.0225],[-5.9345,38.2423,590.5991],[-5.9322,38.2462,591.3891],[-5.9218,38.25,583.8031],[-5.9169,38.2537,573.7291],[-5.9127,38.2543,568.9056],[-5.9134,38.2637,562.4323],[-5.9182,38.2691,559.4469],[-5.9172,38.2712,558.3383],[-5.9237,38.2789,550.8109],[-5.9181,38.2873,548.4189],[-5.9161,38.2859,542.2249],[-5.9096,38.2995,540.5],[-5.9104,38.3031,540.5],[-5.9064,38.3052,540.5],[-5.9126,38.3155,528.0387],[-5.9112,38.318,525.6547],[-5.9131,38.3189,528.7533],[-5.9137,38.3228,525.9084],[-5.9111,38.3268,520.4954],[-5.9058,38.3291,522.1603],[-5.9079,38.3321,516.7892],[-5.9061,38.3329,515.448],[-5.9014,38.3311,513.364],[-5.8957,38.3351,511.24],[-5.8935,38.3403,508.4639],[-5.8976,38.3501,506.6393],[-5.8973,38.3533,503.9019],[-5.8948,38.3548,504.6655],[-5.9158,38.3683,531.2424],[-5.9188,38.3792,528.0133],[-5.9313,38.3795,538.8376],[-5.9384,38.3815,542.8177],[-5.9496,38.3803,552.9253],[-5.9589,38.3847,560.5034],[-5.9814,38.382,571.9446],[-5.9935,38.3865,544.9002],[-6.0009,38.3857,530.7763],[-6.0221,38.3734,487.7516],[-6.0414,38.3578,536.1641],[-6.0501,38.3571,544.3898],[-6.0584,38.3597,573.1592],[-6.065,38.3645,560.9329],[-6.0655,38.3725,529.1762],[-6.0704,38.383,453.8295],[-6.0763,38.3881,451.1214],[-6.0729,38.3951,442.7996],[-6.0765,38.3978,436.8869],[-6.0753,38.4023,433.3128],[-6.0788,38.4057,428.5935],[-6.0724,38.405,435.4289],[-6.0728,38.4074,423.578],[-6.0701,38.409,423.4895],[-6.0716,38.4097,423.8213],[-6.0715,38.4136,424.1917],[-6.0692,38.4151,420.7598],[-6.0709,38.4166,416.0639],[-6.0682,38.4173,414.9673],[-6.0704,38.4183,412.9443],[-6.0827,38.4151,416.1908],[-6.0849,38.419,405.6724],[-6.0907,38.4192,409.4428],[-6.0931,38.4255,404.0038],[-6.0961,38.4248,408.0131],[-6.098,38.4276,400.5412],[-6.1085,38.4306,396.7126],[-6.1112,38.4335,396.9317],[-6.1114,38.4382,394.9386],[-6.1159,38.4402,393.142],[-6.11,38.4431,391.2824],[-6.1098,38.4485,388.4825],[-6.107,38.4539,392.7663],[-6.1097,38.4556,386.3855],[-6.111,38.4638,378.7798],[-6.1183,38.4658,374.3095],[-6.1282,38.4655,374.9291],[-6.1306,38.4608,377.577],[-6.1415,38.4574,384.5677],[-6.1505,38.4575,387.1304],[-6.1564,38.4606,404.0924],[-6.1663,38.4617,398.1607],[-6.1706,38.459,407.3798],[-6.1764,38.4456,463.5733],[-6.1842,38.4421,477.3406],[-6.1861,38.4382,529.6355],[-6.2129,38.4328,509.8129],[-6.2234,38.4439,473.2318],[-6.2239,38.4495,469.8448],[-6.2273,38.4554,468.6558],[-6.2287,38.4537,480.0553],[-6.2357,38.4529,492.4166],[-6.2442,38.4553,495.4886],[-6.2616,38.4487,514.3949],[-6.286,38.4438,516.7619],[-6.2986,38.4336,542.3596],[-6.3048,38.4307,545.2789],[-6.3203,38.4171,573.7195],[-6.3192,38.3901,549.953],[-6.3124,38.3617,547.1412],[-6.3429,38.3609,516.351],[-6.3631,38.3667,538.1992],[-6.379,38.3683,533.7289],[-6.3931,38.366,534.9878],[-6.4035,38.3703,539.9502],[-6.4166,38.3716,541.5955],[-6.4298,38.379,540.5345],[-6.4368,38.3736,527.0715],[-6.4429,38.3712,537.0851],[-6.4427,38.3683,541.6932],[-6.4556,38.3576,539.9202],[-6.4665,38.359,569.4522],[-6.472,38.3561,590.9664],[-6.4778,38.3641,607.8675],[-6.4823,38.365,627.4171],[-6.4911,38.3758,565.1495],[-6.5034,38.3707,510.657],[-6.5102,38.3651,466.8012],[-6.5117,38.3595,453.9163],[-6.5118,38.3544,462.0794],[-6.5084,38.3528,431.8105],[-6.51,38.3465,420.2825],[-6.5087,38.342,410.0293],[-6.5124,38.3346,384.1021],[-6.5029,38.3285,445.7464],[-6.4969,38.3154,364.8444],[-6.5019,38.3147,358.8259],[-6.5049,38.3161,360.7674],[-6.5099,38.3146,355.6824],[-6.5121,38.3162,362.1786],[-6.5126,38.3203,350.5829],[-6.5179,38.3186,355.267],[-6.5237,38.3202,345.9747],[-6.5282,38.3142,340.3527],[-6.5352,38.316,343.4697],[-6.5385,38.3142,339.8967],[-6.539,38.3115,335.1484],[-6.5358,38.31,350.1785],[-6.5363,38.3079,349.7423],[-6.5391,38.308,328.2097],[-6.5424,38.3123,340.2612],[-6.5481,38.3157,325.4434],[-6.555,38.3131,325.7759],[-6.563,38.3152,315.7443],[-6.5604,38.3093,330.6303],[-6.5629,38.3065,320.0927],[-6.5722,38.3083,312.0858],[-6.5778,38.3065,306.0496],[-6.5646,38.2996,309.827],[-6.5616,38.293,319.8557],[-6.5542,38.2875,315.0467],[-6.5552,38.282,334.3505],[-6.5526,38.28,317.9502],[-6.549,38.2794,318.7585],[-6.5359,38.2827,329.5373],[-6.5271,38.277,341.2441],[-6.5301,38.2667,339.1669],[-6.5237,38.2653,345.8378],[-6.5176,38.2552,349.6524],[-6.5132,38.2549,353.5724],[-6.5107,38.2591,356.4018],[-6.5063,38.2595,358.0677],[-6.5017,38.2531,370.913],[-6.4864,38.2504,366.9504],[-6.476,38.2452,371.5583],[-6.4739,38.2426,374.6311],[-6.4754,38.2391,378.3635],[-6.4718,38.2294,382.8106],[-6.477,38.224,386.6238],[-6.4768,38.2193,386.7694],[-6.471,38.2141,388.9036],[-6.4665,38.2148,394.851],[-6.4641,38.2124,396.4749],[-6.4609,38.2147,399.767],[-6.4562,38.2112,417.43],[-6.4499,38.2117,406.8341],[-6.4471,38.2094,420.15],[-6.4462,38.2039,409.301],[-6.4419,38.2023,408.6966],[-6.4377,38.2048,419.1724],[-6.427,38.1998,434.253],[-6.4269,38.1929,431.9159],[-6.4295,38.1832,444.7027],[-6.4286,38.1803,436.6525],[-6.4251,38.1779,440.4806],[-6.4181,38.1986,464.0859],[-6.4164,38.2136,495.123],[-6.413,38.2156,500.9916],[-6.4082,38.2039,505.412],[-6.3996,38.1991,522.0898],[-6.3949,38.2022,532.2849],[-6.3904,38.2026,550.5345],[-6.3727,38.1866,572.8822],[-6.374,38.1714,579.0586],[-6.369,38.1571,584.2605],[-6.3614,38.1432,637.8673],[-6.363,38.1384,646.6476],[-6.3679,38.1335,651.3055],[-6.3752,38.1215,533.8618],[-6.3784,38.1193,501.9824],[-6.378,38.1169,529.9869],[-6.3683,38.1083,533.6864],[-6.3692,38.1059,551.1995],[-6.3602,38.1054,579.0405],[-6.3552,38.1021,590.3018],[-6.3554,38.0931,588.1077],[-6.3535,38.0894,592.0953],[-6.3556,38.0883,596.7128],[-6.3554,38.0863,600.1511],[-6.3616,38.0837,642.5583],[-6.3589,38.0832,643.7562],[-6.3596,38.0804,634.648],[-6.3625,38.0805,648.7178],[-6.3585,38.0758,678.8882],[-6.3617,38.0741,702.828],[-6.3603,38.0697,698.687],[-6.3633,38.0644,784.5387],[-6.3606,38.0559,879.3642],[-6.3633,38.0498,938.7414],[-6.3581,38.0263,824.2343],[-6.359,38.0167,620.4316],[-6.3526,38.0074,618.7416],[-6.346,38.0024,601.282],[-6.3334,37.9981,569.6882],[-6.3292,37.9983,567.0598],[-6.3216,37.9934,550.9828],[-6.3196,37.9902,554.912],[-6.309,37.9852,533.3124],[-6.3032,37.9783,527.0009],[-6.2888,37.9766,517.3505],[-6.28,37.9735,506.4771],[-6.2524,37.9716,489.3958],[-6.2461,37.9659,491.8535],[-6.2459,37.9631,480.6393],[-6.2396,37.9591,475.9673],[-6.2331,37.958,471.8845],[-6.2144,37.9614,466.1386],[-6.2102,37.9607,479.435],[-6.2093,37.9586,469.9288],[-6.2052,37.9597,463.8695],[-6.2039,37.9622,480.7378],[-6.2011,37.9619,456.5541],[-6.2003,37.9606,471.1674],[-6.202,37.9595,446.2574],[-6.194,37.9547,433.5894],[-6.1961,37.9491,430.3794],[-6.1856,37.9451,427.6149],[-6.1801,37.941,425.3424],[-6.1773,37.9461,424.399],[-6.1678,37.9519,442.7686],[-6.1677,37.9558,445.2586],[-6.1544,37.9576,447.1846],[-6.1485,37.9626,460.8239],[-6.1492,37.9661,465.7038],[-6.1423,37.9658,471.0581],[-6.1361,37.9722,497.0779],[-6.1297,37.9731,523.866],[-6.1152,37.9818,582.1697],[-6.0943,37.9816,714.8932],[-6.09,37.9845,625.2043],[-6.0827,37.9857,581.2096],[-6.0777,37.9846,585.6899],[-6.0652,37.9885,508.9665],[-6.0617,37.9915,491.306],[-6.0552,37.9923,511.7351],[-6.0522,37.9967,543.8276],[-6.046,37.9969,584.4861]]]]}
,"properties": {"GID_3": "ESP.11.1.10_1","GID_0": "ESP","country": "Spain","GID_1": "ESP.11_1","province": "Extremadura","NL_NAME_1": "NA","GID_2": "ESP.11.1_1","county": "Badajoz","NL_NAME_2": "NA","city": "n.a.(48)","VARNAME_3": "NA","NL_NAME_3": "NA","TYPE_3": "Comarca","ENGTYPE_3": "Comarca","CC_3": "NA","HASC_3": "NA","name": "n.a.(48).city","area_km2": 2158.1,"hist_schema_id": "Elevation0-9000","hist_area_km2": {"300": 0.266,"325": 7.073,"350": 13.295,"375": 23.579,"400": 49.277,"425": 76.459,"450": 101.384,"475": 135.084,"500": 192.063,"525": 262.36,"550": 290.871,"575": 317.257,"600": 254.773,"625": 134.225,"650": 79.158,"675": 50.743,"700": 42.412,"725": 35.025,"750": 26.25,"775": 19.21,"800": 14.371,"825": 10.382,"850": 7.695,"875": 5.007,"900": 3.055,"925": 2.103,"950": 1.352,"975": 1.236,"1000": 0.868,"1025": 0.668,"1050": 0.451,"1075": 0.117,"1100": 0.033}}}