{"type":"Feature","properties":{"GID_3":"ESP.11.2.1_1","GID_0":"ESP","country":"Spain","GID_1":"ESP.11_1","province":"Extremadura","NL_NAME_1":"NA","GID_2":"ESP.11.2_1","county":"Cáceres","NL_NAME_2":"NA","city":"n.a.(69)","VARNAME_3":"NA","NL_NAME_3":"NA","TYPE_3":"Comarca","ENGTYPE_3":"Comarca","CC_3":"NA","HASC_3":"NA","name":"n.a.(69).city"},
"geometry":{"type": "MultiPolygon","coordinates": [[[[-5.864,40.228,1597.5278],[-5.8547,40.2272,1594.2697],[-5.8447,40.2348,1746.6724],[-5.8316,40.2373,1790.7303],[-5.8202,40.2488,1745.8521],[-5.8159,40.2473,1764.3137],[-5.8112,40.2494,1799.6804],[-5.8002,40.2487,1666.1327],[-5.7806,40.2521,1754.1675],[-5.7787,40.2584,1830.662],[-5.7726,40.2607,1874.4612],[-5.7672,40.266,1872.8209],[-5.7633,40.2751,2042.5366],[-5.7649,40.2808,2153.6216],[-5.793,40.2867,1556.702],[-5.8026,40.2976,1157.6252],[-5.7932,40.3003,1251.2107],[-5.7892,40.3065,1411.5957],[-5.7819,40.3125,1566.8735],[-5.7938,40.3485,1401.0752],[-5.7974,40.3533,1565.045],[-5.8083,40.35,1256.6956],[-5.8167,40.3509,1133.5687],[-5.8225,40.3479,1180.0388],[-5.8248,40.3442,1167.1119],[-5.847,40.3281,1051.761],[-5.8536,40.3315,859.4138],[-5.8498,40.3382,885.9943],[-5.8522,40.337,932.5651],[-5.8549,40.3384,973.2858],[-5.8577,40.3344,1025.5172],[-5.8675,40.3314,1035.8984],[-5.874,40.3266,1143.436],[-5.8841,40.3266,1183.4735],[-5.8936,40.3182,1077.7878],[-5.8922,40.3119,990.0054],[-5.896,40.3053,932.3853],[-5.9082,40.2901,828.1797],[-5.9139,40.2871,790.4117],[-5.9171,40.2777,598.5889],[-5.9207,40.2809,619.4009],[-5.9377,40.2811,577.4617],[-5.9416,40.2844,670.3978],[-5.9648,40.2915,561.8481],[-5.9684,40.2896,546.8555],[-5.9755,40.2932,536.9536],[-5.9788,40.297,571.3456],[-5.992,40.299,777.318],[-6.0061,40.3061,913.0389],[-6.0113,40.3133,961.0139],[-6.0163,40.3165,954.7474],[-6.0195,40.3226,891.4079],[-6.0159,40.3403,602.712],[-6.0276,40.3395,854.1744],[-6.0456,40.3429,968.3993],[-6.0521,40.3416,995.8867],[-6.0676,40.3475,819.4871],[-6.1056,40.3568,382.7672],[-6.1021,40.3584,380.0],[-6.0968,40.3565,380.0],[-6.0923,40.3617,380.0],[-6.0858,40.3608,380.0],[-6.0823,40.3632,380.0],[-6.0811,40.3731,380.0],[-6.0863,40.3751,385.9754],[-6.0862,40.378,388.9837],[-6.0841,40.38,389.0826],[-6.0747,40.3822,388.8246],[-6.0724,40.3876,380.5],[-6.0837,40.3885,385.045],[-6.0852,40.3899,386.7429],[-6.0835,40.3923,419.9244],[-6.0761,40.391,386.6797],[-6.0741,40.3958,450.8948],[-6.0669,40.3951,381.3223],[-6.0648,40.3966,382.2229],[-6.068,40.3993,386.9058],[-6.0738,40.4008,384.9117],[-6.075,40.4034,382.4757],[-6.0828,40.403,389.0362],[-6.085,40.407,392.1077],[-6.0876,40.4087,397.9377],[-6.0918,40.408,398.498],[-6.0927,40.4112,411.7724],[-6.0973,40.4131,406.2328],[-6.104,40.415,423.3025],[-6.107,40.414,423.4635],[-6.1179,40.4159,421.7114],[-6.1188,40.4193,451.4244],[-6.1294,40.4208,447.9041],[-6.125,40.4294,589.4259],[-6.1192,40.4351,764.8491],[-6.1169,40.4353,777.3668],[-6.116,40.4416,1162.4426],[-6.1201,40.4427,1117.2346],[-6.1322,40.4369,996.4917],[-6.1469,40.4361,641.7239],[-6.1558,40.4478,1006.176],[-6.1524,40.4526,972.4631],[-6.1576,40.457,938.7807],[-6.1691,40.4581,1239.6168],[-6.1803,40.4622,1235.4803],[-6.1865,40.4664,1217.2018],[-6.1876,40.4713,1387.6099],[-6.1911,40.4722,1436.0405],[-6.2013,40.4829,1578.14],[-6.2119,40.4827,1409.0298],[-6.2312,40.4867,1351.0042],[-6.2398,40.4859,1363.7557],[-6.2549,40.47,1126.2756],[-6.2647,40.4709,1119.0254],[-6.2683,40.4676,1075.0015],[-6.2709,40.4609,1105.4547],[-6.2752,40.4585,1228.8875],[-6.2877,40.4576,1249.6432],[-6.2943,40.452,1043.8928],[-6.3222,40.4505,1163.7704],[-6.3252,40.4477,1196.2745],[-6.3346,40.4475,1196.5074],[-6.3445,40.4428,1241.0516],[-6.3458,40.4371,1263.1213],[-6.3654,40.4224,1495.3613],[-6.3657,40.4173,1443.9833],[-6.3613,40.4154,1532.671],[-6.3629,40.4117,1504.53],[-6.3618,40.4071,1561.8405],[-6.3759,40.4002,1387.7937],[-6.3831,40.4007,1467.0381],[-6.3911,40.399,1352.3258],[-6.4077,40.402,1349.6215],[-6.4187,40.3993,1311.0544],[-6.4242,40.3915,1200.1342],[-6.4395,40.3816,1170.9818],[-6.441,40.378,1228.2856],[-6.4327,40.3563,1505.908],[-6.4433,40.3489,1259.8947],[-6.449,40.3306,1064.5349],[-6.4538,40.3282,1001.3076],[-6.4594,40.3169,988.8928],[-6.4562,40.3043,1008.337],[-6.4567,40.3006,1002.1108],[-6.4623,40.2972,967.2507],[-6.4641,40.2885,928.6695],[-6.4688,40.2813,935.6022],[-6.4748,40.2771,877.2708],[-6.4859,40.2611,966.9479],[-6.4838,40.255,986.6001],[-6.4853,40.2531,990.9224],[-6.4816,40.2507,1047.1515],[-6.4704,40.2523,1006.5277],[-6.468,40.2573,967.4933],[-6.4557,40.2713,942.5658],[-6.4525,40.2725,959.1357],[-6.4359,40.2708,960.3698],[-6.433,40.2723,940.651],[-6.4232,40.273,823.4698],[-6.416,40.2782,783.7947],[-6.4084,40.2784,682.4731],[-6.4022,40.2817,587.1214],[-6.396,40.2827,686.7104],[-6.38,40.2909,675.7527],[-6.3639,40.2913,602.7938],[-6.3632,40.2869,543.5853],[-6.3608,40.2844,571.9042],[-6.3538,40.281,741.0743],[-6.3467,40.2825,774.87],[-6.3361,40.2789,636.4507],[-6.3359,40.2766,650.7169],[-6.3325,40.275,559.9772],[-6.3282,40.264,523.6942],[-6.328,40.258,538.4807],[-6.3234,40.2529,576.0501],[-6.3162,40.2493,498.9918],[-6.3168,40.2457,502.4487],[-6.3094,40.2382,479.6107],[-6.307,40.2275,425.3479],[-6.2866,40.2311,438.595],[-6.2817,40.23,435.5931],[-6.2831,40.2236,448.0175],[-6.2794,40.2219,443.3076],[-6.2791,40.2168,429.8015],[-6.2765,40.2144,420.3741],[-6.2889,40.206,406.7762],[-6.2861,40.1994,402.2063],[-6.2823,40.1984,398.9172],[-6.2788,40.2021,427.1816],[-6.2739,40.2037,452.1236],[-6.2683,40.2015,468.6748],[-6.2595,40.2022,452.0977],[-6.2474,40.1992,425.113],[-6.2413,40.1999,428.2359],[-6.2263,40.1953,392.8246],[-6.2181,40.1906,416.7975],[-6.2172,40.1855,375.0755],[-6.2143,40.1842,369.0641],[-6.214,40.182,362.9716],[-6.21,40.1808,357.5355],[-6.2078,40.177,350.2874],[-6.2097,40.1734,351.1927],[-6.2078,40.1714,335.2756],[-6.2133,40.1623,376.8513],[-6.2076,40.1579,390.9656],[-6.2136,40.1549,369.5983],[-6.204,40.1459,306.0],[-6.2058,40.1439,306.0],[-6.206,40.1382,306.0],[-6.2153,40.1314,311.6795],[-6.2188,40.1234,316.7695],[-6.2208,40.1223,305.5],[-6.2271,40.1233,305.5],[-6.2229,40.1183,357.4706],[-6.2145,40.114,387.7728],[-6.2066,40.1127,413.6015],[-6.1984,40.108,405.2574],[-6.1787,40.1063,399.2623],[-6.1781,40.1102,403.1291],[-6.1735,40.1169,404.4044],[-6.1567,40.1311,421.2514],[-6.0974,40.1681,386.4048],[-6.0814,40.1686,386.1487],[-6.0731,40.1717,371.6411],[-6.0106,40.2058,385.0465],[-5.9578,40.1771,1227.061],[-5.9507,40.1682,1474.6416],[-5.9344,40.175,1427.4507],[-5.9273,40.1795,1465.428],[-5.9121,40.1793,1580.5166],[-5.9015,40.1982,1808.0342],[-5.8932,40.2049,1686.427],[-5.8886,40.212,1721.1094],[-5.8798,40.2126,1580.53],[-5.8717,40.2217,1421.8905],[-5.87,40.226,1542.4272],[-5.864,40.228,1597.5278]]]]}}