{"type": "Feature","bbox": [-0.4261,39.0991,-0.216,39.3304],"geometry": {"type": "MultiPolygon","coordinates": [[[[-0.3047,39.0991,539.2625],[-0.2987,39.101,348.3972],[-0.2873,39.1162,179.0162],[-0.2744,39.1235,1.3085],[-0.2348,39.1035,1.6429],[-0.2226,39.1057,0.6693],[-0.2276,39.1146,0.8365],[-0.2296,39.1229,0.7221],[-0.2368,39.1279,0.259],[-0.2362,39.1287,0.259],[-0.2324,39.1271,1.2674],[-0.2399,39.1471,2.6087],[-0.2415,39.1674,1.5673],[-0.2401,39.1743,4.8866],[-0.2357,39.1804,3.1545],[-0.2296,39.1799,0.0],[-0.2276,39.1818,3.744],[-0.224,39.181,9.2328],[-0.2232,39.1821,28.4937],[-0.2199,39.1807,4.101],[-0.216,39.1868,1.0166],[-0.2204,39.1871,0.0],[-0.2232,39.1893,0.0],[-0.2351,39.2104,0.3574],[-0.2482,39.2293,2.8181],[-0.2612,39.2557,0.0],[-0.2754,39.2793,3.0454],[-0.2916,39.2832,-0.4996],[-0.3056,39.2993,-0.804],[-0.3128,39.3037,-0.7076],[-0.3182,39.3033,-0.6127],[-0.3184,39.3118,1.1148],[-0.3225,39.314,-1.3186],[-0.3293,39.3133,-1.4209],[-0.334,39.3173,-1.316],[-0.3358,39.3146,-1.2976],[-0.3371,39.3163,-1.199],[-0.3475,39.3154,-0.3453],[-0.3502,39.3111,-0.2095],[-0.3559,39.3123,0.0],[-0.3591,39.3068,-0.8521],[-0.3646,39.3052,-1.0759],[-0.3678,39.3078,-0.9064],[-0.3754,39.3073,-0.8192],[-0.38,39.3111,-0.6909],[-0.3767,39.3123,-0.8037],[-0.3815,39.3167,-1.2579],[-0.3847,39.3176,-0.4697],[-0.3908,39.3151,-0.5237],[-0.3917,39.3231,-1.2518],[-0.3944,39.3233,-1.0858],[-0.3955,39.3263,-1.3256],[-0.4056,39.3257,4.5928],[-0.4261,39.3304,24.5932],[-0.4216,39.3097,19.7535],[-0.4248,39.3065,27.2329],[-0.4188,39.2948,12.8676],[-0.4196,39.2882,11.0707],[-0.4172,39.2872,8.7273],[-0.4164,39.2838,7.6983],[-0.414,39.2823,6.9558],[-0.4131,39.2432,10.7191],[-0.4011,39.2421,7.9891],[-0.3952,39.2432,5.9949],[-0.3837,39.2412,4.4008],[-0.3755,39.2425,3.1798],[-0.3887,39.2251,8.0206],[-0.393,39.2149,11.3775],[-0.3955,39.2155,11.2542],[-0.4037,39.2033,14.4097],[-0.4024,39.1997,13.0092],[-0.4046,39.1989,12.9051],[-0.4079,39.201,13.6212],[-0.4096,39.1991,12.406],[-0.4081,39.1938,12.5664],[-0.411,39.1861,12.9626],[-0.3965,39.181399999999996,13.4804],[-0.381,39.1662,31.496],[-0.3788,39.1595,28.295],[-0.3808,39.1559,43.3284],[-0.3711,39.1445,324.1245],[-0.3475,39.1273,475.1132],[-0.3451,39.1222,493.3261],[-0.3247,39.1119,476.943],[-0.3047,39.0991,539.2625]]]]}
,"properties": {"GID_3": "ESP.10.3.14_1","GID_0": "ESP","country": "Spain","GID_1": "ESP.10_1","province": "ComunidadValenciana","NL_NAME_1": "NA","GID_2": "ESP.10.3_1","county": "Valencia","NL_NAME_2": "NA","city": "RiberaBaixa","VARNAME_3": "NA","NL_NAME_3": "NA","TYPE_3": "Comarca","ENGTYPE_3": "Comarca","CC_3": "NA","HASC_3": "NA","name": "Ribera_Baixa.city","area_km2": 275.5549,"hist_schema_id": "Elevation0-9000","hist_area_km2": {"0": 232.0596,"25": 20.3239,"50": 4.1927,"75": 2.9434,"100": 2.5817,"125": 1.8583,"150": 1.7432,"175": 1.7761,"200": 1.1841,"225": 0.8717,"250": 0.9704,"275": 0.6086,"300": 0.7566,"325": 0.5099,"350": 0.5263,"375": 0.3454,"400": 0.5593,"425": 0.5264,"450": 0.2797,"475": 0.3125,"500": 0.3125,"525": 0.1974,"550": 0.0658,"575": 0.0329,"600": 0.0165}}}