{"type": "Feature","bbox": [-5.35839,36.1105,-5.33877,36.14112],"geometry": {"type": "Polygon","coordinates": [[[-5.35839,36.14111,4.3026],[-5.35025,36.11929,64.9527],[-5.34203,36.1105,0.0],[-5.33906,36.12385,0.0],[-5.33991,36.12983,0.0],[-5.33877,36.14112,0.9012],[-5.35839,36.14111,4.3026]]]}
,"properties": {"ISO3166-1-Alpha-3": "GIB","country": "Gibraltar","name": "Gibraltar","area_km2": 3.818816,"hist_schema_id": "Elevation0-9000","hist_area_km2": {"0": 1.04461,"25": 0.445216,"50": 0.308252,"75": 0.325389,"100": 0.239753,"125": 0.239765,"150": 0.205491,"175": 0.171248,"200": 0.205488,"225": 0.085623,"250": 0.068493,"275": 0.119873,"300": 0.171242,"325": 0.119871,"350": 0.068503}}}