{"type": "Feature","bbox": [-3.9809,42.1095,-3.3393,42.6805],"geometry": {"type": "MultiPolygon","coordinates": [[[[-3.5238,42.1522,1099.8362],[-3.5323,42.1565,1079.7855],[-3.5346,42.1605,1065.1782],[-3.513,42.1862,1056.9812],[-3.501,42.1936,1092.4116],[-3.4908,42.1959,1107.7697],[-3.4818,42.2008,1155.7551],[-3.4821,42.1977,1195.3721],[-3.4752,42.2008,1229.6631],[-3.4396,42.184,1406.5706],[-3.4076,42.1753,1288.2871],[-3.4001,42.177,1263.5671],[-3.4015,42.1812,1243.1293],[-3.3989,42.1845,1226.0264],[-3.3893,42.1931,1239.8427],[-3.3798,42.1983,1361.9578],[-3.3676,42.2127,1627.1758],[-3.3567,42.2176,1424.6357],[-3.3557,42.22,1386.6451],[-3.3596,42.2298,1230.6777],[-3.3393,42.2472,1150.4132],[-3.347,42.2473,1240.5278],[-3.3555,42.243899999999996,1368.3383],[-3.361,42.2448,1419.8724],[-3.3858,42.2413,1529.9111],[-3.3899,42.2428,1534.29],[-3.3994,42.2424,1536.4172],[-3.4021,42.2486,1450.9065],[-3.4065,42.2484,1390.9113],[-3.4111,42.2463,1282.3582],[-3.4104,42.2454,1329.7327],[-3.4163,42.2494,1209.2336],[-3.4342,42.2549,1158.4125],[-3.437,42.2591,1165.415],[-3.4384,42.2689,1101.262],[-3.4326,42.2683,1140.9458],[-3.4229,42.2704,1104.9761],[-3.4233,42.2777,1069.1083],[-3.4153,42.2708,1109.7242],[-3.412,42.2712,1115.9517],[-3.412,42.2826,1101.1613],[-3.416,42.2843,1092.0891],[-3.4194,42.2883,1098.4449],[-3.4194,42.291,1096.2516],[-3.4145,42.2931,1076.8147],[-3.4038,42.2943,1099.6425],[-3.4113,42.2978,1101.1473],[-3.4044,42.3101,1020.9675],[-3.4082,42.3144,1015.9525],[-3.3866,42.3262,1056.8593],[-3.3784,42.3344,1087.5759],[-3.3753,42.3354,1098.5676],[-3.3564,42.3298,1199.3088],[-3.3538,42.337,1129.5375],[-3.3555,42.3379,1156.4377],[-3.3556,42.3463,1197.7847],[-3.3494,42.3485,1196.9617],[-3.3443,42.3551,1194.7488],[-3.3449,42.3591,1188.7346],[-3.3515,42.367,1155.9321],[-3.3675,42.367,1141.0826],[-3.3915,42.3742,1100.6755],[-3.4197,42.3788,1055.5393],[-3.4242,42.3827,1048.4955],[-3.4243,42.3917,1018.7596],[-3.4285,42.3955,967.5513],[-3.4311,42.4033,946.5278],[-3.4377,42.4047,963.3458],[-3.4424,42.4023,962.7858],[-3.4451,42.4151,946.4196],[-3.4438,42.4163,953.7639],[-3.4455,42.4176,948.7916],[-3.4487,42.4165,896.051],[-3.4505,42.4227,890.5152],[-3.4522,42.4232,896.9174],[-3.4507,42.4265,884.4129],[-3.4579,42.4291,916.8854],[-3.461,42.4334,915.1066],[-3.4707,42.4389,993.5136],[-3.4753,42.4364,998.7571],[-3.4861,42.4369,992.733],[-3.5027,42.4301,974.9421],[-3.5262,42.4309,992.85],[-3.53,42.4388,959.7906],[-3.5176,42.469,987.4614],[-3.5205,42.4706,993.3771],[-3.5289,42.4679,928.2065],[-3.5316,42.4722,914.2485],[-3.5273,42.4904,922.9955],[-3.5276,42.4996,948.0171],[-3.5311,42.5036,948.4888],[-3.5308,42.5065,927.4009],[-3.5357,42.5161,912.7596],[-3.5447,42.519,979.3448],[-3.5383,42.5277,860.844],[-3.5361,42.535,810.5397],[-3.537,42.5428,776.8798],[-3.5414,42.5464,752.8538],[-3.5415,42.5489,752.9202],[-3.5494,42.5497,787.4727],[-3.5544,42.552,796.9742],[-3.5616,42.5502,853.5385],[-3.5694,42.5554,863.8323],[-3.5691,42.5675,818.6326],[-3.5653,42.5721,796.7144],[-3.5675,42.5818,763.5933],[-3.5643,42.5834,748.9686],[-3.5636,42.5874,751.7844],[-3.5686,42.5922,763.608],[-3.5734,42.5907,791.165],[-3.5724,42.5957,800.3191],[-3.5858,42.5978,858.2081],[-3.6196,42.592,941.4605],[-3.622,42.595,947.4384],[-3.6223,42.6013,956.9326],[-3.6307,42.6024,938.92],[-3.6375,42.6146,993.8806],[-3.6326,42.6154,949.0388],[-3.6334,42.6125,955.0015],[-3.6316,42.6128,948.6301],[-3.6235,42.6268,981.0258],[-3.6023,42.6401,1079.5414],[-3.5992,42.6468,1072.3075],[-3.6,42.6546,1065.0842],[-3.6058,42.6591,1070.7158],[-3.6198,42.6565,1067.2369],[-3.6159,42.6668,1081.4625],[-3.6144,42.6805,1068.3129],[-3.6261,42.6768,1056.8596],[-3.633,42.6801,1034.4929],[-3.6471,42.6716,1018.5983],[-3.651,42.6617,1013.2277],[-3.6678,42.6559,1026.1372],[-3.6697,42.6584,1041.4022],[-3.6721,42.6581,1042.8981],[-3.6787,42.654,997.4935],[-3.6901,42.6511,1033.7224],[-3.6987,42.6592,1004.311],[-3.7042,42.6602,996.319],[-3.7096,42.6635,985.5716],[-3.7121,42.6695,989.8811],[-3.7183,42.6698,974.9154],[-3.7319,42.6603,1007.5834],[-3.731,42.6565,1015.962],[-3.7398,42.6538,1030.875],[-3.743,42.6545,1032.0828],[-3.743,42.6521,1032.8044],[-3.745,42.6511,1034.7708],[-3.7378999999999998,42.6282,966.245],[-3.7406,42.6202,1007.2728],[-3.7464,42.616,1026.6127],[-3.7381,42.6069,1041.105],[-3.7441,42.6032,1015.8458],[-3.7389,42.5922,992.5078],[-3.7495,42.5671,1033.7463],[-3.748,42.5555,992.3265],[-3.755,42.5515,1001.7153],[-3.7491,42.5484,1002.2992],[-3.741,42.54,972.2305],[-3.7376,42.5339,957.714],[-3.7381,42.5167,1020.834],[-3.7415,42.5129,1034.8364],[-3.7425,42.5075,1007.122],[-3.7409,42.5002,1015.9795],[-3.7644,42.5019,948.3364],[-3.7728,42.4996,884.9071],[-3.7848,42.5018,877.6309],[-3.7909,42.5051,973.4524],[-3.7899,42.5194,1007.0905],[-3.7917,42.524,998.3561],[-3.7955,42.5261,1015.7252],[-3.8002,42.534,1020.1232],[-3.8138,42.5319,1014.3873],[-3.8296,42.5376,1006.9814],[-3.8383,42.5363,1003.0433],[-3.8476,42.5384,1014.1093],[-3.8542,42.5267,1013.6047],[-3.8662,42.5186,1016.0414],[-3.8976,42.471,970.5204],[-3.9052,42.4645,947.0283],[-3.9045,42.4608,960.0314],[-3.9098,42.4545,958.0071],[-3.9149,42.4529,953.7983],[-3.9229,42.4539,919.3514],[-3.9328,42.4455,928.0348],[-3.9374,42.4452,859.8754],[-3.9414,42.4411,921.5447],[-3.9503,42.4376,917.4773],[-3.9507,42.4349,903.4561],[-3.9481,42.4308,915.7753],[-3.9493,42.4291,920.8159],[-3.9539,42.4286,892.4776],[-3.9557,42.4268,892.0124],[-3.9575,42.4273,874.2503],[-3.9712,42.4212,897.1552],[-3.9755,42.4151,935.4952],[-3.972,42.4083,922.9609],[-3.9639,42.403,876.6419],[-3.9652,42.3998,901.7075],[-3.9599,42.3896,931.3146],[-3.9622,42.3833,874.6219],[-3.9595,42.3809,875.2994],[-3.9614,42.3779,909.3436],[-3.9757,42.3722,933.0745],[-3.976,42.3675,931.2675],[-3.9809,42.3577,920.4484],[-3.9745,42.339,933.3843],[-3.9614,42.3361,933.6387],[-3.954,42.3319,903.1416],[-3.9505,42.3168,940.9637],[-3.9551,42.314,940.9855],[-3.9494,42.3099,941.7338],[-3.9557,42.308,939.1367],[-3.9629,42.3028,934.369],[-3.9649,42.2883,930.7654],[-3.9607,42.2844,926.0787],[-3.9577,42.2769,886.8109],[-3.9608,42.2729,917.6982],[-3.9608,42.2701,900.928],[-3.9667,42.2668,917.4312],[-3.9607,42.2565,821.8506],[-3.9523,42.2486,798.0613],[-3.947,42.248,791.2467],[-3.9456,42.2499,792.3536],[-3.9424,42.2501,792.7475],[-3.9383,42.2546,797.301],[-3.9233,42.2555,793.2648],[-3.9219,42.2535,808.1634],[-3.9186,42.2534,799.861],[-3.9156,42.2495,882.1424],[-3.9146,42.2408,906.1538],[-3.9165,42.2331,908.2326],[-3.9202,42.2288,913.5302],[-3.9105,42.2238,932.3633],[-3.9034,42.2271,907.6284],[-3.8936,42.2228,932.394],[-3.8829,42.214,866.4867],[-3.872,42.2147,855.5247],[-3.866,42.2092,892.3703],[-3.862,42.2084,874.8387],[-3.8575,42.2102,896.0839],[-3.8523,42.1991,866.6212],[-3.8342,42.2025,853.3963],[-3.8189,42.1986,866.5559],[-3.8133,42.2066,872.3934],[-3.8058,42.2127,888.154],[-3.7909,42.2152,892.1505],[-3.7797,42.2146,889.3658],[-3.7738,42.2123,887.3428],[-3.7484,42.2242,887.0801],[-3.7278,42.2267,912.0387],[-3.7182,42.2241,914.7766],[-3.7062,42.2256,919.2369],[-3.6639,42.2053,926.0142],[-3.6592,42.1923,945.663],[-3.6619,42.1836,933.9313],[-3.6577,42.1826,952.0547],[-3.6539,42.176,967.0355],[-3.6582,42.1629,965.7595],[-3.6509,42.1605,966.0742],[-3.6441,42.1638,959.8845],[-3.6334,42.1617,968.351],[-3.6259,42.1532,985.5826],[-3.6225,42.1466,989.7212],[-3.608,42.1316,999.3436],[-3.6073,42.1297,996.8824],[-3.6134,42.1244,1004.7922],[-3.6221,42.1209,990.9169],[-3.6207,42.1153,987.3799],[-3.6149,42.1117,977.2028],[-3.6154,42.1095,970.8793],[-3.602,42.1123,985.6562],[-3.5997,42.1109,978.3143],[-3.5868,42.112,997.1371],[-3.5816,42.1216,1040.6824],[-3.5779,42.1246,1020.447],[-3.5738,42.1247,1068.1853],[-3.5729,42.1223,1084.8158],[-3.5624,42.1197,1125.3835],[-3.559,42.1232,1153.5848],[-3.5563,42.1215,1140.2239],[-3.554,42.122,1117.5292],[-3.552,42.1265,1035.0795],[-3.5438,42.124,1050.4415],[-3.5525,42.1278,1041.7336],[-3.5513,42.136,1082.0966],[-3.546,42.1344,1080.8574],[-3.5331,42.14,1094.3094],[-3.5218,42.1394,1094.3792],[-3.5257,42.1407,1099.4108],[-3.5275,42.1441,1086.0361],[-3.5225,42.1465,1086.1201],[-3.5238,42.1522,1099.8362]]]]}
,"properties": {"GID_3": "ESP.5.2.4_1","GID_0": "ESP","country": "Spain","GID_1": "ESP.5_1","province": "CastillayLeón","NL_NAME_1": "NA","GID_2": "ESP.5.2_1","county": "Burgos","NL_NAME_2": "NA","city": "n.a.(62)","VARNAME_3": "NA","NL_NAME_3": "NA","TYPE_3": "Comarca","ENGTYPE_3": "Comarca","CC_3": "NA","HASC_3": "NA","name": "n.a.(62).city","area_km2": 1743.394,"hist_schema_id": "Elevation0-9000","hist_area_km2": {"725": 0.094,"750": 1.28,"775": 5.528,"800": 37.839,"825": 81.004,"850": 129.269,"875": 203.264,"900": 215.276,"925": 234.4,"950": 193.856,"975": 177.221,"1000": 140.11,"1025": 107.775,"1050": 71.895,"1075": 46.212,"1100": 24.071,"1125": 13.775,"1150": 11.358,"1175": 8.409,"1200": 6.419,"1225": 3.722,"1250": 3.157,"1275": 2.654,"1300": 2.654,"1325": 2.418,"1350": 2.732,"1375": 2.669,"1400": 2.795,"1425": 2.528,"1450": 2.12,"1475": 1.978,"1500": 1.523,"1525": 1.382,"1550": 0.785,"1575": 0.471,"1600": 0.487,"1625": 0.236,"1650": 0.031}}}