{"type":"Feature","properties":{"GID_3":"ESP.5.2.9_1","GID_0":"ESP","country":"Spain","GID_1":"ESP.5_1","province":"CastillayLeón","NL_NAME_1":"NA","GID_2":"ESP.5.2_1","county":"Burgos","NL_NAME_2":"NA","city":"n.a.(67)","VARNAME_3":"NA","NL_NAME_3":"NA","TYPE_3":"Comarca","ENGTYPE_3":"Comarca","CC_3":"NA","HASC_3":"NA","name":"n.a.(67).city"},
"geometry":{"type": "MultiPolygon","coordinates": [[[[-3.7959,41.4845,1043.4489],[-3.7876,41.4859,1051.5393],[-3.794,41.4915,1032.3364],[-3.8031,41.4964,1012.0459],[-3.8021,41.5044,996.3696],[-3.7991,41.509,992.8449],[-3.8041,41.5163,975.1559],[-3.8035,41.5267,964.0583],[-3.7878,41.5312,921.0847],[-3.7828,41.5306,965.7246],[-3.7677,41.539,879.028],[-3.7658,41.5368,887.5102],[-3.7714,41.5214,964.8381],[-3.7696,41.5179,980.3368],[-3.7695,41.5109,1006.9288],[-3.7669,41.5066,1022.8242],[-3.7708,41.4996,1009.3121],[-3.7685,41.4937,1040.8359],[-3.7704,41.4893,1052.619],[-3.7715,41.4706,1114.6864],[-3.7697,41.4601,1138.6237],[-3.7441,41.4611,1151.2917],[-3.7394,41.4508,1326.0389],[-3.729,41.4576,1352.5994],[-3.7323,41.4699,1123.9189],[-3.7236,41.4792,1070.8884],[-3.729,41.4839,1056.9282],[-3.7265,41.4954,995.1825],[-3.7281,41.5028,968.8258],[-3.7248,41.5078,958.1671],[-3.7282,41.5176,928.259],[-3.7166,41.524,928.2877],[-3.7068,41.5259,999.176],[-3.7068,41.5302,992.5366],[-3.6982,41.5341,967.4637],[-3.6915,41.5345,974.3621],[-3.6813,41.552,917.1313],[-3.6754,41.5544,888.4858],[-3.6717,41.5604,915.3671],[-3.6452,41.5721,915.9504],[-3.6261,41.57,898.3546],[-3.6168,41.5771,915.015],[-3.6087,41.5661,931.6552],[-3.6046,41.5656,929.1621],[-3.6007,41.5705,935.8539],[-3.5726,41.5654,973.4839],[-3.5711,41.5687,963.9875],[-3.5745,41.5725,947.9948],[-3.5709,41.5774,934.3749],[-3.5664,41.58,923.3727],[-3.5629,41.5774,964.6353],[-3.5529,41.5807,952.6716],[-3.5464,41.5801,948.06],[-3.5415,41.5776,938.006],[-3.5361,41.5865,965.7631],[-3.5504,41.5966,1010.7506],[-3.5456,41.5985,1015.6677],[-3.5406,41.5978,1014.2028],[-3.5396,41.6076,908.9312],[-3.5414,41.6082,905.6031],[-3.5291,41.6126,922.0383],[-3.5104,41.6003,987.414],[-3.5114,41.5982,1015.0192],[-3.5099,41.5972,1015.0192],[-3.4816,41.5975,945.7625],[-3.4813,41.5947,962.2255],[-3.4795,41.5946,973.0112],[-3.4753,41.597,977.4782],[-3.4682,41.5922,972.4101],[-3.4684,41.589,1007.384],[-3.4591,41.5896,1015.0417],[-3.4497,41.6058,849.8693],[-3.4426,41.6116,829.8356],[-3.4409,41.6184,837.7257],[-3.4353,41.622,849.8107],[-3.4393,41.6251,871.1121],[-3.4404,41.6295,907.7728],[-3.4365,41.6342,934.1315],[-3.4352,41.6394,948.1248],[-3.4329,41.6398,947.6095],[-3.4297,41.6463,962.1901],[-3.4214,41.6461,980.9722],[-3.419,41.6441,988.8086],[-3.4165,41.6479,980.9875],[-3.4177,41.6562,986.9736],[-3.4146,41.6648,941.897],[-3.4069,41.6732,916.1778],[-3.4073,41.6756,910.6832],[-3.3947,41.6845,872.3438],[-3.3933,41.6906,927.6717],[-3.3851,41.693,952.1861],[-3.3703,41.6918,948.0361],[-3.3583,41.6934,949.5043],[-3.3609,41.6995,917.8835],[-3.3617,41.7103,909.7953],[-3.3598,41.7137,906.996],[-3.3606,41.7216,918.161],[-3.3524,41.7292,958.47],[-3.3551,41.7338,969.6889],[-3.3528,41.7379,964.9548],[-3.3432,41.7387,965.2181],[-3.3356,41.7414,976.7688],[-3.3303,41.7393,999.8202],[-3.329,41.7406,1004.151],[-3.3228,41.7409,1010.6422],[-3.3216,41.7492,1028.099],[-3.325,41.7495,1024.5338],[-3.3267,41.7518,1023.6],[-3.3288,41.751,1021.6389],[-3.3296,41.7547,1023.9221],[-3.3466,41.7529,980.9522],[-3.3583,41.7548,974.2496],[-3.3637,41.7593,926.0642],[-3.3674,41.7668,908.5847],[-3.3762,41.7732,962.8578],[-3.3848,41.7781,926.3876],[-3.4038,41.7822,984.4919],[-3.4116,41.7875,1007.9187],[-3.4178,41.7855,976.2589],[-3.4319,41.7734,942.6615],[-3.4471,41.7706,968.4049],[-3.461,41.7858,898.9045],[-3.4583,41.7908,927.671],[-3.4625,41.7941,933.0201],[-3.4308,41.8119,976.5039],[-3.4431,41.8215,967.0907],[-3.4468,41.832,981.1305],[-3.4446,41.8363,969.7179],[-3.4355,41.8435,988.972],[-3.44,41.8536,1000.8291],[-3.438,41.8577,1014.8277],[-3.4437,41.8672,1040.1978],[-3.4442,41.8759,1044.6671],[-3.4514,41.8706,1031.4226],[-3.4663,41.8683,1019.2014],[-3.4869,41.86,1008.2089],[-3.4932,41.8715,989.3112],[-3.5107,41.8743,1020.3873],[-3.5208,41.8606,1006.6981],[-3.5485,41.8454,976.8765],[-3.5575,41.8458,961.2444],[-3.564,41.8412,978.6355],[-3.5687,41.8316,949.9912],[-3.5715,41.8336,960.1514],[-3.5936,41.836,984.8467],[-3.5985,41.834,963.4727],[-3.6143,41.838,936.0156],[-3.626,41.8387,945.1768],[-3.6466,41.8353,960.4762],[-3.6523,41.8323,954.6329],[-3.6553,41.8323,953.3469],[-3.6619,41.8359,949.9218],[-3.6688,41.8209,950.5138],[-3.6736,41.8188,943.6857],[-3.687,41.8215,916.9625],[-3.7147,41.8119,916.6027],[-3.7155,41.814,917.5574],[-3.7328,41.8003,937.152],[-3.7358,41.8016,933.2129],[-3.7477,41.797,914.976],[-3.7581,41.7958,929.0576],[-3.7671,41.7962,930.8522],[-3.7685,41.7973,939.3203],[-3.7689,41.8027,934.0629],[-3.7957,41.8029,930.0338],[-3.8011,41.804,928.391],[-3.8095,41.8087,919.9064],[-3.809,41.8126,907.8289],[-3.8122,41.8173,919.2076],[-3.8141,41.8261,867.7737],[-3.8208,41.8316,903.3778],[-3.8231,41.8391,922.1663],[-3.8249,41.8486,881.5234],[-3.8228,41.8499,867.6445],[-3.8235,41.8544,917.3088],[-3.8209,41.8631,932.9204],[-3.8341,41.8673,940.6246],[-3.8439,41.8726,926.6476],[-3.8558,41.8714,912.7089],[-3.8532,41.8653,929.9451],[-3.8555,41.8607,928.2089],[-3.8569,41.8427,858.7285],[-3.8626,41.8408,855.5109],[-3.8621,41.8372,863.7708],[-3.8708,41.8328,898.7532],[-3.8879,41.8276,896.8756],[-3.8926,41.8278,911.3518],[-3.8984,41.8232,852.8957],[-3.9014,41.8165,928.8536],[-3.9016,41.8066,910.709],[-3.9098,41.801,867.6978],[-3.9438,41.8013,927.9338],[-3.9466,41.8035,932.7961],[-3.9527,41.7993,895.6534],[-3.9566,41.7939,875.1535],[-3.9594,41.7933,884.2224],[-3.9633,41.788,869.0109],[-3.9736,41.7864,935.9466],[-3.9762,41.7872,929.3792],[-3.9799,41.7924,935.9736],[-3.9942,41.7982,847.3992],[-4.0058,41.7957,894.2025],[-4.0176,41.7892,939.0744],[-4.0177,41.7836,934.1471],[-4.0228,41.7798,928.9532],[-4.0388,41.7727,893.6845],[-4.0408,41.7683,901.3892],[-4.0495,41.7682,846.2186],[-4.0557,41.7407,898.5135],[-4.0656,41.7394,853.55],[-4.069,41.7412,846.6834],[-4.0759,41.7354,875.7528],[-4.0746,41.7287,891.44],[-4.0763,41.7261,895.5878],[-4.068,41.7265,904.2892],[-4.0588,41.7211,910.6383],[-4.0529,41.7196,910.0424],[-4.0512,41.7169,908.2258],[-4.042,41.7111,909.6663],[-4.026,41.6924,911.4062],[-4.0242,41.6755,906.6378],[-4.0258,41.6595,899.9098],[-4.0303,41.6305,895.0325],[-4.0348,41.6256,893.1064],[-4.0352,41.6206,892.2625],[-4.0321,41.6171,889.7197],[-4.0286,41.6144,761.4817],[-4.0225,41.616,752.9324],[-4.0165,41.6204,751.474],[-4.0116,41.617,755.5398],[-4.0058,41.6194,757.4819],[-4.0032,41.616,758.5377],[-4.0084,41.6119,761.6509],[-4.0086,41.61,758.9536],[-3.9928,41.6086,771.8803],[-3.9924,41.6004,865.6467],[-3.99,41.5984,865.6942],[-3.9849,41.5983,869.4686],[-3.9849,41.5905,852.9147],[-3.9835,41.586,848.8691],[-3.9806,41.5834,842.4993],[-3.9637,41.5861,860.7839],[-3.9604,41.578,933.26],[-3.953,41.5734,928.4753],[-3.9422,41.5691,934.1984],[-3.9286,41.5687,935.8626],[-3.9144,41.5634,938.0599],[-3.9055,41.557,939.2387],[-3.8945,41.5521,939.4664],[-3.8857,41.5323,935.2869],[-3.8828,41.534,937.7343],[-3.8751,41.5347,938.1555],[-3.8679,41.5325,937.9437],[-3.8636,41.529,941.6974],[-3.8527,41.5125,953.6951],[-3.8422,41.5006,974.1238],[-3.834,41.4996,979.8105],[-3.8238,41.4811,1021.8344],[-3.8001,41.4859,1031.9725],[-3.7959,41.4845,1043.4489]]]]}}