{"type":"Feature","properties":{"ISO3166-1-Alpha-3":"ESP","country":"Spain","fill":"#F0F","id":"5817","name":"Córdoba"},
"geometry":{"type": "Polygon","coordinates": [[[-4.92424,38.68332,396.2934],[-4.94597,38.68374,446.9125],[-4.9792,38.69438,405.0411],[-5.03659,38.72841,433.7565],[-5.06382,38.72539,347.4871],[-5.07987,38.71942,355.9299],[-5.15945,38.71795,501.8945],[-5.17045,38.71381,453.7223],[-5.17304,38.70821,515.2285],[-5.16919,38.70115,581.5143],[-5.16725,38.69343,500.7512],[-5.171,38.68299,403.3974],[-5.17438,38.6765,366.9882],[-5.17629,38.67087,398.5511],[-5.18082,38.66604,371.9922],[-5.21006,38.65904,393.9718],[-5.25577,38.63439,449.8344],[-5.28815,38.61253,401.3437],[-5.29319,38.60708,405.4884],[-5.29742,38.60317,403.7204],[-5.30052,38.59925,405.7061],[-5.30316,38.59462,411.1607],[-5.30347,38.59031,428.1693],[-5.30683,38.5855,408.9302],[-5.31132,38.58426,421.1845],[-5.31706,38.5838,428.5267],[-5.32915,38.58573,434.3187],[-5.34949,38.58604,485.5094],[-5.36241,38.58387,456.6127],[-5.3799,38.57144,452.2007],[-5.38545,38.56607,436.2177],[-5.39419,38.55517,444.9695],[-5.40031,38.54912,462.222],[-5.40413,38.54354,477.0889],[-5.40693,38.53811,459.5638],[-5.40783,38.53186,461.8459],[-5.41147,38.52483,463.0493],[-5.41964,38.51584,463.2463],[-5.44982,38.50039,478.275],[-5.4502,38.49998,497.8146],[-5.46491,38.48907,487.26369999999997],[-5.47059,38.48303,484.4141],[-5.48085,38.4692,493.4232],[-5.48821,38.46463,500.6452],[-5.50483,38.46016,500.4886],[-5.54929,38.44081,534.4861],[-5.56208,38.43249,520.4825],[-5.56937,38.42533,524.5579],[-5.57565,38.40448,588.8608],[-5.57648,38.39931,566.1985],[-5.5758,38.39432,553.3539],[-5.5727,38.38967,550.8691],[-5.56392,38.38177,552.2527],[-5.56102,38.37735,551.7421],[-5.56004,38.37241,537.8837],[-5.56038,38.36712,543.9413],[-5.56301,38.35632,562.4259],[-5.56495,38.35115,551.346],[-5.56712,38.34102,558.4997],[-5.56712,38.33629,558.4011],[-5.56428,38.33208,564.8784],[-5.55989,38.32831,564.4924],[-5.55477,38.32464,575.543],[-5.55028,38.32081,584.3593],[-5.54702,38.31611,566.9675],[-5.54477,38.31141,564.3954],[-5.54066,38.29978,585.5039],[-5.53842,38.29508,598.2715],[-5.53524,38.29009,592.1254],[-5.53245,38.28474,593.6654],[-5.52294,38.27074,595.6087],[-5.52134,38.26676,606.7711],[-5.52196,38.25945,602.1224],[-5.52126,38.25219,620.4282],[-5.51909,38.24485,635.5026],[-5.51782,38.23761,646.4854],[-5.5172,38.23012,615.2881],[-5.51731,38.22289,597.9231],[-5.51971,38.20888,520.5428],[-5.52684,38.20191,471.8781],[-5.52986,38.19483,458.7923],[-5.53325,38.18067,480.7736],[-5.53361,38.17354,409.6941],[-5.5334,38.16764,373.0928],[-5.53821,38.16237,345.8273],[-5.58105,38.13509,643.5689],[-5.58183,38.11555,465.3697],[-5.49607,38.04284,434.9227],[-5.47859,37.98129,503.4639],[-5.42183,37.94068,439.9769],[-5.41509,37.92742,370.9829],[-5.41337,37.88508,289.9807],[-5.40451,37.86682,223.7074],[-5.39324,37.85761,198.0736],[-5.36011,37.8418,215.5422],[-5.34963,37.83059,252.8825],[-5.34652,37.80528,141.285],[-5.34121,37.79229,220.4866],[-5.33469,37.78613,125.4802],[-5.30971,37.77343,97.5329],[-5.31108,37.69792,48.0053],[-5.39003,37.69758,41.0303],[-5.41402,37.6739,35.1045],[-5.401,37.63104,61.5911],[-5.38011,37.61177,83.841],[-5.34437,37.60999,130.1453],[-5.27677,37.62449,133.2912],[-5.19106,37.66959,104.0219],[-5.17945,37.66402,104.0214],[-5.15255,37.66192,167.4973],[-5.12942,37.66555,175.6228],[-5.12314,37.66943,174.4376],[-5.10502,37.69093,155.4565],[-5.05243,37.70828,178.4406],[-5.02664,37.71051,172.8511],[-5.00211,37.704,176.1465],[-4.98207,37.69016,168.3799],[-4.96654,37.67088,177.3134],[-4.95554,37.64802,206.0354],[-4.95494,37.64055,206.9111],[-4.95796,37.62637,210.3732],[-4.95522,37.61837,227.7218],[-4.95021,37.614,230.3897],[-4.93734,37.60794,262.0268],[-4.93228,37.60249,251.9725],[-4.92802,37.58368,196.2787],[-4.93618,37.53783,155.4756],[-4.94388,37.52018,120.7963],[-4.90827,37.49477,126.9139],[-4.88753,37.46259,156.3509],[-4.88488,37.43815,135.5198],[-4.84986,37.41069,146.3285],[-4.82207,37.35819,283.3499],[-4.78384,37.33045,284.8816],[-4.76345,37.32882,274.5453],[-4.71058,37.36161,251.7802],[-4.69195,37.35458,216.9051],[-4.67725,37.34077,252.5484],[-4.67065,37.29906,226.2963],[-4.65808,37.27741,283.9838],[-4.65323,37.25593,259.0721],[-4.61378,37.25524,325.9116],[-4.59627,37.22161,396.204],[-4.53931,37.21131,468.9349],[-4.48062,37.23876,303.4479],[-4.44494,37.27755,318.1887],[-4.38351,37.27755,415.0],[-4.3722,37.21551,755.1052],[-4.32627,37.20271,526.6085],[-4.3203,37.18657,635.3784],[-4.25516,37.2295,653.0333],[-4.2634,37.26039,415.0],[-4.23712,37.29642,820.4288],[-4.23551,37.32721,796.9263],[-4.22506,37.34354,837.3311],[-4.21722,37.3504,830.2268],[-4.20917,37.35236,850.0677],[-4.17212,37.34669,707.5828],[-4.15473,37.3489,703.4301],[-4.13717,37.35757,804.6417],[-4.09388,37.39615,822.5942],[-4.07638,37.40352,876.2312],[-4.00087,37.40211,971.5354],[-4.0375,37.45634,606.0721],[-4.08661,37.48654,499.1337],[-4.0946,37.49839,491.4866],[-4.11013,37.53782,418.2664],[-4.156,37.57755,392.4801],[-4.18225,37.61255,368.0894],[-4.20524,37.61964,431.0304],[-4.2131,37.62627,364.1831],[-4.20901,37.64079,359.5527],[-4.17838,37.66864,447.6105],[-4.17125,37.67936,451.8532],[-4.17199,37.69715,434.4995],[-4.18622,37.70572,484.1859],[-4.21981,37.71607,409.3014],[-4.22822,37.73325,286.2258],[-4.23072,37.77456,292.6945],[-4.24393,37.78722,262.9274],[-4.26884,37.79899,342.7979],[-4.27917,37.80853,300.5978],[-4.28384,37.82048,263.892],[-4.261,37.96354,201.6524],[-4.28432,38.00369,176.2974],[-4.26375,38.01914,198.8277],[-4.25934,38.02561,165.7699],[-4.25459,38.05219,215.2528],[-4.25031,38.06111,198.8089],[-4.19305,38.12756,245.5],[-4.16835,38.13683,248.0654],[-4.16801,38.18076,303.6138],[-4.1984,38.21476,317.715],[-4.21,38.235,557.6754],[-4.21521,38.25656,353.3588],[-4.21456,38.28927,450.3438],[-4.2412,38.33758,485.4019],[-4.24353,38.3393,477.0478],[-4.2755,38.35092,527.3848],[-4.29004,38.34887,530.4908],[-4.3018,38.35011,597.9105],[-4.36632,38.37117,645.0477],[-4.37975,38.37259,665.0026],[-4.40569,38.37957,623.0053],[-4.44975,38.39595,596.7248],[-4.46006,38.40091,614.723],[-4.46951,38.40954,603.6918],[-4.48889,38.43197,593.5947],[-4.51706,38.45551,584.7339],[-4.54305,38.47292,566.8303],[-4.55827,38.47881,531.8313],[-4.57044,38.48675,528.8037],[-4.58418,38.49,522.5548],[-4.59333,38.49,511.9394],[-4.60253,38.49259,497.7548],[-4.61049,38.49698,524.1819],[-4.61855,38.50597,487.7341],[-4.62382,38.51434,492.0651],[-4.63273,38.52354,501.3309],[-4.668,38.54509,541.3994],[-4.68524,38.55044,479.1452],[-4.70397,38.55935,518.982],[-4.70699,38.5654,511.2766],[-4.71493,38.57258,441.0213],[-4.72797,38.57976,458.8831],[-4.76898,38.59439,528.1343],[-4.78159,38.59733,481.2983],[-4.80125,38.59775,429.0392],[-4.81394,38.59976,427.1655],[-4.82849,38.60405,407.4517],[-4.84929,38.61485,402.8725],[-4.86109,38.62581,443.5909],[-4.8659,38.63501,391.282],[-4.86737,38.65079,383.6514],[-4.86737,38.65847,415.9847],[-4.86972,38.67387,404.7222],[-4.8735,38.68069,438.7603],[-4.88303,38.68524,536.3468],[-4.91282,38.68493,419.4517],[-4.92424,38.68332,396.2934]]]}}