{"type":"Feature","properties":{"featurecla":"River","scalerank":8,"rivernum":723,"dissolve":"723River","name":"Guadalquivir2","name_alt":null,"note":null,"min_zoom":7.0,"strokeweig":0.25,"name_en":"Guadalquivir","min_label":8.0},
"geometry":{"type": "LineString","coordinates": [[-4.5574707031249773,37.96344635624412,175.61],[-4.562255859375,37.96027252811912,147.5602],[-4.615478515625,37.96002838749412,205.29],[-4.623779296875,37.958368231244116,153.5],[-4.6249267578124886,37.954461981244116,157.2126],[-4.6240722656249886,37.949969793744117,163.4047],[-4.6280761718749943,37.943231512494116,123.7467],[-4.6270507812499773,37.93915436405662,113.9698],[-4.627197265625,37.93524811405662,113.8305],[-4.632568359375,37.93268463749412,112.6802],[-4.637451171875,37.932879949994117,113.0417],[-4.6392578124999773,37.935077215619117,112.4751],[-4.6409667968749773,37.937762762494117,112.7074],[-4.6455566406249886,37.93952057499412,112.283],[-4.6602050781249886,37.95050690311912,171.5115],[-4.67138671875,37.954461981244116,228.5703],[-4.6836914062499773,37.94940827030662,177.7331],[-4.7221191406249829,37.90265534061912,124.99],[-4.7349121093749886,37.891717840619116,95.4509],[-4.7461914062499773,37.88715241093162,101.7781],[-4.7588867187499773,37.88495514530662,103.6917],[-4.7868164062499829,37.88422272343162,125.2516],[-4.8,37.88007233280662,116.1846],[-4.821533203125,37.86176178593162,94.6407],[-4.8349609375,37.85761139530662,94.2846],[-4.8445800781249773,37.85578034061912,92.0436],[-4.8644531249999829,37.84674713749412,87.1185],[-4.8789550781249886,37.84332916874412,87.2141],[-4.9126953124999773,37.840936590619116,88.1833],[-5.007568359375,37.81232330936912,76.4349],[-5.033203125,37.80914948124412,129.6918],[-5.091552734375,37.813251043744117,95.2041],[-5.1180175781249773,37.81012604374412,117.9518],[-5.1396484375,37.796161199994117,71.4577],[-5.1328125,37.788690496869116,66.8916],[-5.1409667968749773,37.784784246869116,59.9015],[-5.1982421875,37.79010651249412,87.6464],[-5.2073730468749773,37.787958074994116,87.9147],[-5.228271484375,37.77936432499412,72.6472],[-5.233642578125,37.778094793744117,83.5244],[-5.2389404296874886,37.775995184369116,87.2231],[-5.2458007812499829,37.77130768436912,90.1557],[-5.24853515625,37.76581452030662,88.47],[-5.2479003906249773,37.75214264530662,75.3787],[-5.24951171875,37.74774811405662,78.4775],[-5.26025390625,37.74213287968162,123.5713],[-5.2972900390624886,37.73346588749412,107.7491],[-5.3018066406249886,37.73126862186912,86.1381],[-5.3062011718749886,37.728045965619117,65.2557],[-5.3095703125,37.723407293744117,120.8264],[-5.3108886718749773,37.716669012494116,76.8194],[-5.3134765625,37.71344635624412,58.6474],[-5.3192626953124886,37.713251043744116,67.9907],[-5.3260253906249773,37.713983465619116,96.7809],[-5.3313964843749773,37.71356842655662,82.4334],[-5.336669921875,37.712518621869116,82.4241],[-5.3556396484374886,37.71356842655662,68.3776],[-5.3625976562499886,37.710321356244116,67.2112],[-5.3672851562499773,37.703241278119116,50.148],[-5.370361328125,37.69599030155662,47.8538],[-5.3724121093749773,37.69245026249412,46.4123],[-5.3857910156249886,37.69269440311912,40.0763],[-5.3968261718749773,37.69635651249412,53.296],[-5.4061035156249773,37.698114324994116,64.658],[-5.4139160156249773,37.69245026249412,62.7877],[-5.4156738281249943,37.682489324994116,43.7708],[-5.4114746093749773,37.672137762494117,41.6116],[-5.4050781249999886,37.663446356244116,40.6568],[-5.4003417968749829,37.658319403119116,40.1305],[-5.4596435546874886,37.67072174686912,48.2505],[-5.4686035156249773,37.66889069218162,47.2524],[-5.4780761718749886,37.68012116093162,42.3843],[-5.4995605468749886,37.677020574994117,55.0485],[-5.5228027343749773,37.667254949994117,55.2678],[-5.5712890625,37.634540106244117,33.2132],[-5.6070312499999773,37.62055084843162,34.887],[-5.6456787109374886,37.61701080936912,29.2888],[-5.7102539062499886,37.627948309369117,21.4266],[-5.7733642578124886,37.62421295780662,53.6188]]}}