{"type":"Feature","properties":{"featurecla":"River","scalerank":8,"rivernum":723,"dissolve":"723River","name":"Guadalquivir1","name_alt":null,"note":null,"min_zoom":7.0,"strokeweig":0.2,"name_en":"Guadalquivir","min_label":8.0},
"geometry":{"type": "LineString","coordinates": [[-2.9746582031249891,38.13129303593162,544.9189],[-2.986083984375,38.121698309369116,571.7441],[-3.0103515624999768,38.11163971561912,621.6439],[-3.0218261718749768,38.10394928593162,538.7726],[-3.04150390625,38.07782623905662,535.1155],[-3.0491699218749768,38.06989166874412,466.7584],[-3.0845214843749891,38.04938385624412,464.7871],[-3.0907470703124891,38.04938385624412,459.6965],[-3.0934570312499829,38.049823309369117,446.2178],[-3.0997802734374891,38.05182526249412,482.5239],[-3.103125,38.052264715619117,493.9617],[-3.1083251953124891,38.05145905155662,478.932],[-3.1395019531249768,38.03888580936912,463.9432],[-3.14697265625,38.03424713749412,448.3114],[-3.1521484374999891,38.027606512494117,465.9111],[-3.154541015625,38.01947662968162,429.2543],[-3.1555664062499891,38.01154205936912,382.4435],[-3.1576416015624891,38.00385162968162,388.7942],[-3.1630859375,37.99640534061912,387.9432],[-3.1784179687499829,37.98712799686912,459.1835],[-3.212646484375,37.97492096561912,428.5847],[-3.2278808593749768,37.96393463749412,426.4965],[-3.2880371093749829,37.94623444218162,365.078],[-3.3336669921874891,37.94086334843162,397.6863],[-3.3477539062499768,37.936151434369116,365.2146],[-3.3562988281249768,37.93146393436912,353.9706],[-3.359130859375,37.929315496869116,350.9169],[-3.3770019531249891,37.92975494999412,357.2408],[-3.468017578125,37.943475653119116,337.1454],[-3.48974609375,37.953631903119117,348.431],[-3.5014160156249829,37.95355866093162,334.3928],[-3.5124023437499829,37.95136139530662,332.3099],[-3.5221435546874891,37.950946356244117,323.5929],[-3.535888671875,37.95551178593162,300.7086],[-3.560546875,37.96808502811912,374.695],[-3.570556640625,37.97138092655662,399.4081],[-3.5977539062499768,37.97052643436912,351.3246],[-3.6452148437499829,37.956170965619116,275.3373],[-3.6698242187499939,37.952508856244116,265.7553],[-3.6950195312499829,37.955340887494117,255.7936],[-3.717041015625,37.962274481244116,277.525],[-3.765625,37.985858465619117,257.263],[-3.775,37.986835028119117,236.7785],[-3.784912109375,37.98651764530662,236.2749],[-3.7964843749999768,37.987909246869116,266.7621],[-3.8274902343749768,38.000995184369117,254.4109],[-3.8389160156249891,38.008661199994116,270.838],[-3.8743652343749768,38.04230377811912,249.9339],[-3.89208984375,38.04938385624412,242.8888],[-3.90966796875,38.042108465619116,249.9704],[-3.9385742187499768,38.01740143436912,212.0556],[-3.9510253906249768,38.01837799686912,213.1707],[-3.962158203125,38.021502996869117,212.4177],[-4.0230468749999773,38.02887604374412,201.432],[-4.146728515625,38.070917059369116,271.6822],[-4.1875,38.06989166874412,293.1942],[-4.207763671875,38.05609772343162,224.5734],[-4.2069824218749829,38.04010651249412,217.8495],[-4.2041015625,38.02692291874412,190.9632],[-4.2179443359374886,38.02142975468162,175.9132],[-4.2232421874999773,38.023553778119116,203.9063],[-4.2371093749999886,38.032977606244117,194.5529],[-4.2455078124999943,38.03510162968162,224.6173],[-4.2587890625,38.03424713749412,225.2042],[-4.265380859375,38.03156159061912,191.341],[-4.3011230468749773,37.99933502811912,155.8846],[-4.315673828125,37.997821356244117,163.1511],[-4.3499023437499886,38.022088934369116,197.0636],[-4.3714355468749773,38.030047918744117,215.5528],[-4.39404296875,38.034540106244116,232.19],[-4.412841796875,38.03510162968162,257.9438],[-4.4346191406249886,38.02692291874412,205.5714],[-4.4576904296874886,37.99994537968162,161.3067],[-4.4786132812499773,37.99408600468162,155.5077],[-4.50634765625,37.989520574994117,181.2631],[-4.5010253906249886,37.97833893436912,139.2082],[-4.4853027343749829,37.96466705936912,154.3238],[-4.481689453125,37.952508856244116,127.6025],[-4.5201171874999773,37.964227606244116,122.7112],[-4.5457519531249773,37.96918366093162,167.7402],[-4.5574707031249773,37.96344635624412,175.61]]}}