{"type": "Feature","bbox": [-0.4036,39.4172,-0.3922,39.4269],"geometry": {"type": "MultiPolygon","coordinates": [[[[-0.4019,39.4269,16.6656],[-0.4036,39.419,15.1414],[-0.3929,39.4172,11.4329],[-0.3922,39.4232,16.8875],[-0.3945,39.4261,20.1468],[-0.4019,39.4269,16.6656]]]]}
,"properties": {"GID_3": "ESP.10.3.9_1","GID_0": "ESP","country": "Spain","GID_1": "ESP.10_1","province": "ComunidadValenciana","NL_NAME_1": "NA","GID_2": "ESP.10.3_1","county": "Valencia","NL_NAME_2": "NA","city": "HortaSudCiutatdeValencia","VARNAME_3": "NA","NL_NAME_3": "NA","TYPE_3": "Comarca","ENGTYPE_3": "Comarca","CC_3": "NA","HASC_3": "NA","name": "Horta_Sud_Ciutatde_Valencia.city","area_km2": 0.8353038,"hist_schema_id": "Elevation0-9000","hist_area_km2": {"0": 0.0655166,"25": 0.7697872}}}