{"type":"Feature","properties":{"GID_3":"ESP.10.2.2_1","GID_0":"ESP","country":"Spain","GID_1":"ESP.10_1","province":"ComunidadValenciana","NL_NAME_1":"NA","GID_2":"ESP.10.2_1","county":"Castellón","NL_NAME_2":"NA","city":"AltMillars","VARNAME_3":"NA","NL_NAME_3":"NA","TYPE_3":"Comarca","ENGTYPE_3":"Comarca","CC_3":"NA","HASC_3":"NA","name":"Alt_Millars.city"},
"geometry":{"type": "MultiPolygon","coordinates": [[[[-0.3796,39.9528,731.3558],[-0.375,39.9535,691.8602],[-0.3734,39.9587,663.5472],[-0.3685,39.9639,596.3935],[-0.3672,39.9713,654.645],[-0.3652,39.9736,643.4233],[-0.3614,39.9744,642.5031],[-0.3566,39.9814,663.1812],[-0.3481,39.9754,534.0726],[-0.3413,39.9799,684.0289],[-0.3304,39.9781,594.9293],[-0.3284,39.9734,408.0541],[-0.3208,39.9698,394.6714],[-0.2983,39.9847,393.8154],[-0.2916,39.994,401.9639],[-0.2813,40.0019,344.2333],[-0.2869,40.0193,239.8458],[-0.2911,40.0227,324.3379],[-0.2987,40.0398,423.7003],[-0.2926,40.0473,498.0244],[-0.2939,40.055,493.2238],[-0.309,40.0614,606.3037],[-0.3102,40.0673,714.0779],[-0.3204,40.0672,751.2889],[-0.3218,40.0699,751.821],[-0.3203,40.0758,760.0404],[-0.3242,40.0836,746.593],[-0.3222,40.0851,776.8026],[-0.3212,40.0948,756.9867],[-0.3177,40.099,773.898],[-0.3201,40.1082,810.4153],[-0.3299,40.128,861.3713],[-0.3365,40.1321,916.78],[-0.3389,40.1362,973.8143],[-0.3448,40.1382,962.6494],[-0.3506,40.1426,1001.4634],[-0.3604,40.1452,992.8359],[-0.3601,40.1653,949.4579],[-0.3625,40.1732,897.0621],[-0.3575,40.1785,1004.1632],[-0.3497,40.1791,1012.2119],[-0.3463,40.1827,1031.6863],[-0.34,40.1836,1034.3717],[-0.3371,40.1859,1047.5608],[-0.3315,40.1848,1094.5508],[-0.3221,40.19,1264.614],[-0.322,40.1995,1331.54],[-0.3199,40.2035,1353.7804],[-0.3211,40.2091,1385.1935],[-0.3381,40.2205,1475.7793],[-0.3497,40.2227,1760.2617],[-0.3567,40.2302,1525.1144],[-0.3718,40.2383,1495.4952],[-0.3717,40.244,1331.8887],[-0.3756,40.2466,1232.295],[-0.382,40.2579,1429.4413],[-0.3885,40.2616,1537.3723],[-0.428,40.2438,1249.363],[-0.4518,40.2353,1019.7321],[-0.4638,40.2339,823.9547],[-0.4699,40.2402,835.4756],[-0.4772,40.2353,1036.4424],[-0.4866,40.2342,1213.2524],[-0.4945,40.2288,1367.1252],[-0.5015,40.2332,1492.4437],[-0.5105,40.2318,1494.0247],[-0.5292,40.2394,1611.5281],[-0.5441,40.2517,1628.1825],[-0.5478,40.2443,1689.7549],[-0.559,40.2101,1185.0343],[-0.5578,40.2009,1124.8116],[-0.5609,40.1974,1105.4541],[-0.5637,40.1887,1048.085],[-0.5721,40.1815,848.7708],[-0.5704,40.1803,881.5598],[-0.5716,40.1749,829.9601],[-0.5739,40.173,842.047],[-0.5696,40.162,772.1829],[-0.5707,40.16,764.4478],[-0.5692,40.1592,764.4478],[-0.5705,40.1554,768.1557],[-0.5747,40.1526,736.4904],[-0.5747,40.1487,733.0366],[-0.5793,40.1476,720.9002],[-0.5784,40.1381,692.2981],[-0.5869,40.1315,676.4565],[-0.5908,40.1337,674.3477],[-0.597,40.1321,658.9354],[-0.5985,40.1286,643.6125],[-0.604,40.1268,644.5117],[-0.6065,40.1283,631.1358],[-0.6286,40.1021,1003.8641],[-0.6135,40.07,780.885],[-0.619,40.0684,825.3908],[-0.6231,40.0696,824.0104],[-0.6231,40.0753,824.661],[-0.6272,40.0762,829.2136],[-0.6312,40.0735,831.2987],[-0.6307,40.071,832.7321],[-0.6334,40.0707,842.4563],[-0.6347,40.0727,855.236],[-0.6358,40.0718,842.7324],[-0.6359,40.0675,841.6523],[-0.6379,40.0697,860.7983],[-0.6416,40.0676,849.8767],[-0.6458,40.0677,865.6931],[-0.6641,40.0515,977.4215],[-0.6186,40.0454,941.7434],[-0.6132,40.0374,1039.8159],[-0.6097,40.0379,1037.2799],[-0.5989,40.0263,1110.1029],[-0.5852,40.0244,1015.9573],[-0.5812,40.0208,921.4517],[-0.5813,40.0138,711.4317],[-0.5477,40.0113,993.0684],[-0.5367,40.0128,1030.4738],[-0.5132,40.0056,997.7788],[-0.5081,40.0062,962.5484],[-0.5026,40.0043,952.2465],[-0.4954,40.0046,890.973],[-0.4917,40.0069,906.877],[-0.4885,40.0055,888.2065],[-0.4858,39.9989,878.1628],[-0.4801,39.9955,943.913],[-0.4804,39.9925,933.3896],[-0.4698,39.9887,867.8163],[-0.4685,39.9834,864.1902],[-0.4652,39.9796,892.1814],[-0.4487,39.9679,789.5256],[-0.4475,39.9618,684.1729],[-0.4398,39.9554,833.5485],[-0.4311,39.9516,773.4601],[-0.4113,39.9387,850.8145],[-0.406,39.9378,879.9377],[-0.4008,39.9343,864.1594],[-0.3955,39.9358,873.4918],[-0.392,39.9427,761.46],[-0.3867,39.942,712.5393],[-0.3796,39.9528,731.3558]]]]}}