{"type": "Feature","bbox": [-1.8063,40.1289,-1.2324,40.7104],"geometry": {"type": "MultiPolygon","coordinates": [[[[-1.4744,40.1851,1599.9209],[-1.4391,40.197,1475.5431],[-1.4423,40.1576,1482.8534],[-1.4488,40.1454,1548.2666],[-1.4333,40.1395,1516.8693],[-1.4297,40.1394,1499.629],[-1.4223,40.1424,1323.2025],[-1.4045,40.1392,1222.4829],[-1.3935,40.1344,1090.5714],[-1.3768,40.1403,1043.5732],[-1.3636,40.1386,1008.6165],[-1.3643,40.1327,1068.6707],[-1.3617,40.1297,1132.6699],[-1.357,40.1289,1124.592],[-1.336,40.1422,1122.8785],[-1.3197,40.1464,893.2531],[-1.3165,40.1497,948.6905],[-1.3194,40.1562,1084.5116],[-1.3172,40.1641,1123.6108],[-1.3225,40.1717,1179.3794],[-1.3229,40.1849,1183.5125],[-1.3149,40.2014,1161.1832],[-1.3109,40.2039,1154.0825],[-1.302,40.2058,1167.2644],[-1.2969,40.2099,1245.0869],[-1.3015,40.2212,1356.1296],[-1.3074,40.2253,1341.0568],[-1.3088,40.2296,1296.4656],[-1.3138,40.2334,1334.4067],[-1.3143,40.2366,1359.4412],[-1.2984,40.2372,1215.451],[-1.2852,40.2495,1252.8032],[-1.2816,40.2576,1252.0887],[-1.2787,40.2597,1226.7546],[-1.2685,40.2603,1178.4174],[-1.2617,40.2587,1169.647],[-1.2434,40.2607,1113.2003],[-1.242,40.2656,1109.5292],[-1.2337,40.2714,1060.4165],[-1.2457,40.28,1189.4589],[-1.2324,40.2847,1170.8025],[-1.2335,40.289,1184.7631],[-1.2376,40.2901,1178.0759],[-1.2562,40.305,1148.3271],[-1.2623,40.3245,1146.4744],[-1.2784,40.3509,1158.0352],[-1.2873,40.3583,1180.5363],[-1.2868,40.3628,1167.6584],[-1.2815,40.3669,1131.8778],[-1.2791,40.3713,1093.7622],[-1.2753,40.3711,1084.2559],[-1.2703,40.3738,1026.863],[-1.268,40.3794,986.916],[-1.2736,40.378,1011.167],[-1.2794,40.3805,1025.0353],[-1.2754,40.3954,1102.0237],[-1.2891,40.405,1118.4313],[-1.2978,40.408,1122.0934],[-1.3039,40.4158,1125.744],[-1.3352,40.4295,1136.1094],[-1.3601,40.435,1195.6691],[-1.3735,40.4445,1221.5483],[-1.3717,40.4539,1191.3485],[-1.376,40.4634,1210.408],[-1.3747,40.4764,1250.8726],[-1.3659,40.4802,1244.8684],[-1.3691,40.4861,1269.3625],[-1.3649,40.5023,1236.4011],[-1.3715,40.5057,1250.4746],[-1.3872,40.5219,1247.1663],[-1.3906,40.5404,1165.3137],[-1.3888,40.5456,1154.0808],[-1.387,40.5467,1144.0208],[-1.383,40.5624,1165.0116],[-1.3846,40.5668,1172.3689],[-1.3907,40.5678,1195.5682],[-1.403,40.5777,1252.901],[-1.4116,40.5825,1232.3719],[-1.41,40.5886,1206.2947],[-1.405,40.5923,1147.6598],[-1.4001999999999999,40.6012,1239.984],[-1.4086,40.6125,1264.8361],[-1.415,40.6271,1203.8623],[-1.4146,40.6329,1187.9774],[-1.4173,40.6401,1174.2654],[-1.4152,40.6446,1172.656],[-1.4326,40.6689,1092.7178],[-1.4297,40.6705,1136.8893],[-1.4382,40.6841,1051.7229],[-1.4312,40.6856,1068.4397],[-1.4315,40.6952,1093.1726],[-1.4345,40.7022,1090.0767],[-1.4405,40.7037,1062.3701],[-1.4488,40.7031,1133.4644],[-1.4764,40.7104,1159.2607],[-1.49,40.7103,1176.7529],[-1.5012,40.705,1191.8479],[-1.5061,40.7048,1201.0348],[-1.5137,40.7001,1219.594],[-1.5383,40.6894,1581.5883],[-1.5356,40.687,1567.5237],[-1.5403,40.681399999999996,1566.5653],[-1.5389,40.6581,1363.015],[-1.5519,40.6431,1352.9528],[-1.5547,40.6304,1395.2438],[-1.5648,40.6148,1436.9309],[-1.5553,40.6072,1458.553],[-1.5549,40.6048,1470.7971],[-1.5454,40.5952,1501.1195],[-1.5496,40.5931,1474.4763],[-1.5556,40.586,1435.6584],[-1.5828,40.5695,1470.5936],[-1.5871,40.5694,1462.8931],[-1.5987,40.5621,1470.5293],[-1.6296,40.5761,1487.4021],[-1.6342,40.5798,1383.6003],[-1.6664,40.5821,1647.5645],[-1.6743,40.5922,1724.661],[-1.678,40.591,1699.4548],[-1.6858,40.5799,1711.5004],[-1.6932,40.5777,1767.7657],[-1.6896,40.5665,1701.4641],[-1.7018,40.5382,1698.7588],[-1.6955,40.5114,1748.5952],[-1.6951,40.4937,1602.296],[-1.6924,40.4868,1653.7434],[-1.7338,40.4725,1564.5105],[-1.7485,40.4629,1542.3096],[-1.7652,40.4433,1619.1628],[-1.7696,40.4349,1590.7588],[-1.7764,40.4305,1639.5731],[-1.7854,40.4132,1772.8071],[-1.7933,40.4179,1707.7197],[-1.7967,40.4178,1709.1194],[-1.8006,40.4142,1705.4905],[-1.8044,40.404,1692.9098],[-1.8038,40.4007,1603.002],[-1.8063,40.3983,1509.7502],[-1.7894,40.3974,1527.2368],[-1.7897,40.3921,1530.4294],[-1.7784,40.3921,1536.3314],[-1.7754,40.3875,1521.8346],[-1.7739,40.3882,1524.0555],[-1.7672,40.3824,1523.7832],[-1.7644,40.3755,1527.7838],[-1.7598,40.3725,1525.884],[-1.7535,40.364,1530.611],[-1.7532,40.3609,1529.4419],[-1.7506,40.3612,1534.6573],[-1.7422,40.3528,1534.1587],[-1.7412,40.3496,1536.7759],[-1.7361,40.3491,1546.197],[-1.7347,40.3469,1545.332],[-1.7203,40.3409,1576.6724],[-1.7075,40.3267,1565.2496],[-1.6976,40.3213,1574.6252],[-1.6972,40.3166,1597.5146],[-1.7068,40.3136,1658.854],[-1.7201,40.3185,1697.8578],[-1.7205,40.3133,1723.5839],[-1.7231,40.3119,1724.5613],[-1.7292,40.3032,1694.2524],[-1.7269,40.2883,1675.6179],[-1.7192,40.2771,1531.8262],[-1.7142,40.2768,1540.9359],[-1.71,40.2807,1650.9519],[-1.7105,40.2921,1694.5465],[-1.7003,40.3071,1661.9115],[-1.6903,40.3097,1679.8575],[-1.6798,40.3008,1682.7976],[-1.6655,40.2946,1729.3569],[-1.6591,40.2824,1686.1091],[-1.647,40.2743,1688.5598],[-1.6391,40.2659,1588.6541],[-1.6323,40.2617,1586.0516],[-1.6178,40.2486,1532.0809],[-1.6086,40.2428,1502.766],[-1.6037,40.243,1507.2737],[-1.5925,40.2363,1504.3079],[-1.5702,40.2136,1393.6025],[-1.5404,40.1908,1261.5128],[-1.5305,40.1936,1381.2832],[-1.5211,40.2022,1377.8333],[-1.5108,40.2037,1409.8373],[-1.4744,40.1851,1599.9209]]]]}
,"properties": {"GID_3": "ESP.2.2.5_1","GID_0": "ESP","country": "Spain","GID_1": "ESP.2_1","province": "Aragón","NL_NAME_1": "NA","GID_2": "ESP.2.2_1","county": "Teruel","NL_NAME_2": "NA","city": "n.a.(252)","VARNAME_3": "NA","NL_NAME_3": "NA","TYPE_3": "Comarca","ENGTYPE_3": "Comarca","CC_3": "NA","HASC_3": "NA","name": "n.a.(252).city","area_km2": 1599.122,"hist_schema_id": "Elevation0-9000","hist_area_km2": {"875": 0.081,"900": 0.6,"925": 0.632,"950": 0.616,"975": 1.15,"1000": 2.848,"1025": 6.013,"1050": 8.145,"1075": 13.709,"1100": 18.7,"1125": 26.664,"1150": 35.759,"1175": 52.609,"1200": 63.866,"1225": 72.261,"1250": 69.408,"1275": 65.733,"1300": 65.376,"1325": 69.94,"1350": 71.403,"1375": 80.323,"1400": 91.056,"1425": 91.906,"1450": 95.093,"1475": 83.951,"1500": 69.836,"1525": 65.094,"1550": 58.603,"1575": 53.449,"1600": 54.251,"1625": 54.876,"1650": 40.433,"1675": 33.919,"1700": 25.211,"1725": 18.329,"1750": 12.809,"1775": 10.599,"1800": 6.872,"1825": 4.355,"1850": 1.629,"1875": 0.629,"1900": 0.29,"1925": 0.097}}}