{"type":"Feature","properties":{"GID_3":"ESP.6.1.6_1","GID_0":"ESP","country":"Spain","GID_1":"ESP.6_1","province":"Cataluña","NL_NAME_1":"NA","GID_2":"ESP.6.1_1","county":"Barcelona","NL_NAME_2":"NA","city":"n.a.(32)","VARNAME_3":"NA","NL_NAME_3":"NA","TYPE_3":"Comarca","ENGTYPE_3":"Comarca","CC_3":"NA","HASC_3":"NA","name":"n.a.(32).city"},
"geometry":{"type": "MultiPolygon","coordinates": [[[[2.0871,41.7079,860.3222],[2.0971,41.709,915.2892],[2.0997,41.7148,920.3854],[2.1074,41.7143,928.636],[2.1104,41.7173,939.4453],[2.125,41.7126,739.0909],[2.133,41.7155,807.1437],[2.1419,41.7132,794.5353],[2.157,41.7163,704.5368],[2.1637,41.7154,703.2991],[2.1703,41.7118,650.5474],[2.172,41.7134,572.313],[2.1759,41.7131,538.2781],[2.179,41.7166,503.4826],[2.1824,41.7159,492.0544],[2.1859,41.7182,482.5033],[2.1863,41.7158,495.9701],[2.192,41.7151,504.0373],[2.1959,41.7068,506.8165],[2.2069,41.7108,696.866],[2.2084,41.7094,637.0909],[2.2114,41.7113,648.9313],[2.215,41.7066,524.0166],[2.2132,41.7045,599.1748],[2.2229,41.7056,695.7193],[2.2331,41.7091,761.8214],[2.2381,41.7088,702.9539],[2.2404,41.7054,727.3496],[2.2421,41.7077,631.5225],[2.2388,41.7219,677.6066],[2.2438,41.7266,590.907],[2.2363,41.7322,801.4679],[2.2298,41.7293,903.2036],[2.2231,41.7296,783.7059],[2.2133,41.7265,685.6321],[2.2063,41.7289,632.3915],[2.1942,41.7301,583.3785],[2.1895,41.7325,693.6367],[2.1848,41.7425,841.0894],[2.1898,41.7519,828.2932],[2.1888,41.7752,790.6899],[2.1833,41.7933,899.2108],[2.1753,41.7978,797.5402],[2.1872,41.81,859.7069],[2.1875,41.816,893.1561],[2.1917,41.8209,943.2583],[2.1964,41.8362,761.0424],[2.1934,41.8387,825.2776],[2.192,41.8379,863.4795],[2.1887,41.844,910.7827],[2.19,41.8494,783.2277],[2.1862,41.8598,895.736],[2.1842,41.8555,915.1511],[2.1773,41.8521,952.9515],[2.1685,41.8554,882.0127],[2.1575,41.8567,789.2944],[2.154,41.8534,823.5144],[2.1463,41.8526,989.0922],[2.1413,41.8557,898.5928],[2.1417,41.8589,814.4563],[2.1362,41.8584,952.7652],[2.1284,41.8687,851.6694],[2.1322,41.8756,803.6903],[2.131,41.8788,811.6816],[2.1237,41.8807,863.4952],[2.1231,41.8853,811.7714],[2.1339,41.8857,815.954],[2.1394,41.8885,904.3011],[2.1399,41.9,904.0021],[2.1438,41.9014,899.708],[2.1352,41.9146,877.0772],[2.131,41.9104,835.8834],[2.1146,41.9069,754.3688],[2.1069,41.9037,732.1443],[2.0917,41.9046,746.4946],[2.0914,41.9091,649.0657],[2.0827,41.9064,607.2903],[2.0738,41.9002,617.2478],[2.0645,41.9019,456.8661],[2.0609,41.8997,452.5767],[2.0537,41.8998,549.9034],[2.0468,41.8977,519.6927],[2.0408,41.903,468.978],[2.0336,41.9019,443.8132],[2.0216,41.9112,496.3694],[2.0123,41.9121,564.3529],[2.0099,41.9062,487.3188],[2.0146,41.8998,507.1354],[2.0127,41.8881,436.1897],[2.0142,41.8851,361.2028],[2.0013,41.8824,359.3351],[2.0107,41.8789,458.3458],[2.0156,41.8731,522.5825],[2.0055,41.8687,477.7867],[1.9926,41.8577,428.6508],[1.9887,41.8568,441.6563],[1.9874,41.8548,447.3678],[1.9838,41.8555,419.2604],[1.9751,41.848,400.8292],[1.9741,41.8415,352.8629],[1.9768,41.8403,367.3467],[1.976,41.8381,374.8541],[1.9964,41.8355,466.8784],[2.0048,41.832,559.1907],[2.0036,41.8302,552.7976],[2.0113,41.8218,427.7403],[2.0155,41.8239,434.5587],[2.0199,41.8231,449.0578],[2.0218,41.8205,455.8457],[2.026,41.8205,485.0114],[2.0293,41.8148,428.6384],[2.0334,41.8133,450.4117],[2.0383,41.8058,654.7322],[2.0274,41.8018,632.8885],[2.0187,41.8016,608.9072],[1.9793,41.7926,473.0683],[1.9543,41.7819,409.1081],[1.9352,41.7809,338.1014],[1.9037,41.7739,246.5395],[1.9112,41.7746,301.3452],[1.9123,41.771,320.6873],[1.9169,41.7706,354.5346],[1.918,41.7613,282.3264],[1.9152,41.7602,255.1885],[1.9162,41.7569,278.162],[1.9197,41.7588,281.1734],[1.9208,41.7539,316.8206],[1.9239,41.7527,321.7268],[1.9232,41.7499,296.9205],[1.9276,41.7451,379.1001],[1.9322,41.7442,399.5452],[1.955,41.7471,432.0664],[1.9655,41.752,505.0806],[1.9793,41.753,527.658],[1.9895,41.7503,594.4688],[1.9968,41.7441,621.4435],[2.0022,41.7435,675.1451],[2.0039,41.7287,627.9732],[2.0109,41.7302,643.2938],[2.0144,41.7275,646.1112],[2.0162,41.7165,632.622],[2.0222,41.7077,654.3305],[2.0288,41.7109,651.2799],[2.0327,41.7166,631.9309],[2.0384,41.717,642.6302],[2.0485,41.7109,653.8915],[2.0647,41.7119,686.3905],[2.0661,41.7141,735.2438],[2.077,41.7099,785.606],[2.0847,41.7109,846.5936],[2.0871,41.7079,860.3222]]]]}}