{"type": "Feature","bbox": [-1.2131,38.1135,-0.9673,38.3465],"geometry": {"type": "MultiPolygon","coordinates": [[[[-1.0339,38.128,85.805],[-1.0366,38.1374,149.8065],[-1.0087,38.1669,129.2506],[-0.9887,38.1996,171.1167],[-0.9762,38.2408,584.571],[-0.9677,38.2559,542.1323],[-0.9673,38.2722,402.447],[-0.9717,38.2907,426.5543],[-0.9842,38.3071,494.3418],[-0.989,38.3206,487.768],[-1.0281,38.3387,508.8439],[-1.0584,38.346,596.7003],[-1.0844,38.3465,604.5175],[-1.1213,38.3219,658.53],[-1.1422,38.3163,607.4724],[-1.1459,38.312,633.7136],[-1.1495,38.3116,607.1207],[-1.1629,38.3041,628.3484],[-1.1689,38.3024,634.9767],[-1.1684,38.3008,650.157],[-1.1739,38.2978,712.2648],[-1.18,38.2978,644.8853],[-1.1863,38.2929,782.6207],[-1.1916,38.2921,762.968],[-1.2107,38.2772,794.9467],[-1.2131,38.2717,769.6703],[-1.1972,38.2256,432.6418],[-1.1875,38.2062,566.8062],[-1.1845,38.2032,525.303],[-1.1768,38.1842,280.2039],[-1.1507,38.1483,149.6309],[-1.1451,38.1457,153.8208],[-1.1436,38.143,142.2872],[-1.1407,38.143,150.208],[-1.1403,38.1399,135.5643],[-1.1378,38.1387,130.7275],[-1.1372,38.1352,131.3667],[-1.1335,38.132,126.7661],[-1.1366,38.1317,122.2239],[-1.1356,38.1287,119.9565],[-1.133,38.1281,118.1907],[-1.1314,38.118,154.2845],[-1.121,38.1145,161.6805],[-1.1119,38.1155,155.033],[-1.1011,38.1135,116.7016],[-1.0545,38.1242,133.6453],[-1.0305,38.1159,135.1652],[-1.0339,38.128,85.805]]]]}
,"properties": {"GID_3": "ESP.18.1.8_1","GID_0": "ESP","country": "Spain","GID_1": "ESP.18_1","province": "RegióndeMurcia","NL_NAME_1": "NA","GID_2": "ESP.18.1_1","county": "Murcia","NL_NAME_2": "NA","city": "Oriental","VARNAME_3": "NA","NL_NAME_3": "NA","TYPE_3": "Comarca","ENGTYPE_3": "Comarca","CC_3": "NA","HASC_3": "NA","name": "Oriental.city","area_km2": 384.554,"hist_schema_id": "Elevation0-9000","hist_area_km2": {"75": 0.1501,"100": 12.974,"125": 27.4112,"150": 28.3714,"175": 23.8821,"200": 21.0953,"225": 17.8934,"250": 15.0255,"275": 12.109,"300": 8.5274,"325": 6.2451,"350": 8.4426,"375": 11.6053,"400": 14.7683,"425": 13.986,"450": 14.2851,"475": 13.5843,"500": 18.1903,"525": 16.6089,"550": 13.5298,"575": 11.8987,"600": 10.783,"625": 9.9015,"650": 9.1023,"675": 8.4864,"700": 7.0555,"725": 5.3584,"750": 4.8092,"775": 3.4447,"800": 2.929,"825": 2.2134,"850": 2.0968,"875": 1.7141,"900": 1.2982,"925": 0.9654,"950": 0.982,"975": 0.566,"1000": 0.566,"1025": 0.2996,"1050": 0.283,"1075": 0.2164,"1100": 0.1665,"1125": 0.1831,"1150": 0.2663,"1175": 0.1332,"1200": 0.0832,"1225": 0.0666}}}