{"type":"Feature","properties":{"GID_3":"ESP.3.1.3_1","GID_0":"ESP","country":"Spain","GID_1":"ESP.3_1","province":"Cantabria","NL_NAME_1":"NA","GID_2":"ESP.3.1_1","county":"Cantabria","NL_NAME_2":"NA","city":"Campoo-LosValles","VARNAME_3":"NA","NL_NAME_3":"NA","TYPE_3":"Comarca","ENGTYPE_3":"Comarca","CC_3":"NA","HASC_3":"NA","name":"Campoo-Los_Valles.city"},
"geometry":{"type": "MultiPolygon","coordinates": [[[[-3.9296,42.9147,822.9387],[-3.9393,42.9102,903.2814],[-3.9457,42.9094,1009.5017],[-3.9539,42.9113,878.4651],[-3.9728,42.9117,1141.8762],[-3.9775,42.9183,1032.6747],[-3.9877,42.9258,1041.5065],[-3.9908,42.9308,1019.3506],[-3.974,42.9686,923.6084],[-3.9607,42.9924,835.0],[-3.9454,43.0057,835.0],[-3.9246,43.0103,835.0],[-3.9092,43.0161,835.0],[-3.8927,43.0363,837.4141],[-3.8907,43.0418,852.8575],[-3.878,43.0424,970.9886],[-3.8775,43.0456,978.3631],[-3.8841,43.0501,1006.9659],[-3.9097,43.056,1204.1794],[-3.9139,43.0616,1200.7711],[-3.9223,43.0649,1155.7427],[-3.9251,43.0681,1200.5647],[-3.9415,43.0713,1210.3752],[-3.9441,43.0702,1226.8992],[-3.9464,43.0729,1242.6592],[-3.9513,43.0735,1262.054],[-3.9587,43.0778,1318.0725],[-3.9583,43.0876,1179.1738],[-3.9605,43.09,1198.5781],[-3.9736,43.0935,1144.3215],[-3.9793,43.0988,1098.0127],[-4.0003,43.1022,1122.7937],[-4.0157,43.093,1153.0],[-4.0406,43.0895,1061.4518],[-4.0481,43.0919,1022.9741],[-4.0549,43.0984,728.2889],[-4.0665,43.1018,698.84],[-4.0902,43.0975,598.9692],[-4.1338,43.1031,1041.3698],[-4.1343,43.1122,1169.2737],[-4.1315,43.1157,1173.0498],[-4.1632,43.1009,1073.416],[-4.1846,43.0956,1257.2449],[-4.2028,43.0944,913.7397],[-4.2125,43.1003,915.2257],[-4.228,43.0989,1161.1338],[-4.2279,43.0906,1121.9166],[-4.2332,43.0893,1090.4769],[-4.2342,43.0868,1110.7153],[-4.232,43.0822,1141.4517],[-4.2366,43.0779,1183.4934],[-4.2334,43.0646,1253.8468],[-4.2394,43.0668,1366.693],[-4.2442,43.0717,1453.2202],[-4.2637,43.0762,1422.8365],[-4.2688,43.0744,1539.5624],[-4.2797,43.0756,1651.8781],[-4.2857,43.0738,1718.7433],[-4.2915,43.053,1758.2627],[-4.2895,43.0472,1949.0802],[-4.2959,43.0464,1877.1169],[-4.3153,43.0503,1822.2629],[-4.3232,43.0479,2023.1792],[-4.3318,43.0497,1888.7993],[-4.3373,43.0537,2053.7114],[-4.346,43.0506,1958.6528],[-4.3493,43.053,1845.1689],[-4.3626,43.0469,2003.583],[-4.3716,43.0497,1991.0237],[-4.3773,43.0476,2008.8986],[-4.3894,43.0485,2092.4229],[-4.3919,43.046,2026.8916],[-4.4002,43.0438,2003.0328],[-4.4039,43.0381,2126.0159],[-4.398,43.0348,2047.9755],[-4.3922,43.0273,2108.0757],[-4.3891,43.0257,2140.8972],[-4.3862,43.0165,2001.5576],[-4.3743,43.006,2089.0813],[-4.3748,42.9995,1958.7722],[-4.3721,42.9946,1873.9326],[-4.3472,42.9721,2051.0632],[-4.3154,42.9697,1863.9204],[-4.3036,42.9669,1915.2051],[-4.2989,42.9665,1908.0511],[-4.2894,42.9691,1913.9459],[-4.278,42.9654,1909.688],[-4.2621,42.9652,1684.8326],[-4.2459,42.9594,1415.1635],[-4.2384,42.9543,1233.3842],[-4.239,42.933,1065.5394],[-4.2366,42.9171,1077.2782],[-4.2225,42.9109,1170.3052],[-4.2247,42.9064,1173.8511],[-4.2307,42.9032,1032.7531],[-4.2305,42.8967,1029.7255],[-4.2234,42.875,1001.0675],[-4.2228,42.8647,1008.6639],[-4.2256,42.8589,990.4528],[-4.2188,42.8505,982.3638],[-4.2089,42.8448,953.858],[-4.1993,42.8447,954.1555],[-4.1955,42.8491,943.6427],[-4.1855,42.8544,944.6605],[-4.1811,42.8587,970.9791],[-4.1693,42.8589,955.3802],[-4.1498,42.8711,930.6611],[-4.1442,42.8686,939.3425],[-4.1489,42.8657,943.7935],[-4.1452,42.8622,966.3105],[-4.1411,42.8617,1023.4397],[-4.139,42.8593,1033.0475],[-4.126,42.8566,1222.1582],[-4.1284,42.8462,1109.9656],[-4.137,42.8394,1068.8578],[-4.1373,42.8335,999.1348],[-4.1409,42.8304,952.746],[-4.1404,42.829,952.746],[-4.1455,42.8289,994.1116],[-4.1505,42.8314,971.1511],[-4.1509,42.8345,946.6827],[-4.1565,42.8378,972.407],[-4.1617,42.8361,955.85],[-4.1631,42.8301,991.5725],[-4.1654,42.8282,1014.9747],[-4.1785,42.8262,950.0458],[-4.1854,42.8173,913.1042],[-4.1826,42.8103,1039.2224],[-4.1787,42.8109,965.4518],[-4.1736,42.8085,963.5591],[-4.1498,42.7893,959.5018],[-4.1443,42.7913,888.7569],[-4.1374,42.7903,906.2365],[-4.1226,42.7946,857.5194],[-4.1129,42.7945,864.2938],[-4.0984,42.7912,859.9603],[-4.0996,42.7846,996.2578],[-4.0952,42.779,1013.1998],[-4.094,42.7733,1148.2019],[-4.0853,42.7722,1086.2656],[-4.0813,42.7614,1107.3015],[-4.0717,42.7605,1086.5881],[-4.0546,42.763,1087.5361],[-4.0458,42.7666,1085.4042],[-4.0496,42.7729,954.0634],[-4.0501,42.7798,830.1165],[-4.0437,42.7888,804.978],[-4.0378,42.7908,848.4681],[-4.0335,42.7866,783.2959],[-4.0298,42.7883,820.2301],[-4.0283,42.7903,770.0834],[-4.0317,42.7936,749.3479],[-4.0328,42.8012,729.5389],[-4.0239,42.8063,745.5513],[-4.0141,42.806399999999996,725.3951],[-4.0207,42.8193,933.6413],[-4.011,42.8304,1009.5696],[-4.0035,42.8314,1010.7324],[-4.0,42.8241,1004.8807],[-4.0008,42.8098,872.5717],[-3.9964,42.7989,725.7887],[-3.9975,42.7878,719.214],[-3.9959,42.7862,718.5623],[-3.9996,42.769,1069.462],[-3.9945,42.7686,1062.613],[-3.9906,42.771,975.8469],[-3.9815,42.7683,1009.6285],[-3.9788,42.7581,1066.4047],[-3.9656,42.7586,1066.5419],[-3.9565,42.7622,1084.7571],[-3.9465,42.7619,1086.2178],[-3.9487,42.7675,1074.1704],[-3.9305,42.7745,1070.7908],[-3.9264,42.7701,1065.4692],[-3.9109,42.7684,1062.6345],[-3.9087,42.777,1067.3989],[-3.9096,42.7864,1082.2449],[-3.9014,42.7886,1092.4019],[-3.8995,42.7907,1103.5099],[-3.8944,42.8045,1145.451],[-3.886,42.7982,1097.3368],[-3.8633,42.7864,1052.0979],[-3.8542,42.7875,1033.9342],[-3.829,42.7987,993.3043],[-3.8232,42.7988,983.4194],[-3.8216,42.8003,983.2191],[-3.8205,42.8063,967.5678],[-3.816,42.8105,946.3417],[-3.8162,42.8193,885.6402],[-3.8196,42.8278,698.1534],[-3.8166,42.8302,781.2838],[-3.8164,42.8359,828.2637],[-3.8337,42.8521,911.1208],[-3.8341,42.8557,903.0333],[-3.8253,42.8686,921.1046],[-3.8367,42.8788,957.3906],[-3.8518,42.8834,936.2614],[-3.8637,42.8898,817.6002],[-3.868,42.886,848.9874],[-3.874,42.8751,856.1391],[-3.8709,42.8743,897.0443],[-3.8735,42.8702,867.3984],[-3.8738,42.8632,859.4588],[-3.8684,42.8567,922.75],[-3.8737,42.8529,787.2406],[-3.8801,42.8514,747.7421],[-3.8877,42.8568,746.2952],[-3.8964,42.8563,784.0659],[-3.8992,42.8599,766.9268],[-3.913,42.8591,736.8173],[-3.9154,42.8609,772.2955],[-3.9132,42.8677,782.7747],[-3.9056,42.8702,830.8116],[-3.8974,42.8803,863.6488],[-3.9024,42.8849,825.4609],[-3.9243,42.8892,897.8484],[-3.9202,42.8906,835.796],[-3.9164,42.8892,887.3227],[-3.9103,42.8919,786.9559],[-3.9088,42.8894,741.1261],[-3.9027,42.8862,802.827],[-3.8929,42.8873,825.3491],[-3.8991,42.9041,784.6075],[-3.907,42.9075,810.84],[-3.9105,42.9109,905.5809],[-3.9079,42.9122,923.6505],[-3.9077,42.9145,911.8918],[-3.9027,42.9095,836.9957],[-3.8908,42.9026,775.2645],[-3.8832,42.9043,774.3475],[-3.879,42.9013,780.2709],[-3.8685,42.8991,791.5549],[-3.8589,42.9037,918.2915],[-3.8603,42.9045,917.7283],[-3.8573,42.9075,898.4247],[-3.8534,42.9181,942.1062],[-3.8466,42.9192,1028.1146],[-3.8439,42.9169,1056.4375],[-3.8382,42.9162,977.5355],[-3.8335,42.918,973.0724],[-3.8299,42.9277,1038.3663],[-3.8373,42.9342,1037.6642],[-3.8395,42.9398,1135.4686],[-3.867,42.9548,1092.0262],[-3.8701,42.9497,1103.4015],[-3.8777,42.9478,971.1035],[-3.8873,42.9487,936.7575],[-3.8876,42.9377,971.7328],[-3.8896,42.9351,918.188],[-3.8888,42.9298,853.8409],[-3.8912,42.9255,853.8928],[-3.9114,42.9234,875.8915],[-3.9181,42.9163,873.8057],[-3.9233,42.9156,840.9765],[-3.9263,42.9044,840.1578],[-3.9335,42.8996,794.6961],[-3.9375,42.904,837.3886],[-3.9363,42.9081,815.7192],[-3.9296,42.9147,822.9387]],
[[-4.0936,42.7976,762.4577],[-4.101,42.7939,827.1957],[-4.1088,42.8031,803.3884],[-4.1052,42.8088,833.2954],[-4.113,42.8167,970.9075],[-4.1124,42.8223,986.8096],[-4.107,42.8277,1063.526],[-4.1019,42.8251,1020.8995],[-4.0948,42.824,1003.3192],[-4.0884,42.8185,966.4541],[-4.089,42.7999,779.5944],[-4.0936,42.7976,762.4577]],
[[-4.1763,42.8234,962.4359],[-4.163,42.8209,937.1325],[-4.161,42.8184,893.9901],[-4.161,42.8131,863.7431],[-4.1745,42.8116,909.7402],[-4.1823,42.8203,919.1136],[-4.1763,42.8234,962.4359]]]]}}