{"type": "Feature","bbox": [-4.3642,39.6272,-3.6043,40.2665],"geometry": {"type": "MultiPolygon","coordinates": [[[[-4.2572,39.6301,766.036],[-4.2361,39.6368,783.6731],[-4.2248,39.6358,794.6843],[-4.2029,39.6376,770.6321],[-4.1914,39.6311,809.1242],[-4.1761,39.6272,812.8126],[-4.1679,39.6297,816.6948],[-4.159,39.6358,791.2537],[-4.1491,39.6453,774.5246],[-4.1398,39.651,778.8277],[-4.1229,39.669,754.0696],[-4.1191,39.6808,728.5736],[-4.1194,39.6931,722.0726],[-4.1175,39.6976,716.0381],[-4.1259,39.6983,716.8113],[-4.1358,39.7095,708.0986],[-4.1227,39.7242,675.4386],[-4.1204,39.7231,675.0322],[-4.1178,39.726,666.3402],[-4.1105,39.7294,659.8134],[-4.1133,39.7314,668.0074],[-4.1088,39.7415,664.7329],[-4.1042,39.7467,662.84],[-4.0989,39.7482,664.0851],[-4.094,39.7471,628.2117],[-4.0813,39.7489,664.5579],[-4.0536,39.7452,739.9484],[-4.0411,39.7408,846.7818],[-4.0361,39.7331,1033.707],[-4.0335,39.7415,944.5517],[-4.0375,39.7462,827.2715],[-4.0375,39.7486,817.4655],[-4.0262,39.7539,781.4379],[-4.0141,39.7492,769.9815],[-3.9996,39.7505,739.3875],[-3.9816,39.7566,735.6527],[-3.9686,39.7657,881.2928],[-3.9644,39.7666,922.9511],[-3.9619,39.7572,782.4329],[-3.9523,39.7465,759.0535],[-3.9354,39.743,738.6487],[-3.9329,39.7376,734.8868],[-3.9206,39.7308,719.7027],[-3.9142,39.7246,708.9562],[-3.9118,39.7283,716.6464],[-3.9128,39.7326,723.4472],[-3.9052,39.7301,714.4038],[-3.9007,39.7417,740.2148],[-3.9028,39.7462,850.2192],[-3.8918,39.7584,705.0326],[-3.898,39.7605,709.6516],[-3.9034,39.7702,693.4318],[-3.9091,39.7743,708.0463],[-3.9064,39.7788,699.2178],[-3.9064,39.7915,691.2318],[-3.9022,39.789,685.6032],[-3.8899,39.7907,663.9687],[-3.8802,39.789,638.2955],[-3.8747,39.7933,647.9913],[-3.8615,39.7927,665.5084],[-3.8597,39.8022,658.4904],[-3.8652,39.8106,627.1149],[-3.866,39.8148,619.332],[-3.8706,39.8208,595.9795],[-3.8757,39.8213,579.5582],[-3.8782,39.8233,585.1038],[-3.8728,39.8285,564.3531],[-3.8519,39.8358,630.1149],[-3.8559,39.8412,608.7964],[-3.8559,39.8448,606.6714],[-3.8592,39.8476,596.1257],[-3.8576,39.8591,571.3802],[-3.8648,39.8639,555.7857],[-3.8651,39.8694,539.7327],[-3.8678,39.8728,532.4449],[-3.8602,39.8801,501.4373],[-3.8489,39.8804,482.4083],[-3.8403,39.8826,540.3872],[-3.8311,39.88,555.428],[-3.8205,39.8815,544.5412],[-3.8176,39.8852,546.7932],[-3.8146,39.8859,550.9477],[-3.8343,39.8998,525.9408],[-3.8695,39.9047,466.1726],[-3.8705,39.9072,466.5211],[-3.8742,39.9081,466.4427],[-3.8729,39.909,463.9496],[-3.8763,39.9109,462.9741],[-3.8692,39.9175,461.2305],[-3.8756,39.924,468.1743],[-3.8758,39.9287,463.4369],[-3.8668,39.9313,463.5148],[-3.8517,39.9394,465.1639],[-3.839,39.9422,478.4716],[-3.8375,39.9411,461.0],[-3.837,39.9302,467.1099],[-3.8317,39.9301,468.4265],[-3.8298,39.9319,463.5489],[-3.8295,39.9402,465.4823],[-3.8247,39.9467,467.9001],[-3.8182,39.9467,468.2762],[-3.8139,39.9525,466.2003],[-3.8081,39.9548,468.0445],[-3.8022,39.9527,471.7328],[-3.801,39.9465,470.5898],[-3.7961,39.9484,469.4699],[-3.7869,39.9465,471.3994],[-3.7858,39.9505,471.1845],[-3.7886,39.9542,469.3338],[-3.7744,39.9589,471.5883],[-3.7698,39.9588,470.5156],[-3.766,39.9624,468.7792],[-3.7647,39.9664,472.852],[-3.7589,39.9579,472.0642],[-3.7702,39.9537,472.3362],[-3.7699,39.949,472.1671],[-3.7633,39.9474,471.9023],[-3.7552,39.95,478.4127],[-3.7514,39.9528,472.9009],[-3.7513,39.9566,472.0077],[-3.7612,39.971,470.5637],[-3.757,39.971,468.9943],[-3.75,39.9635,470.6848],[-3.7394,39.9615,473.2366],[-3.726,39.9665,473.1057],[-3.7245,39.9713,472.5662],[-3.7284,39.9731,475.4422],[-3.7312,39.9697,475.6315],[-3.7372,39.9687,474.78],[-3.7406,39.9707,474.6409],[-3.7462,39.9808,477.0202],[-3.7407,39.9829,476.5975],[-3.7347,39.9771,473.9028],[-3.733,39.98,474.5921],[-3.7349,39.9851,475.6288],[-3.7296,39.9868,476.3181],[-3.7273,39.9897,477.8123],[-3.7228,39.9878,475.1909],[-3.7241,39.995,475.0872],[-3.7205,40.001,476.6139],[-3.7156,40.0033,477.2469],[-3.712,40.0094,478.6325],[-3.7003,40.0189,478.7069],[-3.6963,40.0208,477.64],[-3.6869,40.0217,479.7586],[-3.6849,40.0178,478.3069],[-3.6791,40.016,480.4001],[-3.6674,40.0285,480.4461],[-3.6566,40.0343,480.9297],[-3.6493,40.0337,480.2817],[-3.6467,40.0352,483.2332],[-3.6458,40.0396,483.5484],[-3.636,40.0448,484.1121],[-3.6367,40.052,482.8864],[-3.6205,40.0561,487.3925],[-3.62,40.058,487.973],[-3.6248,40.0611,485.4418],[-3.6242,40.0638,484.4295],[-3.6181,40.066,485.1104],[-3.617,40.0681,489.025],[-3.6277,40.0751,486.1122],[-3.6278,40.0773,488.9782],[-3.622,40.0807,488.816],[-3.6124,40.0801,487.9312],[-3.6094,40.0835,488.4685],[-3.6043,40.0947,490.79],[-3.6111,40.0945,490.3464],[-3.6142,40.0988,492.084],[-3.6064,40.109,494.0898],[-3.6212,40.1151,505.4338],[-3.6216,40.1139,505.4338],[-3.6239,40.1142,507.7242],[-3.6331,40.1196,590.0593],[-3.6565,40.1255,615.9365],[-3.6568,40.1279,616.6473],[-3.66,40.1284,620.5231],[-3.6658,40.1364,627.6025],[-3.6669,40.1435,631.7415],[-3.6783,40.1391,670.1189],[-3.6836,40.1325,664.4745],[-3.691,40.1328,671.5949],[-3.7128,40.1419,649.1315],[-3.7122,40.1428,651.3415],[-3.7206,40.148,665.5204],[-3.745,40.1327,686.5609],[-3.7718,40.1396,569.5214],[-3.7723,40.1421,575.5593],[-3.7781,40.1476,585.2499],[-3.7789,40.1558,586.3063],[-3.7842,40.1627,596.1046],[-3.8001,40.1757,608.6429],[-3.806,40.1775,620.853],[-3.8102,40.1691,602.7887],[-3.8173,40.1714,605.0983],[-3.835,40.1613,626.5306],[-3.841,40.1625,625.5037],[-3.8527,40.1697,633.9913],[-3.8511,40.1778,644.7039],[-3.8534,40.1798,648.1583],[-3.8649,40.1872,668.3615],[-3.8762,40.1911,666.9693],[-3.8777,40.1882,670.1884],[-3.8943,40.1887,654.0021],[-3.8994,40.1905,638.6421],[-3.9102,40.1898,622.7671],[-3.9158,40.1915,615.4755],[-3.9309,40.204,626.8175],[-3.9383,40.2034,632.2991],[-3.9411,40.198,612.3732],[-3.9492,40.1891,547.0327],[-3.9512,40.1903,537.2159],[-3.9508,40.1967,535.6727],[-3.9561,40.1986,541.3994],[-3.9529,40.2123,544.3026],[-3.9771,40.2124,588.8326],[-3.9923,40.2097,604.9431],[-3.9988,40.2163,581.6827],[-4.0092,40.2206,604.3624],[-4.0205,40.2308,619.8422],[-4.0211,40.2345,617.6782],[-4.0259,40.2362,620.0829],[-4.0262,40.245,619.9175],[-4.0236,40.2491,617.495],[-4.0515,40.2511,660.0914],[-4.0623,40.2571,648.2996],[-4.0644,40.2604,640.0903],[-4.0711,40.2648,635.7592],[-4.0804,40.2665,619.2424],[-4.0877,40.2532,598.7084],[-4.1008,40.2459,632.183],[-4.1041,40.2418,638.0947],[-4.1118,40.2441,631.8281],[-4.1207,40.2437,615.1866],[-4.1311,40.2488,600.3304],[-4.1436,40.245,596.033],[-4.1432,40.2426,596.2476],[-4.135,40.2362,610.9534],[-4.1345,40.2319,613.1511],[-4.1304,40.2281,614.7644],[-4.1302,40.2212,630.5046],[-4.1263,40.219,635.4241],[-4.1265,40.2154,634.9391],[-4.1207,40.2129,651.2373],[-4.1238,40.2092,653.8114],[-4.1196,40.2035,651.8336],[-4.1224,40.2014,651.5783],[-4.1209,40.1991,649.9684],[-4.1249,40.1958,643.1023],[-4.1253,40.1872,651.6299],[-4.1316,40.1885,654.5632],[-4.1326,40.1868,652.6403],[-4.1383,40.1866,654.3031],[-4.1411,40.182,646.3456],[-4.1537,40.1832,651.1107],[-4.1673,40.1745,643.2811],[-4.1714,40.1601,632.2355],[-4.1747,40.16,629.5624],[-4.1731,40.158,632.8764],[-4.1741,40.1565,632.0592],[-4.1768,40.1561,626.7631],[-4.179,40.151,630.5995],[-4.1856,40.1484,638.7702],[-4.1844,40.1472,638.6005],[-4.186,40.146,643.9033],[-4.1837,40.1464,641.3625],[-4.1809,40.1431,635.548],[-4.1809,40.1362,633.6028],[-4.1783,40.1269,627.5496],[-4.1539,40.144,624.3544],[-4.1354,40.1521,647.0671],[-4.1294,40.1484,643.8036],[-4.1188,40.1512,638.7749],[-4.1101,40.1499,627.4243],[-4.1023,40.1363,615.6082],[-4.0908,40.1329,602.5779],[-4.0806,40.1436,591.2247],[-4.0792,40.1294,580.8846],[-4.0725,40.1202,569.2644],[-4.0704,40.1093,589.6812],[-4.0671,40.1073,577.7687],[-4.0674,40.1059,581.253],[-4.064,40.1059,572.8083],[-4.0671,40.104,578.1108],[-4.0607,40.0982,565.8228],[-4.0619,40.0957,568.6245],[-4.0583,40.093,559.1471],[-4.0604,40.0906,560.097],[-4.0654,40.089,572.3338],[-4.0597,40.081,558.1023],[-4.0617,40.0819,559.2007],[-4.0642,40.0794,556.256],[-4.0567,40.0763,544.8591],[-4.0577,40.0689,545.262],[-4.0562,40.0666,543.8494],[-4.053,40.0669,542.4366],[-4.0519,40.0562,534.6489],[-4.0458,40.0559,531.9141],[-4.0452,40.0532,532.3715],[-4.0435,40.0535,531.6927],[-4.0423,40.0512,531.0662],[-4.0501,40.0459,533.4909],[-4.0635,40.0433,537.1917],[-4.0613,40.0421,538.9319],[-4.0632,40.0387,520.7346],[-4.0588,40.0356,510.6059],[-4.0687,40.0299,538.8145],[-4.0627,40.028,535.7687],[-4.0605,40.0139,532.5576],[-4.0521,40.0014,514.507],[-4.0576,39.9897,511.1937],[-4.0503,39.9859,495.8411],[-4.0711,39.9799,477.111],[-4.0895,39.9798,510.1622],[-4.0884,39.9754,510.7975],[-4.0868,39.9753,512.5578],[-4.0917,39.9597,488.7673],[-4.0887,39.9501,459.8806],[-4.0964,39.9505,458.4954],[-4.1043,39.9535,458.4937],[-4.1161,39.9487,454.6258],[-4.1169,39.9457,454.028],[-4.137,39.9534,481.8777],[-4.1493,39.9541,501.3311],[-4.1535,39.9576,499.3498],[-4.1558,39.9575,501.6818],[-4.1552,39.9524,507.5018],[-4.1523,39.9497,502.3998],[-4.153,39.9471,495.0582],[-4.161,39.9495,498.0978],[-4.1609,39.9477,496.0698],[-4.1701,39.9394,493.8845],[-4.1648,39.9346,481.8461],[-4.1595,39.9129,442.4951],[-4.1664,39.9109,441.2611],[-4.176,39.912,439.3567],[-4.1788,39.9082,438.5452],[-4.1753,39.9044,448.5335],[-4.1625,39.9044,503.9692],[-4.1632,39.8999,466.7498],[-4.168,39.8974,483.3422],[-4.1675,39.8936,462.6972],[-4.1721,39.8908,435.1414],[-4.1698,39.8905,455.4851],[-4.1668,39.8857,432.9962],[-4.1688,39.8826,431.7909],[-4.174,39.8853,431.1498],[-4.1822,39.8856,433.1879],[-4.1824,39.8817,428.8347],[-4.1789,39.877,428.8864],[-4.1838,39.8729,428.3323],[-4.1904,39.8716,428.5641],[-4.1985,39.8625,428.072],[-4.2054,39.8621,427.1998],[-4.2072,39.8642,429.3457],[-4.206,39.8689,426.7988],[-4.2106,39.8721,431.3136],[-4.2215,39.8705,428.3213],[-4.2245,39.8668,427.5255],[-4.2247,39.8638,426.1322],[-4.2185,39.8585,426.8],[-4.2214,39.8536,438.752],[-4.2314,39.8537,435.341],[-4.2389,39.8587,429.6027],[-4.2425,39.8658,424.7513],[-4.2476,39.8666,425.018],[-4.2494,39.8648,424.649],[-4.248,39.8579,423.5],[-4.2506,39.8424,426.0],[-4.2577,39.8406,426.8038],[-4.2576,39.8329,426.6961],[-4.2686,39.836,424.1643],[-4.2689,39.8388,424.5155],[-4.2641,39.8425,423.9382],[-4.2624,39.846,436.051],[-4.2655,39.8496,423.0],[-4.2725,39.8506,423.0],[-4.2762,39.8641,423.9764],[-4.2843,39.8691,455.8665],[-4.2877,39.8686,423.0],[-4.2897,39.8668,423.0],[-4.2907,39.8545,423.0],[-4.2877,39.848,423.0],[-4.2888,39.8458,423.0],[-4.3016,39.8418,423.0],[-4.2983,39.8355,423.0],[-4.2888,39.8325,413.8975],[-4.284,39.8288,410.8982],[-4.3026,39.8266,412.8108],[-4.3109,39.8213,415.0764],[-4.3129,39.8144,408.6846],[-4.3093,39.8086,407.7004],[-4.3128,39.8035,407.7272],[-4.3186,39.8015,409.1689],[-4.3214,39.8034,407.2351],[-4.3258,39.8086,407.2871],[-4.3327,39.8121,406.9539],[-4.3331,39.8167,405.4661],[-4.3367,39.8199,407.4235],[-4.3491,39.8124,407.9554],[-4.3619,39.8136,406.2341],[-4.3642,39.805,455.9564],[-4.3554,39.7865,491.3362],[-4.3489,39.7789,505.0652],[-4.346,39.771,554.2092],[-4.337,39.7688,582.6729],[-4.3309,39.77,622.5563],[-4.3172,39.7631,637.1547],[-4.3145,39.7471,605.6533],[-4.3157,39.7382,642.4645],[-4.3327,39.7185,673.0015],[-4.3324,39.7046,664.5151],[-4.3204,39.6884,682.5469],[-4.3053,39.688,698.0293],[-4.2934,39.6847,721.9117],[-4.2909,39.6866,727.5495],[-4.2814,39.678,719.889],[-4.2772,39.6762,728.2063],[-4.2784,39.6749,725.2933],[-4.2645,39.6689,744.1642],[-4.2659,39.6655,746.6306],[-4.2597,39.6611,748.2991],[-4.2571,39.6521,768.08],[-4.2529,39.6486,777.5179],[-4.2542,39.6473,777.5179],[-4.2522,39.6469,782.8309],[-4.2567,39.6373,749.315],[-4.2572,39.6301,766.036]]]]}
,"properties": {"GID_3": "ESP.4.5.6_1","GID_0": "ESP","country": "Spain","GID_1": "ESP.4_1","province": "Castilla-LaMancha","NL_NAME_1": "NA","GID_2": "ESP.4.5_1","county": "Toledo","NL_NAME_2": "NA","city": "n.a.(259)","VARNAME_3": "NA","NL_NAME_3": "NA","TYPE_3": "Comarca","ENGTYPE_3": "Comarca","CC_3": "NA","HASC_3": "NA","name": "n.a.(259).city","area_km2": 1891.108,"hist_schema_id": "Elevation0-9000","hist_area_km2": {"400": 1.971,"425": 22.739,"450": 56.588,"475": 145.682,"500": 177.784,"525": 184.751,"550": 170.575,"575": 175.988,"600": 230.068,"625": 222.296,"650": 154.034,"675": 90.819,"700": 72.32,"725": 64.853,"750": 60.843,"775": 44.724,"800": 7.945,"825": 3.262,"850": 1.598,"875": 0.994,"900": 0.489,"925": 0.245,"950": 0.31,"975": 0.114,"1000": 0.082,"1025": 0.033}}}