{"type":"Feature","properties":{"GID_3":"ESP.1.8.3_1","GID_0":"ESP","country":"Spain","GID_1":"ESP.1_1","province":"Andalucía","NL_NAME_1":"NA","GID_2":"ESP.1.8_1","county":"Sevilla","NL_NAME_2":"NA","city":"n.a.(228)","VARNAME_3":"NA","NL_NAME_3":"NA","TYPE_3":"Comarca","ENGTYPE_3":"Comarca","CC_3":"NA","HASC_3":"NA","name":"n.a.(228).city"},
"geometry":{"type": "MultiPolygon","coordinates": [[[[-6.056,37.1973,0.8044],[-6.0521,37.1951,1.4912],[-6.0434,37.1972,2.3469],[-6.0398,37.1966,2.0481],[-6.0333,37.182,1.6613],[-6.0274,37.1763,1.4233],[-6.0282,37.1693,1.2333],[-6.0319,37.1674,1.3929],[-6.0441,37.1664,1.1193],[-6.0529,37.1637,1.3713],[-6.0616,37.1579,1.2492],[-6.0616,37.1554,0.9815],[-6.0567,37.1511,1.1],[-6.0424,37.1517,1.5278],[-6.0393,37.1501,1.1574],[-6.0339,37.1538,1.7663],[-5.9962,37.1639,1.8772],[-5.9902,37.1496,2.4133],[-5.9823,37.1389,2.0171],[-5.9476,37.1011,3.6868],[-5.9368,37.0785,4.9913],[-5.9304,37.0813,4.8382],[-5.9285,37.0913,5.8923],[-5.9191,37.0984,6.5667],[-5.9184,37.1012,6.5294],[-5.8858,37.1079,7.436],[-5.8871,37.1101,7.2975],[-5.8599,37.1158,9.6308],[-5.8614,37.1186,9.5821],[-5.8478,37.1306,18.3028],[-5.8422,37.1396,24.7879],[-5.8426,37.1414,25.9311],[-5.8571,37.1529,13.9034],[-5.8743,37.1698,27.6235],[-5.8775,37.1763,13.8688],[-5.8781,37.189,16.3624],[-5.8804,37.1917,16.6708],[-5.8902,37.195,21.5696],[-5.8919,37.1974,24.0105],[-5.9039,37.2035,28.6957],[-5.908,37.2087,29.3695],[-5.9083,37.2134,28.2208],[-5.922,37.2127,18.5983],[-5.921,37.2175,21.7026],[-5.9179,37.2202,21.9403],[-5.9075,37.2265,28.2055],[-5.9039,37.2258,30.0069],[-5.9009,37.2293,31.1052],[-5.8954,37.2517,53.6048],[-5.8977,37.2559,52.3105],[-5.8925,37.2607,52.3488],[-5.8946,37.2632,53.3478],[-5.8935,37.2669,54.238],[-5.8833,37.2771,60.2341],[-5.8944,37.2848,59.2176],[-5.8971,37.2904,56.2808],[-5.9058,37.2988,53.1129],[-5.9161,37.3014,56.9961],[-5.919,37.3074,56.0446],[-5.9156,37.3086,55.0595],[-5.9036,37.3287,88.4895],[-5.9222,37.347,36.333],[-5.9265,37.3539,30.1957],[-5.9404,37.3642,12.9919],[-5.9479,37.3661,12.4676],[-5.9107,37.3756,20.51],[-5.9083,37.3776,22.4837],[-5.9046,37.3771,27.5036],[-5.8874,37.3871,36.3096],[-5.8427,37.3872,51.4844],[-5.8191,37.3904,70.2746],[-5.8175,37.4232,60.7409],[-5.8233,37.4405,53.7345],[-5.8287,37.4659,52.087],[-5.8381,37.4873,43.2259],[-5.8399,37.4978,35.6201],[-5.8459,37.5044,37.7779],[-5.8558,37.5113,32.1688],[-5.8591,37.5202,29.5355],[-5.8687,37.5278,23.3713],[-5.8499,37.5494,21.4546],[-5.8188,37.5648,24.2248],[-5.811,37.5668,25.3727],[-5.8011,37.5666,26.6055],[-5.7785,37.5731,27.4089],[-5.7715,37.5641,33.8491],[-5.7689,37.567,33.8349],[-5.7638,37.5683,38.1347],[-5.7536,37.5682,37.4696],[-5.7309,37.5719,41.32],[-5.7225,37.576,34.127],[-5.7151,37.5773,46.1413],[-5.694,37.5776,48.4284],[-5.6856,37.5753,53.7223],[-5.6788,37.5803,34.8657],[-5.6762,37.58,31.5817],[-5.6742,37.5851,27.7233],[-5.6659,37.583,24.0545],[-5.6513,37.586,25.6221],[-5.6499,37.5874,25.0149],[-5.6506,37.5926,26.8719],[-5.6588,37.6006,25.6841],[-5.6588,37.6056,19.3599],[-5.6533,37.6114,19.9469],[-5.6473,37.6135,27.9545],[-5.6429,37.6131,24.4448],[-5.6357,37.6094,28.9339],[-5.6216,37.6071,26.7533],[-5.6118,37.618,25.4118],[-5.6018,37.6207,23.1016],[-5.592,37.6067,34.3251],[-5.5797,37.6059,35.3514],[-5.5642,37.5995,68.9407],[-5.5557,37.6001,49.0],[-5.5418,37.5958,49.0],[-5.5352,37.5957,49.0],[-5.5159,37.5874,63.1167],[-5.5145,37.5851,65.5036],[-5.5102,37.5845,67.1097],[-5.5084,37.5816,71.659],[-5.502,37.5832,73.9496],[-5.4983,37.5819,88.7248],[-5.4737,37.5861,116.2064],[-5.4269,37.5987,92.4116],[-5.4117,37.6132,120.9612],[-5.3916,37.6239,83.2874],[-5.398,37.6274,63.9101],[-5.401,37.6311,61.5911],[-5.4015,37.6365,54.8722],[-5.4078,37.6386,57.6787],[-5.4086,37.6399,48.4378],[-5.4068,37.6412,49.9337],[-5.4114,37.6414,46.5921],[-5.4099,37.6453,44.1459],[-5.4129,37.6442,54.8485],[-5.4143,37.6461,43.1709],[-5.4135,37.6476,38.0583],[-5.4024,37.6483,47.3143],[-5.3965,37.651,38.9371],[-5.3936,37.6568,42.7875],[-5.3971,37.6624,40.391],[-5.4062,37.6586,40.0494],[-5.4095,37.66,40.6984],[-5.4124,37.664,40.7253],[-5.4114,37.669,41.8481],[-5.4141,37.6739,35.1045],[-5.4118,37.6835,38.0567],[-5.4054,37.692,35.7324],[-5.4009,37.6938,41.4817],[-5.394,37.6935,36.0848],[-5.3881,37.6978,40.9573],[-5.3838,37.6943,39.6635],[-5.384,37.6813,43.5606],[-5.38,37.6785,38.9258],[-5.375,37.6779,37.8125],[-5.3703,37.6844,37.1665],[-5.3686,37.6901,42.9695],[-5.3615,37.698,39.6281],[-5.3447,37.7054,42.6861],[-5.3385,37.7063,43.9746],[-5.3334,37.7001,47.8479],[-5.3321,37.695,37.875],[-5.327,37.6916,53.1741],[-5.3219,37.6957,46.2205],[-5.3195,37.7012,47.7794],[-5.3145,37.7016,48.7496],[-5.3101,37.6979,48.0053],[-5.3075,37.6993,48.6886],[-5.307,37.7042,50.2059],[-5.3108,37.7086,49.4243],[-5.3087,37.7158,76.7888],[-5.304,37.7218,91.2451],[-5.3061,37.7263,73.1699],[-5.3047,37.7305,68.3367],[-5.3131,37.7533,92.9954],[-5.3181,37.7572,88.0],[-5.3184,37.7593,146.5489],[-5.3159,37.7598,104.738],[-5.3142,37.7657,109.0273],[-5.3104,37.7661,100.2743],[-5.3099,37.7743,101.3551],[-5.3293,37.7783,137.8395],[-5.3293,37.7819,127.1688],[-5.3436,37.7752,268.3233],[-5.3507999999999996,37.7738,264.3174],[-5.3577,37.7688,265.9237],[-5.3786,37.7689,314.4669],[-5.3874,37.7658,314.234],[-5.3928,37.7667,381.4305],[-5.4047,37.7584,407.9749],[-5.4242,37.7521,227.1689],[-5.4356,37.7519,293.2487],[-5.4575,37.7572,347.7571],[-5.473,37.7552,348.5175],[-5.4782,37.7519,286.9101],[-5.4931,37.7542,287.1958],[-5.5439,37.7463,379.7224],[-5.5606,37.7389,350.6771],[-5.5895,37.7332,354.9912],[-5.5963,37.7336,352.9792],[-5.6157,37.7197,288.1302],[-5.6377,37.7213,312.7442],[-5.6565,37.7127,238.6958],[-5.6675,37.7098,231.0867],[-5.6698,37.7069,206.3244],[-5.676,37.7041,190.6791],[-5.6971,37.704,94.2983],[-5.6929,37.7088,137.8274],[-5.6924,37.7117,82.0055],[-5.6968,37.7156,134.8326],[-5.701,37.7139,118.5306],[-5.7,37.7209,122.4267],[-5.6974,37.7229,120.7631],[-5.7016,37.7258,102.4357],[-5.6998,37.7332,136.2784],[-5.7038,37.7365,129.6274],[-5.7379,37.7321,240.7953],[-5.7587,37.7268,199.9504],[-5.7742,37.7156,116.0106],[-5.7972,37.7028,290.393],[-5.7918,37.6876,136.9594],[-5.8364,37.6844,34.3812],[-5.833,37.6818,52.6596],[-5.8427,37.6742,73.5178],[-5.8542,37.6734,121.7882],[-5.857,37.6719,150.4293],[-5.8577,37.6696,189.7925],[-5.8702,37.6646,304.6782],[-5.8821,37.6568,205.4537],[-5.8823,37.6451,289.2245],[-5.9038,37.6388,196.5734],[-5.9264,37.636,228.0309],[-5.9333,37.6388,272.5337],[-5.94,37.6364,201.657],[-5.9525,37.6358,264.2154],[-5.9846,37.6295,342.4167],[-6.0074,37.617,171.8972],[-6.0149,37.6157,165.8656],[-6.0305,37.6185,192.0639],[-6.0251,37.5998,142.6559],[-6.0174,37.5895,138.0118],[-6.0156,37.5827,117.6229],[-6.0075,37.5713,71.1351],[-6.0123,37.562,72.4897],[-6.0103,37.5578,64.4535],[-6.0179,37.5463,31.1737],[-6.0161,37.5242,20.6742],[-6.0217,37.5227,19.3863],[-6.0231,37.51,14.2981],[-6.0258,37.5089,14.7929],[-6.0265,37.5041,9.9826],[-6.0246,37.499,9.2839],[-6.0317,37.4959,5.2317],[-6.0294,37.4912,8.214],[-6.0267,37.491,7.8597],[-6.0257,37.4884,5.6659],[-6.0296,37.4839,8.0554],[-6.0242,37.48,8.3269],[-6.0284,37.4753,7.3444],[-6.0307,37.4746,6.6047],[-6.0332,37.4768,6.7082],[-6.0347,37.4762,5.7822],[-6.0341,37.4701,10.3581],[-6.0396,37.4612,6.9661],[-6.0405,37.4538,6.9595],[-6.0376,37.4511,5.7601],[-6.0331,37.4521,7.2877],[-6.0345,37.45,5.9698],[-6.0326,37.4493,5.7428],[-6.0308,37.4497,6.6046],[-6.0304,37.4533,7.3654],[-6.0253,37.4531,8.1156],[-6.0258,37.4475,5.0468],[-6.0288,37.4452,5.9017],[-6.0286,37.4426,5.3037],[-6.0278,37.437,7.2338],[-6.0242,37.4324,5.0787],[-6.0232,37.428,5.5967],[-6.0278,37.4249,6.6888],[-6.0307,37.4287,10.5067],[-6.0366,37.442,8.1865],[-6.039,37.4432,9.2372],[-6.04,37.4525,6.0942],[-6.0544,37.4513,17.1864],[-6.0603,37.4518,17.8244],[-6.063,37.4541,17.8633],[-6.0551,37.4326,41.3519],[-6.0329,37.4282,9.1039],[-6.03,37.4241,7.4974],[-6.0145,37.4131,8.4983],[-6.0126,37.4132,6.6235],[-6.0155,37.4008,1.0],[-6.0246,37.3922,6.1968],[-6.0245,37.3857,5.8601],[-6.0217,37.3795,1.0],[-6.0264,37.3751,8.4218],[-6.0349,37.3729,37.5915],[-6.0342,37.3704,42.2352],[-6.0362,37.3678,36.7104],[-6.0441,37.3642,59.8469],[-6.046,37.3614,57.9389],[-6.0548,37.3586,87.7044],[-6.0441,37.3589,66.3806],[-6.0362,37.357,60.0229],[-6.0331,37.3546,38.1695],[-6.0329,37.3485,38.5162],[-6.0223,37.3504,0.5],[-6.0209,37.3368,1.5644],[-6.0054,37.3251,9.5115],[-6.0029,37.3203,2.8128],[-6.0139,37.3149,1.5817],[-6.0283,37.3018,0.0],[-6.0401,37.2977,0.0],[-6.0429,37.3008,5.9912],[-6.0514,37.3044,4.4445],[-6.0723,37.3073,31.387],[-6.0735,37.301,22.9063],[-6.0859,37.2856,24.6888],[-6.0798,37.2802,18.278],[-6.0543,37.2726,1.2332],[-6.0596,37.2619,0.0],[-6.0611,37.2486,0.0],[-6.0605,37.244,4.7741],[-6.0535,37.2308,2.9935],[-6.0538,37.2284,1.0938],[-6.0741,37.2151,0.0],[-6.0768,37.2118,8.3135],[-6.0759,37.206,1.9921],[-6.0636,37.2064,2.0051],[-6.0577,37.2157,1.8194],[-6.0525,37.2164,2.417],[-6.0508,37.212,0.3573],[-6.056,37.1973,0.8044]]]]}}