{"type":"Feature","properties":{"GID_3":"ESP.2.3.2_1","GID_0":"ESP","country":"Spain","GID_1":"ESP.2_1","province":"Aragón","NL_NAME_1":"NA","GID_2":"ESP.2.3_1","county":"Zaragoza","NL_NAME_2":"NA","city":"n.a.(275)","VARNAME_3":"NA","NL_NAME_3":"NA","TYPE_3":"Comarca","ENGTYPE_3":"Comarca","CC_3":"NA","HASC_3":"NA","name":"n.a.(275).city"},
"geometry":{"type": "MultiPolygon","coordinates": [[[[-0.8755,41.1212,776.2978],[-0.8711,41.1194,783.8743],[-0.8713,41.1165,811.0911],[-0.8598,41.108,715.0667],[-0.8285,41.0964,687.5569],[-0.8117,41.1008,683.5999],[-0.8114,41.1023,684.2077],[-0.8085,41.1015,708.3989],[-0.799,41.1033,780.6969],[-0.7885,41.1079,824.2921],[-0.7915,41.1115,839.999],[-0.7837,41.1176,829.5517],[-0.7824,41.1265,781.7306],[-0.7846,41.1366,840.8236],[-0.7795,41.138,863.1381],[-0.7816,41.1438,841.3237],[-0.7805,41.1474,830.4647],[-0.7763,41.1526,806.5518],[-0.7648,41.1589,754.1163],[-0.7649,41.1641,726.4122],[-0.7614,41.1697,707.5084],[-0.7507,41.1654,657.0031],[-0.7464,41.1618,722.4581],[-0.7453,41.1573,743.4399],[-0.7359,41.1507,861.2027],[-0.7332,41.1452,924.9235],[-0.7277,41.1439,919.7491],[-0.7258,41.138,902.2051],[-0.7223,41.1377,892.0859],[-0.7223,41.1335,886.1888],[-0.7138,41.1263,910.285],[-0.7155,41.1247,914.8407],[-0.7121,41.1218,946.2145],[-0.6965,41.1155,895.4792],[-0.6939,41.1123,907.3364],[-0.6803,41.1208,755.0225],[-0.6719,41.13,731.6907],[-0.672,41.1342,717.1191],[-0.665,41.146,582.6774],[-0.6445,41.1654,501.2986],[-0.6408,41.171,480.1397],[-0.6241,41.1799,445.8561],[-0.6218,41.1843,439.8559],[-0.6099,41.1917,410.6098],[-0.6113,41.1948,405.7586],[-0.6218,41.1988,406.4819],[-0.6287,41.2044,398.8401],[-0.6389,41.2172,402.3185],[-0.6605,41.2297,435.015],[-0.6692,41.2369,441.3078],[-0.6631,41.2394,424.886],[-0.6427,41.2384,400.6329],[-0.6254,41.2482,365.5424],[-0.6287,41.2598,349.1255],[-0.6272,41.28,338.5159],[-0.6319,41.3018,364.8004],[-0.6297,41.3118,362.1586],[-0.6052,41.3233,291.7011],[-0.5749,41.2952,319.5768],[-0.5484,41.2678,292.9492],[-0.5422,41.247,299.1114],[-0.5315,41.2278,303.5517],[-0.5141,41.2346,276.9222],[-0.5096,41.2383,277.9093],[-0.5068,41.2471,279.102],[-0.5081,41.2558,270.0872],[-0.5271,41.2882,249.9104],[-0.5351,41.2947,288.7113],[-0.5447,41.2989,289.2388],[-0.5448,41.3006,294.8335],[-0.5516,41.3029,297.8073],[-0.5655,41.3033,312.0853],[-0.5773,41.314,331.4863],[-0.5818,41.3214,332.7908],[-0.5817,41.3481,226.5251],[-0.5677,41.3539,213.8946],[-0.5589,41.3543,210.3873],[-0.5506,41.3455,204.0677],[-0.5434,41.349,197.6609],[-0.5225,41.3484,190.7041],[-0.5214,41.3505,189.1803],[-0.5101,41.3541,182.324],[-0.5024,41.3541,180.7463],[-0.5002,41.3522,178.3869],[-0.4985,41.353,179.1672],[-0.4799,41.346,173.8686],[-0.4701,41.3471,178.9637],[-0.4615,41.3458,182.3082],[-0.4443,41.3503,152.9763],[-0.4317,41.3486,145.3056],[-0.43,41.3427,149.1286],[-0.4224,41.3335,141.1502],[-0.413,41.3338,143.3943],[-0.4125,41.3375,170.2228],[-0.3968,41.3529,186.4249],[-0.3988,41.3654,200.634],[-0.3883,41.3679,222.9255],[-0.3756,41.3781,293.1649],[-0.3605,41.3779,347.7913],[-0.3584,41.385,339.3012],[-0.3537,41.3886,337.8323],[-0.3275,41.3937,332.8362],[-0.3176,41.4024,359.4123],[-0.3119,41.4053,352.4437],[-0.3085,41.4107,377.0145],[-0.2969,41.4211,373.5025],[-0.2892,41.4247,371.3509],[-0.2816,41.4313,377.0076],[-0.2624,41.4305,403.0163],[-0.2259,41.4385,363.5863],[-0.2117,41.4466,358.7665],[-0.205,41.4469,365.0587],[-0.1982,41.471,379.5284],[-0.2027,41.4803,381.0934],[-0.2122,41.4856,375.8949],[-0.2369,41.493,341.1334],[-0.2831,41.4984,305.0867],[-0.3051,41.4933,288.3597],[-0.3247,41.4964,283.4606],[-0.3493,41.5137,292.7594],[-0.3555,41.5249,288.1365],[-0.3489,41.5306,309.0494],[-0.3225,41.5368,329.8167],[-0.3098,41.5451,350.2579],[-0.3099,41.5485,355.2489],[-0.304,41.5565,382.1713],[-0.3028,41.561,396.4995],[-0.2829,41.5818,450.5973],[-0.2762,41.586,504.4768],[-0.2739,41.5906,563.8409],[-0.2792,41.5951,559.8505],[-0.2834,41.5954,542.6133],[-0.2863,41.5984,562.6192],[-0.2884,41.5982,566.4462],[-0.3023,41.6079,554.1649],[-0.3059,41.6138,568.1993],[-0.3052,41.6163,576.9079],[-0.3084,41.6197,574.5286],[-0.307,41.6209,576.4745],[-0.3125,41.6241,569.8602],[-0.3271,41.6243,586.4308],[-0.3362,41.6302,572.1859],[-0.3463,41.6309,626.9869],[-0.3532,41.6334,619.458],[-0.3555,41.6324,634.7102],[-0.3623,41.6378,593.6116],[-0.3607,41.6451,598.5811],[-0.3659,41.6598,656.4108],[-0.3649,41.6636,682.4341],[-0.3676,41.6779,719.7733],[-0.3662,41.6799,729.7263],[-0.3736,41.684,752.09],[-0.3745,41.6881,781.942],[-0.3779,41.6896,768.9997],[-0.3848,41.6876,732.9048],[-0.3988,41.6956,725.1127],[-0.4031,41.6962,750.4504],[-0.4104,41.7014,706.4851],[-0.4202,41.7018,660.1006],[-0.4214,41.7036,682.0092],[-0.4285,41.7055,691.2949],[-0.4399,41.7066,691.3732],[-0.4449,41.7037,682.6793],[-0.4483,41.7089,728.6124],[-0.4556,41.7127,680.8443],[-0.4606,41.7134,668.2065],[-0.4596,41.7151,712.0553],[-0.4643,41.7152,708.5804],[-0.4668,41.7217,800.3195],[-0.4748,41.7228,748.4487],[-0.4783,41.7249,719.5236],[-0.4822,41.7243,705.0634],[-0.4859,41.7297,745.7852],[-0.4894,41.7317,727.6218],[-0.5,41.7311,672.1929],[-0.5068,41.7289,662.3378],[-0.5193,41.7294,666.4457],[-0.5196,41.7315,646.2468],[-0.5112,41.7416,683.842],[-0.5039,41.7462,715.3327],[-0.5053,41.7523,666.3877],[-0.5007,41.7613,650.1186],[-0.505,41.7646,667.7833],[-0.5057,41.7726,667.6599],[-0.5077,41.7749,659.9766],[-0.5069,41.7793,636.2451],[-0.512,41.7844,657.0071],[-0.5088,41.7915,659.7782],[-0.5124,41.7983,677.5592],[-0.5111,41.8085,685.6737],[-0.5162,41.8127,655.7505],[-0.5181,41.8252,624.621],[-0.5158,41.8286,677.6556],[-0.5167,41.8368,658.5737],[-0.5228,41.8425,635.1362],[-0.5246,41.8484,614.5499],[-0.529,41.8535,636.9722],[-0.532,41.8534,611.8174],[-0.5392,41.858,618.053],[-0.5427,41.858,630.0831],[-0.5457,41.8621,620.9604],[-0.5539,41.8678,599.9509],[-0.5552,41.8713,588.9557],[-0.5616,41.8721,578.9692],[-0.5704,41.8755,575.7559],[-0.5854,41.876,566.4489],[-0.5925,41.8822,556.1149],[-0.6033,41.8828,551.7039],[-0.5986,41.8892,519.0289],[-0.5951,41.8989,449.6279],[-0.5987,41.9019,440.5702],[-0.6159,41.9057,443.2162],[-0.6301,41.9125,446.554],[-0.6323,41.9195,483.1608],[-0.6512,41.9437,414.4115],[-0.6578,41.9575,433.2229],[-0.6886,41.9587,398.016],[-0.6968,41.9566,389.9688],[-0.7244,41.9608,326.1232],[-0.7287,41.9602,323.9152],[-0.737,41.9533,331.0058],[-0.7782,41.9574,312.3353],[-0.7963,41.9626,357.4519],[-0.813,41.9716,391.0984],[-0.8137,41.9739,390.6397],[-0.8198,41.9748,394.8037],[-0.8329,41.9811,414.9503],[-0.8437,41.984,477.4817],[-0.8535,41.9906,536.9751],[-0.8567,41.991,559.9454],[-0.8632,41.9982,627.3804],[-0.867,41.9999,635.4611],[-0.8726,41.9995,660.5834],[-0.8849,42.0036,656.6005],[-0.8903,42.0026,750.587],[-0.8951,42.0067,717.7887],[-0.9051,42.0104,696.2616],[-0.9236,42.0112,763.7133],[-0.9383,42.0149,749.494],[-0.9437,42.0131,759.2149],[-0.9448,42.0091,751.2148],[-0.9418,42.0002,715.8362],[-0.9413,41.9822,676.7364],[-0.9381,41.9757,683.5953],[-0.9404,41.9574,675.0898],[-0.9348,41.9464,666.3314],[-0.9335,41.9387,672.5557],[-0.9429,41.9331,710.2052],[-0.9518,41.9339,722.6362],[-0.9553,41.9311,728.6509],[-0.9597,41.931399999999996,711.6627],[-0.9678,41.927,700.6135],[-0.9739,41.929,717.357],[-0.9791,41.9281,714.1716],[-0.9958,41.9231,710.8925],[-1.005,41.9185,707.9294],[-1.0094,41.9192,729.6469],[-1.0208,41.9129,720.9709],[-1.0244,41.9044,694.9362],[-1.0282,41.9022,695.0906],[-1.0391,41.9012,694.6289],[-1.046,41.8987,700.1353],[-1.0545,41.8992,702.4174],[-1.0633,41.8963,696.3635],[-1.0788,41.886,676.6314],[-1.0906,41.8875,682.3454],[-1.1005,41.8852,658.6145],[-1.1145,41.8905,503.3011],[-1.1833,41.8841,329.1454],[-1.194,41.8847,320.8224],[-1.2068,41.8809,278.0813],[-1.21,41.8788,275.2704],[-1.2126,41.8721,247.5406],[-1.2041,41.8651,231.5521],[-1.1969,41.8629,252.8555],[-1.2058,41.8522,221.9603],[-1.2117,41.8514,221.8038],[-1.2102,41.8454,220.5732],[-1.2074,41.8449,220.4259],[-1.2234,41.8343,224.4071],[-1.2276,41.8379,220.6327],[-1.2287,41.8451,221.1714],[-1.2204,41.8533,220.9577],[-1.2196,41.8595,223.4373],[-1.2251,41.8601,222.6539],[-1.2298,41.8553,224.9973],[-1.2304,41.8586,227.4389],[-1.2284,41.8612,222.9915],[-1.2333,41.8633,221.1164],[-1.2473,41.8552,224.2617],[-1.2582,41.8541,221.5389],[-1.2631,41.8574,221.9066],[-1.2751,41.8503,225.4323],[-1.2877,41.8532,229.5088],[-1.2868,41.85,234.7121],[-1.2981,41.8455,241.8912],[-1.3009,41.846,243.4505],[-1.3045,41.84,248.6763],[-1.3042,41.8366,250.2889],[-1.318,41.8276,260.3987],[-1.3222,41.8178,281.5],[-1.325,41.8167,281.5],[-1.3173,41.8043,281.5],[-1.3212,41.8027,281.5],[-1.3396,41.7761,330.0356],[-1.3464,41.774,336.5222],[-1.3478,41.7672,333.9456],[-1.3424,41.7665,341.8153],[-1.3388,41.7495,343.5544],[-1.3349,41.7407,346.0873],[-1.3351,41.7355,347.0217],[-1.3286,41.737,348.2394],[-1.3237,41.7284,366.037],[-1.3199,41.7249,376.3219],[-1.3112,41.7211,388.1839],[-1.3105,41.7177,385.9139],[-1.2983,41.7084,366.394],[-1.2945,41.7071,359.3054],[-1.2687,41.7212,334.5957],[-1.2587,41.7211,335.504],[-1.247,41.7154,343.7063],[-1.2127,41.708,263.3628],[-1.2326,41.692,278.6622],[-1.2298,41.6904,272.6891],[-1.2271,41.692,267.0313],[-1.2242,41.69,268.7134],[-1.2249,41.6868,270.774],[-1.2203,41.6788,274.014],[-1.2235,41.6759,276.5983],[-1.2138,41.6655,360.1099],[-1.2091,41.6641,352.5728],[-1.1935,41.6488,393.6306],[-1.1807,41.6425,395.0923],[-1.2094,41.6213,405.5404],[-1.1972,41.6004,452.9713],[-1.1859,41.5915,454.7288],[-1.1749,41.5778,471.5002],[-1.1747,41.5665,481.6918],[-1.1638,41.5487,471.9068],[-1.1622,41.5335,466.2889],[-1.1568,41.5417,479.9614],[-1.1522,41.5436,492.9594],[-1.1447,41.5418,512.8895],[-1.1406,41.5383,539.9275],[-1.1389,41.5339,541.0652],[-1.1261,41.531,618.2607],[-1.1277,41.529,604.9111],[-1.1276,41.5242,611.4464],[-1.1298,41.5236,584.2972],[-1.1281,41.5167,615.2394],[-1.1243,41.5134,614.8661],[-1.1205,41.5059,607.2836],[-1.1146,41.5042,555.5471],[-1.0934,41.4868,431.7654],[-1.0781,41.4805,398.7377],[-1.0694,41.4795,404.5387],[-1.0644,41.474,434.4683],[-1.0506,41.4645,565.5225],[-1.0492,41.4602,612.8602],[-1.0462,41.4607,582.1913],[-1.0395,41.4568,641.2065],[-1.04,41.4588,638.8932],[-1.0382,41.4584,638.3482],[-1.0334,41.452,646.4544],[-1.0299,41.4506,647.5151],[-1.0258,41.4377,640.8858],[-1.0241,41.4206,704.2987],[-1.0182,41.4166,689.9127],[-1.0122,41.4154,674.8856],[-1.0048,41.4092,701.1153],[-0.9941,41.4046,721.2072],[-0.994,41.4029,729.0787],[-0.9829,41.402,742.1569],[-0.9594,41.3905,730.5383],[-0.9566,41.3811,739.7939],[-0.9645,41.3624,705.845],[-0.9732,41.3528,717.1051],[-0.9776,41.3525,737.7916],[-0.9882,41.3452,726.0237],[-0.9801,41.3353,725.7333],[-0.9788,41.3322,701.6733],[-0.981,41.3281,724.3093],[-0.9762,41.3222,727.929],[-0.949,41.3159,746.5344],[-0.9456,41.3059,732.5441],[-0.9499,41.3054,716.3705],[-0.9553,41.2836,670.2276],[-0.9625,41.279,689.1858],[-0.9934,41.2655,760.0154],[-0.9976,41.265,765.5764],[-0.9704,41.2055,776.0564],[-0.9544,41.1888,733.5309],[-0.9656,41.1713,809.7582],[-0.973,41.1559,834.6924],[-0.9724,41.1535,819.3928],[-0.9842,41.1391,866.4374],[-0.9956,41.1192,901.2508],[-1.0005,41.1147,915.9951],[-0.9985,41.0952,919.4708],[-0.9895,41.0912,861.1151],[-0.9818,41.0922,867.8491],[-0.9627,41.0821,854.3447],[-0.9606,41.0781,833.2252],[-0.9572,41.0764,867.4966],[-0.9449,41.0753,926.4277],[-0.9377,41.0834,932.6771],[-0.9125,41.093,810.8337],[-0.9153,41.1052,801.1462],[-0.9016,41.1119,864.1643],[-0.9004,41.1192,827.92],[-0.8933,41.1225,850.7297],[-0.8905,41.1256,849.4368],[-0.8936,41.1325,788.0394],[-0.8914,41.1452,718.4277],[-0.8895,41.1473,690.6528],[-0.8832,41.1488,675.5359],[-0.886,41.1409,728.8899],[-0.8834,41.1354,776.9856],[-0.8836,41.1301,808.4538],[-0.8755,41.1212,776.2978]]]]}}