{"type": "Feature","bbox": [-5.1637,40.7319,-4.5524,41.1642],"geometry": {"type": "MultiPolygon","coordinates": [[[[-4.8581,41.0985,787.2186],[-4.8636,41.094,788.9821],[-4.872,41.0979,781.7178],[-4.8726,41.0992,779.8512],[-4.8701,41.1003,780.5623],[-4.8745,41.1035,777.547],[-4.8788,41.1053,777.8331],[-4.8808,41.1045,777.9019],[-4.894,41.1131,773.1783],[-4.9018,41.1145,775.2271],[-4.9049,41.1187,772.0819],[-4.9089,41.1188,776.2946],[-4.9237,41.1241,779.1136],[-4.9309,41.1293,771.8414],[-4.9392,41.1319,776.0001],[-4.9507,41.1407,772.1069],[-4.9579,41.139,774.6801],[-4.9629,41.1401,773.7003],[-4.9646,41.1497,769.3858],[-4.9675,41.1523,765.5004],[-4.9772,41.1512,768.7018],[-4.9844,41.1522,769.1544],[-4.9825,41.1549,768.1903],[-4.9876,41.156,766.5851],[-4.9896,41.1608,767.3471],[-5.0043,41.1589,775.8982],[-5.0074,41.1619,768.2518],[-5.0108,41.162,766.3427],[-5.0138,41.1642,775.8782],[-5.0138,41.1622,768.627],[-5.0238,41.1568,774.3616],[-5.0217,41.1535,774.119],[-5.0598,41.1386,778.905],[-5.0759,41.1394,782.4749],[-5.1,41.1471,776.973],[-5.1022,41.1427,782.0757],[-5.1113,41.135,777.1417],[-5.1129,41.1364,777.0608],[-5.1239,41.1356,780.3115],[-5.1291,41.1054,791.2346],[-5.1394,41.0998,791.2825],[-5.1403,41.0968,790.9324],[-5.1433,41.0971,794.5248],[-5.1485,41.0921,800.0293],[-5.1513,41.0853,797.1526],[-5.15,41.0838,797.1526],[-5.1522,41.0819,801.0608],[-5.1502,41.0793,806.7111],[-5.1529,41.0637,809.2256],[-5.1491,41.0593,807.4952],[-5.1492,41.0553,808.5257],[-5.1469,41.0542,809.4667],[-5.1482,41.048,811.7077],[-5.1452,41.0467,813.2239],[-5.1464,41.0436,818.0782],[-5.1413,41.0405,816.7239],[-5.1407,41.0372,817.5751],[-5.1378,41.0394,817.5991],[-5.1312,41.0362,816.9379],[-5.1065,41.0295,825.1025],[-5.1078,41.0269,828.0878],[-5.1036,41.0265,828.3096],[-5.1052,41.0232,830.7641],[-5.1019,41.0218,832.3501],[-5.1026,41.0168,834.7527],[-5.1,41.0169,835.9609],[-5.1009,41.0143,836.8925],[-5.0919,41.0069,842.8492],[-5.0919,40.9985,844.0546],[-5.0897,40.9966,843.8904],[-5.0995,40.9896,854.9334],[-5.0963,40.9847,857.0994],[-5.0964,40.9785,863.7544],[-5.1063,40.9634,880.2158],[-5.1047,40.9603,870.5214],[-5.1086,40.9604,876.5842],[-5.1086,40.9584,879.8712],[-5.1166,40.9543,880.7021],[-5.1211,40.9562,881.9445],[-5.1275,40.9541,898.5368],[-5.1281,40.9486,909.1388],[-5.1232,40.9485,901.1366],[-5.123,40.9454,898.2087],[-5.1248,40.9436,901.2522],[-5.1181,40.933,897.077],[-5.1215,40.9315,902.7651],[-5.1208,40.9302,903.5854],[-5.116,40.9308,899.1267],[-5.1147,40.9293,898.6492],[-5.1173,40.9276,899.3621],[-5.1146,40.9264,903.4447],[-5.1169,40.9242,908.6245],[-5.112,40.9187,903.8168],[-5.1132,40.9176,904.6586],[-5.1111,40.9149,916.1962],[-5.1145,40.9136,918.9504],[-5.1125,40.9123,918.9504],[-5.1169,40.9046,936.5806],[-5.1154,40.9023,938.5936],[-5.1214,40.901,929.3469],[-5.1231,40.9024,927.3085],[-5.127,40.9002,913.5955],[-5.1299,40.9003,914.5829],[-5.1349,40.8965,926.0348],[-5.1339,40.8953,923.9589],[-5.1387,40.8937,928.0829],[-5.1395,40.892,927.9711],[-5.1368,40.8911,922.0548],[-5.1493,40.8816,942.9479],[-5.1489,40.8773,947.1991],[-5.1519,40.8762,949.4642],[-5.1524,40.874,952.7267],[-5.1571,40.8701,958.9899],[-5.1637,40.8684,946.3763],[-5.1633,40.8655,948.8744],[-5.1619,40.8663,948.8744],[-5.1562,40.8625,935.7622],[-5.154,40.8629,938.6085],[-5.1537,40.8612,936.9978],[-5.1512,40.8613,959.9713],[-5.1465,40.8572,973.4515],[-5.1465,40.8548,967.3412],[-5.1398,40.8532,975.1644],[-5.1351,40.8494,966.2906],[-5.1269,40.8507,950.0189],[-5.1209,40.8476,941.642],[-5.1214,40.8457,946.8655],[-5.114,40.848,970.7958],[-5.1122,40.842,946.5609],[-5.1011,40.8438,977.4286],[-5.0988,40.8406,972.6696],[-5.0973,40.8289,995.9401],[-5.0944,40.8251,978.9712],[-5.084,40.8198,997.8209],[-5.0805,40.8202,993.7716],[-5.0797,40.8221,984.7244],[-5.0706,40.8271,956.5764],[-5.051,40.8315,997.0793],[-5.0464,40.8272,1000.3095],[-5.0372,40.828,996.193],[-5.0329,40.823,1009.0323],[-5.0306,40.829,993.6267],[-5.0261,40.829,1006.6085],[-5.0186,40.8369,974.542],[-5.0186,40.8387,972.0209],[-4.9982,40.8467,944.7249],[-4.9945,40.8461,929.908],[-4.9856,40.8335,982.6049],[-4.9808,40.8325,980.2278],[-4.9754,40.8229,1002.2346],[-4.9716,40.8241,998.9048],[-4.9578,40.8192,997.1289],[-4.9518,40.8216,987.0333],[-4.9457,40.8292,964.9866],[-4.9356,40.8344,934.1283],[-4.9181,40.8379,908.8782],[-4.919,40.8353,918.8934],[-4.9149,40.8347,914.9164],[-4.9149,40.831,924.3556],[-4.911,40.8272,922.1422],[-4.905,40.828,921.5079],[-4.9023,40.8155,916.6444],[-4.8994,40.8149,918.5692],[-4.8983,40.8094,920.8151],[-4.8997,40.8084,917.6554],[-4.903,40.8111,917.0787],[-4.9068,40.81,918.888],[-4.8994,40.8059,917.8664],[-4.9021,40.8031,924.0163],[-4.8994,40.7992,944.4711],[-4.9021,40.7979,943.8228],[-4.9031,40.8008,928.0566],[-4.907,40.7992,931.5372],[-4.9083,40.7964,945.2662],[-4.9135,40.7979,936.7943],[-4.9118,40.7966,948.1943],[-4.9128,40.7954,953.377],[-4.9151,40.7962,938.2633],[-4.9144,40.7933,950.1642],[-4.9167,40.794,942.1446],[-4.9201,40.7907,949.2072],[-4.9208,40.7887,966.0104],[-4.9195,40.7882,966.0104],[-4.9227,40.7857,958.4546],[-4.9209,40.7843,968.8663],[-4.9246,40.7821,969.6849],[-4.9238,40.7802,963.2503],[-4.9082,40.7831,945.8663],[-4.9107,40.7809,948.66],[-4.9092,40.779,952.4321],[-4.912,40.7739,959.0306],[-4.91,40.7739,956.5382],[-4.9094,40.7697,973.1163],[-4.9067,40.7692,971.9332],[-4.9063,40.7641,989.7284],[-4.9012,40.763,995.2169],[-4.8998,40.7655,982.0226],[-4.8997,40.7634,999.3974],[-4.8974,40.7624,999.0008],[-4.8967,40.7638,991.4984],[-4.8958,40.7623,996.0258],[-4.8938,40.765,986.3544],[-4.8909,40.7643,986.5355],[-4.8855,40.7682,967.8914],[-4.8837,40.7654,976.2017],[-4.8838,40.7665,970.9955],[-4.8813,40.7662,970.6711],[-4.8817,40.7681,965.0454],[-4.8765,40.7684,965.7119],[-4.8762,40.7699,960.7691],[-4.8714,40.7694,978.319],[-4.8735,40.7721,972.3593],[-4.8714,40.7754,972.1466],[-4.8673,40.7746,958.9394],[-4.8666,40.7765,959.1927],[-4.8609,40.777,979.4907],[-4.8553,40.774,1006.3092],[-4.853,40.7677,1044.7129],[-4.8563,40.7657,1043.3768],[-4.855,40.7635,1053.2422],[-4.8498,40.7625,1048.4456],[-4.8464,40.7659,1037.5511],[-4.8435,40.7665,1038.5859],[-4.8431,40.7646,1043.9899],[-4.8389,40.7639,1030.0364],[-4.8367,40.7661,1016.6741],[-4.8274,40.7649,1060.059],[-4.8268,40.7664,1056.9614],[-4.8226,40.7667,1064.0018],[-4.817,40.772,1065.7546],[-4.8151,40.7671,1063.6475],[-4.8166,40.7659,1074.8895],[-4.8136,40.7652,1060.202],[-4.8151,40.7611,1058.0037],[-4.8138,40.7601,1054.3237],[-4.8153,40.7595,1060.1008],[-4.8061,40.7532,1061.689],[-4.8067,40.7512,1068.1838],[-4.7949,40.7535,1026.187],[-4.7924,40.7483,1066.5729],[-4.7923,40.7504,1059.2722],[-4.7818,40.7477,1034.8066],[-4.7785,40.7448,1078.993],[-4.7715,40.7461,1134.4465],[-4.7723,40.7536,1136.5718],[-4.7602,40.7614,1136.8967],[-4.7534,40.7627,1138.1323],[-4.7452,40.7589,1114.3425],[-4.7436,40.7593,1114.355],[-4.7438,40.7618,1118.751],[-4.7317,40.7625,1100.0306],[-4.7282,40.7679,1093.8772],[-4.7228,40.7691,1062.1201],[-4.7222,40.7715,1010.6958],[-4.7174,40.7702,988.349],[-4.7151,40.7725,956.0845],[-4.7088,40.7692,938.9474],[-4.7108,40.7609,1011.2476],[-4.7033,40.7617,967.1565],[-4.6913,40.7557,937.4968],[-4.6887,40.7512,928.8114],[-4.6954,40.7488,943.2292],[-4.6902,40.7464,941.8489],[-4.6925,40.7449,962.2513],[-4.6883,40.7384,974.989],[-4.6895,40.7343,991.4294],[-4.6759,40.7319,1069.1628],[-4.6716,40.7329,1089.0209],[-4.6715,40.7319,1091.8021],[-4.6647,40.733,1118.7861],[-4.6624,40.7352,1129.4397],[-4.6528,40.7351,1150.0782],[-4.6428,40.7451,1122.519],[-4.6403,40.7498,1107.4429],[-4.6423,40.7508,1086.6372],[-4.6376,40.7563,1056.7039],[-4.6386,40.7608,1027.1403],[-4.636,40.7624,1018.0347],[-4.6333,40.7619,1028.771],[-4.6445,40.7727,982.0724],[-4.6548,40.7734,971.285],[-4.6577,40.7713,969.4954],[-4.6602,40.7719,961.9314],[-4.6608,40.778,945.9724],[-4.6632999999999996,40.7789,944.2648],[-4.6641,40.7846,923.4899],[-4.6627,40.7849,925.0909],[-4.665,40.7898,906.369],[-4.6624,40.7898,907.5311],[-4.6622,40.793,906.1333],[-4.6611,40.7902,910.1757],[-4.6581,40.7912,924.7249],[-4.6574,40.7901,933.8268],[-4.6596,40.7898,925.2083],[-4.6567,40.7885,923.7731],[-4.6553,40.7906,933.3448],[-4.6596,40.7935,919.7273],[-4.6515,40.7919,940.6868],[-4.6532,40.7933,935.1731],[-4.6513,40.7987,923.7435],[-4.6508,40.7957,930.7485],[-4.6472,40.7963,930.6022],[-4.649,40.7992,922.2182],[-4.6463,40.7982,927.014],[-4.6444,40.8037,924.6512],[-4.6398,40.8049,931.52],[-4.6449,40.8076,914.6318],[-4.6429,40.8078,921.0617],[-4.6452,40.8104,912.6399],[-4.6542,40.8126,937.0017],[-4.6557,40.8189,963.7964],[-4.6569,40.8189,963.7964],[-4.6537,40.8209,959.1104],[-4.6473,40.8215,938.8312],[-4.646,40.8232,955.8339],[-4.6401,40.8177,916.981],[-4.6336,40.8209,923.9624],[-4.6335,40.8226,926.2019],[-4.6232,40.8232,945.1645],[-4.6198,40.8207,949.3666],[-4.6028,40.8256,980.6996],[-4.5947,40.8251,989.309],[-4.5899,40.8322,973.3526],[-4.5853,40.8299,978.7841],[-4.5786,40.841,959.4631],[-4.5748,40.8427,945.8932],[-4.5704,40.8424,931.8372],[-4.5733,40.8506,925.7251],[-4.5714,40.8571,927.4586],[-4.5664,40.8579,922.2744],[-4.5663,40.8619,919.4814],[-4.5629,40.8666,919.2092],[-4.566,40.871,919.3168],[-4.5592,40.8815,914.4337],[-4.5595,40.8859,909.2834],[-4.5551,40.895,907.2419],[-4.5564,40.9029,903.5775],[-4.5524,40.9075,902.5258],[-4.5592,40.9132,923.791],[-4.5583,40.9401,919.0531],[-4.5618,40.9405,920.8268],[-4.5667,40.9454,925.5929],[-4.5678,40.9508,925.1841],[-4.565,40.9524,918.8582],[-4.5663,40.9562,903.3987],[-4.5719,40.9558,930.3175],[-4.5749,40.9603,929.7595],[-4.5959,40.9658,935.8953],[-4.6066,40.9708,911.8119],[-4.6181,40.9974,896.2651],[-4.6171,41.0037,889.0022],[-4.6235,41.0069,891.28],[-4.6227,41.0094,890.1028],[-4.6394,41.0301,869.5048],[-4.6382,41.0313,870.0837],[-4.6459,41.0315,865.4307],[-4.6527,41.0342,863.4905],[-4.6595,41.0415,861.2263],[-4.6656,41.0453,852.3334],[-4.6812,41.0512,837.2618],[-4.7002,41.0519,827.3911],[-4.7053,41.0542,808.7419],[-4.7131,41.0629,815.9465],[-4.7164,41.0716,810.0522],[-4.7134,41.083,817.7408],[-4.709,41.0854,824.1794],[-4.7071,41.0888,827.1279],[-4.7178,41.09,791.0607],[-4.7132,41.0917,812.6265],[-4.7099,41.0993,808.7211],[-4.716,41.1042,810.488],[-4.715,41.1106,812.4856],[-4.7213,41.1165,811.6915],[-4.7246,41.1234,805.859],[-4.7237,41.1286,806.3135],[-4.7166,41.1326,802.3242],[-4.7199,41.1349,804.3112],[-4.722,41.1493,798.9316],[-4.7289,41.1508,797.6669],[-4.7373,41.1504,796.051],[-4.7391,41.149,798.7938],[-4.7488,41.1497,791.2758],[-4.767,41.1424,790.8469],[-4.7787,41.145,799.2669],[-4.7861,41.1436,802.5433],[-4.7889,41.1399,809.5046],[-4.796,41.1358,809.4992],[-4.8057,41.1352,795.1616],[-4.8134,41.1294,794.4535],[-4.8122,41.1264,799.7748],[-4.8169,41.1168,845.8332],[-4.8188,41.1079,842.0176],[-4.8149,41.1034,859.5851],[-4.8279,41.0992,805.5306],[-4.8555,41.1007,785.5479],[-4.8581,41.0985,787.2186]]]]}
,"properties": {"GID_3": "ESP.5.1.1_1","GID_0": "ESP","country": "Spain","GID_1": "ESP.5_1","province": "CastillayLeón","NL_NAME_1": "NA","GID_2": "ESP.5.1_1","county": "Ávila","NL_NAME_2": "NA","city": "n.a.(23)","VARNAME_3": "NA","NL_NAME_3": "NA","TYPE_3": "Comarca","ENGTYPE_3": "Comarca","CC_3": "NA","HASC_3": "NA","name": "n.a.(23).city","area_km2": 1601.277,"hist_schema_id": "Elevation0-9000","hist_area_km2": {"775": 72.018,"800": 187.25,"825": 161.645,"850": 209.231,"875": 328.584,"900": 249.453,"925": 169.908,"950": 105.718,"975": 57.038,"1000": 25.779,"1025": 16.186,"1050": 10.422,"1075": 3.903,"1100": 2.265,"1125": 1.574,"1150": 0.305}}}