{"type":"Feature","properties":{"GID_3":"ESP.11.1.3_1","GID_0":"ESP","country":"Spain","GID_1":"ESP.11_1","province":"Extremadura","NL_NAME_1":"NA","GID_2":"ESP.11.1_1","county":"Badajoz","NL_NAME_2":"NA","city":"n.a.(41)","VARNAME_3":"NA","NL_NAME_3":"NA","TYPE_3":"Comarca","ENGTYPE_3":"Comarca","CC_3":"NA","HASC_3":"NA","name":"n.a.(41).city"},
"geometry":{"type": "MultiPolygon","coordinates": [[[[-5.684,38.5163,674.1389],[-5.6524,38.5312,639.4039],[-5.64,38.5409,691.3062],[-5.5835,38.5361,735.5278],[-5.5572,38.5295,703.6653],[-5.5121,38.5106,583.8992],[-5.5074,38.5038,594.0567],[-5.4965,38.4979,570.0386],[-5.4866,38.4973,607.9567],[-5.4649,38.4888,487.26369999999997],[-5.4583,38.4948,475.6871],[-5.4584,38.4992,484.3898],[-5.4504,38.4982,473.9624],[-5.4487,38.5021,477.6819],[-5.4447,38.5049,483.3886],[-5.4345,38.5044,468.2686],[-5.4277,38.5147,473.0947],[-5.4188,38.5125,459.3962],[-5.4158,38.5207,470.8598],[-5.4103,38.52,476.7465],[-5.4102,38.5241,462.6539],[-5.4134,38.5241,455.3793],[-5.4159,38.5302,452.1443],[-5.4035,38.5361,457.0965],[-5.4071,38.5433,452.325],[-5.3996,38.5466,447.7933],[-5.3966,38.5463,447.437],[-5.3904,38.5401,446.4247],[-5.3846,38.5392,442.696],[-5.3829,38.5411,442.4459],[-5.3835,38.5437,447.8752],[-5.3914,38.5489,440.9866],[-5.3927,38.5528,439.6856],[-5.3918,38.5547,439.3375],[-5.3857,38.5548,438.306],[-5.3833,38.5574,449.5506],[-5.3897,38.5622,437.2988],[-5.3859,38.5668,436.2177],[-5.3756,38.5683,434.8702],[-5.3696,38.5794,464.8727],[-5.3716,38.5836,466.9916],[-5.3565,38.5855,475.1013],[-5.347,38.5834,475.7541],[-5.3356,38.5785,460.0439],[-5.3288,38.5783,415.9703],[-5.3237,38.5806,417.0469],[-5.3095,38.5773,417.5773],[-5.3058,38.5808,410.0798],[-5.3066,38.586,408.9302],[-5.3106,38.59,408.5002],[-5.3097,38.5941,406.1364],[-5.3018,38.5982,405.0034],[-5.2932,38.6091,401.3687],[-5.287,38.613,400.7297],[-5.2792,38.6123,400.6252],[-5.2732,38.6157,431.0192],[-5.2705,38.6211,396.2499],[-5.2541,38.6261,426.9659],[-5.2539,38.6332,394.3503],[-5.2449,38.6321,397.3502],[-5.2473,38.6399,389.602],[-5.2419,38.6371,392.8322],[-5.2374,38.6377,406.3204],[-5.2355,38.6431,388.7856],[-5.2313,38.6443,384.6535],[-5.2293,38.6471,387.9036],[-5.2223,38.6489,384.1746],[-5.2238,38.6565,383.2587],[-5.2194,38.656,402.0636],[-5.2171,38.6492,388.8134],[-5.2146,38.6486,446.2946],[-5.2115,38.6518,378.8262],[-5.2122,38.656,378.2093],[-5.2079,38.6679,379.616],[-5.204,38.6661,375.7561],[-5.2014,38.6578,374.0546],[-5.1993,38.6564,406.3552],[-5.1976,38.6568,410.8022],[-5.1968,38.6605,391.3483],[-5.1984,38.6645,376.0929],[-5.1975,38.667,373.5935],[-5.1947,38.6668,392.6458],[-5.1902,38.6605,372.2976],[-5.1849,38.6594,371.454],[-5.179,38.6657,373.0128],[-5.1873,38.6704,383.0972],[-5.1856,38.6742,371.8891],[-5.1827,38.6761,369.0903],[-5.1679,38.6773,368.1991],[-5.1676,38.6817,392.5887],[-5.1733,38.6885,453.5395],[-5.1754,38.7005,546.9075],[-5.1812,38.7067,585.0861],[-5.1802,38.7123,496.6278],[-5.1844,38.7197,499.2231],[-5.1708,38.7173,489.6967],[-5.1693,38.7131,449.0725],[-5.1665,38.7117,441.9294],[-5.1639,38.714,456.4581],[-5.1553,38.7159,437.6328],[-5.1498,38.7164,424.0293],[-5.1424,38.7138,447.2984],[-5.1183,38.716,377.7238],[-5.1119,38.7119,376.8164],[-5.1007,38.7077,357.1817],[-5.0924,38.709,349.0993],[-5.09,38.7115,351.1911],[-5.0802,38.7154,346.0],[-5.0682,38.7176,347.4657],[-5.0631,38.7212,346.0],[-5.0615,38.7243,346.0],[-5.0498,38.7266,388.0888],[-5.0387,38.7333,400.8137],[-5.0165,38.7355,346.0],[-5.0096,38.7352,346.0],[-5.0039,38.733,352.7668],[-4.9899,38.7398,436.9146],[-4.9832,38.7515,452.0837],[-4.9727,38.7609,513.2044],[-4.9681,38.776,765.485],[-4.9607,38.7898,491.7539],[-4.9608,38.7966,523.025],[-4.9576,38.8036,526.1344],[-4.9586,38.8104,531.2726],[-4.9535,38.83,630.509],[-4.9619,38.8339,532.9927],[-4.9792,38.8373,349.313],[-5.018,38.8425,447.6323],[-5.0221,38.8463,389.5959],[-5.0257,38.8442,368.9338],[-5.0291,38.8458,359.4537],[-5.0315,38.8445,353.9623],[-5.0878,38.8639,387.1197],[-5.1179,38.8573,346.0],[-5.1209,38.8657,346.0],[-5.1246,38.8677,346.0],[-5.144,38.8658,346.0],[-5.1531,38.8688,346.0],[-5.1562,38.871,346.0],[-5.1594,38.8827,346.0],[-5.1673,38.8875,346.0],[-5.1724,38.8894,346.0],[-5.1845,38.889,346.0],[-5.1908,38.891,346.0],[-5.1951,38.8949,346.0],[-5.1988,38.9036,346.0],[-5.2037,38.9047,346.0],[-5.2082,38.908,346.0],[-5.2091,38.914,346.0],[-5.2201,38.9296,346.0],[-5.2301,38.9308,346.0],[-5.2395,38.9293,346.0],[-5.243,38.9266,346.0],[-5.2476,38.9262,346.0],[-5.2513,38.9281,346.0],[-5.2569,38.9272,346.0],[-5.2599,38.9224,346.0],[-5.2637,38.92,346.0],[-5.2676,38.9201,346.0],[-5.2722,38.935,346.0],[-5.2755,38.9359,346.0],[-5.2826,38.9303,346.0],[-5.2827,38.9255,346.0],[-5.2852,38.9228,346.0],[-5.2878,38.9225,346.0],[-5.2992,38.9252,346.0],[-5.3168,38.9347,346.0],[-5.3234,38.9347,346.0],[-5.3347,38.9274,346.0],[-5.3377,38.9125,346.0],[-5.3492,38.9042,346.0],[-5.3658,38.9014,346.0],[-5.3831,38.907,346.0],[-5.3982,38.8989,346.0],[-5.4062,38.9019,346.0],[-5.4084,38.9098,346.0],[-5.419,38.9187,312.0],[-5.4622,38.9354,312.0],[-5.4682,38.9291,312.0],[-5.4712,38.9216,312.0],[-5.4819,38.9147,277.6387],[-5.4952,38.8905,385.0124],[-5.5024,38.8827,382.2288],[-5.5129,38.8571,361.4586],[-5.5178,38.855,382.5221],[-5.5209,38.8474,390.386],[-5.5345,38.8386,362.3539],[-5.5466,38.8271,299.4396],[-5.5641,38.8245,346.5859],[-5.5775,38.8153,394.1443],[-5.5914,38.8094,433.5466],[-5.5941,38.807,447.4866],[-5.5927,38.804,447.0486],[-5.6003,38.8013,440.6715],[-5.6219,38.8025,430.9757],[-5.6289,38.8011,429.7152],[-5.6311,38.7982,436.2326],[-5.6443,38.7994,422.4325],[-5.6568,38.8055,419.3873],[-5.6607,38.8154,433.4793],[-5.6683,38.8187,420.9792],[-5.6782,38.8267,403.2085],[-5.6916,38.8073,369.4282],[-5.6923,38.7843,370.0848],[-5.6992,38.784,376.4031],[-5.7078,38.7809,384.4875],[-5.7174,38.7816,392.3653],[-5.7336,38.7869,433.0671],[-5.7357,38.7895,472.1195],[-5.7337,38.8054,408.8865],[-5.7356,38.8125,398.9065],[-5.7337,38.8165,388.6805],[-5.7491,38.8198,396.8562],[-5.7565,38.8245,398.6401],[-5.7654,38.8258,372.3473],[-5.7608,38.8167,388.8565],[-5.7638,38.8107,400.3413],[-5.7715,38.8059,424.3487],[-5.7686,38.7977,473.6336],[-5.7696,38.7959,469.3512],[-5.7783,38.7921,545.183],[-5.7939,38.7953,609.4532],[-5.8007,38.7939,629.6758],[-5.8304,38.8016,582.1561],[-5.865,38.7646,345.0695],[-5.8691,38.7537,360.7314],[-5.8904,38.7272,403.6931],[-5.8974,38.7249,414.3716],[-5.9129,38.7234,428.091],[-5.9204,38.7149,684.7473],[-5.8872,38.6816,471.6581],[-5.8793,38.664,455.1796],[-5.8623,38.6424,491.6973],[-5.8581,38.6421,478.5746],[-5.8237,38.6182,469.5511],[-5.8095,38.6197,414.0475],[-5.8069,38.6226,404.9222],[-5.8031,38.6209,391.0399],[-5.8031,38.6184,395.97],[-5.7973,38.6107,411.8581],[-5.7996,38.606,400.6655],[-5.7974,38.6019,416.3247],[-5.7847,38.5925,478.8878],[-5.7717,38.5891,489.1585],[-5.749,38.5796,604.1518],[-5.746,38.5759,633.8467],[-5.6905,38.5371,690.3636],[-5.6817,38.5329,678.5474],[-5.6798,38.5224,632.618],[-5.684,38.5163,674.1389]]]]}}