{"type":"Feature","properties":{"id":138392.0,"fillOpacity":1,"fill":"#F0F","name":"Almendra Dam","title":"Almendra Dam","lge_id":null,"pfafstette":21151.0,"lke_type":"N","altitude":707,"objectid":86384,"scalerank":11,"featurecla":"Lake","note":"Almendra Dam","funkyname":0,"min_zoom":6.7,"min_label":7.7},
"geometry":{"type": "Polygon","coordinates": [[[-6.2385147777287671,41.239874578900327,717.0],[-6.2385147777287671,41.239874578900327,717.0],[-6.2172135081975171,41.230108953900327,717.0],[-6.1995743480412671,41.221075750775327,717.0],[-6.1740616527287671,41.218023992962827,770.0094],[-6.1965225902287671,41.238531805462827,732.9742],[-6.2193497386662671,41.249151922650327,736.7751],[-6.2281388011662671,41.255560614056577,760.9637],[-6.2387589183537671,41.263128973431577,742.5945],[-6.2473038402287671,41.269354559369077,749.9282],[-6.2567032542912671,41.288824774212827,742.1272],[-6.2752579417912671,41.285773016400327,727.8364],[-6.2950333324162671,41.290655828900327,717.0],[-6.3101700511662671,41.299444891400327,750.756],[-6.3235977855412671,41.295477606244077,729.5788],[-6.3217667308537671,41.279364324994077,717.0],[-6.3068741527287671,41.260260321087827,717.0],[-6.2956436839787671,41.241400457806577,717.0],[-6.2840470042912671,41.225287176556577,717.0],[-6.2807511058537671,41.237433172650327,734.8209],[-6.2764786449162671,41.250494696087827,717.0],[-6.2561539378850171,41.247809149212827,717.0],[-6.2385147777287671,41.239874578900327,717.0]]]}}