{"type": "Feature","id": 138833.0,"bbox": [-5.6078385081975171,40.570257879681577,-5.5655411449162671,40.651129461712827],"geometry": {"type": "Polygon","coordinates": [[[-5.5655411449162671,40.604315496869077,874.0],[-5.5655411449162671,40.604315496869077,874.0],[-5.5673721996037671,40.629523016400327,904.8976],[-5.5696915355412671,40.644781805462827,953.5651],[-5.5892838206975171,40.651129461712827,916.7137],[-5.5932511058537671,40.640753485150327,875.6299],[-5.5834854808537671,40.630133367962827,874.0],[-5.5864151683537671,40.620123602337827,880.1671],[-5.5897721019475171,40.607062078900327,928.1816],[-5.5965470042912671,40.596075750775327,915.0971],[-5.6078385081975171,40.581549383587827,877.9151],[-5.6038712230412671,40.570257879681577,874.0],[-5.5989884105412671,40.575140692181577,874.0],[-5.5853165355412671,40.584601141400327,874.0],[-5.5655411449162671,40.604315496869077,874.0]]]}
,"properties": {"name": null,"lge_id": null,"pfafstette": 2773.0,"lke_type": "N","altitude": 917,"objectid": 87921,"scalerank": 12,"featurecla": "Lake","note": "_untitled_87921","funkyname": 0,"min_zoom": 7.0,"min_label": 8.0,"area_km2": 14.1156,"hist_schema_id": "Elevation0-9000","hist_area_km2": {"875": 9.46443,"900": 2.83276,"925": 1.23921,"950": 0.56311,"975": 0.01609}}}