{"type": "Feature","bbox": [-0.8462,39.7147,-0.2922,40.0515],"geometry": {"type": "MultiPolygon","coordinates": [[[[-0.3586,39.8778,946.9656],[-0.3625,39.8805,893.2431],[-0.3676,39.88,893.9871],[-0.3716,39.8873,632.4591],[-0.3798,39.8942,953.7053],[-0.3828,39.8948,961.2667],[-0.3765,39.9015,1061.9038],[-0.3891,39.9116,788.2896],[-0.39,39.9183,815.5731],[-0.4065,39.9235,968.659],[-0.4133,39.9281,1079.577],[-0.4167,39.9359,952.5229],[-0.4113,39.9387,850.8145],[-0.4311,39.9516,773.4601],[-0.4398,39.9554,833.5485],[-0.4475,39.9618,684.1729],[-0.4487,39.9679,789.5256],[-0.4652,39.9796,892.1814],[-0.4685,39.9834,864.1902],[-0.4698,39.9887,867.8163],[-0.4804,39.9925,933.3896],[-0.4801,39.9955,943.913],[-0.4858,39.9989,878.1628],[-0.4885,40.0055,888.2065],[-0.4917,40.0069,906.877],[-0.4954,40.0046,890.973],[-0.5132,40.0056,997.7788],[-0.5367,40.0128,1030.4738],[-0.5477,40.0113,993.0684],[-0.5813,40.0138,711.4317],[-0.5812,40.0208,921.4517],[-0.5852,40.0244,1015.9573],[-0.5989,40.0263,1110.1029],[-0.6097,40.0379,1037.2799],[-0.6132,40.0374,1039.8159],[-0.6186,40.0454,941.7434],[-0.6205,40.0459,919.2706],[-0.6641,40.0515,977.4215],[-0.6829,40.0443,953.1875],[-0.7028,40.0466,926.7546],[-0.7188,40.0387,944.6573],[-0.731,40.0424,964.9864],[-0.7475,40.0379,1096.8296],[-0.7536,40.0466,1010.0121],[-0.7622,40.0413,1119.6864],[-0.7628,40.0303,1079.297],[-0.7653,40.0268,1077.8989],[-0.7672,40.0101,1139.6091],[-0.7745,40.0043,1192.0614],[-0.7778,39.9983,1177.3966],[-0.7896,39.9899,1188.5947],[-0.7987,39.9914,1183.4607],[-0.8034,39.9905,1211.3969],[-0.8169,39.9823,1384.0286],[-0.8242,39.9824,1423.2454],[-0.8347,39.9794,1436.2551],[-0.8379,39.9766,1501.8896],[-0.838,39.9723,1544.9492],[-0.8414,39.969,1558.3146],[-0.8384,39.9665,1545.9196],[-0.8357,39.96,1540.6045],[-0.8396,39.9554,1545.1846],[-0.8441,39.954,1560.9614],[-0.8462,39.9477,1586.5229],[-0.8396,39.9419,1553.5095],[-0.8363,39.9284,1500.2139],[-0.8404,39.925,1526.5862],[-0.8374,39.9234,1536.0697],[-0.8331,39.9172,1539.1383],[-0.8328,39.911,1495.5999],[-0.8299,39.9068,1527.4675],[-0.8045,39.8921,1558.4091],[-0.8015,39.8847,1527.7629],[-0.7975,39.8833,1439.783],[-0.7976,39.8811,1475.6851],[-0.7937,39.8815,1483.4658],[-0.7735,39.8698,1155.7557],[-0.754,39.8433,1124.5281],[-0.7491,39.8405,1113.1536],[-0.7451,39.8358,1079.3112],[-0.7451,39.832,1055.7815],[-0.741,39.8322,1042.2709],[-0.7366,39.8292,1012.4415],[-0.7378,39.8234,957.5264],[-0.7364,39.8201,937.5492],[-0.7306,39.8167,909.6478],[-0.7305,39.815,924.2731],[-0.7279,39.8162,886.9492],[-0.7228,39.8133,933.7643],[-0.7125,39.8169,1043.8156],[-0.707,39.8352,1088.0413],[-0.6951,39.8501,959.2233],[-0.691,39.8525,948.9359],[-0.668,39.8403,911.7452],[-0.6561,39.836,887.6028],[-0.6446,39.7916,673.6174],[-0.6477,39.788,717.1301],[-0.6523,39.7541,595.1793],[-0.631,39.7464,477.0498],[-0.5882,39.7417,434.4796],[-0.5771,39.768,793.6954],[-0.577,39.7732,787.161],[-0.5585,39.7906,728.1759],[-0.5483,39.7958,811.184],[-0.5305,39.796,724.6956],[-0.5208,39.7845,703.225],[-0.5137,39.7789,826.2666],[-0.5132,39.7755,762.834],[-0.5085,39.7708,749.9575],[-0.5058,39.7595,805.9311],[-0.4982,39.7476,837.4398],[-0.4899,39.7418,758.2273],[-0.4826,39.7342,792.1074],[-0.4751,39.7319,648.7911],[-0.4636,39.7206,729.2119],[-0.4609,39.7154,809.3195],[-0.4561,39.7147,754.0795],[-0.4483,39.7164,683.3882],[-0.445,39.7189,647.4457],[-0.4374,39.7335,373.9866],[-0.439,39.7369,403.0909],[-0.433,39.7364,358.1746],[-0.4191,39.746,319.0575],[-0.4095,39.7452,293.8329],[-0.3947,39.7602,253.7715],[-0.3889,39.7687,235.5464],[-0.3869,39.7692,230.2831],[-0.3858,39.7765,326.3311],[-0.3917,39.7799,284.6698],[-0.3884,39.7906,234.9851],[-0.3827,39.7942,291.6814],[-0.3779,39.7999,360.2216],[-0.3282,39.8015,255.3955],[-0.316,39.7999,333.8781],[-0.3104,39.814,468.7986],[-0.3134,39.8228,553.141],[-0.3162,39.8231,568.3757],[-0.3127,39.8308,526.3568],[-0.3024,39.8413,654.8903],[-0.3,39.8535,776.7901],[-0.2922,39.8579,842.968],[-0.2933,39.8638,761.1031],[-0.2945,39.8656,710.248],[-0.3044,39.8683,720.0826],[-0.3121,39.8682,658.7745],[-0.317,39.8655,640.7909],[-0.3222,39.8657,687.3327],[-0.3262,39.8708,819.3809],[-0.3254,39.8722,903.7966],[-0.3586,39.8778,946.9656]]]]}
,"properties": {"GID_3": "ESP.10.2.3_1","GID_0": "ESP","country": "Spain","GID_1": "ESP.10_1","province": "ComunidadValenciana","NL_NAME_1": "NA","GID_2": "ESP.10.2_1","county": "Castellón","NL_NAME_2": "NA","city": "AltPalancia","VARNAME_3": "NA","NL_NAME_3": "NA","TYPE_3": "Comarca","ENGTYPE_3": "Comarca","CC_3": "NA","HASC_3": "NA","name": "Alt_Palancia.city","area_km2": 963.3114,"hist_schema_id": "Elevation0-9000","hist_area_km2": {"200": 0.505,"225": 3.0298,"250": 8.4215,"275": 14.5942,"300": 19.2497,"325": 22.2429,"350": 20.3533,"375": 21.0362,"400": 23.1357,"425": 25.8696,"450": 27.1851,"475": 27.9487,"500": 27.8983,"525": 27.9917,"550": 25.1428,"575": 28.362,"600": 29.7768,"625": 30.9957,"650": 33.2722,"675": 36.4259,"700": 34.1005,"725": 30.9256,"750": 28.1287,"775": 25.4252,"800": 21.6812,"825": 20.2477,"850": 20.362,"875": 20.1818,"900": 18.7003,"925": 14.1941,"950": 19.5532,"975": 35.3401,"1000": 34.9958,"1025": 32.0068,"1050": 24.0801,"1075": 18.0045,"1100": 13.8806,"1125": 11.59,"1150": 10.9246,"1175": 8.8278,"1200": 6.8932,"1225": 6.1463,"1250": 6.3581,"1275": 4.7964,"1300": 4.1131,"1325": 3.853,"1350": 3.5762,"1375": 3.9829,"1400": 4.0806,"1425": 3.4956,"1450": 3.138,"1475": 2.9754,"1500": 3.8208,"1525": 3.9182,"1550": 4.0644,"1575": 1.2518,"1600": 0.2601}}}