{"type": "Feature","bbox": [-2.288,42.1912,-1.329,42.5314],"geometry": {"type": "MultiPolygon","coordinates": [[[[-1.7364,42.2153,269.5749],[-1.7272,42.2124,268.4648],[-1.7253,42.2145,268.5749],[-1.7085,42.2097,267.131],[-1.7057,42.207,267.9348],[-1.7067,42.2022,266.3398],[-1.703,42.1958,265.3683],[-1.7042,42.192,266.182],[-1.7001,42.1912,264.1375],[-1.6989,42.1936,264.1917],[-1.688,42.1927,262.2568],[-1.6857,42.194,262.929],[-1.6814,42.1924,266.0463],[-1.6817,42.2002,263.5942],[-1.6777,42.2017,267.6781],[-1.677,42.2071,264.3667],[-1.657,42.2227,351.4239],[-1.6437,42.247,356.2603],[-1.6448,42.251,318.5314],[-1.6497,42.2542,307.4078],[-1.681,42.2643,297.1769],[-1.6797,42.2853,316.7433],[-1.6398,42.2746,364.86],[-1.634,42.2707,361.89],[-1.6271,42.2607,354.7648],[-1.6141,42.2609,380.0829],[-1.6061,42.2635,348.8483],[-1.5887,42.2825,363.7879],[-1.5922,42.2885,382.7454],[-1.5865,42.2919,392.8389],[-1.5845,42.2959,388.0977],[-1.5784,42.2971,392.6831],[-1.5773,42.2994,389.0497],[-1.5581,42.3048,409.2513],[-1.5454,42.3115,419.9642],[-1.5387,42.3173,395.7108],[-1.5326,42.3189,406.9917],[-1.53,42.3224,392.1768],[-1.5217,42.3267,408.4119],[-1.5189,42.3326,431.1957],[-1.5116,42.3359,421.2507],[-1.5088,42.3418,423.6776],[-1.4978,42.338,423.5667],[-1.4974,42.3473,364.6162],[-1.4993,42.3543,355.9354],[-1.5041,42.3615,343.7019],[-1.5011,42.3617,354.0286],[-1.4946,42.3495,364.4389],[-1.4869,42.3458,385.1583],[-1.4815,42.3334,439.2642],[-1.4701,42.3292,417.9085],[-1.4687,42.3258,410.1117],[-1.4772,42.3209,444.0349],[-1.4636,42.3122,440.5531],[-1.454,42.3094,464.4398],[-1.4325,42.3159,454.785],[-1.4188,42.3061,418.4297],[-1.4084,42.3058,445.7529],[-1.4052,42.3012,444.0515],[-1.3994,42.2974,461.8715],[-1.3977,42.2926,491.5352],[-1.3836,42.3037,391.9734],[-1.3751,42.3157,375.6941],[-1.3522,42.3395,403.1867],[-1.3374,42.3456,405.3203],[-1.329,42.3554,404.7031],[-1.3326,42.3592,406.0292],[-1.3297,42.3613,409.2412],[-1.3338,42.3651,409.9129],[-1.3362,42.372,407.2956],[-1.3418,42.373,404.5514],[-1.3506,42.3701,397.0125],[-1.357,42.3744,393.1487],[-1.3597,42.3784,392.4893],[-1.3572,42.3815,396.1759],[-1.3748,42.3874,386.7128],[-1.4062,42.4072,402.161],[-1.429,42.4097,347.6733],[-1.4197,42.423,349.2462],[-1.4264,42.4258,374.3821],[-1.435,42.4253,386.7381],[-1.4376,42.4232,399.3349],[-1.4457,42.4239,412.1481],[-1.4552,42.4196,466.3839],[-1.4636,42.4204,605.4766],[-1.4732,42.4158,592.774],[-1.4959,42.4206,588.8228],[-1.5111,42.4187,474.6035],[-1.513,42.4144,451.7863],[-1.5168,42.4132,447.4183],[-1.5452,42.4179,399.5442],[-1.5567,42.4159,369.2063],[-1.577,42.409,351.2957],[-1.5874,42.4028,350.1122],[-1.5955,42.3944,385.3586],[-1.5995,42.3811,385.6818],[-1.6091,42.3848,373.4594],[-1.6114,42.394,387.1622],[-1.6151,42.3997,367.2218],[-1.625,42.4075,335.268],[-1.6447,42.4122,348.8382],[-1.6442,42.4012,335.7691],[-1.6421,42.3961,330.4849],[-1.6434,42.3942,350.1252],[-1.6474,42.3942,375.4252],[-1.6604,42.3854,356.5634],[-1.6702,42.3862,358.7785],[-1.6878,42.3843,358.3925],[-1.6894,42.3826,354.3883],[-1.6978,42.3808,331.1828],[-1.7034,42.3955,346.4547],[-1.7164,42.4099,396.9104],[-1.7153,42.4228,421.7062],[-1.7201,42.4246,421.8107],[-1.7236,42.4287,428.0671],[-1.723,42.4318,431.1368],[-1.7304,42.4354,449.3913],[-1.7319,42.4377,446.3559],[-1.7361,42.4373,445.1122],[-1.7382,42.4392,462.9684],[-1.7374,42.4469,410.8693],[-1.7444,42.4514,429.0432],[-1.7471,42.4513,430.9521],[-1.7537,42.4579,418.3242],[-1.7603,42.4608,400.3623],[-1.7579,42.4653,368.075],[-1.7638,42.4845,340.7261],[-1.7751,42.4986,347.3248],[-1.7943,42.5135,324.2296],[-1.8051,42.5148,344.0446],[-1.825,42.5126,317.5339],[-1.8307,42.5111,309.0641],[-1.8349,42.5037,308.5822],[-1.8345,42.5075,309.5819],[-1.8414,42.5093,311.4728],[-1.8483,42.5086,313.7948],[-1.855,42.5134,317.8182],[-1.8708,42.51,348.8985],[-1.8841,42.5026,334.3734],[-1.9056,42.5024,343.5803],[-1.9118,42.5041,348.8878],[-1.9238,42.5167,381.0122],[-1.9326,42.5231,454.5867],[-1.9346,42.5267,479.9437],[-1.9377,42.5254,481.6967],[-1.9433,42.5277,466.6115],[-1.9568,42.5219,413.122],[-1.966,42.5225,408.6837],[-1.9715,42.5262,377.1144],[-1.9718,42.5314,356.9153],[-1.9736,42.5266,360.9507],[-1.9791,42.5234,355.9065],[-1.9785,42.5218,348.8552],[-1.9865,42.5211,355.5209],[-1.9892,42.5164,351.9531],[-1.9921,42.5156,362.3631],[-1.999,42.5188,375.2374],[-2.0088,42.5189,390.7678],[-2.0115,42.5151,400.2757],[-2.0159,42.5139,402.0611],[-2.016,42.5082,397.4158],[-2.0265,42.4967,465.911],[-2.0563,42.5049,508.0713],[-2.0583,42.5088,528.4073],[-2.0642,42.5119,435.6751],[-2.0696,42.5123,510.57619999999997],[-2.0738,42.5059,543.1823],[-2.078,42.5063,498.2485],[-2.0785,42.5035,512.2036],[-2.081,42.5025,512.2372],[-2.0821,42.4996,531.2208],[-2.0885,42.4985,518.2554],[-2.0978,42.5005,512.5242],[-2.1027,42.4976,502.0201],[-2.1211,42.4991,505.9763],[-2.1312,42.505,482.115],[-2.1383,42.5166,426.7062],[-2.1368,42.5186,420.4835],[-2.1395,42.5203,420.6632],[-2.1379,42.5217,419.0952],[-2.1471,42.5287,417.5288],[-2.1481,42.5172,441.302],[-2.1557,42.5062,469.468],[-2.1621,42.4884,421.1335],[-2.1703,42.488,415.0558],[-2.1831,42.4901,414.9],[-2.1978,42.4954,509.1957],[-2.2079,42.4804,480.6818],[-2.2154,42.4745,427.6831],[-2.2223,42.4717,368.1266],[-2.2306,42.4721,405.3394],[-2.2405,42.4774,441.4753],[-2.2526,42.4788,426.4619],[-2.279,42.4862,397.2601],[-2.2837,42.4737,365.5216],[-2.288,42.4674,350.0901],[-2.2876,42.4604,348.9303],[-2.2789,42.4558,345.0151],[-2.277,42.4478,339.3407],[-2.2737,42.4452,340.0596],[-2.2693,42.4449,338.263],[-2.2645,42.4499,337.3495],[-2.2379,42.4404,335.0121],[-2.2361,42.4374,331.8746],[-2.2411,42.4301,349.201],[-2.2325,42.4255,333.0155],[-2.2192,42.4257,329.8569],[-2.2142,42.4242,328.6484],[-2.2116,42.4225,329.9174],[-2.2113,42.4196,329.0745],[-2.2162,42.4156,329.2612],[-2.2049,42.4154,327.999],[-2.1989,42.4192,327.9318],[-2.1867,42.4188,328.893],[-2.1821,42.4164,327.5962],[-2.1764,42.4081,359.3299],[-2.1628,42.4085,336.1382],[-2.1584,42.4102,325.1422],[-2.1552,42.4174,322.514],[-2.1517,42.4186,327.174],[-2.1479,42.4161,323.4538],[-2.1396,42.4206,418.4654],[-2.1329,42.4212,411.032],[-2.1278,42.419,402.6746],[-2.127,42.4203,402.6746],[-2.1112,42.4196,336.5843],[-2.105,42.4159,339.3886],[-2.1156,42.3995,412.2888],[-2.1099,42.3935,432.5764],[-2.0875,42.3836,365.5935],[-2.0928,42.3758,365.4765],[-2.0789,42.3688,343.3884],[-2.0789,42.3665,347.3443],[-2.0873,42.3599,380.7961],[-2.09,42.3555,379.0049],[-2.0899,42.347,411.8138],[-2.0699,42.3425,407.5358],[-2.0617,42.3476,362.8971],[-2.0517,42.3512,336.0375],[-2.0458,42.3562,321.3759],[-2.0455,42.359,304.6154],[-2.0289,42.3626,306.1187],[-2.0195,42.3685,302.5866],[-2.0148,42.3693,301.6408],[-2.0114,42.3679,302.2395],[-2.0066,42.361,300.9181],[-1.9955,42.3636,304.9945],[-1.9912,42.3598,298.3217],[-1.9829,42.3568,298.7662],[-1.9786,42.3499,297.5973],[-1.9721,42.3537,297.3218],[-1.9695,42.3525,314.5097],[-1.9682,42.3505,303.4344],[-1.97,42.3476,296.6382],[-1.9646,42.3427,295.3157],[-1.9688,42.3387,295.719],[-1.964,42.3337,295.8651],[-1.9569,42.3356,293.7222],[-1.9427,42.3353,293.728],[-1.932,42.3223,291.4614],[-1.9224,42.3271,292.417],[-1.9185,42.327,290.0689],[-1.9164,42.3243,292.306],[-1.9193,42.317,288.4496],[-1.9162,42.3134,292.1369],[-1.9093,42.3111,291.1938],[-1.907,42.3085,293.5219],[-1.9076,42.3058,292.0424],[-1.9146,42.3009,290.631],[-1.8963,42.2915,296.8653],[-1.8843,42.2878,286.3716],[-1.8796,42.2871,286.5067],[-1.8728,42.29,286.7029],[-1.8706,42.289,293.356],[-1.8697,42.2813,285.9336],[-1.8663,42.276,284.2391],[-1.868,42.2685,283.1729],[-1.8762,42.259,282.7086],[-1.8726,42.253,282.9364],[-1.8557,42.2497,282.033],[-1.8531,42.2521,282.57],[-1.8532,42.258,282.6006],[-1.8489,42.2589,283.2067],[-1.8304,42.2445,280.2401],[-1.8278,42.244,277.8836],[-1.8249,42.2455,278.2408],[-1.8239,42.2484,277.8151],[-1.8205,42.2492,281.2437],[-1.8182,42.2461,277.4071],[-1.8197,42.2329,278.2701],[-1.8168,42.2295,280.0458],[-1.8063,42.2279,275.188],[-1.7999,42.2228,274.8982],[-1.7902,42.2229,274.5538],[-1.7875,42.2253,277.6272],[-1.7799,42.2243,272.4907],[-1.773,42.215,274.999],[-1.7694,42.2144,274.4589],[-1.767,42.2157,271.2594],[-1.7661,42.2217,270.8162],[-1.7407,42.2123,268.8156],[-1.7364,42.2153,269.5749]]]]}
,"properties": {"GID_3": "ESP.9.1.5_1","GID_0": "ESP","country": "Spain","GID_1": "ESP.9_1","province": "ComunidadForaldeNavarra","NL_NAME_1": "NA","GID_2": "ESP.9.1_1","county": "Navarra","NL_NAME_2": "NA","city": "n.a.(189)","VARNAME_3": "NA","NL_NAME_3": "NA","TYPE_3": "Comarca","ENGTYPE_3": "Comarca","CC_3": "NA","HASC_3": "NA","name": "n.a.(189).city","area_km2": 1222.1428,"hist_schema_id": "Elevation0-9000","hist_area_km2": {"250": 0.0314,"275": 95.9704,"300": 156.4876,"325": 154.9155,"350": 213.9667,"375": 226.6939,"400": 173.9828,"425": 106.7244,"450": 60.786,"475": 21.9489,"500": 7.4587,"525": 1.4391,"550": 0.5008,"575": 0.36,"600": 0.4226,"625": 0.3287,"650": 0.1252}}}