{"type": "Feature","bbox": [-0.4325,39.2793,-0.2754,39.5623],"geometry": {"type": "MultiPolygon","coordinates": [[[[-0.4303,39.5616,84.3671],[-0.4325,39.5612,73.6477],[-0.4301,39.554,72.1888],[-0.4156,39.5458,78.0992],[-0.4075,39.5308,34.5277],[-0.4017,39.5289,23.8418],[-0.3959,39.523,20.0917],[-0.3994,39.5211,20.4371],[-0.4015,39.5155,23.067],[-0.3992,39.5112,24.6219],[-0.401,39.5107,24.8528],[-0.4,39.5091,25.253],[-0.3965,39.5083,25.0878],[-0.3984,39.5054,26.5392],[-0.397,39.5014,26.8618],[-0.4018,39.4988,27.7473],[-0.4041,39.4996,29.7515],[-0.405,39.4982,28.134],[-0.4126,39.498,35.9586],[-0.4122,39.5014,34.3984],[-0.4233,39.5073,50.9483],[-0.4308,39.5056,74.0607],[-0.4303,39.5001,42.7214],[-0.4247,39.4912,31.1774],[-0.426,39.488,33.2602],[-0.4102,39.4814,24.6207],[-0.4132,39.479,23.9926],[-0.4069,39.4728,27.7793],[-0.411,39.4726,36.2894],[-0.418,39.4688,34.7398],[-0.4112,39.4665,29.0884],[-0.4161,39.454,21.4424],[-0.4204,39.4521,21.9164],[-0.4315,39.4518,27.9929],[-0.4315,39.4503,29.465699999999998],[-0.4208,39.4351,24.9301],[-0.4028,39.4369,17.2332],[-0.4019,39.428,15.5922],[-0.3965,39.4288,14.254],[-0.391,39.427,15.4857],[-0.3882,39.4331,13.1203],[-0.3783,39.4278,7.4945],[-0.3714,39.4259,4.0335],[-0.3714,39.4238,2.9329],[-0.3625,39.4196,1.739],[-0.3567,39.4196,0.4704],[-0.3499,39.4222,0.6385],[-0.3504,39.4011,-0.472],[-0.3343,39.3793,0.0662],[-0.3301,39.3649,-0.5446],[-0.337,39.3731,-1.3454],[-0.3431,39.3709,-1.0459],[-0.3411,39.3668,-1.6967],[-0.3441,39.3658,-0.9556],[-0.3472,39.3699,-0.9818],[-0.3557,39.3649,-1.4073],[-0.361,39.3638,-1.3352],[-0.3606,39.3622,-1.3499],[-0.3636,39.3597,-1.5452],[-0.3702,39.3623,-1.3289],[-0.3719,39.3592,-1.2184],[-0.3782,39.3576,-1.1179],[-0.3852,39.3532,-0.8055],[-0.388,39.3406,-1.1503],[-0.3931,39.3381,-1.3354],[-0.3946,39.3362,-1.2634],[-0.3928,39.3348,-1.4642],[-0.3967,39.3355,-0.8958],[-0.3977,39.3338,-1.0927],[-0.3963,39.3321,-1.1576],[-0.3988,39.3319,-0.8586],[-0.3944,39.3233,-1.0858],[-0.3917,39.3231,-1.2518],[-0.3908,39.3151,-0.5237],[-0.3847,39.3176,-0.4697],[-0.3815,39.3167,-1.2579],[-0.3767,39.3123,-0.8037],[-0.38,39.3111,-0.6909],[-0.3754,39.3073,-0.8192],[-0.3678,39.3078,-0.9064],[-0.3646,39.3052,-1.0759],[-0.3591,39.3068,-0.8521],[-0.3559,39.3123,0.0],[-0.3502,39.3111,-0.2095],[-0.3475,39.3154,-0.3453],[-0.3371,39.3163,-1.199],[-0.3358,39.3146,-1.2976],[-0.334,39.3173,-1.316],[-0.3293,39.3133,-1.4209],[-0.3225,39.314,-1.3186],[-0.3184,39.3118,1.1148],[-0.3182,39.3033,-0.6127],[-0.3128,39.3037,-0.7076],[-0.3056,39.2993,-0.804],[-0.2916,39.2832,-0.4996],[-0.2754,39.2793,3.0454],[-0.286,39.2962,2.3716],[-0.2882,39.2976,4.5452],[-0.2887,39.3024,0.0],[-0.2929,39.3071,0.2561],[-0.3154,39.3587,0.0],[-0.329,39.399,0.9478],[-0.3343,39.4235,0.1937],[-0.3593,39.4338,2.4548],[-0.3657,39.4349,3.3352],[-0.361,39.4351,2.4548],[-0.3362,39.4263,0.9104],[-0.3315,39.426,0.2124],[-0.3301,39.4271,0.0],[-0.3304,39.4354,4.8181],[-0.3271,39.4418,3.5221],[-0.3201,39.444,1.9136],[-0.3201,39.4454,1.9136],[-0.3238,39.446,0.0],[-0.3249,39.4476,0.0],[-0.3246,39.449,0.0],[-0.3204,39.4493,0.3239],[-0.3232,39.451,0.0],[-0.3243,39.454,0.8467],[-0.3271,39.4546,2.5807],[-0.3251,39.4574,1.1489],[-0.329,39.4571,1.7196],[-0.3304,39.4601,2.1338],[-0.3288,39.4618,2.0817],[-0.326,39.4615,2.6848],[-0.3251,39.4579,1.1489],[-0.3213,39.4554,0.0],[-0.316,39.4474,0.0],[-0.3129,39.4499,1.2352],[-0.3096,39.4501,1.9639],[-0.3226,39.4643,3.2673],[-0.3243,39.4846,0.6113],[-0.3275,39.4845,5.2857],[-0.3339,39.4877,1.8176],[-0.3367,39.4861,3.7068],[-0.3517,39.4893,5.5173],[-0.3577,39.4942,9.7902],[-0.3552,39.5001,8.5594],[-0.3564,39.5024,8.5496],[-0.36,39.5036,11.878],[-0.3609,39.502,8.8124],[-0.3675,39.5048,13.7579],[-0.3718,39.5096,13.011],[-0.3665,39.5125,13.6848],[-0.3704,39.5165,14.8787],[-0.3739,39.5262,17.6844],[-0.3708,39.5274,18.8401],[-0.3776,39.5302,20.5029],[-0.3848,39.5304,23.6178],[-0.3844,39.5333,23.3109],[-0.3874,39.5319,24.0717],[-0.3877,39.5332,24.4505],[-0.3894,39.5328,24.287],[-0.3901,39.5304,22.1137],[-0.3936,39.5301,23.1033],[-0.3926,39.5277,22.1955],[-0.3963,39.5284,22.0307],[-0.4029,39.5369,29.7965],[-0.4009,39.5406,37.6488],[-0.4051,39.5415,36.4767],[-0.4066,39.5449,37.4455],[-0.4162,39.5512,72.4752],[-0.4269,39.5623,81.9152],[-0.4303,39.5616,84.3671]]],
[[[-0.3274,39.4346,0.2518],[-0.329,39.4349,1.0455],[-0.3254,39.4321,0.5831],[-0.3282,39.429,4.7314],[-0.3276,39.4274,1.8977],[-0.3143,39.4224,1.7913],[-0.3118,39.4238,3.625],[-0.3085,39.4301,0.0],[-0.3129,39.434,0.2304],[-0.3093,39.4301,0.0],[-0.3126,39.4238,3.625],[-0.3143,39.4232,1.7913],[-0.3171,39.4246,4.9034],[-0.314,39.4307,1.0292],[-0.3274,39.4346,0.2518]]],
[[[-0.3032,39.4499,1.2314],[-0.3085,39.4499,1.9639],[-0.3132,39.4421,0.7429],[-0.3093,39.4432,0.0],[-0.3096,39.446,1.668],[-0.3043,39.4468,2.0156],[-0.3049,39.4446,1.7041],[-0.3029,39.4443,2.8084],[-0.3035,39.4338,0.0],[-0.3021,39.4338,0.0],[-0.3021,39.4485,2.1426],[-0.3032,39.4499,1.2314]]],
[[[-0.3558,39.5241,14.0708],[-0.3534,39.5295,15.5099],[-0.362,39.5324,19.9228],[-0.3613,39.5281,17.4128],[-0.3654,39.5289,19.569],[-0.3665,39.5237,15.1982],[-0.3633,39.5223,14.8002],[-0.3605,39.516,12.2062],[-0.3513,39.5227,12.2439],[-0.3558,39.5241,14.0708]]]]}
,"properties": {"GID_3": "ESP.10.3.4_1","GID_0": "ESP","country": "Spain","GID_1": "ESP.10_1","province": "ComunidadValenciana","NL_NAME_1": "NA","GID_2": "ESP.10.3_1","county": "Valencia","NL_NAME_2": "NA","city": "CiutatdeValencia","VARNAME_3": "NA","NL_NAME_3": "NA","TYPE_3": "Comarca","ENGTYPE_3": "Comarca","CC_3": "NA","HASC_3": "NA","name": "Ciutatde_Valencia.city","area_km2": 133.3295,"hist_schema_id": "Elevation0-9000","hist_area_km2": {"0": 85.7593,"25": 44.4958,"50": 1.603,"75": 1.357,"100": 0.1144}}}