{"type":"Feature","properties":{"GID_3":"ESP.4.4.2_1","GID_0":"ESP","country":"Spain","GID_1":"ESP.4_1","province":"Castilla-LaMancha","NL_NAME_1":"NA","GID_2":"ESP.4.4_1","county":"Guadalajara","NL_NAME_2":"NA","city":"n.a.(120)","VARNAME_3":"NA","NL_NAME_3":"NA","TYPE_3":"Comarca","ENGTYPE_3":"Comarca","CC_3":"NA","HASC_3":"NA","name":"n.a.(120).city"},
"geometry":{"type": "MultiPolygon","coordinates": [[[[-2.8051,40.6109,1022.4299],[-2.7957,40.6385,1019.957],[-2.7972,40.651,1032.9993],[-2.7912,40.6576,1043.5674],[-2.7941,40.6703,1044.2301],[-2.8104,40.6948,1033.9343],[-2.8046,40.6982,1045.1562],[-2.7997,40.7044,1054.3514],[-2.7849,40.7126,1032.5393],[-2.7742,40.7131,1045.5029],[-2.7666,40.7077,1052.8302],[-2.7548,40.7127,1055.9016],[-2.7473,40.7205,1050.5946],[-2.7505,40.7251,1059.4172],[-2.7503,40.7306,1063.3136],[-2.7484,40.7337,1061.0068],[-2.7456,40.7345,1056.1495],[-2.7398,40.7225,911.9362],[-2.7382,40.723,911.9362],[-2.7338,40.7183,891.9348],[-2.7262,40.7147,848.5815],[-2.7257,40.7053,830.3264],[-2.7169,40.699,833.3339],[-2.7235,40.6898,931.5322],[-2.717,40.678,858.1014],[-2.7177,40.676,909.8824],[-2.7098,40.6669,950.1944],[-2.7136,40.6637,1061.1624],[-2.7126,40.6567,1041.5842],[-2.6955,40.6497,792.811],[-2.677,40.6466,709.3254],[-2.6795,40.6518,705.5],[-2.6825,40.6507,705.5],[-2.6838,40.6544,705.5],[-2.6795,40.6564,705.5],[-2.6716,40.655,708.606],[-2.669,40.6565,712.2107],[-2.667,40.662,706.0],[-2.6614,40.6632,706.0],[-2.6605,40.6595,706.0],[-2.6566,40.6557,713.43],[-2.6545,40.6562,706.0],[-2.6519,40.6605,734.2294],[-2.6455,40.6616,706.0],[-2.6388,40.657,706.0],[-2.6338,40.6562,709.9711],[-2.6325,40.6626,708.2159],[-2.6283,40.6647,707.4207],[-2.6409,40.676,898.7905],[-2.6392,40.685,874.1501],[-2.6374,40.6865,886.4089],[-2.6407,40.6905,891.5712],[-2.6389,40.701,890.2759],[-2.6347,40.7026,874.0085],[-2.6328,40.7057,855.8416],[-2.6032,40.7306,839.8408],[-2.5909,40.7367,875.5291],[-2.5867,40.7296,890.9996],[-2.573,40.718,849.226],[-2.5672,40.7157,830.7921],[-2.5626,40.7184,791.8777],[-2.5265,40.7158,800.3393],[-2.5149,40.7085,765.5989],[-2.5062,40.7087,742.415],[-2.4995,40.7014,758.6534],[-2.4864,40.7086,752.2204],[-2.4839,40.7079,767.3565],[-2.4842,40.7039,766.9203],[-2.4817,40.7011,754.0735],[-2.4735,40.7065,760.4807],[-2.4607,40.7084,762.7743],[-2.4584,40.7107,763.4893],[-2.462,40.7147,783.7525],[-2.4567,40.7232,769.2213],[-2.4381,40.7206,769.42],[-2.4382,40.7263,772.1968],[-2.432,40.7294,781.2809],[-2.4272,40.7297,771.0377],[-2.4204,40.725,783.0515],[-2.4155,40.7301,881.9583],[-2.3991,40.737,784.1046],[-2.4009,40.7442,794.7485],[-2.3968,40.7433,794.4006],[-2.3941,40.7506,801.6374],[-2.3854,40.7517,818.1115],[-2.3865,40.7561,808.5197],[-2.3806,40.7616,827.1903],[-2.3799,40.7649,810.6547],[-2.3685,40.7725,827.9473],[-2.3609,40.7809,865.5842],[-2.3608,40.7844,844.0697],[-2.358,40.7869,833.4608],[-2.3386,40.7861,830.623],[-2.3287,40.7895,824.7438],[-2.3238,40.7888,824.8092],[-2.319,40.7907,835.6995],[-2.3001,40.7913,829.3275],[-2.2899,40.7974,909.8431],[-2.2873,40.7967,851.9492],[-2.2844,40.7918,844.0443],[-2.2769,40.792,863.9216],[-2.2746,40.7936,866.6105],[-2.2673,40.7907,942.718],[-2.2624,40.7922,980.3009],[-2.2604,40.7904,867.7621],[-2.2551,40.7905,938.4514],[-2.2516,40.7889,858.7965],[-2.2491,40.7894,900.672],[-2.2497,40.7973,908.1173],[-2.2437,40.7964,871.483],[-2.2433,40.7933,890.9521],[-2.2408,40.7926,918.4302],[-2.2328,40.7979,865.655],[-2.2251,40.799,869.0176],[-2.2179,40.8052,871.3892],[-2.211,40.8032,895.6186],[-2.2065,40.8054,989.1945],[-2.2033,40.8108,1038.1462],[-2.2027,40.8155,1115.2429],[-2.2045,40.8196,1104.4625],[-2.1987,40.8332,1118.9287],[-2.2084,40.8395,1182.4482],[-2.2077,40.8411,1168.3024],[-2.1945,40.8401,1200.2708],[-2.1766,40.8421,1235.9934],[-2.1637,40.8462,1184.8083],[-2.1611,40.8484,1174.8597],[-2.1617,40.8548,1061.7922],[-2.1589,40.8585,1106.4087],[-2.1734,40.8849,1142.2527],[-2.183,40.8955,1109.0765],[-2.1819,40.8989,1107.1281],[-2.1737,40.9047,1153.8594],[-2.167,40.9137,1160.8843],[-2.1852,40.9265,1101.3982],[-2.1874,40.9299,1088.4469],[-2.2243,40.9467,1175.99],[-2.2258,40.9515,1228.6372],[-2.2468,40.9578,1295.0571],[-2.2473,40.9599,1268.0402],[-2.2523,40.9621,1258.4774],[-2.2536,40.9643,1230.3119],[-2.2521,40.9689,1203.3644],[-2.2555,40.9774,1249.5154],[-2.2615,40.9785,1233.9783],[-2.2611,40.9869,1180.5792],[-2.2665,40.986,1143.3108],[-2.2819,40.9875,1171.8676],[-2.298,40.9947,1152.2261],[-2.3152,41.009,1232.4373],[-2.3156,41.0131,1252.6462],[-2.318,41.0142,1246.2075],[-2.323,41.0239,1197.4578],[-2.3232,41.0278,1234.6141],[-2.3285,41.0314,1248.5931],[-2.3292,41.0351,1203.6669],[-2.3256,41.0539,1218.1694],[-2.3233,41.0565,1224.7046],[-2.3306,41.0668,1194.9731],[-2.3338,41.0674,1188.8344],[-2.3492,41.0774,1185.8628],[-2.3553,41.0865,1179.6882],[-2.3813,41.077,1195.6722],[-2.383,41.0742,1212.1721],[-2.4021,41.0617,1116.1506],[-2.4142,41.0609,1177.5547],[-2.4188,41.0577,1147.8741],[-2.4204,41.0602,1154.7041],[-2.4297,41.0659,1140.2986],[-2.4297,41.0723,1113.2653],[-2.4409,41.0714,1146.304],[-2.4399,41.0732,1141.8226],[-2.4422,41.0773,1130.6185],[-2.4479,41.0749,1206.3585],[-2.4494,41.0777,1201.8113],[-2.4815,41.078,1189.473],[-2.4991,41.0645,1145.4241],[-2.5012,41.0598,1154.8951],[-2.5006,41.0452,1173.2728],[-2.5019,41.0421,1190.8264],[-2.5061,41.0392,1207.5925],[-2.496,41.0365,1180.2786],[-2.495,41.0271,1162.8313],[-2.5069,41.0212,1198.5286],[-2.523,41.001,1145.6465],[-2.5474,40.9946,1160.7146],[-2.5514,40.9913,1166.5791],[-2.5687,40.9839,1139.323],[-2.5785,40.9882,1135.2491],[-2.5798,41.001,1158.9094],[-2.5895,41.0085,1145.2515],[-2.5928,41.006,1129.1016],[-2.5977,41.0093,1122.7937],[-2.6032,41.0097,1099.5627],[-2.6059,41.0047,1112.6586],[-2.614,40.9977,1071.3887],[-2.6311,40.9961,1090.7589],[-2.6366,40.993899999999996,1098.5011],[-2.6421,40.9892,1114.2307],[-2.6565,40.9901,1128.2808],[-2.6675,40.9961,1112.4143],[-2.6768,40.9905,1045.5759],[-2.682,40.9896,1108.1979],[-2.6931,40.9946,1000.4114],[-2.6971,40.9944,972.1567],[-2.7026,41.0007,1029.2314],[-2.7055,41.0018,1012.0421],[-2.7074,40.998,1045.5447],[-2.7113,40.9957,1016.0965],[-2.7198,40.9914,1013.1534],[-2.7276,40.9904,1010.0026],[-2.7345,40.9837,1005.465],[-2.7418,40.9825,980.5111],[-2.7536,40.9863,982.9128],[-2.7674,40.9839,969.7307],[-2.7838,40.9834,980.1589],[-2.7913,40.9802,943.1826],[-2.7955,40.9818,892.1105],[-2.8006,40.9806,847.0453],[-2.8127,40.9873,939.3859],[-2.8167,40.9858,936.42],[-2.8175,40.9828,925.2159],[-2.8232,40.9779,905.4448],[-2.831,40.9622,865.293],[-2.8346,40.9597,871.5278],[-2.8454,40.9571,846.9976],[-2.8624,40.9559,861.34],[-2.885,40.966,893.2388],[-2.8929,40.9533,825.7358],[-2.8955,40.9546,835.0347],[-2.9011,40.9505,824.4648],[-2.9025,40.9467,806.7994],[-2.9048,40.9473,815.2507],[-2.9106,40.9421,799.7532],[-2.9139,40.9484,798.6021],[-2.9226,40.9529,796.0209],[-2.9218,40.9597,820.0519],[-2.9238,40.9671,849.3134],[-2.927,40.9708,882.0167],[-2.9368,40.9706,816.598],[-2.9479,40.9681,817.9072],[-2.9559,40.9693,877.7292],[-2.9607,40.972,909.022],[-2.9643,40.9712,923.1339],[-2.9721,40.9744,934.2003],[-2.9688,40.9632,888.8821],[-2.9619,40.9514,902.495],[-2.9616,40.9274,822.7529],[-2.963,40.9243,813.6935],[-2.9596,40.9176,790.1176],[-2.9762,40.9029,776.8597],[-2.989,40.9038,768.0121],[-2.9907,40.9018,771.5934],[-2.9876,40.9078,771.1594],[-2.9897,40.9114,783.939],[-3.0056,40.9254,838.3182],[-3.0191,40.931,871.6035],[-3.0335,40.9337,869.6248],[-3.0354,40.9287,878.6571],[-3.0325,40.9226,843.808],[-3.0486,40.9194,853.9359],[-3.0604,40.9215,775.4766],[-3.068,40.916,822.1737],[-3.0659,40.9141,810.4254],[-3.0704,40.914,838.9676],[-3.0772,40.9092,743.5157],[-3.083,40.9083,739.7483],[-3.0885,40.9024,751.8489],[-3.0934,40.9,736.4726],[-3.0996,40.8907,741.9292],[-3.1051,40.891,757.076],[-3.1105,40.8937,771.9988],[-3.1098,40.8968,731.7877],[-3.1133,40.8967,741.4808],[-3.1183,40.8932,732.6786],[-3.1193,40.8837,729.6418],[-3.1159,40.8859,775.1254],[-3.1116,40.8848,779.0312],[-3.1111,40.8688,796.6392],[-3.1174,40.8501,822.7842],[-3.1175,40.8376,698.3567],[-3.1216,40.835,696.7447],[-3.1357,40.8042,716.196],[-3.1303,40.8027,681.6335],[-3.1348,40.7997,680.3613],[-3.1325,40.7929,679.5311],[-3.1338,40.7826,680.8893],[-3.1311,40.7804,684.0967],[-3.1358,40.776,686.8215],[-3.133,40.7718,678.0382],[-3.1375,40.7658,681.244],[-3.1377,40.758,674.3311],[-3.143,40.7556,665.7807],[-3.1364,40.7522,741.8504],[-3.1323,40.743899999999996,746.594],[-3.1255,40.7409,732.4512],[-3.1167,40.734,786.0833],[-3.0861,40.7236,961.818],[-3.0814,40.7194,969.223],[-3.0689,40.7164,863.5408],[-3.0644,40.7121,940.407],[-3.0557,40.7156,948.7041],[-3.0452,40.7148,968.5912],[-3.041,40.7083,959.0654],[-3.0329,40.7156,969.6922],[-3.0096,40.7268,973.8571],[-3.0005,40.733,968.2927],[-2.9974,40.7366,981.1732],[-2.9941,40.7474,987.9761],[-2.9877,40.7453,989.6259],[-2.98,40.7311,989.7511],[-2.9679,40.7223,979.5795],[-2.9657,40.7145,943.4207],[-2.9592,40.7103,940.5223],[-2.9586,40.7076,976.2036],[-2.9496,40.7022,991.3331],[-2.9305,40.7007,982.6797],[-2.9272,40.6984,973.7983],[-2.9304,40.6942,964.9268],[-2.9276,40.6867,950.082],[-2.9309,40.6809,934.0172],[-2.9387,40.6772,965.7821],[-2.9375,40.6735,958.0287],[-2.9383,40.6703,908.2411],[-2.9418,40.6689,959.0039],[-2.9395,40.663,772.8723],[-2.9445,40.6447,803.1351],[-2.9403,40.6409,740.9872],[-2.9331,40.6416,775.7109],[-2.9321,40.6372,855.3115],[-2.9224,40.6278,973.5978],[-2.9124,40.6222,980.092],[-2.9113,40.6177,957.7612],[-2.9342,40.6008,922.4937],[-2.9392,40.5986,882.8338],[-2.9322,40.5923,843.3678],[-2.9233,40.5975,837.0972],[-2.9102,40.5967,970.1512],[-2.8961,40.6003,986.2859],[-2.8888,40.5977,995.3568],[-2.8803,40.5994,974.784],[-2.8706,40.5943,998.3286],[-2.841,40.5974,1010.597],[-2.8317,40.6012,1016.9191],[-2.8227,40.596,1028.3643],[-2.8144,40.5995,1029.7709],[-2.8051,40.6109,1022.4299]]]]}}