{"type":"Feature","properties":{"GID_3":"ESP.6.4.8_1","GID_0":"ESP","country":"Spain","GID_1":"ESP.6_1","province":"Cataluña","NL_NAME_1":"NA","GID_2":"ESP.6.4_1","county":"Tarragona","NL_NAME_2":"NA","city":"n.a.(247)","VARNAME_3":"NA","NL_NAME_3":"NA","TYPE_3":"Comarca","ENGTYPE_3":"Comarca","CC_3":"NA","HASC_3":"NA","name":"n.a.(247).city"},
"geometry":{"type": "MultiPolygon","coordinates": [[[[1.2255,41.3611,688.9622],[1.2285,41.3703,702.6537],[1.2324,41.375,620.063],[1.2402,41.3762,831.549],[1.2387,41.38,776.5802],[1.241,41.3843,604.2651],[1.2538,41.3851,671.1221],[1.2526,41.3879,568.1562],[1.256,41.3906,537.5961],[1.2612,41.3991,531.5394],[1.2593,41.4039,528.7628],[1.2712,41.4082,553.6705],[1.2834,41.4182,699.5299],[1.2875,41.4182,694.9959],[1.2927,41.4259,745.4218],[1.3,41.4288,820.3395],[1.306,41.4292,850.1132],[1.3089,41.437,821.4456],[1.3114,41.4373,820.3375],[1.3143,41.4417,834.3519],[1.3177,41.4425,841.8187],[1.3213,41.4486,879.4104],[1.3189,41.4539,837.1635],[1.3224,41.4556,840.9316],[1.3213,41.4587,817.0562],[1.323,41.4647,782.4105],[1.3277,41.4692,794.1961],[1.3268,41.4799,726.0302],[1.3192,41.4955,717.192],[1.3032,41.4914,611.3918],[1.3014,41.4892,625.822],[1.2914,41.4881,617.147],[1.2855,41.4909,597.8589],[1.274,41.5,759.0225],[1.2694,41.499,776.8777],[1.2532,41.4795,598.783],[1.232,41.4741,559.2491],[1.2218,41.475,606.4351],[1.2142,41.4726,601.5735],[1.2058,41.4729,572.5741],[1.1988,41.4907,761.5803],[1.1758,41.4863,742.3734],[1.1725,41.487,739.8176],[1.155,41.4808,759.2042],[1.1306,41.4769,779.3167],[1.1298,41.4739,737.5983],[1.1197,41.4695,761.6136],[1.1138,41.4689,787.3909],[1.1122,41.467,727.4149],[1.1082,41.4668,741.0645],[1.1055,41.4741,769.7976],[1.094,41.4775,736.6714],[1.0913,41.4761,722.0332],[1.0825,41.4792,679.8165],[1.0784,41.4836,672.0749],[1.065,41.4873,615.0514],[1.0565,41.4936,531.4005],[1.0398,41.5011,472.4535],[1.0373,41.4983,483.2626],[1.0458,41.4913,564.7214],[1.0477,41.4875,575.5126],[1.046,41.4844,549.3135],[1.0374,41.48,572.9602],[1.057,41.4663,641.5692],[1.0722,41.463,685.4475],[1.0752,41.4599,709.0231],[1.0701,41.4557,697.6382],[1.0641,41.4547,668.006],[1.0612,41.4491,679.0604],[1.0624,41.4483,659.8936],[1.0551,41.4423,679.2592],[1.0504,41.4429,659.0126],[1.0465,41.4404,652.7505],[1.0463,41.4371,662.8934],[1.0399,41.4281,602.3095],[1.0378,41.4217,541.5433],[1.0309,41.4213,581.4244],[1.0321,41.4192,548.6243],[1.027,41.4098,513.9538],[1.0156,41.4043,576.1306],[1.0059,41.4059,596.4592],[1.0036,41.4049,595.8854],[1.0011,41.4021,596.299],[1.0037,41.4003,616.1577],[0.9983,41.3991,606.0239],[0.993,41.3938,627.2656],[0.9937,41.3913,638.2065],[0.9917,41.3886,641.584],[0.9817,41.3922,638.114],[0.9795,41.3866,678.1321],[0.9736,41.3818,671.079],[0.9726,41.3742,686.7942],[0.9623,41.3681,723.0125],[0.9631,41.3607,857.7802],[0.9669,41.3596,896.6902],[0.971,41.3614,840.3804],[0.9914,41.3579,824.8011],[0.9939,41.3529,975.048],[0.9988,41.3525,1010.7],[1.0004,41.3492,977.1948],[1.005,41.3463,1059.4012],[1.0018,41.331,1122.1708],[1.0052,41.3256,1166.9893],[1.0106,41.3284,1154.1785],[1.0135,41.3281,1193.3406],[1.0196,41.3327,1130.5048],[1.0191,41.3306,1136.6565],[1.027,41.3262,1128.0393],[1.0344,41.3296,1133.3114],[1.0371,41.3266,1098.5464],[1.0412,41.3253,1012.3247],[1.0643,41.3261,1119.9307],[1.0671,41.3235,1029.2549],[1.0649,41.3203,1006.9181],[1.0747,41.3213,982.4882],[1.0778,41.3188,832.0612],[1.1059,41.3149,564.1157],[1.1079,41.3134,553.1945],[1.1028,41.3098,529.814],[1.1265,41.3054,486.815],[1.1335,41.3058,458.4947],[1.1385,41.3086,462.7566],[1.1447,41.3092,463.2162],[1.1471,41.3117,473.6567],[1.1512,41.3112,418.192],[1.1574,41.315,397.8611],[1.1719,41.3171,268.6733],[1.1754,41.3207,265.7716],[1.1848,41.3193,247.5565],[1.1841,41.3204,245.3832],[1.1911,41.3155,468.9962],[1.1961,41.3281,534.5247],[1.2117,41.3341,632.3833],[1.2215,41.3426,645.5256],[1.2268,41.3532,717.3416],[1.2255,41.3611,688.9622]]]]}}