{"type": "Feature","bbox": [-14.507252570697489,28.0518862976503,-13.821278449603767,28.755072332806606],"geometry": {"type": "Polygon","coordinates": [[[-14.244679328509989,28.1303775085878,0.0],[-14.212391730853767,28.1617495789003,0.0],[-14.19182288319746,28.172003485150356,0.0],[-14.152211066791267,28.181158758587856,0.9422],[-14.118763801166295,28.201666571087856,12.8656],[-14.072682258197517,28.214056707806606,27.3596],[-13.966908332416267,28.229193426556577,69.9032],[-13.933827277728767,28.245428778119106,78.4023],[-13.91136634022871,28.278448797650356,37.8642],[-13.90038001210371,28.312262274212827,115.178],[-13.892262336322545,28.329413153119049,50.3912],[-13.875355598041267,28.350226141400327,0.0],[-13.871998664447489,28.359198309369077,0.0],[-13.870289680072489,28.368902899212827,10.7177],[-13.869740363666267,28.378058172650327,10.2112],[-13.865834113666267,28.384100653119106,3.9677],[-13.847950812884989,28.398627020306634,0.0],[-13.843129035541267,28.408209539837827,0.0],[-13.844471808978767,28.415533758587827,0.0],[-13.85374915272871,28.429571844525327,0.0],[-13.856739875384989,28.436102606244134,0.0],[-13.857899543353767,28.446722723431577,6.0442],[-13.856739875384989,28.480169989056634,0.0],[-13.853138801166267,28.493963934369106,0.0],[-13.835316535541267,28.531988836712827,11.5828],[-13.828846808978795,28.552801824994106,3.9472],[-13.821278449603767,28.6378237976503,0.0],[-13.82457434804121,28.682989813275356,0.0],[-13.835682746478767,28.716620184369077,0.0],[-13.864735480853739,28.745428778119077,0.0608],[-13.898793098041239,28.755072332806606,0.0],[-13.935597297259989,28.750677801556577,0.0],[-13.972828742572517,28.737127996869077,0.0],[-13.989674445697489,28.728094793744106,0.0],[-14.000111457416267,28.717962957806577,0.7798],[-14.00548255116621,28.704779364056549,15.7856],[-14.01024329335371,28.668646551556577,1.5158],[-14.024769660541239,28.638251043744106,27.3584],[-14.036244269916267,28.588629461712827,16.8494],[-14.07567298085371,28.537298895306549,0.0],[-14.098500129291239,28.487738348431577,0.0],[-14.128102180072517,28.444769598431606,73.4944],[-14.140980598041295,28.436102606244134,40.3623],[-14.14653479725996,28.424505926556577,88.3667],[-14.171437141009989,28.353522039837884,42.2186],[-14.19334876210371,28.323004461712884,166.6089],[-14.202015754291295,28.305121160931577,136.9961],[-14.207508918353739,28.255560614056606,47.4681],[-14.213734504291267,28.236090399212856,7.1103],[-14.224598762103767,28.219794012494106,0.0],[-14.240345832416267,28.202704168744106,12.4498],[-14.270253058978739,28.177130438275327,0.0],[-14.34135901600996,28.135748602337827,0.0],[-14.399037238666267,28.112372137494077,0.0],[-14.436207648822517,28.101752020306634,38.8757],[-14.455738898822489,28.100287176556606,138.4641],[-14.48985755116621,28.1054751648378,18.5481],[-14.49699866444746,28.103705145306577,12.7542],[-14.496571418353739,28.099737860150384,18.8325],[-14.49937903554121,28.087713934369106,0.0],[-14.503529426166239,28.075934149212827,0.0],[-14.507252570697489,28.0723941101503,0.0],[-14.495045539447489,28.069037176556634,0.0],[-14.428700324603767,28.0723941101503,44.4135],[-14.40849768788496,28.068182684369134,83.4305],[-14.369191047260017,28.051947332806606,0.0],[-14.343312141009989,28.0518862976503,60.3541],[-14.30150305897871,28.069098211712856,0.0],[-14.271534797260017,28.097357489056634,0.0],[-14.244679328509989,28.1303775085878,0.0]]]}
,"properties": {"featurecla": "Island","name": "Fuerteventura","namealt": null,"region": "Africa","subregion": "North Atlantic Ocean","min_label": 6.7,"max_label": 12.0,"scalerank": 7,"area_km2": 1640.641,"hist_schema_id": "Elevation0-9000","hist_area_km2": {"0": 81.226,"25": 112.243,"50": 126.735,"75": 145.467,"100": 145.928,"125": 133.22,"150": 136.589,"175": 134.661,"200": 112.041,"225": 97.414,"250": 77.511,"275": 67.219,"300": 60.618,"325": 46.816,"350": 37.378,"375": 28.481,"400": 22.475,"425": 17.254,"450": 13.634,"475": 11.806,"500": 8.786,"525": 6.903,"550": 5.243,"575": 4.216,"600": 2.556,"625": 1.866,"650": 1.157,"675": 0.598,"700": 0.262,"725": 0.243,"750": 0.056,"775": 0.037}}}