{"type":"Feature","properties":{"featurecla":"Island","name":"Gran Canaria","namealt":null,"region":"Africa","subregion":"North Atlantic Ocean","min_label":5.3,"max_label":10.0,"scalerank":5},
"geometry":{"type": "Polygon","coordinates": [[[-15.415821906635017,28.142645574994106,4.1814],[-15.408741828509989,28.154913641400327,0.0],[-15.400257941791239,28.158392645306634,0.0],[-15.400013801166267,28.166266180462827,0.0],[-15.40538489491621,28.179144598431577,0.0],[-15.409413215228739,28.1809146179628,0.0],[-15.438893195697489,28.176031805462884,0.0],[-15.435170051166239,28.142157293744106,0.0],[-15.458912726947489,28.135443426556577,0.0],[-15.521473762103739,28.148749090619106,57.7933],[-15.59715735585371,28.148749090619106,0.0],[-15.650929328510017,28.165045477337856,25.7487],[-15.665394660541239,28.1617495789003,0.0],[-15.67461096913496,28.166449285931577,0.0],[-15.684559699603739,28.168829657025327,16.4714],[-15.695179816791267,28.169378973431549,0.0],[-15.706410285541267,28.168585516400356,0.0],[-15.700184699603739,28.154120184369049,9.2257],[-15.698292609759989,28.1342837585878,42.0634],[-15.702320930072517,28.116217352337856,45.1075],[-15.713856574603767,28.107123114056577,0.0],[-15.708485480853739,28.083136297650356,102.6427],[-15.72533118397871,28.058111883587827,432.7465],[-15.749989387103767,28.037176824994134,407.6448],[-15.767811652728739,28.025152899212856,450.1722],[-15.807118293353767,28.006170965619106,67.3678],[-15.816273566791267,27.997259832806577,21.2692],[-15.82079016835371,27.985296942181634,381.0173],[-15.821888801166239,27.969549871869106,530.017],[-15.82024085194746,27.954046942181549,322.2119],[-15.816273566791267,27.942633367962827,238.0509],[-15.821400519916239,27.922919012494106,395.8818],[-15.81517493397871,27.902411199994106,363.579],[-15.786122199603739,27.845404364056634,180.8842],[-15.782154914447517,27.839667059369106,203.6031],[-15.77293860585371,27.833197332806634,192.3948],[-15.752064582416239,27.822516180462884,112.0873],[-15.74803626210371,27.815741278119134,178.4919],[-15.739857551166239,27.8055484070253,36.4158],[-15.685902473041267,27.764532782025384,16.1553],[-15.66972815663496,27.758307196087856,24.6278],[-15.650685187884989,27.754278875775327,7.7343],[-15.607411262103739,27.7514712585878,39.3217],[-15.597889777728767,27.747503973431577,12.4595],[-15.588429328509989,27.740057684369077,2.0213],[-15.578114387103739,27.735541082806634,0.9371],[-15.566151496478795,27.7406070007753,0.0],[-15.53984534413496,27.766852117962827,0.0],[-15.53508460194746,27.767584539837884,0.0],[-15.52354895741621,27.772894598431606,0.0],[-15.453175422259989,27.792425848431577,0.0],[-15.43932044179121,27.803900457806606,8.6975],[-15.407154914447517,27.839483953900384,0.0],[-15.394825812884989,27.847113348431634,0.0],[-15.37791907460371,27.853461004681577,0.0],[-15.376149055072517,27.868719793744077,0.0],[-15.382923957416267,27.886664129681606,0.0],[-15.391713019916267,27.901068426556606,15.0537],[-15.382069465228767,27.922430731244106,0.0],[-15.374806281634989,27.931097723431606,0.0],[-15.363758918353767,27.935797430462856,30.7325],[-15.363758918353767,27.942633367962827,0.0],[-15.376881476947489,27.958685614056606,0.0],[-15.374256965228767,27.976690985150356,0.0],[-15.366444465228767,27.994696356244077,0.0],[-15.363758918353767,28.010931707806606,0.0],[-15.367787238666295,28.0169741882753,0.0],[-15.383656379291239,28.025458074994134,0.0],[-15.391713019916267,28.031439520306606,0.0],[-15.399769660541239,28.043890692181577,0.0],[-15.40404212147871,28.057501532025384,0.0],[-15.406361457416239,28.069281317181577,0.0],[-15.408741828509989,28.076117254681549,0.0],[-15.415089484760045,28.115668035931634,0.0],[-15.415821906635017,28.142645574994106,4.1814]]]}}