{"type":"Feature","properties":{"featurecla":"Island","name":"Hierro","namealt":null,"region":"Africa","subregion":"North Atlantic Ocean","min_label":6.7,"max_label":12.0,"scalerank":7},
"geometry":{"type": "Polygon","coordinates": [[[-17.88530432850996,27.799139715619134,0.0],[-17.879444953510017,27.815741278119134,0.0],[-17.884144660541267,27.828802801556634,0.0],[-17.896595832416239,27.841498114056549,0.0],[-17.914173957416267,27.850775457806577,0.0],[-17.934071418353739,27.853277899212856,0.0],[-17.968800422259989,27.833441473431606,1.502],[-17.990040656634989,27.824957586712856,0.0],[-17.994252082416239,27.819891668744077,0.0],[-17.995533820697517,27.809210516400327,0.0],[-18.003346320697517,27.800055242962827,0.0],[-18.04210364491621,27.766424871869106,0.0],[-18.056935187885017,27.757696844525327,36.2921],[-18.097950812885017,27.766546942181549,0.0],[-18.14061438710371,27.769964910931634,0.0],[-18.16740882069746,27.758795477337856,0.0],[-18.160572883197489,27.723578192181606,10.5337],[-18.146839973041239,27.709784246869134,117.5551],[-18.12706458241621,27.701483465619134,0.0],[-18.053273078509989,27.692389227337827,11.3444],[-18.039967414447517,27.682501532025356,0.0],[-18.030873176166239,27.669134832806606,0.0],[-18.015980598041239,27.654669500775384,0.0],[-17.994252082416239,27.643377996869106,35.1007],[-17.979664680072489,27.643683172650356,31.9396],[-17.97142493397871,27.655585028119106,171.7074],[-17.968800422259989,27.678839422650327,42.5119],[-17.965443488666239,27.688238836712884,134.0137],[-17.957936164447517,27.695135809369077,0.0],[-17.950428840228795,27.700751043744049,0.0],[-17.947071906635017,27.705877996869134,0.0],[-17.94530188710371,27.711981512494134,0.0],[-17.940785285541267,27.714911199994106,0.0],[-17.93529212147871,27.716864324994049,0.0],[-17.930287238666267,27.719855047650327,0.0],[-17.927113410541239,27.725531317181549,0.0],[-17.927113410541239,27.731512762494106,0.0],[-17.927784797259989,27.737738348431549,16.8058],[-17.926564094135017,27.743963934369077,61.919],[-17.88530432850996,27.799139715619134,0.0]]]}}