{"type":"Feature","properties":{"featurecla":"Island","name":"La Palma","namealt":null,"region":"Africa","subregion":"North Atlantic Ocean","min_label":6.7,"max_label":12.0,"scalerank":7},
"geometry":{"type": "Polygon","coordinates": [[[-17.866017219135017,28.841864324994106,0.0],[-17.889088508197517,28.850653387494106,0.0],[-17.906727668353767,28.854437567181577,22.5965],[-17.936512824603795,28.841559149212827,54.0225],[-17.970814582416267,28.814398504681606,94.0159],[-17.996937629291267,28.781317449994106,429.4183],[-18.002308723041295,28.750799871869106,0.0],[-17.992482062885017,28.739752508587884,0.0],[-17.976307746478739,28.7293765320253,514.3569],[-17.961171027728739,28.716986395306549,579.6364],[-17.954518195697517,28.699835516400327,539.4706],[-17.949574348041295,28.680243231244134,461.2208],[-17.912953254291295,28.627936102337827,271.0583],[-17.903187629291239,28.589056707806606,246.5789],[-17.89598548085371,28.573004461712827,57.0245],[-17.88255774647871,28.566412664837827,492.5328],[-17.875416633197489,28.556647039837884,531.0131],[-17.865162726947517,28.490729071087856,175.253],[-17.858693000385045,28.481146551556577,256.5531],[-17.84306800038496,28.466192938275327,193.4848],[-17.837208625385017,28.456549383587827,12.3342],[-17.83104407460371,28.456549383587827,0.0],[-17.821766730853767,28.476996160931606,0.0],[-17.791981574603739,28.5109927429628,0.0],[-17.772816535541239,28.549139715619049,0.0],[-17.74693762929121,28.588690496869134,0.0],[-17.741627570697489,28.603705145306577,0.0],[-17.743824836322489,28.625311590619134,0.0],[-17.753651496478739,28.664374090619077,0.0],[-17.755970832416267,28.686529852337856,0.0],[-17.748890754291267,28.702093817181549,0.0],[-17.719349738666267,28.732184149212856,0.0],[-17.71489417225996,28.750799871869106,0.0],[-17.724964973041267,28.763190008587856,0.0],[-17.743519660541239,28.780340887494077,0.0],[-17.757923957416239,28.799872137494077,0.0],[-17.755970832416267,28.819708563275327,0.0],[-17.765126105853767,28.830572821087827,0.0],[-17.781666633197489,28.843451239056577,0.0],[-17.801564094135045,28.850470282025384,0.0],[-17.841847297259989,28.836676336712827,2.0308],[-17.866017219135017,28.841864324994106,0.0]]]}}