{"type":"Feature","properties":{"featurecla":"Island","name":"Lanzarote","namealt":null,"region":"Africa","subregion":"North Atlantic Ocean","min_label":6.7,"max_label":12.0,"scalerank":7},
"geometry":{"type": "Polygon","coordinates": [[[-13.458851691791239,29.148627020306577,67.0456],[-13.438954230853767,29.160162664837827,53.107],[-13.431630012103767,29.173651434369106,28.7009],[-13.427723762103767,29.189947821087856,21.4791],[-13.417897101947517,29.210089422650356,0.0],[-13.446766730853739,29.234198309369106,0.0],[-13.465565558978767,29.244513250775356,0.0],[-13.48314368397871,29.241095282025384,0.0],[-13.495594855853739,29.226263739056577,0.0],[-13.503346320697517,29.209295965619077,0.0],[-13.51414954335371,29.175970770306634,147.3518],[-13.526295539447489,29.151495672650327,0.0],[-13.537403937885045,29.139410711712856,0.0],[-13.551319953510017,29.135382391400327,0.0],[-13.602528449603767,29.135504461712856,0.0],[-13.61839759022871,29.133612371869106,0.0],[-13.637013312884989,29.128119207806577,0.0],[-13.656666633197489,29.117193914837856,8.3285],[-13.690358039447517,29.092108465619106,5.3503],[-13.709034797260017,29.087225653119077,0.0],[-13.731556769916267,29.085882879681577,0.0],[-13.750721808978767,29.081854559369049,0.0],[-13.76695716054121,29.075201727337827,0.0],[-13.781056281635017,29.066107489056634,0.0],[-13.798695441791267,29.049261785931577,0.0],[-13.832264777728767,29.001532293744134,0.0],[-13.83525550038496,28.988348699994106,0.0],[-13.839222785541267,28.9390933289003,0.0],[-13.843129035541267,28.922674871869134,0.0],[-13.853627082416267,28.906134344525356,23.1027],[-13.86204993397871,28.898627020306606,0.0],[-13.873158332416267,28.895392157025384,0.0],[-13.87645423085371,28.889960028119134,5.1224],[-13.87376868397871,28.877997137494077,28.4838],[-13.867421027728739,28.866034246869049,18.4068],[-13.85985266835371,28.860663153119106,6.0578],[-13.812245246478767,28.860235907025327,9.2654],[-13.79167639882246,28.854620672650327,10.2817],[-13.781056281635017,28.840765692181549,0.0],[-13.774830695697489,28.840765692181549,0.0],[-13.757313605853767,28.871527410931606,42.9507],[-13.73625647694746,28.897650457806606,0.0],[-13.709401008197489,28.915838934369077,4.6159],[-13.67454993397871,28.922674871869134,30.8162],[-13.65861975819746,28.9238345398378,37.0874],[-13.635609504291267,28.928473211712856,0.5147],[-13.619984504291267,28.929571844525327,0.0],[-13.607777473041267,28.9338443054628,0.0],[-13.599903937884989,28.943182684369049,0.0],[-13.590077277728739,28.952582098431606,10.327],[-13.543202277728767,28.962897039837856,13.8547],[-13.51060950429121,28.978705145306577,0.0],[-13.482167121478767,29.000677801556634,3.8708],[-13.465687629291295,29.025091864056634,33.1607],[-13.464711066791267,29.033392645306634,0.0],[-13.46635901600996,29.050970770306577,3.8281],[-13.465687629291295,29.059271551556577,9.4927],[-13.46245276600996,29.066961981244134,15.485],[-13.454029914447517,29.080145574994049,14.0363],[-13.45207678944746,29.087225653119077,23.9446],[-13.454213019916267,29.105292059369134,0.0],[-13.459339973041239,29.119757391400356,0.0],[-13.462574836322489,29.133368231244077,8.8719],[-13.458851691791239,29.148627020306577,67.0456]]]}}