{"type":"Feature","properties":{"featurecla":"Island","name":"Tenerife","namealt":null,"region":"Africa","subregion":"North Atlantic Ocean","min_label":5.4,"max_label":10.0,"scalerank":5},
"geometry":{"type": "Polygon","coordinates": [[[-16.117909308978739,28.573248602337884,0.0],[-16.141468879291239,28.5846011414003,2.5831],[-16.202870246478739,28.565252996869049,165.0376],[-16.300282355853767,28.567877508587856,270.6414],[-16.31651770741621,28.573248602337884,4.7492],[-16.322865363666267,28.554632879681606,516.7811],[-16.341236945697489,28.547796942181549,181.2199],[-16.36345374257246,28.544195867962827,89.2781],[-16.381398078509989,28.5354068054628,114.25],[-16.389515754291239,28.529913641400356,102.8818],[-16.408436652728795,28.521063543744106,148.3182],[-16.412159797260045,28.514960028119106,177.2641],[-16.414418098041267,28.500372625775356,326.9068],[-16.420521613666267,28.491827703900327,338.3371],[-16.440052863666239,28.476385809369077,236.4674],[-16.49809729725996,28.419012762494106,332.6995],[-16.506947394916267,28.416510321087827,250.6686],[-16.528370734759989,28.4233462585878,0.0],[-16.539051887103739,28.419012762494106,0.0],[-16.556324836322517,28.401800848431577,144.684],[-16.563832160541239,28.3980777039003,189.1013],[-16.57658850819746,28.3945376648378,201.5125],[-16.644520637103739,28.397650457806606,16.4482],[-16.66289221913496,28.391424871869077,128.6642],[-16.679615851947489,28.381842352337884,202.1644],[-16.69817053944746,28.3775698914003,215.4147],[-16.741749641010045,28.374640203900327,53.5022],[-16.770253058978767,28.367499090619106,261.3309],[-16.782643195697517,28.367193914837827,119.7608],[-16.794361945697517,28.370306707806634,52.6271],[-16.81700598866621,28.379584051556577,27.99],[-16.826771613666239,28.3814761414003,44.4163],[-16.892750617572489,28.360663153119134,398.6483],[-16.905568000385017,28.353522039837884,231.3707],[-16.906788703509989,28.336310125775327,0.0],[-16.873585578509989,28.306463934369106,532.5208],[-16.861378547259989,28.283026434369106,282.3534],[-16.847401496478767,28.263678289837884,0.0],[-16.84410559804121,28.254217840619106,0.0],[-16.837269660541239,28.210150457806606,4.1862],[-16.82701575429121,28.196966864056577,21.3318],[-16.810658332416239,28.1831118835878,35.994],[-16.795521613666267,28.166449285931577,134.5619],[-16.78886878163496,28.145025946087856,61.0131],[-16.780812141009989,28.1290347351503,37.2705],[-16.741810676166267,28.095038153119106,56.1965],[-16.728016730853795,28.079840399212827,58.8509],[-16.72612464100996,28.072638250775356,73.98],[-16.724293586322545,28.053900457806577,47.184],[-16.721241828510045,28.045660711712856,0.0],[-16.71342932850996,28.039496160931549,0.0],[-16.704213019916239,28.036139227337884,131.6789],[-16.696522590228767,28.029730535931606,133.5461],[-16.693348762103739,28.014288641400384,103.6272],[-16.685170051166267,27.994940496869134,0.0],[-16.665882941791239,27.9917056335878,0.0],[-16.64305579335371,27.997259832806577,0.0],[-16.58678137929121,28.018866278119134,0.0],[-16.569081183978739,28.023504949994077,0.0],[-16.54588782460371,28.025152899212856,2.8761],[-16.526112433978767,28.030462957806577,0.0],[-16.50963294179121,28.043768621869134,0.0],[-16.45689856679121,28.116705633587856,0.0],[-16.441151496478795,28.133978582806634,0.0],[-16.42296301991621,28.141302801556606,0.0],[-16.417591926166295,28.152716375775327,0.0],[-16.398487922260017,28.223211981244106,0.0],[-16.363331672260045,28.277044989056549,0.0],[-16.35753333241621,28.295233465619106,0.0],[-16.348988410541239,28.304205633587884,0.0],[-16.346913215228767,28.305792547650327,0.0],[-16.342762824603739,28.307928778119134,0.0],[-16.344532844135017,28.3129946960878,0.0],[-16.348500129291239,28.318915106244049,0.0],[-16.350636359760017,28.323431707806577,0.0],[-16.353688117572517,28.3448550476503,0.0],[-16.354054328510017,28.356146551556577,0.0],[-16.350636359760017,28.367193914837827,0.0],[-16.343068000384989,28.375311590619077,0.0],[-16.30974280507246,28.3945376648378,0.0],[-16.281849738666239,28.418341375775356,0.0],[-16.279286262103767,28.422430731244106,0.0],[-16.268116828509989,28.429388739056577,0.0],[-16.227772590228739,28.470221258587856,0.0],[-16.143299933978767,28.508490301556634,0.0],[-16.11137854725996,28.535040594525327,0.0],[-16.117909308978739,28.573248602337884,0.0]]]}}