{"type": "Feature","id": "5824","bbox": [-7.52969,36.80817,-6.12441,38.2093],"geometry": {"type": "Polygon","coordinates": [[[-6.70152,38.09295,479.0924],[-6.74883,38.09364,357.302],[-6.77638,38.10047,441.8399],[-6.78868,38.10615,348.8976],[-6.8019,38.10868,363.2895],[-6.81035,38.11302,299.7285],[-6.81314,38.11881,321.2775],[-6.8119,38.12576,374.3105],[-6.80493,38.13927,459.1863],[-6.80079,38.14558,474.9518],[-6.79555,38.15144,497.5341],[-6.79237,38.15832,548.233],[-6.79268,38.16532,535.026],[-6.7979,38.17294,515.8474],[-6.93381,38.2093,214.9164],[-6.95053,38.19842,278.1908],[-6.95058,38.19839,278.1908],[-6.9475,38.19664,289.045],[-6.95763,38.16816,256.3776],[-6.96549,38.15333,213.1345],[-6.97897,38.11995,359.5534],[-6.99763,38.08961,346.9208],[-7.00636,38.05933,347.0212],[-7.01577,38.04683,480.7651],[-7.02399,38.02256,553.0495],[-7.04936,38.02021,489.9073],[-7.10594,38.03866,362.3196],[-7.12326,38.04,349.9041],[-7.13199,38.03238,270.5328],[-7.14191,38.01158,360.0272],[-7.15225,38.00065,416.4507],[-7.15974,37.9968,400.5953],[-7.17286,37.99383,363.7681],[-7.18527,37.98869,282.6569],[-7.19762,37.98993,281.296],[-7.21033,37.99303,291.7939],[-7.2233,37.99383,288.0396],[-7.23405,37.98807,305.8435],[-7.26583,37.98295,275.6989],[-7.2727,37.97701,294.432],[-7.27214,37.96895,346.2902],[-7.26909,37.95944,405.3152],[-7.26862,37.94924,198.1452],[-7.27389,37.93154,166.7035],[-7.2958,37.88487,202.634],[-7.30686,37.85077,192.5358],[-7.33441,37.81193,110.3273],[-7.42634,37.75062,140.8749],[-7.44401,37.73015,124.549],[-7.45755,37.70008,118.2158],[-7.46634,37.65197,79.1822],[-7.47161,37.6369,53.198],[-7.47848,37.62887,58.7802],[-7.50489,37.60639,52.9936],[-7.51434,37.6014,92.3158],[-7.51176,37.59528,111.5354],[-7.51253,37.59037,115.4579],[-7.51465,37.58587,84.4979],[-7.51584,37.58094,98.0712],[-7.52649,37.5712,156.0025],[-7.52969,37.56717,126.3152],[-7.52912,37.5567,1.4323],[-7.5276,37.55551,4.5108],[-7.52367,37.55567,12.8499],[-7.51843,37.54195,49.8384],[-7.51755,37.53518,49.995],[-7.51543,37.52934,45.435],[-7.51461,37.52833,19.3999],[-7.50633,37.51812,97.0855],[-7.49863,37.51166,85.6761],[-7.48148,37.50037,36.5823],[-7.47595,37.49425,0.0],[-7.46887,37.47557,0.0],[-7.46292,37.45113,72.989],[-7.46003,37.42914,5.7269],[-7.46225,37.41787,53.1918],[-7.44499,37.38676,32.8147],[-7.43745,37.30734,15.6181],[-7.42758,37.27452,7.7764],[-7.43424,37.25933,0.0],[-7.42939,37.23675,2.3209],[-7.41442,37.19282,5.4192],[-7.39851,37.18545,0.3473],[-7.38142,37.17992,0.9643],[-7.3629,37.18171,0.839],[-7.34309,37.19623,0.6154],[-7.32787,37.20156,4.347],[-7.08556,37.20649,1.3077],[-7.09899,37.2119,0.0],[-7.12735,37.21475,0.0],[-7.10104,37.22425,25.7243],[-7.06168,37.21393,9.8234],[-7.02937,37.20551,13.8498],[-6.94164,37.17109,1.9869],[-6.92846,37.17235,0.7216],[-6.93008,37.18317,0.0],[-6.94074,37.20067,0.0],[-6.96255,37.22761,1.7888],[-6.96255,37.23383,3.6381],[-6.93114,37.23387,3.9067],[-6.90347,37.24958,1.271],[-6.85269,37.29523,1.5537],[-6.86413,37.27753,0.9831],[-6.89875,37.23579,1.5392],[-6.91076,37.22761,1.6815],[-6.91763,37.21507,14.2096],[-6.91088,37.18895,6.8536],[-6.89289,37.16657,5.7542],[-6.87328,37.15868,10.2993],[-6.85302,37.15111,14.0321],[-6.81176,37.12372,0.0],[-6.79467,37.11774,0.0],[-6.77147,37.11278,39.8577],[-6.74486,37.10139,38.2932],[-6.49958,36.95966,1.9671],[-6.4711,36.93561,5.6893],[-6.44864,36.9042,0.0],[-6.41625,36.8378,0.0],[-6.38801,36.80817,6.5824],[-6.35245,36.80858,10.3858],[-6.34667,36.81989,0.0],[-6.35245,36.88028,0.7275],[-6.34472,36.90127,0.9767],[-6.33907,36.9047,0.9895],[-6.37834,36.93404,0.9186],[-6.35432,36.98517,0.6972],[-6.37995,37.04807,0.6795],[-6.38162,37.0615,0.6579],[-6.38015,37.07345,0.9771],[-6.37543,37.08426,1.0604],[-6.35577,37.10709,0.9388],[-6.35288,37.11414,1.0066],[-6.35404,37.14601,1.2018],[-6.34411,37.17673,18.7494],[-6.35529,37.23557,38.919],[-6.35324,37.24739,47.7146],[-6.3409,37.27567,47.4874],[-6.33924,37.2896,55.3295],[-6.34615,37.30385,84.6713],[-6.37883,37.32809,99.4041],[-6.38037,37.33945,96.1269],[-6.37446,37.3475,126.3942],[-6.35974,37.35978,104.7589],[-6.35729,37.37141,74.9827],[-6.36415,37.39817,115.5955],[-6.35959,37.40676,82.5216],[-6.35027,37.41159,78.9801],[-6.32763,37.41465,56.034],[-6.31766,37.42028,49.837],[-6.31355,37.42889,41.0],[-6.31519,37.43823,47.9753],[-6.35603,37.49615,113.9104],[-6.37526,37.54624,269.1258],[-6.40134,37.57541,287.3121],[-6.39414,37.60423,266.9092],[-6.44319,37.62344,320.0114],[-6.50581,37.62166,216.0676],[-6.53138,37.63172,193.6273],[-6.52773,37.65804,241.6931],[-6.52249,37.66396,211.7446],[-6.50333,37.67753,255.043],[-6.46896,37.72469,308.8198],[-6.44894,37.73441,399.7109],[-6.31107,37.76485,468.0313],[-6.26622,37.76426,255.1955],[-6.25555,37.75691,325.0764],[-6.25359,37.75131,239.7107],[-6.25195,37.73962,237.0903],[-6.24754,37.73399,204.8816],[-6.24183,37.7308,242.1948],[-6.22849,37.72888,198.4981],[-6.22199,37.72938,240.3354],[-6.21643,37.73417,335.1728],[-6.21416,37.74378,275.2735],[-6.21526,37.78332,406.9149],[-6.20287,37.7991,460.7982],[-6.18503,37.80341,452.9257],[-6.14705,37.79367,330.3419],[-6.12441,37.80466,318.0371],[-6.14671,37.84848,400.9546],[-6.12707,37.90722,444.6631],[-6.13557,37.91049,445.6405],[-6.15818,37.91179,438.9719],[-6.16704,37.90899,409.374],[-6.18326,37.93898,428.3913],[-6.20029,37.95197,457.7047],[-6.33087,37.99461,586.3409],[-6.35627,38.00001,645.5921],[-6.35679,38.00073,637.0306],[-6.35943,38.00641,650.0739],[-6.36129,38.01326,658.0509],[-6.36501,38.02119,711.7002],[-6.37242,38.03117,864.1039],[-6.41307,38.0537,855.9951],[-6.42397,38.0568,805.7213],[-6.4343,38.05721,828.7367],[-6.44268,38.05535,698.7809],[-6.44957,38.0514,623.2747],[-6.45345,38.04566,602.8452],[-6.45875,38.03969,587.6682],[-6.47368,38.02959,659.3452],[-6.47898,38.02502,687.0054],[-6.48123,38.01936,513.478],[-6.48479,38.01639,442.9514],[-6.49924,38.01494,457.1082],[-6.52391,38.0213,674.8095],[-6.57171,38.02386,650.4191],[-6.5776,38.02851,657.1222],[-6.58008,38.03507,693.2486],[-6.57941,38.04259,736.246],[-6.58148,38.05,729.4249],[-6.5844,38.05682,686.3211],[-6.60336,38.07752,592.7985],[-6.61734,38.08677,536.439],[-6.63036,38.09085,496.3829],[-6.64463,38.09375,469.3212],[-6.67744,38.09602,431.1367],[-6.70152,38.09295,479.0924]]]}
,"properties": {"ISO3166-1-Alpha-3": "ESP","country": "Spain","fill": "#00F","name": "Huelva","area_km2": 10128.646,"hist_schema_id": "Elevation0-9000","hist_area_km2": {"0": 694.371,"25": 720.509,"50": 788.761,"75": 636.839,"100": 646.446,"125": 638.494,"150": 621.619,"175": 557.273,"200": 516.791,"225": 444.802,"250": 386.147,"275": 319.441,"300": 282.005,"325": 274.43,"350": 287.209,"375": 276.683,"400": 262.223,"425": 249.702,"450": 233.333,"475": 214.354,"500": 189.027,"525": 173.635,"550": 148.76,"575": 127.993,"600": 107.943,"625": 84.404,"650": 69.656,"675": 57.401,"700": 38.44,"725": 28.273,"750": 19.962,"775": 12.79,"800": 9.464,"825": 5.418,"850": 2.542,"875": 0.953,"900": 0.418,"925": 0.084}}}