{"type":"Feature","properties":{"GID_3":"ESP.5.3.8_1","GID_0":"ESP","country":"Spain","GID_1":"ESP.5_1","province":"CastillayLeón","NL_NAME_1":"NA","GID_2":"ESP.5.3_1","county":"León","NL_NAME_2":"NA","city":"n.a.(155)","VARNAME_3":"NA","NL_NAME_3":"NA","TYPE_3":"Comarca","ENGTYPE_3":"Comarca","CC_3":"NA","HASC_3":"NA","name":"n.a.(155).city"},
"geometry":{"type": "MultiPolygon","coordinates": [[[[-5.8191,42.1547,749.1653],[-5.8153,42.1604,735.6216],[-5.8242,42.1602,736.7247],[-5.8253,42.1617,749.3002],[-5.8161,42.1761,743.1097],[-5.8247,42.1982,744.5782],[-5.8223,42.2019,747.241],[-5.8237,42.2039,744.0591],[-5.8168,42.2119,747.6],[-5.8219,42.2228,768.4115],[-5.8186,42.2323,758.0097],[-5.8281,42.2335,750.3154],[-5.8325,42.2372,751.0815],[-5.8276,42.2373,754.971],[-5.8205,42.2421,755.9363],[-5.8176,42.2517,771.2933],[-5.7997,42.2766,779.1321],[-5.8235,42.2768,771.7932],[-5.8386,42.284,765.4688],[-5.8447,42.291,775.2488],[-5.8416,42.2967,777.2028],[-5.8365,42.2979,777.5745],[-5.8366,42.3007,778.9602],[-5.8414,42.3014,779.4935],[-5.8424,42.3029,779.3495],[-5.8408,42.3043,780.0803],[-5.8476,42.3035,779.2506],[-5.8493,42.3059,780.0457],[-5.847,42.3071,780.6207],[-5.8488,42.3115,781.5226],[-5.8524,42.3137,781.5835],[-5.8608,42.312,777.3325],[-5.865,42.314,779.8419],[-5.8719,42.3145,773.8173],[-5.8817,42.319,773.171],[-5.8726,42.3224,785.8024],[-5.8701,42.3377,781.8763],[-5.8719,42.3374,786.9292],[-5.8734,42.3442,795.0837],[-5.8761,42.3475,785.2088],[-5.8695,42.3505,789.7025],[-5.8709,42.3663,789.2253],[-5.8695,42.3707,795.45],[-5.8725,42.3733,805.6815],[-5.8702,42.3775,793.3235],[-5.8728,42.3793,795.0496],[-5.8755,42.388,811.3167],[-5.8752,42.3967,795.0532],[-5.8768,42.3954,794.2],[-5.8809,42.3972,795.736],[-5.882,42.4004,796.4876],[-5.8853,42.4001,796.6598],[-5.8837,42.396,796.054],[-5.8932,42.3953,796.363],[-5.8896,42.3991,798.0103],[-5.8976,42.4006,797.596],[-5.8996,42.4064,799.5267],[-5.9039,42.4045,802.1089],[-5.9096,42.4076,801.9385],[-5.9085,42.4096,803.3165],[-5.9122,42.4097,802.3275],[-5.9177,42.4166,805.9611],[-5.9298,42.4192,813.95],[-5.9505,42.4205,897.1517],[-5.9524,42.4186,891.143],[-5.9528,42.4089,815.5809],[-5.9599,42.4072,806.2872],[-5.9611,42.4054,802.7937],[-5.9558,42.3992,803.3674],[-5.9682,42.3932,803.6957],[-5.9819,42.4072,810.4149],[-5.9927,42.4004,821.4263],[-5.9994,42.3982,825.0707],[-6.0002,42.3962,824.105],[-5.9982,42.394,822.753],[-6.0031,42.3859,822.7364],[-6.0008,42.3808,820.412],[-6.0089,42.3622,892.8563],[-6.0062,42.3621,887.7914],[-6.0069,42.3559,875.3281],[-6.0199,42.359,879.8869],[-6.0284,42.3523,878.4285],[-6.0702,42.3546,929.4409],[-6.1186,42.3657,1053.5909],[-6.1456,42.3762,1080.3827],[-6.155,42.3669,1022.915],[-6.1604,42.359,990.611],[-6.1685,42.3593,977.9885],[-6.1759,42.3565,961.0677],[-6.1705,42.3501,945.1891],[-6.1646,42.3504,935.7027],[-6.1588,42.3469,951.4917],[-6.169,42.3334,970.1251],[-6.1729,42.3174,942.7161],[-6.1628,42.3145,932.1472],[-6.1591,42.3169,928.2941],[-6.1618,42.3134,931.9936],[-6.1653,42.2971,925.7086],[-6.1697,42.2915,943.8515],[-6.1644,42.2885,933.2396],[-6.1777,42.2856,912.9583],[-6.1912,42.2651,1195.6128],[-6.185,42.2569,1109.1375],[-6.1721,42.2536,1032.3843],[-6.1659,42.2559,999.7108],[-6.1607,42.2549,1042.5125],[-6.1365,42.2418,1074.8958],[-6.1239,42.2286,1074.2145],[-6.1212,42.2285,1075.8715],[-6.1046,42.2192,1025.7734],[-6.0945,42.2247,878.6837],[-6.0818,42.2236,872.3374],[-6.0584,42.2288,859.8835],[-6.0489,42.2284,858.1885],[-6.0464,42.227,859.5167],[-6.0461,42.2219,862.3657],[-6.0541,42.2103,871.4612],[-6.0495,42.1973,839.1133],[-6.0727,42.1907,847.3656],[-6.0699,42.1651,882.2094],[-6.0755,42.1619,868.7132],[-6.0287,42.1576,901.9358],[-5.9897,42.1434,869.9059],[-5.9742,42.1302,866.783],[-5.9608,42.1272,856.2284],[-5.9533,42.1237,853.4058],[-5.9521,42.135,806.8205],[-5.948,42.1419,819.6857],[-5.9356,42.1412,792.9152],[-5.9315,42.1394,788.6318],[-5.9265,42.1407,775.0016],[-5.9115,42.1406,773.0933],[-5.9059,42.1439,788.4872],[-5.8973,42.1561,824.2336],[-5.8904,42.15,844.6432],[-5.8809,42.1453,836.0682],[-5.8847,42.1384,802.7871],[-5.8667,42.1201,795.4415],[-5.8447,42.1107,742.6914],[-5.8407,42.1126,741.0226],[-5.838,42.1188,759.2941],[-5.832,42.1194,763.6935],[-5.812,42.1265,736.3151],[-5.8064,42.1305,732.2131],[-5.8045,42.1298,731.6512],[-5.8062,42.1277,730.6232],[-5.8052,42.1246,729.4005],[-5.798,42.1276,743.3586],[-5.7911,42.1273,748.851],[-5.7878,42.1334,749.1105],[-5.78,42.1353,750.7902],[-5.7829,42.1389,752.0458],[-5.7783,42.1423,752.4003],[-5.7822,42.1512,753.5505],[-5.7834,42.1517,753.3523],[-5.7854,42.1493,752.3052],[-5.7873,42.1532,749.1926],[-5.807,42.1476,743.7291],[-5.8072,42.151,734.1659],[-5.8097,42.1525,734.793],[-5.8142,42.1519,737.8579],[-5.8191,42.1547,749.1653]]]]}}