{"type": "Feature","bbox": [-6.1986,40.2777,-5.6227,40.6884],"geometry": {"type": "MultiPolygon","coordinates": [[[[-5.8522,40.337,932.5651],[-5.8498,40.3382,885.9943],[-5.8536,40.3315,859.4138],[-5.847,40.3281,1051.761],[-5.8248,40.3442,1167.1119],[-5.8225,40.3479,1180.0388],[-5.8167,40.3509,1133.5687],[-5.8083,40.35,1256.6956],[-5.7974,40.3533,1565.045],[-5.7938,40.3485,1401.0752],[-5.7819,40.3125,1566.8735],[-5.7892,40.3065,1411.5957],[-5.7932,40.3003,1251.2107],[-5.8026,40.2976,1157.6252],[-5.793,40.2867,1556.702],[-5.7649,40.2808,2153.6216],[-5.7578,40.2825,2183.7227],[-5.7443,40.2889,2359.5093],[-5.7287,40.3039,2409.9788],[-5.729,40.3104,2312.0129],[-5.7142,40.3253,2347.0679],[-5.7077,40.3302,2309.5161],[-5.69,40.3377,2353.6318],[-5.6859,40.3438,2224.8118],[-5.6729,40.3485,2093.4229],[-5.6862,40.3554,1961.7009],[-5.685,40.3579,1937.618],[-5.687,40.3612,1928.1925],[-5.6867,40.3764,1780.3552],[-5.6783,40.3867,1684.0598],[-5.6849,40.3954,1401.066],[-5.6875,40.4157,1237.4153],[-5.6918,40.4195,1320.3352],[-5.6911,40.422,1293.9167],[-5.6748,40.4272,1189.4362],[-5.6707,40.432,1225.4169],[-5.6564,40.4368,1126.8308],[-5.6436,40.4463,1026.7119],[-5.6341,40.4604,1000.7414],[-5.6263,40.4627,989.9919],[-5.6227,40.4658,995.3987],[-5.6385,40.4775,978.2524],[-5.6446,40.4749,951.163],[-5.6505,40.4745,990.8256],[-5.6542,40.4698,997.5054],[-5.6618,40.4661,1021.433],[-5.6773,40.4618,1038.4432],[-5.6861,40.4604,1090.839],[-5.6942,40.4631,1216.9429],[-5.7003,40.4663,1117.373],[-5.6982,40.4696,1183.5674],[-5.7,40.4733,1112.5989],[-5.7072,40.4793,916.2851],[-5.7026,40.4862,994.9827],[-5.7044,40.4907,963.9388],[-5.7201,40.4901,821.8694],[-5.7193,40.5003,837.2766],[-5.727,40.5045,892.0693],[-5.724,40.5078,888.2809],[-5.7238,40.5144,910.6709],[-5.7197,40.5204,968.2177],[-5.7186,40.5259,1096.0118],[-5.758,40.5214,981.3233],[-5.7711,40.5237,934.4981],[-5.7669,40.5309,987.6564],[-5.7706,40.5377,1087.7438],[-5.7677,40.5536,973.5833],[-5.7687,40.5723,1033.7119],[-5.7717,40.5794,1003.0305],[-5.7692,40.5947,923.2319],[-5.7711,40.5974,917.1837],[-5.7873,40.6015,912.8536],[-5.7919,40.6075,924.6451],[-5.7961,40.6101,901.0389],[-5.7992,40.6218,898.7985],[-5.8129,40.6323,909.9211],[-5.8116,40.6349,913.3765],[-5.8048,40.6385,906.2931],[-5.8052,40.6403,916.0995],[-5.8015,40.6414,921.9203],[-5.8022,40.6425,926.9515],[-5.7923,40.6449,937.5182],[-5.7844,40.6412,922.4531],[-5.7784,40.642,961.5764],[-5.761,40.6391,934.3559],[-5.7584,40.6442,953.1016],[-5.7362,40.637,934.9336],[-5.7364,40.6415,935.6856],[-5.7247,40.6483,917.2986],[-5.7258,40.6515,940.1892],[-5.7322,40.6553,957.4644],[-5.7384,40.668,998.5714],[-5.75,40.6771,1033.4141],[-5.7618,40.6818,1138.4866],[-5.7695,40.6884,1066.485],[-5.7725,40.6835,1098.1897],[-5.7939,40.6769,1059.6432],[-5.8092,40.6653,954.3489],[-5.8198,40.6616,955.1724],[-5.8216,40.6577,947.5512],[-5.8246,40.6587,952.5022],[-5.8454,40.6556,939.7844],[-5.8529,40.6638,950.6326],[-5.8637,40.6641,943.5511],[-5.8847,40.6595,1002.6727],[-5.8875,40.6529,978.9708],[-5.8857,40.6456,959.6238],[-5.8887,40.642,963.4977],[-5.8888,40.6346,948.9582],[-5.8947,40.6299,969.5655],[-5.8942,40.6242,958.7981],[-5.89,40.618899999999996,952.9655],[-5.8945,40.618,949.6086],[-5.8972,40.6147,940.1769],[-5.9017,40.6191,962.0123],[-5.9125,40.6238,983.0536],[-5.9157,40.6241,979.0973],[-5.9235,40.62,1004.4449],[-5.9356,40.6295,945.768],[-5.9369,40.6349,937.7516],[-5.9408,40.6383,923.7783],[-5.9505,40.6397,916.4028],[-5.9497,40.6446,916.9323],[-5.9565,40.644,907.444],[-5.9639,40.6508,894.7539],[-5.9684,40.6609,876.7733],[-5.9876,40.6614,906.7385],[-5.9913,40.6578,923.7632],[-5.9957,40.6635,925.1321],[-5.9964,40.6687,921.8914],[-5.9898,40.6817,858.1626],[-5.9927,40.683,860.7303],[-5.9919,40.6843,853.7247],[-5.9959,40.6877,875.0342],[-5.9976,40.687,880.5711],[-5.9948,40.6843,864.3236],[-5.9967,40.6832,881.6306],[-6.0033,40.6863,895.0189],[-6.01,40.6817,899.8691],[-6.0112,40.6791,901.2006],[-6.0176,40.6765,908.3679],[-6.0212,40.6705,914.1841],[-6.0206,40.6636,876.9827],[-6.0261,40.6582,884.972],[-6.0256,40.6615,873.9171],[-6.0313,40.6608,874.2158],[-6.04,40.6655,858.5229],[-6.0474,40.6657,869.6119],[-6.0549,40.6574,865.4329],[-6.0632,40.6587,859.0734],[-6.0729,40.6531,874.2635],[-6.0737,40.6481,895.4822],[-6.0839,40.6401,986.0631],[-6.0868,40.634,1054.1198],[-6.0984,40.6311,998.5022],[-6.1243,40.6346,955.8005],[-6.128,40.6264,943.8796],[-6.1382,40.6198,1008.3157],[-6.1456,40.619,964.8253],[-6.158,40.6215,922.2591],[-6.1612,40.6034,917.4277],[-6.1566,40.5964,942.5001],[-6.1571,40.5921,928.7777],[-6.152,40.5914,946.2349],[-6.1508,40.5867,958.991],[-6.146,40.5826,967.1858],[-6.149,40.583,963.8295],[-6.1525,40.5881,954.269],[-6.1554,40.5893,943.8132],[-6.1577,40.5882,929.1286],[-6.168,40.5892,958.1504],[-6.1713,40.5861,971.1779],[-6.173,40.5717,1009.6106],[-6.1673,40.5576,1033.5607],[-6.1694,40.5499,1054.1975],[-6.1767,40.5376,1258.8328],[-6.1722,40.5285,1366.7551],[-6.1796,40.5248,1551.1658],[-6.1771,40.5246,1567.0667],[-6.1695,40.5166,1654.7284],[-6.1704,40.5132,1668.7533],[-6.1761,40.5093,1510.6023],[-6.1791,40.5038,1540.5709],[-6.1853,40.5011,1616.7595],[-6.184,40.4978,1538.9749],[-6.1883,40.4868,1424.9004],[-6.1986,40.4814,1598.3997],[-6.1911,40.4722,1436.0405],[-6.1876,40.4713,1387.6099],[-6.1865,40.4664,1217.2018],[-6.1803,40.4622,1235.4803],[-6.1691,40.4581,1239.6168],[-6.1576,40.457,938.7807],[-6.1524,40.4526,972.4631],[-6.1558,40.4478,1006.176],[-6.1469,40.4361,641.7239],[-6.1322,40.4369,996.4917],[-6.1201,40.4427,1117.2346],[-6.116,40.4416,1162.4426],[-6.1169,40.4353,777.3668],[-6.1192,40.4351,764.8491],[-6.125,40.4294,589.4259],[-6.1294,40.4208,447.9041],[-6.1188,40.4193,451.4244],[-6.1179,40.4159,421.7114],[-6.107,40.414,423.4635],[-6.104,40.415,423.3025],[-6.0973,40.4131,406.2328],[-6.0927,40.4112,411.7724],[-6.0918,40.408,398.498],[-6.0876,40.4087,397.9377],[-6.085,40.407,392.1077],[-6.0828,40.403,389.0362],[-6.075,40.4034,382.4757],[-6.0738,40.4008,384.9117],[-6.068,40.3993,386.9058],[-6.0648,40.3966,382.2229],[-6.0669,40.3951,381.3223],[-6.0741,40.3958,450.8948],[-6.0761,40.391,386.6797],[-6.0835,40.3923,419.9244],[-6.0852,40.3899,386.7429],[-6.0837,40.3885,385.045],[-6.0724,40.3876,380.5],[-6.0747,40.3822,388.8246],[-6.0841,40.38,389.0826],[-6.0862,40.378,388.9837],[-6.0863,40.3751,385.9754],[-6.0811,40.3731,380.0],[-6.0823,40.3632,380.0],[-6.0858,40.3608,380.0],[-6.0923,40.3617,380.0],[-6.0968,40.3565,380.0],[-6.1021,40.3584,380.0],[-6.1056,40.3568,382.7672],[-6.0676,40.3475,819.4871],[-6.0521,40.3416,995.8867],[-6.0456,40.3429,968.3993],[-6.0276,40.3395,854.1744],[-6.0159,40.3403,602.712],[-6.0195,40.3226,891.4079],[-6.0163,40.3165,954.7474],[-6.0113,40.3133,961.0139],[-6.0061,40.3061,913.0389],[-5.992,40.299,777.318],[-5.9788,40.297,571.3456],[-5.9755,40.2932,536.9536],[-5.9684,40.2896,546.8555],[-5.9648,40.2915,561.8481],[-5.9416,40.2844,670.3978],[-5.9377,40.2811,577.4617],[-5.9207,40.2809,619.4009],[-5.9171,40.2777,598.5889],[-5.9139,40.2871,790.4117],[-5.9082,40.2901,828.1797],[-5.896,40.3053,932.3853],[-5.8922,40.3119,990.0054],[-5.8936,40.3182,1077.7878],[-5.8841,40.3266,1183.4735],[-5.874,40.3266,1143.436],[-5.8675,40.3314,1035.8984],[-5.8577,40.3344,1025.5172],[-5.8549,40.3384,973.2858],[-5.8522,40.337,932.5651]]]]}
,"properties": {"GID_3": "ESP.5.5.7_1","GID_0": "ESP","country": "Spain","GID_1": "ESP.5_1","province": "CastillayLeón","NL_NAME_1": "NA","GID_2": "ESP.5.5_1","county": "Salamanca","NL_NAME_2": "NA","city": "n.a.(218)","VARNAME_3": "NA","NL_NAME_3": "NA","TYPE_3": "Comarca","ENGTYPE_3": "Comarca","CC_3": "NA","HASC_3": "NA","name": "n.a.(218).city","area_km2": 1335.151,"hist_schema_id": "Elevation0-9000","hist_area_km2": {"375": 1.906,"400": 3.665,"425": 6.635,"450": 10.138,"475": 12.123,"500": 13.527,"525": 15.189,"550": 15.156,"575": 18.433,"600": 21.192,"625": 23.725,"650": 27.095,"675": 26.401,"700": 22.851,"725": 24.401,"750": 31.035,"775": 49.446,"800": 52.102,"825": 57.716,"850": 61.871,"875": 89.176,"900": 103.785,"925": 108.812,"950": 87.43,"975": 66.812,"1000": 47.972,"1025": 45.14,"1050": 39.245,"1075": 34.655,"1100": 27.549,"1125": 22.201,"1150": 18.625,"1175": 16.109,"1200": 14.029,"1225": 12.886,"1250": 10.807,"1275": 9.871,"1300": 8.89,"1325": 7.39,"1350": 5.712,"1375": 5.019,"1400": 3.357,"1425": 3.406,"1450": 2.665,"1475": 2.552,"1500": 2.536,"1525": 2.197,"1550": 2.052,"1575": 1.987,"1600": 1.648,"1625": 1.422,"1650": 1.39,"1675": 1.406,"1700": 1.277,"1725": 1.325,"1750": 1.277,"1775": 1.568,"1800": 1.438,"1825": 1.261,"1850": 1.212,"1875": 1.568,"1900": 1.406,"1925": 1.6,"1950": 1.309,"1975": 1.018,"2000": 1.18,"2025": 1.164,"2050": 1.196,"2075": 1.212,"2100": 1.18,"2125": 1.164,"2150": 1.099,"2175": 1.018,"2200": 0.986,"2225": 0.873,"2250": 0.889,"2275": 0.808,"2300": 0.857,"2325": 0.744,"2350": 0.711,"2375": 0.356,"2400": 0.097,"2425": 0.016}}}