{"type": "Feature","bbox": [-1.0941,38.2539,-0.6362,38.5518],"geometry": {"type": "MultiPolygon","coordinates": [[[[-0.9624,38.2574,516.6866],[-0.9544,38.258,499.1301],[-0.9439,38.2555,514.8414],[-0.9247,38.2539,554.85],[-0.8997,38.2681,624.1844],[-0.8959,38.264,744.7009],[-0.8753,38.2778,613.3848],[-0.8656,38.2816,627.0022],[-0.8254,38.2906,525.8331],[-0.8023,38.2932,417.8114],[-0.7961,38.2897,365.6327],[-0.7817,38.2949,330.6544],[-0.7613,38.2988,267.1664],[-0.7457,38.3079,224.6363],[-0.7409,38.3122,313.5577],[-0.735,38.3126,270.7672],[-0.706,38.3269,378.6556],[-0.6793,38.3312,248.7923],[-0.6746,38.3348,264.5977],[-0.6452,38.3413,219.9585],[-0.6404,38.3448,192.3292],[-0.645,38.3503,205.6682],[-0.6463,38.3577,225.7313],[-0.6566,38.3823,492.5678],[-0.6449,38.3866,466.6446],[-0.6447,38.3885,479.9878],[-0.6362,38.3964,387.4688],[-0.6463,38.4017,247.9418],[-0.6636,38.4072,260.4933],[-0.676,38.4176,296.1771],[-0.6869,38.424,333.4708],[-0.7057,38.4522,776.1558],[-0.6685,38.4658,439.5173],[-0.6657,38.4695,455.8104],[-0.6626,38.4706,477.2884],[-0.6587,38.4757,535.39],[-0.656,38.4835,574.9023],[-0.6532,38.4859,597.2788],[-0.6555,38.494,709.6032],[-0.6538,38.4952,691.4022],[-0.6594,38.5069,1055.354],[-0.6681,38.5127,982.1563],[-0.6979,38.5255,903.9563],[-0.7168,38.5384,1052.9086],[-0.7441,38.5516,1030.4438],[-0.7491,38.5518,859.5641],[-0.7816,38.5239,524.4075],[-0.7936,38.5201,486.7439],[-0.7942,38.5152,470.6005],[-0.7982,38.5125,477.5667],[-0.8063,38.5107,449.0834],[-0.829,38.5111,516.2215],[-0.8381,38.5087,562.1083],[-0.8557,38.5131,523.7277],[-0.8493,38.5096,545.5049],[-0.8742,38.4753,818.4325],[-0.8971,38.4717,558.7909],[-0.9149,38.4749,556.9822],[-0.9322,38.4819,820.7631],[-0.9481,38.4789,758.37],[-0.9523,38.484,685.4406],[-0.9583,38.4865,686.6094],[-0.9856,38.5057,1073.361],[-1.0139,38.4971,1202.405],[-1.0417,38.4697,724.2112],[-1.0681,38.4504,641.803],[-1.0817,38.4419,690.2687],[-1.0941,38.4383,726.7977],[-1.076,38.4317,672.217],[-1.085,38.4291,694.8765],[-1.0883,38.4035,653.5894],[-1.0867,38.3983,651.6251],[-1.0881,38.3677,671.0425],[-1.0844,38.3465,604.5175],[-1.0584,38.346,596.7003],[-1.0281,38.3387,508.8439],[-0.989,38.3206,487.768],[-0.9796,38.3241,849.1732],[-0.9772,38.3272,925.7738],[-0.9714,38.3296,1052.6372],[-0.9569,38.2973,709.4405],[-0.9486,38.2836,651.9121],[-0.9624,38.2574,516.6866]]]]}
,"properties": {"GID_3": "ESP.10.1.8_1","GID_0": "ESP","country": "Spain","GID_1": "ESP.10_1","province": "ComunidadValenciana","NL_NAME_1": "NA","GID_2": "ESP.10.1_1","county": "Alicante","NL_NAME_2": "NA","city": "VinalopoMitja","VARNAME_3": "NA","NL_NAME_3": "NA","TYPE_3": "Comarca","ENGTYPE_3": "Comarca","CC_3": "NA","HASC_3": "NA","name": "Vinalopo_Mitja.city","area_km2": 798.2965,"hist_schema_id": "Elevation0-9000","hist_area_km2": {"150": 0.4657,"175": 1.7463,"200": 14.3488,"225": 28.7107,"250": 32.5994,"275": 34.9099,"300": 29.5415,"325": 24.7835,"350": 28.4027,"375": 33.1562,"400": 30.8279,"425": 38.5951,"450": 32.1713,"475": 30.1944,"500": 40.1745,"525": 41.8672,"550": 41.6534,"575": 47.98,"600": 49.337,"625": 46.3775,"650": 33.8497,"675": 23.6184,"700": 19.0823,"725": 15.8588,"750": 14.3475,"775": 11.6242,"800": 10.7941,"825": 8.984,"850": 8.1863,"875": 6.5585,"900": 4.9313,"925": 4.2509,"950": 2.4241,"975": 2.1582,"1000": 1.5773,"1025": 0.9794,"1050": 0.5811,"1075": 0.2987,"1100": 0.1991,"1125": 0.0498,"1150": 0.0498,"1175": 0.0166,"1200": 0.0332}}}