{"type":"Feature","properties":{"GID_3":"ESP.5.4.3_1","GID_0":"ESP","country":"Spain","GID_1":"ESP.5_1","province":"CastillayLeón","NL_NAME_1":"NA","GID_2":"ESP.5.4_1","county":"Palencia","NL_NAME_2":"NA","city":"n.a.(202)","VARNAME_3":"NA","NL_NAME_3":"NA","TYPE_3":"Comarca","ENGTYPE_3":"Comarca","CC_3":"NA","HASC_3":"NA","name":"n.a.(202).city"},
"geometry":{"type": "MultiPolygon","coordinates": [[[[-4.4291,42.4766,870.8417],[-4.4237,42.4851,890.5934],[-4.4291,42.4949,904.7498],[-4.4188,42.4953,885.9888],[-4.4178,42.481,878.2945],[-4.4159,42.4832,871.6947],[-4.4165,42.4862,872.4952],[-4.4095,42.4894,900.0611],[-4.4069,42.488,898.3467],[-4.394,42.4912,854.8541],[-4.3801,42.4975,841.2697],[-4.3681,42.5069,834.968],[-4.3608,42.5068,845.392],[-4.3528,42.5088,848.6257],[-4.3474,42.5052,876.5195],[-4.3432,42.4973,894.7485],[-4.3455,42.4942,897.6798],[-4.328,42.4795,929.1785],[-4.326,42.4757,910.7996],[-4.3298,42.4728,897.5835],[-4.3268,42.4622,884.5384],[-4.3069,42.4533,869.0207],[-4.3066,42.4551,870.4539],[-4.2847,42.4535,848.6436],[-4.2823,42.4552,850.5764],[-4.2759,42.4552,847.4319],[-4.2688,42.4535,843.3274],[-4.2514,42.4566,800.4651],[-4.2425,42.4562,802.3832],[-4.2436,42.4589,801.8102],[-4.2463,42.4587,800.9551],[-4.2471,42.4603,804.4918],[-4.2455,42.4628,807.1675],[-4.2474,42.4671,802.6904],[-4.2522,42.466,803.8781],[-4.2543,42.4684,804.8225],[-4.2503,42.4714,804.304],[-4.245,42.4718,809.0164],[-4.2506,42.4793,803.1717],[-4.246,42.4924,823.8592],[-4.247,42.4947,805.9359],[-4.2522,42.5032,807.835],[-4.2626,42.5118,812.0547],[-4.273,42.5104,818.4434],[-4.2861,42.512,841.3306],[-4.2766,42.5145,817.498],[-4.2721,42.52,814.2482],[-4.2753,42.5287,816.203],[-4.2795,42.5338,816.9048],[-4.2773,42.5354,815.9818],[-4.2789,42.5427,817.1048],[-4.2776,42.5447,819.8181],[-4.2997,42.5525,821.795],[-4.3032,42.5553,824.0667],[-4.303,42.559,822.071],[-4.2976,42.5604,822.4689],[-4.3053,42.5708,828.0499],[-4.2987,42.5706,872.3024],[-4.2937,42.5742,877.0596],[-4.2825,42.5759,885.0414],[-4.2767,42.5798,892.0247],[-4.2707,42.5814,897.7628],[-4.275,42.5831,900.2966],[-4.2842,42.5813,853.8631],[-4.2863,42.5831,850.3181],[-4.2824,42.5867,857.639],[-4.2861,42.5893,899.095],[-4.2852,42.5913,897.0867],[-4.2879,42.5933,902.7561],[-4.2887,42.5984,902.6698],[-4.2944,42.6029,872.1761],[-4.2925,42.6059,905.8381],[-4.2824,42.6097,900.3491],[-4.2738,42.6169,921.708],[-4.2638,42.6179,937.8024],[-4.2704,42.6233,948.6283],[-4.2674,42.6318,907.767],[-4.2707,42.6357,936.6316],[-4.2744,42.6371,931.8077],[-4.2771,42.6432,926.1772],[-4.2732,42.6454,949.08],[-4.2742,42.6527,1002.8572],[-4.2772,42.6522,984.7489],[-4.2718,42.6563,962.9733],[-4.2758,42.6668,940.6852],[-4.276,42.673,1007.0433],[-4.2848,42.6754,978.4597],[-4.2899,42.6792,917.0426],[-4.2898,42.6835,866.1433],[-4.2859,42.6835,867.1977],[-4.2866,42.6864,858.826],[-4.2931,42.6909,864.1082],[-4.284,42.6956,903.462],[-4.2809,42.6995,930.2532],[-4.2692,42.7047,995.5465],[-4.2798,42.7095,866.4828],[-4.2775,42.7262,872.1823],[-4.2857,42.7302,895.0636],[-4.2931,42.7297,963.0934],[-4.2977,42.7318,920.6109],[-4.3065,42.7291,971.0324],[-4.3251,42.7396,1084.9052],[-4.3202,42.7431,1045.8629],[-4.3312,42.7484,951.5219],[-4.3361,42.7485,959.4441],[-4.3547,42.7418,1115.5159],[-4.3679,42.7398,1053.8423],[-4.3727,42.7427,1043.5565],[-4.3808,42.7441,1056.8853],[-4.3841,42.74,1046.6776],[-4.3905,42.7385,1032.261],[-4.3982,42.7328,1010.7787],[-4.4083,42.7339,1008.7672],[-4.4146,42.7378,983.5433],[-4.4299,42.7399,969.4074],[-4.4224,42.7594,953.8101],[-4.4287,42.771,1029.6849],[-4.4453,42.785,1056.4409],[-4.4601,42.7886,1070.33],[-4.4623,42.7857,1062.5352],[-4.4778,42.7999,1094.6892],[-4.477,42.8131,1111.0181],[-4.4888,42.8102,1078.7784],[-4.5005,42.7996,1045.6688],[-4.5032,42.7908,1069.0389],[-4.5108,42.7839,1038.72],[-4.5138,42.777,1109.8281],[-4.5173,42.7763,1127.998],[-4.5179,42.7731,1120.1765],[-4.5249,42.766,1183.1749],[-4.5398,42.763,1168.3719],[-4.55,42.7516,1162.4213],[-4.5579,42.7489,1152.6259],[-4.568,42.7268,1091.7927],[-4.5621,42.7246,1094.5818],[-4.541,42.7262,1061.298],[-4.5415,42.7149,1057.6602],[-4.5569,42.7077,1072.667],[-4.5502,42.6857,985.7758],[-4.5594,42.6881,996.3251],[-4.56,42.6854,1009.371],[-4.558,42.6844,997.9286],[-4.5604,42.6826,1044.5023],[-4.562,42.677,1063.7832],[-4.5582,42.6724,1065.5426],[-4.5559,42.664,1041.7417],[-4.5582,42.6549,1038.3923],[-4.5525,42.642,1025.5197],[-4.5495,42.6375,1022.4381],[-4.5458,42.6356,1014.8839],[-4.5438,42.6303,1010.5305],[-4.5471,42.6254,1017.1286],[-4.5495,42.6249,1021.311],[-4.5413,42.6142,1013.3851],[-4.5374,42.6131,1009.8804],[-4.5201,42.5982,1003.9074],[-4.5273,42.5917,999.0307],[-4.5243,42.5826,952.8745],[-4.5202,42.585,958.5582],[-4.5125,42.5947,996.5099],[-4.5061,42.586,996.2164],[-4.5082,42.5794,981.4501],[-4.5081,42.5666,988.6746],[-4.5049,42.5656,985.6758],[-4.498,42.5591,983.1754],[-4.501,42.5496,940.5155],[-4.496,42.5351,904.6468],[-4.4969,42.5275,894.6942],[-4.4914,42.5219,930.0598],[-4.4915,42.519,925.8059],[-4.4872,42.5173,924.4234],[-4.4853,42.5142,917.5523],[-4.4767,42.512,916.9242],[-4.4803,42.5001,900.602],[-4.4781,42.4999,887.8058],[-4.4727,42.4867,872.1992],[-4.4687,42.485,853.4756],[-4.4608,42.4866,888.504],[-4.4481,42.4864,887.3058],[-4.4449,42.4759,868.0632],[-4.4343,42.4685,852.5189],[-4.4291,42.4766,870.8417]]]]}}