{"type": "Feature","bbox": [-9.3018,42.4626,-8.3319,43.2332],"geometry": {"type": "MultiPolygon","coordinates": [[[[-9.0015,42.4912,0.0],[-9.0018,42.4926,0.0],[-9.0032,42.4924,0.0],[-9.0035,42.4899,0.0],[-9.0021,42.4893,0.0],[-9.0015,42.4912,0.0]]],
[[[-8.8771,42.6007,1.3233],[-8.8765,42.6007,1.3233],[-8.8765,42.6032,0.5692],[-8.8785,42.6026,0.0],[-8.8771,42.6007,1.3233]]],
[[[-8.8424,42.6862,0.6783],[-8.8365,42.6776,3.2599],[-8.834,42.6763,1.8141],[-8.829,42.6662,0.0],[-8.8179,42.6657,5.5638],[-8.8154,42.664,4.7689],[-8.8143,42.6601,19.3182],[-8.8157,42.6574,9.5876],[-8.8196,42.6524,0.0],[-8.8213,42.6524,0.0],[-8.8204,42.6501,7.8611],[-8.8232,42.6501,0.4878],[-8.8221,42.6485,3.7731],[-8.8249,42.646,0.0],[-8.8126,42.6443,4.346],[-8.8035,42.6387,2.1368],[-8.8037,42.6368,0.0],[-8.801,42.6385,0.0],[-8.7999,42.6365,1.0516],[-8.7949,42.6368,0.5901],[-8.7876,42.6401,0.6946],[-8.7782,42.6418,0.0],[-8.7707,42.6485,0.0],[-8.7704,42.6518,0.0],[-8.7638,42.6518,0.8077],[-8.7587,42.6474,10.845],[-8.7546,42.6476,0.0],[-8.7499,42.651,3.8357],[-8.7468,42.6507,1.5697],[-8.7463,42.6585,0.0],[-8.7432,42.6635,0.0],[-8.744,42.6654,0.5421],[-8.7404,42.6649,1.866],[-8.7374,42.6696,2.1756],[-8.7301,42.6732,4.7218],[-8.7266,42.6771,0.0],[-8.726,42.6794,0.0],[-8.7303,42.6844,0.2039],[-8.7299,42.6864,0.0],[-8.7256,42.6877,4.8198],[-8.7266,42.6883,0.1975],[-8.7224,42.6949,0.2261],[-8.7249,42.699,0.0],[-8.7172,42.7063,0.0],[-8.7033,42.7072,0.8499],[-8.6775,42.7118,3.202],[-8.6762,42.7175,1.6757],[-8.6548,42.7205,0.5109],[-8.6543,42.7267,0.0],[-8.6508,42.7291,5.7441],[-8.6499,42.7272,2.888],[-8.6448,42.7261,49.8731],[-8.643,42.7238,60.0132],[-8.631,42.7202,173.6311],[-8.6238,42.7142,205.4742],[-8.6229,42.7163,177.8044],[-8.6163,42.7188,147.4078],[-8.6141,42.7147,195.515],[-8.6065,42.7151,292.7672],[-8.604,42.7168,260.7607],[-8.6074,42.7255,312.5563],[-8.5998,42.7431,18.6781],[-8.5934,42.7437,31.7225],[-8.5812,42.7414,31.2738],[-8.579,42.7435,38.2453],[-8.5716,42.7421,42.3952],[-8.5635,42.7462,45.7134],[-8.5545,42.7467,29.4048],[-8.5594,42.7556,25.840699999999998],[-8.5564,42.7606,28.8435],[-8.5485,42.7607,30.3133],[-8.5459,42.7537,31.1264],[-8.5333,42.7519,40.1537],[-8.5306,42.7561,33.9419],[-8.5268,42.7554,33.986],[-8.5226,42.7518,46.0621],[-8.5169,42.7513,42.9388],[-8.512,42.755,40.0769],[-8.5072,42.7561,40.2162],[-8.493,42.7564,39.6379],[-8.4879,42.7516,52.4041],[-8.4697,42.7436,53.4213],[-8.4449,42.7482,45.5553],[-8.4329,42.7459,50.1743],[-8.4302,42.7466,52.7714],[-8.4221,42.7544,61.7642],[-8.4104,42.7532,64.6554],[-8.4068,42.7542,46.7172],[-8.4064,42.7563,45.8167],[-8.4153,42.7642,77.4115],[-8.4133,42.7681,61.7004],[-8.41,42.7684,55.2308],[-8.4041,42.7723,51.4516],[-8.4,42.7804,73.8901],[-8.3981,42.7812,56.9993],[-8.3913,42.7767,225.5412],[-8.3886,42.7808,199.5509],[-8.3923,42.7861,75.8984],[-8.3921,42.7891,62.7136],[-8.3828,42.7895,66.2661],[-8.3826,42.7851,71.8291],[-8.3787,42.7841,75.4451],[-8.3687,42.7854,69.1531],[-8.3608,42.7836,72.0532],[-8.3542,42.7788,72.0432],[-8.3476,42.7839,67.927],[-8.348,42.7885,64.0846],[-8.34,42.7932,66.9136],[-8.3319,42.7942,66.4425],[-8.3334,42.7999,88.7196],[-8.3322,42.8018,76.5238],[-8.3387,42.8041,116.1212],[-8.3399,42.8063,121.7215],[-8.3367,42.8096,117.8141],[-8.3369,42.8149,117.3787],[-8.344,42.8146,101.3239],[-8.3442,42.8171,109.906],[-8.3483,42.8156,88.7214],[-8.3495,42.8111,198.9455],[-8.3562,42.8111,181.7141],[-8.3571,42.8147,102.5131],[-8.3628,42.8155,171.1752],[-8.3658,42.8104,209.7671],[-8.3744,42.8106,227.0193],[-8.3752,42.8129,236.4618],[-8.3819,42.8125,251.5054],[-8.3828,42.8145,251.226],[-8.3854,42.8135,243.1818],[-8.3931,42.8209,255.9085],[-8.3979,42.8172,214.7228],[-8.4054,42.8177,300.2764],[-8.4048,42.8369,212.4302],[-8.4066,42.8383,248.5202],[-8.405,42.8462,263.8927],[-8.4081,42.8498,291.1006],[-8.4008,42.8564,245.4878],[-8.4029,42.8596,245.5054],[-8.3991,42.8626,283.666],[-8.3976,42.8673,274.169],[-8.3922,42.8699,281.9152],[-8.3944,42.8752,303.7716],[-8.3986,42.8766,302.3943],[-8.3981,42.8823,321.492],[-8.4088,42.8848,367.8484],[-8.4189,42.8839,385.7042],[-8.415,42.8901,369.1756],[-8.4165,42.9038,360.6085],[-8.4126,42.9177,381.7867],[-8.4144,42.9229,388.0258],[-8.4164,42.9234,381.2472],[-8.4158,42.9255,382.2687],[-8.4194,42.9282,371.493],[-8.4186,42.9307,328.1635],[-8.4013,42.9493,337.6569],[-8.3952,42.9654,352.2542],[-8.3895,42.9711,332.2766],[-8.3999,42.974,232.9007],[-8.4049,42.9674,229.2158],[-8.4099,42.9657,232.3941],[-8.4159,42.9665,229.4838],[-8.4192,42.9692,236.1974],[-8.4279,42.9705,236.6372],[-8.4308,42.9655,231.5351],[-8.4331,42.9699,249.3709],[-8.4449,42.9649,225.8485],[-8.4521,42.9714,229.654],[-8.4605,42.9729,226.929],[-8.4751,42.9794,224.4486],[-8.4853,42.977,233.7971],[-8.4857,42.9812,215.7047],[-8.491,42.9856,218.0745],[-8.4942,42.9862,215.9249],[-8.5024,42.9826,215.5794],[-8.513,42.9896,223.4801],[-8.5148,42.9816,291.3471],[-8.523,42.9814,209.1952],[-8.5189,42.9674,206.8547],[-8.5078,42.9665,214.6733],[-8.5095,42.9621,207.0568],[-8.5229,42.9581,208.8494],[-8.5241,42.9489,214.646],[-8.5368,42.943,211.3864],[-8.5394,42.9439,209.6532],[-8.5404,42.9514,205.2878],[-8.5431,42.9549,206.3882],[-8.5509,42.9583,199.7133],[-8.5535,42.9619,198.5654],[-8.5626,42.9624,211.1619],[-8.5688,42.9661,204.0035],[-8.5694,42.9687,213.0055],[-8.5726,42.9697,207.1778],[-8.5781,42.9809,196.4051],[-8.5776,42.9858,230.1661],[-8.5886,42.9837,186.1408],[-8.5925,42.9792,191.634],[-8.5923,42.9749,186.6646],[-8.5971,42.9746,187.6135],[-8.6028,42.9684,196.009],[-8.6071,42.9702,178.7867],[-8.6095,42.9673,178.2176],[-8.6161,42.9665,189.2334],[-8.6283,42.9526,285.9124],[-8.6271,42.951,295.6389],[-8.6306,42.9496,297.902],[-8.6434,42.9536,271.6039],[-8.6477,42.9565,222.0406],[-8.6531,42.9556,194.6546],[-8.6603,42.9577,161.8705],[-8.6613,42.9562,166.0342],[-8.6771,42.9616,303.2754],[-8.6794,42.9641,328.5335],[-8.6838,42.9641,370.6824],[-8.683,42.9657,370.5375],[-8.6901,42.9771,348.2613],[-8.6884,42.9797,372.0604],[-8.6934,42.9821,344.4138],[-8.6956,42.986,440.3858],[-8.6977,42.9855,429.6841],[-8.7066,42.9928,419.8671],[-8.7201,42.995,471.9044],[-8.7159,43.0008,473.6426],[-8.7191,43.0069,480.2262],[-8.7187,43.015,464.3333],[-8.7151,43.0153,450.1225],[-8.7076,43.0251,453.9884],[-8.7113,43.029,471.1701],[-8.72,43.0337,438.1761],[-8.7169,43.0384,434.6524],[-8.7179,43.0401,437.4861],[-8.71,43.0475,419.4799],[-8.6873,43.054,510.2828],[-8.6873,43.061,446.5329],[-8.683,43.077,466.9126],[-8.6882,43.0856,557.3355],[-8.7003,43.0907,479.7128],[-8.7042,43.0939,475.6869],[-8.736,43.1007,413.7644],[-8.7431,43.0983,393.7369],[-8.7506,43.1009,374.3395],[-8.7527,43.103,369.322],[-8.7459,43.1088,377.3547],[-8.7458,43.1106,376.4243],[-8.7684,43.1081,379.3564],[-8.7701,43.109,379.0029],[-8.7703,43.1167,391.1687],[-8.791,43.1128,379.2991],[-8.8078,43.1188,438.9273],[-8.8134,43.1177,455.8919],[-8.8234,43.0986,454.3702],[-8.8278,43.1001,450.7589],[-8.8311,43.0982,391.3459],[-8.8345,43.0985,383.0583],[-8.8378,43.1038,450.9868],[-8.8513,43.1043,351.4491],[-8.8573,43.1203,330.3839],[-8.8505,43.123,409.7105],[-8.8497,43.1253,385.2841],[-8.8449,43.1244,348.0953],[-8.8428,43.126,325.4505],[-8.8468,43.1367,282.1479],[-8.8409,43.1391,323.5442],[-8.8378,43.1376,313.2485],[-8.841,43.1425,353.4392],[-8.853,43.145,261.6886],[-8.8607,43.1497,324.3988],[-8.8742,43.1529,223.932],[-8.8756,43.1555,226.1315],[-8.8793,43.1556,225.2654],[-8.879,43.157,225.2654],[-8.889,43.159,225.2305],[-8.8931,43.1574,225.0162],[-8.8976,43.1596,227.9049],[-8.9063,43.1561,242.0402],[-8.909,43.1512,229.7527],[-8.9142,43.1487,203.869],[-8.9152,43.1513,196.1868],[-8.9291,43.1584,208.7167],[-8.9288,43.1637,210.7132],[-8.9336,43.1648,173.3173],[-8.9264,43.1769,138.1851],[-8.9216,43.1808,153.2473],[-8.9269,43.1843,155.0669],[-8.9399,43.1861,299.1815],[-8.9457,43.1747,301.4387],[-8.9488,43.1729,335.1989],[-8.9501,43.1679,307.6834],[-8.9564,43.169,229.5851],[-8.9591,43.1719,213.3486],[-8.9685,43.1764,194.9832],[-8.9833,43.1813,204.1227],[-8.9928,43.1888,275.0042],[-8.9721,43.2071,279.7526],[-8.9849,43.2179,98.5278],[-8.991,43.2196,17.148],[-8.9926,43.2157,1.7107],[-8.9979,43.2157,1.3355],[-9.0026,43.2176,4.556],[-9.0049,43.2207,1.5693],[-9.004,43.2235,9.1244],[-9.0015,43.2221,0.0],[-8.999,43.2232,0.0],[-9.0032,43.2249,1.0878],[-9.0026,43.229,0.0],[-9.0082,43.2329,8.8595],[-9.0124,43.2332,1.3582],[-9.0149,43.231,0.0],[-9.014,43.2276,0.0],[-9.0107,43.2246,5.2497],[-9.014,43.2246,0.0],[-9.0143,43.2215,19.1514],[-9.0201,43.2201,6.5902],[-9.0185,43.2165,0.0],[-9.0221,43.2129,4.7992],[-9.0254,43.2129,5.1912],[-9.0262,43.216,0.0],[-9.0324,43.2154,12.7453],[-9.0346,43.2137,0.0],[-9.036,43.2096,0.0],[-9.034,43.2076,14.9287],[-9.0354,43.2065,0.0],[-9.0363,43.1996,9.6067],[-9.0396,43.1949,1.9303],[-9.0432,43.1915,5.4026],[-9.0579,43.1862,0.0],[-9.0601,43.1835,17.7922],[-9.074,43.1871,0.0],[-9.0776,43.1857,1.6342],[-9.0787,43.1821,0.0],[-9.086,43.1857,0.0],[-9.0915,43.1799,2.2618],[-9.0901,43.1862,9.5895],[-9.0857,43.1885,0.0],[-9.0879,43.1901,0.0],[-9.0926,43.1899,0.0],[-9.0982,43.194,0.0],[-9.0999,43.1932,0.0],[-9.0985,43.1899,0.9247],[-9.101,43.1907,0.0],[-9.101,43.1882,2.6076],[-9.104,43.1888,0.0],[-9.106,43.1857,0.0],[-9.109,43.186,0.0],[-9.1149,43.189,18.2217],[-9.1146,43.1943,0.0],[-9.1215,43.194,3.2836],[-9.1243,43.1957,1.3912],[-9.1268,43.1946,12.568],[-9.1301,43.1982,1.1535],[-9.1329,43.1929,3.3927],[-9.1337,43.1976,0.0],[-9.136,43.1979,0.0],[-9.1351,43.199,0.0],[-9.1379,43.2018,0.0],[-9.1374,43.1935,0.0],[-9.1335,43.1924,2.1055],[-9.1343,43.1912,4.1459],[-9.1426,43.1924,0.0],[-9.1446,43.1949,0.0],[-9.1501,43.1957,0.0],[-9.1515,43.1982,0.0],[-9.154,43.1985,0.0],[-9.1521,43.1937,0.0],[-9.1529,43.191,0.0],[-9.1501,43.1874,0.0],[-9.1585,43.1829,3.207],[-9.1651,43.1832,9.9777],[-9.1687,43.1879,0.0],[-9.1735,43.1915,0.0],[-9.1751,43.1912,0.0],[-9.174,43.1876,1.0493],[-9.179,43.1829,0.0],[-9.1804,43.1682,6.2871],[-9.1849,43.1676,0.0],[-9.1849,43.1638,0.0],[-9.1896,43.1607,0.7653],[-9.1943,43.1632,0.0],[-9.1993,43.1615,0.0],[-9.1974,43.1568,6.6973],[-9.2004,43.1549,12.3687],[-9.2074,43.156,4.8777],[-9.2071,43.1593,0.0],[-9.2104,43.1613,6.7164],[-9.2115,43.1646,0.0],[-9.214,43.1646,0.0],[-9.2143,43.1607,0.0],[-9.2121,43.1582,0.0],[-9.2151,43.1565,0.0],[-9.214,43.1526,0.0],[-9.2151,43.1515,0.0],[-9.2132,43.1471,0.0],[-9.2107,43.1465,0.0],[-9.2096,43.144,0.0],[-9.2079,43.1449,1.2521],[-9.2051,43.1418,3.7383],[-9.204,43.1343,0.0],[-9.206,43.134,0.0],[-9.2062,43.1324,0.0],[-9.2051,43.129,3.4616],[-9.2013,43.1274,0.0],[-9.1976,43.1312,1.0571],[-9.1971,43.1268,0.0],[-9.1926,43.1226,0.0],[-9.1904,43.1246,6.0351],[-9.1893,43.1229,0.0],[-9.1826,43.1237,0.0],[-9.1837,43.1285,0.0],[-9.1787,43.129,6.882],[-9.1799,43.1329,0.0],[-9.1779,43.1349,0.0],[-9.1785,43.1376,1.4442],[-9.1707,43.1376,5.9007],[-9.1685,43.1424,7.2742],[-9.1699,43.1451,0.0],[-9.1662,43.1504,0.0],[-9.1637,43.149,5.52],[-9.1676,43.1326,0.0],[-9.1651,43.1279,4.2229],[-9.1582,43.1288,17.1405],[-9.1507,43.1329,3.6335],[-9.1463,43.1271,5.1486],[-9.1418,43.1274,15.5364],[-9.1379,43.1349,5.5751],[-9.1326,43.1351,1.7205],[-9.1321,43.1335,0.0],[-9.1385,43.131,5.9407],[-9.1412,43.1263,10.2277],[-9.1593,43.1265,0.0],[-9.1596,43.1232,14.7095],[-9.1618,43.1226,7.0259],[-9.164,43.1176,9.5144],[-9.1637,43.1129,28.5864],[-9.1662,43.111,16.2951],[-9.1651,43.1088,15.7372],[-9.1662,43.1046,10.8098],[-9.1846,43.1032,9.2137],[-9.1851,43.1004,0.0],[-9.1824,43.0946,21.9613],[-9.1829,43.0929,0.0],[-9.189,43.0907,0.0],[-9.1885,43.089,3.3598],[-9.1946,43.0907,6.1143],[-9.1932,43.096,3.8977],[-9.1974,43.0977,10.5213],[-9.1979,43.1043,0.0],[-9.2032,43.1013,15.1183],[-9.2068,43.1026,0.754],[-9.209,43.1001,11.4592],[-9.214,43.1024,8.2759],[-9.2154,43.1046,0.0],[-9.2137,43.1051,0.0],[-9.214,43.1099,0.0],[-9.2165,43.111,1.7571],[-9.2174,43.1135,0.0],[-9.2199,43.1132,0.7395],[-9.2224,43.1087,0.0],[-9.2221,43.104,0.0],[-9.2196,43.1026,7.4707],[-9.224,43.0985,0.0],[-9.2224,43.0943,0.0],[-9.224,43.0926,0.0],[-9.2207,43.0904,0.0],[-9.221,43.0876,0.0],[-9.2249,43.0868,13.9332],[-9.2254,43.0899,0.0],[-9.2276,43.091,0.0],[-9.2379,43.0913,0.0],[-9.2435,43.0851,4.353],[-9.2454,43.0918,7.478],[-9.2479,43.0935,4.4284],[-9.2568,43.0921,0.0],[-9.2574,43.0885,0.0],[-9.2529,43.0838,11.1013],[-9.2538,43.0818,1.7224],[-9.2518,43.0793,22.6242],[-9.2504,43.0721,0.6],[-9.2518,43.069,0.0],[-9.2543,43.0679,7.6275],[-9.2557,43.0588,0.0],[-9.2582,43.0568,0.0],[-9.2599,43.0515,20.8516],[-9.2635,43.0499,15.4205],[-9.2665,43.0532,0.0],[-9.2701,43.0529,0.0],[-9.2693,43.0501,1.2008],[-9.2724,43.0449,13.1805],[-9.2851,43.0471,0.0],[-9.2912,43.0579,0.0],[-9.2999,43.0568,0.7478],[-9.2996,43.0501,0.0],[-9.3018,43.0474,3.9299],[-9.2979,43.0474,37.0078],[-9.2954,43.044,5.1178],[-9.2921,43.0426,0.0],[-9.2879,43.0435,0.0],[-9.284,43.0288,0.0],[-9.281,43.0251,18.2973],[-9.2824,43.0193,0.0],[-9.2796,43.0168,0.0],[-9.2793,43.0124,35.9654],[-9.2743,43.0079,0.0],[-9.2724,43.0096,11.3303],[-9.2632,43.0101,0.0],[-9.2582,43.0029,0.0],[-9.2532,43.004,10.3418],[-9.2521,43.0029,2.4154],[-9.2615,43.0007,0.37],[-9.2618,42.9979,0.0],[-9.2604,42.9982,2.9457],[-9.2601,42.9963,0.0],[-9.2607,42.9924,0.0],[-9.2629,42.9899,3.9784],[-9.2612,42.9851,9.6967],[-9.2629,42.981,52.1878],[-9.2607,42.9721,4.8539],[-9.2624,42.9687,5.1822],[-9.2699,42.9618,6.2847],[-9.2746,42.9635,0.0],[-9.2788,42.9626,0.0],[-9.2776,42.9593,0.0],[-9.2849,42.9551,0.0],[-9.2829,42.9435,0.0],[-9.2857,42.9432,23.2414],[-9.2879,42.9454,0.0],[-9.2896,42.9362,130.0871],[-9.2982,42.9218,0.0],[-9.2918,42.9193,0.0],[-9.2826,42.9196,11.321],[-9.2788,42.9104,0.0],[-9.2746,42.9101,3.6759],[-9.2821,42.8907,0.0],[-9.2749,42.8862,7.8146],[-9.2743,42.8804,0.0],[-9.2704,42.8796,0.0],[-9.269,42.8807,0.0],[-9.2651,42.8913,54.9986],[-9.2621,42.8946,0.0],[-9.2618,42.8999,0.0],[-9.2593,42.9032,0.0],[-9.2599,42.906,0.0],[-9.2557,42.9085,0.0],[-9.2574,42.9093,0.0],[-9.2621,42.9071,0.0],[-9.261,42.9104,4.4923],[-9.2649,42.9151,2.7444],[-9.2624,42.9207,0.0],[-9.251,42.926,6.4022],[-9.2471,42.9254,0.0],[-9.2421,42.9276,0.0],[-9.2338,42.9263,0.0],[-9.2315,42.9321,0.0],[-9.2332,42.9368,0.0],[-9.2324,42.9415,1.1244],[-9.2265,42.9396,0.0],[-9.2212,42.9429,1.0748],[-9.2187,42.9426,2.3312],[-9.2187,42.9371,15.5753],[-9.216,42.9346,0.0],[-9.2179,42.9313,0.4571],[-9.214,42.9282,0.0],[-9.2085,42.9271,13.0901],[-9.2101,42.9176,0.0],[-9.209,42.916,0.0],[-9.2054,42.9174,8.5933],[-9.1946,42.9174,14.167],[-9.1876,42.9149,0.0],[-9.1835,42.9157,1.8635],[-9.1824,42.9188,0.0],[-9.1862,42.9232,11.031],[-9.184,42.931,0.0],[-9.1868,42.936,12.1871],[-9.191,42.9385,9.8247],[-9.1899,42.9443,0.0],[-9.1929,42.9454,5.4274],[-9.1907,42.9487,0.0],[-9.191,42.9515,4.464],[-9.1888,42.9524,6.6065],[-9.1851,42.9465,0.0],[-9.1812,42.9454,0.0],[-9.1804,42.9437,2.1364],[-9.179,42.9435,2.1364],[-9.1782,42.9454,0.0],[-9.174,42.944,3.7706],[-9.1746,42.9396,0.0],[-9.171,42.9338,8.7588],[-9.1704,42.9282,0.0],[-9.1657,42.9251,35.2976],[-9.1624,42.9118,0.0],[-9.1568,42.9104,0.0],[-9.1549,42.9129,4.754],[-9.1532,42.9104,0.0],[-9.1512,42.9104,0.0],[-9.1465,42.9118,5.4715],[-9.1438,42.909,3.8786],[-9.1412,42.9087,0.0],[-9.1346,42.9107,13.6644],[-9.1274,42.9065,0.0],[-9.1318,42.8993,0.0],[-9.144,42.8957,0.0],[-9.1449,42.8918,0.0],[-9.139,42.8913,0.0],[-9.1393,42.8874,18.2719],[-9.1415,42.8821,0.0],[-9.1443,42.8838,0.0],[-9.1485,42.8835,0.3745],[-9.1474,42.8768,0.0],[-9.1485,42.8743,0.3087],[-9.1512,42.8743,0.0],[-9.1515,42.8696,0.0],[-9.1479,42.869,1.5865],[-9.1488,42.8654,0.0],[-9.1468,42.8651,0.0],[-9.1474,42.861,0.5525],[-9.1362,42.8457,0.0],[-9.133,42.8479,5.012],[-9.1332,42.8449,0.0],[-9.1276,42.8426,0.0],[-9.1243,42.8471,1.6457],[-9.1213,42.8476,1.2782],[-9.1154,42.8457,0.0],[-9.1099,42.8401,0.0],[-9.1071,42.8301,0.0],[-9.1099,42.8146,0.0],[-9.1135,42.8115,0.0],[-9.1304,42.8054,0.8842],[-9.1421,42.806,0.0],[-9.1443,42.8024,0.0],[-9.1457,42.8043,0.0],[-9.1515,42.8063,0.0],[-9.1538,42.8021,0.0],[-9.1488,42.7949,0.0],[-9.1404,42.7954,0.0],[-9.1401,42.7912,0.0],[-9.1357,42.7904,0.0],[-9.1293,42.7832,0.0],[-9.1279,42.7804,0.0],[-9.1304,42.7785,0.0],[-9.126,42.7754,0.0],[-9.1282,42.7707,0.0],[-9.1179,42.769,7.1573],[-9.1154,42.7588,0.0],[-9.1179,42.7554,0.0],[-9.1179,42.7524,0.0],[-9.1118,42.7518,0.0],[-9.1115,42.754,0.0],[-9.1037,42.7551,0.0],[-9.0935,42.7499,1.4706],[-9.091,42.7449,0.0],[-9.0913,42.7368,0.0],[-9.0771,42.7388,0.0],[-9.0757,42.7457,1.0281],[-9.0804,42.7524,15.0413],[-9.0757,42.7579,6.7989],[-9.0671,42.7599,0.0],[-9.0582,42.759,2.2608],[-9.0551,42.7632,27.2867],[-9.0543,42.7676,38.2075],[-9.0479,42.769,3.0854],[-9.0476,42.771,3.9158],[-9.0526,42.774,0.0],[-9.0526,42.7762,0.3879],[-9.0593,42.7774,4.6286],[-9.0604,42.7804,0.0],[-9.0649,42.7829,0.0],[-9.0635,42.7865,5.7416],[-9.0424,42.7871,8.5179],[-9.0332,42.7918,0.0],[-9.0307,42.7968,7.1844],[-9.0282,42.7985,2.2944],[-9.0251,42.7985,1.1842],[-9.0224,42.7962,0.8883],[-9.0212,42.8001,1.0564],[-9.0193,42.801,0.0],[-9.0199,42.8026,0.399],[-9.0179,42.8029,3.0302],[-9.0179,42.8004,2.511],[-9.0135,42.7988,8.8914],[-9.0118,42.7962,12.7012],[-9.0135,42.7921,0.5861],[-9.0162,42.7904,0.0],[-9.0151,42.7824,1.4197],[-9.0074,42.7835,0.0],[-9.0049,42.7826,3.7905],[-9.0024,42.7785,0.0],[-8.9993,42.7824,16.6696],[-8.9974,42.7804,0.0],[-8.9918,42.7804,0.0],[-8.9893,42.7776,1.6376],[-8.9868,42.7779,0.0],[-8.9863,42.7796,1.7439],[-8.981,42.7785,0.0],[-8.9804,42.786,0.706],[-8.9776,42.7876,0.9398],[-8.9776,42.7893,1.184],[-8.9818,42.7899,4.972],[-8.9804,42.7915,0.543],[-8.9824,42.7926,1.2459],[-8.9799,42.7943,3.6963],[-8.979,42.7904,3.3417],[-8.9746,42.7915,2.7422],[-8.9732,42.7893,0.0],[-8.969,42.7893,3.5403],[-8.9663,42.7871,15.105],[-8.9676,42.7815,0.0],[-8.9663,42.779,1.3854],[-8.959,42.7793,6.0165],[-8.9504,42.784,12.039],[-8.9487,42.7893,10.3573],[-8.9443,42.7938,0.0],[-8.9462,42.796,3.4641],[-8.9457,42.7974,0.0],[-8.9415,42.8015,0.0],[-8.936,42.8029,3.4861],[-8.9351,42.8051,0.0],[-8.931,42.8065,0.6506],[-8.9324,42.8018,0.0],[-8.9282,42.8013,3.1179],[-8.9232,42.7971,19.3179],[-8.9157,42.7974,7.211],[-8.9146,42.801,4.8815],[-8.9118,42.8004,0.0],[-8.9082,42.8021,9.919],[-8.9063,42.8054,0.0],[-8.9057,42.8179,18.109],[-8.8996,42.8249,0.236],[-8.9049,42.8285,0.5207],[-8.899,42.8288,9.2654],[-8.8965,42.8274,18.7074],[-8.8915,42.8196,2.5228],[-8.8865,42.8162,0.0],[-8.8807,42.8176,3.108],[-8.8799,42.8274,1.4129],[-8.8749,42.829,1.3569],[-8.8696,42.8285,0.4674],[-8.8774,42.8265,0.2346],[-8.8785,42.8224,0.0],[-8.8765,42.8207,0.0821],[-8.8768,42.8185,0.0],[-8.8793,42.816,0.0],[-8.8868,42.8129,0.0],[-8.8951,42.8157,0.0],[-8.8965,42.814,1.7934],[-8.8957,42.8104,5.6015],[-8.8965,42.8076,8.396],[-8.8985,42.8074,0.0],[-8.8974,42.8046,0.0],[-8.9015,42.8015,1.4826],[-8.8951,42.796,0.0],[-8.8962,42.7932,4.2507],[-8.8988,42.7935,0.8776],[-8.9001,42.7912,2.3377],[-8.8912,42.7896,1.8483],[-8.8929,42.7863,0.0],[-8.8907,42.784,1.7631],[-8.8915,42.7807,0.0894],[-8.894,42.7835,1.5423],[-8.8996,42.7832,1.1583],[-8.9013,42.7857,0.0],[-8.9063,42.7868,17.9579],[-8.9101,42.7912,1.2112],[-8.9288,42.7837,7.4023],[-8.9318,42.7779,0.0],[-8.9365,42.7785,2.3355],[-8.9371,42.7757,9.2932],[-8.9404,42.7738,0.0],[-8.9393,42.7674,2.6138],[-8.9421,42.7665,0.0],[-8.9424,42.7643,5.1504],[-8.9462,42.764,0.0],[-8.9457,42.7604,18.0193],[-8.9496,42.7621,0.6719],[-8.9515,42.7565,3.0794],[-8.951,42.7526,2.5869],[-8.9568,42.7454,16.6417],[-8.9613,42.7454,11.4623],[-8.964,42.7415,5.3217],[-8.9693,42.739,2.5681],[-8.9751,42.7399,13.2788],[-8.9757,42.7451,0.8725],[-8.9779,42.7449,0.0],[-8.979,42.7426,0.8576],[-8.9896,42.7415,8.7134],[-8.9915,42.7396,0.0],[-8.991,42.7351,7.977],[-8.994,42.7324,0.0],[-8.9946,42.7287,24.7893],[-8.999,42.7265,28.835],[-9.001,42.7268,0.0],[-9.0021,42.7296,0.0],[-9.0088,42.7274,0.0],[-9.0093,42.7176,0.0],[-9.0115,42.7113,0.0],[-9.0132,42.7096,1.0868],[-9.024,42.7107,0.0],[-9.0262,42.7085,0.0],[-9.0251,42.7049,6.7509],[-9.0287,42.7032,0.0],[-9.0304,42.6982,6.2068],[-9.034,42.696,0.0],[-9.0343,42.6949,4.5219],[-9.0296,42.6924,0.0],[-9.0315,42.679,0.0],[-9.0337,42.6757,0.0],[-9.0382,42.6754,0.0],[-9.0399,42.6738,0.0],[-9.0404,42.6712,0.0],[-9.0429,42.6699,0.0],[-9.0432,42.6649,0.0],[-9.0457,42.6629,0.0],[-9.0432,42.6604,0.0],[-9.0437,42.6524,0.0],[-9.0393,42.6501,0.0],[-9.0404,42.6413,0.0],[-9.0546,42.6237,0.0],[-9.0663,42.6199,0.0],[-9.0654,42.6182,0.0],[-9.0629,42.6188,0.0],[-9.0618,42.6174,0.0],[-9.0612,42.6135,2.3398],[-9.0649,42.6107,0.0],[-9.0632,42.6071,0.0],[-9.0696,42.5996,0.0],[-9.0737,42.6032,0.0],[-9.081,42.5968,0.0],[-9.0818,42.5932,0.0],[-9.0787,42.5907,0.0],[-9.081,42.5815,0.0],[-9.0837,42.5804,0.0],[-9.0874,42.5815,0.0],[-9.0924,42.5785,0.0],[-9.0926,42.5757,0.0],[-9.0874,42.5685,0.0],[-9.0843,42.5685,0.0],[-9.0824,42.566,0.0],[-9.0779,42.5668,0.0],[-9.0738,42.5649,0.0],[-9.0726,42.5674,0.0],[-9.076,42.5715,3.3898],[-9.0699,42.5715,0.0],[-9.0696,42.5729,0.0],[-9.0721,42.5735,5.4841],[-9.0696,42.5743,5.5705],[-9.0682,42.5729,0.0],[-9.0671,42.5751,0.0],[-9.0596,42.5771,1.0874],[-9.056,42.5762,0.0],[-9.0518,42.5749,0.0],[-9.0421,42.5663,0.0],[-9.0379,42.5601,0.0],[-9.0351,42.5593,0.0],[-9.0337,42.5524,0.0],[-9.0321,42.5515,0.0],[-9.0324,42.5446,0.0],[-9.0376,42.5421,0.0],[-9.0407,42.5382,0.0],[-9.0429,42.5324,0.0],[-9.0421,42.5293,0.4339],[-9.0454,42.5251,0.0],[-9.0435,42.5182,0.0],[-9.0482,42.5185,0.0],[-9.0485,42.5171,0.0],[-9.0424,42.5168,0.0],[-9.0315,42.5207,7.0754],[-9.0232,42.5165,0.0],[-9.0201,42.519,4.0218],[-9.0174,42.5182,0.0],[-9.0176,42.5221,1.7603],[-9.0126,42.5235,0.4041],[-9.0096,42.5149,0.0],[-9.0062,42.5135,0.0],[-9.011,42.5204,0.301],[-9.0104,42.526,3.3891],[-9.0062,42.5285,0.7163],[-8.9982,42.529,1.957],[-8.9979,42.5313,8.7925],[-8.9924,42.5332,0.0],[-8.986,42.5382,0.0],[-8.9832,42.5435,9.5378],[-8.9854,42.5518,7.4391],[-8.9885,42.5543,0.0],[-8.9865,42.5599,0.0],[-8.9918,42.5593,10.819],[-8.9876,42.5624,0.0],[-8.9907,42.5638,1.9392],[-8.9821,42.5685,0.0],[-8.9726,42.5693,16.8913],[-8.971,42.5682,0.0],[-8.9682,42.5696,3.1283],[-8.9679,42.5679,0.0],[-8.9646,42.5676,0.2609],[-8.9613,42.5704,0.0],[-8.9629,42.5726,4.1667],[-8.9582,42.5776,0.0],[-8.9579,42.581,3.1393],[-8.9535,42.5849,1.3902],[-8.9454,42.5851,1.945],[-8.9399,42.5826,2.703],[-8.9368,42.5846,1.9578],[-8.9326,42.5838,5.4335],[-8.9304,42.5868,0.0],[-8.9201,42.5865,0.0],[-8.9207,42.594,0.0],[-8.9235,42.5965,10.4319],[-8.9321,42.5965,10.6639],[-8.9365,42.6018,3.6326],[-8.9371,42.6071,0.9347],[-8.9326,42.6093,0.8854],[-8.9312,42.6079,0.6015],[-8.9315,42.6046,0.2989],[-8.9301,42.6046,0.2989],[-8.9299,42.6074,0.6015],[-8.9329,42.611,4.7699],[-8.931,42.6115,0.0],[-8.931,42.6135,4.6928],[-8.9279,42.6129,0.0],[-8.9282,42.614,16.0633],[-8.9226,42.6168,0.0],[-8.9215,42.6218,29.6494],[-8.9185,42.6243,4.4217],[-8.914,42.6257,6.6259],[-8.9068,42.6318,0.0],[-8.9026,42.6326,0.0],[-8.9026,42.636,0.2121],[-8.9004,42.6387,0.0],[-8.9021,42.6418,-1.0],[-8.9004,42.6435,-1.0],[-8.8943,42.6435,9.5107],[-8.899,42.6421,-1.0],[-8.8993,42.6407,5.4884],[-8.8932,42.6413,3.3017],[-8.8807,42.6385,0.4848],[-8.8738,42.6326,12.4227],[-8.874,42.6282,9.4412],[-8.8807,42.6276,0.0],[-8.8832,42.6257,0.386],[-8.8835,42.6229,7.2581],[-8.8879,42.6201,0.4496],[-8.8865,42.6157,0.0],[-8.8887,42.6137,0.6882],[-8.8901,42.6151,0.0],[-8.8912,42.614,0.0],[-8.8876,42.6101,0.0],[-8.8849,42.6149,1.1041],[-8.8807,42.6124,1.4399],[-8.8757,42.614,5.8445],[-8.8693,42.6104,0.4765],[-8.8687,42.6082,0.0],[-8.8651,42.6096,2.8488],[-8.8618,42.606,0.7507],[-8.8568,42.6063,0.0],[-8.8571,42.6115,0.0],[-8.8601,42.6113,7.7384],[-8.8618,42.6146,4.4576],[-8.8618,42.6171,20.276],[-8.8596,42.6179,0.0],[-8.8582,42.6268,0.0],[-8.8557,42.6274,5.7024],[-8.8557,42.6299,4.1637],[-8.8535,42.6307,8.8197],[-8.8462,42.6307,8.4595],[-8.8415,42.6288,8.125],[-8.8396,42.629,4.682],[-8.8379,42.6321,1.5832],[-8.8385,42.6351,1.2891],[-8.8443,42.6374,4.7846],[-8.8462,42.6404,7.3561],[-8.856,42.6404,15.5675],[-8.861,42.6463,4.2781],[-8.8549,42.6504,0.0],[-8.8562,42.6526,9.3212],[-8.8512,42.6593,0.0],[-8.8521,42.664,11.1915],[-8.851,42.666,2.4878999999999998],[-8.8454,42.6654,0.0],[-8.8435,42.6626,0.0],[-8.8399,42.6615,0.0],[-8.8415,42.664,27.9363],[-8.8404,42.6754,0.0],[-8.8426,42.6776,5.5203],[-8.8415,42.6793,21.6336],[-8.8432,42.6824,24.4811],[-8.8424,42.6862,0.6783]]],
[[[-8.9626,42.7762,1.1127],[-8.966,42.7771,0.0],[-8.9671,42.7751,0.0],[-8.9626,42.7726,0.0],[-8.9626,42.7762,1.1127]]],
[[[-9.0146,42.4851,0.0],[-9.0157,42.4876,0.0],[-9.0207,42.4837,0.0],[-9.0221,42.4729,0.0],[-9.0204,42.4721,0.0],[-9.0185,42.4665,0.0],[-9.014,42.4632,0.0],[-9.0099,42.4626,0.2626],[-9.0076,42.4657,0.2461],[-9.001,42.4665,0.0],[-8.9987,42.469,0.0],[-9.0049,42.4726,0.7692],[-9.0076,42.4799,0.0],[-9.0146,42.4851,0.0]]],
[[[-9.004,42.4926,0.0487],[-9.0043,42.494,0.0],[-9.0068,42.4932,0.0],[-9.0065,42.4918,0.0],[-9.004,42.4926,0.0487]]],
[[[-9.0035,42.4987,0.0],[-9.004,42.5004,1.4861],[-9.0099,42.4993,0.0],[-9.0074,42.4985,0.4712],[-9.0062,42.4943,0.0],[-9.0029,42.4968,0.0],[-9.0035,42.4987,0.0]]],
[[[-9.0429,42.5113,0.0],[-9.0426,42.5132,0.0],[-9.0499,42.5132,0.0],[-9.056,42.5076,0.0],[-9.0493,42.5054,0.0],[-9.0429,42.5113,0.0]]],
[[[-9.079,42.5187,0.0],[-9.0804,42.5196,0.0],[-9.0793,42.5163,0.0],[-9.0779,42.5165,0.0],[-9.079,42.5187,0.0]]],
[[[-9.0904,42.6382,0.0],[-9.0929,42.6393,0.0],[-9.0938,42.6365,0.0],[-9.0888,42.6357,0.0],[-9.0904,42.6382,0.0]]],
[[[-9.0829,42.7335,0.0],[-9.0835,42.7326,0.0],[-9.0812,42.7326,0.0],[-9.0799,42.736,0.0],[-9.0826,42.7343,0.0],[-9.0829,42.7335,0.0]]],
[[[-9.144,42.7399,0.0],[-9.1454,42.741,0.0],[-9.1479,42.7401,0.0],[-9.1488,42.7368,0.0],[-9.1435,42.7368,0.0],[-9.144,42.7399,0.0]]],
[[[-9.1682,42.8013,0.0],[-9.1729,42.8018,0.0],[-9.1726,42.7993,0.0],[-9.1746,42.7988,0.0],[-9.1676,42.7971,0.0],[-9.1668,42.8001,0.0],[-9.1682,42.8013,0.0]]],
[[[-9.1446,42.8176,0.0],[-9.1463,42.8187,0.0],[-9.1471,42.8176,0.0],[-9.1482,42.8096,0.0],[-9.1449,42.8138,0.0],[-9.1429,42.8138,0.0],[-9.1446,42.8176,0.0]]],
[[[-9.1679,42.8674,0.0],[-9.1687,42.8685,0.0],[-9.1721,42.8676,0.0],[-9.1729,42.8621,0.0],[-9.1715,42.8596,0.0],[-9.1671,42.861,0.0],[-9.1679,42.8674,0.0]]],
[[[-9.1849,42.884,0.0],[-9.1882,42.8846,0.0],[-9.1896,42.8807,0.0],[-9.186,42.8768,0.0],[-9.1824,42.876,0.0],[-9.1821,42.8807,0.0],[-9.1849,42.884,0.0]]]]}
,"properties": {"GID_3": "ESP.12.1.1_1","GID_0": "ESP","country": "Spain","GID_1": "ESP.12_1","province": "Galicia","NL_NAME_1": "NA","GID_2": "ESP.12.1_1","county": "ACoruña","NL_NAME_2": "NA","city": "n.a.(145)","VARNAME_3": "NA","NL_NAME_3": "NA","TYPE_3": "Comarca","ENGTYPE_3": "Comarca","CC_3": "NA","HASC_3": "NA","name": "n.a.(145).city","area_km2": 2837.611,"hist_schema_id": "Elevation0-9000","hist_area_km2": {"0": 101.872,"25": 145.546,"50": 139.046,"75": 134.091,"100": 124.81,"125": 131.0,"150": 140.097,"175": 153.557,"200": 162.616,"225": 158.591,"250": 147.236,"275": 175.782,"300": 193.514,"325": 199.411,"350": 202.219,"375": 169.584,"400": 119.733,"425": 86.248,"450": 55.113,"475": 33.964,"500": 23.723,"525": 14.052,"550": 11.151,"575": 6.744,"600": 3.768,"625": 2.461,"650": 0.981,"675": 0.701}}}