{"type":"Feature","properties":{"GID_3":"ESP.1.8.4_1","GID_0":"ESP","country":"Spain","GID_1":"ESP.1_1","province":"Andalucía","NL_NAME_1":"NA","GID_2":"ESP.1.8_1","county":"Sevilla","NL_NAME_2":"NA","city":"n.a.(229)","VARNAME_3":"NA","NL_NAME_3":"NA","TYPE_3":"Comarca","ENGTYPE_3":"Comarca","CC_3":"NA","HASC_3":"NA","name":"n.a.(229).city"},
"geometry":{"type": "MultiPolygon","coordinates": [[[[-6.1147,37.2987,37.8857],[-6.1128,37.2943,36.1503],[-6.1072,37.2889,31.8877],[-6.0978,37.2888,21.0813],[-6.0859,37.2856,24.6888],[-6.0735,37.301,22.9063],[-6.0723,37.3073,31.387],[-6.0514,37.3044,4.4445],[-6.0429,37.3008,5.9912],[-6.0401,37.2977,0.0],[-6.0283,37.3018,0.0],[-6.0139,37.3149,1.5817],[-6.0029,37.3203,2.8128],[-6.0054,37.3251,9.5115],[-6.0209,37.3368,1.5644],[-6.0223,37.3504,0.5],[-6.0329,37.3485,38.5162],[-6.0331,37.3546,38.1695],[-6.0362,37.357,60.0229],[-6.0441,37.3589,66.3806],[-6.0548,37.3586,87.7044],[-6.046,37.3614,57.9389],[-6.0441,37.3642,59.8469],[-6.0362,37.3678,36.7104],[-6.0342,37.3704,42.2352],[-6.0349,37.3729,37.5915],[-6.0264,37.3751,8.4218],[-6.0217,37.3795,1.0],[-6.0245,37.3857,5.8601],[-6.0246,37.3922,6.1968],[-6.0155,37.4008,1.0],[-6.0126,37.4132,6.6235],[-6.0145,37.4131,8.4983],[-6.03,37.4241,7.4974],[-6.0329,37.4282,9.1039],[-6.0551,37.4326,41.3519],[-6.063,37.4541,17.8633],[-6.0603,37.4518,17.8244],[-6.0544,37.4513,17.1864],[-6.04,37.4525,6.0942],[-6.039,37.4432,9.2372],[-6.0366,37.442,8.1865],[-6.0307,37.4287,10.5067],[-6.0278,37.4249,6.6888],[-6.0232,37.428,5.5967],[-6.0242,37.4324,5.0787],[-6.0278,37.437,7.2338],[-6.0286,37.4426,5.3037],[-6.0288,37.4452,5.9017],[-6.0258,37.4475,5.0468],[-6.0253,37.4531,8.1156],[-6.0304,37.4533,7.3654],[-6.0308,37.4497,6.6046],[-6.0326,37.4493,5.7428],[-6.0345,37.45,5.9698],[-6.0331,37.4521,7.2877],[-6.0376,37.4511,5.7601],[-6.0405,37.4538,6.9595],[-6.0396,37.4612,6.9661],[-6.0341,37.4701,10.3581],[-6.0347,37.4762,5.7822],[-6.0332,37.4768,6.7082],[-6.0307,37.4746,6.6047],[-6.0284,37.4753,7.3444],[-6.0242,37.48,8.3269],[-6.0296,37.4839,8.0554],[-6.0257,37.4884,5.6659],[-6.0267,37.491,7.8597],[-6.0294,37.4912,8.214],[-6.0298,37.4926,5.8202],[-6.0359,37.4898,8.5463],[-6.0407,37.4901,9.1901],[-6.0588,37.499,12.9365],[-6.0709,37.4912,15.6136],[-6.0758,37.4925,17.3709],[-6.0814,37.4973,16.1601],[-6.0818,37.5007,17.2115],[-6.0862,37.5032,10.7165],[-6.098,37.4973,24.5277],[-6.1055,37.4905,25.597],[-6.1099,37.484,37.5038],[-6.108,37.4771,34.983],[-6.1125,37.474,43.2924],[-6.1132,37.4774,39.3042],[-6.1531,37.4837,71.2701],[-6.1751,37.4962,60.2522],[-6.1739,37.5005,68.1145],[-6.1954,37.5006,63.9316],[-6.1977,37.4969,68.3525],[-6.2075,37.5187,98.5365],[-6.2146,37.5254,114.3367],[-6.2169,37.5251,117.685],[-6.2171,37.532,124.4159],[-6.2214,37.5404,157.5195],[-6.2282,37.5529,178.1382],[-6.2332,37.5562,182.6104],[-6.2347,37.5594,199.8391],[-6.2321,37.5628,197.5422],[-6.2319,37.5692,195.6871],[-6.2285,37.5731,215.4842],[-6.2297,37.5811,213.9785],[-6.2283,37.5872,227.1541],[-6.232,37.5932,249.1953],[-6.2319,37.6012,242.447],[-6.235,37.6062,237.5199],[-6.2411,37.611,225.1671],[-6.2465,37.6217,215.4115],[-6.2571,37.6281,226.3477],[-6.2544,37.6118,224.0177],[-6.2566,37.6019,193.7368],[-6.2557,37.5998,171.7675],[-6.2616,37.5961,166.6417],[-6.2619,37.5909,170.2745],[-6.2638,37.591,163.1886],[-6.2652,37.5886,150.2494],[-6.2665,37.5896,156.453],[-6.2667,37.5882,150.2494],[-6.2631,37.5852,149.0428],[-6.2621,37.581,147.7506],[-6.2649,37.5794,158.0697],[-6.2619,37.5772,147.5146],[-6.2636,37.576,152.4206],[-6.2627,37.5665,121.5891],[-6.2605,37.566,138.9266],[-6.26,37.5609,120.3586],[-6.2554,37.563,116.396],[-6.2539,37.5588,123.6261],[-6.2503,37.5579,124.015],[-6.2486,37.5552,134.5934],[-6.2454,37.5564,132.6077],[-6.2428,37.5509,96.562],[-6.2411,37.5509,104.6271],[-6.2378,37.5467,99.9206],[-6.2337,37.547,109.6183],[-6.2321,37.5439,93.7219],[-6.233,37.5418,88.6282],[-6.229,37.5379,78.8638],[-6.2294,37.5362,84.5839],[-6.2238,37.5283,88.5175],[-6.2216,37.5192,70.3563],[-6.2234,37.5096,51.9798],[-6.2269,37.5092,50.0668],[-6.2246,37.5034,48.8597],[-6.2282,37.4927,57.6541],[-6.2286,37.4832,51.6406],[-6.2381,37.4737,67.975],[-6.2411,37.468,69.4679],[-6.2588,37.4716,83.9751],[-6.2584,37.4702,87.6043],[-6.2722,37.4653,60.2171],[-6.2908,37.4629,57.0118],[-6.322,37.4542,57.8068],[-6.3211,37.4514,55.6541],[-6.3118,37.4457,50.7327],[-6.3112,37.4417,47.9452],[-6.3065,37.4351,42.7235],[-6.3054,37.4263,39.3601],[-6.3121,37.4218,52.2278],[-6.3125,37.4187,46.8542],[-6.3203,37.4193,50.4118],[-6.3212,37.4205,54.789],[-6.3273,37.4161,53.8856],[-6.3561,37.4122,77.11],[-6.3618,37.4014,92.5254],[-6.3541,37.3973,84.8887],[-6.3555,37.3859,103.2675],[-6.3619,37.3759,77.8574],[-6.3552,37.3739,78.02],[-6.355,37.3708,74.439],[-6.3459,37.3657,69.7683],[-6.349,37.3625,71.6668],[-6.3618,37.3558,131.7636],[-6.3683,37.3495,136.7623],[-6.3738,37.3487,125.2376],[-6.3781,37.3461,117.1987],[-6.3844,37.3375,91.7246],[-6.3713,37.3275,85.3572],[-6.3438,37.3131,70.1211],[-6.3329,37.2991,58.6231],[-6.3364,37.2895,51.6881],[-6.3383,37.2882,47.3982],[-6.3399,37.2831,47.1597],[-6.3427,37.2812,41.863],[-6.3415,37.278,45.6167],[-6.3316,37.2692,35.2637],[-6.3312,37.2644,34.1938],[-6.3105,37.2646,42.9271],[-6.3008,37.2629,35.3379],[-6.2928,37.2665,43.1889],[-6.2831,37.2677,43.0118],[-6.2748,37.2736,20.0734],[-6.2759,37.2761,19.2137],[-6.274,37.2763,14.7017],[-6.2764,37.2813,17.0526],[-6.2799,37.2827,21.7435],[-6.282,37.2863,25.5486],[-6.2847,37.3008,30.4086],[-6.2888,37.3048,31.8307],[-6.2919,37.3119,40.1686],[-6.2896,37.3178,40.7403],[-6.2906,37.3191,37.2333],[-6.2744,37.3181,48.6561],[-6.2678,37.3195,28.5787],[-6.2522,37.3278,16.534],[-6.2453,37.327,19.2166],[-6.2455,37.3244,19.4216],[-6.2426,37.3237,49.4387],[-6.2404,37.3194,61.9452],[-6.236,37.321,80.3037],[-6.2296,37.3182,81.0407],[-6.2254,37.3206,88.5076],[-6.2203,37.3204,85.6011],[-6.22,37.3189,85.6011],[-6.2222,37.3176,81.7601],[-6.2162,37.3139,75.8098],[-6.2157,37.3112,72.7829],[-6.211,37.3106,72.1758],[-6.2144,37.3076,73.0453],[-6.2049,37.2926,51.6414],[-6.2061,37.2889,47.7965],[-6.2106,37.285,44.2524],[-6.2056,37.2759,50.3135],[-6.2016,37.2729,39.9045],[-6.1979,37.2728,41.3344],[-6.1887,37.2642,27.603],[-6.1811,37.2594,19.3931],[-6.1795,37.2564,14.2973],[-6.1726,37.2545,20.4809],[-6.1647,37.26,29.1198],[-6.1528,37.2564,40.9394],[-6.1414,37.2591,23.6395],[-6.1385,37.275,30.9125],[-6.1423,37.2862,46.3941],[-6.1379,37.2982,46.7389],[-6.1311,37.3031,50.5988],[-6.1213,37.303,47.486],[-6.1147,37.2987,37.8857]]]]}}