{"type":"Feature","properties":{"GID_3":"ESP.6.1.3_1","GID_0":"ESP","country":"Spain","GID_1":"ESP.6_1","province":"Cataluña","NL_NAME_1":"NA","GID_2":"ESP.6.1_1","county":"Barcelona","NL_NAME_2":"NA","city":"n.a.(29)","VARNAME_3":"NA","NL_NAME_3":"NA","TYPE_3":"Comarca","ENGTYPE_3":"Comarca","CC_3":"NA","HASC_3":"NA","name":"n.a.(29).city"},
"geometry":{"type": "MultiPolygon","coordinates": [[[[2.2371,41.4249,2.3932],[2.2387,41.4243,0.0],[2.2376,41.4293,6.3048],[2.2387,41.4321,5.0319],[2.2465,41.4421,4.6244],[2.266,41.4593,7.0153],[2.3063,41.4757,5.779],[2.3096,41.474,0.2168],[2.3129,41.476,0.9035],[2.3124,41.4735,0.0],[2.3135,41.4735,0.0],[2.3193,41.4785,0.0],[2.3521,41.486,0.6438],[2.381,41.4951,0.0],[2.3835,41.4976,8.4752],[2.4076,41.5085,0.0],[2.4179,41.5165,3.2649],[2.441,41.529,3.7601],[2.4449,41.529,0.0],[2.4451,41.526,0.0],[2.4493,41.5299,0.95009999999999994],[2.4479,41.534,0.8465],[2.4499,41.536,2.0781],[2.454,41.5371,0.0],[2.4629,41.5435,0.0],[2.471,41.5468,0.0],[2.4951,41.5524,1.5163],[2.5007,41.5563,2.7631],[2.5074,41.5563,0.0],[2.5099,41.5585,0.0],[2.5096,41.5612,2.8449],[2.5154,41.5624,7.9326],[2.5521,41.5788,12.9441],[2.5596,41.5768,0.4545],[2.561,41.5788,1.7208],[2.561,41.5765,0.5565],[2.5576,41.574,0.0],[2.5604,41.5743,0.4461],[2.5643,41.5804,1.1552],[2.569,41.5829,3.6311],[2.5812,41.5857,7.1428],[2.6026,41.594,10.8908],[2.6087,41.5946,0.0],[2.6301,41.6032,0.0],[2.6418,41.6054,0.0],[2.6501,41.6099,2.4842],[2.6974,41.6224,1.8374],[2.7032,41.6265,2.0374],[2.7182,41.6287,0.0],[2.7276,41.6354,0.0],[2.7468,41.6435,0.5314],[2.759,41.6465,1.0728],[2.7735,41.6474,0.2153],[2.7774,41.6493,0.0],[2.7653,41.6662,5.6028],[2.7614,41.6693,6.469],[2.7579,41.6792,13.6051],[2.7699,41.6874,25.167],[2.7743,41.7003,63.1621],[2.7658,41.7257,274.1659],[2.7772,41.7311,251.3819],[2.7769,41.7355,288.0883],[2.7448,41.735,123.4339],[2.7248,41.7443,165.5567],[2.7026,41.7282,47.8453],[2.693,41.7253,58.024],[2.6701,41.7145,85.8084],[2.651,41.722,246.9967],[2.6497,41.7177,203.6051],[2.6435,41.7152,208.7583],[2.6399,41.7111,288.6848],[2.633,41.6945,444.4313],[2.6328,41.69,440.338],[2.6294,41.6882,437.4249],[2.6262,41.6885,416.3436],[2.6137,41.6923,337.391],[2.6,41.6835,425.8947],[2.6031,41.6784,476.0709],[2.6088,41.6754,538.6089],[2.6061,41.6727,395.5597],[2.5979,41.6702,332.6434],[2.5937,41.659,681.8176],[2.5709,41.661,739.9427],[2.5616,41.6587,731.5115],[2.5515,41.66,695.57],[2.5462,41.6577,485.5428],[2.5395,41.6426,383.1077],[2.5367,41.6411,370.9894],[2.5351,41.6376,364.5114],[2.5361,41.6336,368.5375],[2.5296,41.6316,380.7618],[2.5266,41.6266,355.4073],[2.5233,41.6255,410.8638],[2.5147,41.6267,422.8086],[2.5053,41.6241,455.4917],[2.4909,41.6247,508.3598],[2.4862,41.627,575.2258],[2.4847,41.6292,579.2002],[2.4857,41.6313,571.5391],[2.4809,41.6291,582.614],[2.4778,41.6313,631.0747],[2.4725,41.6297,628.0678],[2.4635,41.6306,467.8456],[2.4572,41.6283,363.0604],[2.4554,41.6311,325.7509],[2.4527,41.6269,465.6857],[2.4505,41.6263,468.9203],[2.448,41.6275,458.3112],[2.4478,41.6305,417.0907],[2.4407,41.6307,420.4921],[2.4363,41.6284,341.5775],[2.4317,41.6307,332.9453],[2.4316,41.6296,315.2702],[2.4295,41.631,295.0476],[2.4275,41.6297,324.3746],[2.4216,41.6305,329.6213],[2.4201,41.6257,378.9538],[2.4183,41.6271,368.4291],[2.415,41.6263,334.6241],[2.4102,41.6216,287.8288],[2.4011,41.611,248.0159],[2.4008,41.6076,238.0221],[2.3942,41.6086,283.6874],[2.3861,41.5999,334.5247],[2.3825,41.6001,344.5783],[2.3827,41.597,330.5569],[2.3806,41.5951,290.295],[2.3751,41.5954,368.5727],[2.3686,41.5855,304.5547],[2.3562,41.5737,332.2216],[2.3487,41.5697,403.8185],[2.3423,41.5611,417.9225],[2.3375,41.5612,439.6835],[2.3395,41.5549,459.9881],[2.334,41.545,277.1339],[2.3353,41.5439,305.6508],[2.3281,41.5411,203.006],[2.3288,41.5394,233.5692],[2.3163,41.5333,208.8942],[2.319,41.5328,224.0894],[2.3208,41.5294,236.1868],[2.3247,41.5301,257.4985],[2.3287,41.5285,280.712],[2.3294,41.5244,353.3762],[2.3311,41.5239,344.2415],[2.3228,41.5167,484.1208],[2.3158,41.5175,344.9487],[2.3096,41.5161,321.3262],[2.3072,41.5131,332.0705],[2.3021,41.5154,323.6548],[2.2848,41.5153,383.0973],[2.2683,41.5093,437.215],[2.2666,41.5047,453.9875],[2.2632,41.5041,448.7187],[2.2593,41.4976,341.8805],[2.2553,41.4959,352.2722],[2.2543,41.4921,323.7183],[2.247,41.4887,373.5835],[2.2457,41.4904,387.7457],[2.231,41.4929,440.7473],[2.2249,41.4923,438.6124],[2.2157,41.4871,303.3182],[2.2153,41.483,166.6204],[2.2119,41.4804,132.1381],[2.2178,41.4778,231.7882],[2.2137,41.4718,244.8683],[2.2057,41.4705,252.4153],[2.2,41.4733,167.1562],[2.1891,41.4707,28.3772],[2.187,41.4675,25.8406],[2.1885,41.4596,18.853],[2.2009,41.4495,12.9015],[2.2075,41.4419,8.2361],[2.2106,41.4337,11.1918],[2.2059,41.433,15.244],[2.2075,41.4281,13.8102],[2.2062,41.4257,12.2444],[2.21,41.4247,9.7704],[2.2208,41.4126,7.1305],[2.2279,41.4126,2.3739],[2.2301,41.4168,2.873],[2.2343,41.4165,0.0],[2.2324,41.4179,1.1865],[2.2321,41.421,4.5083],[2.2371,41.4249,2.3932]]]]}}