{"type":"Feature","properties":{"featurecla":"Reservoir","scalerank":7,"name":"Embalse de Cara","name_abb":"Emb. de Cara","name_alt":null,"note":null,"delta":null,"dam_name":"Embalse de Cÿara","year":1953,"admin":null,"min_zoom":5.7,"min_label":6.7},
"geometry":{"type": "Polygon","coordinates": [[[-5.0234669996887078,39.360129945101846,387.3718],[-5.0025671466623578,39.357186303830531,583.4384],[-5.0094847036499743,39.368372140661535,561.1943],[-5.0113980704763321,39.37543687971268,413.0],[-5.0062466982515161,39.378969249238281,413.0],[-5.0016840542809859,39.380735434001053,427.7862],[-4.9957967717383269,39.383973439399512,449.1732],[-4.9904982174499821,39.385445260035169,413.0],[-4.9881433044329242,39.3819128905096,442.696],[-4.9829919322081082,39.381029798128196,413.0],[-4.9612089868003579,39.373376330822765,413.0],[-4.9581181634654854,39.371610146059965,413.0],[-4.9448717777445674,39.368960868915792,423.5979],[-4.9369239463119916,39.362779222246019,483.0341],[-4.9319197561507622,39.356008847321988,413.0],[-4.9267683839259746,39.351004657160757,413.0],[-4.9158769112220853,39.346883559380927,413.0],[-4.8926221451786773,39.344234282236727,533.8939],[-4.8798173056484586,39.333048445405723,413.0],[-4.8612723656391674,39.297724750149939,417.0],[-4.8483203440453622,39.278885446013504,419.0],[-4.8325718632438281,39.2668165168011,484.479],[-4.8128494667260213,39.258279957114269,420.5],[-4.7697251221012209,39.248565940918951,425.9103],[-4.7850320567120548,39.266522152673957,511.468],[-4.8343380480066287,39.290954375225908,704.8715],[-4.8447879745197886,39.306850038091,608.5842],[-4.8480259799182477,39.313326048887916,438.537],[-4.86200827595701,39.330104804134407,433.3265],[-4.8652462813554394,39.340996276838268,514.8781],[-4.8668652840546827,39.354242662559216,553.9491],[-4.871869474215913,39.361896129864618,596.3939],[-4.880406033902716,39.366900320025877,473.0291],[-4.9445774136174236,39.391921270832057,470.3625],[-4.959589984101143,39.401929651154546,645.3392],[-4.9441358674267244,39.406050748934376,418.0],[-4.9186733704298433,39.402812743535947,479.4143],[-4.8728997486608714,39.388388901306485,449.1121],[-4.8447879745197886,39.385150895908026,470.1231],[-4.8447879745197886,39.392509999086315,489.3075],[-4.9564991607662714,39.424890053070811,420.3867],[-4.9663603590251739,39.418414042273923,540.3196],[-4.9753384649026771,39.407228205442919,583.3395],[-4.9881433044329242,39.399280374010345,471.0677],[-4.9984460488825277,39.400752194646,446.5517],[-5.0164022606375616,39.405462020680119,493.3163],[-5.033916926201897,39.41223239560415,560.7418],[-5.0434837603336584,39.419885862909581,577.3058],[-5.0502541352576884,39.419885862909581,560.6069],[-5.0502541352576884,39.412526759731264,488.5184],[-5.0234669996887078,39.360129945101846,387.3718]]]}}