{"type":"Feature","properties":{"featurecla":"Lake Centerline","scalerank":7,"rivernum":395,"dissolve":"395Lake Centerline","name":"Guadiana1","name_alt":null,"note":null,"min_zoom":6.0,"strokeweig":0.2,"name_en":"Guadiana","min_label":7.0},
"geometry":{"type": "LineString","coordinates": [[-5.0188964843749773,39.36041901249412,407.8144],[-5.0221435546874886,39.34088776249412,414.5576],[-5.0354980468749773,39.31928131718162,469.6422],[-5.0553466796874886,39.29987213749412,413.9913],[-5.0789550781249773,39.279559637494117,429.0],[-5.0805175781249829,39.27863190311912,439.6872]]}}