{"type":"Feature","properties":{"featurecla":"River","scalerank":7,"rivernum":395,"dissolve":"395River","name":"Guadiana4","name_alt":null,"note":null,"min_zoom":6.0,"strokeweig":0.2,"name_en":"Guadiana","min_label":7.0},
"geometry":{"type": "LineString","coordinates": [[-5.1806640625,39.15912506718162,395.4261],[-5.20556640625,39.14288971561912,412.6012],[-5.2316406249999829,39.124627996869116,339.9661],[-5.262939453125,39.11029694218162,310.0],[-5.3034179687499829,39.098407293744117,348.2453],[-5.3118164062499886,39.094012762494117,358.2877],[-5.3223632812499773,39.08490631718162,320.8877],[-5.3427734375,39.055926824994117,310.0],[-5.3563476562499943,39.04901764530662,310.0],[-5.3843261718749886,39.04120514530662,323.8612],[-5.409912109375,39.030389715619116,310.0],[-5.4713623046874886,39.01581452030662,354.7203],[-5.559375,39.013934637494117,333.3519]]}}