{"type":"Feature","properties":{"featurecla":"Lake Centerline","scalerank":7,"rivernum":395,"dissolve":"395Lake Centerline","name":"Guadiana","name_alt":null,"note":null,"min_zoom":6.0,"strokeweig":0.2,"name_en":"Guadiana","min_label":7.0},
"geometry":{"type": "LineString","coordinates": [[-4.769775390625,39.248553778119117,425.9103],[-4.787353515625,39.25726959843162,420.5],[-4.8169921874999773,39.269647528119116,472.7289],[-4.83984375,39.28485748905662,481.0933],[-4.8616699218749773,39.313104559369116,413.0],[-4.873779296875,39.33808014530662,508.8476],[-4.9063476562499773,39.36029694218162,438.3756],[-4.9521484375,39.381219793744116,454.7212],[-4.9746582031249886,39.39008209843162,450.2718],[-4.9951171875,39.392694403119116,416.592],[-5.015625,39.388788153119116,413.0],[-5.02197265625,39.37982819218162,549.3136],[-5.0181152343749886,39.365252996869117,358.4697],[-5.0188964843749773,39.36041901249412,407.8144]]}}