{"type":"Feature","properties":{"featurecla":"River","scalerank":7,"rivernum":395,"dissolve":"395River","name":"Guadiana3","name_alt":null,"note":null,"min_zoom":6.0,"strokeweig":0.2,"name_en":"Guadiana","min_label":7.0},
"geometry":{"type": "LineString","coordinates": [[-3.1645996093749891,39.31659577030662,633.6754],[-3.2825195312499891,39.32367584843162,636.1017],[-3.3042480468749891,39.321551824994117,627.5627],[-3.3388671875,39.312616278119116,624.7815],[-3.3613769531249891,39.31061432499412,625.277],[-3.3753417968749768,39.30487702030662,622.5398],[-3.38623046875,39.29132721561912,620.6599],[-3.395751953125,39.27533600468162,619.8826],[-3.4054443359374891,39.262225653119117,619.2716],[-3.4705566406249768,39.23920319218162,620.9703],[-3.4817871093749768,39.23798248905662,624.3735],[-3.5425781249999768,39.21381256718162,613.197],[-3.6321777343749768,39.19855377811912,608.3087],[-3.6710937499999829,39.18451569218162,607.0087],[-3.738037109375,39.13593170780662,617.2013],[-3.7574218749999768,39.12763092655662,608.0468],[-3.7954589843749891,39.12091705936912,609.5626],[-3.84423828125,39.09088776249412,604.5063],[-3.8851074218749768,39.08014557499412,614.2797],[-3.9727050781249891,39.07538483280662,612.3589],[-4.009375,39.06293366093162,615.8623],[-4.0271972656249773,39.049676824994116,597.3369],[-4.0360595703124886,39.036981512494116,578.9731],[-4.0364746093749773,39.021844793744116,579.069],[-4.022705078125,38.98590729374412,575.3624],[-4.0164062499999886,38.96271393436912,575.8746],[-4.0192382812499829,38.941766668744116,571.8203],[-4.039794921875,38.932635809369117,686.2529],[-4.0583984374999886,38.92841217655662,677.5371],[-4.0990234374999943,38.91010162968162,595.5914],[-4.1220214843749829,38.90595123905662,569.4767],[-4.1267578124999886,38.91022369999412,564.7614],[-4.1425048828124886,38.93036530155662,609.5156],[-4.1459228515624886,38.93634674686912,678.9026],[-4.1524414062499773,38.940301824994116,644.655],[-4.1937011718749773,38.954364324994117,588.845],[-4.2085937499999773,38.948358465619116,548.4589],[-4.2268554687499886,38.94855377811912,541.9393],[-4.242431640625,38.954120184369117,538.9808],[-4.2489257812499943,38.96393463749412,704.3621],[-4.2952636718749773,38.98444244999412,551.7256],[-4.3069824218749773,38.991571356244116,563.7283],[-4.3306640624999773,39.000604559369116,632.879],[-4.3667968749999773,39.00018952030662,605.5409],[-4.4338867187499886,38.98786041874412,574.422],[-4.4243652343749886,39.00568268436912,574.186],[-4.4387695312499886,39.01312897343162,503.3779],[-4.464599609375,39.01825592655662,546.0165],[-4.4891113281249773,39.02948639530662,538.1218],[-4.5444824218749886,39.067157293744117,631.9269],[-4.5574707031249773,39.08344147343162,532.3822],[-4.5636474609374886,39.07721588749412,498.4833],[-4.5710937499999886,39.06976959843162,464.8513],[-4.5725585937499886,39.089129949994117,506.7988],[-4.581787109375,39.10443756718162,507.5155],[-4.5967773437499773,39.11456940311912,764.9398],[-4.615478515625,39.118182684369117,606.1608],[-4.6197265624999773,39.120477606244116,723.5579],[-4.639404296875,39.138690496869117,644.9224],[-4.6434082031249773,39.14057037968162,668.7802],[-4.648681640625,39.140887762494117,646.8301],[-4.654541015625,39.14203522343162,472.1989],[-4.6598388671874886,39.146112371869116,698.2509],[-4.6604492187499886,39.150995184369116,765.9089],[-4.6531738281249773,39.160419012494117,434.5436],[-4.6530029296874886,39.16596100468162,594.8954],[-4.6705810546874886,39.19086334843162,525.834],[-4.6993164062499773,39.218036199994117,539.3032],[-4.7340820312499829,39.23981354374412,558.4508],[-4.7696777343749943,39.248553778119117,425.9103]]}}