{"type":"Feature","properties":{"featurecla":"Lake Centerline","scalerank":7,"rivernum":395,"dissolve":"395Lake Centerline","name":"Guadiana2","name_alt":null,"note":null,"min_zoom":6.0,"strokeweig":0.2,"name_en":"Guadiana","min_label":7.0},
"geometry":{"type": "LineString","coordinates": [[-5.0805175781249829,39.27863190311912,439.6872],[-5.0983398437499829,39.26825592655662,425.2986],[-5.1260742187499773,39.255975653119116,477.4701],[-5.15478515625,39.24030182499412,385.5332],[-5.1695312499999773,39.22370026249412,385.5726],[-5.177978515625,39.202752996869116,352.0],[-5.1807128906249886,39.18646881718162,352.0],[-5.1806640625,39.15912506718162,395.4261]]}}