{"type":"Feature","properties":{"GID_3":"ESP.5.4.6_1","GID_0":"ESP","country":"Spain","GID_1":"ESP.5_1","province":"CastillayLeón","NL_NAME_1":"NA","GID_2":"ESP.5.4_1","county":"Palencia","NL_NAME_2":"NA","city":"n.a.(205)","VARNAME_3":"NA","NL_NAME_3":"NA","TYPE_3":"Comarca","ENGTYPE_3":"Comarca","CC_3":"NA","HASC_3":"NA","name":"n.a.(205).city"},
"geometry":{"type": "MultiPolygon","coordinates": [[[[-4.2919,42.1054,889.7068],[-4.2951,42.096,896.5747],[-4.306,42.0948,895.4379],[-4.3207,42.0969,889.559],[-4.3243,42.0964,889.2629],[-4.3314,42.0917,883.2409],[-4.3359,42.0944,885.8273],[-4.339,42.1008,885.3954],[-4.3522,42.1014,889.4359],[-4.3642,42.0986,885.9561],[-4.3725,42.1082,889.7281],[-4.3781,42.1115,888.7328],[-4.3846,42.107,888.7156],[-4.3759,42.102,891.1365],[-4.3713,42.0973,888.8503],[-4.365,42.0946,878.8633],[-4.3668,42.0898,882.4684],[-4.3769,42.0886,890.5463],[-4.3893,42.0905,888.3081],[-4.3888,42.0871,886.566],[-4.3921,42.0819,849.8956],[-4.4015,42.0747,863.3373],[-4.405,42.0736,885.495],[-4.4088,42.0756,888.6699],[-4.4176,42.0696,859.6609],[-4.4164,42.0681,850.3978],[-4.4215,42.0674,885.1226],[-4.425,42.0631,857.9114],[-4.4278,42.0641,875.3007],[-4.442,42.0516,880.9088],[-4.4426,42.048,878.6837],[-4.438,42.041,851.2346],[-4.4386,42.0358,845.4395],[-4.4426,42.0326,866.4572],[-4.4408,42.0302,859.3127],[-4.4536,42.0305,872.0491],[-4.4463,42.021,859.4797],[-4.4441,42.0217,861.374],[-4.4434,42.0205,867.5569],[-4.4473,42.0193,854.0131],[-4.447,42.0182,843.5851],[-4.444,42.0188,864.0405],[-4.441,42.0131,840.1376],[-4.4367,42.0125,827.372],[-4.4362,42.011,799.9963],[-4.4529,42.0068,834.0278],[-4.4819,42.0075,862.7311],[-4.4918,42.0043,854.9016],[-4.4929,42.0028,869.5835],[-4.4916,41.9976,868.5568],[-4.4966,41.992,856.0815],[-4.4965,41.9885,845.8134],[-4.4937,41.9864,840.7896],[-4.4951,41.9805,756.3729],[-4.4979,41.9818,753.5211],[-4.5127,41.9771,723.5826],[-4.5455,41.9708,863.5185],[-4.5437,41.9653,830.6899],[-4.5455,41.9644,865.6196],[-4.5454,41.9614,864.0032],[-4.5397,41.96,820.7233],[-4.5405,41.9566,780.0895],[-4.5432,41.9558,788.1901],[-4.5556,41.9438,862.7908],[-4.5522,41.9382,837.2723],[-4.5529,41.9365,860.4393],[-4.5486,41.9319,843.5021],[-4.552,41.9276,847.8726],[-4.5695,41.9262,850.7438],[-4.5727,41.923,819.2883],[-4.5744,41.9244,834.403],[-4.5735,41.9264,823.8198],[-4.5761,41.9274,843.2056],[-4.5918,41.926,849.8044],[-4.595,41.924,852.0894],[-4.606,41.9265,856.0862],[-4.6113,41.9313,861.6528],[-4.6259,41.922,861.9807],[-4.6333,41.9194,862.5774],[-4.6374,41.9199,861.179],[-4.6373,41.9139,861.3368],[-4.6445,41.8991,860.5582],[-4.6608,41.9025,859.2155],[-4.6581,41.8946,859.8668],[-4.6498,41.891,859.9707],[-4.6438,41.8912,855.6122],[-4.6372,41.8881,848.7603],[-4.6348,41.8836,839.3115],[-4.6364,41.8791,832.6247],[-4.6336,41.8758,834.9495],[-4.6349,41.871,828.8319],[-4.6319,41.8682,816.2812],[-4.6294,41.8683,824.7604],[-4.6327,41.8632,848.1755],[-4.6263,41.8582,804.2566],[-4.624,41.854,802.9429],[-4.618,41.8512,801.5299],[-4.6037,41.8386,765.5569],[-4.591,41.8368,744.1885],[-4.582,41.8224,717.6381],[-4.566,41.8126,699.0222],[-4.5672,41.8162,704.84],[-4.5646,41.8184,703.5078],[-4.5549,41.8164,703.9379],[-4.5509,41.8167,706.4669],[-4.548,41.819,704.305],[-4.5454,41.8261,700.0354],[-4.5501,41.8288,699.1846],[-4.5491,41.831,699.8292],[-4.5294,41.8278,722.7178],[-4.5209,41.8232,737.4995],[-4.512,41.8233,815.7439],[-4.509,41.8263,864.4915],[-4.5055,41.8268,863.6373],[-4.5052,41.83,870.9404],[-4.5085,41.8323,856.8148],[-4.4994,41.8332,873.2839],[-4.4918,41.8384,870.4809],[-4.4793,41.8382,870.1089],[-4.4783,41.8433,867.8064],[-4.4732,41.843,864.6983],[-4.4717,41.8405,857.5709],[-4.4733,41.832,861.5011],[-4.4782,41.8286,872.8663],[-4.4611,41.8203,872.5612],[-4.4657,41.8193,872.125],[-4.4685,41.8206,871.6843],[-4.4791,41.8183,853.1335],[-4.4836,41.8203,860.3008],[-4.4873,41.8201,843.2566],[-4.4936,41.7803,855.4581],[-4.4923,41.7786,808.2001],[-4.5011,41.7714,868.8963],[-4.4845,41.7695,867.0834],[-4.4542,41.7592,869.7815],[-4.4421,41.7586,875.0657],[-4.4213,41.7681,877.6183],[-4.4039,41.7832,875.1945],[-4.3916,41.7873,876.5204],[-4.3802,41.7864,876.3085],[-4.3825,41.7837,877.7045],[-4.3813,41.7823,876.0763],[-4.3525,41.7738,884.2889],[-4.3338,41.7721,850.1904],[-4.3176,41.7634,882.7103],[-4.3172,41.7685,856.8295],[-4.3134,41.7695,854.1427],[-4.3067,41.7759,821.1135],[-4.2865,41.7749,870.4792],[-4.2787,41.7886,882.4487],[-4.2712,41.792,880.4969],[-4.2602,41.8052,873.2217],[-4.2562,41.806399999999996,855.9641],[-4.2474,41.8029,880.2096],[-4.2363,41.8114,826.9974],[-4.2359,41.814,813.2367],[-4.2328,41.8081,821.2579],[-4.215,41.7996,833.6984],[-4.1943,41.804,847.4084],[-4.1903,41.8016,858.8634],[-4.1755,41.8028,885.9552],[-4.1702,41.8002,889.5984],[-4.1634,41.8012,894.015],[-4.1538,41.7962,903.9545],[-4.1507,41.7989,914.3419],[-4.1231,41.8073,920.8096],[-4.1178,41.8003,922.1429],[-4.1106,41.7947,911.0676],[-4.1085,41.7853,898.1237],[-4.0994,41.7744,829.9272],[-4.0965,41.7748,806.4628],[-4.09,41.7795,809.7805],[-4.0851,41.7791,804.6733],[-4.0715,41.7706,845.7795],[-4.064,41.7702,860.6404],[-4.0614,41.7747,882.7808],[-4.0408,41.7683,901.3892],[-4.0388,41.7727,893.6845],[-4.0379,41.7898,895.1304],[-4.0429,41.7911,905.3773],[-4.0488,41.8028,815.1022],[-4.0586,41.8048,912.8929],[-4.09,41.8309,922.4685],[-4.0907,41.8387,922.6387],[-4.088,41.8447,922.76],[-4.0792,41.8484,923.6116],[-4.0809,41.8621,922.2922],[-4.0842,41.864,924.3744],[-4.0887,41.8706,875.4722],[-4.0796,41.8741,910.344],[-4.0726,41.8741,900.3547],[-4.062,41.8769,877.1885],[-4.0582,41.8742,904.7097],[-4.0375,41.8728,893.9001],[-4.0195,41.8785,926.6802],[-4.007,41.8852,935.379],[-3.9982,41.8924,941.8257],[-3.9806,41.9006,938.9386],[-3.9837,41.927,913.3466],[-3.9813,41.9307,891.2235],[-3.9521,41.9353,876.7986],[-3.9471,41.9395,872.6687],[-3.9443,41.9445,869.2045],[-3.9458,41.9464,866.2532],[-3.9365,41.957,865.8892],[-3.9228,41.9604,876.8152],[-3.9147,41.9584,877.8831],[-3.9121,41.956,879.0103],[-3.8923,41.9576,888.3485],[-3.891,41.9605,897.0106],[-3.8939,41.9718,895.903],[-3.89,41.9866,884.9716],[-3.8914,41.9966,877.559],[-3.9101,41.997,883.6928],[-3.9148,41.992,901.0572],[-3.9234,41.9906,894.7993],[-3.9508,41.9795,874.5833],[-3.9562,41.981,840.6436],[-3.9725,41.969,896.319],[-3.9732,41.9665,905.8712],[-3.9785,41.9647,899.5593],[-3.9828,41.9653,881.2483],[-3.9906,41.9597,884.2206],[-4.0195,41.9584,923.9616],[-4.0241,41.9541,925.929],[-4.0329,41.9541,925.0275],[-4.0308,41.9689,924.1891],[-4.0273,41.9731,924.1635],[-4.029,41.9766,922.8174],[-4.0237,41.9819,917.4947],[-4.0147,41.9986,912.8805],[-3.9947,42.0054,884.4342],[-3.9852,42.0235,813.593],[-3.9832,42.0238,828.8785],[-3.9798,42.0211,827.9066],[-3.971,42.0332,887.2626],[-3.9762,42.0409,866.2989],[-3.9801,42.043,878.3771],[-3.9824,42.0513,891.9296],[-3.9887,42.0467,865.6355],[-3.9962,42.045,889.9856],[-3.9996,42.0489,822.0184],[-4.0108,42.0515,905.3149],[-4.0316,42.0495,916.0695],[-4.0392,42.0533,889.9364],[-4.0458,42.0508,908.5417],[-4.0478,42.0466,918.1979],[-4.0478,42.039,914.8079],[-4.0569,42.0397,912.385],[-4.0636,42.0436,885.5418],[-4.0798,42.0368,906.4835],[-4.0843,42.0389,899.0142],[-4.0921,42.0495,855.9437],[-4.0979,42.0525,882.3997],[-4.0999,42.0579,820.8602],[-4.104,42.0616,815.3757],[-4.103,42.087,763.6232],[-4.0946,42.0868,764.0614],[-4.0774,42.0827,775.3086],[-4.0664,42.086,779.1573],[-4.0661,42.0891,833.3043],[-4.0603,42.0913,837.9615],[-4.0561,42.1009,838.536],[-4.063,42.1012,835.0814],[-4.0763,42.1054,851.7066],[-4.0856,42.1032,852.9962],[-4.0924,42.1078,902.9586],[-4.1037,42.1097,899.3627],[-4.1075,42.1139,790.5677],[-4.1083,42.119,762.6946],[-4.1209,42.1283,757.5369],[-4.1269,42.1222,755.6008],[-4.1324,42.1234,755.082],[-4.1379,42.1197,755.227],[-4.142,42.1196,756.7878],[-4.1415,42.1236,759.4584],[-4.1443,42.1294,781.6099],[-4.1541,42.1317,903.6624],[-4.168,42.1296,902.3261],[-4.1767,42.1258,899.6213],[-4.1782,42.1307,898.7831],[-4.1868,42.1264,900.5403],[-4.2053,42.1346,894.6014],[-4.2034,42.1468,900.1799],[-4.2007,42.1502,899.811],[-4.206,42.154,901.644],[-4.1971,42.1572,904.7373],[-4.1909,42.1639,896.1061],[-4.1886,42.1764,898.0284],[-4.1909,42.181,902.8965],[-4.2058,42.1924,900.7538],[-4.2221,42.1802,890.1396],[-4.2302,42.1802,854.9713],[-4.2382,42.1742,755.852],[-4.2467,42.1747,751.89],[-4.2508,42.1733,751.5654],[-4.2464,42.17,751.0103],[-4.2444,42.1603,747.0594],[-4.2474,42.1557,751.2944],[-4.2563,42.1517,748.4943],[-4.2544,42.1473,745.0765],[-4.2451,42.143,761.4878],[-4.2499,42.137,743.0156],[-4.2485,42.1319,747.2169],[-4.2541,42.1258,745.22],[-4.2524,42.1218,745.7228],[-4.2676,42.1181,802.2915],[-4.2706,42.1196,879.8732],[-4.2806,42.1176,884.1866],[-4.2919,42.1054,889.7068]]],
[[[-4.0334,42.107,890.0104],[-4.0376,42.1026,899.183],[-4.0353,42.1015,868.587],[-4.0353,42.096,851.2097],[-4.0297,42.093,836.5004],[-4.0275,42.0878,833.4907],[-4.0319,42.0786,778.0769],[-4.0242,42.0811,779.719],[-4.0256,42.0915,839.1608],[-4.0334,42.107,890.0104]]],
[[[-4.0689,42.1631,768.2645],[-4.0762,42.1678,780.0645],[-4.0942,42.1577,776.8773],[-4.1118,42.1586,808.1956],[-4.11,42.1432,767.7899],[-4.1027,42.1372,762.3738],[-4.09,42.142,762.3732],[-4.0813,42.1407,764.6831],[-4.07,42.1368,800.6641],[-4.0677,42.1331,836.3401],[-4.0621,42.1316,891.6854],[-4.0597,42.1362,892.6905],[-4.0638,42.1389,793.8729],[-4.0645,42.143,781.1991],[-4.0727,42.1518,766.4851],[-4.0744,42.1561,766.524],[-4.0705,42.1558,762.5682],[-4.0671,42.1576,768.5081],[-4.0656,42.1635,768.3854],[-4.0689,42.1631,768.2645]]],
[[[-4.163,42.8209,937.1325],[-4.1763,42.8234,962.4359],[-4.1823,42.8203,919.1136],[-4.1745,42.8116,909.7402],[-4.161,42.8131,863.7431],[-4.161,42.8184,893.9901],[-4.163,42.8209,937.1325]]],
[[[-4.1057,42.8271,1051.2815],[-4.107,42.8277,1063.526],[-4.1124,42.8223,986.8096],[-4.113,42.8167,970.9075],[-4.1052,42.8088,833.2954],[-4.1088,42.8031,803.3884],[-4.101,42.7939,827.1957],[-4.089,42.7999,779.5944],[-4.0884,42.8185,966.4541],[-4.0948,42.824,1003.3192],[-4.1057,42.8271,1051.2815]]],
[[[-4.1993,42.8447,954.1555],[-4.2089,42.8448,953.858],[-4.2188,42.8505,982.3638],[-4.2256,42.8589,990.4528],[-4.2228,42.8647,1008.6639],[-4.2234,42.875,1001.0675],[-4.2305,42.8967,1029.7255],[-4.2307,42.9032,1032.7531],[-4.2247,42.9064,1173.8511],[-4.2225,42.9109,1170.3052],[-4.2366,42.9171,1077.2782],[-4.239,42.933,1065.5394],[-4.2384,42.9543,1233.3842],[-4.2459,42.9594,1415.1635],[-4.2621,42.9652,1684.8326],[-4.278,42.9654,1909.688],[-4.2894,42.9691,1913.9459],[-4.2989,42.9665,1908.0511],[-4.3036,42.9669,1915.2051],[-4.3154,42.9697,1863.9204],[-4.3472,42.9721,2051.0632],[-4.3628,42.9849,1882.1451],[-4.3671,42.9806,1772.3724],[-4.3653,42.9777,1842.6583],[-4.367,42.9672,2115.6094],[-4.3765,42.9611,2059.8577],[-4.3774,42.9585,2065.6221],[-4.3666,42.9501,1876.2131],[-4.3634,42.9441,1840.7938],[-4.365,42.9385,1700.8291],[-4.3611,42.9343,1636.1116],[-4.3426,42.929,1620.4194],[-4.3305,42.928,1554.8815],[-4.3296,42.9223,1409.5833],[-4.328,42.9188,1305.7769],[-4.3237,42.9157,1312.8706],[-4.322,42.909,1441.2917],[-4.3353,42.8956,1343.2532],[-4.3345,42.8896,1271.0883],[-4.3443,42.8934,1294.9751],[-4.3455,42.892,1291.8149],[-4.3479,42.8941,1319.4863],[-4.3681,42.8943,1220.5215],[-4.3723,42.8924,1143.6641],[-4.381,42.8754,1154.897],[-4.3803,42.8729,1180.3276],[-4.39,42.8687,1135.3092],[-4.3938,42.8636,1043.6017],[-4.4009,42.8626,1037.6104],[-4.3986,42.8602,987.3254],[-4.3991,42.8532,985.8972],[-4.4011,42.8513,957.7905],[-4.3967,42.8512,957.0934],[-4.3913,42.8469,955.7972],[-4.3987,42.8428,1017.313],[-4.3892,42.8385,1000.6155],[-4.3905,42.8344,1006.9072],[-4.3962,42.8326,1041.3071],[-4.4082,42.8215,1091.2461],[-4.4255,42.8221,1136.7568],[-4.3679,42.79,1091.843],[-4.3691,42.7889,1091.843],[-4.3807,42.7894,1091.9688],[-4.3935,42.7832,1115.7943],[-4.3981,42.7729,1069.7942],[-4.425,42.7513,945.6459],[-4.4299,42.7399,969.4074],[-4.4146,42.7378,983.5433],[-4.4083,42.7339,1008.7672],[-4.3982,42.7328,1010.7787],[-4.3905,42.7385,1032.261],[-4.3841,42.74,1046.6776],[-4.3808,42.7441,1056.8853],[-4.3727,42.7427,1043.5565],[-4.3679,42.7398,1053.8423],[-4.3547,42.7418,1115.5159],[-4.3361,42.7485,959.4441],[-4.3312,42.7484,951.5219],[-4.3202,42.7431,1045.8629],[-4.3251,42.7396,1084.9052],[-4.3065,42.7291,971.0324],[-4.2977,42.7318,920.6109],[-4.2931,42.7297,963.0934],[-4.2857,42.7302,895.0636],[-4.2775,42.7262,872.1823],[-4.2798,42.7095,866.4828],[-4.2692,42.7047,995.5465],[-4.2666,42.7053,1001.4115],[-4.2676,42.6943,959.1614],[-4.2638,42.6942,908.6565],[-4.257,42.6881,895.2396],[-4.2476,42.6941,995.9559],[-4.2488,42.6984,1031.7668],[-4.246,42.6971,1035.0057],[-4.237,42.6976,1041.7437],[-4.2257,42.7034,1053.0068],[-4.2185,42.7047,986.9686],[-4.2151,42.7088,941.7424],[-4.2165,42.7113,941.0386],[-4.2151,42.714,989.7838],[-4.2014,42.7176,1046.6925],[-4.201,42.721,1053.9236],[-4.1853,42.7362,1024.5717],[-4.1804,42.7379,980.4644],[-4.1738,42.7371,928.5339],[-4.1667,42.7419,911.608],[-4.1646,42.746,909.3113],[-4.1513,42.7479,934.1078],[-4.1461,42.7521,1042.9932],[-4.1399,42.7533,1112.1686],[-4.1247,42.7516,1142.4436],[-4.1259,42.7482,1048.3518],[-4.1199,42.7451,994.1987],[-4.1239,42.7361,932.1202],[-4.1095,42.7339,940.9412],[-4.0887,42.7517,1069.192],[-4.0852,42.7641,1138.0444],[-4.0813,42.7614,1107.3015],[-4.0853,42.7722,1086.2656],[-4.094,42.7733,1148.2019],[-4.0952,42.779,1013.1998],[-4.0996,42.7846,996.2578],[-4.0984,42.7912,859.9603],[-4.1129,42.7945,864.2938],[-4.1226,42.7946,857.5194],[-4.1374,42.7903,906.2365],[-4.1443,42.7913,888.7569],[-4.1498,42.7893,959.5018],[-4.1736,42.8085,963.5591],[-4.1787,42.8109,965.4518],[-4.1826,42.8103,1039.2224],[-4.1854,42.8173,913.1042],[-4.1785,42.8262,950.0458],[-4.1654,42.8282,1014.9747],[-4.1631,42.8301,991.5725],[-4.1617,42.8361,955.85],[-4.1565,42.8378,972.407],[-4.1509,42.8345,946.6827],[-4.1505,42.8314,971.1511],[-4.1455,42.8289,994.1116],[-4.1404,42.829,952.746],[-4.1409,42.8304,952.746],[-4.1373,42.8335,999.1348],[-4.137,42.8394,1068.8578],[-4.1284,42.8462,1109.9656],[-4.126,42.8566,1222.1582],[-4.139,42.8593,1033.0475],[-4.1411,42.8617,1023.4397],[-4.1452,42.8622,966.3105],[-4.1489,42.8657,943.7935],[-4.1442,42.8686,939.3425],[-4.1498,42.8711,930.6611],[-4.1693,42.8589,955.3802],[-4.1811,42.8587,970.9791],[-4.1855,42.8544,944.6605],[-4.1955,42.8491,943.6427],[-4.1993,42.8447,954.1555]],
[[-4.2631,42.7305,907.8311],[-4.2607,42.7387,963.0722],[-4.245,42.736,956.2328],[-4.2513,42.7265,907.4688],[-4.2631,42.7305,907.8311]]]]}}