{"type": "Feature","bbox": [-4.0349,43.296,-3.7632,43.4946],"geometry": {"type": "MultiPolygon","coordinates": [[[[-3.7964,43.3403,134.7036],[-3.8021,43.354,161.1781],[-3.8082,43.358,158.8768],[-3.806,43.3645,181.7606],[-3.8073,43.3704,351.752],[-3.8052,43.3793,160.1646],[-3.8068,43.3848,120.4274],[-3.8151,43.3922,2.5311],[-3.809,43.3946,0.0],[-3.8149,43.3996,1.5558],[-3.8163,43.4051,2.355],[-3.8193,43.4068,2.4151],[-3.8218,43.4115,2.0072],[-3.8257,43.4099,2.7515],[-3.8232,43.4065,5.5389],[-3.826,43.4065,1.8615],[-3.8287,43.4096,5.2983],[-3.8268,43.4135,4.0856],[-3.8176,43.4132,0.0],[-3.8101,43.4179,0.4574],[-3.8043,43.4235,0.2819],[-3.8043,43.4293,0.6666],[-3.8096,43.4307,0.0],[-3.8135,43.4279,1.8997],[-3.8138,43.4307,0.0],[-3.8274,43.4324,1.8018],[-3.8296,43.4335,4.6024],[-3.8296,43.4351,1.231],[-3.8274,43.4374,2.9531],[-3.8215,43.4371,2.64],[-3.814,43.4393,0.0],[-3.8163,43.4421,0.0],[-3.821,43.441,3.6901],[-3.8262,43.444,1.1973],[-3.8149,43.444,0.6946],[-3.8132,43.4457,0.0],[-3.8138,43.4474,0.0],[-3.8201,43.4487,1.4966],[-3.8143,43.449,1.8309],[-3.8093,43.4557,1.7671],[-3.8021,43.4613,2.9416],[-3.7915,43.4621,11.3657],[-3.791,43.4607,1.0764],[-3.786,43.461,0.0],[-3.7854,43.4626,7.7016],[-3.781,43.4632,0.0],[-3.7757,43.4668,0.0],[-3.7632,43.4665,0.0],[-3.7649,43.4712,0.0],[-3.7779,43.4712,7.1782],[-3.7876,43.4765,6.6444],[-3.7879,43.4796,0.0],[-3.7857,43.4818,0.7153],[-3.7779,43.4851,0.0],[-3.7868,43.4865,3.037],[-3.7843,43.4885,0.0],[-3.784,43.4921,0.0],[-3.8007,43.4921,0.0],[-3.8007,43.4932,0.0],[-3.8124,43.4946,0.9456],[-3.8207,43.4907,0.4085],[-3.8271,43.4904,0.0],[-3.8274,43.4871,0.0],[-3.8318,43.4879,0.0],[-3.8332,43.4826,3.8193],[-3.8357,43.4815,1.4397],[-3.8363,43.4835,0.7352],[-3.8379,43.4832,0.0],[-3.836,43.481,1.4397],[-3.838,43.4787,8.6802],[-3.8407,43.4829,0.0],[-3.8457,43.484,0.0],[-3.8457,43.4824,0.0],[-3.849,43.4801,14.9827],[-3.8601,43.4774,0.0],[-3.8618,43.4757,1.1219],[-3.8663,43.4771,0.0],[-3.8765,43.4768,8.6973],[-3.8749,43.4787,0.0],[-3.8749,43.4807,0.0],[-3.8763,43.481,0.0],[-3.8793,43.4804,0.0],[-3.8804,43.4771,0.0],[-3.8896,43.4735,10.4307],[-3.8921,43.4738,0.0],[-3.8912,43.4765,0.9348],[-3.894,43.4774,0.0],[-3.9096,43.4729,14.2931],[-3.9165,43.4743,0.8994],[-3.9185,43.4729,17.8153],[-3.9257,43.4735,0.0],[-3.9265,43.4715,20.2024],[-3.9329,43.4707,0.0],[-3.9304,43.4704,14.8511],[-3.9326,43.4682,8.3023],[-3.9371,43.4699,1.3807],[-3.9429,43.4693,9.1141],[-3.9426,43.4707,0.0],[-3.9454,43.4712,4.3576],[-3.9485,43.469,0.0],[-3.9449,43.4688,8.4635],[-3.949,43.4649,1.3504],[-3.9518,43.4643,0.0],[-3.9515,43.4621,1.4659],[-3.9582,43.4543,0.0],[-3.9668,43.4504,0.202],[-3.9674,43.4487,7.5541],[-3.971,43.4482,0.0],[-3.9718,43.4446,9.2709],[-3.9704,43.4429,3.1273],[-3.9646,43.4424,6.7404],[-3.9549,43.4451,2.9813],[-3.9524,43.4407,2.662],[-3.9521,43.4365,0.5998],[-3.9571,43.4365,0.5718],[-3.9538,43.4382,0.0],[-3.9535,43.4404,0.0],[-3.9585,43.4429,1.3329],[-3.9635,43.4388,1.3929],[-3.9721,43.4401,7.9264],[-3.9726,43.4379,3.2236],[-3.9788,43.4357,0.0],[-3.9785,43.4338,3.4327],[-3.9835,43.4335,0.0],[-3.9826,43.4313,3.5463],[-3.9843,43.4301,10.4075],[-3.9885,43.4335,3.2429],[-3.9876,43.4371,15.8378],[-3.9818,43.4424,0.0],[-3.9849,43.446,2.9251],[-3.9935,43.4435,0.0],[-3.9993,43.4388,0.0],[-4.0013,43.4388,11.6795],[-4.004,43.4432,1.9057],[-4.0151,43.4485,14.9743],[-4.0199,43.4488,0.0],[-4.0224,43.4488,0.0],[-4.0204,43.4471,3.2455],[-4.024,43.4413,6.2183],[-4.034,43.4407,0.0],[-4.0312,43.4362,0.0],[-4.0349,43.4346,0.0],[-4.0339,43.4303,0.0],[-4.0251,43.4235,0.0],[-4.0338,43.4145,0.0],[-4.0304,43.4117,0.0],[-4.0148,43.4059,5.0788],[-4.0183,43.4012,0.0466],[-4.0155,43.4007,8.9872],[-4.0139,43.4023,7.5783],[-4.0098,43.4026,10.6069],[-4.0067,43.4013,16.2711],[-4.0058,43.3985,12.7347],[-4.0155,43.3945,12.3907],[-4.0132,43.3898,29.3973],[-4.0058,43.388,68.3749],[-3.992,43.3786,65.4878],[-3.9928,43.3697,134.5233],[-4.0078,43.3554,160.0778],[-4.0135,43.3326,246.2033],[-4.0056,43.331,214.3961],[-3.9818,43.3383,34.3009],[-3.9795,43.3381,31.0175],[-3.982,43.336,34.3133],[-3.9783,43.3332,36.0806],[-3.9698,43.3333,39.8432],[-3.9627,43.33,42.649],[-3.9252,43.3391,217.5171],[-3.9205,43.342,80.2766],[-3.9041,43.3418,264.011],[-3.9039,43.3381,233.865],[-3.8923,43.3359,138.8516],[-3.8853,43.3323,163.1212],[-3.8735,43.3329,250.9544],[-3.8701,43.33,262.586],[-3.8553,43.3351,160.7183],[-3.8251,43.3149,245.0077],[-3.819,43.3044,410.0426],[-3.804,43.2977,381.9128],[-3.7985,43.2973,525.511],[-3.7963,43.2986,540.7515],[-3.7903,43.296,585.3071],[-3.7783,43.2975,631.848],[-3.7764,43.3012,601.0529],[-3.7782,43.3069,532.1023],[-3.7752,43.3157,432.6224],[-3.7759,43.3194,465.6406],[-3.7782,43.3211,456.2867],[-3.7789,43.3276,393.5461],[-3.7889,43.3322,196.8993],[-3.7895,43.3358,173.8541],[-3.7964,43.3403,134.7036]]],
[[[-4.0207,43.4529,0.0],[-4.0265,43.4535,0.0],[-4.0271,43.4524,0.0],[-4.0215,43.4518,0.0437],[-4.0207,43.4529,0.0]]],
[[[-3.9062,43.4776,0.0],[-3.9082,43.4776,0.0],[-3.9101,43.4749,0.0],[-3.909,43.4746,0.0],[-3.9062,43.4776,0.0]]]]}
,"properties": {"GID_3": "ESP.3.1.4_1","GID_0": "ESP","country": "Spain","GID_1": "ESP.3_1","province": "Cantabria","NL_NAME_1": "NA","GID_2": "ESP.3.1_1","county": "Cantabria","NL_NAME_2": "NA","city": "ComarcadeSantander","VARNAME_3": "NA","NL_NAME_3": "NA","TYPE_3": "Comarca","ENGTYPE_3": "Comarca","CC_3": "NA","HASC_3": "NA","name": "Comarcade_Santander.city","area_km2": 268.403,"hist_schema_id": "Elevation0-9000","hist_area_km2": {"0": 37.6623,"25": 65.1987,"50": 46.4021,"75": 26.5731,"100": 26.1391,"125": 17.987,"150": 13.9799,"175": 9.5569,"200": 6.3361,"225": 4.3324,"250": 3.3922,"275": 2.4981,"300": 1.7736,"325": 1.1876,"350": 1.2957,"375": 0.9409,"400": 0.7405,"425": 0.6325,"450": 0.3394,"475": 0.324,"500": 0.3395,"525": 0.2623,"550": 0.2315,"575": 0.1389,"600": 0.0772,"625": 0.0617}}}