{"type": "Feature","bbox": [-2.8802,37.6213,-2.2076,38.0841],"geometry": {"type": "MultiPolygon","coordinates": [[[[-2.4806,38.0532,1855.9612],[-2.4817,38.0553,1788.4967],[-2.4959,38.062,1688.719],[-2.5043,38.0684,1500.7646],[-2.5216,38.0698,1454.0549],[-2.5311,38.0741,1455.9076],[-2.5392,38.0758,1356.1755],[-2.5474,38.0799,1244.8732],[-2.5512,38.0841,1221.1272],[-2.5567,38.0817,1227.8379],[-2.5653,38.0836,1239.3422],[-2.5731,38.0774,1262.9181],[-2.5715,38.0754,1275.0685],[-2.5733,38.0743,1268.7205],[-2.5854,38.0726,1298.2634],[-2.5864,38.0704,1300.2334],[-2.5913,38.0696,1299.4362],[-2.5939,38.065,1322.0115],[-2.6062,38.0619,1406.0156],[-2.6066,38.0602,1394.5581],[-2.5989,38.0588,1525.9097],[-2.5958,38.0532,1586.5786],[-2.5998,38.0437,1654.4186],[-2.5976,38.0072,1705.9358],[-2.5993,38.0039,1715.7957],[-2.6044,38.0014,1721.796],[-2.6056,37.9978,1681.4873],[-2.6092,37.9968,1705.619],[-2.6196,37.9886,1785.0684],[-2.6424,37.9811,1798.3835],[-2.6556,37.9663,1945.127],[-2.6606,37.966,1861.1162],[-2.6704,37.9614,1858.4797],[-2.6748,37.9651,1850.3107],[-2.6784,37.9652,1788.9186],[-2.6835,37.9681,1820.8224],[-2.6896,37.9739,1882.484],[-2.6914,37.9729,1883.1385],[-2.6942,37.9745,1832.321],[-2.7022,37.9717,1796.0662],[-2.706,37.9674,1785.2115],[-2.7101,37.968,1759.082],[-2.7155,37.9623,1854.3002],[-2.7186,37.9637,1849.979],[-2.7228,37.9625,1807.0378],[-2.7241,37.9559,1781.0332],[-2.728,37.9553,1804.9331],[-2.7312,37.9489,1920.2405],[-2.7358,37.948,1942.7444],[-2.743,37.9358,1920.6733],[-2.7524,37.9312,1722.8198],[-2.7547,37.9275,1741.9777],[-2.7671,37.9194,1906.0715],[-2.7685,37.9228,1789.4198],[-2.7742,37.9256,1932.5228],[-2.785,37.9171,1948.8784],[-2.7891,37.9074,1919.4146],[-2.7963,37.9007,1903.8667],[-2.7998,37.8893,1946.5405],[-2.8061,37.881,1982.9163],[-2.8195,37.8762,1970.7688],[-2.8177,37.8718,1908.5698],[-2.8215,37.858,1825.3721],[-2.8196,37.8555,1858.8539],[-2.8199,37.852,1798.2736],[-2.8234,37.846,1881.0448],[-2.8271,37.844,1927.8147],[-2.8304,37.8392,1944.8136],[-2.8288,37.8372,1957.2832],[-2.8332,37.8349,1927.8132],[-2.8343,37.8307,1916.1034],[-2.8395,37.8287,1893.4673],[-2.8405,37.8214,1831.1606],[-2.8435,37.8178,1813.1296],[-2.8473,37.8139,1743.2228],[-2.8573,37.8093,1369.2725],[-2.8599,37.8039,1263.1184],[-2.8726,37.7921,1079.8282],[-2.8759,37.7829,1292.2054],[-2.8747,37.7782,1318.4277],[-2.8802,37.76,1083.2622],[-2.8775,37.7596,1063.2297],[-2.8601,37.7484,975.572],[-2.8547,37.7519,923.4117],[-2.8442,37.7534,891.7461],[-2.8365,37.7447,838.9668],[-2.8282,37.748,964.2959],[-2.8128,37.732,902.4977],[-2.8074,37.7229,817.2111],[-2.8023,37.7198,734.2145],[-2.7782,37.7113,942.4049],[-2.7637,37.7093,943.631],[-2.752,37.7148,945.5528],[-2.7406,37.7158,943.6816],[-2.7388,37.7119,936.7532],[-2.735,37.709,928.208],[-2.7224,37.7074,907.7217],[-2.7164,37.7007,876.6266],[-2.7105,37.6985,849.2715],[-2.7113,37.694,861.5823],[-2.6963,37.6828,800.5022],[-2.6732,37.6715,712.7311],[-2.6707,37.6681,706.3002],[-2.6611,37.6684,732.0447],[-2.6372,37.6651,805.063],[-2.6216,37.6676,879.8169],[-2.6149,37.6663,880.0252],[-2.6025,37.6709,907.7291],[-2.5653,37.6714,929.3787],[-2.5561,37.6668,944.1577],[-2.5275,37.6574,1052.6439],[-2.5069,37.6552,1453.3754],[-2.4988,37.6493,1538.4812],[-2.4859,37.6463,1482.2728],[-2.4815,37.6438,1478.4355],[-2.4767,37.6438,1465.3184],[-2.4623,37.6373,1326.4712],[-2.4305,37.6345,1480.8171],[-2.4247,37.631,1657.0911],[-2.4231,37.6318,1657.0911],[-2.411,37.6288,1746.3928],[-2.407,37.6297,1762.8328],[-2.4027,37.636,1790.8256],[-2.3738,37.6292,1540.668],[-2.3637,37.6215,1519.0171],[-2.3595,37.6213,1563.7097],[-2.3573,37.6247,1506.4963],[-2.3453,37.6293,1725.5946],[-2.3417,37.6238,1743.3772],[-2.3391,37.6232,1728.86],[-2.3157,37.6222,1718.4038],[-2.3088,37.6358,1570.218],[-2.3154,37.6415,1416.4618],[-2.3165,37.645,1334.0337],[-2.3199,37.6481,1221.103],[-2.3194,37.6597,1137.8352],[-2.321,37.6599,1132.7217],[-2.3257,37.6721,1056.9012],[-2.3232,37.6939,991.9434],[-2.3132,37.7114,1005.8625],[-2.3065,37.7103,1012.5304],[-2.3079,37.7168,1011.6813],[-2.3049,37.7192,1019.1058],[-2.308,37.7206,1011.3464],[-2.3074,37.7233,1016.5095],[-2.2968,37.7415,1129.0975],[-2.2971,37.744,1166.2528],[-2.2942,37.7462,1158.105],[-2.2946,37.7482,1163.3988],[-2.2886,37.7521,1164.8021],[-2.287,37.7514,1158.6754],[-2.2764,37.7769,1128.4885],[-2.2911,37.7896,1061.4482],[-2.2953,37.7886,1058.0081],[-2.3001,37.7898,1056.787],[-2.2935,37.7923,1064.3459],[-2.3007,37.8037,1134.5259],[-2.3014,37.8103,1139.504],[-2.2935,37.8282,1108.7681],[-2.2893,37.8315,1099.2817],[-2.2908,37.8376,1095.5544],[-2.2937,37.8416,1094.064],[-2.2962,37.8598,1077.0986],[-2.2948,37.8764,1059.9224],[-2.2884,37.8852,1148.0847],[-2.2653,37.881,1210.9456],[-2.2507,37.8972,1239.4094],[-2.2076,37.9166,1459.2477],[-2.2216,37.9224,1400.5764],[-2.2223,37.9239,1450.2574],[-2.2276,37.9237,1465.124],[-2.2295,37.9262,1396.7715],[-2.2378,37.9285,1392.9221],[-2.2533,37.9396,1267.5917],[-2.2587,37.95,1190.0459],[-2.2667,37.953,1115.7722],[-2.2741,37.9595,1150.7402],[-2.2768,37.9601,1166.2534],[-2.2976,37.9903,1168.6611],[-2.2984,38.0022,1316.4584],[-2.3092,38.0089,1257.0728],[-2.323,38.014,1301.0931],[-2.3415,38.026,1404.2162],[-2.3578,38.0225,1328.4272],[-2.373,38.0233,1363.4242],[-2.3927,38.0309,1383.4794],[-2.4032,38.0329,1378.9335],[-2.4114,38.0322,1363.4253],[-2.4233,38.0337,1365.2491],[-2.432,38.0434,1417.1873],[-2.436,38.0434,1425.3102],[-2.4513,38.0491,1598.2952],[-2.4625,38.0503,1719.5574],[-2.4719,38.0564,1835.2983],[-2.4806,38.0532,1855.9612]]]]}
,"properties": {"GID_3": "ESP.1.4.1_1","GID_0": "ESP","country": "Spain","GID_1": "ESP.1_1","province": "Andalucía","NL_NAME_1": "NA","GID_2": "ESP.1.4_1","county": "Granada","NL_NAME_2": "NA","city": "n.a.(109)","VARNAME_3": "NA","NL_NAME_3": "NA","TYPE_3": "Comarca","ENGTYPE_3": "Comarca","CC_3": "NA","HASC_3": "NA","name": "n.a.(109).city","area_km2": 1813.069,"hist_schema_id": "Elevation0-9000","hist_area_km2": {"700": 0.185,"725": 2.316,"750": 8.17,"775": 15.381,"800": 22.339,"825": 26.68,"850": 30.348,"875": 37.419,"900": 47.34,"925": 71.897,"950": 104.192,"975": 110.093,"1000": 138.232,"1025": 98.941,"1050": 93.194,"1075": 91.176,"1100": 89.229,"1125": 64.842,"1150": 52.594,"1175": 45.137,"1200": 40.851,"1225": 41.283,"1250": 39.355,"1275": 35.922,"1300": 36.287,"1325": 35.834,"1350": 35.914,"1375": 35.479,"1400": 29.091,"1425": 26.046,"1450": 23.537,"1475": 20.796,"1500": 20.675,"1525": 20.606,"1550": 21.218,"1575": 19.563,"1600": 17.055,"1625": 18.173,"1650": 17.42,"1675": 16.567,"1700": 15.881,"1725": 14.829,"1750": 12.488,"1775": 12.387,"1800": 12.236,"1825": 10.079,"1850": 7.406,"1875": 5.451,"1900": 4.632,"1925": 3.479,"1950": 2.91,"1975": 2.659,"2000": 2.157,"2025": 1.187,"2050": 0.886,"2075": 0.736,"2100": 0.585,"2125": 0.284,"2150": 0.201,"2175": 0.15,"2200": 0.217,"2225": 0.134,"2250": 0.15,"2275": 0.117,"2300": 0.184,"2325": 0.117,"2350": 0.117,"2375": 0.033}}}