{"type":"Feature","properties":{"GID_3":"ESP.4.1.1_1","GID_0":"ESP","country":"Spain","GID_1":"ESP.4_1","province":"Castilla-LaMancha","NL_NAME_1":"NA","GID_2":"ESP.4.1_1","county":"Albacete","NL_NAME_2":"NA","city":"n.a.(10)","VARNAME_3":"NA","NL_NAME_3":"NA","TYPE_3":"Comarca","ENGTYPE_3":"Comarca","CC_3":"NA","HASC_3":"NA","name":"n.a.(10).city"},
"geometry":{"type": "MultiPolygon","coordinates": [[[[-1.951,38.6518,856.8958],[-1.9575,38.6581,889.2613],[-1.9621,38.6662,895.4821],[-1.9703,38.674,957.4372],[-1.9755,38.6871,981.1205],[-1.9701,38.6877,971.4713],[-1.9653,38.6912,979.2975],[-1.95,38.7157,917.0558],[-1.9648,38.7358,914.9229],[-1.9804,38.7518,911.1801],[-1.9767,38.7579,866.213],[-1.9776,38.7636,849.0621],[-1.959,38.7803,855.7802],[-1.9456,38.7876,810.4835],[-1.9202,38.7911,875.3109],[-1.8942,38.7817,869.8925],[-1.8887,38.7756,851.246],[-1.8801,38.7606,833.2457],[-1.8802,38.7555,861.8638],[-1.8593,38.7124,839.2677],[-1.8491,38.6939,863.6434],[-1.8447,38.6893,834.6502],[-1.8186,38.6842,800.8624],[-1.7928,38.6821,855.5409],[-1.7744,38.6782,940.2636],[-1.748,38.6765,857.8026],[-1.7335,38.6773,837.0876],[-1.7312,38.6788,827.9737],[-1.7252,38.6763,817.3798],[-1.7085,38.6738,882.4619],[-1.6899,38.6777,883.8143],[-1.6671,38.6722,757.7345],[-1.6555,38.6783,893.7521],[-1.602,38.6817,829.4397],[-1.5751,38.6917,780.9811],[-1.563,38.6941,789.0261],[-1.5522,38.6941,777.4262],[-1.5449,38.691,795.6629],[-1.5398,38.683,758.2253],[-1.5405,38.6801,751.3679],[-1.5374,38.6831,776.5176],[-1.5217,38.7413,981.7342],[-1.5106,38.7516,960.6295],[-1.4637,38.7617,908.6],[-1.448,38.7615,886.2164],[-1.4006,38.7494,936.7524],[-1.3964,38.75,919.337],[-1.3892,38.7568,907.4502],[-1.3945,38.765,921.7795],[-1.3927,38.7831,875.6678],[-1.3899,38.7886,873.0592],[-1.3587,38.8212,856.0875],[-1.3629,38.8303,867.1575],[-1.3617,38.8335,871.1575],[-1.3715,38.8394,890.1626],[-1.3722,38.846,899.0566],[-1.3892,38.8735,864.0173],[-1.394,38.8745,873.3986],[-1.3963,38.8812,871.2959],[-1.4018,38.8843,877.1024],[-1.401,38.8901,886.6377],[-1.372,38.9124,891.6744],[-1.3845,38.9175,908.7296],[-1.37,38.9224,902.5554],[-1.3431,38.9264,887.004],[-1.3326,38.931,877.7933],[-1.3225,38.9315,873.9741],[-1.2986,38.9269,877.0088],[-1.2807,38.9278,888.5144],[-1.2719,38.9266,882.2086],[-1.2531,38.9199,830.8069],[-1.2499,38.9254,832.8171],[-1.2365,38.9284,829.2601],[-1.2253,38.9355,812.1425],[-1.2694,38.9338,869.6623],[-1.2769,38.9349,874.6246],[-1.29,38.9389,853.7916],[-1.3001,38.9509,870.4887],[-1.335,38.9614,926.8184],[-1.3632,38.9782,1016.9597],[-1.3672,38.9824,1019.9273],[-1.3785,39.0039,1032.1787],[-1.39,39.0328,1061.1887],[-1.3988,39.0339,1057.3876],[-1.4292,39.026,1011.1423],[-1.4653,39.0236,954.0173],[-1.5208,39.0271,881.5261],[-1.5447,39.0329,803.1173],[-1.5599,39.0406,832.1537],[-1.6006,39.0521,771.9608],[-1.658,39.0728,670.2775],[-1.6688,39.0799,658.267],[-1.68,39.0834,650.1664],[-1.6865,39.0915,669.2851],[-1.6933,39.0928,675.1857],[-1.7011,39.1014,682.3854],[-1.7126,39.1072,683.6837],[-1.7217,39.1257,675.8975],[-1.7335,39.1343,637.0659],[-1.7442,39.1387,608.8432],[-1.7475,39.137,616.179],[-1.7724,39.1477,613.9869],[-1.7899,39.1502,617.0662],[-1.7929,39.1522,634.2635],[-1.8015,39.147,630.8652],[-1.8125,39.1434,631.3174],[-1.8146,39.1446,618.1167],[-1.8117,39.1564,624.665],[-1.7971,39.1576,636.8367],[-1.7978,39.1605,630.6003],[-1.8047,39.1633,633.7106],[-1.8181,39.1653,649.5765],[-1.8243,39.1687,641.8299],[-1.8264,39.1681,663.4626],[-1.8263,39.1596,631.8738],[-1.8312,39.158,636.7479],[-1.8341,39.1598,628.9664],[-1.8355,39.165,635.4133],[-1.8468,39.1756,644.8685],[-1.8575,39.1755,642.0652],[-1.8664,39.1731,638.9426],[-1.8711,39.1747,637.4997],[-1.8819,39.1712,639.9365],[-1.8875,39.1711,641.0057],[-1.8973,39.1712,642.7437],[-1.9054,39.1753,637.709],[-1.9203,39.1761,644.0097],[-1.9198,39.1706,642.7928],[-1.9227,39.1681,650.7847],[-1.9272,39.169,640.3864],[-1.9321,39.1786,641.5662],[-1.9353,39.1801,644.1757],[-1.9477,39.1742,643.2783],[-1.9569,39.1726,647.2299],[-1.9622,39.176,645.5918],[-1.9676,39.1828,646.5538],[-1.9784,39.1871,646.1041],[-1.9825,39.1924,660.1932],[-1.9871,39.1953,652.8639],[-1.9986,39.1939,650.3514],[-2.0058,39.1965,652.6674],[-2.0103,39.1875,688.1462],[-2.0138,39.1851,709.875],[-2.0301,39.1876,712.7214],[-2.0386,39.1925,714.9027],[-2.0446,39.1936,715.5361],[-2.0632,39.1838,711.6671],[-2.0659,39.1798,710.2955],[-2.0568,39.1646,707.8236],[-2.0661,39.1534,704.0457],[-2.0375,39.1367,702.9669],[-2.0455,39.1349,702.3386],[-2.0556,39.1358,701.9863],[-2.0679,39.1287,700.8596],[-2.1803,39.1002,724.9756],[-2.2106,39.1041,726.8186],[-2.2404,39.1108,744.1113],[-2.2753,39.0835,784.8632],[-2.3003,39.0714,835.8721],[-2.292,39.0574,798.624],[-2.2905,39.051,810.5301],[-2.2928,39.0424,844.777],[-2.2898,39.03,831.0083],[-2.2825,39.0172,833.095],[-2.281,39.0095,831.8126],[-2.2737,39.0039,814.0466],[-2.2668,38.9866,822.6797],[-2.2575,38.975,843.6004],[-2.2186,38.9656,780.1356],[-2.2087,38.9646,770.9848],[-2.1499,38.973,730.1955],[-2.155,38.9359,736.6831],[-2.1641,38.9149,774.4301],[-2.149,38.9164,777.673],[-2.124,38.9277,727.7299],[-2.107,38.9302,725.7651],[-2.0891,38.9193,725.139],[-2.085,38.9132,725.5461],[-2.0797,38.8982,725.6732],[-2.0787,38.8885,732.9981],[-2.088,38.8756,745.7024],[-2.1103,38.8584,771.5974],[-2.1356,38.8532,788.3958],[-2.1507,38.8525,801.8741],[-2.1567,38.8499,802.0603],[-2.1663,38.8485,836.0911],[-2.1652,38.8339,821.6255],[-2.1609,38.8253,834.0385],[-2.1482,38.8037,873.2271],[-2.1422,38.799,873.8087],[-2.137,38.7905,889.8724],[-2.1355,38.7686,980.0648],[-2.1379,38.7611,1047.1029],[-2.1349,38.7501,1099.4082],[-2.1443,38.7367,1196.7393],[-2.1594,38.7306,1259.0728],[-2.1717,38.7282,1187.8931],[-2.16,38.7172,1230.5149],[-2.1594,38.7129,1186.4562],[-2.1447,38.699,1188.5283],[-2.1294,38.661,1109.2817],[-2.1111,38.6478,1193.1799],[-2.1114,38.6439,1137.4974],[-2.1033,38.6421,1144.0997],[-2.0951,38.6352,1093.0459],[-2.0806,38.6279,1062.8099],[-2.0391,38.6199,1026.9066],[-2.0047,38.6192,953.1288],[-1.9987,38.6235,990.087],[-1.9705,38.637,902.9998],[-1.9468,38.6424,856.8007],[-1.951,38.6518,856.8958]]]]}}