{"type": "Feature","bbox": [-0.4088,38.4824,0.0106,38.7376],"geometry": {"type": "MultiPolygon","coordinates": [[[[-0.3078,38.4967,76.1781],[-0.3073,38.4925,60.1813],[-0.3032,38.4916,41.3931],[-0.3045,38.4849,19.5472],[-0.3004,38.4824,6.372],[-0.2887,38.4876,5.8182],[-0.2815,38.4882,0.0],[-0.2799,38.4904,0.0],[-0.2737,38.4904,0.0],[-0.269,38.494,17.8551],[-0.2593,38.4968,1.278],[-0.2499,38.499,3.8349],[-0.2371,38.4996,0.0],[-0.2235,38.5085,6.0236],[-0.2199,38.5071,0.4451],[-0.2168,38.5082,0.5312],[-0.2207,38.506,0.3694],[-0.2188,38.5054,0.0],[-0.2099,38.5107,5.2443],[-0.1993,38.5132,0.0],[-0.1985,38.5149,0.5713],[-0.1915,38.5157,30.4788],[-0.1874,38.514,5.111],[-0.1821,38.5163,9.2814],[-0.1732,38.5154,0.0],[-0.1682,38.5196,0.0],[-0.1668,38.5243,2.9292],[-0.1646,38.5232,0.0],[-0.1604,38.5243,15.342],[-0.1621,38.5279,19.2354],[-0.1582,38.5326,3.7894],[-0.1476,38.5368,1.1483],[-0.134,38.5365,1.7795],[-0.131,38.5326,0.0],[-0.1299,38.5346,5.2132],[-0.1249,38.536,4.8464],[-0.1115,38.5346,3.7662],[-0.1079,38.5324,17.0096],[-0.1088,38.5282,0.0],[-0.0965,38.5235,0.0],[-0.0949,38.5265,0.0],[-0.0887,38.529,0.0],[-0.0874,38.5324,12.2366],[-0.0799,38.5354,0.0],[-0.0793,38.5371,159.6527],[-0.076,38.5371,45.0426],[-0.0729,38.5415,0.0],[-0.0696,38.5418,0.0],[-0.064,38.5504,0.0],[-0.0585,38.5515,0.0],[-0.0568,38.5537,16.54],[-0.0574,38.5565,28.3791],[-0.0487,38.5632,23.5726],[-0.0496,38.5662,0.0],[-0.0532,38.5651,31.3746],[-0.0551,38.5687,48.9794],[-0.064,38.5715,19.7017],[-0.0624,38.581,0.0],[-0.0596,38.586,3.2931],[-0.0579,38.5876,1.2092],[-0.0554,38.5874,0.0],[-0.0543,38.5901,0.4332],[-0.0532,38.5899,0.4332],[-0.0538,38.5868,0.0],[-0.0524,38.5876,0.0],[-0.0526,38.5935,0.5419],[-0.0404,38.6037,0.0],[-0.0354,38.6113,0.0],[-0.0313,38.614,0.0],[-0.0315,38.6157,2.013],[-0.014,38.6274,43.1851],[-0.0104,38.6274,2.762],[-0.006,38.6304,0.0],[-0.004,38.6282,0.0],[0.0004,38.6279,0.0],[0.001,38.6301,0.0],[0.0037,38.6301,0.0],[0.006,38.6282,0.0],[0.0063,38.6299,4.1329],[0.0106,38.6315,0.0],[0.0102,38.6328,48.7636],[0.007,38.6348,73.2639],[0.0073,38.6377,176.7905],[-0.0443,38.661,870.6572],[-0.0465,38.6587,696.7985],[-0.0558,38.6596,761.8561],[-0.06,38.6647,967.3007],[-0.0646,38.6759,410.7444],[-0.06,38.6955,803.0204],[-0.0562,38.7057,777.1658],[-0.0495,38.7155,695.3787],[-0.0574,38.7253,609.632],[-0.0658,38.7232,673.7506],[-0.0898,38.7235,918.4489],[-0.0952,38.7266,945.33],[-0.0976,38.7305,902.7005],[-0.1207,38.7239,892.2093],[-0.1271,38.7282,881.4011],[-0.1381,38.727,841.3851],[-0.1432,38.7376,870.3559],[-0.1444,38.729,918.3338],[-0.1492,38.7234,845.1454],[-0.1489,38.7007,827.1195],[-0.1534,38.7007,771.3983],[-0.154,38.6986,831.413],[-0.1646,38.6999,954.3881],[-0.1691,38.6966,1074.8142],[-0.1701,38.6925,1054.4471],[-0.1879,38.6911,579.7667],[-0.1937,38.6894,468.3349],[-0.1985,38.6843,360.0],[-0.208,38.6859,363.5685],[-0.2101,38.6875,392.7691],[-0.2162,38.6802,459.5582],[-0.2163,38.6779,494.9593],[-0.2227,38.6762,566.954],[-0.2278,38.6786,571.8568],[-0.2311,38.6824,584.3087],[-0.2399,38.6813,721.386],[-0.2478,38.6831,744.6367],[-0.2452,38.6888,567.7578],[-0.2393,38.6952,502.2819],[-0.2401,38.7023,998.8662],[-0.2385,38.7037,947.475],[-0.2409,38.7104,1017.3236],[-0.2405,38.7138,1303.0901],[-0.2386,38.7143,1281.085],[-0.2571,38.7185,1269.1509],[-0.2809,38.7125,1202.3816],[-0.3071,38.6998,1148.2113],[-0.3091,38.6828,1039.0551],[-0.3025,38.6805,1054.356],[-0.3022,38.6785,964.3204],[-0.3123,38.6771,869.3674],[-0.3108,38.6736,999.3282],[-0.3082,38.6731,1064.5819],[-0.3108,38.6638,1119.7267],[-0.3056,38.6496,1177.6592],[-0.3093,38.6428,950.6839],[-0.3121,38.6413,871.8264],[-0.3165,38.6416,841.9375],[-0.3243,38.6372,843.5956],[-0.3295,38.6374,872.028],[-0.3338,38.6303,902.4771],[-0.3315,38.6239,788.8987],[-0.333,38.6218,789.8993],[-0.344,38.6178,645.1649],[-0.3582,38.6056,863.6713],[-0.3636,38.6049,927.301],[-0.3653,38.6008,929.6079],[-0.378,38.597,860.1008],[-0.376,38.591,1009.2981],[-0.3911,38.5871,1055.4597],[-0.3992,38.5792,1019.2693],[-0.4088,38.5737,1070.9304],[-0.403,38.5649,933.4081],[-0.397,38.5628,794.1549],[-0.3939,38.5592,925.0788],[-0.3959,38.5542,1072.6737],[-0.3947,38.5528,1049.4949],[-0.3998,38.5407,1098.0404],[-0.3945,38.5327,1104.7937],[-0.3893,38.5365,999.0162],[-0.3807,38.5352,757.8671],[-0.3809,38.5368,775.4536],[-0.3724,38.5358,658.6581],[-0.3667,38.538,665.6868],[-0.3619,38.537,590.2447],[-0.3556,38.5291,606.349],[-0.3451,38.5281,445.8286],[-0.3403,38.5246,378.9197],[-0.3318,38.5163,317.4709],[-0.3321,38.5136,288.6965],[-0.3269,38.5108,255.2695],[-0.3271,38.5092,250.6808],[-0.3242,38.5097,225.9114],[-0.3219,38.5049,193.9658],[-0.322,38.5005,154.526],[-0.3171,38.4989,146.2364],[-0.3168,38.4975,117.8715],[-0.3135,38.4989,104.8534],[-0.3078,38.4967,76.1781]]],
[[[-0.1293,38.5029,18.114],[-0.1313,38.5035,14.4917],[-0.1329,38.5015,0.0],[-0.1293,38.5007,9.0475],[-0.1293,38.5029,18.114]]],
[[[-0.0726,38.5361,0.0],[-0.0712,38.5363,0.0],[-0.071,38.5374,0.0],[-0.0732,38.5368,0.0],[-0.0726,38.5361,0.0]]]]}
,"properties": {"GID_3": "ESP.10.1.7_1","GID_0": "ESP","country": "Spain","GID_1": "ESP.10_1","province": "ComunidadValenciana","NL_NAME_1": "NA","GID_2": "ESP.10.1_1","county": "Alicante","NL_NAME_2": "NA","city": "MarinaBaixa","VARNAME_3": "NA","NL_NAME_3": "NA","TYPE_3": "Comarca","ENGTYPE_3": "Comarca","CC_3": "NA","HASC_3": "NA","name": "Marina_Baixa.city","area_km2": 564.3831,"hist_schema_id": "Elevation0-9000","hist_area_km2": {"0": 7.4776,"25": 24.2575,"50": 28.9315,"75": 24.469,"100": 21.284,"125": 20.0893,"150": 17.055,"175": 15.9102,"200": 14.9482,"225": 14.4833,"250": 16.1895,"275": 13.8531,"300": 13.9192,"325": 14.9126,"350": 16.5696,"375": 16.7513,"400": 16.1552,"425": 15.4422,"450": 13.7679,"475": 12.2926,"500": 11.7284,"525": 11.5297,"550": 10.7668,"575": 10.6005,"600": 10.4843,"625": 10.0038,"650": 10.0203,"675": 9.4571,"700": 9.4565,"725": 9.5394,"750": 8.7775,"775": 8.3139,"800": 8.1144,"825": 8.429,"850": 8.0643,"875": 7.9482,"900": 7.1858,"925": 6.7885,"950": 6.5068,"975": 6.0272,"1000": 5.4312,"1025": 4.7692,"1050": 4.8851,"1075": 3.7257,"1100": 3.2618,"1125": 3.013,"1150": 2.7979,"1175": 3.1458,"1200": 2.4503,"1225": 2.3511,"1250": 1.4405,"1275": 1.5233,"1300": 1.2088,"1325": 0.977,"1350": 1.0597,"1375": 0.9273,"1400": 0.9107,"1425": 0.5795,"1450": 0.5133,"1475": 0.414,"1500": 0.2484,"1525": 0.1987,"1550": 0.0497}}}