{"type": "Feature","bbox": [-5.8819,42.4635,-4.9109,42.8183],"geometry": {"type": "MultiPolygon","coordinates": [[[[-5.1573,42.556399999999996,957.3914],[-5.156,42.5546,953.9991],[-5.1372,42.5616,982.6246],[-5.1362,42.5581,972.8118],[-5.1281,42.5562,946.6868],[-5.1228,42.5589,975.1384],[-5.1159,42.5389,928.8484],[-5.1127,42.5343,933.7866],[-5.101,42.5261,924.5304],[-5.0902,42.5279,912.5121],[-5.0811,42.5267,915.2463],[-5.086,42.531,924.3791],[-5.0912,42.5416,929.908],[-5.1049,42.5541,926.7172],[-5.0951,42.5624,924.8198],[-5.0788,42.5538,899.2358],[-5.0726,42.5533,891.213],[-5.0621,42.555,871.4938],[-5.0613,42.557,872.2157],[-5.0524,42.5576,863.7656],[-5.0466,42.563,863.3434],[-5.0463,42.5677,864.0183],[-5.0511,42.5721,865.3414],[-5.0452,42.5765,871.9389],[-5.0479,42.5815,875.7072],[-5.0619,42.5873,916.2939],[-5.0664,42.5975,915.2988],[-5.0659,42.6005,918.2627],[-5.056,42.6025,904.8967],[-5.0481,42.601,881.5986],[-5.033,42.5924,875.1082],[-5.024,42.5911,921.873],[-5.0054,42.6019,948.509],[-5.0094,42.6121,931.3854],[-5.0066,42.6172,955.368],[-4.9984,42.6261,963.4613],[-4.9865,42.6342,992.3401],[-4.9867,42.638,1000.9711],[-4.9832,42.6429,1036.5187],[-4.9703,42.6481,1036.1923],[-4.9647,42.6535,1025.6879],[-4.9566,42.6695,1076.0078],[-4.9409,42.6798,1090.8081],[-4.9353,42.6895,1105.7417],[-4.9109,42.7188,1128.8026],[-4.9158,42.7205,1091.4503],[-4.9184,42.7342,1136.3164],[-4.9282,42.7369,1129.4757],[-4.9363,42.7444,1094.0552],[-4.9334,42.7533,1079.7048],[-4.9355,42.7564,1099.3364],[-4.9414,42.7578,1114.8737],[-4.9508,42.7542,1123.4098],[-4.9587,42.755,1130.2341],[-4.9671,42.747,1126.6426],[-4.9757999999999996,42.7449,1067.6018],[-5.0023,42.744,945.7924],[-5.0007,42.7492,949.3321],[-5.004,42.7535,959.2506],[-5.0009,42.7593,954.0618],[-5.0052,42.7617,977.9016],[-5.0096,42.7617,1009.7616],[-5.0144,42.7677,1086.2372],[-5.0071,42.7708,1049.6254],[-4.9971,42.7703,1006.9324],[-4.992,42.7765,1026.5309],[-4.9916,42.7806,1006.1066],[-4.9874,42.7841,991.8011],[-4.9929,42.7897,1010.4681],[-5.0079,42.7896,1020.8495],[-5.0096,42.794,1059.0332],[-5.0148,42.7941,1077.5834],[-5.0177,42.8013,1138.1024],[-5.0302,42.8052,1227.8914],[-5.0314,42.8043,1227.8914],[-5.0363,42.8139,1319.1171],[-5.0418,42.8183,1320.7997],[-5.0564,42.8147,1803.7694],[-5.0735,42.8156,1635.208],[-5.0737,42.8119,1614.9978],[-5.07,42.8062,1457.8297],[-5.0737,42.8032,1298.8634],[-5.0694,42.798,1197.1724],[-5.0692,42.791,1136.0225],[-5.0782,42.7777,1047.8772],[-5.0868,42.774,1016.2604],[-5.0902,42.775,1016.444],[-5.1026,42.7586,1135.6763],[-5.0999,42.7549,1141.8676],[-5.1045,42.743899999999996,1120.8467],[-5.1044,42.7382,1116.9182],[-5.1065,42.7375,1110.5044],[-5.1272,42.744,989.495],[-5.1431,42.7438,910.0023],[-5.1465,42.7422,903.5736],[-5.1521,42.737,907.7144],[-5.1526,42.7229,897.6505],[-5.1556,42.721,896.6238],[-5.1601,42.7129,902.0724],[-5.1641,42.7114,897.6611],[-5.169,42.7013,888.5673],[-5.1784,42.7019,895.4057],[-5.198,42.713,1026.2222],[-5.1861,42.7322,986.4381],[-5.1867,42.7412,1036.8047],[-5.1808,42.7508,1070.2466],[-5.1832,42.7515,1062.7806],[-5.1889,42.7511,990.1352],[-5.196,42.7467,991.3029],[-5.2088,42.7479,1034.2153],[-5.2158,42.7417,973.0472],[-5.2277,42.7395,1017.8445],[-5.2344,42.7323,1045.6554],[-5.2421,42.7295,1050.0671],[-5.2475,42.7295,1066.9836],[-5.2523,42.7331,1073.3329],[-5.2559,42.7315,1072.3057],[-5.2596,42.7321,1085.6306],[-5.2654,42.7364,1100.1633],[-5.2751,42.7501,1106.4305],[-5.2755,42.7572,1123.0183],[-5.2956,42.7398,1100.5078],[-5.3074,42.7368,1054.3087],[-5.3186,42.7356,1049.6138],[-5.3247,42.7367,1034.2716],[-5.3271,42.733,1041.8501],[-5.3376,42.7331,1003.6451],[-5.3418,42.7346,926.342],[-5.3478,42.7339,886.6681],[-5.3581,42.7306,885.483],[-5.3602,42.7273,880.6763],[-5.3616,42.7286,887.4932],[-5.3439,42.7531,919.0273],[-5.3611,42.7658,992.6987],[-5.3649,42.7706,1062.7902],[-5.3785,42.7751,1094.9604],[-5.3799,42.777,1076.7732],[-5.3664,42.7799,1017.2717],[-5.3581,42.7847,1026.8607],[-5.3672,42.786,1079.6139],[-5.378,42.7901,1172.8324],[-5.3859,42.7877,1160.8384],[-5.3906,42.7799,1158.7527],[-5.3981,42.7918,1072.887],[-5.4019,42.7948,1075.431],[-5.4067,42.7959,965.2346],[-5.408,42.801,965.9435],[-5.4144,42.8023,997.2744],[-5.4172,42.8004,1049.4191],[-5.4264,42.8032,1121.3862],[-5.429,42.8025,1145.1871],[-5.4332,42.806399999999996,1182.8074],[-5.4333,42.8101,1201.1248],[-5.4387,42.8141,1239.8901],[-5.4553,42.8168,1286.9929],[-5.4565,42.8141,1291.7308],[-5.4624,42.8097,1257.405],[-5.4639,42.8059,1257.5558],[-5.4719,42.8038,1202.9785],[-5.4764,42.8,1182.0591],[-5.4961,42.8013,1002.686],[-5.5146,42.7994,1090.9469],[-5.5255,42.8029,1107.4791],[-5.5352,42.7956,1054.5562],[-5.5472,42.7813,1054.3873],[-5.5615,42.7798,1102.3848],[-5.5622,42.7761,1089.2421],[-5.5672,42.7722,1051.4821],[-5.5786,42.7718,1092.7739],[-5.6017,42.7659,1160.0942],[-5.6102,42.7654,1155.3885],[-5.6193,42.7737,1158.5822],[-5.6351,42.7775,948.5795],[-5.6341,42.7819,940.2197],[-5.6405,42.7746,931.3193],[-5.6468,42.7762,1002.7352],[-5.6585,42.7726,1100.9596],[-5.6586,42.7714,1074.9843],[-5.6638,42.7716,1094.0948],[-5.6681,42.7755,1120.5096],[-5.6723,42.7749,1067.9309],[-5.6869,42.7846,1202.5183],[-5.6987,42.7803,1214.412],[-5.7075,42.7818,1268.4624],[-5.7146,42.7797,1290.9806],[-5.7241,42.7739,1294.5449],[-5.7213,42.7663,1276.7404],[-5.7203,42.746,1166.4204],[-5.7265,42.7327,1132.4773],[-5.7391,42.7337,1144.5643],[-5.7495,42.756,1182.0974],[-5.7495,42.762,1186.9569],[-5.7682,42.7603,1135.7869],[-5.7759,42.7544,964.3527],[-5.7783,42.7547,960.0],[-5.7774,42.7601,962.7225],[-5.782,42.7646,960.0],[-5.7929,42.7627,1099.5383],[-5.8133,42.7699,1192.0579],[-5.827,42.7719,1208.0245],[-5.8328,42.7707,1150.0554],[-5.8356,42.7722,1162.8459],[-5.8411,42.7704,1190.9686],[-5.8438,42.7714,1173.7461],[-5.8474,42.7698,1139.5702],[-5.8522,42.7727,1165.9276],[-5.8565,42.7717,1184.9731],[-5.8644,42.7734,1153.3519],[-5.8662,42.7693,1156.6534],[-5.8688,42.7685,1134.8734],[-5.8674,42.7632,1163.3341],[-5.8723,42.7588,1169.6857],[-5.873,42.7469,1062.7013],[-5.8763,42.7441,1108.1433],[-5.8734,42.7404,1149.4258],[-5.8771,42.7369,1143.8141],[-5.8819,42.7176,1129.7356],[-5.8753,42.7182,1110.9183],[-5.8656,42.712,1076.5615],[-5.8626,42.7023,1123.3934],[-5.8274,42.6965,924.4641],[-5.8253,42.6888,918.395],[-5.8201,42.6819,925.2628],[-5.8241,42.6715,912.5577],[-5.8262,42.6713,912.4839],[-5.8207,42.6589,903.1208],[-5.8275,42.6565,909.7174],[-5.8253,42.6537,903.7255],[-5.8263,42.6491,900.2604],[-5.8178,42.64,899.6979],[-5.8154,42.6249,888.6818],[-5.8098,42.6082,892.754],[-5.7784,42.61,1002.8319],[-5.7776,42.6005,979.9312],[-5.7848,42.5911,927.4873],[-5.7914,42.5861,935.8711],[-5.7926,42.5803,933.2885],[-5.7978,42.5795,918.7567],[-5.8033,42.5758,908.0562],[-5.8121,42.5669,893.3429],[-5.8234,42.568,874.7566],[-5.8297,42.5591,867.3388],[-5.8319,42.5524,860.9003],[-5.8371,42.5502,855.5059],[-5.8378,42.5461,855.5697],[-5.8365,42.543,868.3338],[-5.8392,42.5388,862.6099],[-5.8219,42.5351,879.5667],[-5.803,42.5346,878.8351],[-5.8038,42.5391,880.6889],[-5.7956,42.536,883.1387],[-5.7955,42.5401,885.5826],[-5.787,42.542,894.9325],[-5.7863,42.5434,895.2811],[-5.7794,42.5427,907.4946],[-5.7636,42.5451,905.5819],[-5.7549,42.5575,920.0546],[-5.7534,42.5639,927.4105],[-5.7502,42.5685,930.6851],[-5.7464,42.5704,932.5872],[-5.7454,42.566,926.9072],[-5.7347,42.5576,916.5318],[-5.7357,42.5483,908.8724],[-5.7339,42.5405,903.268],[-5.7293,42.5362,899.6704],[-5.7241,42.5345,898.7782],[-5.7193,42.5387,903.6133],[-5.7156,42.5366,901.8502],[-5.7002,42.5342,900.8873],[-5.6896,42.538,909.9705],[-5.6781,42.5263,900.2791],[-5.6541,42.5303,873.2126],[-5.6512,42.5278,880.2947],[-5.6456,42.5287,879.4774],[-5.6374,42.5244,867.8535],[-5.6313,42.5235,859.9404],[-5.6295,42.5247,859.654],[-5.6273,42.5225,858.4993],[-5.6304,42.5208,858.2299],[-5.627,42.5177,854.7782],[-5.6258,42.5122,848.3782],[-5.6173,42.513,851.8953],[-5.6143,42.5105,849.071],[-5.601,42.5071,839.0935],[-5.5902,42.5172,807.7346],[-5.5919,42.5281,808.1123],[-5.5867,42.5285,806.4983],[-5.5871,42.5307,807.4579],[-5.5836,42.5358,808.9925],[-5.5813,42.5364,808.7028],[-5.5831,42.5469,813.5867],[-5.5782,42.5504,805.6233],[-5.5342,42.5639,862.045],[-5.5325,42.5585,860.1497],[-5.5296,42.558,884.8132],[-5.5233,42.5577,858.1927],[-5.5097,42.5602,869.4433],[-5.5082,42.5562,879.0153],[-5.5029,42.5527,864.9354],[-5.491,42.5583,844.6396],[-5.4831,42.56,829.5385],[-5.4684,42.5539,812.4851],[-5.458,42.5466,806.1331],[-5.4524,42.5536,807.1888],[-5.4401,42.5603,816.8113],[-5.4358,42.569,806.1682],[-5.4242,42.5781,818.8519],[-5.4242,42.5811,816.1563],[-5.4027,42.5965,819.0889],[-5.3865,42.5923,873.3477],[-5.3838,42.5879,948.994],[-5.3887,42.5853,898.6734],[-5.3904,42.5808,899.5298],[-5.3864,42.5715,857.7532],[-5.3829,42.5679,833.6543],[-5.3708,42.5612,907.1207],[-5.3672,42.5549,908.2698],[-5.3622,42.5594,895.2621],[-5.3406,42.5672,924.2231],[-5.341,42.5624,911.0516],[-5.3389,42.5603,896.302],[-5.3344,42.5597,884.2681],[-5.3351,42.5578,860.9893],[-5.332,42.553,879.0278],[-5.3286,42.5529,878.5023],[-5.3256,42.557,861.4672],[-5.3205,42.5561,825.9628],[-5.3175,42.553,818.8726],[-5.3058,42.5518,820.5474],[-5.3179,42.5422,828.7379],[-5.3235,42.5354,830.9699],[-5.3261,42.534,815.1289],[-5.3311,42.5373,816.4346],[-5.3327,42.5369,826.3602],[-5.3337,42.5317,831.8079],[-5.3277,42.5264,818.9366],[-5.3249,42.526,820.4814],[-5.3269,42.525,819.0207],[-5.3266,42.5231,821.2146],[-5.3195,42.5168,836.033],[-5.3146,42.5159,866.5238],[-5.3142,42.5171,850.3472],[-5.2959,42.52,864.7481],[-5.2926,42.518,874.8096],[-5.2822,42.5002,875.228],[-5.2624,42.4808,880.2672],[-5.253,42.4635,881.526],[-5.2448,42.4712,883.64],[-5.239,42.4728,887.2189],[-5.235,42.4766,888.767],[-5.2311,42.4869,894.4707],[-5.2329,42.4965,897.9343],[-5.2247,42.5008,901.7064],[-5.2234,42.5052,904.4604],[-5.2157,42.511,908.6487],[-5.2097,42.5111,913.2682],[-5.1853,42.5294,929.4001],[-5.1756,42.5426,946.7198],[-5.1641,42.5493,957.6772],[-5.1573,42.556399999999996,957.3914]]]]}
,"properties": {"GID_3": "ESP.5.3.2_1","GID_0": "ESP","country": "Spain","GID_1": "ESP.5_1","province": "CastillayLeón","NL_NAME_1": "NA","GID_2": "ESP.5.3_1","county": "León","NL_NAME_2": "NA","city": "n.a.(149)","VARNAME_3": "NA","NL_NAME_3": "NA","TYPE_3": "Comarca","ENGTYPE_3": "Comarca","CC_3": "NA","HASC_3": "NA","name": "n.a.(149).city","area_km2": 1759.322,"hist_schema_id": "Elevation0-9000","hist_area_km2": {"800": 10.869,"825": 77.498,"850": 119.396,"875": 158.766,"900": 197.969,"925": 190.455,"950": 165.694,"975": 153.848,"1000": 145.368,"1025": 135.158,"1050": 125.925,"1075": 98.866,"1100": 79.416,"1125": 48.873,"1150": 25.047,"1175": 10.24,"1200": 5.493,"1225": 2.987,"1250": 2.085,"1275": 1.509,"1300": 0.498,"1325": 0.358,"1350": 0.342,"1375": 0.249,"1400": 0.264,"1425": 0.28,"1450": 0.342,"1475": 0.233,"1500": 0.202,"1525": 0.171,"1550": 0.156,"1575": 0.109,"1600": 0.078,"1625": 0.171,"1650": 0.109,"1675": 0.109,"1700": 0.031,"1725": 0.078,"1750": 0.047,"1800": 0.031}}}