{"type": "Feature","bbox": [-0.4499,39.4845,-0.2593,39.6399],"geometry": {"type": "MultiPolygon","coordinates": [[[[-0.3692,39.511,13.7872],[-0.3718,39.5096,13.011],[-0.3675,39.5048,13.7579],[-0.3609,39.502,8.8124],[-0.36,39.5036,11.878],[-0.3564,39.5024,8.5496],[-0.3552,39.5001,8.5594],[-0.3577,39.4942,9.7902],[-0.3517,39.4893,5.5173],[-0.3367,39.4861,3.7068],[-0.3339,39.4877,1.8176],[-0.3275,39.4845,5.2857],[-0.3246,39.4846,0.6113],[-0.3224,39.5057,6.5168],[-0.3162,39.5235,0.6101],[-0.2938,39.5537,1.1828],[-0.2885,39.559,0.4041],[-0.2812,39.5624,0.3094],[-0.2818,39.5662,0.4635],[-0.2737,39.5782,0.0],[-0.2671,39.6021,3.7257],[-0.2593,39.6149,0.8326],[-0.2684,39.6135,-0.0489],[-0.2957,39.6287,7.1349],[-0.3432,39.6399,163.6585],[-0.3533,39.6338,157.3929],[-0.3793,39.6243,214.86],[-0.3691,39.6055,63.162],[-0.3672,39.605,60.2353],[-0.3678,39.6001,81.550299999999993],[-0.3798,39.5994,64.9354],[-0.3957,39.5925,66.1835],[-0.4021,39.586,59.629],[-0.4139,39.5671,65.7889],[-0.4209,39.5602,83.0871],[-0.4269,39.5623,81.9152],[-0.4162,39.5512,72.4752],[-0.4066,39.5449,37.4455],[-0.4051,39.5415,36.4767],[-0.4009,39.5406,37.6488],[-0.4029,39.5369,29.7965],[-0.3963,39.5284,22.0307],[-0.3926,39.5277,22.1955],[-0.3936,39.5301,23.1033],[-0.3901,39.5304,22.1137],[-0.3894,39.5328,24.287],[-0.3877,39.5332,24.4505],[-0.3874,39.5319,24.0717],[-0.3844,39.5333,23.3109],[-0.3848,39.5304,23.6178],[-0.3776,39.5302,20.5029],[-0.3708,39.5274,18.8401],[-0.3739,39.5262,17.6844],[-0.3704,39.5165,14.8787],[-0.3665,39.5125,13.6848],[-0.3692,39.511,13.7872]],
[[-0.3609,39.532,17.6638],[-0.3534,39.5295,15.5099],[-0.3558,39.5241,14.0708],[-0.3513,39.5227,12.2439],[-0.3605,39.516,12.2062],[-0.3633,39.5223,14.8002],[-0.3665,39.5237,15.1982],[-0.3654,39.5289,19.569],[-0.3613,39.5281,17.4128],[-0.362,39.5324,19.9228],[-0.3609,39.532,17.6638]]],
[[[-0.3967,39.5079,25.0878],[-0.4,39.5091,25.253],[-0.401,39.5107,24.8528],[-0.3992,39.5112,24.6219],[-0.4015,39.5155,23.067],[-0.3994,39.5211,20.4371],[-0.3959,39.523,20.0917],[-0.3973,39.5252,20.7289],[-0.4017,39.5289,23.8418],[-0.4075,39.5308,34.5277],[-0.4156,39.5458,78.0992],[-0.4301,39.554,72.1888],[-0.4325,39.5612,73.6477],[-0.4395,39.5597,83.7645],[-0.4387,39.557,84.1506],[-0.4499,39.5457,124.1516],[-0.4325,39.5269,77.8802],[-0.4255,39.5236,75.4169],[-0.4239,39.5203,56.8029],[-0.4187,39.5174,57.5409],[-0.4276,39.511,52.8079],[-0.4122,39.5014,34.3984],[-0.4126,39.498,35.9586],[-0.405,39.4982,28.134],[-0.4041,39.4996,29.7515],[-0.4018,39.4988,27.7473],[-0.397,39.5014,26.8618],[-0.3984,39.5054,26.5392],[-0.3967,39.5079,25.0878]]]]}
,"properties": {"GID_3": "ESP.10.3.7_1","GID_0": "ESP","country": "Spain","GID_1": "ESP.10_1","province": "ComunidadValenciana","NL_NAME_1": "NA","GID_2": "ESP.10.3_1","county": "Valencia","NL_NAME_2": "NA","city": "HortaNord","VARNAME_3": "NA","NL_NAME_3": "NA","TYPE_3": "Comarca","ENGTYPE_3": "Comarca","CC_3": "NA","HASC_3": "NA","name": "Horta_Nord.city","area_km2": 142.7192,"hist_schema_id": "Elevation0-9000","hist_area_km2": {"0": 49.2843,"25": 48.3334,"50": 27.6352,"75": 10.0493,"100": 4.9832,"125": 1.9604,"150": 0.4082,"175": 0.0327,"200": 0.0163,"225": 0.0163}}}