{"type": "Feature","bbox": [-1.0366,37.8441,-0.6399,38.3296],"geometry": {"type": "MultiPolygon","coordinates": [[[[-0.7521,37.8882,0.0],[-0.7504,37.8982,15.0582],[-0.746,37.8996,0.112],[-0.746,37.9024,2.1092],[-0.7407,37.9093,22.8084],[-0.736,37.9085,0.0],[-0.7296,37.9132,9.5159],[-0.7265,37.9107,0.0],[-0.7221,37.9099,0.0],[-0.719,37.9115,0.0],[-0.7201,37.9179,0.0],[-0.7224,37.9201,11.6111],[-0.721,37.9221,0.0],[-0.7215,37.9268,11.1914],[-0.719,37.9279,0.0],[-0.7207,37.9296,0.0],[-0.7187,37.9304,0.0],[-0.7176,37.9368,5.162],[-0.7157,37.9388,15.4943],[-0.7104,37.9415,0.0],[-0.7046,37.9415,0.0],[-0.7032,37.956,0.4599],[-0.6968,37.9693,7.3216],[-0.6924,37.9699,0.8927],[-0.6879,37.9663,0.0],[-0.6932,37.9721,0.4731],[-0.6899,37.9749,1.4733],[-0.6888,37.9724,0.0],[-0.6862,37.9718,0.0],[-0.681,37.974,0.6889],[-0.6776,37.9726,0.0],[-0.6693,37.9774,14.3127],[-0.6676,37.9751,0.0],[-0.666,37.9757,1.6664],[-0.661,37.9832,7.5681],[-0.6557,37.9829,0.4684],[-0.6529,37.9965,2.3941],[-0.6474,37.9996,0.3044],[-0.6471,38.0051,0.0],[-0.6529,38.0085,9.3418],[-0.6537,38.0224,5.8877],[-0.6507,38.0307,0.0],[-0.6537,38.034,7.1917],[-0.6535,38.0438,6.0837],[-0.6429,38.1096,0.0],[-0.6449,38.1113,0.5366],[-0.6424,38.1118,0.0],[-0.6424,38.1143,0.9812],[-0.6438,38.1146,2.4976],[-0.6415,38.1162,0.9983],[-0.6399,38.1284,1.9518],[-0.6555,38.1284,38.6469],[-0.6581,38.1391,74.2646],[-0.6607,38.1428,73.8688],[-0.6705,38.1436,64.455],[-0.6788,38.1421,73.6752],[-0.6975,38.136,18.3705],[-0.7157,38.1366,1.3072],[-0.7518,38.1635,2.397],[-0.7606,38.1652,2.3988],[-0.7726,38.1729,1.0],[-0.786,38.1762,2.933],[-0.8014,38.1723,3.847],[-0.8059,38.1663,7.1406],[-0.8156,38.1613,5.8691],[-0.8143,38.1587,6.6192],[-0.8266,38.156,6.8356],[-0.8344,38.1585,7.7455],[-0.8182,38.1639,4.2537],[-0.8246,38.1846,4.9908],[-0.8353,38.2056,32.9427],[-0.8406,38.2089,43.9167],[-0.8542,38.2224,98.6057],[-0.8642,38.2355,158.5686],[-0.8705,38.2384,187.9478],[-0.8892,38.2599,616.2815],[-0.8997,38.2681,624.1844],[-0.9247,38.2539,554.85],[-0.9439,38.2555,514.8414],[-0.9544,38.258,499.1301],[-0.9624,38.2574,516.6866],[-0.9486,38.2836,651.9121],[-0.9569,38.2973,709.4405],[-0.9714,38.3296,1052.6372],[-0.9772,38.3272,925.7738],[-0.9796,38.3241,849.1732],[-0.989,38.3206,487.768],[-0.9842,38.3071,494.3418],[-0.9717,38.2907,426.5543],[-0.9673,38.2722,402.447],[-0.9677,38.2559,542.1323],[-0.9762,38.2408,584.571],[-0.9887,38.1996,171.1167],[-1.0087,38.1669,129.2506],[-1.0366,38.1374,149.8065],[-1.0305,38.1159,135.1652],[-1.0303,38.0971,201.6311],[-1.0222,38.0752,31.4007],[-1.0065,38.055,28.9737],[-0.9986,38.0515,28.8385],[-0.9819,38.0293,29.0507],[-0.966,38.0127,163.9698],[-0.959,37.9991,103.219],[-0.9341,37.9689,145.1889],[-0.9213,37.9445,304.6348],[-0.9001,37.9232,234.3678],[-0.8571,37.8853,122.7707],[-0.8302,37.8643,70.0761],[-0.8035,37.859,38.3335],[-0.7904,37.8484,18.2749],[-0.7816,37.8448,8.4292],[-0.7708,37.8441,3.562],[-0.7621,37.8474,0.0],[-0.7615,37.8649,3.4388],[-0.7599,37.8674,9.4948],[-0.7574,37.8654,0.0],[-0.7557,37.8713,0.0],[-0.7535,37.8718,0.0],[-0.7524,37.8793,1.4544],[-0.7535,37.884,3.7175],[-0.7521,37.8882,0.0]]]]}
,"properties": {"GID_3": "ESP.10.1.4_1","GID_0": "ESP","country": "Spain","GID_1": "ESP.10_1","province": "ComunidadValenciana","NL_NAME_1": "NA","GID_2": "ESP.10.1_1","county": "Alicante","NL_NAME_2": "NA","city": "BaixSegura","VARNAME_3": "NA","NL_NAME_3": "NA","TYPE_3": "Comarca","ENGTYPE_3": "Comarca","CC_3": "NA","HASC_3": "NA","name": "Baix_Segura.city","area_km2": 956.7648,"hist_schema_id": "Elevation0-9000","hist_area_km2": {"0": 221.848,"25": 200.8608,"50": 107.6089,"75": 85.7591,"100": 87.277,"125": 66.448,"150": 49.2534,"175": 39.4671,"200": 25.3164,"225": 16.4113,"250": 10.5987,"275": 5.0053,"300": 3.9192,"325": 3.101,"350": 2.7664,"375": 2.6501,"400": 3.6652,"425": 4.1475,"450": 4.3795,"475": 4.0461,"500": 3.147,"525": 2.281,"550": 2.3809,"575": 1.5648,"600": 0.9653,"625": 0.4826,"650": 0.3495,"675": 0.2995,"700": 0.0998,"725": 0.1331,"750": 0.1165,"775": 0.0832,"800": 0.0333,"825": 0.0499,"850": 0.0333,"875": 0.0333,"900": 0.0166,"925": 0.0499,"950": 0.0166,"975": 0.0499,"1000": 0.0166,"1025": 0.0166,"1050": 0.0166}}}