{"type": "Feature","bbox": [-4.0501,42.7633,-3.9959,42.8314],"geometry": {"type": "MultiPolygon","coordinates": [[[[-4.0458,42.7666,1085.4042],[-4.0408,42.7673,1085.8907],[-4.0167,42.764,1082.3206],[-4.0093,42.7657,1073.7933],[-4.003,42.7633,1071.9187],[-4.0024,42.7684,1067.5298],[-3.9996,42.769,1069.462],[-3.9959,42.7862,718.5623],[-3.9975,42.7878,719.214],[-3.9964,42.7989,725.7887],[-4.0008,42.8098,872.5717],[-4.0,42.8241,1004.8807],[-4.0035,42.8314,1010.7324],[-4.011,42.8304,1009.5696],[-4.0207,42.8193,933.6413],[-4.0141,42.806399999999996,725.3951],[-4.0239,42.8063,745.5513],[-4.0328,42.8012,729.5389],[-4.0317,42.7936,749.3479],[-4.0283,42.7903,770.0834],[-4.0298,42.7883,820.2301],[-4.0335,42.7866,783.2959],[-4.0378,42.7908,848.4681],[-4.0437,42.7888,804.978],[-4.0501,42.7798,830.1165],[-4.0496,42.7729,954.0634],[-4.0458,42.7666,1085.4042]]]]}
,"properties": {"GID_3": "ESP.5.4.7_1","GID_0": "ESP","country": "Spain","GID_1": "ESP.5_1","province": "CastillayLeón","NL_NAME_1": "NA","GID_2": "ESP.5.4_1","county": "Palencia","NL_NAME_2": "NA","city": "n.a.(206)","VARNAME_3": "NA","NL_NAME_3": "NA","TYPE_3": "Comarca","ENGTYPE_3": "Comarca","CC_3": "NA","HASC_3": "NA","name": "n.a.(206).city","area_km2": 19.23112,"hist_schema_id": "Elevation0-9000","hist_area_km2": {"700": 0.03112,"725": 1.43125,"750": 1.40018,"775": 1.85145,"800": 3.40757,"825": 2.78518,"850": 2.00721,"875": 0.93361,"900": 0.91791,"925": 0.71559,"950": 0.84,"975": 0.49779,"1000": 0.48224,"1025": 0.3424,"1050": 0.24903,"1075": 1.22963,"1100": 0.10895}}}