{"type": "Feature","bbox": [-5.529,40.4524,-4.4192,40.8859],"geometry": {"type": "MultiPolygon","coordinates": [[[[-4.6975,40.5266,1454.0967],[-4.6833,40.5334,1464.3928],[-4.6801,40.5399,1446.7217],[-4.6676,40.5458,1370.6277],[-4.6292,40.55,1429.9639],[-4.6164,40.5622,1397.0919],[-4.6016,40.568,1400.0972],[-4.6028,40.5739,1327.8547],[-4.6005,40.5828,1369.4373],[-4.5885,40.5879,1378.1907],[-4.5822,40.5931,1384.5696],[-4.5803,40.5929,1379.1749],[-4.5783,40.5974,1348.5994],[-4.5791,40.6024,1345.1312],[-4.5702,40.6091,1319.6787],[-4.5592,40.6105,1312.9862],[-4.5442,40.6081,1367.0215],[-4.5239,40.6117,1395.9514],[-4.5147,40.6223,1463.5851],[-4.5124,40.6231,1469.2471],[-4.5095,40.6215,1457.1536],[-4.491,40.6193,1476.0292],[-4.4789,40.6197,1458.2012],[-4.4696,40.6344,1490.5162],[-4.457,40.6342,1503.5299],[-4.4484,40.6302,1468.6708],[-4.4195,40.6334,1482.7085],[-4.4192,40.655,1392.4196],[-4.422,40.6753,1252.9637],[-4.4318,40.7041,1360.2435],[-4.4346,40.7062,1397.2357],[-4.4356,40.7159,1473.0649],[-4.4322,40.7172,1485.0237],[-4.4301,40.7282,1294.6891],[-4.4268,40.7296,1295.6992],[-4.4304,40.7362,1199.0831],[-4.431,40.7424,1174.6218],[-4.4386,40.7498,1138.2888],[-4.4544,40.7545,1143.9048],[-4.4598,40.7588,1155.9951],[-4.467,40.7691,1102.337],[-4.4737,40.7747,1114.1442],[-4.4724,40.7821,1121.6827],[-4.4805,40.7862,1111.7852],[-4.4813,40.7916,1088.3792],[-4.4805,40.7945,1089.8682],[-4.4731,40.8,1099.7092],[-4.4767,40.8033,1083.4525],[-4.4768,40.8076,1098.3335],[-4.486,40.8143,1085.2694],[-4.4867,40.8202,1073.5519],[-4.4937,40.8335,1043.9735],[-4.4986,40.8335,1060.2421],[-4.5015,40.8302,1063.7488],[-4.5065,40.8312,1071.168],[-4.5083,40.8301,1080.2758],[-4.5087,40.8313,1078.3188],[-4.5245,40.8258,1074.4987],[-4.5338,40.8287,1025.7432],[-4.5463,40.8256,1006.3734],[-4.5499,40.8286,988.6573],[-4.5588,40.8396,950.8461],[-4.5498,40.8534,961.4564],[-4.5396,40.8556,995.1793],[-4.5358,40.855,1033.9667],[-4.5315,40.8586,1039.0271],[-4.5335,40.8641,1027.2637],[-4.5355,40.8655,1032.2229],[-4.5352,40.8724,1037.8485],[-4.5508,40.8795,923.8094],[-4.5518,40.8821,921.0001],[-4.5595,40.8859,909.2834],[-4.5592,40.8815,914.4337],[-4.566,40.871,919.3168],[-4.5629,40.8666,919.2092],[-4.5663,40.8619,919.4814],[-4.5664,40.8579,922.2744],[-4.5714,40.8571,927.4586],[-4.5733,40.8506,925.7251],[-4.5704,40.8424,931.8372],[-4.5748,40.8427,945.8932],[-4.5786,40.841,959.4631],[-4.5853,40.8299,978.7841],[-4.5899,40.8322,973.3526],[-4.5947,40.8251,989.309],[-4.6028,40.8256,980.6996],[-4.6198,40.8207,949.3666],[-4.6232,40.8232,945.1645],[-4.6335,40.8226,926.2019],[-4.6336,40.8209,923.9624],[-4.6401,40.8177,916.981],[-4.646,40.8232,955.8339],[-4.6473,40.8215,938.8312],[-4.6537,40.8209,959.1104],[-4.6569,40.8189,963.7964],[-4.6557,40.8189,963.7964],[-4.6542,40.8126,937.0017],[-4.6452,40.8104,912.6399],[-4.6429,40.8078,921.0617],[-4.6449,40.8076,914.6318],[-4.6398,40.8049,931.52],[-4.6444,40.8037,924.6512],[-4.6463,40.7982,927.014],[-4.649,40.7992,922.2182],[-4.6472,40.7963,930.6022],[-4.6508,40.7957,930.7485],[-4.6513,40.7987,923.7435],[-4.6532,40.7933,935.1731],[-4.6515,40.7919,940.6868],[-4.6596,40.7935,919.7273],[-4.6553,40.7906,933.3448],[-4.6567,40.7885,923.7731],[-4.6596,40.7898,925.2083],[-4.6574,40.7901,933.8268],[-4.6581,40.7912,924.7249],[-4.6611,40.7902,910.1757],[-4.6622,40.793,906.1333],[-4.6624,40.7898,907.5311],[-4.665,40.7898,906.369],[-4.6627,40.7849,925.0909],[-4.6641,40.7846,923.4899],[-4.6632999999999996,40.7789,944.2648],[-4.6608,40.778,945.9724],[-4.6602,40.7719,961.9314],[-4.6577,40.7713,969.4954],[-4.6548,40.7734,971.285],[-4.6445,40.7727,982.0724],[-4.6333,40.7619,1028.771],[-4.636,40.7624,1018.0347],[-4.6386,40.7608,1027.1403],[-4.6376,40.7563,1056.7039],[-4.6423,40.7508,1086.6372],[-4.6403,40.7498,1107.4429],[-4.6428,40.7451,1122.519],[-4.6528,40.7351,1150.0782],[-4.6624,40.7352,1129.4397],[-4.6647,40.733,1118.7861],[-4.6715,40.7319,1091.8021],[-4.6716,40.7329,1089.0209],[-4.6759,40.7319,1069.1628],[-4.6895,40.7343,991.4294],[-4.6883,40.7384,974.989],[-4.6925,40.7449,962.2513],[-4.6902,40.7464,941.8489],[-4.6954,40.7488,943.2292],[-4.6887,40.7512,928.8114],[-4.6913,40.7557,937.4968],[-4.7033,40.7617,967.1565],[-4.7108,40.7609,1011.2476],[-4.7088,40.7692,938.9474],[-4.7125,40.7722,946.9542],[-4.7151,40.7725,956.0845],[-4.7174,40.7702,988.349],[-4.7222,40.7715,1010.6958],[-4.7228,40.7691,1062.1201],[-4.7282,40.7679,1093.8772],[-4.7317,40.7625,1100.0306],[-4.7438,40.7618,1118.751],[-4.7436,40.7593,1114.355],[-4.7452,40.7589,1114.3425],[-4.7534,40.7627,1138.1323],[-4.7602,40.7614,1136.8967],[-4.7723,40.7536,1136.5718],[-4.7715,40.7461,1134.4465],[-4.7785,40.7448,1078.993],[-4.7818,40.7477,1034.8066],[-4.7923,40.7504,1059.2722],[-4.7924,40.7483,1066.5729],[-4.7949,40.7535,1026.187],[-4.8067,40.7512,1068.1838],[-4.8061,40.7532,1061.689],[-4.8153,40.7595,1060.1008],[-4.8138,40.7601,1054.3237],[-4.8151,40.7611,1058.0037],[-4.8136,40.7652,1060.202],[-4.8166,40.7659,1074.8895],[-4.8151,40.7671,1063.6475],[-4.817,40.772,1065.7546],[-4.8226,40.7667,1064.0018],[-4.8268,40.7664,1056.9614],[-4.8274,40.7649,1060.059],[-4.8367,40.7661,1016.6741],[-4.8389,40.7639,1030.0364],[-4.8431,40.7646,1043.9899],[-4.8435,40.7665,1038.5859],[-4.8464,40.7659,1037.5511],[-4.8498,40.7625,1048.4456],[-4.855,40.7635,1053.2422],[-4.8563,40.7657,1043.3768],[-4.853,40.7677,1044.7129],[-4.8553,40.774,1006.3092],[-4.8609,40.777,979.4907],[-4.8666,40.7765,959.1927],[-4.8673,40.7746,958.9394],[-4.8714,40.7754,972.1466],[-4.8735,40.7721,972.3593],[-4.8714,40.7694,978.319],[-4.8762,40.7699,960.7691],[-4.8765,40.7684,965.7119],[-4.8817,40.7681,965.0454],[-4.8813,40.7662,970.6711],[-4.8838,40.7665,970.9955],[-4.8837,40.7654,976.2017],[-4.8855,40.7682,967.8914],[-4.8909,40.7643,986.5355],[-4.8938,40.765,986.3544],[-4.8958,40.7623,996.0258],[-4.8967,40.7638,991.4984],[-4.8974,40.7624,999.0008],[-4.8997,40.7634,999.3974],[-4.8998,40.7655,982.0226],[-4.9012,40.763,995.2169],[-4.9063,40.7641,989.7284],[-4.9067,40.7692,971.9332],[-4.9094,40.7697,973.1163],[-4.91,40.7739,956.5382],[-4.912,40.7739,959.0306],[-4.9092,40.779,952.4321],[-4.9107,40.7809,948.66],[-4.9082,40.7831,945.8663],[-4.9238,40.7802,963.2503],[-4.9246,40.7821,969.6849],[-4.9209,40.7843,968.8663],[-4.9227,40.7857,958.4546],[-4.9195,40.7882,966.0104],[-4.9208,40.7887,966.0104],[-4.9201,40.7907,949.2072],[-4.9167,40.794,942.1446],[-4.9144,40.7933,950.1642],[-4.9151,40.7962,938.2633],[-4.9128,40.7954,953.377],[-4.9118,40.7966,948.1943],[-4.9135,40.7979,936.7943],[-4.9083,40.7964,945.2662],[-4.907,40.7992,931.5372],[-4.9031,40.8008,928.0566],[-4.9021,40.7979,943.8228],[-4.8994,40.7992,944.4711],[-4.9021,40.8031,924.0163],[-4.8994,40.8059,917.8664],[-4.9068,40.81,918.888],[-4.903,40.8111,917.0787],[-4.8997,40.8084,917.6554],[-4.8983,40.8094,920.8151],[-4.8994,40.8149,918.5692],[-4.9023,40.8155,916.6444],[-4.905,40.828,921.5079],[-4.911,40.8272,922.1422],[-4.9149,40.831,924.3556],[-4.9149,40.8347,914.9164],[-4.919,40.8353,918.8934],[-4.9181,40.8379,908.8782],[-4.9356,40.8344,934.1283],[-4.9457,40.8292,964.9866],[-4.9518,40.8216,987.0333],[-4.9578,40.8192,997.1289],[-4.9716,40.8241,998.9048],[-4.9754,40.8229,1002.2346],[-4.9808,40.8325,980.2278],[-4.9856,40.8335,982.6049],[-4.9945,40.8461,929.908],[-4.9982,40.8467,944.7249],[-5.0186,40.8387,972.0209],[-5.0186,40.8369,974.542],[-5.0261,40.829,1006.6085],[-5.0306,40.829,993.6267],[-5.0329,40.823,1009.0323],[-5.0372,40.828,996.193],[-5.0464,40.8272,1000.3095],[-5.051,40.8315,997.0793],[-5.0706,40.8271,956.5764],[-5.0797,40.8221,984.7244],[-5.0805,40.8202,993.7716],[-5.084,40.8198,997.8209],[-5.0944,40.8251,978.9712],[-5.0973,40.8289,995.9401],[-5.0988,40.8406,972.6696],[-5.1011,40.8438,977.4286],[-5.1122,40.842,946.5609],[-5.114,40.848,970.7958],[-5.1214,40.8457,946.8655],[-5.1209,40.8476,941.642],[-5.1269,40.8507,950.0189],[-5.1351,40.8494,966.2906],[-5.1398,40.8532,975.1644],[-5.1465,40.8548,967.3412],[-5.1465,40.8572,973.4515],[-5.1512,40.8613,959.9713],[-5.1537,40.8612,936.9978],[-5.154,40.8629,938.6085],[-5.1562,40.8625,935.7622],[-5.1619,40.8663,948.8744],[-5.1633,40.8655,948.8744],[-5.1614,40.8622,931.079],[-5.1641,40.8568,914.0926],[-5.163,40.8541,901.0131],[-5.1655,40.8432,900.7599],[-5.1688,40.84,917.4807],[-5.1681,40.8365,925.2983],[-5.1663,40.8342,925.725],[-5.1638,40.8344,930.7307],[-5.1638,40.831,937.5519],[-5.161,40.8296,937.4631],[-5.1618,40.8281,931.8096],[-5.1574,40.8241,949.423],[-5.1586,40.8203,953.4174],[-5.1616,40.8179,947.3115],[-5.1614,40.814,930.3967],[-5.1658,40.8135,913.7679],[-5.1667,40.8112,910.1384],[-5.1775,40.8053,935.8387],[-5.1805,40.7975,958.3325],[-5.1782,40.7964,957.5466],[-5.1843,40.7887,981.161],[-5.2084,40.7791,930.0772],[-5.2189,40.773,924.3939],[-5.2169,40.7707,912.4746],[-5.2143,40.7578,956.554],[-5.2275,40.7532,961.3856],[-5.2321,40.7486,917.8689],[-5.2498,40.7429,986.9764],[-5.2549,40.7395,970.4],[-5.2537,40.7343,1005.4229],[-5.2571,40.7363,994.7384],[-5.2594,40.7327,979.0612],[-5.2656,40.7285,964.3014],[-5.277,40.7238,956.2258],[-5.2792,40.7202,949.1581],[-5.2896,40.7143,989.8063],[-5.2927,40.7103,1025.0315],[-5.313,40.7036,941.3895],[-5.3217,40.7031,964.3507],[-5.322,40.7055,957.752],[-5.3286,40.7054,979.7196],[-5.3302,40.7014,988.1485],[-5.337,40.6995,979.6962],[-5.3329,40.6977,990.1962],[-5.332,40.6946,995.6616],[-5.3371,40.6893,980.5581],[-5.3416,40.6869,959.3889],[-5.3491,40.6871,951.559],[-5.3647,40.6794,1007.0613],[-5.3684,40.681,997.2156],[-5.3776,40.6778,1003.4254],[-5.3805,40.6716,981.6217],[-5.3853,40.6715,961.7691],[-5.3869,40.6693,953.823],[-5.3857,40.6633,1014.063],[-5.3658,40.6488,1077.7427],[-5.3783,40.6455,1046.028],[-5.3731,40.6388,1064.2756],[-5.3816,40.6307,1089.2837],[-5.3791,40.6272,1102.1624],[-5.3828,40.6208,1112.0352],[-5.3844,40.622,1106.9491],[-5.3865,40.6198,1092.8069],[-5.3923,40.618899999999996,1069.0715],[-5.402,40.6095,1059.6785],[-5.4085,40.6089,1084.583],[-5.412,40.6104,1071.9067],[-5.4226,40.6053,1021.7875],[-5.4241,40.5975,1067.8334],[-5.4293,40.5958,1056.1976],[-5.4335,40.5909,1086.3151],[-5.4387,40.5889,1088.119],[-5.4408,40.59,1073.9189],[-5.4428,40.5869,1104.151],[-5.4461,40.5858,1089.9333],[-5.4475,40.5796,1131.762],[-5.4643,40.5776,1099.9152],[-5.4642,40.5797,1096.7328],[-5.4667,40.5804,1063.6973],[-5.4856,40.5816,1039.8337],[-5.4877,40.5833,1030.354],[-5.4995,40.5816,988.8997],[-5.4988,40.5899,1034.3135],[-5.5008,40.5974,1009.3112],[-5.5058,40.59,1023.572],[-5.51,40.5904,1003.9326],[-5.5161,40.5854,953.8452],[-5.5175,40.5733,1003.6661],[-5.5159,40.5705,1000.9911],[-5.5182,40.5638,1018.4974],[-5.5286,40.5541,1119.8768],[-5.529,40.5506,1205.6125],[-5.526,40.5487,1161.9958],[-5.5264,40.5416,1077.6422],[-5.5246,40.5407,1076.6255],[-5.5174,40.5456,1214.4554],[-5.4815,40.5567,1310.683],[-5.465,40.5602,1238.7725],[-5.4605,40.5593,1239.1127],[-5.4534,40.5606,1195.2719],[-5.4379,40.5663,1221.4503],[-5.431,40.5672,1233.2527],[-5.4322,40.5684,1224.0001],[-5.4244,40.5726,1247.1562],[-5.4186,40.5804,1202.5693],[-5.4124,40.5829,1149.7709],[-5.4105,40.5854,1144.8782],[-5.4117,40.5894,1130.6484],[-5.4138,40.5902,1122.1584],[-5.4139,40.5942,1130.6727],[-5.3994,40.5981,1111.7561],[-5.3943,40.5888,1160.774],[-5.379,40.5765,1135.48],[-5.3765,40.576,1149.064],[-5.3598,40.5613,1220.6283],[-5.3552,40.5606,1237.3611],[-5.3355,40.5659,1240.413],[-5.3393,40.5713,1239.4147],[-5.328,40.5753,1297.793],[-5.3175,40.5675,1309.6597],[-5.3095,40.568,1331.29],[-5.2998,40.5711,1305.91],[-5.2961,40.5749,1290.5776],[-5.2944,40.5826,1281.3583],[-5.2877,40.5953,1251.0457],[-5.276,40.603,1290.8008],[-5.2739,40.614,1211.9758],[-5.276,40.6193,1183.2141],[-5.2721,40.6241,1147.2197],[-5.2609,40.6259,1190.8884],[-5.2461,40.6208,1234.9691],[-5.2323,40.6226,1240.2534],[-5.2323,40.6187,1239.9447],[-5.238,40.6172,1250.2964],[-5.2382,40.6143,1272.0717],[-5.233,40.6033,1344.1902],[-5.2321,40.5973,1395.2966],[-5.2456,40.5878,1474.7671],[-5.2456,40.5815,1523.3979],[-5.243,40.5785,1481.4995],[-5.2177,40.5674,1475.7366],[-5.2171,40.5603,1491.8184],[-5.1989,40.5553,1492.0042],[-5.19,40.5545,1521.7257],[-5.1861,40.551,1515.3219],[-5.1706,40.5526,1508.3342],[-5.1652,40.5486,1540.5951],[-5.1596,40.5344,1474.658],[-5.1673,40.5226,1569.3672],[-5.1627,40.5185,1620.4727],[-5.1372,40.5236,1770.0219],[-5.1246,40.5226,1876.4771],[-5.1206,40.5202,1932.818],[-5.1161,40.5206,1959.525],[-5.1088,40.5163,1966.0825],[-5.1066,40.5097,2097.9138],[-5.0996,40.5012,2135.5686],[-5.0785,40.4993,2274.5986],[-5.07,40.4904,2174.8269],[-5.0745,40.4773,2032.692],[-5.048,40.4814,1726.9122],[-5.0375,40.4871,1745.4585],[-5.0292,40.4779,1588.4559],[-5.0104,40.4754,1575.6431],[-5.0183,40.4642,1511.8717],[-5.0262,40.4569,1469.5883],[-5.0251,40.4524,1461.9573],[-5.0063,40.4658,1708.7831],[-4.9994,40.4728,1853.7577],[-4.9984,40.4761,1901.9758],[-4.9843,40.4824,1913.8193],[-4.9778,40.4798,1882.4083],[-4.9687,40.4831,1899.1278],[-4.9594,40.4752,1850.5349],[-4.9419,40.4764,1844.0558],[-4.9263,40.4805,1928.8257],[-4.9204,40.4792,1935.1277],[-4.9105,40.4823,1963.7804],[-4.9006,40.4831,2077.4551],[-4.8948,40.4733,1872.4233],[-4.905,40.4561,1654.4297],[-4.8956,40.4626,1767.3391],[-4.8917,40.4686,1839.561],[-4.8909,40.474,1945.0747],[-4.894,40.4801,2081.5876],[-4.8977,40.4822,2113.6074],[-4.8808,40.4894,2002.957],[-4.8613,40.4939,2025.5646],[-4.8454,40.4907,1992.3036],[-4.8374,40.4917,1821.2988],[-4.8341,40.4903,1906.0923],[-4.8329,40.4872,1950.8563],[-4.823,40.4858,1746.3495],[-4.8185,40.4815,1735.99],[-4.8135,40.4813,1704.7177],[-4.8003,40.4751,1790.3489],[-4.7934,40.4763,1808.4221],[-4.7902,40.4775,1784.9581],[-4.7897,40.4799,1761.6962],[-4.7839,40.4807,1707.3586],[-4.7746,40.4881,1595.9324],[-4.7365,40.4976,1513.8091],[-4.7264,40.4976,1518.4962],[-4.7196,40.5001,1515.0251],[-4.7101,40.5161,1512.7776],[-4.7212,40.5189,1451.5002],[-4.7225,40.5266,1434.1484],[-4.7206,40.5361,1395.384],[-4.7217,40.5379,1380.2809],[-4.7243,40.5376,1376.5902],[-4.7227,40.5397,1365.7201],[-4.718,40.5403,1350.3141],[-4.7149,40.5388,1387.4386],[-4.7148,40.5362,1423.3848],[-4.71,40.5361,1357.8456],[-4.7046,40.5255,1446.6893],[-4.6975,40.5266,1454.0967]]]]}
,"properties": {"GID_3": "ESP.5.1.2_1","GID_0": "ESP","country": "Spain","GID_1": "ESP.5_1","province": "CastillayLeón","NL_NAME_1": "NA","GID_2": "ESP.5.1_1","county": "Ávila","NL_NAME_2": "NA","city": "n.a.(24)","VARNAME_3": "NA","NL_NAME_3": "NA","TYPE_3": "Comarca","ENGTYPE_3": "Comarca","CC_3": "NA","HASC_3": "NA","name": "n.a.(24).city","area_km2": 2246.565,"hist_schema_id": "Elevation0-9000","hist_area_km2": {"900": 6.079,"925": 36.953,"950": 57.334,"975": 74.545,"1000": 87.122,"1025": 89.955,"1050": 102.542,"1075": 156.649,"1100": 201.239,"1125": 198.778,"1150": 184.991,"1175": 130.201,"1200": 107.501,"1225": 93.981,"1250": 91.308,"1275": 81.339,"1300": 70.132,"1325": 60.35,"1350": 54.672,"1375": 50.121,"1400": 43.411,"1425": 41.323,"1450": 35.758,"1475": 30.771,"1500": 26.507,"1525": 19.842,"1550": 18.171,"1575": 11.907,"1600": 9.732,"1625": 8.186,"1650": 6.914,"1675": 6.625,"1700": 6.142,"1725": 5.724,"1750": 5.385,"1775": 5.014,"1800": 5.24,"1825": 4.579,"1850": 4.047,"1875": 3.192,"1900": 2.531,"1925": 1.774,"1950": 1.419,"1975": 1.193,"2000": 0.935,"2025": 1.0,"2050": 0.774,"2075": 0.677,"2100": 0.564,"2125": 0.516,"2150": 0.306,"2175": 0.177,"2200": 0.145,"2225": 0.145,"2250": 0.081,"2275": 0.064}}}