{"type": "Feature","bbox": [-2.0553,38.3094,-1.443,38.7911],"geometry": {"type": "MultiPolygon","coordinates": [[[[-1.8608,38.4299,564.5414],[-1.8466,38.4267,599.2011],[-1.8336,38.4179,559.3936],[-1.8329,38.4133,590.0129],[-1.8129,38.4081,689.704],[-1.8039,38.3989,796.4362],[-1.8019,38.3856,501.6377],[-1.7957,38.3763,550.0421],[-1.7957,38.3703,424.5],[-1.7855,38.3661,424.5],[-1.782,38.3687,424.5],[-1.7798,38.3683,424.5],[-1.7788,38.3657,428.5446],[-1.7711,38.3649,363.7192],[-1.7713,38.3786,350.2628],[-1.7681,38.3795,359.4149],[-1.7606,38.3772,348.3019],[-1.7548,38.3734,348.5101],[-1.7528,38.374,345.181],[-1.7514,38.3798,346.0658],[-1.7434,38.3813,356.6591],[-1.7343,38.3754,359.6495],[-1.734,38.3716,342.0206],[-1.7294,38.3726,447.3328],[-1.7223,38.3689,368.2452],[-1.7186,38.3689,411.7865],[-1.7172,38.3675,350.9712],[-1.7181,38.3641,333.7996],[-1.7139,38.3632,345.9161],[-1.7119,38.3718,329.8516],[-1.7073,38.3715,347.5937],[-1.7024,38.3749,330.8863],[-1.7002,38.3747,335.5868],[-1.6973,38.3693,337.5999],[-1.6922,38.3686,323.2864],[-1.6875,38.3659,322.0052],[-1.6819,38.3602,322.1012],[-1.6852,38.352,316.9581],[-1.6815,38.3499,321.0539],[-1.6848,38.3471,315.9514],[-1.6923,38.3468,313.8528],[-1.6925,38.3375,311.9927],[-1.6879,38.3358,309.5646],[-1.6867,38.33,309.1514],[-1.6839,38.3264,307.5027],[-1.6726,38.322,304.6475],[-1.6695,38.3162,303.7446],[-1.6699,38.3124,316.1259],[-1.6354,38.3097,554.3049],[-1.6342,38.311,507.8569],[-1.6286,38.3094,501.3842],[-1.614,38.3125,533.0336],[-1.6109,38.3145,523.3834],[-1.6006,38.3154,569.0436],[-1.5892,38.3126,633.9396],[-1.5893,38.3112,631.8931],[-1.5618,38.3241,466.4893],[-1.5483,38.3327,486.449],[-1.542,38.3427,450.2763],[-1.5375,38.3459,390.769],[-1.5351,38.3459,366.9283],[-1.5208,38.3538,433.1827],[-1.517,38.3575,421.9221],[-1.4783,38.3764,571.0052],[-1.4748,38.4089,466.4358],[-1.4777,38.4211,481.5522],[-1.4782,38.456,649.6912],[-1.4804,38.4667,611.6847],[-1.4807,38.4809,667.7071],[-1.4901,38.5157,640.4021],[-1.4984,38.5321,594.6895],[-1.4873,38.5632,590.4328],[-1.4666,38.5758,620.9577],[-1.4523,38.5818,629.4054],[-1.4484,38.6124,700.5277],[-1.443,38.6364,790.0736],[-1.4477,38.6494,845.5593],[-1.461,38.6456,854.4448],[-1.4667,38.6483,815.0613],[-1.4831,38.6493,826.275],[-1.5151,38.6638,704.3524],[-1.526,38.6649,718.2501],[-1.5393,38.6751,742.5123],[-1.5398,38.683,758.2253],[-1.5449,38.691,795.6629],[-1.5522,38.6941,777.4262],[-1.563,38.6941,789.0261],[-1.5751,38.6917,780.9811],[-1.602,38.6817,829.4397],[-1.6555,38.6783,893.7521],[-1.6671,38.6722,757.7345],[-1.6899,38.6777,883.8143],[-1.7085,38.6738,882.4619],[-1.7252,38.6763,817.3798],[-1.7312,38.6788,827.9737],[-1.7335,38.6773,837.0876],[-1.748,38.6765,857.8026],[-1.7744,38.6782,940.2636],[-1.7928,38.6821,855.5409],[-1.8186,38.6842,800.8624],[-1.8447,38.6893,834.6502],[-1.8491,38.6939,863.6434],[-1.8593,38.7124,839.2677],[-1.8802,38.7555,861.8638],[-1.8801,38.7606,833.2457],[-1.8887,38.7756,851.246],[-1.8942,38.7817,869.8925],[-1.9202,38.7911,875.3109],[-1.9456,38.7876,810.4835],[-1.959,38.7803,855.7802],[-1.9776,38.7636,849.0621],[-1.9767,38.7579,866.213],[-1.9804,38.7518,911.1801],[-1.9648,38.7358,914.9229],[-1.95,38.7157,917.0558],[-1.9653,38.6912,979.2975],[-1.9701,38.6877,971.4713],[-1.9755,38.6871,981.1205],[-1.9703,38.674,957.4372],[-1.9621,38.6662,895.4821],[-1.9575,38.6581,889.2613],[-1.951,38.6518,856.8958],[-1.9468,38.6424,856.8007],[-1.9705,38.637,902.9998],[-1.9987,38.6235,990.087],[-2.0047,38.6192,953.1288],[-2.0145,38.6075,961.0761],[-2.0342,38.5736,896.7338],[-2.0333,38.5658,986.1798],[-2.0387,38.5552,910.8092],[-2.0413,38.5553,893.1181],[-2.0451,38.5504,699.277],[-2.0454,38.5391,897.6888],[-2.0483,38.5338,1029.8447],[-2.0553,38.5035,921.1624],[-2.047,38.5002,857.0855],[-2.0389,38.4855,763.8364],[-2.0293,38.4795,915.4819],[-2.0267,38.4812,956.8139],[-2.0261,38.485,948.0664],[-2.0236,38.4846,929.3402],[-2.0181,38.4892,946.4727],[-1.9956,38.4937,879.4026],[-1.994,38.4972,876.3218],[-1.9739,38.4946,870.3362],[-1.9643,38.4899,795.3826],[-1.962,38.4916,812.7355],[-1.951,38.4875,868.3888],[-1.9614,38.4749,730.2416],[-1.9616,38.4619,740.9437],[-1.9648,38.4469,761.9667],[-1.9667,38.4453,826.4871],[-1.9617,38.4449,757.4516],[-1.9571,38.4418,800.5833],[-1.953,38.4433,811.3296],[-1.9444,38.4424,865.1784],[-1.9308,38.4375,897.2802],[-1.9116,38.4387,690.7708],[-1.8944,38.4319,621.9766],[-1.8818,38.4338,567.9821],[-1.8608,38.4299,564.5414]]]]}
,"properties": {"GID_3": "ESP.4.1.5_1","GID_0": "ESP","country": "Spain","GID_1": "ESP.4_1","province": "Castilla-LaMancha","NL_NAME_1": "NA","GID_2": "ESP.4.1_1","county": "Albacete","NL_NAME_2": "NA","city": "n.a.(14)","VARNAME_3": "NA","NL_NAME_3": "NA","TYPE_3": "Comarca","ENGTYPE_3": "Comarca","CC_3": "NA","HASC_3": "NA","name": "n.a.(14).city","area_km2": 1635.525,"hist_schema_id": "Elevation0-9000","hist_area_km2": {"300": 1.214,"325": 3.126,"350": 9.842,"375": 22.92,"400": 43.706,"425": 53.236,"450": 65.352,"475": 78.938,"500": 81.472,"525": 83.707,"550": 83.034,"575": 93.006,"600": 93.208,"625": 79.56,"650": 79.012,"675": 78.636,"700": 73.555,"725": 80.302,"750": 81.016,"775": 83.504,"800": 76.884,"825": 68.502,"850": 71.726,"875": 63.369,"900": 41.467,"925": 22.535,"950": 11.297,"975": 6.643,"1000": 2.552,"1025": 1.16,"1050": 0.596,"1075": 0.348,"1100": 0.099}}}