{"type": "Feature","bbox": [-2.5,42.4514,-1.8334,42.893],"geometry": {"type": "MultiPolygon","coordinates": [[[[-2.2526,42.4788,426.4619],[-2.2405,42.4774,441.4753],[-2.2306,42.4721,405.3394],[-2.2223,42.4717,368.1266],[-2.2154,42.4745,427.6831],[-2.2079,42.4804,480.6818],[-2.1978,42.4954,509.1957],[-2.1831,42.4901,414.9],[-2.1703,42.488,415.0558],[-2.1621,42.4884,421.1335],[-2.1557,42.5062,469.468],[-2.1481,42.5172,441.302],[-2.1471,42.5287,417.5288],[-2.1379,42.5217,419.0952],[-2.1395,42.5203,420.6632],[-2.1368,42.5186,420.4835],[-2.1383,42.5166,426.7062],[-2.1312,42.505,482.115],[-2.1211,42.4991,505.9763],[-2.1027,42.4976,502.0201],[-2.0978,42.5005,512.5242],[-2.0885,42.4985,518.2554],[-2.0821,42.4996,531.2208],[-2.081,42.5025,512.2372],[-2.0785,42.5035,512.2036],[-2.078,42.5063,498.2485],[-2.0738,42.5059,543.1823],[-2.0696,42.5123,510.57619999999997],[-2.0642,42.5119,435.6751],[-2.0583,42.5088,528.4073],[-2.0563,42.5049,508.0713],[-2.0265,42.4967,465.911],[-2.016,42.5082,397.4158],[-2.0159,42.5139,402.0611],[-2.0115,42.5151,400.2757],[-2.0088,42.5189,390.7678],[-1.999,42.5188,375.2374],[-1.9921,42.5156,362.3631],[-1.9892,42.5164,351.9531],[-1.9865,42.5211,355.5209],[-1.9785,42.5218,348.8552],[-1.9791,42.5234,355.9065],[-1.9736,42.5266,360.9507],[-1.9718,42.5314,356.9153],[-1.9715,42.5262,377.1144],[-1.966,42.5225,408.6837],[-1.9568,42.5219,413.122],[-1.9433,42.5277,466.6115],[-1.9377,42.5254,481.6967],[-1.9346,42.5267,479.9437],[-1.9287,42.5507,452.8281],[-1.9303,42.5608,481.1912],[-1.9242,42.5741,436.9525],[-1.9138,42.5712,406.6663],[-1.8879,42.5842,398.0019],[-1.8929,42.5901,394.7994],[-1.8931,42.5982,421.5033],[-1.8972,42.6043,421.5414],[-1.9018,42.6071,420.4283],[-1.9004,42.6086,420.4283],[-1.903,42.6138,431.162],[-1.8957,42.6089,404.2149],[-1.8961,42.6151,428.1037],[-1.8917,42.6187,462.3757],[-1.8911,42.6219,437.7051],[-1.8834,42.6234,432.8258],[-1.8775,42.6232,411.2613],[-1.8693,42.6173,370.1593],[-1.8658,42.617,363.8803],[-1.8586,42.6195,382.7374],[-1.8623,42.6274,486.7479],[-1.8541,42.6337,399.2478],[-1.8452,42.6372,336.6964],[-1.8471,42.6392,344.1263],[-1.8456,42.641,341.3627],[-1.8386,42.6362,328.9706],[-1.8348,42.6366,331.5264],[-1.8334,42.6401,330.3542],[-1.8405,42.6464,331.3937],[-1.8426,42.6532,335.2242],[-1.8499,42.6588,345.9836],[-1.8474,42.6604,334.9737],[-1.843,42.6589,333.1393],[-1.8382,42.6602,336.7743],[-1.8427,42.6686,432.9433],[-1.8482,42.6735,504.694],[-1.8557,42.6768,563.0546],[-1.8587,42.6846,537.3385],[-1.8644,42.6852,659.5108],[-1.8839,42.6988,672.5156],[-1.8868,42.7094,778.1112],[-1.8907,42.71,826.139],[-1.8924,42.727,710.0012],[-1.8948,42.7317,697.4777],[-1.8898,42.7352,649.8579],[-1.8872,42.7338,669.4573],[-1.8834,42.7372,707.8553],[-1.8818,42.736,711.8829],[-1.8719,42.7499,904.2241],[-1.8711,42.7542,997.6008],[-1.8683,42.756,944.0968],[-1.8668,42.76,887.567],[-1.855,42.7634,828.8739],[-1.844,42.7889,809.9194],[-1.8482,42.7959,881.7567],[-1.8477,42.8038,1064.3835],[-1.8517,42.8065,992.2188],[-1.8665,42.8072,896.6593],[-1.8705,42.81,894.3895],[-1.8726,42.8068,894.3862],[-1.8837,42.8077,891.3887],[-1.8908,42.8053,988.9762],[-1.8955,42.7999,1000.786],[-1.9024,42.8008,874.6428],[-1.9177,42.7985,756.5051],[-1.919,42.8056,881.4739],[-1.9222,42.8107,926.1486],[-1.9277,42.8152,1002.7861],[-1.9352,42.8177,1126.2729],[-1.9402,42.8221,1086.1501],[-1.9478,42.8246,1014.7045],[-1.9499,42.8293,997.0986],[-1.9487,42.8335,1013.6224],[-1.9426,42.8412,1023.9163],[-1.934,42.8443,1054.2361],[-1.9385,42.8514,1190.5175],[-1.939,42.8559,1182.8529],[-1.9367,42.8585,1213.665],[-1.925,42.8589,1214.6356],[-1.9171,42.868899999999996,1225.7723],[-1.8993,42.8717,971.8647],[-1.9104,42.8802,952.3331],[-1.9097,42.8825,955.4194],[-1.8861,42.8861,921.1371],[-1.8735,42.8841,967.1018],[-1.8734,42.8867,1052.1707],[-1.9009,42.8899,1144.7594],[-1.9267,42.887,1246.8356],[-1.9638,42.8857,1292.9812],[-1.9792,42.8876,1447.083],[-1.9954,42.893,1381.9312],[-1.9899,42.8899,1368.9415],[-1.9706,42.8839,1356.9843],[-1.9391,42.8762,1300.051],[-1.9417,42.8697,1217.2969],[-1.9452,42.8708,1215.7101],[-1.943,42.866,1229.6779],[-1.9765,42.8627,1143.1565],[-2.0204,42.8613,1058.2195],[-2.0475,42.8662,1063.5283],[-2.0544,42.8703,1064.5698],[-2.0986,42.8767,1105.0305],[-2.1115,42.8708,1018.7498],[-2.1384,42.8729,1063.4875],[-2.1526,42.8723,1071.507],[-2.1739,42.8672,1120.9358],[-2.1817,42.8628,967.4817],[-2.1797,42.8601,894.1177],[-2.1807,42.8586,924.0722],[-2.2063,42.8573,1021.4097],[-2.2359,42.851,1052.2533],[-2.2326,42.8438,941.8474],[-2.2358,42.8345,960.8728],[-2.2529,42.8207,981.8727],[-2.2677,42.8134,966.8932],[-2.2704,42.8089,980.3831],[-2.2686,42.7951,973.4181],[-2.281,42.7851,1025.0977],[-2.2754,42.7793,806.4089],[-2.2732,42.7686,739.6364],[-2.2624,42.7482,987.2836],[-2.2676,42.7479,1070.0366],[-2.2734,42.7419,1214.899],[-2.2865,42.743,1195.618],[-2.2887,42.74,1203.8868],[-2.3039,42.7361,1113.9241],[-2.3111,42.7363,1067.6421],[-2.3168,42.7393,1016.9862],[-2.3197,42.7287,940.2929],[-2.3237,42.7241,875.0079],[-2.3224,42.7179,791.0889],[-2.3209,42.717,777.3077],[-2.3185,42.7188,914.0513],[-2.3128,42.7087,669.6323],[-2.3157,42.7033,631.073],[-2.3125,42.688,564.7601],[-2.3168,42.6825,562.6724],[-2.3115,42.6805,577.6286],[-2.3093,42.6712,632.1646],[-2.3049,42.6705,589.6348],[-2.2935,42.6779,561.8448],[-2.2893,42.6683,803.7847],[-2.2884,42.6551,1081.0593],[-2.2933,42.6509,1129.4989],[-2.3104,42.6523,1168.256],[-2.3321,42.6462,1169.8115],[-2.3363,42.6405,1233.8911],[-2.3472,42.6341,1400.5377],[-2.3659,42.637,1120.4791],[-2.3692,42.6354,1044.2413],[-2.3819,42.6343,946.9307],[-2.3825,42.6361,943.976],[-2.376,42.6373,981.9657],[-2.3721,42.6434,849.9658],[-2.3816,42.6474,662.9414],[-2.3762,42.6507,662.7968],[-2.3945,42.6608,610.5143],[-2.4035,42.6593,631.2421],[-2.4157,42.6627,781.0354],[-2.4296,42.6583,784.2882],[-2.4299,42.6542,765.4386],[-2.45,42.6472,739.0719],[-2.4549,42.6396,760.365],[-2.4545,42.6349,734.2479],[-2.4592,42.6339,749.6436],[-2.4645,42.6273,685.4195],[-2.471,42.6273,771.6981],[-2.483,42.6122,1077.0771],[-2.5,42.6165,1118.2725],[-2.4993,42.6115,889.1649],[-2.4943,42.6012,739.1827],[-2.4906,42.5854,624.0422],[-2.4889,42.5877,661.1252],[-2.4837,42.5892,729.3831],[-2.4725,42.5894,717.5913],[-2.4622,42.5874,739.2599],[-2.46,42.5788,649.4659],[-2.4532,42.5671,668.3407],[-2.4437,42.5747,678.0535],[-2.4295,42.5973,824.3263],[-2.4249,42.6002,890.0124],[-2.4248,42.6046,952.9607],[-2.4211,42.6071,970.669],[-2.4185,42.6071,935.6729],[-2.4119,42.6003,877.6938],[-2.3993,42.5979,847.828],[-2.3967,42.5991,795.3779],[-2.4,42.5891,704.9532],[-2.393,42.5646,670.1328],[-2.3905,42.5607,672.2568],[-2.3899,42.5491,604.345],[-2.396,42.5468,527.6342],[-2.4001,42.5432,568.5284],[-2.401,42.5385,543.3711],[-2.3984,42.5342,539.4023],[-2.3982,42.5294,519.5767],[-2.3932,42.5231,494.8476],[-2.3922,42.5169,449.4934],[-2.4093,42.516,482.0568],[-2.422,42.5117,442.1215],[-2.4237,42.5096,430.8761],[-2.4233,42.4996,420.6575],[-2.4207,42.4893,395.2175],[-2.4156,42.4906,393.9057],[-2.4001,42.4718,361.0923],[-2.3958,42.4735,364.2273],[-2.39,42.4706,363.3717],[-2.384,42.4704,360.0127],[-2.3767,42.4736,360.8607],[-2.3714,42.4707,360.2938],[-2.3709,42.4644,357.6478],[-2.363,42.4617,356.34],[-2.3581,42.467,362.8058],[-2.3522,42.4656,355.0997],[-2.3476,42.4527,349.4922],[-2.3458,42.4514,353.5458],[-2.3318,42.454,350.365],[-2.3314,42.4574,348.5725],[-2.3364,42.4642,346.7661],[-2.3319,42.4681,347.0148],[-2.3258,42.4682,345.17],[-2.3168,42.4621,351.3261],[-2.3087,42.4619,344.8591],[-2.2974,42.4575,341.6593],[-2.2932,42.46,340.6886],[-2.2969,42.4649,344.6847],[-2.2968,42.4681,345.4147],[-2.288,42.4674,350.0901],[-2.2837,42.4737,365.5216],[-2.279,42.4862,397.2601],[-2.2526,42.4788,426.4619]]]]}
,"properties": {"GID_3": "ESP.9.1.4_1","GID_0": "ESP","country": "Spain","GID_1": "ESP.9_1","province": "ComunidadForaldeNavarra","NL_NAME_1": "NA","GID_2": "ESP.9.1_1","county": "Navarra","NL_NAME_2": "NA","city": "n.a.(188)","VARNAME_3": "NA","NL_NAME_3": "NA","TYPE_3": "Comarca","ENGTYPE_3": "Comarca","CC_3": "NA","HASC_3": "NA","name": "n.a.(188).city","area_km2": 1539.252,"hist_schema_id": "Elevation0-9000","hist_area_km2": {"325": 1.528,"350": 11.767,"375": 34.653,"400": 76.143,"425": 116.754,"450": 108.421,"475": 101.479,"500": 100.253,"525": 90.778,"550": 76.229,"575": 68.468,"600": 62.79,"625": 54.272,"650": 45.396,"675": 41.384,"700": 36.925,"725": 34.133,"750": 33.165,"775": 30.248,"800": 25.29,"825": 23.383,"850": 28.664,"875": 22.949,"900": 32.243,"925": 45.645,"950": 38.572,"975": 37.658,"1000": 31.355,"1025": 25.283,"1050": 22.897,"1075": 17.206,"1100": 13.891,"1125": 12.536,"1150": 12.988,"1175": 8.88,"1200": 7.978,"1225": 2.908,"1250": 1.322,"1275": 0.762,"1300": 0.669,"1325": 0.591,"1350": 0.342,"1375": 0.171,"1400": 0.124,"1425": 0.078,"1450": 0.047,"1475": 0.031}}}