{"type": "Feature","bbox": [-2.2541,39.2661,-1.4963,39.7253],"geometry": {"type": "MultiPolygon","coordinates": [[[[-2.0203,39.3519,758.975],[-2.0289,39.3381,746.4728],[-2.0191,39.3258,739.0908],[-1.9947,39.3094,739.8128],[-1.9897,39.2937,735.449],[-1.9665,39.3001,724.1876],[-1.9368,39.304,734.2048],[-1.887,39.3048,735.5037],[-1.8711,39.295,713.9503],[-1.8451,39.2861,711.2776],[-1.8124,39.2863,724.6662],[-1.7698,39.2805,716.6411],[-1.7626,39.302,734.7836],[-1.7392,39.3212,750.4526],[-1.7165,39.325,739.4464],[-1.6965,39.3375,730.64],[-1.6268,39.361,748.4117],[-1.6128,39.3682,735.3042],[-1.5983,39.3786,744.1021],[-1.5814,39.3853,700.6146],[-1.5556,39.4019,681.8293],[-1.5347,39.4075,646.4238],[-1.5151,39.4164,572.0262],[-1.5051,39.418,482.695],[-1.5014,39.4257,544.2831],[-1.4963,39.4289,521.622],[-1.5063,39.4294,493.8557],[-1.5082,39.433,497.2859],[-1.5115,39.4351,499.1584],[-1.5132,39.4343,499.1584],[-1.5141,39.4288,509.4887],[-1.5208,39.4315,518.3719],[-1.5212,39.435,498.6636],[-1.5152,39.4378,532.3712],[-1.5155,39.4391,554.9375],[-1.5208,39.4403,517.5637],[-1.5245,39.4431,502.8583],[-1.5191,39.4469,538.218],[-1.5184,39.449,539.1136],[-1.528,39.4522,555.4478],[-1.5288,39.4553,537.7004],[-1.5269,39.4573,547.7004],[-1.5237,39.4579,534.8351],[-1.5191,39.4558,540.6275],[-1.5138,39.458,552.4829],[-1.513,39.4708,566.9384],[-1.511,39.475,622.0256],[-1.509,39.4777,580.2903],[-1.5035,39.4786,582.1621],[-1.5034,39.4801,583.4781],[-1.5106,39.4812,573.5104],[-1.5125,39.4833,551.665],[-1.505,39.4882,561.3395],[-1.5109,39.4904,554.394],[-1.5124,39.4963,578.3545],[-1.5036,39.4915,565.0504],[-1.4991,39.5005,541.7303],[-1.5071,39.5079,547.137],[-1.5071,39.5129,548.1659],[-1.5011,39.5159,617.4901],[-1.5069,39.5207,561.546],[-1.5041,39.5248,564.3239],[-1.5059,39.5315,566.2304],[-1.5009,39.5345,592.9194],[-1.506,39.5401,586.021],[-1.5026,39.5445,644.0],[-1.5032,39.5472,644.0],[-1.5104,39.5455,648.4752],[-1.5157,39.5487,644.0],[-1.5208,39.5489,644.0],[-1.5253,39.5467,647.2711],[-1.53,39.5478,645.4017],[-1.5487,39.5438,672.0513],[-1.5923,39.5476,867.0233],[-1.6096,39.5675,852.539],[-1.6191,39.5696,899.6435],[-1.6251,39.5684,907.5549],[-1.6267,39.5717,895.7172],[-1.6344,39.5778,873.8012],[-1.6839,39.605,908.561],[-1.6976,39.6236,938.6318],[-1.7052,39.6436,967.2999],[-1.7172,39.6556,986.6738],[-1.7198,39.6605,997.2103],[-1.7286,39.6626,1011.6761],[-1.741,39.6581,1049.7926],[-1.7928,39.6683,1014.4083],[-1.821,39.6907,1011.5605],[-1.832,39.6768,996.621],[-1.8453,39.6668,1013.5284],[-1.8874,39.6445,977.3414],[-1.8982,39.6337,938.9617],[-1.9323,39.6788,1005.5624],[-1.9377,39.7018,1002.5222],[-1.9398,39.7044,1005.2968],[-1.9463,39.7041,1001.1023],[-1.9582,39.709,1013.6848],[-1.9691,39.71,1004.3255],[-1.9641,39.7005,979.0399],[-1.9749,39.6905,962.7028],[-1.9789,39.6844,948.1247],[-2.0048,39.6673,938.2917],[-2.0047,39.6701,941.0444],[-2.0277,39.6584,989.0807],[-2.0318,39.6507,955.3663],[-2.035,39.6516,966.2902],[-2.0405,39.6439,944.0534],[-2.039,39.6415,936.8626],[-2.0443,39.639,927.3558],[-2.0668,39.6395,918.1239],[-2.0799,39.6414,905.3735],[-2.1015,39.6647,909.5344],[-2.1105,39.6841,988.6777],[-2.1071,39.6886,1021.2025],[-2.1102,39.6888,995.8813],[-2.1151,39.6987,1026.6847],[-2.1215,39.7043,1023.0089],[-2.1361,39.7113,991.1655],[-2.1731,39.7253,861.358],[-2.1837,39.7195,867.84],[-2.1806,39.7191,872.4604],[-2.1967,39.7082,824.0514],[-2.2008,39.7078,813.1851],[-2.2339,39.6859,794.5],[-2.2362,39.6763,794.5],[-2.2292,39.6665,794.5],[-2.2284,39.6643,794.5],[-2.2306,39.6625,794.5],[-2.2182,39.6563,794.5],[-2.2136,39.6491,794.5],[-2.2108,39.648,809.2445],[-2.214,39.6435,794.5],[-2.2141,39.6374,794.5],[-2.2056,39.6348,794.5],[-2.2051,39.6318,794.5],[-2.2035,39.6321,794.5],[-2.2035,39.634,794.5],[-2.2007,39.6338,794.5],[-2.1982,39.6259,794.5],[-2.1995,39.6237,794.5],[-2.1973,39.6225,794.5],[-2.2104,39.6138,833.391],[-2.2103,39.6125,846.275],[-2.2058,39.6096,801.1225],[-2.1714,39.6032,794.5],[-2.1736,39.5956,823.5609],[-2.1832,39.5868,847.7869],[-2.1784,39.5863,847.9137],[-2.179,39.582,847.4954],[-2.1768,39.5784,845.5763],[-2.1643,39.5745,843.7064],[-2.1437,39.5797,833.5654],[-2.1359,39.5846,819.3256],[-2.1284,39.5841,794.5],[-2.1248,39.5854,794.5],[-2.123,39.5815,794.5],[-2.1685,39.5591,895.1216],[-2.169,39.5563,895.2355],[-2.1804,39.5524,874.5302],[-2.187,39.5362,879.034],[-2.1957,39.5351,872.4577],[-2.1982,39.5368,865.9734],[-2.1989,39.5328,880.4604],[-2.2054,39.5267,893.2523],[-2.2133,39.5063,885.4812],[-2.2176,39.5009,884.9564],[-2.2233,39.4989,885.6271],[-2.2309,39.4912,878.493],[-2.2298,39.4768,877.2529],[-2.2232,39.4748,877.4453],[-2.236,39.4666,878.0376],[-2.242,39.4542,881.6927],[-2.2408,39.4469,855.8065],[-2.2443,39.4342,865.3526],[-2.2438,39.4294,874.4554],[-2.2541,39.4081,751.0605],[-2.2483,39.3956,801.9998],[-2.2483,39.3921,814.8457],[-2.2315,39.3815,843.5119],[-2.2273,39.384,817.8505],[-2.2043,39.3753,815.7649],[-2.1947,39.3748,762.3486],[-2.1908,39.3722,750.0858],[-2.19,39.367,748.5584],[-2.1845,39.3569,748.1835],[-2.1768,39.3561,736.5829],[-2.1786,39.3468,733.9588],[-2.1691,39.3293,747.3866],[-2.1546,39.3319,735.9969],[-2.1384,39.322,754.8053],[-2.1496,39.2994,749.6614],[-2.1484,39.2936,746.3336],[-2.1521,39.2758,744.8431],[-2.1214,39.2746,740.0055],[-2.0749,39.2661,727.087],[-2.0509,39.2667,663.0407],[-2.0587,39.2724,663.082],[-2.0575,39.2776,663.3154],[-2.0594,39.2855,667.2661],[-2.065,39.2864,675.1791],[-2.0674,39.2892,668.26],[-2.0668,39.2981,667.9592],[-2.0698,39.2989,666.659],[-2.071,39.3023,668.7914],[-2.077,39.3077,667.6],[-2.0771,39.3127,668.7033],[-2.0732,39.3168,668.8512],[-2.0736,39.3211,670.6509],[-2.0773,39.3259,670.5554],[-2.0782,39.3321,676.4722],[-2.0824,39.3335,672.7504],[-2.0878,39.3394,680.1617],[-2.0884,39.344,679.4712],[-2.0862,39.3472,678.5656],[-2.0912,39.3493,677.6572],[-2.0905,39.3516,679.6143],[-2.0962,39.3589,679.9562],[-2.0811,39.3586,745.4692],[-2.0666,39.3555,758.7169],[-2.0545,39.3565,761.9088],[-2.0443,39.3592,759.0623],[-2.0203,39.3519,758.975]]]]}
,"properties": {"GID_3": "ESP.4.3.6_1","GID_0": "ESP","country": "Spain","GID_1": "ESP.4_1","province": "Castilla-LaMancha","NL_NAME_1": "NA","GID_2": "ESP.4.3_1","county": "Cuenca","NL_NAME_2": "NA","city": "n.a.(98)","VARNAME_3": "NA","NL_NAME_3": "NA","TYPE_3": "Comarca","ENGTYPE_3": "Comarca","CC_3": "NA","HASC_3": "NA","name": "n.a.(98).city","area_km2": 2139.385,"hist_schema_id": "Elevation0-9000","hist_area_km2": {"475": 0.082,"500": 1.064,"525": 1.294,"550": 2.947,"575": 5.058,"600": 7.219,"625": 8.659,"650": 16.502,"675": 29.843,"700": 51.738,"725": 164.391,"750": 354.398,"775": 257.584,"800": 290.028,"825": 243.272,"850": 195.691,"875": 169.889,"900": 108.804,"925": 83.56,"950": 52.824,"975": 45.09,"1000": 34.492,"1025": 13.175,"1050": 1.78}}}