{"type": "Feature","id": "5818","bbox": [-3.17007,39.22673,-1.14548,40.65979],"geometry": {"type": "Polygon","coordinates": [[[-1.98283,40.58721,1484.7339],[-1.99355,40.58751,1450.4229],[-2.0311,40.5994,1426.6886],[-2.08571,40.64114,1386.1758],[-2.14571,40.65979,1361.5312],[-2.15705,40.65876,1366.6229],[-2.16416,40.64092,1375.1411],[-2.16939,40.63375,1358.5205],[-2.17727,40.62858,1342.3142],[-2.19467,40.62381,1299.8181],[-2.21191,40.62345,1246.4386],[-2.24607,40.63237,1230.9089],[-2.27421,40.64619,1216.021],[-2.28704,40.6442,1294.0083],[-2.29143,40.63331,1220.2178],[-2.29036,40.60632,1156.4021],[-2.29288,40.5948,1194.3307],[-2.29952,40.58465,1232.7808],[-2.30903,40.57687,1226.7773],[-2.32018,40.57236,969.2869],[-2.33092,40.57329,1095.9219],[-2.367,40.60031,1062.3401],[-2.38899,40.61081,1126.7753],[-2.40037,40.61079,1127.0178],[-2.40784,40.60637,1095.6843],[-2.41358,40.59849,1136.3661],[-2.41664,40.58907,1135.1045],[-2.41611,40.58005,1132.1307],[-2.39009,40.55023,931.9945],[-2.38758,40.53924,922.6932],[-2.39151,40.53106,833.4966],[-2.39786,40.52869,859.7664],[-2.43208,40.53562,1137.4545],[-2.488,40.51302,820.649],[-2.49438,40.5136,804.8301],[-2.50048,40.5162,807.7205],[-2.52777,40.54409,1059.1406],[-2.54137,40.54046,954.3759],[-2.54536,40.53725,932.5062],[-2.54878,40.52667,824.2411],[-2.54447,40.5164,793.5646],[-2.52869,40.49886,741.7665],[-2.52925,40.49415,801.6691],[-2.53506,40.47656,743.8395],[-2.53498,40.46979,737.7823],[-2.52751,40.4619,754.1713],[-2.50814,40.45114,776.6736],[-2.50191,40.44306,770.4319],[-2.50072,40.43733,753.8022],[-2.50098,40.43086,751.1313],[-2.50306,40.42492,717.4945],[-2.50738,40.42079,704.8104],[-2.5128,40.41972,702.7669],[-2.5753,40.44793,694.0],[-2.60191,40.45336,721.906],[-2.62688,40.45306,723.802],[-2.67951,40.43323,694.0],[-2.72291,40.39727,694.0],[-2.76994,40.42131,1027.6309],[-2.80769,40.40687,638.0],[-2.81538,40.32539,747.8737],[-2.80101,40.26653,1085.0869],[-2.81629,40.20988,915.6028],[-2.82374,40.20408,1055.7329],[-2.86618,40.19792,883.817],[-2.87385,40.19261,907.8042],[-2.88518,40.17274,876.6601],[-2.89232,40.1647,839.5703],[-2.90148,40.15932,902.5933],[-2.91277,40.15757,817.907],[-2.94701,40.16976,733.1981],[-2.99813,40.20921,565.6806],[-3.01977,40.19308,564.7852],[-3.01428,40.15534,632.1495],[-3.06368,40.16838,558.2048],[-3.07275,40.1576,560.0137],[-3.0804,40.15918,554.1289],[-3.08412,40.15858,556.827],[-3.08696,40.15471,574.5757],[-3.08567,40.14566,588.4702],[-3.08185,40.13879,585.9543],[-3.07955,40.13094,586.7128],[-3.07609,40.12411,597.1926],[-3.07182,40.11755,601.7139],[-3.06567,40.11192,617.3716],[-3.06224,40.10533,628.9298],[-3.06304,40.09812,639.3135],[-3.0687,40.09055,656.3484],[-3.07867,40.08231,673.3222],[-3.09376,40.07264,678.3815],[-3.11345,40.06802,677.0718],[-3.16355,40.06619,651.0001],[-3.17007,40.04827,683.9272],[-3.14262,39.98513,789.2263],[-3.09664,39.98684,807.5861],[-3.09697,39.93333,775.0348],[-3.1251,39.87807,749.335],[-3.09628,39.86915,753.2509],[-3.05955,39.83756,735.286],[-3.0407,39.78746,757.4585],[-3.0153,39.76448,762.8674],[-2.9995,39.72192,713.7195],[-2.90824,39.64231,807.5471],[-2.92539,39.60182,817.6257],[-2.93122,39.47141,676.5914],[-2.90722,39.43022,677.4019],[-2.86981,39.39043,663.9993],[-2.89656,39.36674,671.125],[-2.8825,39.35097,669.9877],[-2.83068,39.35508,666.3349],[-2.78915,39.39764,676.9893],[-2.74213,39.31802,678.4364],[-2.66218,39.32179,685.7998],[-2.61929,39.33997,691.0424],[-2.56779,39.32694,709.3],[-2.52936,39.32762,706.3896],[-2.51118,39.34203,705.4917],[-2.37393,39.23291,714.1708],[-2.34921,39.27889,721.2385],[-2.32107,39.2837,728.3543],[-2.28882,39.22673,714.4214],[-2.16836,39.28095,735.9371],[-2.04895,39.26677,668.3617],[-2.09066,39.35948,685.3639],[-2.02081,39.35199,758.975],[-2.02905,39.33793,746.4728],[-1.98991,39.29365,735.449],[-1.88697,39.30464,735.5037],[-1.8451,39.2861,711.2776],[-1.76996,39.28061,716.6411],[-1.73941,39.32111,750.4526],[-1.50101,39.42204,539.0718],[-1.50102,39.42204,539.0718],[-1.5068,39.43041,493.8557],[-1.51091,39.43268,503.8441],[-1.51502,39.43674,553.9972],[-1.51745,39.44108,523.439],[-1.51827,39.44602,538.218],[-1.5182,39.45183,562.7082],[-1.51269,39.45894,524.5713],[-1.50644,39.47604,609.7758],[-1.50747,39.48679,555.8224],[-1.50543,39.49103,615.4041],[-1.50132,39.49371,565.7753],[-1.49835,39.49609,567.3461],[-1.49921,39.49831,553.6822],[-1.49988,39.49929,543.1105],[-1.50117,39.50017,561.7177],[-1.50324,39.50397,544.2598],[-1.50262,39.51299,562.005],[-1.50331,39.51795,620.3721],[-1.50339,39.52296,562.5073],[-1.50215,39.52736,579.4073],[-1.49988,39.53314,593.5286],[-1.49983,39.5349,592.9194],[-1.4999,39.53567,643.1627],[-1.50145,39.53911,638.5916],[-1.50357,39.54268,597.5129],[-1.50448,39.54555,651.7435],[-1.50432,39.54924,651.4862],[-1.50316,39.55293,644.0],[-1.49812,39.56348,652.1249],[-1.49443,39.56728,764.998],[-1.4853,39.57092,840.613],[-1.47479,39.57849,771.4503],[-1.46319,39.59025,890.6531],[-1.42753,39.64523,891.7886],[-1.42148,39.65138,924.3107],[-1.39895,39.66895,1034.5139],[-1.38097,39.68058,1027.6542],[-1.37203,39.68357,996.8884],[-1.36306,39.68435,972.7682],[-1.35399,39.68362,958.303],[-1.33704,39.67745,926.1459],[-1.32909,39.67365,898.5157],[-1.32035,39.67138,882.5214],[-1.30175,39.67102,876.0705],[-1.29219,39.67267,886.2288],[-1.28377,39.67621,871.5959],[-1.27591,39.68063,850.831],[-1.26994,39.68678,852.0137],[-1.2655,39.6938,860.0636],[-1.26555,39.70344,892.1653],[-1.26974,39.71882,909.4529],[-1.27056,39.72595,917.9757],[-1.2701,39.73424,940.5187],[-1.26705,39.74347,881.4053],[-1.24387,39.77548,823.9204],[-1.23268,39.787,872.5376],[-1.22558,39.79631,899.0137],[-1.2178,39.81191,1058.422],[-1.20287,39.8633,891.1843],[-1.20033,39.87956,1026.9799],[-1.1994,39.89483,972.4764],[-1.19669,39.91059,784.9661],[-1.19685,39.91818,623.5293],[-1.19902,39.92408,685.7281],[-1.20514,39.93348,657.6217],[-1.20661,39.93857,680.5913],[-1.2038,39.94433,834.3832],[-1.19623,39.95064,930.207],[-1.15793,39.96389,874.7036],[-1.14548,39.97229,777.6302],[-1.16271,40.01146,1479.9963],[-1.18054,40.0089,1477.5878],[-1.18711,40.00619,1431.2422],[-1.20579,40.00335,1279.2866],[-1.22354,40.00231,1232.5261],[-1.23323,40.00071,1133.0806],[-1.23493,39.99994,1102.8287],[-1.24297,39.99738,1000.8107],[-1.25891,39.99813,995.8987],[-1.28591,40.00619,906.2366],[-1.34934,40.01441,1145.8152],[-1.35978,40.0141,1128.6572],[-1.36955,40.01634,1232.4137],[-1.37831,40.02213,1263.8177],[-1.40663,40.08546,1213.0336],[-1.41017,40.09791,1398.2231],[-1.41293,40.10479,1314.9421],[-1.41688,40.10954,1395.4731],[-1.44094,40.12045,1490.9265],[-1.44779,40.12574,1491.551],[-1.45233,40.13068,1494.8794],[-1.44854,40.1498,1482.801],[-1.44298,40.15918,1497.0568],[-1.43812,40.17163,1504.9988],[-1.43732,40.17881,1507.5609],[-1.43781,40.18602,1410.5818],[-1.43939,40.19238,1413.2672],[-1.44438,40.19672,1419.4219],[-1.4698,40.19297,1584.4316],[-1.48112,40.19406,1575.9373],[-1.49528,40.19843,1557.8889],[-1.50944,40.20116,1367.4801],[-1.5199,40.20116,1359.1416],[-1.53347,40.19522,1363.9723],[-1.54171,40.19791,1320.3054],[-1.55509,40.2054,1398.3674],[-1.6601,40.28302,1684.9839],[-1.68524,40.29333,1636.7692],[-1.69999,40.29475,1668.3728],[-1.70899,40.291,1690.8376],[-1.71356,40.28767,1625.7549],[-1.71904,40.28976,1543.1058],[-1.72064,40.30235,1555.4041],[-1.71604,40.3102,1587.2595],[-1.71534,40.32142,1740.2301],[-1.72064,40.33537,1613.6697],[-1.76213,40.37829,1538.4192],[-1.77929,40.39216,1529.8516],[-1.80825,40.40203,1497.637],[-1.80826,40.40203,1497.637],[-1.85643,40.42885,1456.6968],[-1.8916,40.53299,1327.0203],[-1.9299,40.59265,1156.9103],[-1.94097,40.59891,1154.1124],[-1.95546,40.59907,1148.6036],[-1.98283,40.58721,1484.7339]]]}
,"properties": {"ISO3166-1-Alpha-3": "ESP","country": "Spain","fill": "#FF0","name": "Cuenca","area_km2": 17145.98,"hist_schema_id": "Elevation0-9000","hist_area_km2": {"500": 1.18,"525": 1.54,"550": 4.77,"575": 12.23,"600": 20.61,"625": 27.27,"650": 67.25,"675": 271.11,"700": 548.35,"725": 810.57,"750": 928.68,"775": 924.16,"800": 1135.37,"825": 1125.99,"850": 1108.23,"875": 993.17,"900": 867.18,"925": 783.33,"950": 730.77,"975": 747.07,"1000": 718.95,"1025": 669.85,"1050": 549.01,"1075": 450.89,"1100": 353.91,"1125": 289.87,"1150": 230.03,"1175": 200.77,"1200": 195.16,"1225": 199.81,"1250": 199.82,"1275": 199.94,"1300": 198.61,"1325": 192.47,"1350": 191.95,"1375": 177.08,"1400": 153.75,"1425": 133.12,"1450": 126.79,"1475": 109.19,"1500": 100.77,"1525": 80.78,"1550": 62.75,"1575": 55.77,"1600": 52.34,"1625": 40.3,"1650": 32.63,"1675": 25.52,"1700": 19.08,"1725": 11.87,"1750": 6.94,"1775": 4.14,"1800": 2.59,"1825": 0.57}}}