{"type": "Feature","id": 139752.0,"bbox": [-2.2741593089787671,39.585211492962827,-2.1103409496037671,39.717718817181577],"geometry": {"type": "Polygon","coordinates": [[[-2.2635391917912671,39.717718817181577,804.7896],[-2.2635391917912671,39.717718817181577,804.7896],[-2.2741593089787671,39.717413641400327,794.5],[-2.2595719066350171,39.698614813275327,794.5],[-2.2477310863225171,39.679693914837827,794.5],[-2.2346085277287671,39.667242742962827,794.5],[-2.2224625316350171,39.656012274212827,794.5],[-2.2090958324162671,39.637213446087827,794.5],[-2.1978653636662671,39.620489813275327,794.5],[-2.1899307933537671,39.617438055462827,794.5],[-2.1811417308537671,39.614386297650327,794.5],[-2.1738175121037671,39.605231024212827,794.5],[-2.1599014964787671,39.603399969525327,794.5],[-2.1422013011662671,39.591986395306577,813.8949],[-2.1215714183537671,39.585211492962827,794.5],[-2.1103409496037671,39.590277410931577,832.45],[-2.1224869456975171,39.604803778119077,842.226],[-2.1395157542912671,39.620917059369077,828.3824],[-2.1476944652287671,39.626105047650327,842.3134],[-2.1607559886662671,39.623358465619077,827.353],[-2.1674698558537671,39.630926824994077,794.5],[-2.1768692699162671,39.637945867962827,828.791],[-2.1987808910100171,39.651617742962827,844.0396],[-2.2115372386662671,39.668890692181577,866.0609],[-2.2307022777287671,39.695685125775327,794.5],[-2.2635391917912671,39.717718817181577,804.7896]]]}
,"properties": {"name": null,"lge_id": null,"pfafstette": 9535.0,"lke_type": "N","altitude": 804,"objectid": 87151,"scalerank": 12,"featurecla": "Lake","note": "_untitled_87151","funkyname": 0,"min_zoom": 7.0,"min_label": 8.0,"area_km2": 38.00792,"hist_schema_id": "Elevation0-9000","hist_area_km2": {"800": 25.23782,"825": 9.99454,"850": 2.53076,"875": 0.2448}}}