{"type":"Feature","properties":{"featurecla":"River","scalerank":7,"rivernum":562,"dissolve":"562River","name":"Zncara","name_alt":null,"note":null,"min_zoom":6.0,"strokeweig":0.15,"name_en":"Zncara","min_label":7.0},
"geometry":{"type": "LineString","coordinates": [[-2.3857421875,40.040057684369117,1024.3309],[-2.4265624999999891,40.032098699994116,963.3406],[-2.4625976562499829,40.015887762494117,903.2803],[-2.4883789062499768,39.975604559369117,942.7911],[-2.5022949218749768,39.96198151249412,876.6068],[-2.5132324218749891,39.923358465619117,871.0217],[-2.5260253906249939,39.91364166874412,848.5689],[-2.5419189453124891,39.90778229374412,870.2679],[-2.556396484375,39.89899323124412,852.2697],[-2.5647949218749768,39.885760809369117,870.9],[-2.5685302734374891,39.86933014530662,841.6873],[-2.5693847656249891,39.827655340619117,822.3679],[-2.5770996093749829,39.816913153119117,797.5706],[-2.6130859374999891,39.78388092655662,793.1927],[-2.6246093749999768,39.769305731244117,796.9139],[-2.6282714843749768,39.752215887494117,807.7972],[-2.6204101562499891,39.72028229374412,805.1394],[-2.6177734374999768,39.69733307499412,775.3139]]}}