{"type": "Feature","bbox": [-5.0468,38.3428,-2.6378,39.5768],"geometry": {"type": "MultiPolygon","coordinates": [[[[-4.2897,38.3474,507.9267],[-4.2872,38.3428,503.544],[-4.2788,38.3477,502.6947],[-4.276,38.3479,495.8063],[-4.2763,38.3509,527.3848],[-4.2739,38.3503,497.7083],[-4.2714,38.3465,492.758],[-4.2688,38.3472,500.989],[-4.2703,38.3556,520.4695],[-4.2719,38.3562,504.4133],[-4.2703,38.358,514.7014],[-4.2721,38.3654,530.9652],[-4.2742,38.3667,529.248],[-4.2744,38.3722,543.3638],[-4.2762,38.3729,549.1188],[-4.2785,38.3775,559.007],[-4.2761,38.3836,565.44],[-4.2764,38.3909,586.1389],[-4.2724,38.3923,655.0773],[-4.2675,38.3984,731.7596],[-4.2554,38.4018,788.6332],[-4.2473,38.3984,796.1029],[-4.2231,38.3974,1189.6393],[-4.1884,38.3899,1117.8574],[-4.1754,38.3846,1121.4161],[-4.156,38.3814,1030.1912],[-4.1448,38.3865,683.5114],[-4.1339,38.3845,639.9899],[-4.1284,38.3795,841.1086],[-4.1129,38.3797,907.9368],[-4.1118,38.3823,837.506],[-4.0926,38.3803,839.8969],[-4.0865,38.3768,777.3905],[-4.0779,38.3772,853.52],[-4.07,38.3797,859.8072],[-4.0581,38.3789,841.7227],[-4.0556,38.3774,877.8712],[-4.0283,38.3753,838.1183],[-4.0137,38.3717,901.4699],[-4.0063,38.3681,810.3181],[-3.9894,38.3699,858.5542],[-3.9618,38.3661,665.2657],[-3.9501,38.369,372.7626],[-3.9443,38.3672,391.5986],[-3.9124,38.3691,806.558],[-3.9059,38.3717,922.0872],[-3.8963,38.3717,940.0566],[-3.8747,38.377,943.6071],[-3.864,38.3764,939.4042],[-3.8607,38.3755,899.7861],[-3.8598,38.3734,931.754],[-3.8542,38.3752,825.588],[-3.838,38.3858,840.394],[-3.8305,38.3929,924.1624],[-3.8324,38.3997,950.7493],[-3.8299,38.4128,1040.1975],[-3.8242,38.4163,1013.0551],[-3.818,38.4157,978.5109],[-3.8166,38.419,990.9377],[-3.8077,38.4218,1059.907],[-3.8011,38.42,1078.7267],[-3.7855,38.4253,967.748],[-3.7648,38.4244,963.6623],[-3.7396,38.414,989.5993],[-3.7299,38.4244,936.2672],[-3.6992,38.4129,618.8215],[-3.6516,38.405,677.4532],[-3.6204,38.394,1193.1035],[-3.6017,38.3988,1244.0051],[-3.5981,38.3985,1219.1584],[-3.5857,38.4056,1186.23],[-3.5862,38.4334,978.1765],[-3.583,38.4515,1022.6181],[-3.578,38.4504,1006.3956],[-3.5672,38.4521,987.6417],[-3.5525,38.4466,923.9608],[-3.5424,38.4457,887.3569],[-3.5351,38.4394,799.6616],[-3.532,38.4311,727.7042],[-3.5326,38.4263,729.2605],[-3.5349,38.4233,746.8098],[-3.5332,38.4151,892.255],[-3.528,38.411,975.8826],[-3.5283,38.4087,1011.6025],[-3.5058,38.408,886.6202],[-3.4961,38.4038,742.8864],[-3.4854,38.4041,797.1017],[-3.4775,38.4015,829.6313],[-3.4725,38.398,909.0665],[-3.4531,38.4002,1042.6615],[-3.4422,38.4044,1066.7913],[-3.4385,38.4044,1070.9832],[-3.4331,38.4081,1124.3599],[-3.4247,38.4068,1133.7782],[-3.4229,38.4109,1088.0616],[-3.4094,38.4241,731.5106],[-3.4018,38.424,710.0334],[-3.3894,38.4334,715.0317],[-3.3766,38.4396,761.8912],[-3.3753,38.4418,757.1281],[-3.3802,38.4455,729.7021],[-3.3803,38.4506,731.6457],[-3.3777,38.465,745.2838],[-3.3748,38.4697,745.4364],[-3.3749,38.4753,763.5498],[-3.3264,38.4821,1019.9619],[-3.3207,38.48,999.8891],[-3.3052,38.4793,868.5159],[-3.2967,38.4706,835.4324],[-3.2889,38.4704,805.1603],[-3.2851,38.4646,792.8945],[-3.2799,38.4604,699.2643],[-3.2624,38.4594,616.4111],[-3.2575,38.4574,671.1674],[-3.246,38.4577,781.2714],[-3.2194,38.4529,892.5995],[-3.1799,38.45,615.7336],[-3.1498,38.4401,846.2945],[-3.1301,38.4388,826.6526],[-3.118,38.4487,837.7769],[-3.0649,38.4783,835.2957],[-3.0053,38.4149,740.2928],[-3.0024,38.4083,725.6952],[-3.001,38.4094,722.7294],[-3.0012,38.4142,726.1623],[-2.9967,38.4181,736.3716],[-2.9966,38.4211,731.603],[-2.9921,38.429,760.2359],[-2.9944,38.4322,748.8716],[-2.9934,38.4367,756.1536],[-2.9962,38.4436,758.2549],[-2.9934,38.4501,788.9486],[-2.9768,38.4549,854.5601],[-2.9687,38.4622,823.1628],[-2.9669,38.4685,864.0066],[-2.9635,38.4715,854.7091],[-2.9565,38.4686,778.6179],[-2.9479,38.47,833.1258],[-2.9383,38.4748,849.657],[-2.9328,38.4715,850.7953],[-2.9111,38.4681,837.1018],[-2.9095,38.4701,854.0464],[-2.9057,38.4699,840.5335],[-2.9016,38.4645,785.016],[-2.8964,38.4624,782.5693],[-2.8897,38.4559,778.2594],[-2.8814,38.4527,599.2248],[-2.8847,38.4566,624.5007],[-2.8841,38.4585,616.9995],[-2.8777,38.4571,606.5634],[-2.8801,38.4627,634.4297],[-2.8693,38.4658,599.685],[-2.8689,38.47,602.1791],[-2.8645,38.4717,601.3978],[-2.8606,38.4702,618.7685],[-2.8608,38.4752,614.7532],[-2.8512,38.4743,614.2512],[-2.8546,38.4785,641.4609],[-2.8498,38.4805,618.8115],[-2.8439,38.4809,617.5931],[-2.84,38.4773,634.2266],[-2.8406,38.481,632.7076],[-2.8393,38.4841,622.3977],[-2.8375,38.4844,631.203],[-2.834,38.4773,622.3957],[-2.831,38.4765,646.5747],[-2.8298,38.4781,680.1407],[-2.8323,38.4861,641.1106],[-2.8301,38.4876,632.6534],[-2.8232,38.485,651.462],[-2.8251,38.4874,630.9809],[-2.817,38.494,643.5497],[-2.8125,38.4917,647.7497],[-2.8138,38.4959,638.5006],[-2.81,38.4952,650.4901],[-2.8065,38.5031,649.7985],[-2.8003,38.4997,649.1762],[-2.8016,38.5039,661.7064],[-2.7992,38.5046,655.758],[-2.7959,38.5015,652.7679],[-2.7914,38.5038,650.5406],[-2.7937,38.5078,667.1817],[-2.7875,38.5096,655.8495],[-2.7856,38.5121,663.9067],[-2.7869,38.5157,671.7464],[-2.7836,38.5144,670.4157],[-2.7805,38.5094,660.7386],[-2.7788,38.5107,665.8599],[-2.7799,38.5161,669.4374],[-2.7764,38.5168,671.6149],[-2.775,38.5194,682.813],[-2.7703,38.5203,671.4304],[-2.7737,38.5283,670.4928],[-2.7666,38.531,684.54],[-2.7676,38.5329,694.7731],[-2.762,38.5328,729.6547],[-2.7638,38.5357,692.7759],[-2.7585,38.5354,686.1151],[-2.7551,38.5376,736.2937],[-2.752,38.5436,687.4536],[-2.7489,38.5435,690.9963],[-2.7467,38.5468,687.0738],[-2.7522,38.5505,730.204],[-2.7518,38.5524,744.5345],[-2.7565,38.5549,719.1459],[-2.7569,38.5593,771.7068],[-2.7589,38.5593,731.2008],[-2.7603,38.5614,745.1295],[-2.7605,38.5684,780.7251],[-2.7654,38.5739,821.7622],[-2.7594,38.5791,745.7275],[-2.7543,38.5927,759.5897],[-2.7546,38.6006,775.4257],[-2.75,38.6156,788.8677],[-2.7572,38.6203,816.4572],[-2.7636,38.6279,837.6598],[-2.7454,38.6245,828.3722],[-2.7372,38.6176,1029.5903],[-2.7285,38.6163,1040.5989],[-2.7175,38.6222,1032.6455],[-2.7175,38.6252,1045.2241],[-2.7062,38.6265,1078.9661],[-2.6997,38.6254,1016.3154],[-2.6975,38.6284,943.7781],[-2.6868,38.6355,927.5129],[-2.6824,38.6442,1107.658],[-2.6748,38.6482,1039.1173],[-2.6688,38.6493,1028.6522],[-2.6604,38.6669,977.9756],[-2.6555,38.6715,853.1111],[-2.6546,38.6808,887.2401],[-2.6489,38.693,927.0388],[-2.6496,38.6998,955.6255],[-2.6467,38.7155,993.6361],[-2.6423,38.7201,1008.377],[-2.6378,38.7347,1013.4483],[-2.6434,38.7464,1006.012],[-2.6629,38.7536,996.1709],[-2.666,38.7589,996.4785],[-2.6745,38.7616,990.9109],[-2.6846,38.7744,987.6554],[-2.6973,38.7834,997.1644],[-2.7115,38.786,976.2373],[-2.7322,38.7819,965.8735],[-2.7344,38.7953,976.3477],[-2.7502,38.8071,965.9224],[-2.7526,38.8148,955.8159],[-2.7523,38.8232,957.6137],[-2.7492,38.8316,954.6697],[-2.7511,38.8484,962.9302],[-2.7549,38.8581,953.1475],[-2.7563,38.8678,953.2113],[-2.7612,38.8687,926.5916],[-2.7618,38.8804,900.1187],[-2.7721,38.8851,902.9175],[-2.7841,38.8878,895.178],[-2.7906,38.8916,885.3234],[-2.7929,38.8978,871.2423],[-2.7924,38.9056,875.689],[-2.7981,38.9058,865.9829],[-2.7992,38.9081,863.6588],[-2.8031,38.9082,864.9123],[-2.8357,38.906,919.3329],[-2.8399,38.9084,911.0901],[-2.8421,38.9148,905.26],[-2.8477,38.9206,897.4659],[-2.8576,38.9274,889.2282],[-2.867,38.9288,857.262],[-2.8761,38.9255,896.5861],[-2.8796,38.9364,907.4554],[-2.8828,38.9385,906.595],[-2.8801,38.9532,855.0891],[-2.8725,38.96,785.1006],[-2.8707,38.9657,841.6122],[-2.8654,38.9666,870.3097],[-2.8586,38.9751,880.5507],[-2.8439,38.9875,889.8524],[-2.8381,39.0038,919.8397],[-2.8374,39.0139,959.2399],[-2.8322,39.0233,951.6152],[-2.8211,39.0232,971.315],[-2.8167,39.0253,984.0524],[-2.8098,39.0239,960.6956],[-2.8068,39.0434,880.7753],[-2.8092,39.0543,864.0815],[-2.8059,39.0699,850.0959],[-2.8076,39.0717,843.2768],[-2.8049,39.079,831.6005],[-2.8156,39.0941,785.2377],[-2.8224,39.0927,792.8327],[-2.8311,39.1053,771.735],[-2.8341,39.1123,764.7012],[-2.8335,39.1209,750.1229],[-2.8426,39.1345,724.0084],[-2.8228,39.1535,719.2788],[-2.8077,39.177,709.5037],[-2.7823,39.1959,705.1862],[-2.7731,39.2094,700.5999],[-2.7711,39.2154,699.9887],[-2.7597,39.2304,696.9762],[-2.7303,39.255,693.514],[-2.7231,39.2648,686.3286],[-2.722,39.2687,685.1237],[-2.7233,39.2777,681.8888],[-2.7267,39.2864,683.0419],[-2.7343,39.293,687.6154],[-2.7367,39.2976,685.4352],[-2.7391,39.3085,676.4196],[-2.7436,39.316,683.8777],[-2.7422,39.3182,678.4364],[-2.7465,39.3224,679.3958],[-2.7562,39.3382,675.9565],[-2.7625,39.3585,676.7041],[-2.772,39.3696,679.6351],[-2.7763,39.3863,674.0793],[-2.7759,39.3948,677.6367],[-2.793,39.3978,676.6589],[-2.7941,39.3943,676.0478],[-2.7981,39.3928,675.0336],[-2.8018,39.3887,673.8841],[-2.8087,39.3874,673.348],[-2.8101,39.3829,672.2995],[-2.813,39.3824,672.5816],[-2.8132,39.3755,671.194],[-2.8167,39.3684,668.8331],[-2.8281,39.3569,666.6064],[-2.8456,39.3493,669.3241],[-2.8532,39.3502,665.3833],[-2.8608,39.3472,666.5518],[-2.8599,39.3486,666.5518],[-2.8646,39.3569,672.4958],[-2.8823,39.3509,669.9877],[-2.8827,39.3525,668.5433],[-2.8862,39.3533,668.528],[-2.8887,39.3574,671.8892],[-2.893,39.3587,670.7855],[-2.8965,39.3668,671.125],[-2.8873,39.3785,673.8909],[-2.8864,39.3843,672.7072],[-2.8845,39.3854,671.8801],[-2.8705,39.3844,674.0355],[-2.8701,39.3911,663.9993],[-2.874,39.3948,664.7243],[-2.8773,39.3954,663.5883],[-2.8794,39.3996,671.4901],[-2.8858,39.4056,677.4426],[-2.8896,39.4219,683.458],[-2.8932,39.4214,685.3098],[-2.9,39.425,681.4098],[-2.8973,39.4301,686.4353],[-2.9026,39.4297,684.5451],[-2.9018,39.4325,684.6007],[-2.9042,39.4342,683.5434],[-2.9038,39.4284,681.9962],[-2.9013,39.4272,683.2659],[-2.9034,39.4262,680.5277],[-2.9124,39.4377,683.0131],[-2.9142,39.447,685.8558],[-2.9213,39.4503,682.7115],[-2.9219,39.452,684.887],[-2.9253,39.4524,680.1558],[-2.9269,39.4507,678.6252],[-2.9263,39.4542,681.6034],[-2.9317,39.4528,678.8395],[-2.9321,39.4554,675.0423],[-2.9292,39.4575,684.6421],[-2.931,39.4628,673.5903],[-2.9276,39.4708,675.4067],[-2.9293,39.4697,673.847],[-2.9313,39.4715,675.1328],[-2.9552,39.4549,670.0264],[-2.9567,39.4472,679.621],[-2.966,39.448,668.5068],[-2.9776,39.4447,659.1089],[-2.9947,39.4514,667.2311],[-3.0,39.4489,666.0629],[-2.9995,39.4417,662.7125],[-3.0148,39.4451,665.1182],[-3.0225,39.457,665.9215],[-3.0497,39.4507,691.0442],[-3.0695,39.4503,717.2711],[-3.0757,39.4581,714.2847],[-3.1001,39.4754,697.1316],[-3.1101,39.476,702.522],[-3.1433,39.4956,678.4013],[-3.1572,39.4961,678.9521],[-3.1844,39.488,673.8836],[-3.1851,39.4742,690.1663],[-3.21,39.4763,679.3716],[-3.2557,39.4709,664.8428],[-3.2941,39.4709,644.9775],[-3.2972,39.4601,644.0176],[-3.3022,39.4546,643.5553],[-3.3033,39.4502,643.3307],[-3.3141,39.4386,640.7238],[-3.3157,39.4337,640.6366],[-3.3144,39.4313,640.0741],[-3.3163,39.4289,639.549],[-3.3154,39.4247,638.4337],[-3.3117,39.4193,637.8533],[-3.309,39.4103,637.2191],[-3.3113,39.4043,636.4792],[-3.309,39.3992,637.1873],[-3.3305,39.4054,635.6571],[-3.3495,39.4083,638.94],[-3.4102,39.4046,661.3713],[-3.4123,39.4013,660.609],[-3.4199,39.3993,665.972],[-3.4269,39.3944,666.8827],[-3.4478,39.387,666.4672],[-3.4704,39.3722,673.4451],[-3.4768,39.3432,681.1225],[-3.4857,39.3412,685.4978],[-3.4928,39.3346,687.4132],[-3.5249,39.315,748.0953],[-3.5313,39.3093,757.2648],[-3.5325,39.3042,787.0039],[-3.5482,39.3021,801.0524],[-3.5561,39.2991,854.4305],[-3.567,39.2994,1059.274],[-3.5737,39.3008,1033.5103],[-3.5773,39.3053,1104.6812],[-3.5865,39.3077,1049.2097],[-3.6078,39.3022,1108.0736],[-3.6116,39.3034,1130.5436],[-3.6227,39.3006,1110.4395],[-3.6238,39.3027,1082.0974],[-3.6388,39.2998,1056.0068],[-3.6574,39.2994,1046.6228],[-3.6751,39.2967,985.7222],[-3.6801,39.2983,965.9495],[-3.6796,39.2921,1015.2826],[-3.6837,39.2903,896.3625],[-3.688,39.2849,833.428],[-3.7012,39.2776,1027.0739],[-3.7224,39.2696,901.172],[-3.73,39.2748,782.2958],[-3.7406,39.2763,745.9197],[-3.7447,39.2828,757.9296],[-3.7568,39.2901,891.2599],[-3.7656,39.2933,1018.6868],[-3.7928,39.2923,1056.7671],[-3.8127,39.2862,1137.2415],[-3.8153,39.2792,1154.5338],[-3.8282,39.269,1027.4772],[-3.8372,39.2669,1003.7471],[-3.8416,39.2596,929.1349],[-3.8572,39.2585,925.4237],[-3.8759,39.2621,705.3008],[-3.9004,39.2795,995.2626],[-3.9145,39.2843,768.1858],[-3.9269,39.2841,705.3729],[-3.9654,39.2982,898.9939],[-3.9668,39.2994,927.8647],[-3.9657,39.301,872.2264],[-3.9584,39.3072,921.9656],[-3.9588,39.3102,896.6733],[-3.9661,39.3165,953.4739],[-3.9654,39.3192,989.6974],[-3.9682,39.3235,977.0708],[-3.9646,39.3309,988.7035],[-3.9684,39.3325,994.3906],[-3.9677,39.3426,947.038],[-3.9719,39.3473,931.0654],[-3.9721,39.3522,1033.5132],[-4.0012,39.3515,1002.2697],[-4.0254,39.3583,980.0017],[-4.0415,39.3579,985.9939],[-4.047,39.3606,921.4612],[-4.0733,39.3654,953.5248],[-4.0805,39.3602,915.1116],[-4.0858,39.3495,1030.1744],[-4.1043,39.3411,890.8583],[-4.1086,39.3487,1042.6541],[-4.1141,39.3479,1052.8157],[-4.1154,39.3565,1031.0597],[-4.1204,39.3626,1039.1108],[-4.1279,39.3655,1050.4932],[-4.1354,39.363,1036.6038],[-4.1407,39.364,1014.8092],[-4.148,39.3628,1062.4607],[-4.1478,39.3666,1043.0308],[-4.1427,39.3725,1026.3926],[-4.1428,39.3765,939.8253],[-4.1324,39.3969,740.1381],[-4.135,39.4004,729.2313],[-4.1278,39.4089,740.8611],[-4.1297,39.4139,746.1294],[-4.1204,39.4355,908.0648],[-4.1203,39.4459,1053.1035],[-4.1162,39.4506,1126.947],[-4.118,39.4569,1230.1976],[-4.1085,39.4602,1229.4279],[-4.1036,39.4592,1187.8857],[-4.0999,39.4554,1143.9675],[-4.0812,39.4517,1227.3877],[-4.0756,39.4525,1226.1285],[-4.068,39.4571,1226.8491],[-4.0642,39.4623,1216.5266],[-4.0645,39.4669,1205.269],[-4.0621,39.4672,1156.2937],[-4.0587,39.4722,1168.3319],[-4.0634,39.4769,1043.2336],[-4.0631,39.4797,1027.1254],[-4.0676,39.4858,960.1536],[-4.065,39.4935,918.1682],[-4.068,39.5018,875.1129],[-4.0597,39.5219,821.7319],[-4.0498,39.5225,818.5488],[-4.042,39.5207,812.7767],[-4.0405,39.5219,812.7767],[-4.03,39.522,804.8516],[-4.0398,39.5592,939.506],[-4.0377,39.5657,1099.4979],[-4.0395,39.5677,1145.8589],[-4.0397,39.5742,1256.0762],[-4.0417,39.5754,1239.7294],[-4.0722,39.5722,1202.9897],[-4.0818,39.5681,1176.3844],[-4.0894,39.5692,1249.2452],[-4.1013,39.5658,1279.1002],[-4.1245,39.5636,1242.9377],[-4.1357,39.5652,1229.2839],[-4.1451,39.5692,1270.9871],[-4.1492,39.5734,1365.9307],[-4.1586,39.5768,1323.6632],[-4.1664,39.5669,985.3922],[-4.1931,39.4954,730.6808],[-4.196,39.4928,729.2783],[-4.2029,39.4906,727.6619],[-4.2044,39.4882,729.5855],[-4.242,39.4779,749.6752],[-4.244,39.4793,755.9714],[-4.2568,39.4808,762.3732],[-4.2734,39.4797,781.2359],[-4.2979,39.4845,821.4898],[-4.3205,39.4834,814.2828],[-4.3276,39.4877,838.9946],[-4.3448,39.4901,834.7079],[-4.3595,39.4955,847.9944],[-4.3771,39.496,842.9491],[-4.3952,39.5022,867.0526],[-4.4043,39.5036,872.0883],[-4.4092,39.5063,886.894],[-4.4211,39.507,891.9448],[-4.4245,39.5093,963.8258],[-4.4229,39.5122,996.5254],[-4.432,39.519,1155.6172],[-4.4435,39.5231,1071.4],[-4.4465,39.5181,1138.0961],[-4.453,39.5173,1105.4474],[-4.4594,39.4925,832.3846],[-4.4625,39.4893,833.803],[-4.4615,39.4786,811.1035],[-4.4802,39.4858,820.9117],[-4.4832,39.4884,847.4369],[-4.4833,39.4925,881.0427],[-4.4851,39.4935,875.2048],[-4.4881,39.5019,782.8669],[-4.4957,39.5078,725.724],[-4.5006,39.5186,832.4653],[-4.5067,39.522,706.6917],[-4.5111,39.5221,688.6785],[-4.5033,39.5279,705.8559],[-4.5016,39.5351,720.9111],[-4.4918,39.5382,849.3635],[-4.4834,39.5356,804.7291],[-4.4821,39.5388,851.998],[-4.4938,39.5449,825.7827],[-4.5043,39.5465,777.6341],[-4.5213,39.5559,787.5551],[-4.5223,39.5614,815.788],[-4.5253,39.5615,799.6443],[-4.527,39.5574,777.098],[-4.5312,39.5557,777.4332],[-4.5283,39.5473,727.3501],[-4.5301,39.5421,701.418],[-4.5347,39.5381,686.6821],[-4.531,39.5316,670.8464],[-4.5424,39.5383,685.8266],[-4.5426,39.544,698.9691],[-4.5609,39.5337,827.4302],[-4.5625,39.5307,884.9301],[-4.56,39.5271,881.8254],[-4.5596,39.5165,898.3256],[-4.5545,39.5108,975.5225],[-4.5575,39.5069,854.256],[-4.5673,39.5024,761.6908],[-4.5678,39.4973,686.2255],[-4.5854,39.4969,858.3393],[-4.5902,39.4998,1049.0319],[-4.6183,39.4847,806.9335],[-4.6139,39.4853,811.3182],[-4.6146,39.4659,815.1821],[-4.6115,39.4602,852.2921],[-4.618,39.4544,840.9579],[-4.6404,39.4498,713.4954],[-4.6596,39.4539,666.2789],[-4.6876,39.4503,679.5923],[-4.6862,39.4415,672.9425],[-4.6817,39.4368,675.6393],[-4.6777,39.4354,674.2637],[-4.6728,39.4267,668.3225],[-4.6694,39.4245,573.4292],[-4.6721,39.4127,540.8171],[-4.6831,39.4007,531.8425],[-4.6877,39.3928,530.4357],[-4.6878,39.3858,498.3077],[-4.693,39.3824,494.6162],[-4.6953,39.3764,625.9098],[-4.6942,39.3736,620.2072],[-4.7041,39.3645,620.9863],[-4.7099,39.3458,600.4423],[-4.7059,39.3306,520.6356],[-4.7066,39.3277,579.2079],[-4.7137,39.3287,582.2457],[-4.7347,39.3267,504.2541],[-4.7609,39.3208,530.4995],[-4.7545,39.3115,630.1184],[-4.7315,39.2549,754.0037],[-4.7336,39.2526,759.4514],[-4.7134,39.2443,691.7032],[-4.7143,39.2422,667.3201],[-4.7108,39.2271,546.4481],[-4.7051,39.2138,507.4032],[-4.7081,39.2099,422.5],[-4.6896,39.204,426.0491],[-4.6872,39.2024,422.5],[-4.6825,39.193,423.0],[-4.6776,39.1918,424.9262],[-4.6723,39.1873,427.1912],[-4.6651,39.1861,425.3788],[-4.6632,39.1842,425.2932],[-4.6632999999999996,39.1793,427.8327],[-4.6492,39.172,435.5603],[-4.6475,39.1687,440.722],[-4.6489,39.1649,504.5593],[-4.6615,39.1662,695.0716],[-4.6752,39.1707,720.4601],[-4.6764,39.1696,729.9618],[-4.7143,39.1876,647.0286],[-4.7424,39.1945,654.2868],[-4.7735,39.1895,692.6182],[-4.8102,39.1994,819.7574],[-4.8091,39.1979,779.5955],[-4.8131,39.191,695.7262],[-4.8211,39.1809,682.2272],[-4.8313,39.1761,676.5975],[-4.8314,39.1642,702.0696],[-4.8386,39.1639,681.8298],[-4.8451,39.1614,612.6625],[-4.8535,39.1517,558.6003],[-4.8549,39.1473,558.9196],[-4.8536,39.141,548.2771],[-4.858,39.1347,535.4398],[-4.856,39.1317,533.2731],[-4.8571,39.1227,526.8151],[-4.8696,39.1135,532.5718],[-4.8743,39.099,524.6536],[-4.8583,39.0769,570.2059],[-4.8357,39.0709,608.4037],[-4.8257,39.0626,646.3044],[-4.8322,39.0515,618.363],[-4.8327,39.0462,723.3513],[-4.8386,39.0448,777.5352],[-4.8424,39.0476,782.5669],[-4.8491,39.0455,758.0378],[-4.8525,39.0388,712.9161],[-4.8609,39.0318,729.6464],[-4.8685,39.034,783.8264],[-4.875,39.032,781.5611],[-4.8822,39.0329,762.4484],[-4.9027,39.041,775.1266],[-4.9145,39.0486,817.4161],[-4.9361,39.0568,656.8403],[-4.9485,39.0563,628.8998],[-4.9624,39.0587,454.4454],[-4.9618,39.0524,462.0471],[-4.9512,39.0307,512.3639],[-4.9452,39.0088,485.6775],[-4.9371,38.9972,544.9173],[-4.9368,38.9857,537.2263],[-4.9336,38.9756,533.5707],[-4.9181,38.9571,537.4548],[-4.9132999999999996,38.9607,554.6295],[-4.905,38.9633,563.6401],[-4.8935,38.96,620.8818],[-4.8903,38.9569,710.4501],[-4.8916,38.9529,841.6348],[-4.8765,38.9478,749.6797],[-4.8728,38.9488,733.7083],[-4.8518,38.9473,752.7647],[-4.8429,38.9451,791.2946],[-4.8437,38.9402,715.9353],[-4.8329,38.9393,573.5359],[-4.831,38.9356,532.3656],[-4.837,38.9297,516.2701],[-4.841,38.9202,454.9799],[-4.8458,38.8997,497.2768],[-4.8425,38.8953,521.9063],[-4.8477,38.8821,746.3939],[-4.8652,38.887,757.9939],[-4.8896,38.8866,738.4586],[-4.8997,38.8891,641.6731],[-4.9148,38.8875,411.4504],[-4.9191,38.8802,400.7231],[-4.9241,38.8768,388.1854],[-4.9279,38.87,428.1198],[-4.9345,38.8649,427.5282],[-4.9434,38.8544,488.0951],[-4.9444,38.8472,440.9728],[-4.9535,38.83,630.509],[-4.9586,38.8104,531.2726],[-4.9576,38.8036,526.1344],[-4.9608,38.7966,523.025],[-4.9607,38.7898,491.7539],[-4.9681,38.776,765.485],[-4.9727,38.7609,513.2044],[-4.9832,38.7515,452.0837],[-4.9899,38.7398,436.9146],[-5.0039,38.733,352.7668],[-5.0096,38.7352,346.0],[-5.0165,38.7355,346.0],[-5.0387,38.7333,400.8137],[-5.0468,38.7291,424.583],[-5.0326,38.7254,436.4064],[-5.0246,38.7265,454.8872],[-5.0171,38.7189,465.5253],[-5.0079,38.7152,492.045],[-5.0019,38.7082,502.43],[-5.0003,38.7012,508.6627],[-5.0008,38.6968,490.9149],[-5.0045,38.6951,480.1661],[-4.9648,38.6856,417.84],[-4.9361,38.6814,429.0422],[-4.923,38.6823,402.2063],[-4.9187,38.6861,410.5868],[-4.9045,38.6868,374.8538],[-4.8921,38.6851,478.6348],[-4.8845,38.6878,558.2314],[-4.8769,38.6861,529.9299],[-4.8688,38.681,425.7178],[-4.8707,38.6749,404.7222],[-4.867,38.6598,431.4352],[-4.868,38.6477,385.0433],[-4.8639,38.6401,389.9295],[-4.8671,38.6299,393.0666],[-4.8635,38.6189,394.1889],[-4.8601,38.614,395.7761],[-4.8526,38.6131,397.1546],[-4.8351,38.6075,404.7064],[-4.8233,38.5976,406.0205],[-4.8187,38.5959,412.0166],[-4.8015,38.5948,413.6968],[-4.7874,38.5971,450.0764],[-4.7684,38.5868,424.5899],[-4.7559,38.5857,429.1624],[-4.7473,38.5797,431.9039],[-4.7333,38.5747,435.9656],[-4.7192,38.571,451.4111],[-4.7073,38.572,443.9449],[-4.7049,38.5701,443.2317],[-4.705,38.5638,448.7578],[-4.7013,38.5627,461.0728],[-4.7006,38.56,451.8584],[-4.7054,38.5552,452.6417],[-4.703,38.5526,454.1685],[-4.6957,38.5495,455.0086],[-4.6794,38.5467,461.5295],[-4.6671,38.5478,461.9418],[-4.6501,38.5354,468.1616],[-4.6397,38.5319,475.0431],[-4.6332,38.5252,504.9644],[-4.6222,38.5235,483.3203],[-4.6203,38.5211,495.3624],[-4.6213,38.5177,482.3846],[-4.6187,38.5124,486.6142],[-4.6189,38.5086,486.8118],[-4.6111,38.5002,491.416],[-4.6085,38.4947,499.7148],[-4.596,38.4901,499.4528],[-4.5936,38.4864,503.5458],[-4.5883,38.4864,504.7651],[-4.5859,38.4928,509.0999],[-4.5765,38.4934,513.1786],[-4.5717,38.4875,519.5953],[-4.5657,38.4908,517.747],[-4.5637,38.4848,530.1579],[-4.559,38.4821,523.0784],[-4.5583,38.4766,528.6441],[-4.5512,38.4773,529.3597],[-4.5414,38.4819,537.0336],[-4.5344,38.4695,537.5633],[-4.5217,38.4628,543.5771],[-4.5132,38.4641,550.6704],[-4.5058,38.4576,550.553],[-4.5006,38.4455,554.3365],[-4.4964,38.4434,559.5803],[-4.4949,38.4407,560.2524],[-4.4871,38.4396,570.4729],[-4.4831,38.4331,575.2017],[-4.4712,38.426,570.0406],[-4.4643,38.4169,574.2009],[-4.462,38.4105,581.0959],[-4.4564,38.4069,579.0047],[-4.4529,38.4009,586.7704],[-4.4351,38.4023,596.0464],[-4.4294,38.396,596.6111],[-4.417,38.3945,612.4521],[-4.4096,38.3849,614.9525],[-4.4063,38.3832,618.0998],[-4.3949,38.3872,642.4958],[-4.3886,38.3859,638.7246],[-4.384,38.3823,673.8091],[-4.3338,38.3654,588.1117],[-4.3319,38.3607,568.9899],[-4.3274,38.3635,566.1907],[-4.3242,38.3608,545.1962],[-4.3219,38.3628,533.7963],[-4.3198,38.362,542.8491],[-4.3173,38.357,589.6273],[-4.3118,38.3575,523.844],[-4.3095,38.353,547.5247],[-4.3027,38.3504,597.9105],[-4.2961,38.3502,526.3525],[-4.2942,38.3471,516.2396],[-4.2897,38.3474,507.9267]]],
[[[-4.7404,39.4562,655.5178],[-4.7498,39.4684,643.4817],[-4.7458,39.4726,660.8276],[-4.747,39.4753,623.1555],[-4.7427,39.4876,561.944],[-4.7511,39.4988,639.0754],[-4.7513,39.5014,661.8315],[-4.7624,39.514,684.275],[-4.7797,39.5201,661.7924],[-4.7859,39.5253,772.936],[-4.8109,39.5298,890.8701],[-4.848,39.5521,1187.0812],[-4.863,39.5562,1039.5039],[-4.8721,39.544,716.6077],[-4.8796,39.5384,673.4034],[-4.8888,39.5266,620.8654],[-4.8915,39.5191,586.1489],[-4.8981,39.5121,671.5953],[-4.8992,39.5063,632.1443],[-4.9029,39.5037,598.4019],[-4.9081,39.4937,508.6119],[-4.9108,39.4862,554.6116],[-4.9109,39.4792,631.208],[-4.9268,39.4338,571.3632],[-4.9417,39.4012,418.0],[-4.9406,39.3951,418.0],[-4.9338,39.3954,418.0],[-4.932,39.388,418.0],[-4.9214,39.3875,418.0],[-4.9123,39.38,418.0],[-4.9091,39.3785,418.0],[-4.9057,39.3798,418.0],[-4.903,39.3788,418.0],[-4.903,39.3752,418.0],[-4.9006,39.3742,418.0],[-4.8865,39.3706,418.0],[-4.882,39.3729,418.0],[-4.8765,39.3718,418.5],[-4.8708,39.3683,418.5],[-4.8681,39.375,418.5],[-4.8633,39.375,424.0098],[-4.8612,39.3793,426.1352],[-4.8564,39.381,438.2035],[-4.8555,39.3789,433.2602],[-4.8531,39.3791,430.5041],[-4.8492,39.3816,438.0605],[-4.8463,39.3791,442.2804],[-4.8445,39.3796,440.3058],[-4.8319,39.3894,452.9056],[-4.8133,39.3944,475.0079],[-4.8106,39.3965,472.6391],[-4.7958,39.3969,496.1031],[-4.7887,39.3988,490.2848],[-4.7756,39.3969,527.4361],[-4.7639,39.4051,525.8527],[-4.7553,39.4157,526.4087],[-4.7565,39.4197,543.0168],[-4.7536,39.4254,577.5035],[-4.7661,39.4239,546.9922],[-4.7678,39.429,581.9656],[-4.7672,39.433,621.9041],[-4.7521,39.4486,636.3834],[-4.7435,39.4523,651.8541],[-4.7404,39.4562,655.5178]]]]}
,"properties": {"GID_2": "ESP.4.2_1","GID_0": "ESP","country": "Spain","GID_1": "ESP.4_1","province": "Castilla-LaMancha","NL_NAME_1": "NA","county": "CiudadReal","VARNAME_2": "NA","NL_NAME_2": "NA","TYPE_2": "Provincia","ENGTYPE_2": "Province","CC_2": "13","HASC_2": "ES.CM.CR","name": "Ciudad_Real.county","area_km2": 19796.45,"hist_schema_id": "Elevation0-9000","hist_area_km2": {"350": 8.93,"375": 19.53,"400": 41.32,"425": 79.75,"450": 117.55,"475": 178.56,"500": 233.48,"525": 306.3,"550": 402.79,"575": 553.34,"600": 996.47,"625": 2289.56,"650": 2907.36,"675": 2117.48,"700": 1351.74,"725": 1197.76,"750": 1063.37,"775": 1013.75,"800": 936.15,"825": 840.02,"850": 729.8,"875": 526.69,"900": 470.53,"925": 387.56,"950": 293.14,"975": 205.62,"1000": 247.03,"1025": 85.76,"1050": 55.5,"1075": 38.32,"1100": 27.62,"1125": 21.94,"1150": 15.85,"1175": 12.54,"1200": 9.02,"1225": 7.79,"1250": 4.46,"1275": 1.24,"1300": 0.49,"1350": 0.18}}}