{"type": "Feature","bbox": [-1.4572,39.9951,-1.0717,40.2117],"geometry": {"type": "MultiPolygon","coordinates": [[[[-1.2449,40.1162,760.7007],[-1.2506,40.1239,745.9163],[-1.2461,40.1272,749.731],[-1.2488,40.135,751.9829],[-1.2461,40.1386,757.8187],[-1.2472,40.1402,754.205],[-1.2442,40.146,756.4302],[-1.2454,40.1471,764.4849],[-1.2524,40.1433,871.5021],[-1.2765,40.1622,983.3912],[-1.2764,40.1669,978.6786],[-1.2843,40.1715,1068.0486],[-1.2869,40.1819,1134.9529],[-1.2967,40.1993,1192.9495],[-1.293,40.2069,1252.5546],[-1.2982,40.2117,1264.1221],[-1.2969,40.2099,1245.0869],[-1.302,40.2058,1167.2644],[-1.3109,40.2039,1154.0825],[-1.3149,40.2014,1161.1832],[-1.3229,40.1849,1183.5125],[-1.3225,40.1717,1179.3794],[-1.3172,40.1641,1123.6108],[-1.3194,40.1562,1084.5116],[-1.3165,40.1497,948.6905],[-1.3197,40.1464,893.2531],[-1.336,40.1422,1122.8785],[-1.357,40.1289,1124.592],[-1.3617,40.1297,1132.6699],[-1.3643,40.1327,1068.6707],[-1.3636,40.1386,1008.6165],[-1.3768,40.1403,1043.5732],[-1.3935,40.1344,1090.5714],[-1.4045,40.1392,1222.4829],[-1.4223,40.1424,1323.2025],[-1.4297,40.1394,1499.629],[-1.4333,40.1395,1516.8693],[-1.4488,40.1454,1548.2666],[-1.4572,40.1351,1514.8175],[-1.4562,40.131,1503.7473],[-1.4427,40.1181,1505.7876],[-1.4293,40.1136,1398.7922],[-1.4101,40.1045,1298.4628],[-1.4075,40.1014,1434.5338],[-1.4202,40.0935,1402.144],[-1.4135,40.0861,1232.9888],[-1.4131,40.0812,1226.4319],[-1.4007,40.0671,1216.3884],[-1.3937,40.0531,1246.509],[-1.3831,40.039,1211.2981],[-1.3812,40.0272,1272.0259],[-1.3768,40.0165,1268.8569],[-1.3643,40.0122,1151.2155],[-1.3357,40.0167,1137.766],[-1.3283,40.0134,1133.6067],[-1.2863,40.0082,959.6835],[-1.2649,39.9988,929.3895],[-1.248,39.9951,981.3426],[-1.2166,40.0016,1260.8926],[-1.1995,40.0035,1265.8676],[-1.1917,40.0016,1364.6959],[-1.1729,40.0109,1461.3418],[-1.1651,40.0101,1463.921],[-1.1534,40.0126,1402.3062],[-1.1462,40.0168,1309.0127],[-1.1361,40.0151,1343.3524],[-1.1158,40.024,1457.193],[-1.1097,40.0253,1485.5228],[-1.0978,40.0327,1500.0344],[-1.0842,40.0362,1690.5508],[-1.079,40.0447,1760.3508],[-1.0717,40.0511,1776.733],[-1.0721,40.0605,1767.0],[-1.0796,40.0678,1705.7421],[-1.078,40.0688,1710.9188],[-1.1118,40.0928,1378.5895],[-1.1178,40.0929,1280.4482],[-1.1223,40.0955,1208.1071],[-1.1334,40.0974,1089.86],[-1.1356,40.1041,1023.746],[-1.1439,40.1086,1006.5776],[-1.1473,40.114,945.8883],[-1.1655,40.1149,912.3553],[-1.1927,40.1106,868.359],[-1.2072,40.1102,840.7015],[-1.2207,40.1155,833.9224],[-1.2363,40.1134,792.3658],[-1.2449,40.1162,760.7007]]]]}
,"properties": {"GID_3": "ESP.10.3.15_1","GID_0": "ESP","country": "Spain","GID_1": "ESP.10_1","province": "ComunidadValenciana","NL_NAME_1": "NA","GID_2": "ESP.10.3_1","county": "Valencia","NL_NAME_2": "NA","city": "RincóndeAdemuz","VARNAME_3": "NA","NL_NAME_3": "NA","TYPE_3": "Comarca","ENGTYPE_3": "Comarca","CC_3": "NA","HASC_3": "NA","name": "Rincónde_Ademuz.city","area_km2": 369.959,"hist_schema_id": "Elevation0-9000","hist_area_km2": {"675": 0.7144,"700": 3.0028,"725": 6.2789,"750": 7.9654,"775": 9.3769,"800": 9.1495,"825": 10.5443,"850": 10.6249,"875": 11.4999,"900": 10.7701,"925": 9.7646,"950": 10.203,"975": 13.0269,"1000": 16.0614,"1025": 19.6478,"1050": 24.2414,"1075": 24.8408,"1100": 21.4807,"1125": 19.9232,"1150": 16.7234,"1175": 15.4576,"1200": 12.9139,"1225": 11.6819,"1250": 10.4976,"1275": 8.3073,"1300": 9.0679,"1325": 5.8727,"1350": 4.348,"1375": 3.7478,"1400": 3.5531,"1425": 2.9208,"1450": 2.3695,"1475": 2.9857,"1500": 3.7143,"1525": 2.3683,"1550": 1.428,"1575": 1.4606,"1600": 1.1198,"1625": 1.7202,"1650": 2.1908,"1675": 1.7525,"1700": 1.5251999999999999,"1725": 1.4602,"1750": 0.9735,"1775": 0.4381,"1800": 0.2109,"1825": 0.0324}}}