{"type": "Feature","bbox": [-1.3848,37.7517,-0.8509,38.1242],"geometry": {"type": "MultiPolygon","coordinates": [[[[-0.959,37.9991,103.219],[-0.966,38.0127,163.9698],[-0.9819,38.0293,29.0507],[-0.9986,38.0515,28.8385],[-1.0065,38.055,28.9737],[-1.0222,38.0752,31.4007],[-1.0303,38.0971,201.6311],[-1.0305,38.1159,135.1652],[-1.0545,38.1242,133.6453],[-1.1011,38.1135,116.7016],[-1.1119,38.1155,155.033],[-1.121,38.1145,161.6805],[-1.1314,38.118,154.2845],[-1.1356,38.0952,253.9513],[-1.1377,38.0931,272.6867],[-1.1362,38.0902,284.1033],[-1.1373,38.0807,274.9154],[-1.1531,38.075,274.7667],[-1.1521,38.0661,230.8097],[-1.1597,38.0644,230.1497],[-1.1608,38.0623,221.9607],[-1.1603,38.0583,184.3802],[-1.157,38.0548,191.4886],[-1.1611,38.0546,179.3483],[-1.1607,38.052,201.9109],[-1.1661,38.0506,188.1225],[-1.1735,38.0384,174.2947],[-1.1788,38.0375,184.621],[-1.1773,38.0342,152.2789],[-1.1794,38.0331,158.4948],[-1.1765,38.0278,151.3358],[-1.1774,38.0203,137.4987],[-1.1852,38.0146,146.1806],[-1.1893,38.0156,147.3611],[-1.1917,38.0138,145.245],[-1.1949,38.0141,152.416],[-1.2006,38.0037,130.2889],[-1.2062,38.002,122.3683],[-1.216,38.0028,59.321],[-1.2186,38.0046,59.2289],[-1.2147,38.0089,60.538],[-1.2137,38.0117,60.5466],[-1.215,38.0127,60.5666],[-1.2257,38.011,75.0641],[-1.2324,38.0062,77.4842],[-1.2459,38.0004,91.7359],[-1.2461,37.999,85.9031],[-1.2432,37.998,107.9047],[-1.2446,37.9957,87.5158],[-1.2532,37.9988,114.1134],[-1.2656,37.9988,101.9739],[-1.2722,37.9969,130.008],[-1.2834,37.9999,142.835],[-1.2933,37.9985,160.2891],[-1.3203,38.0064,204.563],[-1.3282,38.0126,235.1488],[-1.3218,38.0207,210.9641],[-1.3168,38.024,203.2119],[-1.3124,38.0245,200.6285],[-1.3183,38.0293,145.0395],[-1.3501,38.0179,291.5452],[-1.3519,38.0088,268.1542],[-1.3609,37.9953,274.4908],[-1.3602,37.9672,273.7031],[-1.3583,37.96,331.658],[-1.3628,37.9559,367.0421],[-1.367,37.9586,351.5678],[-1.3712,37.9509,370.7373],[-1.3772,37.9511,355.1163],[-1.3789,37.9489,356.5859],[-1.3839,37.9502,401.8904],[-1.3848,37.9475,400.4342],[-1.382,37.9397,383.0294],[-1.3723,37.933,347.3769],[-1.3703,37.9281,375.6628],[-1.3612,37.9275,415.379],[-1.3581,37.9327,378.3328],[-1.3589,37.9369,349.7666],[-1.3573,37.9386,341.8372],[-1.3422,37.94,279.4586],[-1.3376999999999999,37.9424,271.0078],[-1.3248,37.9353,204.7277],[-1.3159,37.9351,174.0738],[-1.2971,37.929,141.438],[-1.288,37.9208,119.1464],[-1.2751,37.915,99.8651],[-1.2723,37.9115,90.864],[-1.2823,37.9047,95.4227],[-1.2744,37.8785,239.8324],[-1.2686,37.8483,1014.6267],[-1.2612,37.8468,946.0453],[-1.249,37.8351,561.9693],[-1.2491,37.8326,538.9851],[-1.232,37.8277,408.9633],[-1.222,37.8172,342.3157],[-1.2176,37.8093,315.6096],[-1.2245,37.8038,367.0062],[-1.2107,37.8001,320.0393],[-1.1986,37.804,271.5516],[-1.1874,37.8122,280.5246],[-1.1764,37.8007,248.199],[-1.1602,37.7895,214.486],[-1.165,37.7747,196.9542],[-1.1569,37.7692,180.9243],[-1.153,37.762,167.0872],[-1.1461,37.7581,152.0067],[-1.1416,37.7517,141.247],[-1.128,37.756,141.5733],[-1.1267,37.7634,151.6267],[-1.1175,37.7682,147.0082],[-1.1111,37.7696,145.9295],[-1.1063,37.7742,147.1572],[-1.1007,37.7737,140.9095],[-1.0959,37.7808,142.8374],[-1.0863,37.7757,131.4166],[-1.0847,37.7767,128.8254],[-1.0803,37.7732,124.5207],[-1.0708,37.7743,117.3485],[-1.0755,37.7864,133.0574],[-1.0583,37.8005,130.0706],[-1.0509,37.8037,129.9874],[-1.0448,37.8091,130.394],[-1.0407,37.8091,129.9923],[-1.0349,37.8119,127.9678],[-1.0285,37.8166,130.8404],[-1.0237,37.8227,134.231],[-1.0208,37.8349,142.7167],[-1.0164,37.8394,140.9323],[-1.0086,37.8429,141.794],[-1.0015,37.8493,153.6128],[-0.9898,37.8378,136.0695],[-0.9822,37.8231,112.9464],[-0.9368,37.8305,102.8795],[-0.919,37.8369,98.6154],[-0.9118,37.8431,100.2159],[-0.8947,37.85,97.8368],[-0.8866,37.8491,92.8579],[-0.8766,37.855,84.8489],[-0.8732,37.8594,92.2482],[-0.8653,37.8643,102.7505],[-0.8542,37.8647,93.1499],[-0.8509,37.8725,100.8896],[-0.8532,37.8803,107.4793],[-0.8512,37.8818,101.3337],[-0.8571,37.8853,122.7707],[-0.9001,37.9232,234.3678],[-0.9213,37.9445,304.6348],[-0.9341,37.9689,145.1889],[-0.959,37.9991,103.219]]]]}
,"properties": {"GID_3": "ESP.18.1.5_1","GID_0": "ESP","country": "Spain","GID_1": "ESP.18_1","province": "RegióndeMurcia","NL_NAME_1": "NA","GID_2": "ESP.18.1_1","county": "Murcia","NL_NAME_2": "NA","city": "HueradeMurcia","VARNAME_3": "NA","NL_NAME_3": "NA","TYPE_3": "Comarca","ENGTYPE_3": "Comarca","CC_3": "NA","HASC_3": "NA","name": "Huerade_Murcia.city","area_km2": 944.4452,"hist_schema_id": "Elevation0-9000","hist_area_km2": {"25": 66.338,"50": 102.1154,"75": 64.3555,"100": 70.2811,"125": 79.4072,"150": 89.9705,"175": 91.1432,"200": 78.0607,"225": 60.3366,"250": 47.8591,"275": 37.9436,"300": 31.421,"325": 26.3516,"350": 20.3791,"375": 15.2433,"400": 12.0976,"425": 10.4243,"450": 8.0984,"475": 6.9612,"500": 5.9239,"525": 4.2842,"550": 3.6151,"575": 3.816,"600": 1.8747,"625": 0.9709,"650": 0.7868,"675": 0.5524,"700": 0.4353,"725": 0.4855,"750": 0.385,"775": 0.3013,"800": 0.3516,"825": 0.3851,"850": 0.2846,"875": 0.385,"900": 0.2344,"925": 0.2344,"950": 0.1339,"975": 0.1339,"1000": 0.0502,"1025": 0.0335}}}