{"type":"Feature","properties":{"GID_3":"ESP.1.1.5_1","GID_0":"ESP","country":"Spain","GID_1":"ESP.1_1","province":"Andalucía","NL_NAME_1":"NA","GID_2":"ESP.1.1_1","county":"Almería","NL_NAME_2":"NA","city":"n.a.(19)","VARNAME_3":"NA","NL_NAME_3":"NA","TYPE_3":"Comarca","ENGTYPE_3":"Comarca","CC_3":"NA","HASC_3":"NA","name":"n.a.(19).city"},
"geometry":{"type": "MultiPolygon","coordinates": [[[[-3.0301,35.9418,0.0],[-3.0376,35.939,0.0],[-3.036,35.9374,1.3777],[-3.0337,35.9376,0.0],[-3.0335,35.9396,1.0467],[-3.0301,35.9418,0.0]]],
[[[-2.3565,36.99,1325.8912],[-2.3623,36.9896,1290.1628],[-2.3652,36.9871,1305.5107],[-2.3787,36.9863,1260.7595],[-2.3841,36.988,1270.6631],[-2.4004,36.9856,1127.7855],[-2.4018,36.9879,1081.5406],[-2.4087,36.989,914.8821],[-2.4187,36.9957,645.463],[-2.4231,36.9967,548.1122],[-2.4266,37.0017,498.2295],[-2.4453,37.0098,244.0384],[-2.4484,37.0193,302.4395],[-2.47,37.0466,454.8873],[-2.4889,37.0606,466.5572],[-2.4869,37.0571,450.2287],[-2.4824,37.0546,475.5309],[-2.4837,37.0519,418.0529],[-2.5053,37.0407,610.7281],[-2.5059,37.0439,593.5469],[-2.5108,37.0422,532.4038],[-2.5161,37.0439,514.8503],[-2.532,37.0442,437.1586],[-2.5336,37.0416,421.7252],[-2.5333,37.0378,440.3312],[-2.5378,37.0328,394.7887],[-2.5384,37.0245,373.5998],[-2.5362,37.0224,366.3914],[-2.5383,37.0168,349.7365],[-2.5364,37.0008,314.4289],[-2.5379,36.9884,269.7023],[-2.5423,36.9819,249.2324],[-2.5421,36.9698,224.1799],[-2.5373,36.9599,360.3079],[-2.5446,36.9518,389.4858],[-2.5511,36.948,395.4472],[-2.5582,36.9308,521.7234],[-2.5642,36.9298,592.5449],[-2.5775,36.9217,806.9581],[-2.5684,36.9133,951.4991],[-2.5679,36.8981,945.9115],[-2.5645,36.8873,923.0406],[-2.567,36.8781,957.7145],[-2.5623,36.8719,923.1255],[-2.5564,36.8693,869.3409],[-2.5536,36.8698,839.8551],[-2.5443,36.8633,754.7217],[-2.5411,36.8544,727.0752],[-2.5422,36.8482,667.0587],[-2.5363,36.8376,322.9445],[-2.5327,36.8351,251.5649],[-2.5246,36.824,7.3326],[-2.5015,36.8243,7.8026],[-2.4954,36.8279,23.0686],[-2.4915,36.8276,6.7751],[-2.4812,36.834,1.2968],[-2.4751,36.8318,2.1656],[-2.4682,36.8262,0.0],[-2.464,36.8254,0.0],[-2.471,36.8293,0.0],[-2.4754,36.834,2.2031],[-2.4746,36.8354,2.2031],[-2.4712,36.8354,0.0],[-2.466,36.8335,1.9015],[-2.4671,36.8301,0.0],[-2.464,36.8326,3.3301],[-2.4615,36.8326,5.5039],[-2.4412,36.8207,6.7446],[-2.4332,36.8149,2.2434],[-2.4301,36.8107,0.3416],[-2.4257,36.8104,0.0],[-2.4221,36.8154,0.0],[-2.4101,36.8196,0.0],[-2.4037,36.8268,0.0],[-2.3674,36.8415,0.6751],[-2.3551,36.841,0.934],[-2.3451,36.8376,0.0],[-2.3293,36.8363,1.0053],[-2.3182,36.8335,0.0],[-2.2965,36.8218,0.1857],[-2.2921,36.821,0.7016],[-2.2549,36.7901,1.3873],[-2.226,36.7596,1.5448],[-2.2029,36.7315,0.0],[-2.2015,36.7268,0.0],[-2.1951,36.7251,0.0],[-2.194,36.721,5.3648],[-2.1907,36.7196,0.0],[-2.1871,36.7212,0.0],[-2.184,36.7188,0.0],[-2.1788,36.7235,0.0],[-2.1701,36.7229,25.3149],[-2.1682,36.7215,0.0],[-2.1632,36.7262,0.0],[-2.154,36.7287,0.0],[-2.1529,36.7304,0.0],[-2.1368,36.7285,0.0],[-2.1304,36.7315,0.0],[-2.1207,36.7326,0.0],[-2.1188,36.7363,13.6171],[-2.1143,36.7376,0.0],[-2.1154,36.7396,0.0],[-2.1196,36.739,0.0],[-2.1226,36.7429,5.2975],[-2.1224,36.7451,-0.0456],[-2.1196,36.749,2.5123],[-2.1137,36.7479,0.0],[-2.1065,36.7515,5.2746],[-2.1093,36.7565,3.1738],[-2.1057,36.7635,2.4177],[-2.1021,36.761,0.0],[-2.0951,36.7643,1.8548],[-2.0907,36.7621,0.7309],[-2.0899,36.7635,0.7309],[-2.0829,36.7643,0.0],[-2.0799,36.7657,0.0],[-2.0804,36.7676,4.3755],[-2.0724,36.7696,0.0],[-2.0699,36.7746,3.9108],[-2.0649,36.7746,0.0],[-2.0601,36.7774,0.0],[-2.0599,36.7788,0.0],[-2.0626,36.7799,0.0],[-2.0607,36.7935,0.0],[-2.0621,36.7949,0.0],[-2.0585,36.7962,0.0],[-2.0621,36.7993,0.0],[-2.0612,36.8013,0.0],[-2.0626,36.8054,0.0],[-2.061,36.8085,2.4623],[-2.0554,36.8126,5.2209],[-2.0479,36.8112,0.0],[-2.0507,36.8157,8.7655],[-2.0407,36.8185,0.0],[-2.0401,36.8235,0.0],[-2.0312,36.8299,6.7299],[-2.0249,36.8307,0.0],[-2.0243,36.8351,1.7156],[-2.0082,36.8335,0.0],[-2.0021,36.8363,7.5989],[-2.0015,36.839,173.9812],[-1.999,36.8404,0.0],[-2.0012,36.8429,225.1713],[-2.0012,36.8457,121.936],[-1.9957,36.8501,36.5391],[-1.9965,36.8521,0.0],[-1.9996,36.8529,30.0116],[-1.999,36.8574,0.0],[-2.0054,36.8593,1.2086],[-2.0029,36.8629,0.7696],[-2.001,36.8721,0.0],[-2.0038,36.8746,49.9992],[-2.0032,36.8824,3.5136],[-1.994,36.886,44.321],[-1.9918,36.8937,0.0],[-1.9857,36.8974,28.545],[-1.9813,36.9026,17.1944],[-1.9771,36.9024,8.551],[-1.9729,36.8979,4.6778],[-1.9676,36.8982,0.0],[-1.9635,36.9076,6.5346],[-1.959,36.909,20.3372],[-1.9582,36.9149,79.6113],[-1.9554,36.9157,0.0],[-1.9562,36.9176,28.5245],[-1.9526,36.9196,1.9494],[-1.9543,36.9207,4.0677],[-1.9543,36.9235,0.8198],[-1.9524,36.9235,0.0],[-1.9462,36.9296,0.0],[-1.9465,36.9324,5.3413],[-1.9432,36.9329,0.0],[-1.9413,36.9357,33.2453],[-1.9338,36.9388,6.8244],[-1.9221,36.9368,16.8499],[-1.9163,36.934,19.3701],[-1.914,36.9343,0.0],[-1.9129,36.9365,8.6877],[-1.9065,36.936,6.5084],[-1.9029,36.9401,0.0],[-1.9029,36.944,43.4208],[-1.8954,36.9482,0.0],[-1.8985,36.9543,12.5472],[-1.8999,36.9663,0.0],[-1.8949,36.9654,0.0],[-1.8957,36.9679,0.0],[-1.8999,36.9685,3.923],[-1.9007,36.9746,4.6666],[-1.8985,36.9782,0.346],[-1.8962,36.976,0.0],[-1.8946,36.9765,0.0],[-1.8976,36.9793,0.7201],[-1.901,36.9793,2.1994],[-1.9012,36.9876,4.9152],[-1.8985,36.9888,1.2035],[-1.8971,36.9935,3.795],[-1.8893,36.9968,0.6417],[-1.8882,37.0076,21.8087],[-1.8826,37.009,33.5014],[-1.8779,37.0146,2.4798],[-1.8796,37.0251,0.0],[-1.876,37.0363,26.0358],[-1.8726,37.0393,23.2004],[-1.8662,37.041,13.1978],[-1.8632,37.0455,5.1194],[-1.8673,37.0432,90.311],[-1.873,37.0454,165.3874],[-1.8774,37.0449,195.2575],[-1.884,37.0429,333.5336],[-1.8884,37.0391,335.5104],[-1.8964,37.0384,347.4937],[-1.9019,37.0405,310.239],[-1.9015,37.0426,345.0948],[-1.9085,37.04,390.0713],[-1.9089,37.0429,365.964],[-1.9127,37.0464,422.5446],[-1.9124,37.0487,464.9295],[-1.9155,37.0515,525.1501],[-1.9345,37.0533,493.3904],[-1.9552,37.0516,461.9838],[-1.9705,37.047,411.9986],[-1.9813,37.0456,406.6651],[-1.9909,37.0463,342.3642],[-1.9954,37.0446,307.2619],[-1.9935,37.0381,301.7773],[-1.9958,37.0368,297.9053],[-1.9936,37.0327,282.5188],[-1.9959,37.032,281.002],[-1.9961,37.0303,306.5071],[-1.9941,37.0305,292.7381],[-1.989,37.0242,208.9281],[-1.9895,37.0219,214.3683],[-1.9934,37.0214,197.346],[-1.996,37.0163,181.4915],[-1.9943,37.0153,173.4849],[-1.9957,37.008,160.251],[-1.9937,37.003,148.4327],[-1.9955,36.9974,137.5986],[-2.0037,36.9843,226.9953],[-2.0131,36.9821,240.6754],[-2.019,36.9768,258.7894],[-2.0408,36.9829,213.1874],[-2.0472,36.9814,210.4998],[-2.0655,36.9969,234.2995],[-2.0743,36.9998,247.6202],[-2.101,36.9952,296.9097],[-2.1443,37.0002,496.4329],[-2.1733,37.0082,652.5555],[-2.1915,37.0107,726.4938],[-2.2005,37.0098,713.3144],[-2.2109,37.0186,841.8396],[-2.2275,37.0086,876.7029],[-2.2558,37.0026,1036.1699],[-2.2791,36.9891,869.8885],[-2.2995,36.993,1297.6958],[-2.3034,36.9977,1357.0879],[-2.3106,37.0001,1289.7113],[-2.3208,36.9953,1289.7268],[-2.3277,36.9972,1220.0571],[-2.3402,36.993,1262.6692],[-2.3478,36.9943,1269.675],[-2.3536,36.9931,1268.8645],[-2.3565,36.99,1325.8912]]],
[[[-1.8632,37.0455,5.1194],[-1.8629,37.0454,0.0],[-1.8629,37.0457,5.1194],[-1.8631,37.0456,5.1194],[-1.8632,37.0455,5.1194]]]]}}