{"type": "Feature","bbox": [-7.4115494456975171,42.681586004681606,-1.9456740935507919,43.4279849304628],"geometry": {"type": "MultiPolygon","coordinates": [[[[-1.9456740935507919,42.984091800016387,828.4924],[-2.06224524647871,43.059210516400327,216.7235],[-2.1381729808537391,43.1179263367128,667.5642],[-2.2344254222600171,43.209234930462827,333.0642],[-2.26280676991621,43.241644598431577,86.3058],[-2.278288973971883,43.268382410777093,74.7422],[-2.88011634022871,43.256293035931634,151.5434],[-3.0760391917912671,43.262823797650327,685.4878],[-3.26463782460371,43.285834051556606,298.4949],[-3.47032630116621,43.334112860150384,314.9163],[-5.6660050121037386,43.4279849304628,238.3718],[-6.94780432850996,43.356695867962856,857.3888],[-7.1526383128850171,43.2993228210878,459.9193],[-7.3313492503850171,43.181830145306549,564.8591],[-7.3978775706974886,43.093023992962884,579.9352],[-7.4115494456975171,43.013434149212827,466.0965],[-7.3830460277287671,42.943182684369106,448.4722],[-7.3228653636662671,42.882330633587856,624.5544],[-7.24498450429121,42.832648016400356,796.524],[-7.15684973866621,42.791754461712856,883.5948],[-7.0681046214787386,42.759772039837827,1003.235],[-6.98814856679121,42.736700750775356,1046.5154],[-6.6915177074162671,42.686346746869106,562.6799],[-6.40135657460371,42.681586004681606,762.6292],[-5.5139054027287386,42.798041082806606,1084.3357],[-2.3589981761662671,42.772345282025327,1028.1836],[-1.97441565663496,42.870306707806577,948.2378],[-1.9456740935507919,42.984091800016387,828.4924]]],
[[[-2.1918023486556422,43.270119734952004,111.9469],[-2.1194962230412391,43.231940008587827,137.3939],[-2.04784094960371,43.208075262494077,120.074],[-1.969940749500807,43.198200974489481,717.1523],[-2.0079239574162671,43.236761785931549,183.8634],[-2.1569718089787391,43.270819403119049,70.8644],[-2.1918023486556422,43.270119734952004,111.9469]]]]}
,"properties": {"featurecla": "Range/mtn","name": "Cord. Cantábrica","namealt": null,"region": "Europe","subregion": null,"min_label": 5.3,"max_label": 9.0,"scalerank": 4,"area_km2": 27600.29,"hist_schema_id": "Elevation0-9000","hist_area_km2": {"0": 8.12,"25": 36.18,"50": 79.21,"75": 127.02,"100": 177.64,"125": 205.67,"150": 230.53,"175": 283.92,"200": 322.48,"225": 347.05,"250": 369.6,"275": 383.65,"300": 380.68,"325": 384.08,"350": 381.27,"375": 381.4,"400": 384.28,"425": 384.71,"450": 386.72,"475": 409.47,"500": 481.97,"525": 557.34,"550": 621.52,"575": 662.89,"600": 710.66,"625": 677.73,"650": 656.2,"675": 647.07,"700": 640.48,"725": 626.1,"750": 597.55,"775": 576.0,"800": 553.73,"825": 607.46,"850": 587.95,"875": 535.86,"900": 515.55,"925": 528.91,"950": 521.96,"975": 517.49,"1000": 490.26,"1025": 451.73,"1050": 435.05,"1075": 444.42,"1100": 448.64,"1125": 435.99,"1150": 419.12,"1175": 396.09,"1200": 387.55,"1225": 382.07,"1250": 366.65,"1275": 351.74,"1300": 334.82,"1325": 324.32,"1350": 310.43,"1375": 301.14,"1400": 290.4,"1425": 279.25,"1450": 267.85,"1475": 256.09,"1500": 242.98,"1525": 232.71,"1550": 222.02,"1575": 210.64,"1600": 199.59,"1625": 185.65,"1650": 172.11,"1675": 162.54,"1700": 146.64,"1725": 133.26,"1750": 121.11,"1775": 107.86,"1800": 94.53,"1825": 83.48,"1850": 68.36,"1875": 58.51,"1900": 49.64,"1925": 42.11,"1950": 35.14,"1975": 28.72,"2000": 24.17,"2025": 19.62,"2050": 16.3,"2075": 14.06,"2100": 10.5,"2125": 9.38,"2150": 6.73,"2175": 6.13,"2200": 5.49,"2225": 4.64,"2250": 4.05,"2275": 4.12,"2300": 3.36,"2325": 3.0,"2350": 2.35,"2375": 2.0,"2400": 1.49,"2425": 1.3,"2450": 0.88,"2475": 0.51,"2500": 0.48,"2525": 0.28}}}