{"type":"Feature","properties":{"ISO3166-1-Alpha-3":"ESP","country":"Spain","id":"99?","name":null},
"geometry":{"type": "MultiPolygon","coordinates": [[[[-4.2969,35.17225,0.0],[-4.2987,35.17261,0.0],[-4.30005,35.17272,2.0434],[-4.30105,35.1729,2.0434],[-4.30188,35.17266,0.0],[-4.30094,35.17207,0.0],[-4.29939,35.17166,2.7076],[-4.29773,35.17154,2.7076],[-4.2969,35.17225,0.0]]],
[[[-2.43884,35.17907,0.0],[-2.44093,35.18102,7.5062],[-2.44511,35.17982,0.1637],[-2.4463,35.17698,0.0],[-2.44078,35.17609,1.3428],[-2.43884,35.17907,0.0]]],
[[[-2.41814,35.17973,0.0],[-2.42187,35.18301,0.0],[-2.42501,35.17943,0.4085],[-2.42143,35.17599,0.0],[-2.41814,35.17973,0.0]]],
[[[-2.4265,35.18211,0.0],[-2.42939,35.18604,0.0],[-2.43424,35.18523,0.0],[-2.43586,35.18119,0.0],[-2.43141,35.17877,0.0],[-2.4265,35.18211,0.0]]],
[[[-3.90196,35.21546,0.0],[-3.90233,35.2159,0.0],[-3.90296,35.21531,2.2875],[-3.90313,35.21504,2.2875],[-3.90253,35.21479,2.2875],[-3.90196,35.21546,0.0]]],
[[[-3.89995,35.21786,0.8824],[-3.90073,35.21783,2.1403],[-3.90127,35.21762,2.1403],[-3.90131,35.21732,2.1403],[-3.901,35.21722,2.1403],[-3.9005,35.21735,2.1403],[-3.89982,35.21729,0.8824],[-3.89995,35.21786,0.8824]]],
[[[-5.41597,35.91353,7.9238],[-5.41877,35.9156,10.4029],[-5.42084,35.91427,18.209],[-5.42025,35.91161,0.0],[-5.41789,35.91087,0.0],[-5.41597,35.91353,7.9238]]],
[[[-3.03641,35.94437,0.0],[-3.03877,35.94555,0.0],[-3.03978,35.94386,0.0],[-3.03793,35.94252,0.0],[-3.03641,35.94437,0.0]]]]}}