{"type":"Feature","properties":{"featurecla":"Island","name":"Ibiza","namealt":null,"region":"Europe","subregion":null,"min_label":5.4,"max_label":10.0,"scalerank":5},
"geometry":{"type": "Polygon","coordinates": [[[1.5860701832087329,39.119391180462827,0.0],[1.5680037769587609,39.120306707806634,0.0],[1.5612899097712329,39.122137762494049,0.0],[1.5448104175837609,39.132513739056634,0.0],[1.5304061207087609,39.133307196087827,0.0],[1.5163680347712329,39.128851629681577,0.0],[1.5072127613337329,39.119391180462827,0.0],[1.4863387378962329,39.122137762494049,0.0],[1.458262566021205,39.116278387494106,0.0],[1.4309188160212329,39.104986883587827,0.0],[1.4108992847712329,39.092108465619077,0.0],[1.3996688160212609,39.097784735150356,0.0],[1.3798934253962329,39.085882879681634,0.0],[1.37061608164629,39.092108465619077,0.0],[1.36451256602129,39.092108465619077,0.0],[1.34009850352129,39.071722723431577,0.0],[1.32520592539629,39.062079168744077,0.0],[1.3120223316462609,39.057928778119106,0.0],[1.30042565195879,39.047674871869077,0.0],[1.2998153003962609,39.0242984070253,143.6688],[1.3084822925837609,38.982245184369077,2.9825],[1.2845565113337609,38.9824282898378,0.0],[1.2747908863337329,38.980536199994077,0.0],[1.2675887378962609,38.975409246869106,0.0],[1.25586998789629,38.980841375775327,0.0],[1.2443953785212609,38.979620672650356,0.0],[1.2343856128962609,38.974615789837827,0.0],[1.2260848316462609,38.968573309369134,3.3414],[1.2351180347712329,38.956488348431549,68.3314],[1.23194420664629,38.941839910931606,7.5079],[1.2198592457087329,38.917669989056549,7.9734],[1.2242537769587329,38.8995425476503,62.3676],[1.2357283863337609,38.889105535931606,86.6141],[1.2675887378962609,38.872381903119077,0.0],[1.274302605083705,38.884833074994106,112.9554],[1.2910262378962329,38.889044500775384,101.7241],[1.307871941021205,38.884894110150327,42.5731],[1.3154403003962329,38.872381903119077,16.6178],[1.325327995708705,38.8742739929628,32.3089],[1.3263045582087329,38.873602606244049,26.5144],[1.3297225269587329,38.872381903119077,24.4202],[1.33655846445879,38.872381903119077,99.5723],[1.3512069019587609,38.876776434369077,15.5567],[1.36841881602129,38.866339422650384,1.2954],[1.38672936289629,38.852301336712856,-2.1913],[1.4040633472712609,38.845709539837856,0.0],[1.4118758472712609,38.8712222351503,0.0],[1.4226180347712329,38.892645574994106,0.0],[1.4362899097712609,38.911078192181634,0.0],[1.4526473316462329,38.927618719525327,9.6953],[1.45606530039629,38.923285223431634,26.5676],[1.462657097271205,38.918524481244049,15.3686],[1.4661971363337329,38.914557196087827,31.9613],[1.4771834644587329,38.924689032025356,101.0586],[1.50489342539629,38.936285711712827,53.8604],[1.5173445972712609,38.944647528119134,0.0],[1.54883873789629,38.982245184369077,0.0],[1.5838729175837329,39.0002505554628,0.0],[1.5891219410212329,39.006415106244106,0.0],[1.5922957691462609,39.021857000775356,19.9167],[1.6009627613337329,39.034735418744106,31.4],[1.6141463550837609,39.042792059369049,0.0],[1.6306258472712329,39.043646551556549,0.0],[1.6146346363337609,39.076849676556577,0.0],[1.6084090503962329,39.096869207806549,0.0],[1.6136580738337609,39.105719305462884,0.0],[1.60560143320879,39.112555242962856,0.0],[1.5974227222712329,39.117254949994134,0.0],[1.5860701832087329,39.119391180462827,0.0]]]}}