{"type": "Feature","bbox": [-4.7136734691349886,36.831244207806577,-1.9709366527287671,37.920233465619077],"geometry": {"type": "Polygon","coordinates": [[[-2.9420670238225171,36.840765692181549,324.5994],[-2.8271988597599891,36.856817938275327,1266.9507],[-2.7076309886662391,36.884161688275327,985.1875],[-2.4185684886662391,36.931402899212856,185.7324],[-2.27385413319746,36.963202215619049,787.4385],[-2.1522110667912391,37.022467352337827,478.0887],[-2.07768714100996,37.1042544617128,305.6132],[-2.03343665272871,37.201727606244049,669.4978],[-1.9816788402287391,37.407171942181577,339.3829],[-1.9709366527287671,37.551214910931606,952.2703],[-2.02141272694746,37.657782293744077,745.6154],[-2.1191300121037671,37.730902410931634,1135.2183],[-2.25011145741621,37.774298407025384,1160.9465],[-2.7569473949162671,37.897589422650356,1320.1036],[-2.92406165272871,37.920233465619077,1071.1049],[-3.134816047260045,37.915594793744106,525.5263],[-3.40013587147871,37.883917547650327,454.415],[-3.6633194652287671,37.831366278119077,556.6853],[-3.8676041331975171,37.764227606244077,851.6798],[-4.3212784496037671,37.567572332806577,494.5545],[-4.5301407542912946,37.434515692181549,448.4885],[-4.6861466136662671,37.249335028119077,413.727],[-4.7090958324162386,37.192633367962856,468.9061],[-4.7136734691349886,37.142645574994106,434.627],[-4.7025040355412386,37.0990054382753,519.1266],[-4.6780899730412386,37.061346746869049,410.5077],[-4.6176651683537671,37.012579657025356,668.9644],[-4.5400894847599886,36.976629949994106,933.8165],[-4.45567786366621,36.951910711712856,837.9008],[-4.37462317616621,36.937079168744049,803.6649],[-3.789418098041295,36.864203192181634,1218.1113],[-3.1840103831975171,36.831244207806577,701.2257],[-2.9420670238225171,36.840765692181549,324.5994]]]}
,"properties": {"featurecla": "Range/mtn","name": "S. Nevada","namealt": null,"region": "Europe","subregion": null,"min_label": 5.3,"max_label": 9.0,"scalerank": 4,"area_km2": 22483.5,"hist_schema_id": "Elevation0-9000","hist_area_km2": {"100": 0.39,"125": 3.42,"150": 7.07,"175": 9.67,"200": 12.07,"225": 22.27,"250": 30.05,"275": 37.54,"300": 55.91,"325": 74.54,"350": 89.47,"375": 133.06,"400": 206.25,"425": 337.11,"450": 360.59,"475": 410.04,"500": 390.75,"525": 406.0,"550": 466.07,"575": 476.97,"600": 465.63,"625": 479.99,"650": 476.69,"675": 505.52,"700": 526.89,"725": 571.74,"750": 578.27,"775": 569.79,"800": 572.11,"825": 589.8,"850": 593.53,"875": 597.9,"900": 631.36,"925": 636.17,"950": 687.9,"975": 699.6,"1000": 718.16,"1025": 685.3,"1050": 646.29,"1075": 633.1,"1100": 607.53,"1125": 547.59,"1150": 461.97,"1175": 402.07,"1200": 359.85,"1225": 319.42,"1250": 291.14,"1275": 264.7,"1300": 243.96,"1325": 225.36,"1350": 208.27,"1375": 189.65,"1400": 173.53,"1425": 158.81,"1450": 147.78,"1475": 137.14,"1500": 130.74,"1525": 119.57,"1550": 112.71,"1575": 108.68,"1600": 103.38,"1625": 102.26,"1650": 95.87,"1675": 90.08,"1700": 87.59,"1725": 85.68,"1750": 81.3,"1775": 78.44,"1800": 74.89,"1825": 71.45,"1850": 69.9,"1875": 69.02,"1900": 69.09,"1925": 67.15,"1950": 53.7,"1975": 43.51,"2000": 38.94,"2025": 37.11,"2050": 34.55,"2075": 28.76,"2100": 27.8,"2125": 26.29,"2150": 23.25,"2175": 21.94,"2200": 21.43,"2225": 19.99,"2250": 17.92,"2275": 18.56,"2300": 17.78,"2325": 16.66,"2350": 16.71,"2375": 15.87,"2400": 15.18,"2425": 14.72,"2450": 13.69,"2475": 12.47,"2500": 11.94,"2525": 11.47,"2550": 11.44,"2575": 10.54,"2600": 10.71,"2625": 9.47,"2650": 10.0,"2675": 9.05,"2700": 8.88,"2725": 8.88,"2750": 7.85,"2775": 8.27,"2800": 8.26,"2825": 7.41,"2850": 7.68,"2875": 6.63,"2900": 5.94,"2925": 5.7,"2950": 4.89,"2975": 4.69,"3000": 4.5,"3025": 4.03,"3050": 3.33,"3075": 2.89,"3100": 2.66,"3125": 1.89,"3150": 1.12,"3175": 1.2,"3200": 0.58,"3225": 0.73,"3250": 0.61,"3275": 0.44,"3300": 0.41,"3325": 0.34,"3350": 0.27}}}