{"type": "Feature","bbox": [-7.21025550038496,37.360235907025327,-2.493092414447545,38.836554266400356],"geometry": {"type": "Polygon","coordinates": [[[-2.90776526600996,38.733832098431577,968.6538],[-3.22838294179121,38.777777410931577,766.2736],[-3.5672501292912391,38.796454168744049,672.7144],[-3.8037003246037671,38.829657293744077,697.6665],[-3.9225968089787391,38.836554266400356,657.8406],[-4.0397232738224886,38.820502020306577,693.9517],[-4.1495865550724886,38.795172430462856,803.2495],[-4.8738907542912386,38.699286199994049,421.8319],[-4.99535071522871,38.667731024212827,537.3463],[-5.09129798085371,38.615545965619049,430.2419],[-5.2610977855412671,38.469061590619049,504.7192],[-5.3549698558537946,38.411078192181549,572.224],[-5.42699134022871,38.392279364056634,588.9867],[-5.4965714183537671,38.393561102337827,581.0631],[-5.6378067699162671,38.418036199994049,534.0798],[-5.7059220042912946,38.421271063275384,553.0748],[-5.7783096996037946,38.414740301556577,534.1926],[-5.8497208324162671,38.400458074994106,497.0281],[-6.1035050121037671,38.311957098431606,582.937],[-6.1429947581975446,38.294256903119049,591.3163],[-6.21806800038496,38.255438543744049,566.728],[-6.4361466136662671,38.188849188275384,473.5118],[-6.6111344066350171,38.118597723431577,640.8866],[-6.7805680003849886,38.0350405945253,335.2394],[-6.9410904613225171,37.942511297650356,394.5757],[-6.9839371410100171,37.906195379681549,320.8103],[-7.0144547191350171,37.862799383587884,455.4921],[-7.0698136058537386,37.766424871869077,269.1683],[-7.1572159496037671,37.652411199994134,194.5154],[-7.1907852855412671,37.592413641400356,233.4049],[-7.21025550038496,37.517523504681577,218.455],[-7.20634925038496,37.456671453900327,140.8773],[-7.1792496410100171,37.416632391400356,154.5513],[-7.1334732738225171,37.391546942181606,117.1931],[-7.07359778554121,37.375494696087827,117.3937],[-6.9181412425725446,37.360235907025327,21.0461],[-6.7596329417912671,37.3750064148378,34.3855],[-6.6058853831975171,37.417120672650356,56.2997],[-6.2964981761662386,37.558783270306549,147.5027],[-6.1216934886662671,37.601752020306606,237.7531],[-5.7622574535100171,37.667547918744106,152.412],[-5.0370987621037671,37.893255926556577,179.6452],[-4.9750870433537386,37.905768133587856,451.795],[-4.83800208241621,37.9199282898378,493.191],[-4.7692764964787386,37.933233953900356,198.4995],[-4.7065323558537386,37.957220770306549,369.407],[-4.6688736644475171,37.9853579773378,230.8547],[-4.60435950429121,38.054877020306549,313.8924],[-4.5665177074162386,38.082220770306606,463.9082],[-4.5345963206975171,38.094305731244077,456.0068],[-4.31987464100996,38.146734930462827,451.2475],[-4.2085465160100171,38.163275457806606,572.9407],[-4.0959976878850171,38.167059637494077,449.8935],[-3.664296027728795,38.131415106244106,461.5438],[-3.5613907542912671,38.1004702820253,313.6837],[-3.4605606761662671,38.083502508587827,512.6903],[-3.3537491527287671,38.101996160931549,488.4824],[-3.14531409413496,38.165838934369106,460.7894],[-3.0713394847599891,38.178595282025327,606.8248],[-2.84978186757246,38.195135809369106,1033.2399],[-2.7974747386662671,38.204291082806606,1227.9427],[-2.7493790355412391,38.222418524212884,731.0796],[-2.6542252269474891,38.269842840619049,1212.7948],[-2.58073889882246,38.3127505554628,1355.0547],[-2.5313004222600171,38.364569403119077,1423.2311],[-2.5030411449162391,38.430609442181634,1007.5903],[-2.493092414447545,38.516546942181549,1281.0284],[-2.5002335277287671,38.597357489056577,1189.4399],[-2.527516242572545,38.654181219525327,904.8517],[-2.5782364574162671,38.694037176556549,879.3945],[-2.655690070697545,38.723578192181634,1000.8479],[-2.69920813710371,38.731268621869106,995.1718],[-2.745716926166295,38.732733465619134,980.4994],[-2.8374527660100171,38.730108953900327,952.3339],[-2.90776526600996,38.733832098431577,968.6538]]]}
,"properties": {"featurecla": "Range/mtn","name": "Sierra Morena","namealt": null,"region": "Europe","subregion": null,"min_label": 6.0,"max_label": 9.0,"scalerank": 4,"area_km2": 29398.09,"hist_schema_id": "Elevation0-9000","hist_area_km2": {"0": 3.08,"25": 33.37,"50": 115.52,"75": 200.41,"100": 260.29,"125": 301.13,"150": 348.79,"175": 360.14,"200": 393.71,"225": 428.28,"250": 464.9,"275": 500.3,"300": 546.54,"325": 583.84,"350": 726.63,"375": 709.25,"400": 715.28,"425": 771.22,"450": 926.12,"475": 1004.17,"500": 1123.6,"525": 1299.52,"550": 1543.69,"575": 1661.81,"600": 1558.33,"625": 1433.09,"650": 1508.74,"675": 1467.33,"700": 1259.16,"725": 1159.43,"750": 1008.5,"775": 861.06,"800": 761.11,"825": 673.32,"850": 591.26,"875": 415.89,"900": 294.23,"925": 242.23,"950": 196.98,"975": 160.58,"1000": 230.69,"1025": 103.49,"1050": 79.25,"1075": 66.01,"1100": 51.69,"1125": 45.06,"1150": 38.25,"1175": 33.14,"1200": 27.1,"1225": 23.08,"1250": 19.96,"1275": 15.72,"1300": 11.84,"1325": 9.81,"1350": 7.32,"1375": 5.56,"1400": 3.64,"1425": 3.02,"1450": 2.33,"1475": 1.71,"1500": 1.38,"1525": 1.0,"1550": 0.91,"1575": 0.73,"1600": 0.71,"1625": 0.48,"1650": 0.46,"1675": 0.48,"1700": 0.23}}}