{"type":"Feature","properties":{"featurecla":"Reservoir","scalerank":7,"name":"Embalse de Garcia  de Sola","name_abb":"Emb. de Garcia  de Sola","name_alt":null,"note":null,"delta":null,"dam_name":null,"year":1962,"admin":null,"min_zoom":5.7,"min_label":6.7},
"geometry":{"type": "Polygon","coordinates": [[[-5.087344015276301,39.287127641573193,493.2746],[-5.0649723416142933,39.272998163470874,414.9754],[-5.0649723416142933,39.2762361688693,417.0291],[-5.0640892492328931,39.280945994903419,418.1658],[-5.0554055074825044,39.28595018506465,422.7723],[-5.045544309223601,39.300079663166969,443.1729],[-5.0290599181042239,39.310088043489458,387.5999],[-5.0177268992096629,39.326278070481692,366.9548],[-5.0025671466623578,39.357186303830531,583.4384],[-5.0234669996887078,39.360129945101846,387.3718],[-5.05923224113522,39.30361203269257,455.6116],[-5.087344015276301,39.287127641573193,493.2746]]]}}