{"type":"Feature","properties":{"GID_3":"ESP.6.3.11_1","GID_0":"ESP","country":"Spain","GID_1":"ESP.6_1","province":"Cataluña","NL_NAME_1":"NA","GID_2":"ESP.6.3_1","county":"Lleida","NL_NAME_2":"NA","city":"n.a.(30)","VARNAME_3":"NA","NL_NAME_3":"NA","TYPE_3":"Comarca","ENGTYPE_3":"Comarca","CC_3":"NA","HASC_3":"NA","name":"n.a.(30).city"},
"geometry":{"type": "MultiPolygon","coordinates": [[[[1.4825,41.791,514.1057],[1.4793,41.8006,593.1522],[1.4762,41.8034,628.4159],[1.4711,41.801,629.0585],[1.4718,41.792,584.4885],[1.4696,41.7874,539.7468],[1.4735,41.7826,497.0857],[1.4698,41.7819,492.4908],[1.4693,41.7792,489.8071],[1.4611,41.7767,488.6285],[1.4671,41.7756,519.4376],[1.4683,41.771,558.3196],[1.4786,41.7737,528.3885],[1.4795,41.772,515.5448],[1.4839,41.772,519.0763],[1.4815,41.775,504.3184],[1.4877,41.7774,563.1423],[1.4825,41.791,514.1057]]]]}}