{"type":"Feature","properties":{"GID_3":"ESP.1.1.2_1","GID_0":"ESP","country":"Spain","GID_1":"ESP.1_1","province":"Andalucía","NL_NAME_1":"NA","GID_2":"ESP.1.1_1","county":"Almería","NL_NAME_2":"NA","city":"n.a.(16)","VARNAME_3":"NA","NL_NAME_3":"NA","TYPE_3":"Comarca","ENGTYPE_3":"Comarca","CC_3":"NA","HASC_3":"NA","name":"n.a.(16).city"},
"geometry":{"type": "MultiPolygon","coordinates": [[[[-2.2558,37.0026,1036.1699],[-2.2275,37.0086,876.7029],[-2.2109,37.0186,841.8396],[-2.2005,37.0098,713.3144],[-2.1915,37.0107,726.4938],[-2.1733,37.0082,652.5555],[-2.1443,37.0002,496.4329],[-2.101,36.9952,296.9097],[-2.0743,36.9998,247.6202],[-2.0655,36.9969,234.2995],[-2.0472,36.9814,210.4998],[-2.0408,36.9829,213.1874],[-2.019,36.9768,258.7894],[-2.0131,36.9821,240.6754],[-2.0037,36.9843,226.9953],[-1.9955,36.9974,137.5986],[-1.9937,37.003,148.4327],[-1.9957,37.008,160.251],[-1.9943,37.0153,173.4849],[-1.996,37.0163,181.4915],[-1.9934,37.0214,197.346],[-1.9895,37.0219,214.3683],[-1.989,37.0242,208.9281],[-1.9941,37.0305,292.7381],[-1.9961,37.0303,306.5071],[-1.9959,37.032,281.002],[-1.9936,37.0327,282.5188],[-1.9958,37.0368,297.9053],[-1.9935,37.0381,301.7773],[-2.0035,37.0652,426.7291],[-1.9979,37.069,474.174],[-1.9953,37.074,489.3336],[-1.9961,37.0828,533.8042],[-1.9968,37.0847,571.2526],[-2.0008,37.0867,549.815],[-1.9978,37.0898,572.0031],[-2.0002,37.0917,517.2169],[-1.9991,37.0936,515.7057],[-2.0014,37.0957,510.5937],[-2.0015,37.1044,402.8167],[-2.0052,37.1074,364.1555],[-2.0088,37.1194,167.4284],[-2.029,37.1342,331.6638],[-2.0383,37.1604,374.4011],[-2.0345,37.161,331.8455],[-2.031,37.1668,411.17],[-2.0313,37.173,487.3959],[-2.0274,37.1748,590.9868],[-2.0192,37.194,609.3036],[-2.0111,37.199,610.8162],[-2.0081,37.2085,602.9993],[-2.0037,37.2058,583.6984],[-1.9934,37.216,326.0496],[-1.9885,37.215,314.7079],[-1.9843,37.2256,319.7338],[-1.9827,37.2252,295.3546],[-1.9904,37.2368,304.6702],[-2.0089,37.2574,319.4495],[-2.0166,37.2596,337.7227],[-2.0208,37.2665,371.7995],[-2.0297,37.2695,424.6656],[-2.0318,37.276,532.2004],[-2.0291,37.279,507.833],[-2.032,37.2841,499.7565],[-2.04,37.2868,560.5048],[-2.0409,37.2896,577.0571],[-2.046,37.2881,587.4102],[-2.0501,37.2886,618.5132],[-2.0564,37.2905,670.4316],[-2.0605,37.2939,668.3467],[-2.0636,37.2933,640.5381],[-2.0705,37.2954,697.8056],[-2.0747,37.2954,680.9214],[-2.079,37.2921,618.5594],[-2.0812,37.2924,596.8469],[-2.0849,37.287,600.0272],[-2.0905,37.2854,574.7051],[-2.1073,37.2851,634.7141],[-2.1091,37.2828,614.3511],[-2.119,37.2802,678.1461],[-2.1206,37.2776,684.7025],[-2.1181,37.27,724.4764],[-2.1193,37.2678,770.6583],[-2.1218,37.267,778.8964],[-2.1354,37.251,838.3635],[-2.1365,37.2535,846.6685],[-2.1587,37.2577,795.4496],[-2.1781,37.2639,761.7438],[-2.1839,37.2673,613.0496],[-2.1967,37.2686,721.413],[-2.1996,37.2736,546.0572],[-2.1965,37.2778,521.2893],[-2.211,37.2783,781.6189],[-2.2144,37.2751,781.478],[-2.2184,37.2783,676.7562],[-2.222,37.2783,683.7665],[-2.2225,37.2764,680.6151],[-2.2207,37.2754,724.8976],[-2.2247,37.2732,729.0228],[-2.2267,37.2691,754.697],[-2.2279,37.2697,735.8564],[-2.2274,37.2668,765.0117],[-2.2299,37.266,782.5406],[-2.2308,37.2619,794.5457],[-2.2392,37.2661,927.2541],[-2.243,37.2716,955.5124],[-2.2495,37.2716,983.9563],[-2.2479,37.2633,869.9395],[-2.2565,37.2452,1205.9611],[-2.2632,37.2439,1133.6544],[-2.2677,37.2411,989.0385],[-2.2734,37.242,925.4794],[-2.2752,37.2476,1107.3394],[-2.2912,37.2583,1246.5691],[-2.2975,37.2655,1303.3354],[-2.2977,37.2714,1207.951],[-2.2941,37.2764,1083.9619],[-2.3087,37.2694,947.6672],[-2.3254,37.2656,1029.5393],[-2.3326,37.2659,1228.1709],[-2.3359,37.2613,1239.2014],[-2.3396,37.2592,1259.1628],[-2.3428,37.2532,1279.2468],[-2.3458,37.2547,1226.8759],[-2.3611,37.2541,1484.3391],[-2.361,37.2558,1465.7526],[-2.3661,37.2593,1529.8887],[-2.3657,37.2541,1599.1736],[-2.3684,37.25,1606.8982],[-2.39,37.2585,1432.8529],[-2.3939,37.2555,1504.375],[-2.3973,37.2572,1559.0752],[-2.4029,37.2646,1537.1666],[-2.4066,37.2459,1753.151],[-2.415,37.2367,1813.7019],[-2.4201,37.2251,1888.5945],[-2.427,37.2226,1917.7792],[-2.4362,37.2249,1928.3282],[-2.4385,37.2227,1913.5874],[-2.4505,37.22,1868.8511],[-2.4562,37.2163,1899.1943],[-2.4657,37.2176,1917.6875],[-2.4758,37.2128,1985.7633],[-2.5003,37.209,1964.96],[-2.5155,37.2118,1961.9895],[-2.5196,37.2149,1977.4724],[-2.5252,37.2147,2036.032],[-2.528,37.1964,1639.6124],[-2.5194,37.1781,1369.8916],[-2.5114,37.1668,1258.8973],[-2.5062,37.1628,1250.9731],[-2.5027,37.1631,1216.4783],[-2.4944,37.1577,1200.4807],[-2.4914,37.1506,1112.5601],[-2.4838,37.1416,965.0087],[-2.4847,37.1391,951.8017],[-2.4825,37.1334,822.3739],[-2.474,37.1309,775.6636],[-2.475,37.1288,747.4034],[-2.4734,37.128,700.7648],[-2.4648,37.1322,794.2048],[-2.4602,37.132,813.3232],[-2.4564,37.141,899.5108],[-2.4509,37.14,986.4152],[-2.448,37.1417,1023.9661],[-2.4434,37.129,1026.6766],[-2.4457,37.1229,943.4169],[-2.4586,37.109,784.2155],[-2.4644,37.0967,718.0142],[-2.4768,37.0879,556.9983],[-2.4803,37.0832,527.7881],[-2.4783,37.0795,505.98],[-2.4749,37.0779,508.9736],[-2.4748,37.0754,490.4899],[-2.4785,37.0711,479.4632],[-2.4788,37.0581,490.2992],[-2.4889,37.0606,466.5572],[-2.47,37.0466,454.8873],[-2.4484,37.0193,302.4395],[-2.4453,37.0098,244.0384],[-2.4266,37.0017,498.2295],[-2.4231,36.9967,548.1122],[-2.4187,36.9957,645.463],[-2.4087,36.989,914.8821],[-2.4018,36.9879,1081.5406],[-2.4004,36.9856,1127.7855],[-2.3841,36.988,1270.6631],[-2.3787,36.9863,1260.7595],[-2.3652,36.9871,1305.5107],[-2.3623,36.9896,1290.1628],[-2.3574,36.989,1323.1174],[-2.3536,36.9931,1268.8645],[-2.3478,36.9943,1269.675],[-2.3402,36.993,1262.6692],[-2.3277,36.9972,1220.0571],[-2.3208,36.9953,1289.7268],[-2.3106,37.0001,1289.7113],[-2.3034,36.9977,1357.0879],[-2.2995,36.993,1297.6958],[-2.2791,36.9891,869.8885],[-2.2558,37.0026,1036.1699]]]]}}