{"type":"Feature","properties":{"GID_3":"ESP.13.1.9_1","GID_0":"ESP","country":"Spain","GID_1":"ESP.13_1","province":"IslasBaleares","NL_NAME_1":"NA","GID_2":"ESP.13.1_1","county":"Baleares","NL_NAME_2":"NA","city":"n.a.(59)","VARNAME_3":"NA","NL_NAME_3":"NA","TYPE_3":"Comarca","ENGTYPE_3":"Comarca","CC_3":"NA","HASC_3":"NA","name":"n.a.(59).city"},
"geometry":{"type": "MultiPolygon","coordinates": [[[[3.0172,39.471,87.2269],[3.0227,39.4668,74.5698],[3.0304,39.4669,114.3568],[3.0511,39.4763,91.4582],[3.057,39.4723,90.3374],[3.0621,39.4745,85.6268],[3.079,39.4987,94.2331],[3.1032,39.4915,76.6418],[3.1091,39.4923,73.8143],[3.1116,39.4966,73.0213],[3.0882,39.5153,90.8136],[3.0982,39.5332,93.516],[3.1059,39.534,92.3741],[3.125,39.5291,71.4751],[3.1291,39.5423,62.883],[3.1381,39.538,76.4771],[3.1471,39.5442,70.0675],[3.1583,39.5459,99.7631],[3.1445,39.5688,60.7296],[3.1556,39.575,54.2547],[3.152,39.5798,51.8253],[3.1588,39.584,51.1592],[3.1493,39.5909,48.117],[3.1493,39.5946,47.5746],[3.1614,39.6001,138.1725],[3.1636,39.6168,147.0433],[3.1584,39.6187,48.242],[3.1607,39.6226,48.1536],[3.1575,39.627,185.9238],[3.1798,39.6537,140.3048],[3.1877,39.651,29.9837],[3.1961,39.6591,25.2228],[3.1975,39.6654,20.8917],[3.2041,39.6674,18.6875],[3.2098,39.6788,18.2136],[3.2287,39.668,127.5627],[3.2447,39.6758,192.6268],[3.2537,39.6832,172.2441],[3.2394,39.695,88.3239],[3.2362,39.6918,91.0604],[3.2327,39.6966,55.9837],[3.2241,39.698,14.089],[3.2146,39.6954,16.2102],[3.2132,39.6852,31.0352],[3.2015,39.6905,69.4441],[3.2025,39.6958,73.0229],[3.1994,39.6996,76.1472],[3.1778,39.6949,42.1345],[3.1721,39.6888,64.2377],[3.1556,39.6954,60.1738],[3.1405,39.6828,45.2441],[3.133,39.6837,55.0127],[3.1263,39.6782,53.126],[3.1118,39.6765,59.6478],[3.0856,39.6985,63.1251],[3.077,39.6968,58.3233],[3.0726,39.7021,68.818],[3.0409,39.7144,55.9178],[3.0443,39.7206,52.4082],[3.0295,39.7297,25.2362],[3.0259,39.7273,27.1782],[3.022,39.7394,30.4617],[3.0021,39.7298,39.1965],[2.9874,39.7346,51.01],[3.0016,39.7474,42.7164],[2.997,39.7507,47.7163],[3.0023,39.7751,24.7955],[3.0135,39.7833,16.7363],[3.0072,39.7813,19.8173],[2.9953,39.7833,26.5917],[2.9907,39.7874,55.5523],[2.9852,39.8007,277.7547],[3.0112,39.8158,203.9635],[2.9898,39.8338,371.5847],[2.9294,39.8127,550.8843],[2.9191,39.8162,468.9083],[2.9039,39.815,726.2781],[2.8781,39.8014,793.9321],[2.8696,39.7914,709.7485],[2.8518,39.7816,522.9271],[2.8438,39.7799,745.3236],[2.8421,39.7735,448.4877],[2.8214,39.765,524.124],[2.8138,39.7643,379.1426],[2.8048,39.7747,630.5717],[2.799,39.7729,810.1727],[2.8018,39.7687,727.6094],[2.7866,39.7521,499.9907],[2.791,39.7507,427.0183],[2.8013,39.7432,379.0019],[2.7729,39.7274,517.9507],[2.7636,39.7268,688.2065],[2.755,39.7177,498.57619999999997],[2.7413,39.7126,591.6344],[2.7315,39.6985,615.8842],[2.7364,39.6918,560.2339],[2.7331,39.6892,377.2422],[2.7369,39.6674,161.8626],[2.7408,39.6584,126.0853],[2.7254,39.6591,109.5252],[2.7073,39.6487,96.4219],[2.7011,39.6494,96.9029],[2.6675,39.6332,69.9071],[2.6899,39.5964,31.5387],[2.6871,39.584,23.3683],[2.6959,39.5862,24.9545],[2.7037,39.5821,23.5358],[2.7078,39.591,33.2647],[2.7391,39.6007,55.4001],[2.7755,39.6019,151.4357],[2.7778,39.6088,149.4813],[2.8,39.6132,226.6078],[2.8087,39.6105,190.1866],[2.8137,39.5993,121.0083],[2.8173,39.5952,103.0254],[2.818,39.5981,82.3995],[2.8208,39.5969,106.9691],[2.8251,39.6005,104.4976],[2.8281,39.597,122.3521],[2.8358,39.5977,95.436],[2.8397,39.5944,108.8024],[2.8429,39.584,139.9276],[2.8473,39.5786,162.2793],[2.8465,39.5698,152.2901],[2.8355,39.5696,144.4305],[2.8383,39.5607,144.8738],[2.8308,39.5511,144.5937],[2.8643,39.5319,205.3508],[2.9028,39.5185,256.9023],[2.9106,39.5206,271.7006],[2.9204,39.5167,361.2554],[2.9294,39.5193,361.319],[2.9326,39.5254,492.9944],[2.9436,39.5302,289.7137],[2.9646,39.5243,288.6481],[2.9749,39.5182,248.0139],[2.9625,39.505,216.1548],[2.9674,39.5007,178.1439],[2.9642,39.4968,167.5695],[2.9765,39.4935,190.559],[2.9698,39.4836,134.6085],[2.9581,39.4803,242.2178],[2.9627,39.4624,89.8317],[2.9881,39.4602,80.3709],[2.9973,39.4649,77.7665],[3.0053,39.4612,69.5466],[3.0172,39.471,87.2269]]]]}}