{"type":"Feature","properties":{"GID_3":"ESP.18.1.9_1","GID_0":"ESP","country":"Spain","GID_1":"ESP.18_1","province":"RegióndeMurcia","NL_NAME_1":"NA","GID_2":"ESP.18.1_1","county":"Murcia","NL_NAME_2":"NA","city":"RioMua","VARNAME_3":"NA","NL_NAME_3":"NA","TYPE_3":"Comarca","ENGTYPE_3":"Comarca","CC_3":"NA","HASC_3":"NA","name":"Rio_Mua.city"},
"geometry":{"type": "MultiPolygon","coordinates": [[[[-1.675,37.8985,1066.0521],[-1.6795,37.8807,892.9171],[-1.6652,37.8641,723.3715],[-1.6539,37.8603,858.0433],[-1.6416,37.8673,745.3109],[-1.612,37.8887,885.5552],[-1.6011,37.8936,1088.1523],[-1.5884,37.8965,1183.7723],[-1.5751,37.8942,1114.3306],[-1.5648,37.8871,1144.7909],[-1.5612,37.8867,1237.16],[-1.5574,37.8887,1306.5729],[-1.5478,37.8858,1232.0543],[-1.535,37.8853,1169.6372],[-1.5323,37.888,1103.389],[-1.5279,37.8889,1081.095],[-1.5039,37.8874,734.9171],[-1.4973,37.8886,665.1642],[-1.4807,37.8956,518.2994],[-1.4654,37.8993,482.6569],[-1.4106,37.906,368.7356],[-1.3922,37.9174,310.3763],[-1.3832,37.9192,282.0832],[-1.3703,37.9281,375.6628],[-1.3723,37.933,347.3769],[-1.382,37.9397,383.0294],[-1.3848,37.9475,400.4342],[-1.3839,37.9502,401.8904],[-1.3789,37.9489,356.5859],[-1.3772,37.9511,355.1163],[-1.3712,37.9509,370.7373],[-1.367,37.9586,351.5678],[-1.3628,37.9559,367.0421],[-1.3583,37.96,331.658],[-1.3602,37.9672,273.7031],[-1.3609,37.9953,274.4908],[-1.3519,38.0088,268.1542],[-1.3501,38.0179,291.5452],[-1.3183,38.0293,145.0395],[-1.3124,38.0245,200.6285],[-1.312,38.0271,207.0149],[-1.3007,38.0359,183.6107],[-1.3023,38.042,115.5469],[-1.3058,38.0439,120.6025],[-1.3038,38.0462,127.9064],[-1.3124,38.0562,189.5627],[-1.3191,38.0608,163.9333],[-1.331,38.0613,182.0688],[-1.3327,38.0601,187.2609],[-1.3528,38.0662,220.4815],[-1.3597,38.07,236.3236],[-1.3859,38.0764,320.136],[-1.386,38.0807,330.0783],[-1.3948,38.0873,374.063],[-1.3962,38.0905,374.7308],[-1.3945,38.0985,467.0637],[-1.3975,38.0993,472.2407],[-1.4003,38.1025,423.34],[-1.413,38.1037,384.8926],[-1.4344,38.1135,490.1488],[-1.4623,38.1165,771.213],[-1.4778,38.1149,709.6667],[-1.4799,38.1181,739.3163],[-1.4857,38.117,759.1934],[-1.4912,38.1206,606.4537],[-1.5062,38.143,528.2009],[-1.5164,38.1627,445.0799],[-1.5272,38.1649,426.403],[-1.5522,38.1664,405.9148],[-1.5533,38.1684,403.6977],[-1.5672,38.174,397.7859],[-1.57,38.1781,392.4099],[-1.5826,38.1818,367.4417],[-1.5894,38.1817,348.9223],[-1.586,38.1858,356.5734],[-1.5893,38.19,385.2968],[-1.6161,38.1758,340.5441],[-1.6326,38.1635,413.2369],[-1.6256,38.0897,674.0883],[-1.6151,38.0564,569.0489],[-1.6183,38.0545,563.1503],[-1.6194,38.0485,556.524],[-1.6248,38.0391,536.4182],[-1.6314,38.0346,563.4482],[-1.6616,38.0016,654.9186],[-1.6633,37.9955,683.2109],[-1.6728,37.9904,852.7534],[-1.672,37.988,854.548],[-1.7026,37.9739,819.5463],[-1.7218,37.9595,859.5402],[-1.7244,37.9545,874.4564],[-1.7296,37.9525,898.8655],[-1.733,37.9492,891.0986],[-1.7204,37.9408,1062.701],[-1.7201,37.9385,1222.9314],[-1.7115,37.9306,1232.7771],[-1.7056,37.9286,1361.7844],[-1.6993,37.9225,1463.6873],[-1.6911,37.9091,1130.5615],[-1.675,37.8985,1066.0521]]]]}}