{"type": "Feature","bbox": [1.8609,41.4151,2.2249,41.7173],"geometry": {"type": "MultiPolygon","coordinates": [[[[2.135,41.4476,337.7552],[2.1524,41.4472,267.2966],[2.1561,41.4503,257.9351],[2.1642,41.4499,271.3667],[2.1659,41.4586,162.849],[2.1746,41.4636,81.0354],[2.1804,41.4646,42.318],[2.1787,41.468,51.815],[2.187,41.4675,25.8406],[2.1891,41.4707,28.3772],[2.2,41.4733,167.1562],[2.2057,41.4705,252.4153],[2.2137,41.4718,244.8683],[2.2178,41.4778,231.7882],[2.2119,41.4804,132.1381],[2.2153,41.483,166.6204],[2.2157,41.4871,303.3182],[2.2249,41.4923,438.6124],[2.2233,41.4958,395.092],[2.2107,41.4989,163.8497],[2.204,41.5036,43.2616],[2.2111,41.5136,53.3616],[2.2155,41.5239,55.1173],[2.2072,41.5265,54.678],[2.2064,41.5282,58.8141],[2.2079,41.5294,53.0313],[2.2052,41.5304,64.4921],[2.201,41.5368,94.2249],[2.1989,41.5448,96.3018],[2.1939,41.5469,111.9854],[2.1875,41.5661,131.8368],[2.1933,41.5675,105.4291],[2.197,41.5716,120.6188],[2.1966,41.575,147.6234],[2.2028,41.5757,146.694],[2.1955,41.5908,181.2036],[2.1889,41.5983,184.3341],[2.1856,41.6122,219.4544],[2.191,41.6119,190.4812],[2.1919,41.6143,218.0635],[2.199,41.6153,197.8315],[2.1984,41.6281,234.0793],[2.2038,41.6294,223.5378],[2.2034,41.6345,249.4377],[2.1794,41.6584,411.0157],[2.168,41.659,402.4975],[2.1641,41.6578,342.2269],[2.1649,41.6771,459.9654],[2.1591,41.6786,415.6584],[2.1531,41.6777,405.7679],[2.1384,41.6898,414.6881],[2.1397,41.6928,450.5449],[2.1376,41.6986,480.8576],[2.135,41.6999,478.4921],[2.133,41.7155,807.1437],[2.125,41.7126,739.0909],[2.1104,41.7173,939.4453],[2.1074,41.7143,928.636],[2.0997,41.7148,920.3854],[2.0971,41.709,915.2892],[2.0871,41.7079,860.3222],[2.0847,41.7109,846.5936],[2.077,41.7099,785.606],[2.0661,41.7141,735.2438],[2.0647,41.7119,686.3905],[2.0485,41.7109,653.8915],[2.0384,41.717,642.6302],[2.0327,41.7166,631.9309],[2.0288,41.7109,651.2799],[2.0201,41.7053,653.4633],[2.0221,41.699,693.923],[2.0203,41.6968,747.4135],[2.013,41.6921,724.7621],[2.0095,41.6924,782.0087],[2.0095,41.6864,805.8567],[2.0131,41.6805,841.043],[2.0105,41.6783,790.6194],[2.0062,41.6781,923.7881],[2.0046,41.6758,993.6675],[2.0109,41.6658,995.6235],[2.0105,41.6582,1008.5375],[2.0053,41.6547,952.266],[1.9898,41.6543,865.9004],[1.9825,41.6483,702.8328],[1.9716,41.6488,869.0496],[1.9616,41.6443,699.4114],[1.9572,41.6465,662.5463],[1.9585,41.6416,753.824],[1.9556,41.6434,703.2515],[1.9444,41.6356,485.511],[1.9418,41.6244,556.9482],[1.9358,41.6253,517.9593],[1.9299,41.623,467.5675],[1.9202,41.6288,425.3484],[1.9157,41.6281,428.792],[1.9087,41.6302,356.2455],[1.9014,41.6261,310.4244],[1.8901,41.615,231.0303],[1.8735,41.6125,168.411],[1.8646,41.6182,171.8785],[1.8629,41.6168,186.1136],[1.8609,41.6064,297.975],[1.864,41.5981,342.0031],[1.8634,41.5924,426.3698],[1.8675,41.5909,391.6105],[1.8685,41.589,431.4816],[1.8765,41.59,471.6176],[1.8825,41.5859,488.0447],[1.8865,41.5861,484.3305],[1.8909,41.5813,428.127],[1.8847,41.579,351.6169],[1.9092,41.5708,522.6481],[1.9204,41.5715,286.7553],[1.9202,41.57,281.5336],[1.9235,41.5678,273.9842],[1.9205,41.5643,266.2651],[1.9222,41.5637,255.9365],[1.9204,41.5621,255.3184],[1.9224,41.5598,226.0003],[1.9186,41.5568,252.9795],[1.9242,41.5554,215.0844],[1.9277,41.5525,201.6129],[1.9256,41.551,200.334],[1.9293,41.5481,210.6873],[1.9297,41.5441,187.8001],[1.9324,41.5419,164.2527],[1.9322,41.5367,156.7085],[1.9388,41.5285,127.2129],[1.949,41.5256,262.7168],[1.9512,41.5228,272.5293],[1.9512,41.5103,194.1892],[1.9367,41.5095,93.7809],[1.9372,41.5077,95.8236],[1.9407,41.507,156.929],[1.9584,41.5109,222.6485],[1.961,41.5132,247.2908],[1.9692,41.5119,242.6112],[1.9742,41.5198,272.8323],[1.9785,41.5232,282.618],[1.9812,41.5157,254.1554],[1.9851,41.5147,209.7423],[1.9859,41.5126,203.2001],[1.988,41.4943,140.8054],[1.991,41.4867,139.9321],[1.996,41.4843,144.1257],[1.998,41.4729,110.4474],[2.0028,41.4732,82.1069],[2.0058,41.4687,77.9496],[2.0055,41.4631,65.798],[1.9997,41.4601,50.9985],[2.0103,41.4566,129.4684],[2.0156,41.4589,97.7112],[2.0228,41.4577,172.6883],[2.0234,41.4509,263.2563],[2.0271,41.4468,234.3275],[2.0309,41.4459,225.6935],[2.0328,41.4417,259.8347],[2.0468,41.445,230.5797],[2.0614,41.445,216.676],[2.0642,41.4423,185.7184],[2.0618,41.4376,143.8966],[2.0597,41.4379,142.4941],[2.0595,41.4354,216.9884],[2.0631,41.4335,231.2342],[2.0643,41.4303,269.0478],[2.0676,41.4296,185.9937],[2.0669,41.4265,245.0396],[2.0696,41.4251,275.3338],[2.0709,41.4186,384.1958],[2.0785,41.4151,425.6185],[2.0788,41.419,309.9321],[2.0773,41.4188,309.9321],[2.0751,41.4222,268.0575],[2.08,41.423,380.3372],[2.0802,41.4242,376.6414],[2.0727,41.4251,239.2348],[2.0732,41.4276,218.7229],[2.0766,41.4286,289.9436],[2.0723,41.4312,274.8401],[2.0712,41.4359,188.7064],[2.0731,41.4364,188.7064],[2.0751,41.4332,226.0777],[2.0805,41.4306,185.8873],[2.0822,41.4319,193.6674],[2.0882,41.4282,211.256],[2.096,41.4334,349.4939],[2.1032,41.4283,399.3644],[2.1132,41.4287,444.2899],[2.1195,41.4257,469.8296],[2.1279,41.4337,420.9034],[2.1299,41.4431,409.799],[2.135,41.4476,337.7552]]]]}
,"properties": {"GID_3": "ESP.6.1.10_1","GID_0": "ESP","country": "Spain","GID_1": "ESP.6_1","province": "Cataluña","NL_NAME_1": "NA","GID_2": "ESP.6.1_1","county": "Barcelona","NL_NAME_2": "NA","city": "n.a.(36)","VARNAME_3": "NA","NL_NAME_3": "NA","TYPE_3": "Comarca","ENGTYPE_3": "Comarca","CC_3": "NA","HASC_3": "NA","name": "n.a.(36).city","area_km2": 573.534,"hist_schema_id": "Elevation0-9000","hist_area_km2": {"25": 1.3978,"50": 13.5451,"75": 17.101,"100": 27.5483,"125": 36.217,"150": 41.9926,"175": 38.0146,"200": 36.1994,"225": 36.8284,"250": 36.6032,"275": 32.03,"300": 27.4576,"325": 22.4418,"350": 19.2511,"375": 15.6338,"400": 12.6193,"425": 11.7929,"450": 11.2687,"475": 12.7245,"500": 15.4163,"525": 16.4295,"550": 15.5888,"575": 15.1446,"600": 13.2587,"625": 10.3594,"650": 7.4132999999999996,"675": 5.0847,"700": 4.2294,"725": 3.4215,"750": 2.9463,"775": 2.5979,"800": 1.9327,"825": 1.5838,"850": 1.8374,"875": 1.5362,"900": 1.2353,"925": 0.9028,"950": 0.6019,"975": 0.5703,"1000": 0.396,"1025": 0.2218,"1050": 0.0634,"1075": 0.0951}}}