{"type":"Feature","properties":{"GID_3":"ESP.18.1.11_1","GID_0":"ESP","country":"Spain","GID_1":"ESP.18_1","province":"RegióndeMurcia","NL_NAME_1":"NA","GID_2":"ESP.18.1_1","county":"Murcia","NL_NAME_2":"NA","city":"VegaAlta","VARNAME_3":"NA","NL_NAME_3":"NA","TYPE_3":"Comarca","ENGTYPE_3":"Comarca","CC_3":"NA","HASC_3":"NA","name":"Vega_Alta.city"},
"geometry":{"type": "MultiPolygon","coordinates": [[[[-1.3356,38.1607,371.4977],[-1.3298,38.1761,492.0401],[-1.3194,38.177,320.6832],[-1.2535,38.2003,265.5453],[-1.237,38.1985,285.0301],[-1.2337,38.2114,313.7084],[-1.2193,38.2239,391.3055],[-1.2206,38.2376,589.8462],[-1.2131,38.2717,769.6703],[-1.2107,38.2772,794.9467],[-1.1975,38.2893,650.6485],[-1.2034,38.293,606.8046],[-1.2103,38.3009,540.3385],[-1.2165,38.3019,528.1508],[-1.2187,38.3047,528.0918],[-1.2358,38.3068,445.9053],[-1.2534,38.3203,375.6885],[-1.2588,38.3172,371.7057],[-1.2679,38.3162,357.5641],[-1.2835,38.32,342.7545],[-1.2889,38.3186,341.6642],[-1.2953,38.3142,331.074],[-1.2995,38.3158,326.4986],[-1.3052,38.3153,326.6888],[-1.312,38.3119,321.2195],[-1.3186,38.3132,314.7842],[-1.3254,38.3187,336.2843],[-1.3538,38.3345,467.307],[-1.3859,38.3439,561.5854],[-1.4295,38.3615,356.6382],[-1.4503,38.3727,362.6337],[-1.4783,38.3764,571.0052],[-1.517,38.3575,421.9221],[-1.5208,38.3538,433.1827],[-1.5351,38.3459,366.9283],[-1.5375,38.3459,390.769],[-1.542,38.3427,450.2763],[-1.5483,38.3327,486.449],[-1.5618,38.3241,466.4893],[-1.5893,38.3112,631.8931],[-1.595,38.3051,540.9565],[-1.5844,38.2765,295.8097],[-1.5789,38.222,578.4124],[-1.5893,38.19,385.2968],[-1.586,38.1858,356.5734],[-1.5894,38.1817,348.9223],[-1.5826,38.1818,367.4417],[-1.57,38.1781,392.4099],[-1.5672,38.174,397.7859],[-1.5533,38.1684,403.6977],[-1.5522,38.1664,405.9148],[-1.5272,38.1649,426.403],[-1.5157,38.1615,443.7516],[-1.5014,38.1847,512.6994],[-1.4703,38.1953,920.137],[-1.469,38.1941,897.2377],[-1.4668,38.195,852.2448],[-1.4662,38.1836,467.9083],[-1.4479,38.1728,358.713],[-1.4344,38.1712,348.326],[-1.4252,38.1722,410.694],[-1.4046,38.1793,260.7931],[-1.3885,38.1825,173.2335],[-1.3876,38.1775,203.7536],[-1.383,38.1758,199.3962],[-1.3794,38.1765,187.6352],[-1.3783,38.1737,193.1999],[-1.3687,38.166,248.4294],[-1.3569,38.1644,160.9504],[-1.3471,38.1604,252.8578],[-1.3356,38.1607,371.4977]]]]}}