{"type": "Feature","bbox": [-4.9417,39.3683,-4.7404,39.5562],"geometry": {"type": "MultiPolygon","coordinates": [[[[-4.7438,39.4894,561.9543],[-4.7511,39.4988,639.0754],[-4.7513,39.5014,661.8315],[-4.7624,39.514,684.275],[-4.7797,39.5201,661.7924],[-4.7859,39.5253,772.936],[-4.8109,39.5298,890.8701],[-4.848,39.5521,1187.0812],[-4.863,39.5562,1039.5039],[-4.8721,39.544,716.6077],[-4.8796,39.5384,673.4034],[-4.8888,39.5266,620.8654],[-4.8915,39.5191,586.1489],[-4.8981,39.5121,671.5953],[-4.8992,39.5063,632.1443],[-4.9029,39.5037,598.4019],[-4.9081,39.4937,508.6119],[-4.9108,39.4862,554.6116],[-4.9109,39.4792,631.208],[-4.9268,39.4338,571.3632],[-4.9417,39.4012,418.0],[-4.9406,39.3951,418.0],[-4.9338,39.3954,418.0],[-4.932,39.388,418.0],[-4.9214,39.3875,418.0],[-4.9123,39.38,418.0],[-4.9091,39.3785,418.0],[-4.9057,39.3798,418.0],[-4.903,39.3788,418.0],[-4.903,39.3752,418.0],[-4.9006,39.3742,418.0],[-4.8865,39.3706,418.0],[-4.882,39.3729,418.0],[-4.8765,39.3718,418.5],[-4.8708,39.3683,418.5],[-4.8681,39.375,418.5],[-4.8633,39.375,424.0098],[-4.8612,39.3793,426.1352],[-4.8564,39.381,438.2035],[-4.8555,39.3789,433.2602],[-4.8531,39.3791,430.5041],[-4.8492,39.3816,438.0605],[-4.8463,39.3791,442.2804],[-4.8445,39.3796,440.3058],[-4.8319,39.3894,452.9056],[-4.8133,39.3944,475.0079],[-4.8106,39.3965,472.6391],[-4.7958,39.3969,496.1031],[-4.7887,39.3988,490.2848],[-4.7756,39.3969,527.4361],[-4.7639,39.4051,525.8527],[-4.7553,39.4157,526.4087],[-4.7565,39.4197,543.0168],[-4.7536,39.4254,577.5035],[-4.7661,39.4239,546.9922],[-4.7678,39.429,581.9656],[-4.7672,39.433,621.9041],[-4.7521,39.4486,636.3834],[-4.7435,39.4523,651.8541],[-4.7404,39.4562,655.5178],[-4.7498,39.4684,643.4817],[-4.7458,39.4726,660.8276],[-4.747,39.4753,623.1555],[-4.7427,39.4876,561.944],[-4.7438,39.4894,561.9543]]]]}
,"properties": {"GID_3": "ESP.4.2.6_1","GID_0": "ESP","country": "Spain","GID_1": "ESP.4_1","province": "Castilla-LaMancha","NL_NAME_1": "NA","GID_2": "ESP.4.2_1","county": "CiudadReal","NL_NAME_2": "NA","city": "n.a.(84)","VARNAME_3": "NA","NL_NAME_3": "NA","TYPE_3": "Comarca","ENGTYPE_3": "Comarca","CC_3": "NA","HASC_3": "NA","name": "n.a.(84).city","area_km2": 230.5909,"hist_schema_id": "Elevation0-9000","hist_area_km2": {"425": 7.7178,"450": 9.9286,"475": 20.1499,"500": 21.5052,"525": 23.5298,"550": 24.1481,"575": 24.1929,"600": 29.4455,"625": 29.5873,"650": 17.6544,"675": 6.1335,"700": 3.876,"725": 2.4694,"750": 1.7989,"775": 1.5209,"800": 0.883,"825": 0.8994,"850": 0.7522,"875": 0.5069,"900": 0.4578,"925": 0.4742,"950": 0.3597,"975": 0.3434,"1000": 0.3106,"1025": 0.327,"1050": 0.2779,"1075": 0.2616,"1100": 0.2616,"1125": 0.1798,"1150": 0.1962,"1175": 0.3106,"1200": 0.0981,"1225": 0.0327}}}