{"type":"Feature","properties":{"GID_3":"ESP.5.3.5_1","GID_0":"ESP","country":"Spain","GID_1":"ESP.5_1","province":"CastillayLeón","NL_NAME_1":"NA","GID_2":"ESP.5.3_1","county":"León","NL_NAME_2":"NA","city":"n.a.(152)","VARNAME_3":"NA","NL_NAME_3":"NA","TYPE_3":"Comarca","ENGTYPE_3":"Comarca","CC_3":"NA","HASC_3":"NA","name":"n.a.(152).city"},
"geometry":{"type": "MultiPolygon","coordinates": [[[[-5.8328,42.7707,1150.0554],[-5.827,42.7719,1208.0245],[-5.8133,42.7699,1192.0579],[-5.7929,42.7627,1099.5383],[-5.782,42.7646,960.0],[-5.7774,42.7601,962.7225],[-5.7783,42.7547,960.0],[-5.7759,42.7544,964.3527],[-5.7682,42.7603,1135.7869],[-5.7495,42.762,1186.9569],[-5.7495,42.756,1182.0974],[-5.7391,42.7337,1144.5643],[-5.7265,42.7327,1132.4773],[-5.7203,42.746,1166.4204],[-5.7213,42.7663,1276.7404],[-5.7241,42.7739,1294.5449],[-5.7146,42.7797,1290.9806],[-5.7075,42.7818,1268.4624],[-5.6987,42.7803,1214.412],[-5.6869,42.7846,1202.5183],[-5.6723,42.7749,1067.9309],[-5.6681,42.7755,1120.5096],[-5.6638,42.7716,1094.0948],[-5.6586,42.7714,1074.9843],[-5.6585,42.7726,1100.9596],[-5.6468,42.7762,1002.7352],[-5.6405,42.7746,931.3193],[-5.6341,42.7819,940.2197],[-5.6351,42.7775,948.5795],[-5.6193,42.7737,1158.5822],[-5.6102,42.7654,1155.3885],[-5.6017,42.7659,1160.0942],[-5.5786,42.7718,1092.7739],[-5.5672,42.7722,1051.4821],[-5.5622,42.7761,1089.2421],[-5.5615,42.7798,1102.3848],[-5.5472,42.7813,1054.3873],[-5.5352,42.7956,1054.5562],[-5.5255,42.8029,1107.4791],[-5.5275,42.8086,1155.2012],[-5.534,42.8134,1172.7654],[-5.5436,42.8275,1035.5154],[-5.5549,42.8391,1226.7361],[-5.5605,42.8405,1246.5708],[-5.5742,42.8405,1293.7983],[-5.5774,42.8477,1329.2849],[-5.5773,42.8548,1375.4559],[-5.583,42.8588,1428.1053],[-5.5879,42.8598,1454.5264],[-5.5913,42.8579,1483.0857],[-5.595,42.8617,1311.9293],[-5.5955,42.8665,1299.1365],[-5.59,42.8706,1463.6284],[-5.5897,42.8735,1480.9558],[-5.5926,42.8784,1532.6763],[-5.6122,42.8828,1258.7074],[-5.6134,42.8867,1202.2617],[-5.6168,42.8886,1334.3145],[-5.6114,42.8971,1558.2213],[-5.6075,42.8972,1592.2666],[-5.6058,42.904,1622.2128],[-5.6124,42.911,1601.062],[-5.6177,42.9138,1693.1663],[-5.6139,42.9176,1691.2749],[-5.6139,42.9291,1608.6049],[-5.6114,42.9319,1716.5408],[-5.6129,42.9348,1884.3475],[-5.6158,42.9354,1845.365],[-5.6115,42.9566,1352.042],[-5.6146,42.9593,1378.4144],[-5.6156,42.969,1804.9998],[-5.6224,42.9697,1888.0479],[-5.6256,42.9718,1891.2628],[-5.6208,42.9745,1833.5215],[-5.6207,42.9776,1786.9493],[-5.6259,42.9801,1800.1814],[-5.6193,42.9951,1960.7462],[-5.6429,43.0038,2129.6025],[-5.6436,43.007,2096.9822],[-5.6387,43.0104,2096.3267],[-5.637,43.0142,2030.8492],[-5.647,43.0279,2040.7103],[-5.6448,43.0294,1993.936],[-5.643,43.0378,2016.5704],[-5.6499,43.0447,2083.417],[-5.6589,43.0456,2067.9214],[-5.6717,43.0529,1984.0682],[-5.6735,43.052,1996.4403],[-5.6882,43.0568,1993.626],[-5.6932,43.0564,1860.5289],[-5.7008,43.0518,1733.1042],[-5.7165,43.0462,1748.8353],[-5.721,43.0429,1702.7705],[-5.7283,43.0425,1735.7783],[-5.7295,43.0374,1727.4478],[-5.7341,43.0341,1861.8057],[-5.7356,43.0232,1930.8021],[-5.74,43.0206,1999.673],[-5.7438,43.0207,1960.2144],[-5.7482,43.0172,1876.259],[-5.7509,43.0055,1690.9851],[-5.7587,42.9992,1401.4795],[-5.7593,42.9927,1385.7223],[-5.7664,42.986,1470.3107],[-5.7613,42.9738,1776.498],[-5.7628,42.9711,1774.8195],[-5.7655,42.9692,1709.2509],[-5.7799,42.967,1698.2112],[-5.7905,42.9679,1830.6454],[-5.8,42.9654,1822.0439],[-5.8039,42.9626,1850.3689],[-5.807,42.965,1801.8075],[-5.8242,42.9681,1751.3691],[-5.8394,42.9662,1861.4104],[-5.843,42.9642,1818.7606],[-5.8502,42.9674,1604.1171],[-5.8635,42.9789,1774.552],[-5.8638,42.9813,1807.0916],[-5.889,42.979,1807.0286],[-5.8919,42.985,1790.0969],[-5.8915,42.9894,1701.5029],[-5.8871,42.994,1840.6488],[-5.9065,42.99,1669.652],[-5.9145,42.9927,1817.2891],[-5.9129,42.9962,1696.7831],[-5.9195,43.0028,1686.1031],[-5.9251,43.0039,1798.1345],[-5.9253,43.006,1793.8431],[-5.9311,43.0059,1794.0854],[-5.9336,43.0108,1965.5458],[-5.9433,43.0129,1961.2814],[-5.9566,43.0186,2314.4824],[-5.961,43.0291,2239.4956],[-5.9701,43.0413,2178.4126],[-5.9677,43.0449,2076.0017],[-5.9706,43.0506,1944.7036],[-5.967,43.0583,2082.292],[-5.9698,43.0564,2025.6885],[-5.9713,43.0572,2038.5487],[-5.974,43.0649,2006.4441],[-5.9804,43.0642,2006.4895],[-5.9891,43.0678,1912.3051],[-5.9963,43.0597,1740.4587],[-6.0201,43.0548,1736.8303],[-6.0375,43.0632,1933.0271],[-6.0498,43.0656,1702.7107],[-6.0521,43.068,1766.1683],[-6.0622,43.0647,1828.8573],[-6.0672,43.0657,1800.4675],[-6.0818,43.0757,1901.0934],[-6.0848,43.0691,1808.7002],[-6.0917,43.0669,1997.821],[-6.0902,43.0598,1770.5066],[-6.0949,43.0488,1783.5062],[-6.0903,43.0439,1912.6062],[-6.0897,43.0381,1875.2756],[-6.0953,43.0339,1910.8176],[-6.0968,43.0306,2041.1427],[-6.1013,43.0319,1970.04],[-6.106,43.0293,1946.5189],[-6.1124,43.0294,2006.2687],[-6.1203,43.0242,2120.5327],[-6.1365,43.021,1998.4795],[-6.1483,43.0332,1980.021],[-6.1592,43.0355,1870.5579],[-6.1625,43.033,1945.9985],[-6.1673,43.0424,1853.0619],[-6.171,43.043,1999.2284],[-6.1783,43.0478,2000.8655],[-6.186,43.0495,1963.1649],[-6.1942,43.0428,1844.5786],[-6.2138,43.0466,1926.7186],[-6.2267,43.0089,1387.9392],[-6.2383,43.0143,1508.6549],[-6.2426,43.0135,1549.3529],[-6.2647,43.0171,1736.5399],[-6.2689,43.0214,1744.1157],[-6.2697,43.025,1806.7446],[-6.2735,43.0262,1832.6404],[-6.2851,43.0363,1871.8743],[-6.2902,43.0344,1839.4169],[-6.295,43.0269,1923.6527],[-6.3112,43.0288,1990.4825],[-6.3135,43.0313,2012.9891],[-6.3264,43.0313,2010.1213],[-6.3296,43.0425,1849.9021],[-6.333,43.0465,2001.9889],[-6.3381,43.0459,2046.6868],[-6.3406,43.0491,1943.1399],[-6.348,43.0497,1918.8783],[-6.3507999999999996,43.0531,1888.0956],[-6.3578,43.0566,1854.8677],[-6.359,43.0595,1850.8882],[-6.3633,43.0573,1860.1624],[-6.3619,43.0541,1786.9863],[-6.3644,43.0502,1793.7354],[-6.3739,43.0462,1902.7224],[-6.3734,43.0411,1866.5367],[-6.39,43.0405,1799.7169],[-6.3969,43.0383,1842.8726],[-6.3949,43.0326,1784.974],[-6.3916,43.0312,1783.3087],[-6.3907,43.0258,1650.5979],[-6.3942,43.0166,1654.8347],[-6.4022,43.0162,1704.833],[-6.4078,43.0185,1831.6232],[-6.411,43.0169,1842.0996],[-6.412,43.0086,1730.5327],[-6.4103,43.0016,1725.7067],[-6.4074,42.9995,1711.9341],[-6.4249,42.9876,1866.2771],[-6.4275,42.9876,1878.9846],[-6.437,42.993,1963.3763],[-6.4463,42.9821,1703.2599],[-6.4589,42.9836,1466.3584],[-6.4657,42.9863,1686.6038],[-6.4707,42.9916,1720.6899],[-6.4772,42.9919,1740.1925],[-6.4788,42.9897,1697.191],[-6.4781,42.9801,1512.5413],[-6.4723,42.9773,1559.1703],[-6.4745,42.9706,1609.7014],[-6.4729,42.9677,1766.4731],[-6.4684,42.9661,1718.4214],[-6.4622,42.9676,1688.9226],[-6.4516,42.9659,1562.9014],[-6.4422,42.9668,1467.6086],[-6.4335,42.9641,1447.8864],[-6.4415,42.9473,1587.8149],[-6.433,42.9397,1705.8169],[-6.4422,42.9393,1605.489],[-6.4511,42.9355,1676.311],[-6.4771,42.9339,1699.1093],[-6.486,42.929,1623.1045],[-6.4896,42.9202,1899.3064],[-6.4963,42.9215,1722.7349],[-6.5104,42.9287,1499.5906],[-6.5196,42.9258,1334.1975],[-6.5149,42.9155,1288.6838],[-6.5044,42.9041,1209.2639],[-6.5012,42.8882,1127.4167],[-6.5075,42.8607,982.1411],[-6.5107,42.8582,954.7223],[-6.516,42.8491,907.3384],[-6.5155,42.8433,879.4756],[-6.5107,42.8334,843.0397],[-6.5141,42.831,826.2609],[-6.5151,42.8275,803.239],[-6.5088,42.8195,762.0085],[-6.5071,42.8233,762.7391],[-6.5017,42.8249,771.3334],[-6.4998,42.8281,774.9349],[-6.4921,42.8308,801.8468],[-6.4882,42.8356,820.4349],[-6.4661,42.8355,1238.4635],[-6.4547,42.8427,1149.2021],[-6.4503,42.8386,1059.2194],[-6.4326,42.8396,941.0],[-6.4306,42.8367,941.0],[-6.4249,42.8366,956.9231],[-6.4271,42.8299,1138.2462],[-6.4104,42.8249,1447.4327],[-6.385,42.825,1635.2838],[-6.3573,42.8224,1864.1748],[-6.3531,42.8233,1805.9469],[-6.3498,42.829,2024.4165],[-6.3303,42.8272,1929.6122],[-6.3086,42.8171,1823.3813],[-6.306,42.8141,1950.6492],[-6.2973,42.8112,1872.3263],[-6.2975,42.8082,1831.3097],[-6.2852,42.7983,1958.5314],[-6.2762,42.7989,1906.6658],[-6.2748,42.8006,1780.3538],[-6.2663,42.8027,1497.391],[-6.2527,42.8007,1870.0417],[-6.2452,42.797,1914.0857],[-6.2405,42.7889,2011.3456],[-6.249,42.782,1903.9598],[-6.2503,42.7777,1838.7905],[-6.2479,42.7734,1754.0636],[-6.2453,42.7704,1767.0154],[-6.2369,42.7742,1458.8193],[-6.2342,42.7739,1475.5465],[-6.2301,42.7711,1389.1727],[-6.2213,42.7687,1231.7021],[-6.2191,42.7654,1196.6696],[-6.212,42.7625,1151.4427],[-6.2092,42.7542,1166.7371],[-6.195,42.7534,1252.1521],[-6.1662,42.7465,1636.9635],[-6.1525,42.7557,1653.6819],[-6.1471,42.7572,1701.0548],[-6.1239,42.7495,1555.5992],[-6.1139,42.75,1503.201],[-6.1133,42.7544,1531.3567],[-6.1042,42.7567,1557.9877],[-6.0937,42.7556,1565.7882],[-6.0713,42.7571,1534.4236],[-6.0285,42.7452,1434.4536],[-6.0196,42.7413,1356.5382],[-5.9746,42.74,1294.9495],[-5.9615,42.7372,1235.7795],[-5.9329,42.7252,985.7086],[-5.9158,42.7249,1017.8822],[-5.8855,42.7168,1059.8005],[-5.8819,42.7176,1129.7356],[-5.8771,42.7369,1143.8141],[-5.8734,42.7404,1149.4258],[-5.8763,42.7441,1108.1433],[-5.873,42.7469,1062.7013],[-5.8723,42.7588,1169.6857],[-5.8674,42.7632,1163.3341],[-5.8688,42.7685,1134.8734],[-5.8662,42.7693,1156.6534],[-5.8644,42.7734,1153.3519],[-5.8565,42.7717,1184.9731],[-5.8522,42.7727,1165.9276],[-5.8474,42.7698,1139.5702],[-5.8356,42.7722,1162.8459],[-5.8328,42.7707,1150.0554]]]]}}