{"type": "Feature","bbox": [-5.3456,42.1992,-5.2267,42.2867],"geometry": {"type": "MultiPolygon","coordinates": [[[[-5.3456,42.2197,810.41],[-5.3404,42.2163,801.4308],[-5.3355,42.2167,800.8091],[-5.3373,42.2135,798.5853],[-5.332,42.2086,795.6012],[-5.3267,42.2068,796.3387],[-5.3242,42.2082,794.7731],[-5.3172,42.2053,786.473],[-5.3115,42.1996,770.7248],[-5.3074,42.1992,774.5846],[-5.3063,42.2073,781.319],[-5.2997,42.2154,788.6802],[-5.2997,42.2198,791.3979],[-5.3018,42.2221,794.7188],[-5.2868,42.2299,795.4333],[-5.2766,42.2164,783.8022],[-5.2735,42.2162,779.5132],[-5.2655,42.2109,778.7492],[-5.257,42.2107,775.8709],[-5.2456,42.2147,753.6626],[-5.2414,42.2145,753.171],[-5.2339,42.2189,767.361],[-5.2309,42.2239,770.1419],[-5.2267,42.2251,766.9409],[-5.2277,42.2299,773.4023],[-5.2294,42.2313,774.0898],[-5.2355,42.2303,777.2122],[-5.2424,42.2317,781.9202],[-5.2446,42.2352,760.7726],[-5.2515,42.2361,765.3997],[-5.2539,42.2398,774.5696],[-5.2484,42.2454,767.2068],[-5.2459,42.2508,767.4139],[-5.2446,42.2639,784.0822],[-5.2504,42.2649,770.8656],[-5.259,42.2754,783.6508],[-5.2566,42.2792,794.9333],[-5.2593,42.2867,794.7836],[-5.2636,42.2801,794.8672],[-5.2785,42.2816,802.2534],[-5.2814,42.2788,805.1523],[-5.2849,42.2781,814.9069],[-5.2844,42.2756,816.052],[-5.2858,42.2751,814.6085],[-5.294,42.277,827.2078],[-5.2957,42.2701,825.8576],[-5.3016,42.2692,825.8297],[-5.3006,42.2653,824.8666],[-5.3038,42.2569,822.5377],[-5.3032,42.252,820.5264],[-5.306,42.2494,818.1835],[-5.3089,42.2521,820.261],[-5.3167,42.2495,820.8756],[-5.3163,42.2411,818.4724],[-5.3327,42.2387,809.2883],[-5.3361,42.2335,813.8574],[-5.3355,42.2308,813.3347],[-5.337,42.2308,813.5957],[-5.3456,42.2197,810.41]]]]}
,"properties": {"GID_3": "ESP.5.3.10_1","GID_0": "ESP","country": "Spain","GID_1": "ESP.5_1","province": "CastillayLeón","NL_NAME_1": "NA","GID_2": "ESP.5.3_1","county": "León","NL_NAME_2": "NA","city": "n.a.(157)","VARNAME_3": "NA","NL_NAME_3": "NA","TYPE_3": "Comarca","ENGTYPE_3": "Comarca","CC_3": "NA","HASC_3": "NA","name": "n.a.(157).city","area_km2": 44.12378,"hist_schema_id": "Elevation0-9000","hist_area_km2": {"750": 1.36596,"775": 10.70668,"800": 24.12582,"825": 7.92533}}}