{"type":"Feature","properties":{"GID_3":"ESP.5.3.11_1","GID_0":"ESP","country":"Spain","GID_1":"ESP.5_1","province":"CastillayLeón","NL_NAME_1":"NA","GID_2":"ESP.5.3_1","county":"León","NL_NAME_2":"NA","city":"n.a.(158)","VARNAME_3":"NA","NL_NAME_3":"NA","TYPE_3":"Comarca","ENGTYPE_3":"Comarca","CC_3":"NA","HASC_3":"NA","name":"n.a.(158).city"},
"geometry":{"type": "MultiPolygon","coordinates": [[[[-5.2412,42.2999,820.5855],[-5.2368,42.2939,818.5455],[-5.2538,42.2869,775.186],[-5.2565,42.2891,777.1891],[-5.2593,42.2867,794.7836],[-5.2566,42.2792,794.9333],[-5.259,42.2754,783.6508],[-5.2504,42.2649,770.8656],[-5.2446,42.2639,784.0822],[-5.2386,42.2662,792.8636],[-5.2353,42.2713,803.9449],[-5.2364,42.2733,804.053],[-5.2302,42.2756,805.9377],[-5.2313,42.2636,802.2031],[-5.2283,42.2624,802.4971],[-5.2224,42.2753,809.0382],[-5.2202,42.2779,810.0107],[-5.2166,42.278,801.3906],[-5.2002,42.2647,791.389],[-5.1978,42.2605,787.9568],[-5.1826,42.2642,788.2333],[-5.1834,42.268,790.8422],[-5.1781,42.2711,791.932],[-5.1641,42.2711,782.2034],[-5.156,42.2739,785.0955],[-5.156,42.2777,787.7707],[-5.1442,42.2815,787.1801],[-5.1261,42.301,796.4211],[-5.1232,42.3018,794.965],[-5.1195,42.3077,796.282],[-5.1137,42.3097,797.0814],[-5.1119,42.3118,797.1049],[-5.0936,42.3093,787.6616],[-5.0869,42.2975,778.8765],[-5.0861,42.2922,777.4081],[-5.0823,42.2937,777.3287],[-5.0778,42.2916,777.2057],[-5.0789,42.2897,776.8317],[-5.0753,42.285,787.4198],[-5.075,42.2789,793.0155],[-5.0718,42.2778,791.3748],[-5.0706,42.2791,787.2498],[-5.066,42.2762,777.2873],[-5.0621,42.2779,769.8891],[-5.0681,42.2612,765.8477],[-5.0547,42.2575,779.0336],[-5.0451,42.262,794.525],[-5.0415,42.2675,795.6959],[-5.0422,42.2715,791.9283],[-5.0388,42.2772,784.2004],[-5.0368,42.2891,786.5495],[-5.0414,42.2928,775.5366],[-5.0382,42.2971,777.7754],[-5.002,42.2891,828.8099],[-4.9947,42.2931,829.5458],[-4.9898,42.2918,827.8168],[-4.9866,42.2938,825.6184],[-4.9734,42.2887,810.6291],[-4.9702,42.2921,816.6555],[-4.9533,42.2971,814.9155],[-4.9505,42.3084,825.5775],[-4.9479,42.3109,834.0747],[-4.947,42.3164,843.0543],[-4.9491,42.3188,840.7189],[-4.9423,42.3275,849.6765],[-4.9406,42.3356,852.1078],[-4.9424,42.3465,851.8634],[-4.9528,42.3466,831.1151],[-4.9541,42.3442,825.7133],[-4.982,42.3377,847.8992],[-4.9841,42.3379,851.0146],[-4.9834,42.3424,851.2249],[-4.977,42.349,861.8028],[-4.9776,42.3555,859.7307],[-4.9716,42.3678,866.3049],[-4.9724,42.3744,864.719],[-4.9699,42.3748,863.9075],[-4.9687,42.3773,865.8455],[-4.9644,42.3797,863.0449],[-4.9612,42.3761,856.9902],[-4.9447,42.3764,876.3431],[-4.9455,42.3777,869.2605],[-4.9432,42.3793,862.0131],[-4.9462,42.3814,854.4572],[-4.9361,42.3821,873.6522],[-4.9332,42.3848,882.8658],[-4.9113,42.3815,883.8193],[-4.9031,42.3865,900.1144],[-4.9111,42.3923,919.7783],[-4.9083,42.3969,891.4816],[-4.9142,42.4012,894.2491],[-4.9125,42.4046,924.4858],[-4.9147,42.4144,922.484],[-4.906,42.4203,932.845],[-4.9049,42.4245,934.8781],[-4.9086,42.4284,938.0803],[-4.9098,42.4339,941.8022],[-4.9239,42.4361,918.3406],[-4.9134,42.4413,951.1389],[-4.9055,42.4492,942.7476],[-4.8999,42.4507,938.1873],[-4.8878,42.5089,984.6711],[-4.8902,42.509,983.1871],[-4.8911,42.5182,985.5154],[-4.8879,42.537,995.3733],[-4.9098,42.5412,982.2842],[-4.9144,42.5447,991.8278],[-4.9151,42.5602,999.9456],[-4.9024,42.5779,1011.9756],[-4.901,42.5947,1029.2526],[-4.9047,42.5991,1035.7045],[-4.9047,42.6031,1037.6034],[-4.8946,42.6238,1057.6337],[-4.8983,42.6356,1071.3823],[-4.8961,42.6557,1094.1998],[-4.9003,42.6692,1061.8069],[-4.8905,42.6928,1088.7303],[-4.886,42.6954,1112.0957],[-4.8799,42.704,1116.7921],[-4.8716,42.708,1130.429],[-4.8837,42.7126,1137.1912],[-4.8848,42.7181,1146.9425],[-4.8912,42.7234,1145.0532],[-4.8972,42.7243,1152.0811],[-4.9109,42.7188,1128.8026],[-4.9353,42.6895,1105.7417],[-4.9409,42.6798,1090.8081],[-4.9566,42.6695,1076.0078],[-4.9647,42.6535,1025.6879],[-4.9703,42.6481,1036.1923],[-4.9832,42.6429,1036.5187],[-4.9867,42.638,1000.9711],[-4.9865,42.6342,992.3401],[-4.9984,42.6261,963.4613],[-5.0066,42.6172,955.368],[-5.0094,42.6121,931.3854],[-5.0054,42.6019,948.509],[-5.024,42.5911,921.873],[-5.033,42.5924,875.1082],[-5.0481,42.601,881.5986],[-5.056,42.6025,904.8967],[-5.0659,42.6005,918.2627],[-5.0664,42.5975,915.2988],[-5.0619,42.5873,916.2939],[-5.0479,42.5815,875.7072],[-5.0452,42.5765,871.9389],[-5.0511,42.5721,865.3414],[-5.0463,42.5677,864.0183],[-5.0466,42.563,863.3434],[-5.0524,42.5576,863.7656],[-5.0613,42.557,872.2157],[-5.0621,42.555,871.4938],[-5.0726,42.5533,891.213],[-5.0788,42.5538,899.2358],[-5.0951,42.5624,924.8198],[-5.1049,42.5541,926.7172],[-5.0912,42.5416,929.908],[-5.086,42.531,924.3791],[-5.0811,42.5267,915.2463],[-5.0902,42.5279,912.5121],[-5.101,42.5261,924.5304],[-5.1127,42.5343,933.7866],[-5.1159,42.5389,928.8484],[-5.1228,42.5589,975.1384],[-5.1281,42.5562,946.6868],[-5.1362,42.5581,972.8118],[-5.1372,42.5616,982.6246],[-5.156,42.5546,953.9991],[-5.1573,42.556399999999996,957.3914],[-5.1641,42.5493,957.6772],[-5.1756,42.5426,946.7198],[-5.1853,42.5294,929.4001],[-5.2097,42.5111,913.2682],[-5.2157,42.511,908.6487],[-5.2234,42.5052,904.4604],[-5.2247,42.5008,901.7064],[-5.2329,42.4965,897.9343],[-5.2311,42.4869,894.4707],[-5.235,42.4766,888.767],[-5.239,42.4728,887.2189],[-5.2448,42.4712,883.64],[-5.2512,42.4641,881.877],[-5.253,42.4635,881.526],[-5.2624,42.4808,880.2672],[-5.2678,42.4857,879.349],[-5.2658,42.4805,877.6402],[-5.2652,42.4616,872.3408],[-5.2567,42.46,880.9347],[-5.2394,42.4524,883.7329],[-5.2544,42.4399,875.1203],[-5.2587,42.4334,869.9401],[-5.2665,42.4321,864.6677],[-5.2695,42.4159,858.21],[-5.269,42.4145,857.077],[-5.2652,42.4144,859.334],[-5.2607,42.4098,863.6844],[-5.2594,42.3996,862.4996],[-5.2626,42.3827,857.6192],[-5.2599,42.3817,850.5997],[-5.2564,42.3769,857.3047],[-5.2664,42.3466,841.0108],[-5.2587,42.3415,838.0574],[-5.2528,42.341,847.5812],[-5.2551,42.3391,846.8298],[-5.2513,42.3335,844.5153],[-5.2521,42.3205,841.6398],[-5.2617,42.3134,804.0792],[-5.2597,42.3016,781.3365],[-5.2542,42.2949,786.3268],[-5.2456,42.2993,815.1425],[-5.2412,42.2999,820.5855]]]]}}