{"type": "Feature","bbox": [-4.3353,41.4508,-2.5173,43.1986],"geometry": {"type": "MultiPolygon","coordinates": [[[[-3.6891,41.5406,964.8942],[-3.6813,41.552,917.1313],[-3.6754,41.5544,888.4858],[-3.6717,41.5604,915.3671],[-3.6452,41.5721,915.9504],[-3.6261,41.57,898.3546],[-3.6168,41.5771,915.015],[-3.6087,41.5661,931.6552],[-3.6046,41.5656,929.1621],[-3.6007,41.5705,935.8539],[-3.5726,41.5654,973.4839],[-3.5711,41.5687,963.9875],[-3.5745,41.5725,947.9948],[-3.5709,41.5774,934.3749],[-3.5664,41.58,923.3727],[-3.5629,41.5774,964.6353],[-3.5529,41.5807,952.6716],[-3.5464,41.5801,948.06],[-3.5415,41.5776,938.006],[-3.5361,41.5865,965.7631],[-3.5504,41.5966,1010.7506],[-3.5456,41.5985,1015.6677],[-3.5406,41.5978,1014.2028],[-3.5396,41.6076,908.9312],[-3.5414,41.6082,905.6031],[-3.5291,41.6126,922.0383],[-3.5104,41.6003,987.414],[-3.5114,41.5982,1015.0192],[-3.5099,41.5972,1015.0192],[-3.4816,41.5975,945.7625],[-3.4813,41.5947,962.2255],[-3.4795,41.5946,973.0112],[-3.4753,41.597,977.4782],[-3.4682,41.5922,972.4101],[-3.4684,41.589,1007.384],[-3.4591,41.5896,1015.0417],[-3.4497,41.6058,849.8693],[-3.4426,41.6116,829.8356],[-3.4409,41.6184,837.7257],[-3.4353,41.622,849.8107],[-3.4393,41.6251,871.1121],[-3.4404,41.6295,907.7728],[-3.4365,41.6342,934.1315],[-3.4352,41.6394,948.1248],[-3.4329,41.6398,947.6095],[-3.4297,41.6463,962.1901],[-3.4214,41.6461,980.9722],[-3.419,41.6441,988.8086],[-3.4165,41.6479,980.9875],[-3.4177,41.6562,986.9736],[-3.4146,41.6648,941.897],[-3.4069,41.6732,916.1778],[-3.4073,41.6756,910.6832],[-3.3947,41.6845,872.3438],[-3.3933,41.6906,927.6717],[-3.3851,41.693,952.1861],[-3.3703,41.6918,948.0361],[-3.3583,41.6934,949.5043],[-3.3609,41.6995,917.8835],[-3.3617,41.7103,909.7953],[-3.3598,41.7137,906.996],[-3.3606,41.7216,918.161],[-3.3524,41.7292,958.47],[-3.3551,41.7338,969.6889],[-3.3528,41.7379,964.9548],[-3.3432,41.7387,965.2181],[-3.3356,41.7414,976.7688],[-3.3303,41.7393,999.8202],[-3.329,41.7406,1004.151],[-3.3228,41.7409,1010.6422],[-3.3216,41.7492,1028.099],[-3.3096,41.751,1028.4153],[-3.3072,41.7602,991.6585],[-3.2961,41.762,960.0572],[-3.287,41.7601,982.4408],[-3.2754,41.7687,986.825],[-3.2835,41.7783,950.8729],[-3.2858,41.7882,1012.279],[-3.2753,41.7943,1030.6367],[-3.2783,41.8149,1000.4185],[-3.2816,41.8073,980.7437],[-3.2866,41.8054,988.8806],[-3.2831,41.8115,988.203],[-3.2848,41.8146,998.9021],[-3.2811,41.8229,1094.134],[-3.2846,41.8273,1150.5603],[-3.2887,41.8286,1111.8785],[-3.2889,41.8425,1179.8206],[-3.2838,41.8457,1180.4595],[-3.2848,41.8517,1175.2041],[-3.279,41.8679,1131.0955],[-3.2839,41.8695,1200.3922],[-3.2895,41.8764,1211.5387],[-3.2837,41.8838,1141.1915],[-3.2747,41.8821,1128.6902],[-3.271,41.8788,1109.6318],[-3.2689,41.8691,1173.2734],[-3.263,41.8678,1180.001],[-3.2568,41.8706,1163.5598],[-3.2433,41.864,1184.0061],[-3.2467,41.8563,1148.4509],[-3.2425,41.8472,1134.7854],[-3.2343,41.8406,1183.123],[-3.2244,41.8393,1178.4607],[-3.2243,41.8404,1178.4607],[-3.2067,41.8316,1121.0197],[-3.2018,41.8333,1220.4984],[-3.1944,41.8289,1216.0852],[-3.1982,41.8172,1137.2705],[-3.1885,41.8017,1129.9971],[-3.1816,41.7988,1100.4069],[-3.1789,41.7961,1147.7863],[-3.174,41.7964,1177.9033],[-3.1713,41.793,1167.4778],[-3.1594,41.7986,1108.7455],[-3.1386,41.8123,1065.2405],[-3.1361,41.8119,1057.1957],[-3.1362,41.8146,1044.8936],[-3.1341,41.8157,1043.6886],[-3.1369,41.8178,1035.1459],[-3.1135,41.8473,1065.3387],[-3.1125,41.8507,1073.6919],[-3.1076,41.8545,1093.0001],[-3.1008,41.8563,1101.1522],[-3.0971,41.8614,1108.5818],[-3.0967,41.8659,1122.9641],[-3.1011,41.8713,1112.95],[-3.1012,41.8773,1137.0265],[-3.0971,41.8811,1173.5643],[-3.0955,41.8816,1178.1261],[-3.0917,41.8759,1206.1423],[-3.0877,41.8763,1218.33],[-3.0754,41.8831,1270.7063],[-3.0635,41.8834,1280.1821],[-3.0586,41.8913,1312.7836],[-3.0452,41.8895,1324.2839],[-3.0446,41.8873,1308.7637],[-3.0381,41.8858,1295.2134],[-3.0341,41.8891,1311.9458],[-3.0167,41.8869,1327.988],[-3.0149,41.8962,1254.0203],[-3.0164,41.8984,1256.8857],[-3.0077,41.9088,1347.1174],[-3.0112,41.9142,1342.6326],[-3.008,41.9222,1354.6853],[-2.9984,41.9326,1464.8794],[-2.9875,41.9315,1392.6147],[-2.9824,41.9282,1411.8568],[-2.9707,41.9293,1417.0928],[-2.9644,41.9368,1273.8792],[-2.9599,41.9513,1164.3025],[-2.9675,41.958,1179.5586],[-2.9657,41.966,1243.7205],[-2.9517,41.9881,1525.0665],[-2.9505,41.993899999999996,1600.9326],[-2.9374,42.008,1890.2567],[-2.9321,42.018,2043.8103],[-2.9136,42.0228,2033.8048],[-2.9152,42.039,1710.4269],[-2.9204,42.0492,1792.1887],[-2.9229,42.0612,1835.1453],[-2.9269,42.0665,1960.9944],[-2.9279,42.0741,1847.3069],[-2.9324,42.0809,1748.5217],[-2.9311,42.0868,1690.4562],[-2.9353,42.0894,1788.2473],[-2.9406,42.0893,1656.3997],[-2.9586,42.0859,1588.9114],[-2.9605,42.0844,1585.2218],[-2.9794,42.0841,1190.4915],[-2.9931,42.0875,1466.6984],[-3.0038,42.0833,1688.3242],[-3.0146,42.0884,1794.7668],[-3.0234,42.0893,1846.5004],[-3.0343,42.086,1802.7195],[-3.0589,42.127,1307.5256],[-3.0661,42.1333,1304.9614],[-3.0736,42.1358,1308.6592],[-3.0837,42.1334,1367.897],[-3.0861,42.1355,1271.3512],[-3.0906,42.1486,1201.7528],[-3.0898,42.1593,1368.7668],[-3.0997,42.1674,1308.4176],[-3.0965,42.1694,1299.4041],[-3.1019,42.17,1320.6445],[-3.1017,42.1718,1298.9595],[-3.109,42.1763,1370.8933],[-3.1124,42.1758,1404.9413],[-3.1149,42.1788,1455.5793],[-3.1153,42.1883,1540.63],[-3.1251,42.1932,1465.8798],[-3.1293,42.1995,1672.7461],[-3.1288,42.2009,1694.1605],[-3.1187,42.2045,1725.9696],[-3.1133,42.2095,1718.4746],[-3.1059,42.2118,1808.5365],[-3.1014,42.2171,1865.0369],[-3.0996,42.2272,1977.79],[-3.1024,42.2322,2016.3381],[-3.0923,42.2447,2010.4358],[-3.0885,42.2457,1981.1057],[-3.0977,42.2631,1827.7],[-3.0896,42.273,1862.8713],[-3.0961,42.279,1711.2941],[-3.0958,42.2874,1458.2112],[-3.1035,42.3059,1398.0828],[-3.1026,42.3089,1323.3066],[-3.1066,42.3126,1260.0808],[-3.1033,42.3208,1308.1382],[-3.098,42.3223,1306.6604],[-3.0958,42.3269,1238.7322],[-3.1002,42.3284,1201.7059],[-3.1106,42.3386,1135.1962],[-3.1092,42.3519,1072.629],[-3.0875,42.3522,1203.0641],[-3.0636,42.3561,1159.2974],[-3.0632,42.3628,1114.3461],[-3.0848,42.3854,955.2751],[-3.0948,42.3837,1116.739],[-3.1043,42.3854,942.2651],[-3.1034,42.3903,924.8675],[-3.0969,42.3986,873.5208],[-3.0957,42.4052,850.0343],[-3.0988,42.4085,873.3993],[-3.1013,42.4168,814.0975],[-3.0963,42.4169,849.864],[-3.0905,42.4199,827.8474],[-3.0903,42.4224,851.41],[-3.0781,42.4157,815.3568],[-3.0785,42.4075,920.6714],[-3.0826,42.3974,1061.7211],[-3.0786,42.3914,1097.5115],[-3.075,42.3916,1128.8699],[-3.0735,42.3856,1145.103],[-3.0678,42.38,1164.6436],[-3.0644,42.3733,1191.2841],[-3.0576,42.3701,1220.6552],[-3.0531,42.3734,1215.595],[-3.0559,42.3851,1169.7574],[-3.064,42.4043,972.6297],[-3.0589,42.4099,892.172],[-3.0573,42.4171,844.1848],[-3.0632,42.4249,818.2076],[-3.0576,42.4339,778.9443],[-3.0459,42.4451,738.139],[-3.0609,42.462,695.7269],[-3.0641,42.4709,685.3615],[-3.0733,42.4765,737.236],[-3.0822,42.4745,757.6902],[-3.0892,42.4789,654.2322],[-3.0904,42.4779,652.3542],[-3.0914,42.4863,653.0728],[-3.0939,42.4863,654.4518],[-3.0946,42.4881,634.0016],[-3.0932,42.4915,621.3647],[-3.0792,42.4991,634.0759],[-3.0753,42.5065,636.5959],[-3.0739,42.5157,616.114],[-3.076,42.5202,618.9977],[-3.0717,42.5277,626.5059],[-3.0764,42.5322,649.5476],[-3.0812,42.5312,637.4644],[-3.084,42.5322,639.9181],[-3.0826,42.5337,638.1492],[-3.0892,42.5383,647.1971],[-3.0967,42.5346,711.7939],[-3.0999,42.5362,764.3668],[-3.1074,42.5288,770.8455],[-3.1173,42.5323,773.9539],[-3.1253,42.5331,778.6979],[-3.1342,42.542,791.9277],[-3.1263,42.5438,772.6734],[-3.1149,42.5513,722.6579],[-3.1054,42.5539,669.3427],[-3.1037,42.5531,679.6189],[-3.1042,42.5568,676.376],[-3.1024,42.5594,689.6267],[-3.0882,42.5671,764.7432],[-3.0823,42.574,776.9696],[-3.0861,42.5822,788.0087],[-3.0793,42.5837,750.8157],[-3.068,42.5889,694.252],[-3.0598,42.5892,684.3403],[-3.0649,42.5935,689.0687],[-3.0646,42.5983,682.8532],[-3.0603,42.6006,666.4055],[-3.0604,42.6026,672.7826],[-3.0652,42.6065,688.6669],[-3.0704,42.6214,854.2138],[-3.0781,42.6237,916.775],[-3.0795,42.6261,989.6027],[-3.0863,42.6277,967.5623],[-3.081,42.6313,890.5387],[-3.0847,42.6353,949.0745],[-3.0841,42.6407,820.2519],[-3.0693,42.6388,845.556],[-3.0407,42.64,766.8885],[-3.0294,42.6382,673.2245],[-3.018,42.6322,660.1016],[-3.0144,42.6404,693.4518],[-3.0087,42.6408,704.8193],[-3.0047,42.6443,671.8878],[-2.9951,42.6419,661.3395],[-2.9899,42.6423,667.2931],[-2.9859,42.6363,877.7427],[-2.98,42.6353,704.2764],[-2.9758,42.6391,659.1761],[-2.9703,42.6411,633.8911],[-2.9526,42.6386,829.9005],[-2.9464,42.6393,838.5242],[-2.9334,42.6345,762.0209],[-2.9241,42.6217,839.1718],[-2.916,42.6195,839.8167],[-2.9044,42.6202,795.7711],[-2.9044,42.6265,813.2582],[-2.8927,42.6277,644.9118],[-2.8904,42.6257,666.6235],[-2.8939,42.6213,721.1281],[-2.8821,42.6207,762.1083],[-2.8835,42.6244,731.3414],[-2.8762,42.631,516.0133],[-2.864,42.6332,485.5875],[-2.858,42.6382,449.4298],[-2.8717,42.6402,449.8438],[-2.8744,42.643,447.3064],[-2.8891,42.6492,448.1546],[-2.896,42.655,452.4363],[-2.9006,42.6678,451.2975],[-2.8972,42.6694,454.245],[-2.8998,42.6729,455.4008],[-2.895,42.6793,455.5141],[-2.898,42.6823,461.6044],[-2.9013,42.6826,460.4653],[-2.9037,42.6864,469.7192],[-2.9024,42.6936,522.9611],[-2.9184,42.6979,477.3491],[-2.9216,42.7012,472.001],[-2.9303,42.6996,462.7234],[-2.928,42.7047,465.9518],[-2.9305,42.7082,466.7316],[-2.9563,42.7104,477.8904],[-2.9634,42.708,473.4632],[-2.9739,42.7087,473.6744],[-2.9806,42.7038,463.194],[-2.987,42.7088,465.2656],[-2.9893,42.7193,464.4016],[-2.9943,42.7215,464.5083],[-3.0074,42.7232,467.7584],[-3.0107,42.7284,463.885],[-3.0058,42.7324,464.4203],[-3.0071,42.7336,464.4203],[-3.0163,42.7339,467.2701],[-3.0163,42.7405,471.5113],[-3.0178,42.7412,467.9506],[-3.033,42.7371,471.5594],[-3.0407,42.7385,475.8627],[-3.043,42.7437,467.15],[-3.0487,42.7486,478.1696],[-3.0503,42.7559,469.3167],[-3.0474,42.7609,478.9978],[-3.0496,42.7656,472.8257],[-3.0641,42.7601,475.9436],[-3.0808,42.7672,501.002],[-3.0823,42.7661,536.0297],[-3.0813,42.7619,474.4026],[-3.0844,42.7571,479.1909],[-3.0891,42.7602,486.298],[-3.091,42.7642,487.231],[-3.1006,42.7672,526.6847],[-3.1097,42.7635,519.7248],[-3.1154,42.7593,513.1018],[-3.1479,42.7567,540.1982],[-3.142,42.7629,888.9048],[-3.1366,42.7655,977.308],[-3.1282,42.7843,1165.7795],[-3.1232,42.7893,1292.691],[-3.1307,42.7896,1248.7295],[-3.14,42.7957,1236.5552],[-3.1592,42.8046,1255.17],[-3.1481,42.8145,816.8055],[-3.1488,42.8205,769.2413],[-3.1409,42.8363,700.6087],[-3.1329,42.8373,637.6904],[-3.1301,42.8405,648.3824],[-3.1313,42.8446,654.0596],[-3.1279,42.8496,578.6509],[-3.1229,42.8489,595.6785],[-3.1208,42.855,648.1309],[-3.1131,42.861,792.9235],[-3.1137,42.864,814.1469],[-3.1082,42.8712,916.6522],[-3.1051,42.8802,1044.7793],[-3.1133,42.8818,997.1601],[-3.1125,42.8867,794.0131],[-3.1149,42.8892,754.0268],[-3.1189,42.8913,773.8414],[-3.1256,42.8913,895.8115],[-3.138,42.8761,792.3769],[-3.1387,42.8713,877.7504],[-3.1447,42.8687,830.8624],[-3.1498,42.8613,698.7456],[-3.1607,42.8563,673.6812],[-3.173,42.8572,942.2579],[-3.1906,42.8694,1057.6831],[-3.2004,42.855,979.5298],[-3.2069,42.8513,984.2987],[-3.2094,42.8442,823.2059],[-3.2221,42.8386,910.5746],[-3.2055,42.8274,1247.7004],[-3.2169,42.8265,870.0781],[-3.2258,42.8301,648.6033],[-3.2826,42.8755,915.0391],[-3.2867,42.8851,768.4675],[-3.2764,42.887,1119.0964],[-3.2772,42.9016,994.4413],[-3.2485,42.9121,1176.7222],[-3.2457,42.9238,914.4933],[-3.2399,42.9315,924.9911],[-3.2353,42.9331,952.4316],[-3.2355,42.9438,914.1293],[-3.2247,42.9497,884.0778],[-3.2199,42.9495,877.8782],[-3.2166,42.9479,866.3317],[-3.2166,42.9455,862.5518],[-3.2137,42.946,844.3204],[-3.2116,42.9443,876.5878],[-3.2097,42.9445,881.5471],[-3.2097,42.9467,881.2216],[-3.2064,42.9469,896.6675],[-3.2025,42.945,889.597],[-3.1965,42.9464,897.4802],[-3.1807,42.9445,923.7292],[-3.1693,42.9402,911.4827],[-3.1447,42.9347,914.6385],[-3.1477,42.9327,956.6445],[-3.1508,42.9195,870.8774],[-3.1495,42.9173,874.5831],[-3.1415,42.9132,787.2697],[-3.1318,42.9127,900.8176],[-3.1265,42.904,818.4872],[-3.1084,42.9061,936.3847],[-3.1046,42.9101,990.8483],[-3.0985,42.9061,978.1066],[-3.0928,42.9003,897.2661],[-3.0937,42.8992,897.2661],[-3.0895,42.899,748.8124],[-3.0751,42.901,621.7083],[-3.0689,42.9039,594.1054],[-3.06,42.9017,628.6001],[-3.0189,42.9085,1080.1107],[-3.0161,42.9105,1097.6056],[-3.0143,42.9189,1040.1895],[-3.0048,42.927,981.0508],[-3.0022,42.9278,990.5807],[-2.9976,42.9262,974.6119],[-2.9913,42.9345,888.9891],[-2.9849,42.9355,845.9789],[-2.9814,42.9388,797.532],[-2.9848,42.9442,789.4437],[-2.9907,42.9469,810.9536],[-2.996,42.9529,857.6611],[-3.0116,42.9524,889.7606],[-3.0196,42.955,800.3453],[-3.0213,42.9577,850.4835],[-3.0203,42.961,875.187],[-3.0247,42.9619,913.6936],[-3.0377,42.9694,681.9006],[-3.0406,42.9694,798.1016],[-3.0448,42.9734,825.7085],[-3.0388,42.9783,858.9445],[-3.0369,42.9822,884.0263],[-3.0411,42.9823,883.0063],[-3.0529,42.9944,942.411],[-3.0586,42.9968,989.7561],[-3.0611,42.9991,955.2512],[-3.0602,43.0035,858.6858],[-3.0717,43.0056,993.1375],[-3.077,43.0085,1021.183],[-3.0793,43.0048,1068.7712],[-3.0889,43.0016,1059.5165],[-3.1061,43.0054,1081.7191],[-3.1203,43.0059,916.9266],[-3.1243,43.0077,943.8149],[-3.1447,43.0068,1024.149],[-3.1692,43.0152,932.1937],[-3.1778,43.022,736.8506],[-3.1709,43.0255,979.9807],[-3.1702,43.0291,825.2792],[-3.1528,43.027,1076.7594],[-3.1434,43.0274,1056.7845],[-3.1418,43.0298,945.7178],[-3.1474,43.0349,825.3893],[-3.1443,43.0381,789.2534],[-3.145,43.0493,453.7875],[-3.1417,43.049,495.7076],[-3.1436,43.0536,468.7817],[-3.1406,43.0593,408.7572],[-3.1403,43.0671,445.1428],[-3.141,43.0687,445.1428],[-3.1474,43.0689,550.3652],[-3.1581,43.074,569.2748],[-3.1515,43.0789,521.2024],[-3.1476,43.0857,562.2559],[-3.1339,43.0972,392.0127],[-3.1414,43.1106,446.3054],[-3.1479,43.1082,439.7416],[-3.152,43.1041,306.9254],[-3.1625,43.1089,293.9461],[-3.1696,43.1096,290.4796],[-3.1804,43.1163,470.4194],[-3.1817,43.1209,513.4753],[-3.1614,43.1432,278.5214],[-3.1667,43.1469,280.1531],[-3.1618,43.1542,184.5951],[-3.1484,43.1611,179.7609],[-3.1413,43.1615,183.8405],[-3.1428,43.1682,459.9597],[-3.1482,43.174,635.8162],[-3.1574,43.1778,629.5245],[-3.1625,43.177,641.6483],[-3.168,43.1786,641.9108],[-3.1788,43.1752,628.0635],[-3.1856,43.1692,392.685],[-3.1875,43.1692,336.1754],[-3.1989,43.1709,242.2144],[-3.2047,43.1744,221.8533],[-3.2078,43.1794,171.3487],[-3.2109,43.1778,202.26],[-3.2126,43.1741,175.4396],[-3.218,43.1752,191.2748],[-3.224,43.1701,192.377],[-3.2235,43.1722,194.6895],[-3.2278,43.1763,188.3489],[-3.2301,43.1764,194.797],[-3.2311,43.1789,265.2632],[-3.2334,43.179,245.8825],[-3.2375,43.1858,329.1586],[-3.2534,43.1986,816.8507],[-3.2562,43.1953,895.0903],[-3.2624,43.1963,783.0544],[-3.2679,43.1942,788.0833],[-3.2781,43.1944,934.7115],[-3.2776,43.19,1013.9437],[-3.2974,43.1826,875.3552],[-3.3005,43.1791,849.1042],[-3.3057,43.177,972.2469],[-3.3093,43.1725,901.5564],[-3.3195,43.1712,1009.7668],[-3.3202,43.1697,978.5702],[-3.3337,43.1657,1048.944],[-3.3385,43.1675,982.1581],[-3.3419,43.1668,980.9854],[-3.3506,43.1543,888.2136],[-3.371,43.1514,1105.2009],[-3.3719,43.1488,1091.1832],[-3.3888,43.14,1120.2324],[-3.4071,43.1374,1240.6753],[-3.4103,43.1345,1323.2561],[-3.4219,43.1323,1274.1234],[-3.4296,43.1337,1316.3269],[-3.4335,43.1319,1290.4733],[-3.4416,43.1328,1180.5325],[-3.4447,43.1315,1147.7539],[-3.4589,43.1361,960.1644],[-3.4803,43.1361,1023.9745],[-3.4869,43.1332,894.5897],[-3.5021,43.1366,930.6524],[-3.5084,43.1366,958.7667],[-3.5437,43.1481,1164.5096],[-3.5612,43.1495,1400.6458],[-3.5855,43.1545,1265.3707],[-3.5996,43.1519,1415.984],[-3.6035,43.1496,1499.6324],[-3.6082,43.1637,1432.3081],[-3.6124,43.1695,1543.8624],[-3.6236,43.1739,1357.1781],[-3.6311,43.1729,1314.8699],[-3.6336,43.1755,1365.9011],[-3.641,43.176,1453.8138],[-3.645,43.1793,1514.1982],[-3.651,43.181,1434.0031],[-3.6581,43.1776,1463.2054],[-3.656,43.1707,1317.7589],[-3.6609,43.1687,1351.4312],[-3.6622,43.1652,1427.4182],[-3.6667,43.1628,1503.4569],[-3.6679,43.1576,1510.3218],[-3.6766,43.1551,1486.4408],[-3.6764,43.1511,1557.6249],[-3.6841,43.1424,1669.1447],[-3.6856,43.1372,1413.1711],[-3.6837,43.1362,1383.9423],[-3.6949,43.1266,1209.9866],[-3.7038,43.1234,1199.9293],[-3.7029,43.1181,1145.0504],[-3.7046,43.1162,1152.2505],[-3.7142,43.114,1312.4385],[-3.7192,43.1083,1371.189],[-3.7282,43.1047,1273.6465],[-3.7481,43.1022,1341.3186],[-3.7559,43.0991,1341.9128],[-3.7598,43.0921,1342.1947],[-3.7569,43.085,1475.7065],[-3.7675,43.0803,1442.7655],[-3.7757,43.0825,1394.3158],[-3.7783,43.0805,1400.5398],[-3.7895,43.0781,1316.3054],[-3.801,43.0832,1248.4854],[-3.8062,43.0834,1152.7554],[-3.8101,43.0866,1100.769],[-3.8148,43.0858,1013.0602],[-3.8207,43.081,960.7082],[-3.8263,43.0806,927.8541],[-3.8352,43.0805,924.0229],[-3.8443,43.0824,1003.9374],[-3.8469,43.0844,1006.2011],[-3.8507,43.08,941.5848],[-3.8507,43.077,971.4811],[-3.8459,43.071,1003.2147],[-3.8317,43.0638,1194.1493],[-3.8339,43.0629,1179.8882],[-3.834,43.0586,1095.4818],[-3.8426,43.0513,1017.8314],[-3.8498,43.048,999.3092],[-3.8491,43.0411,1011.608],[-3.851,43.0391,1022.1402],[-3.8557,43.0393,1003.5447],[-3.8614,43.0434,994.1194],[-3.8648,43.0422,1015.5777],[-3.8669,43.0438,1010.3846],[-3.8907,43.0418,852.8575],[-3.8927,43.0363,837.4141],[-3.9092,43.0161,835.0],[-3.9246,43.0103,835.0],[-3.9454,43.0057,835.0],[-3.9607,42.9924,835.0],[-3.974,42.9686,923.6084],[-3.9908,42.9308,1019.3506],[-3.9877,42.9258,1041.5065],[-3.9775,42.9183,1032.6747],[-3.9728,42.9117,1141.8762],[-3.9539,42.9113,878.4651],[-3.9457,42.9094,1009.5017],[-3.9393,42.9102,903.2814],[-3.9296,42.9147,822.9387],[-3.9363,42.9081,815.7192],[-3.9375,42.904,837.3886],[-3.9335,42.8996,794.6961],[-3.9263,42.9044,840.1578],[-3.9233,42.9156,840.9765],[-3.9181,42.9163,873.8057],[-3.9114,42.9234,875.8915],[-3.8912,42.9255,853.8928],[-3.8888,42.9298,853.8409],[-3.8896,42.9351,918.188],[-3.8876,42.9377,971.7328],[-3.8873,42.9487,936.7575],[-3.8777,42.9478,971.1035],[-3.8701,42.9497,1103.4015],[-3.867,42.9548,1092.0262],[-3.8395,42.9398,1135.4686],[-3.8373,42.9342,1037.6642],[-3.8299,42.9277,1038.3663],[-3.8335,42.918,973.0724],[-3.8382,42.9162,977.5355],[-3.8439,42.9169,1056.4375],[-3.8466,42.9192,1028.1146],[-3.8534,42.9181,942.1062],[-3.8573,42.9075,898.4247],[-3.8603,42.9045,917.7283],[-3.8589,42.9037,918.2915],[-3.8685,42.8991,791.5549],[-3.879,42.9013,780.2709],[-3.8832,42.9043,774.3475],[-3.8908,42.9026,775.2645],[-3.9027,42.9095,836.9957],[-3.9077,42.9145,911.8918],[-3.9079,42.9122,923.6505],[-3.9105,42.9109,905.5809],[-3.907,42.9075,810.84],[-3.8991,42.9041,784.6075],[-3.8929,42.8873,825.3491],[-3.9027,42.8862,802.827],[-3.9088,42.8894,741.1261],[-3.9103,42.8919,786.9559],[-3.9164,42.8892,887.3227],[-3.9202,42.8906,835.796],[-3.9243,42.8892,897.8484],[-3.9024,42.8849,825.4609],[-3.8974,42.8803,863.6488],[-3.9056,42.8702,830.8116],[-3.9132,42.8677,782.7747],[-3.9154,42.8609,772.2955],[-3.913,42.8591,736.8173],[-3.8992,42.8599,766.9268],[-3.8964,42.8563,784.0659],[-3.8877,42.8568,746.2952],[-3.8801,42.8514,747.7421],[-3.8737,42.8529,787.2406],[-3.8684,42.8567,922.75],[-3.8738,42.8632,859.4588],[-3.8735,42.8702,867.3984],[-3.8709,42.8743,897.0443],[-3.874,42.8751,856.1391],[-3.868,42.886,848.9874],[-3.8637,42.8898,817.6002],[-3.8518,42.8834,936.2614],[-3.8367,42.8788,957.3906],[-3.8253,42.8686,921.1046],[-3.8341,42.8557,903.0333],[-3.8337,42.8521,911.1208],[-3.8164,42.8359,828.2637],[-3.8166,42.8302,781.2838],[-3.8196,42.8278,698.1534],[-3.8162,42.8193,885.6402],[-3.816,42.8105,946.3417],[-3.8205,42.8063,967.5678],[-3.8216,42.8003,983.2191],[-3.8232,42.7988,983.4194],[-3.829,42.7987,993.3043],[-3.8542,42.7875,1033.9342],[-3.8633,42.7864,1052.0979],[-3.886,42.7982,1097.3368],[-3.8944,42.8045,1145.451],[-3.8995,42.7907,1103.5099],[-3.9014,42.7886,1092.4019],[-3.9096,42.7864,1082.2449],[-3.9087,42.777,1067.3989],[-3.9109,42.7684,1062.6345],[-3.9264,42.7701,1065.4692],[-3.9305,42.7745,1070.7908],[-3.9487,42.7675,1074.1704],[-3.9465,42.7619,1086.2178],[-3.9565,42.7622,1084.7571],[-3.9656,42.7586,1066.5419],[-3.9788,42.7581,1066.4047],[-3.9815,42.7683,1009.6285],[-3.9906,42.771,975.8469],[-3.9945,42.7686,1062.613],[-4.0024,42.7684,1067.5298],[-4.003,42.7633,1071.9187],[-4.0093,42.7657,1073.7933],[-4.0167,42.764,1082.3206],[-4.0408,42.7673,1085.8907],[-4.0546,42.763,1087.5361],[-4.0717,42.7605,1086.5881],[-4.0813,42.7614,1107.3015],[-4.0852,42.7641,1138.0444],[-4.0887,42.7517,1069.192],[-4.1095,42.7339,940.9412],[-4.1239,42.7361,932.1202],[-4.1199,42.7451,994.1987],[-4.1259,42.7482,1048.3518],[-4.1247,42.7516,1142.4436],[-4.1399,42.7533,1112.1686],[-4.1461,42.7521,1042.9932],[-4.1513,42.7479,934.1078],[-4.1646,42.746,909.3113],[-4.1667,42.7419,911.608],[-4.1738,42.7371,928.5339],[-4.1804,42.7379,980.4644],[-4.1853,42.7362,1024.5717],[-4.201,42.721,1053.9236],[-4.2014,42.7176,1046.6925],[-4.2151,42.714,989.7838],[-4.2165,42.7113,941.0386],[-4.2151,42.7088,941.7424],[-4.2185,42.7047,986.9686],[-4.2257,42.7034,1053.0068],[-4.237,42.6976,1041.7437],[-4.246,42.6971,1035.0057],[-4.2488,42.6984,1031.7668],[-4.2476,42.6941,995.9559],[-4.257,42.6881,895.2396],[-4.2638,42.6942,908.6565],[-4.2676,42.6943,959.1614],[-4.2666,42.7053,1001.4115],[-4.2809,42.6995,930.2532],[-4.284,42.6956,903.462],[-4.2931,42.6909,864.1082],[-4.2866,42.6864,858.826],[-4.2859,42.6835,867.1977],[-4.2898,42.6835,866.1433],[-4.2899,42.6792,917.0426],[-4.2848,42.6754,978.4597],[-4.276,42.673,1007.0433],[-4.2758,42.6668,940.6852],[-4.2718,42.6563,962.9733],[-4.2772,42.6522,984.7489],[-4.2742,42.6527,1002.8572],[-4.2732,42.6454,949.08],[-4.2771,42.6432,926.1772],[-4.2744,42.6371,931.8077],[-4.2707,42.6357,936.6316],[-4.2674,42.6318,907.767],[-4.2704,42.6233,948.6283],[-4.2638,42.6179,937.8024],[-4.2738,42.6169,921.708],[-4.2824,42.6097,900.3491],[-4.2925,42.6059,905.8381],[-4.2944,42.6029,872.1761],[-4.2887,42.5984,902.6698],[-4.2879,42.5933,902.7561],[-4.2852,42.5913,897.0867],[-4.2861,42.5893,899.095],[-4.2824,42.5867,857.639],[-4.2863,42.5831,850.3181],[-4.2842,42.5813,853.8631],[-4.275,42.5831,900.2966],[-4.2707,42.5814,897.7628],[-4.2767,42.5798,892.0247],[-4.2825,42.5759,885.0414],[-4.2937,42.5742,877.0596],[-4.2987,42.5706,872.3024],[-4.3053,42.5708,828.0499],[-4.2976,42.5604,822.4689],[-4.303,42.559,822.071],[-4.3032,42.5553,824.0667],[-4.2997,42.5525,821.795],[-4.2776,42.5447,819.8181],[-4.2789,42.5427,817.1048],[-4.2773,42.5354,815.9818],[-4.2795,42.5338,816.9048],[-4.2753,42.5287,816.203],[-4.2721,42.52,814.2482],[-4.2766,42.5145,817.498],[-4.2861,42.512,841.3306],[-4.273,42.5104,818.4434],[-4.2626,42.5118,812.0547],[-4.2522,42.5032,807.835],[-4.247,42.4947,805.9359],[-4.246,42.4924,823.8592],[-4.2506,42.4793,803.1717],[-4.245,42.4718,809.0164],[-4.2503,42.4714,804.304],[-4.2543,42.4684,804.8225],[-4.2522,42.466,803.8781],[-4.2474,42.4671,802.6904],[-4.2455,42.4628,807.1675],[-4.2471,42.4603,804.4918],[-4.2463,42.4587,800.9551],[-4.2436,42.4589,801.8102],[-4.2425,42.4562,802.3832],[-4.2514,42.4566,800.4651],[-4.2688,42.4535,843.3274],[-4.2759,42.4552,847.4319],[-4.2823,42.4552,850.5764],[-4.2847,42.4535,848.6436],[-4.3066,42.4551,870.4539],[-4.3069,42.4533,869.0207],[-4.317,42.4589,875.2303],[-4.323,42.4445,860.0137],[-4.3353,42.4306,818.5129],[-4.3332,42.4231,806.1379],[-4.3349,42.4199,804.024],[-4.3331,42.4162,798.8643],[-4.3304,42.4151,798.8622],[-4.3283,42.4096,796.8438],[-4.33,42.4045,796.6881],[-4.3284,42.3955,869.948],[-4.3309,42.3909,868.5734],[-4.3215,42.3799,861.4047],[-4.3054,42.3834,836.166],[-4.2934,42.3881,818.6311],[-4.2817,42.389,787.8165],[-4.2759,42.3919,793.4325],[-4.2775,42.3866,786.8173],[-4.2726,42.3857,785.7136],[-4.2713,42.3809,784.1461],[-4.2737,42.3751,785.2543],[-4.2803,42.3777,783.2403],[-4.2809,42.3729,783.3596],[-4.2766,42.3683,781.6622],[-4.2764,42.365,782.9043],[-4.2787,42.3658,781.4307],[-4.2804,42.3638,780.6817],[-4.279,42.3612,780.8768],[-4.2694,42.3571,781.0291],[-4.2647,42.3525,779.3224],[-4.2663,42.3472,778.0621],[-4.27,42.3433,778.1286],[-4.2696,42.3392,777.1692],[-4.2671,42.3381,776.7549],[-4.2673,42.3356,775.6335],[-4.2621,42.3276,775.1694],[-4.2568,42.3245,781.4618],[-4.2567,42.3228,774.9598],[-4.2586,42.3225,774.9833],[-4.2587,42.3244,776.1382],[-4.2621,42.3257,776.996],[-4.265,42.3233,774.7742],[-4.2635,42.3199,776.1319],[-4.2612,42.3198,776.5746],[-4.2631,42.3122,772.8466],[-4.2618,42.3097,775.618],[-4.2518,42.31,772.0919],[-4.2498,42.2944,771.5964],[-4.2527,42.2906,768.9053],[-4.2464,42.2848,769.1941],[-4.2492,42.2804,768.184],[-4.2463,42.2785,770.2594],[-4.2461,42.2741,772.1316],[-4.2418,42.2722,767.0604],[-4.2409,42.269,766.9141],[-4.244,42.2594,762.3813],[-4.2313,42.2561,766.9086],[-4.2285,42.2495,763.2991],[-4.2292,42.2419,761.7143],[-4.2372,42.2367,759.5737],[-4.2341,42.233,762.6246],[-4.2278,42.2318,759.1421],[-4.2268,42.2295,759.7004],[-4.232,42.2173,759.5189],[-4.2314,42.2084,755.6354],[-4.2206,42.2086,866.3661],[-4.2152,42.2069,903.1877],[-4.212,42.2008,903.284],[-4.2057,42.1971,903.7955],[-4.2058,42.1924,900.7538],[-4.1909,42.181,902.8965],[-4.1886,42.1764,898.0284],[-4.1909,42.1639,896.1061],[-4.1971,42.1572,904.7373],[-4.206,42.154,901.644],[-4.2007,42.1502,899.811],[-4.2034,42.1468,900.1799],[-4.2053,42.1346,894.6014],[-4.1868,42.1264,900.5403],[-4.1782,42.1307,898.7831],[-4.1767,42.1258,899.6213],[-4.168,42.1296,902.3261],[-4.1541,42.1317,903.6624],[-4.1443,42.1294,781.6099],[-4.1415,42.1236,759.4584],[-4.142,42.1196,756.7878],[-4.1379,42.1197,755.227],[-4.1324,42.1234,755.082],[-4.1269,42.1222,755.6008],[-4.1209,42.1283,757.5369],[-4.1083,42.119,762.6946],[-4.1075,42.1139,790.5677],[-4.1037,42.1097,899.3627],[-4.0924,42.1078,902.9586],[-4.0856,42.1032,852.9962],[-4.0763,42.1054,851.7066],[-4.063,42.1012,835.0814],[-4.0561,42.1009,838.536],[-4.0603,42.0913,837.9615],[-4.0661,42.0891,833.3043],[-4.0664,42.086,779.1573],[-4.0774,42.0827,775.3086],[-4.0946,42.0868,764.0614],[-4.103,42.087,763.6232],[-4.104,42.0616,815.3757],[-4.0999,42.0579,820.8602],[-4.0979,42.0525,882.3997],[-4.0921,42.0495,855.9437],[-4.0843,42.0389,899.0142],[-4.0798,42.0368,906.4835],[-4.0636,42.0436,885.5418],[-4.0569,42.0397,912.385],[-4.0478,42.039,914.8079],[-4.0478,42.0466,918.1979],[-4.0458,42.0508,908.5417],[-4.0392,42.0533,889.9364],[-4.0316,42.0495,916.0695],[-4.0108,42.0515,905.3149],[-3.9996,42.0489,822.0184],[-3.9962,42.045,889.9856],[-3.9887,42.0467,865.6355],[-3.9824,42.0513,891.9296],[-3.9801,42.043,878.3771],[-3.9762,42.0409,866.2989],[-3.971,42.0332,887.2626],[-3.9798,42.0211,827.9066],[-3.9832,42.0238,828.8785],[-3.9852,42.0235,813.593],[-3.9947,42.0054,884.4342],[-4.0147,41.9986,912.8805],[-4.0237,41.9819,917.4947],[-4.029,41.9766,922.8174],[-4.0273,41.9731,924.1635],[-4.0308,41.9689,924.1891],[-4.0329,41.9541,925.0275],[-4.0241,41.9541,925.929],[-4.0195,41.9584,923.9616],[-3.9906,41.9597,884.2206],[-3.9828,41.9653,881.2483],[-3.9785,41.9647,899.5593],[-3.9732,41.9665,905.8712],[-3.9725,41.969,896.319],[-3.9562,41.981,840.6436],[-3.9508,41.9795,874.5833],[-3.9234,41.9906,894.7993],[-3.9148,41.992,901.0572],[-3.9101,41.997,883.6928],[-3.8914,41.9966,877.559],[-3.89,41.9866,884.9716],[-3.8939,41.9718,895.903],[-3.891,41.9605,897.0106],[-3.8923,41.9576,888.3485],[-3.9121,41.956,879.0103],[-3.9147,41.9584,877.8831],[-3.9228,41.9604,876.8152],[-3.9365,41.957,865.8892],[-3.9458,41.9464,866.2532],[-3.9443,41.9445,869.2045],[-3.9471,41.9395,872.6687],[-3.9521,41.9353,876.7986],[-3.9813,41.9307,891.2235],[-3.9837,41.927,913.3466],[-3.9806,41.9006,938.9386],[-3.9982,41.8924,941.8257],[-4.007,41.8852,935.379],[-4.0195,41.8785,926.6802],[-4.0375,41.8728,893.9001],[-4.0582,41.8742,904.7097],[-4.062,41.8769,877.1885],[-4.0726,41.8741,900.3547],[-4.0796,41.8741,910.344],[-4.0887,41.8706,875.4722],[-4.0842,41.864,924.3744],[-4.0809,41.8621,922.2922],[-4.0792,41.8484,923.6116],[-4.088,41.8447,922.76],[-4.0907,41.8387,922.6387],[-4.09,41.8309,922.4685],[-4.0586,41.8048,912.8929],[-4.0488,41.8028,815.1022],[-4.0429,41.7911,905.3773],[-4.0379,41.7898,895.1304],[-4.0388,41.7727,893.6845],[-4.0408,41.7683,901.3892],[-4.0495,41.7682,846.2186],[-4.0557,41.7407,898.5135],[-4.0656,41.7394,853.55],[-4.069,41.7412,846.6834],[-4.0759,41.7354,875.7528],[-4.0746,41.7287,891.44],[-4.0763,41.7261,895.5878],[-4.068,41.7265,904.2892],[-4.0588,41.7211,910.6383],[-4.0529,41.7196,910.0424],[-4.0512,41.7169,908.2258],[-4.042,41.7111,909.6663],[-4.026,41.6924,911.4062],[-4.0242,41.6755,906.6378],[-4.0258,41.6595,899.9098],[-4.0303,41.6305,895.0325],[-4.0348,41.6256,893.1064],[-4.0352,41.6206,892.2625],[-4.0286,41.6144,761.4817],[-4.0225,41.616,752.9324],[-4.0165,41.6204,751.474],[-4.0116,41.617,755.5398],[-4.0058,41.6194,757.4819],[-4.0032,41.616,758.5377],[-4.0084,41.6119,761.6509],[-4.0086,41.61,758.9536],[-3.9928,41.6086,771.8803],[-3.9924,41.6004,865.6467],[-3.99,41.5984,865.6942],[-3.9849,41.5983,869.4686],[-3.9849,41.5905,852.9147],[-3.9835,41.586,848.8691],[-3.9806,41.5834,842.4993],[-3.9637,41.5861,860.7839],[-3.9604,41.578,933.26],[-3.953,41.5734,928.4753],[-3.9422,41.5691,934.1984],[-3.9286,41.5687,935.8626],[-3.9144,41.5634,938.0599],[-3.9055,41.557,939.2387],[-3.8945,41.5521,939.4664],[-3.8857,41.5323,935.2869],[-3.8828,41.534,937.7343],[-3.8751,41.5347,938.1555],[-3.8679,41.5325,937.9437],[-3.8636,41.529,941.6974],[-3.8527,41.5125,953.6951],[-3.8422,41.5006,974.1238],[-3.834,41.4996,979.8105],[-3.8238,41.4811,1021.8344],[-3.8001,41.4859,1031.9725],[-3.7959,41.4845,1043.4489],[-3.7876,41.4859,1051.5393],[-3.794,41.4915,1032.3364],[-3.8031,41.4964,1012.0459],[-3.8021,41.5044,996.3696],[-3.7991,41.509,992.8449],[-3.8041,41.5163,975.1559],[-3.8035,41.5267,964.0583],[-3.7878,41.5312,921.0847],[-3.7828,41.5306,965.7246],[-3.7677,41.539,879.028],[-3.7658,41.5368,887.5102],[-3.7714,41.5214,964.8381],[-3.7696,41.5179,980.3368],[-3.7695,41.5109,1006.9288],[-3.7669,41.5066,1022.8242],[-3.7708,41.4996,1009.3121],[-3.7685,41.4937,1040.8359],[-3.7704,41.4893,1052.619],[-3.7715,41.4706,1114.6864],[-3.7697,41.4601,1138.6237],[-3.7441,41.4611,1151.2917],[-3.7394,41.4508,1326.0389],[-3.729,41.4576,1352.5994],[-3.7323,41.4699,1123.9189],[-3.7236,41.4792,1070.8884],[-3.729,41.4839,1056.9282],[-3.7265,41.4954,995.1825],[-3.7281,41.5028,968.8258],[-3.7248,41.5078,958.1671],[-3.7282,41.5176,928.259],[-3.7166,41.524,928.2877],[-3.7068,41.5259,999.176],[-3.7068,41.5302,992.5366],[-3.6982,41.5341,967.4637],[-3.6915,41.5345,974.3621],[-3.6891,41.5406,964.8942]],
[[-4.0341,42.0954,837.1996],[-4.0353,42.096,851.2097],[-4.0353,42.1015,868.587],[-4.0376,42.1026,899.183],[-4.0334,42.107,890.0104],[-4.0256,42.0915,839.1608],[-4.0242,42.0811,779.719],[-4.0319,42.0786,778.0769],[-4.0275,42.0878,833.4907],[-4.0297,42.093,836.5004],[-4.0341,42.0954,837.1996]],
[[-4.0645,42.143,781.1991],[-4.0638,42.1389,793.8729],[-4.0597,42.1362,892.6905],[-4.0621,42.1316,891.6854],[-4.0677,42.1331,836.3401],[-4.07,42.1368,800.6641],[-4.09,42.142,762.3732],[-4.1027,42.1372,762.3738],[-4.11,42.1432,767.7899],[-4.1118,42.1586,808.1956],[-4.0942,42.1577,776.8773],[-4.0762,42.1678,780.0645],[-4.0689,42.1631,768.2645],[-4.0656,42.1635,768.3854],[-4.0671,42.1576,768.5081],[-4.0705,42.1558,762.5682],[-4.0744,42.1561,766.524],[-4.0727,42.1518,766.4851],[-4.0645,42.143,781.1991]]],
[[[-4.245,42.736,956.2328],[-4.2607,42.7387,963.0722],[-4.2631,42.7305,907.8311],[-4.2513,42.7265,907.4688],[-4.245,42.736,956.2328]]],
[[[-2.7187,42.7887,791.9604],[-2.7281,42.7912,813.7836],[-2.7315,42.7945,883.6667],[-2.7436,42.7922,855.4283],[-2.7582,42.7939,929.1054],[-2.7674,42.7924,896.6961],[-2.7729,42.794,879.6198],[-2.8103,42.7915,748.3337],[-2.8178,42.79,684.8019],[-2.8268,42.7844,539.2551],[-2.8305,42.7921,687.6205],[-2.8354,42.7963,773.191],[-2.8418,42.7762,511.6285],[-2.8452,42.778,542.2068],[-2.8537,42.7682,501.9578],[-2.8538,42.7666,502.6535],[-2.8483,42.7633,487.0883],[-2.8523,42.7621,502.4494],[-2.8532,42.7586,470.7764],[-2.8512,42.7528,466.3662],[-2.8558,42.7525,472.3499],[-2.8542,42.747,486.1061],[-2.8619,42.7455,475.6262],[-2.8684,42.7399,476.5936],[-2.8649,42.7371,510.8979],[-2.8542,42.7364,544.2131],[-2.8467,42.7307,602.6492],[-2.8552,42.7287,565.3032],[-2.8516,42.7251,576.8806],[-2.8442,42.7245,654.1606],[-2.8289,42.719,630.3773],[-2.8253,42.7089,544.4728],[-2.811,42.7067,498.9709],[-2.8067,42.7023,606.6843],[-2.7954,42.6979,760.8622],[-2.7845,42.6989,783.516],[-2.7783,42.6857,558.5355],[-2.7705,42.6766,689.0703],[-2.7707,42.6727,751.6163],[-2.7757,42.6702,803.5735],[-2.7705,42.6687,868.0767],[-2.7678,42.666,905.7961],[-2.7489,42.6659,955.8591],[-2.735,42.6621,1036.7883],[-2.7265,42.6637,840.6004],[-2.718,42.662,755.5786],[-2.7145,42.6639,780.2828],[-2.7147,42.6696,729.8436],[-2.7053,42.6738,656.3254],[-2.6992,42.6748,645.9179],[-2.6798,42.6716,778.6104],[-2.6778,42.6692,761.1727],[-2.6706,42.6698,749.4765],[-2.6663,42.6662,760.5096],[-2.6591,42.6724,667.3983],[-2.6539,42.67,706.7839],[-2.6517,42.661,746.3165],[-2.6348,42.6478,953.3149],[-2.6318,42.6492,950.1473],[-2.6186,42.6486,989.8107],[-2.6133,42.6468,1003.4099],[-2.6039,42.6496,955.6796],[-2.6011,42.6478,964.0579],[-2.5998,42.6507,913.0896],[-2.5848,42.6516,872.3315],[-2.5649,42.6445,855.9107],[-2.5602,42.6473,781.0751],[-2.5607,42.6482,781.0751],[-2.5519,42.6492,787.6229],[-2.5478,42.6451,794.2106],[-2.5515,42.6407,750.9857],[-2.5491,42.6376,730.4664],[-2.5382,42.6387,701.392],[-2.5173,42.6463,780.4462],[-2.5173,42.6542,837.8942],[-2.5232,42.665,803.8306],[-2.522,42.684,731.3654],[-2.5354,42.6875,785.7341],[-2.5393,42.6866,817.5925],[-2.5483,42.6688,778.7497],[-2.5676,42.6705,788.3505],[-2.5732,42.6681,799.7875],[-2.5777,42.6682,798.9791],[-2.5794,42.6689,783.4543],[-2.5781,42.674,846.1523],[-2.5941,42.69,689.4082],[-2.6038,42.6956,620.5906],[-2.6089,42.696,620.3599],[-2.6081,42.7071,652.517],[-2.603,42.7087,670.1636],[-2.6003,42.7153,714.2089],[-2.5924,42.7106,644.1794],[-2.5899,42.7108,662.6974],[-2.5726,42.7252,763.1267],[-2.5702,42.7325,826.2272],[-2.567,42.7373,906.9896],[-2.5646,42.7369,911.9753],[-2.5625,42.7413,978.7851],[-2.5641,42.747,1011.2921],[-2.5589,42.7532,1069.7303],[-2.5583,42.7627,1124.8311],[-2.5648,42.7629,1131.4452],[-2.567,42.759,1082.4528],[-2.575,42.7547,1045.2269],[-2.5893,42.7503,803.8692],[-2.5917,42.7517,822.3741],[-2.5923,42.7593,950.7858],[-2.6024,42.7659,1014.9594],[-2.6023,42.7706,992.9361],[-2.609,42.7708,995.627],[-2.6143,42.7684,1007.4231],[-2.6178,42.7708,984.2421],[-2.6207,42.7694,960.1055],[-2.624,42.7705,910.6422],[-2.6327,42.7656,934.2038],[-2.6401,42.7663,902.2117],[-2.6437,42.7647,880.178],[-2.6455,42.7672,831.2529],[-2.6515,42.7675,849.4486],[-2.6533,42.7722,788.9854],[-2.6671,42.7745,753.9225],[-2.6678,42.7724,730.4777],[-2.6789,42.7798,783.1738],[-2.6936,42.779,851.5554],[-2.6948,42.7819,908.259],[-2.702,42.7844,939.202],[-2.7107,42.7836,956.4006],[-2.7187,42.7887,791.9604]]]]}
,"properties": {"GID_2": "ESP.5.2_1","GID_0": "ESP","country": "Spain","GID_1": "ESP.5_1","province": "CastillayLeón","NL_NAME_1": "NA","county": "Burgos","VARNAME_2": "NA","NL_NAME_2": "NA","TYPE_2": "Provincia","ENGTYPE_2": "Province","CC_2": "09","HASC_2": "ES.CL.BU","name": "Burgos.county","area_km2": 14264.36,"hist_schema_id": "Elevation0-9000","hist_area_km2": {"175": 0.4,"200": 2.21,"225": 4.58,"250": 6.56,"275": 7.55,"300": 8.52,"325": 14.86,"350": 19.19,"375": 20.11,"400": 18.85,"425": 18.34,"450": 27.52,"475": 55.39,"500": 53.73,"525": 76.22,"550": 88.75,"575": 120.84,"600": 163.73,"625": 175.8,"650": 242.92,"675": 263.46,"700": 265.84,"725": 266.24,"750": 274.37,"775": 506.77,"800": 785.49,"825": 900.1,"850": 967.8,"875": 1031.77,"900": 1124.84,"925": 1255.82,"950": 909.44,"975": 744.01,"1000": 679.75,"1025": 543.14,"1050": 394.35,"1075": 347.83,"1100": 289.64,"1125": 240.2,"1150": 204.92,"1175": 160.62,"1200": 133.15,"1225": 105.48,"1250": 83.7,"1275": 69.27,"1300": 64.67,"1325": 55.71,"1350": 48.4,"1375": 42.5,"1400": 38.27,"1425": 34.74,"1450": 31.37,"1475": 28.42,"1500": 25.83,"1525": 23.15,"1550": 20.35,"1575": 19.44,"1600": 19.21,"1625": 17.54,"1650": 16.07,"1675": 15.01,"1700": 13.16,"1725": 12.78,"1750": 10.38,"1775": 8.93,"1800": 7.97,"1825": 7.39,"1850": 5.93,"1875": 5.9,"1900": 5.0,"1925": 4.02,"1950": 2.99,"1975": 2.45,"2000": 1.51,"2025": 0.8,"2050": 0.22,"2075": 0.13}}}