{"type":"Feature","properties":{"ISO3166-1-Alpha-3":"ESP","country":"Spain","fill":"#00F","id":"5810","name":"Burgos"},
"geometry":{"type": "MultiPolygon","coordinates": [[[[-2.6389,42.77424,723.9814],[-2.70042,42.78796,808.9468],[-2.71502,42.793,719.2767],[-2.72613,42.79506,829.454],[-2.7528,42.79697,867.3345],[-2.81659,42.79398,561.0663],[-2.82708,42.79183,578.4431],[-2.83287,42.78726,617.998],[-2.85354,42.76369,513.4756],[-2.86811,42.7514,503.1309],[-2.87016,42.74468,500.1533],[-2.86532,42.73628,499.6618],[-2.84075,42.71775,554.2864],[-2.81414,42.70292,514.2432],[-2.75244,42.68184,658.0013],[-2.68435,42.67029,737.9366],[-2.63407,42.65476,806.9796],[-2.55692,42.65337,779.4221],[-2.55041,42.65182,815.4158],[-2.54514,42.65001,796.6273],[-2.54276,42.64621,802.4467],[-2.53824,42.64337,736.0825],[-2.52604,42.64474,738.0206],[-2.51527,42.64931,771.1653],[-2.51294,42.65337,810.0561],[-2.51444,42.66577,792.0811],[-2.51829,42.67453,763.7545],[-2.51953,42.68096,751.5151],[-2.52255,42.68639,748.4318],[-2.52578,42.68949,756.8223],[-2.53235,42.68882,788.3961],[-2.53772,42.68597,803.9215],[-2.5471,42.67807,807.7325],[-2.5533,42.67538,802.346],[-2.5595,42.67352,817.3312],[-2.56607,42.67453,874.2853],[-2.57214,42.6774,860.7034],[-2.58198,42.68825,748.0081],[-2.58684,42.69254,691.3135],[-2.59216,42.69626,646.4451],[-2.59705,42.70029,631.3812],[-2.60079,42.70437,651.3368],[-2.6003,42.70907,693.6088],[-2.59821,42.71316,720.209],[-2.59312,42.71589,670.2236],[-2.58043,42.71848,770.5959],[-2.57516,42.72132,755.8434],[-2.57128,42.72525,763.1267],[-2.56193,42.73915,974.1359],[-2.56035,42.74385,999.5591],[-2.55777,42.74824,1037.0233],[-2.55607,42.75638,1109.2441],[-2.55919,42.75935,1128.3285],[-2.5695,42.7591,1015.5276],[-2.57811,42.76049,982.2064],[-2.58694,42.76488,795.4448],[-2.5927,42.76925,843.1937],[-2.59635,42.77364,953.2711],[-2.60154,42.7761,878.818],[-2.60813,42.77661,938.9196],[-2.61668,42.77419,894.8939],[-2.62629,42.7732,822.3284],[-2.6389,42.77424,723.9814]]],
[[[-3.16481,43.14698,295.535],[-3.15954,43.15494,243.0175],[-3.14184,43.16512,310.9813],[-3.14215,43.17478,483.2578],[-3.14593,43.17837,479.7061],[-3.15151,43.18145,419.5165],[-3.17357,43.18398,448.1058],[-3.2075,43.18439,276.953],[-3.22975,43.18698,444.8192],[-3.24659,43.19809,754.287],[-3.25248,43.20044,746.9576],[-3.25946,43.20119,528.1914],[-3.26832,43.19995,558.9535],[-3.27848,43.19731,718.5545],[-3.36242,43.15793,660.8019],[-3.42379,43.14062,982.3634],[-3.45201,43.13887,875.536],[-3.48167,43.14186,1126.5928],[-3.50007,43.1407,1003.9133],[-3.51903,43.14378,1106.0215],[-3.54608,43.153,960.9766],[-3.57435,43.15866,1078.6693],[-3.60378,43.16176,1310.8812],[-3.61202,43.16532,1376.8762],[-3.62778,43.17432,1290.3511],[-3.6367,43.17705,1400.491],[-3.64781,43.17618,1399.4633],[-3.66215,43.1693,1232.6415],[-3.68233,43.15339,1216.2623],[-3.7062,43.12972,979.6445],[-3.72111,43.11804,1126.8877],[-3.73282,43.11086,1000.271],[-3.75101,43.10334,1293.1377],[-3.76622,43.09344,1066.9265],[-3.77529,43.09039,1117.7612],[-3.78465,43.0891,938.2392],[-3.81322,43.09086,1001.476],[-3.82307,43.09034,737.3439],[-3.83172,43.08838,673.4178],[-3.83829,43.08466,828.9492],[-3.83803,43.07603,897.3047],[-3.8388,43.06709,1121.5055],[-3.84268,43.05732,957.6132],[-3.8549,43.04766,881.5469],[-3.86495,43.04347,1015.5777],[-3.88025,43.03991,976.0316],[-3.89614,43.03319,835.0],[-3.91663,43.0165,835.0],[-3.93497,43.00763,835.0],[-3.94329,43.00497,835.21],[-3.95115,43.00063,835.0],[-3.95262,42.99924,835.0],[-3.96071,42.98743,842.839],[-3.98363,42.94033,957.4312],[-3.9851,42.93314,1028.2959],[-3.98479,42.92583,1074.5452],[-3.98066,42.91849,1011.0984],[-3.97425,42.91216,1139.4904],[-3.96577,42.90725,990.5068],[-3.95616,42.90456,897.6102],[-3.94611,42.90436,1029.6125],[-3.92779,42.90883,942.6348],[-3.90195,42.92038,916.179],[-3.89482,42.9256,888.3644],[-3.88632,42.93836,971.7328],[-3.88133,42.94386,1067.8418],[-3.87332,42.94622,1071.5386],[-3.86464,42.94792,1098.7581],[-3.85588,42.94575,1039.6487],[-3.84852,42.941,1025.7521],[-3.84175,42.93443,1029.8351],[-3.83625,42.92787,956.2357],[-3.8341,42.92157,1001.7314],[-3.83948,42.91418,976.6385],[-3.86968,42.89999,782.9126],[-3.89815,42.89857,750.3854],[-3.89983,42.89454,805.5402],[-3.90048,42.88963,867.6775],[-3.90642,42.88539,816.3879],[-3.90924,42.88028,737.9314],[-3.90521,42.86865,844.6083],[-3.90464,42.86154,795.2855],[-3.901,42.85537,835.9519],[-3.89389,42.85139,748.6963],[-3.88531,42.85123,720.8237],[-3.8772,42.85527,779.6683],[-3.86937,42.8648,1011.186],[-3.86208,42.87201,991.1923],[-3.84991,42.87663,934.582],[-3.83968,42.87578,965.8258],[-3.83139,42.87232,961.3865],[-3.82756,42.8655,927.6959],[-3.82682,42.85754,866.033],[-3.8278,42.84715,869.5248],[-3.82555,42.83935,864.9258],[-3.81808,42.8286,691.1875],[-3.8156,42.82372,872.7915],[-3.81472,42.81697,912.2932],[-3.81576,42.81005,951.6702],[-3.82139,42.80395,968.9265],[-3.8309,42.79987,989.6142],[-3.86547,42.79982,1039.8019],[-3.88304,42.79713,1087.7136],[-3.9174,42.77346,1069.8066],[-3.92942,42.76897,1066.8589],[-3.94903,42.76442,1071.3694],[-3.9652,42.76251,1066.4062],[-4.00019,42.76979,1030.0527],[-3.9974,42.78594,725.6926],[-3.99825,42.79269,714.8102],[-3.9991,42.81542,900.4775],[-4.00034,42.82111,984.0867],[-4.00277,42.82359,972.7454],[-4.01104,42.82077,909.957],[-4.0189,42.8163,907.0939],[-4.04716,42.7701,1083.1199],[-4.08577,42.76313,1154.973],[-4.09605,42.74574,1071.1965],[-4.10338,42.73876,955.508],[-4.11152,42.73601,945.4017],[-4.11714,42.73739,942.2684],[-4.13269,42.7478,991.471],[-4.14588,42.75163,993.1533],[-4.15913,42.74875,927.2686],[-4.1855,42.73631,1024.5717],[-4.21845,42.70473,986.9686],[-4.24518,42.69237,947.4026],[-4.25855,42.69727,972.029],[-4.26537,42.70167,980.9565],[-4.26683,42.70541,998.4716],[-4.2829,42.68601,866.5962],[-4.28505,42.67597,936.2946],[-4.27577,42.65298,994.7592],[-4.27405,42.61688,921.708],[-4.29393,42.60521,891.0566],[-4.28263,42.57605,885.0414],[-4.30425,42.56883,825.3335],[-4.29928,42.56431,835.4238],[-4.29706,42.56662,855.3006],[-4.276,42.55053,833.7994],[-4.26317,42.53604,828.6657],[-4.24622,42.49201,807.0771],[-4.24393,42.45527,802.3631],[-4.30247,42.45936,871.2291],[-4.3159,42.45634,872.7648],[-4.32526,42.44928,877.4621],[-4.3306,42.4387,831.446],[-4.33076,42.40556,796.7129],[-4.32698,42.39074,872.4741],[-4.31747,42.38246,852.0482],[-4.27268,42.38558,785.7136],[-4.27698,42.38328,785.3597],[-4.23503,42.22907,761.3594],[-4.23808,42.21438,758.5051],[-4.19099,42.18106,902.8965],[-4.20541,42.13473,894.6014],[-4.12031,42.12821,758.2526],[-4.10418,42.06162,817.3234],[-4.08538,42.04268,903.6119],[-4.07993,42.04011,902.8843],[-3.98852,42.05154,852.1639],[-3.9783,42.04845,878.518],[-3.97095,42.03982,865.6495],[-3.97267,42.03076,901.6125],[-4.02901,41.97653,922.8174],[-4.02457,41.95752,925.7366],[-4.00603,41.95725,915.1052],[-3.91513,41.99292,898.5903],[-3.90392,41.99128,883.9662],[-3.8962,41.9843,890.0893],[-3.89246,41.97408,889.9772],[-3.89322,41.96276,901.7252],[-3.90113,41.9506,905.8002],[-3.91447,41.94271,906.3682],[-3.97609,41.93013,900.4588],[-3.98047,41.92528,916.1106],[-3.98265,41.90585,933.0407],[-3.9859,41.8973,936.0983],[-3.9911,41.89065,940.5001],[-3.99805,41.88567,937.6465],[-4.05327,41.86967,923.7263],[-4.08873,41.87048,875.4722],[-4.0901,41.83103,922.4685],[-4.03794,41.78984,895.1304],[-4.04103,41.76822,901.3892],[-4.05579,41.74078,898.5135],[-4.03138,41.70107,912.0657],[-4.02758,41.684,909.9407],[-4.03038,41.63062,895.0325],[-3.993,41.60866,771.8803],[-3.98061,41.58325,842.4993],[-3.88901,41.5471,938.6033],[-3.8358,41.49987,976.5341],[-3.83409,41.49952,979.8105],[-3.78605,41.5021,1000.6597],[-3.76992,41.46007,1138.6237],[-3.72909,41.45765,1352.5994],[-3.72957,41.50496,959.7742],[-3.72723,41.51408,971.2751],[-3.71995,41.52159,964.7529],[-3.69741,41.53105,979.2045],[-3.69086,41.53585,981.2705],[-3.67861,41.55428,903.0143],[-3.67277,41.55924,877.6732],[-3.64754,41.57016,916.5031],[-3.62332,41.57361,904.1916],[-3.57294,41.56542,973.8094],[-3.54173,41.57777,938.006],[-3.54296,41.59377,1017.6415],[-3.54089,41.60092,945.6387],[-3.53584,41.60582,923.8779],[-3.52768,41.60747,932.6604],[-3.45971,41.58943,1015.0417],[-3.39348,41.69067,927.6717],[-3.35847,41.69341,949.5043],[-3.35435,41.73734,966.3821],[-3.321,41.74538,996.788],[-3.28297,41.76433,980.2119],[-3.27953,41.7673,985.9291],[-3.27786,41.77141,965.8561],[-3.2877,41.834,1107.3118],[-3.28642,41.85523,1165.5446],[-3.2721,41.8654,1126.9062],[-3.25299,41.86369,1133.5747],[-3.23733,41.84937,1105.4869],[-3.23341,41.84395,1132.7067],[-3.22868,41.84045,1147.5388],[-3.20156,41.83113,1187.1996],[-3.19484,41.82692,1177.696],[-3.17144,41.79294,1167.4778],[-3.07535,41.88319,1270.7063],[-3.04515,41.88937,1324.2839],[-3.01685,41.88683,1327.988],[-3.00256,41.92166,1305.6401],[-2.99905,41.92645,1358.7417],[-2.99078,41.92977,1348.5778],[-2.98166,41.9293,1410.5793],[-2.97375,41.93082,1387.979],[-2.9692,41.94006,1149.6862],[-2.9643,41.96255,1193.4502],[-2.93227,42.01805,2043.8103],[-2.91018,42.02343,1951.272],[-2.91762,42.05717,1646.5671],[-2.92181,42.0633,1803.5198],[-2.92423,42.0702,1942.7047],[-2.92873,42.07702,1752.9937],[-2.93416,42.0827,1661.5652],[-2.94222,42.08487,1472.2271],[-2.95131,42.08508,1610.6306],[-2.96015,42.08332,1533.0286],[-2.97503,42.08208,1213.0294],[-2.99002,42.08239,1257.5321],[-2.99772,42.08151,1543.2986],[-3.01084,42.08213,1639.2717],[-3.02632,42.08797,1797.2659],[-3.03648,42.09955,1640.3911],[-3.03986,42.10655,1575.6683],[-3.04449,42.11327,1484.6659],[-3.05523,42.12526,1310.8534],[-3.07071,42.13319,1322.274],[-3.07777,42.13769,1301.7822],[-3.08451,42.15092,1314.2993],[-3.08714,42.15856,1383.2061],[-3.12045,42.19629,1491.7699],[-3.12097,42.20156,1675.9985],[-3.10869,42.20947,1761.8289],[-3.10221,42.21784,1843.7273],[-3.09084,42.24908,1902.2897],[-3.08877,42.26044,1548.7766],[-3.08789,42.26995,1765.6479],[-3.08857,42.27739,1679.1846],[-3.09017,42.28476,1439.9889],[-3.09347,42.29194,1267.0742],[-3.09616,42.2998,1372.0804],[-3.0981,42.30775,1316.6521],[-3.09787,42.32512,1263.5167],[-3.09957,42.33251,1274.0986],[-3.10546,42.337649999999996,1220.1614],[-3.10942,42.34346,1111.5045],[-3.10787,42.34897,1133.3623],[-3.09782,42.35261,1110.2461],[-3.07839,42.3555,1274.4249],[-3.07195,42.35938,1181.2344],[-3.05604,42.38028,1166.0784],[-3.05609,42.38806,1126.9458],[-3.05828,42.39535,1078.9076],[-3.05929,42.40361,951.7625],[-3.05823,42.42586,775.4787],[-3.0496,42.4463,709.4249],[-3.04921,42.45234,698.1041],[-3.05208,42.45906,760.9048],[-3.0573,42.46495,672.4349],[-3.06007,42.47146,734.6706],[-3.06562,42.47689,674.4888],[-3.08048,42.48467,680.0756],[-3.08319,42.491459999999996,615.938],[-3.08056,42.49973,653.6699],[-3.07373,42.51208,614.7796],[-3.07071,42.52097,639.9235],[-3.07001,42.52914,641.2177],[-3.07239,42.53523,666.0089],[-3.07784,42.53976,676.8391],[-3.0858,42.54007,701.8857],[-3.09461,42.53895,746.3363],[-3.1026,42.53616,764.5488],[-3.11071,42.53681,750.8259],[-3.11515,42.54076,740.4792],[-3.11389,42.54841,754.9155],[-3.08366,42.57322,787.4418],[-3.07963,42.57942,776.3109],[-3.0735,42.58567,715.1075],[-3.06676,42.59146,690.5162],[-3.06053,42.59942,670.3537],[-3.06115,42.60652,682.3219],[-3.06448,42.61352,722.5173],[-3.0758,42.62567,950.7637],[-3.07211,42.63208,924.645],[-3.05689,42.63729,913.5789],[-3.01415,42.64089,678.6786],[-2.94865,42.63515,873.3073],[-2.93338,42.63019,828.0231],[-2.90672,42.62626,802.0833],[-2.83731,42.64412,637.3127],[-2.84171,42.65582,523.5294],[-2.85246,42.66541,540.9037],[-2.91793,42.70579,493.7465],[-2.94335,42.71434,489.7016],[-2.96868,42.73775,514.6881],[-2.98413,42.74313,544.7676],[-3.0032,42.75323,542.5625],[-3.03144,42.77274,554.7326],[-3.0635,42.7853,625.4528],[-3.09399,42.77444,732.7794],[-3.11957,42.76871,721.4597],[-3.12386,42.77005,776.855],[-3.13631,42.7699,1034.7516],[-3.13223,42.77739,1083.6405],[-3.129,42.78625,1216.0868],[-3.13445,42.79323,1162.762],[-3.14159,42.79796,1241.5629],[-3.14774,42.80369,1113.5713],[-3.15187,42.81015,991.7192],[-3.1512,42.81759,783.0314],[-3.14768,42.8254,783.9442],[-3.1413,42.8347,739.8952],[-3.13022,42.84521,648.3954],[-3.11931,42.85831,671.0245],[-3.11254,42.86826,818.3705],[-3.11042,42.87961,1000.7667],[-3.11422,42.88692,794.0131],[-3.12123,42.89033,787.1721],[-3.13022,42.88862,1004.7316],[-3.14422,42.87353,737.2086],[-3.15148,42.86811,630.8979],[-3.15908,42.86462,610.179],[-3.17812,42.86524,865.9224],[-3.18755,42.86371,826.9458],[-3.19569,42.86033,852.6828],[-3.20272,42.85506,976.2965],[-3.20737,42.84886,933.1158],[-3.21091,42.84286,842.4132],[-3.20998,42.83728,923.2102],[-3.21192,42.83206,1159.5212],[-3.21739,42.82974,958.4879],[-3.22429,42.83183,741.0518],[-3.23145,42.83589,727.8368],[-3.26181,42.86493,1001.802],[-3.27592,42.8747,1043.0234],[-3.28008,42.88035,855.0936],[-3.2791,42.8872,1049.5372],[-3.27545,42.89392,1014.9739],[-3.27026,42.90095,1073.623],[-3.25602,42.91226,1170.6584],[-3.24442,42.92462,914.4933],[-3.23998,42.93157,922.958],[-3.23318,42.93815,930.165],[-3.22411,42.94379,907.6478],[-3.18833,42.94673,833.3033],[-3.17595,42.94508,812.3844],[-3.16605,42.94286,806.2062],[-3.15745,42.93934,841.7421],[-3.1512,42.93428,965.4478],[-3.14649,42.92126,884.5469],[-3.14104,42.91609,850.3496],[-3.13306,42.91304,871.4503],[-3.12391,42.91077,887.332],[-3.10415,42.90852,971.4923],[-3.09441,42.9065,826.199],[-3.08474,42.90555,715.3077],[-3.07528,42.90557,636.0318],[-3.05898,42.90867,610.1667],[-3.0379,42.90885,896.1582],[-3.02919,42.91025,999.7495],[-3.0217,42.91446,1076.6183],[-3.00896,42.92327,983.0934],[-3.00087,42.92327,965.1851],[-2.98746,42.92632,877.3219],[-2.98227,42.9294,831.3574],[-2.97906,42.93361,828.038],[-2.97713,42.93903,602.0539],[-2.97852,42.94448,471.8575],[-2.98338,42.951,403.3502],[-3.01229,42.95846,576.558],[-3.02544,42.96508,725.0273],[-3.03428,42.97262,442.9615],[-3.03963,42.97805,858.9445],[-3.03937,42.98704,692.899],[-3.02702,42.9865,450.42],[-3.0086,42.98898,279.5623],[-3.00165,42.98906,278.649],[-2.99932,42.98947,281.5303],[-2.997,42.99092,288.4052],[-2.99291,42.99428,291.5952],[-2.98971,43.00048,354.4878],[-2.98741,43.00893,524.1049],[-2.9895,43.01469,562.8121],[-2.99712,43.02084,397.8117],[-3.01609,43.02541,287.6255],[-3.02288,43.03133,455.5963],[-3.02358,43.03711,424.3048],[-3.02361,43.04311,320.2295],[-3.02862,43.04735,558.3679],[-3.03673,43.04972,480.525],[-3.05526,43.04314,364.9119],[-3.07353,43.01396,936.8452],[-3.08495,43.01071,957.8707],[-3.09208,43.01221,1067.8815],[-3.12161,43.01358,1075.4612],[-3.15223,43.01986,1043.5076],[-3.16047,43.02296,1085.1567],[-3.16512,43.02668,1072.5396],[-3.16094,43.03303,666.996],[-3.15512,43.0396,566.7015],[-3.14851,43.05045,447.0762],[-3.14815,43.07422,579.164],[-3.14275,43.09246,445.8609],[-3.14184,43.10414,444.7434],[-3.14758,43.11127,401.4433],[-3.1651,43.11654,412.7692],[-3.17083,43.12243,497.7391],[-3.17257,43.13137,346.3426],[-3.16481,43.14698,295.535]],
[[-4.09255,42.13859,762.8842],[-4.09684,42.14112,762.5678],[-4.10005,42.14521,766.1083],[-4.10334,42.15482,782.2399],[-4.10299,42.16006,808.6943],[-4.10078,42.16496,791.5593],[-4.09731,42.16918,803.7739],[-4.09315,42.1724,818.9022],[-4.08301,42.17449,814.2144],[-4.0707,42.17201,778.306],[-4.05994,42.16595,769.0292],[-4.0544,42.15729,769.5542],[-4.05209,42.14352,850.3457],[-4.05398,42.13948,869.754],[-4.05795,42.13717,850.9985],[-4.07378,42.13378,772.6351],[-4.09255,42.13859,762.8842]]]]}}