{"type":"Feature","properties":{"GID_3":"ESP.5.8.2_1","GID_0":"ESP","country":"Spain","GID_1":"ESP.5_1","province":"CastillayLeón","NL_NAME_1":"NA","GID_2":"ESP.5.8_1","county":"Valladolid","NL_NAME_2":"NA","city":"n.a.(264)","VARNAME_3":"NA","NL_NAME_3":"NA","TYPE_3":"Comarca","ENGTYPE_3":"Comarca","CC_3":"NA","HASC_3":"NA","name":"n.a.(264).city"},
"geometry":{"type": "MultiPolygon","coordinates": [[[[-4.9139,41.5514,760.4183],[-4.9129,41.5549,785.0736],[-4.9082,41.5567,827.6915],[-4.9003,41.553,778.2854],[-4.8893,41.5526,715.7865],[-4.8832,41.5474,684.9636],[-4.8685,41.555,679.4054],[-4.8654,41.5505,672.5779],[-4.8617,41.5546,675.7974],[-4.8382,41.5401,688.3609],[-4.8317,41.5345,691.6708],[-4.8326,41.5286,687.0776],[-4.7953,41.5211,694.0369],[-4.7853,41.512,688.7698],[-4.7789,41.5008,692.1035],[-4.7736,41.4956,690.01],[-4.7647,41.4934,698.9382],[-4.7476,41.4979,698.485],[-4.7228,41.5085,698.8361],[-4.7058,41.5265,697.9396],[-4.6941,41.5253,695.525],[-4.6853,41.5287,703.8535],[-4.6775,41.54,695.5919],[-4.6747,41.5417,696.4839],[-4.6756,41.5435,701.0557],[-4.6832,41.5433,705.3252],[-4.6842,41.5475,739.2111],[-4.6777,41.5488,748.9438],[-4.6689,41.5466,714.5465],[-4.6625,41.5469,701.0032],[-4.6614,41.5456,700.7676],[-4.6358,41.5577,701.9424],[-4.6384,41.5634,711.432],[-4.6157,41.5686,709.4551],[-4.6042,41.5565,713.2708],[-4.5894,41.5537,761.7901],[-4.5801,41.5569,850.0739],[-4.5638,41.5587,854.6292],[-4.5451,41.5645,855.8562],[-4.539,41.5632,858.7295],[-4.5307,41.5713,839.6044],[-4.5255,41.5692,855.7972],[-4.5192,41.5748,850.7223],[-4.5163,41.5751,856.6719],[-4.5136,41.5732,859.9868],[-4.5125,41.5807,732.1014],[-4.5146,41.5875,714.6924],[-4.5165,41.588,716.405],[-4.5167,41.5909,714.846],[-4.5249,41.5948,703.559],[-4.5149,41.6002,713.8726],[-4.5111,41.5993,715.8845],[-4.5006,41.6007,716.4113],[-4.4873,41.606,717.9137],[-4.4775,41.6061,716.7814],[-4.4766,41.6112,709.4778],[-4.4673,41.6108,713.0034],[-4.4666,41.6051,718.5179],[-4.4592,41.6052,714.6949],[-4.4495,41.61,716.2172],[-4.4477,41.6138,713.156],[-4.4506,41.618899999999996,797.197],[-4.4499,41.6236,856.0455],[-4.4433,41.6263,860.9889],[-4.4278,41.6266,834.3143],[-4.4294,41.6275,852.3217],[-4.4285,41.6285,829.7189],[-4.4185,41.6294,765.8431],[-4.4134,41.6282,756.3959],[-4.4097,41.6247,715.6005],[-4.4024,41.6273,718.4594],[-4.4005,41.6301,714.4789],[-4.3935,41.6242,717.0323],[-4.3853,41.6294,721.4055],[-4.3681,41.627,722.7276],[-4.3492,41.6296,724.2085],[-4.3327,41.6377,722.5063],[-4.3177,41.639,723.2964],[-4.3198,41.6494,868.8583],[-4.3161,41.6507,838.1978],[-4.3226,41.6508,871.2809],[-4.3227,41.6523,876.887],[-4.3206,41.6553,874.9619],[-4.3184,41.6557,877.8679],[-4.317,41.6609,835.7925],[-4.3187,41.6649,867.8892],[-4.3235,41.6669,867.4576],[-4.3197,41.6764,884.3169],[-4.3263,41.6811,883.4142],[-4.3307,41.6901,845.6186],[-4.3375,41.6918,829.4298],[-4.3456,41.6998,796.8123],[-4.3259,41.7003,826.8395],[-4.3177,41.7032,855.0891],[-4.3075,41.702,839.9825],[-4.3024,41.6955,832.0721],[-4.2905,41.6941,869.7686],[-4.2857,41.6952,875.5894],[-4.279,41.6922,873.5751],[-4.2649,41.6963,879.2699],[-4.2632,41.6925,874.7721],[-4.2601,41.6936,849.9535],[-4.261,41.6949,883.3215],[-4.2477,41.6964,870.2316],[-4.238,41.7021,886.8856],[-4.2343,41.7019,856.2706],[-4.2206,41.7072,893.001],[-4.205,41.7075,886.5145],[-4.1996,41.7093,884.3364],[-4.2022,41.7152,897.4836],[-4.1894,41.7244,877.7708],[-4.1837,41.7238,870.9231],[-4.161,41.734,887.7577],[-4.151,41.7255,902.6292],[-4.1441,41.7222,905.0111],[-4.139,41.7261,904.8318],[-4.1287,41.7275,906.9064],[-4.1202,41.7312,903.7609],[-4.1128,41.7183,900.1644],[-4.0763,41.7261,895.5878],[-4.0746,41.7287,891.44],[-4.0759,41.7354,875.7528],[-4.069,41.7412,846.6834],[-4.0656,41.7394,853.55],[-4.0557,41.7407,898.5135],[-4.0495,41.7682,846.2186],[-4.0408,41.7683,901.3892],[-4.0614,41.7747,882.7808],[-4.064,41.7702,860.6404],[-4.0715,41.7706,845.7795],[-4.0851,41.7791,804.6733],[-4.09,41.7795,809.7805],[-4.0965,41.7748,806.4628],[-4.0994,41.7744,829.9272],[-4.1085,41.7853,898.1237],[-4.1106,41.7947,911.0676],[-4.1178,41.8003,922.1429],[-4.1231,41.8073,920.8096],[-4.1507,41.7989,914.3419],[-4.1538,41.7962,903.9545],[-4.1634,41.8012,894.015],[-4.1702,41.8002,889.5984],[-4.1755,41.8028,885.9552],[-4.1903,41.8016,858.8634],[-4.1943,41.804,847.4084],[-4.215,41.7996,833.6984],[-4.2328,41.8081,821.2579],[-4.2359,41.814,813.2367],[-4.2363,41.8114,826.9974],[-4.2474,41.8029,880.2096],[-4.2562,41.806399999999996,855.9641],[-4.2602,41.8052,873.2217],[-4.2712,41.792,880.4969],[-4.2787,41.7886,882.4487],[-4.2865,41.7749,870.4792],[-4.3067,41.7759,821.1135],[-4.3134,41.7695,854.1427],[-4.3172,41.7685,856.8295],[-4.3176,41.7634,882.7103],[-4.3338,41.7721,850.1904],[-4.3525,41.7738,884.2889],[-4.3813,41.7823,876.0763],[-4.3825,41.7837,877.7045],[-4.3802,41.7864,876.3085],[-4.3916,41.7873,876.5204],[-4.4039,41.7832,875.1945],[-4.4213,41.7681,877.6183],[-4.4421,41.7586,875.0657],[-4.4542,41.7592,869.7815],[-4.4845,41.7695,867.0834],[-4.5011,41.7714,868.8963],[-4.4923,41.7786,808.2001],[-4.4936,41.7803,855.4581],[-4.4873,41.8201,843.2566],[-4.4836,41.8203,860.3008],[-4.4791,41.8183,853.1335],[-4.4685,41.8206,871.6843],[-4.4657,41.8193,872.125],[-4.4611,41.8203,872.5612],[-4.4782,41.8286,872.8663],[-4.4733,41.832,861.5011],[-4.4717,41.8405,857.5709],[-4.4732,41.843,864.6983],[-4.4783,41.8433,867.8064],[-4.4793,41.8382,870.1089],[-4.4918,41.8384,870.4809],[-4.4994,41.8332,873.2839],[-4.5085,41.8323,856.8148],[-4.5052,41.83,870.9404],[-4.5055,41.8268,863.6373],[-4.509,41.8263,864.4915],[-4.512,41.8233,815.7439],[-4.5209,41.8232,737.4995],[-4.5294,41.8278,722.7178],[-4.5491,41.831,699.8292],[-4.5501,41.8288,699.1846],[-4.5454,41.8261,700.0354],[-4.548,41.819,704.305],[-4.5509,41.8167,706.4669],[-4.5549,41.8164,703.9379],[-4.5646,41.8184,703.5078],[-4.5672,41.8162,704.84],[-4.566,41.8126,699.0222],[-4.582,41.8224,717.6381],[-4.591,41.8368,744.1885],[-4.6037,41.8386,765.5569],[-4.618,41.8512,801.5299],[-4.624,41.854,802.9429],[-4.6263,41.8582,804.2566],[-4.6327,41.8632,848.1755],[-4.6294,41.8683,824.7604],[-4.6319,41.8682,816.2812],[-4.6349,41.871,828.8319],[-4.6336,41.8758,834.9495],[-4.6364,41.8791,832.6247],[-4.6348,41.8836,839.3115],[-4.6372,41.8881,848.7603],[-4.6438,41.8912,855.6122],[-4.6498,41.891,859.9707],[-4.6581,41.8946,859.8668],[-4.6583,41.8968,860.196],[-4.6696,41.9005,858.9562],[-4.6783,41.8998,858.1292],[-4.6778,41.898,857.9976],[-4.686,41.891,857.6919],[-4.701,41.8873,857.6547],[-4.7187,41.8734,857.8667],[-4.7282,41.8688,856.1505],[-4.7322,41.8618,854.6428],[-4.7263,41.8545,854.7177],[-4.748,41.8405,852.8184],[-4.7543,41.8335,853.3679],[-4.7583,41.8258,854.0627],[-4.7691,41.8258,854.8179],[-4.77,41.8231,852.3257],[-4.7892,41.818,854.0939],[-4.7888,41.8195,856.2733],[-4.7933,41.822,853.2762],[-4.7948,41.8288,856.2406],[-4.7991,41.8341,856.2657],[-4.8137,41.863,856.0997],[-4.8228,41.8674,855.6015],[-4.8292,41.875,856.2397],[-4.8323,41.8804,855.2692],[-4.8324,41.8868,850.1083],[-4.8382,41.8985,844.9273],[-4.856,41.9132,770.4471],[-4.8578,41.9131,770.2446],[-4.8558,41.9156,767.1163],[-4.8591,41.9151,768.7991],[-4.8629,41.9183,766.5341],[-4.8676,41.9176,766.4029],[-4.8671,41.9158,767.7695],[-4.8762,41.9149,771.0317],[-4.8729,41.8983,800.2615],[-4.884,41.884,831.23],[-4.8864,41.877,847.4172],[-4.8892,41.8741,847.1392],[-4.8953,41.8732,849.841],[-4.8992,41.8672,846.2671],[-4.915,41.8577,838.6929],[-4.9228,41.8553,834.2012],[-4.9371,41.8422,849.1738],[-4.9419,41.8345,850.1818],[-4.9426,41.8188,848.7205],[-4.9308,41.8105,849.1553],[-4.9167,41.804,849.3105],[-4.9281,41.8004,847.9976],[-4.9428,41.7991,848.3492],[-4.9525,41.8,846.8805],[-4.976,41.8111,846.049],[-4.982,41.8158,846.0309],[-4.9813,41.8092,845.9116],[-4.9829,41.8082,846.6051],[-4.9906,41.8156,845.4329],[-5.002,41.8135,845.3736],[-5.0054,41.8143,846.1614],[-4.9988,41.8106,844.7275],[-5.0057,41.8058,844.8821],[-5.0143,41.8056,845.054],[-5.0358,41.795,842.353],[-5.0456,41.7936,841.7742],[-5.0483,41.802,842.3519],[-5.0441,41.8165,827.6713],[-5.0569,41.8173,834.1422],[-5.0636,41.8035,840.1953],[-5.065,41.7889,841.5956],[-5.0632,41.7814,840.5585],[-5.0679,41.7756,840.5959],[-5.0783,41.7743,840.9644],[-5.0731,41.7703,838.4392],[-5.0784,41.7691,839.9344],[-5.1029,41.7532,836.7729],[-5.1276,41.7414,835.9773],[-5.135,41.7342,835.254],[-5.1381,41.7345,833.4811],[-5.1308,41.7264,835.0266],[-5.1376,41.7086,833.4598],[-5.1454,41.7106,832.1019],[-5.1491,41.7089,833.0365],[-5.1533,41.7118,832.325],[-5.1841,41.6917,828.9844],[-5.198,41.6904,828.5623],[-5.2105,41.6849,826.0302],[-5.2265,41.6823,828.0319],[-5.2435,41.6843,825.2266],[-5.2527,41.6823,820.8499],[-5.2591,41.6773,815.4892],[-5.2834,41.6735,824.7772],[-5.2825,41.676,825.3623],[-5.2847,41.6813,825.8132],[-5.3007,41.6881,764.8109],[-5.3034,41.6866,763.9732],[-5.3078,41.6984,733.8294],[-5.3131,41.6987,730.1078],[-5.3144,41.7042,722.5276],[-5.3184,41.7061,719.775],[-5.3199,41.7093,715.9407],[-5.3396,41.7038,723.5707],[-5.3407,41.6991,725.5228],[-5.3383,41.6868,740.3584],[-5.3281,41.6818,772.7751],[-5.3223,41.6626,794.7197],[-5.3246,41.6434,747.7404],[-5.3194,41.6368,741.4188],[-5.3233,41.6342,747.085],[-5.3252,41.6301,755.1888],[-5.3241,41.6251,750.533],[-5.3288,41.6159,734.8344],[-5.3201,41.6108,730.9095],[-5.3085,41.6117,729.6685],[-5.3056,41.6083,724.2899],[-5.2924,41.6089,730.4544],[-5.2774,41.6051,782.3476],[-5.2704,41.6011,790.0898],[-5.2718,41.5964,792.835],[-5.2706,41.5939,781.2577],[-5.2665,41.593,793.4413],[-5.2678,41.59,777.9648],[-5.2808,41.5847,753.4338],[-5.293,41.5744,719.9905],[-5.2831,41.5686,718.5334],[-5.2792,41.5642,713.123],[-5.2804,41.5621,708.4921],[-5.2725,41.5592,719.8336],[-5.2741,41.5527,722.1913],[-5.2725,41.5502,711.9252],[-5.2639,41.5516,725.1661],[-5.2568,41.5481,722.9494],[-5.2573,41.5471,722.9494],[-5.2477,41.5468,713.3336],[-5.2475,41.5451,714.4751],[-5.2394,41.5405,714.2986],[-5.2342,41.535,716.7006],[-5.233,41.5308,707.2034],[-5.2288,41.5284,706.1282],[-5.2337,41.5177,696.1423],[-5.2416,41.5198,696.769],[-5.2538,41.5097,700.5256],[-5.242,41.4957,700.0451],[-5.2402,41.4894,701.0829],[-5.2422,41.4891,701.437],[-5.2358,41.4845,699.4287],[-5.2363,41.4785,700.9921],[-5.2229,41.4801,698.7108],[-5.2028,41.479,688.7826],[-5.1986,41.4831,685.3851],[-5.1906,41.4787,685.8908],[-5.1876,41.4902,690.6663],[-5.183,41.4938,688.1147],[-5.1693,41.4862,690.4478],[-5.1629,41.4877,687.9626],[-5.1607,41.493,689.5839],[-5.1563,41.4924,692.7386],[-5.1536,41.5,690.7963],[-5.1394,41.4995,695.1294],[-5.1281,41.5031,694.4268],[-5.1225,41.4996,694.7057],[-5.1021,41.5134,701.9268],[-5.0761,41.5356,731.8823],[-5.0617,41.5352,746.1116],[-5.0598,41.5378,768.8322],[-5.0537,41.5385,824.4128],[-5.055,41.5399,793.2679],[-5.0527,41.5432,814.7617],[-5.0462,41.5425,825.4111],[-5.0474,41.5466,806.6429],[-5.0428,41.5465,826.3129],[-5.0444,41.5494,821.5182],[-5.0423,41.5507,795.9866],[-5.0396,41.5493,821.4894],[-5.039,41.5509,801.6849],[-5.0354,41.5515,829.671],[-5.0357,41.5536,828.816],[-5.0318,41.5567,821.0272],[-5.0297,41.5558,826.3381],[-5.0299,41.5569,826.3381],[-5.0253,41.5571,825.4001],[-5.0235,41.5587,827.7131],[-5.0226,41.555,822.9381],[-5.0199,41.5544,826.0187],[-5.0198,41.552,813.7696],[-5.0148,41.5464,751.6401],[-5.0146,41.5413,717.3101],[-4.992,41.5398,797.4033],[-4.9865,41.5411,753.2148],[-4.985,41.5435,750.2591],[-4.9516,41.5258,693.1084],[-4.9184,41.5307,699.4268],[-4.9254,41.5425,730.2924],[-4.9366,41.5415,713.0723],[-4.945,41.5459,715.5153],[-4.9455,41.5568,729.3933],[-4.932,41.5597,714.6131],[-4.9255,41.5568,725.3267],[-4.9192,41.5613,748.5143],[-4.9139,41.5514,760.4183]]]]}}