{"type":"Feature","properties":{"GID_3":"ESP.4.1.4_1","GID_0":"ESP","country":"Spain","GID_1":"ESP.4_1","province":"Castilla-LaMancha","NL_NAME_1":"NA","GID_2":"ESP.4.1_1","county":"Albacete","NL_NAME_2":"NA","city":"n.a.(13)","VARNAME_3":"NA","NL_NAME_3":"NA","TYPE_3":"Comarca","ENGTYPE_3":"Comarca","CC_3":"NA","HASC_3":"NA","name":"n.a.(13).city"},
"geometry":{"type": "MultiPolygon","coordinates": [[[[-2.5311,38.0741,1455.9076],[-2.5216,38.0698,1454.0549],[-2.5043,38.0684,1500.7646],[-2.4959,38.062,1688.719],[-2.4817,38.0553,1788.4967],[-2.4806,38.0532,1855.9612],[-2.4719,38.0564,1835.2983],[-2.4625,38.0503,1719.5574],[-2.4513,38.0491,1598.2952],[-2.436,38.0434,1425.3102],[-2.432,38.0434,1417.1873],[-2.4233,38.0337,1365.2491],[-2.4114,38.0322,1363.4253],[-2.4032,38.0329,1378.9335],[-2.3927,38.0309,1383.4794],[-2.373,38.0233,1363.4242],[-2.3578,38.0225,1328.4272],[-2.3415,38.026,1404.2162],[-2.3443,38.03,1421.0571],[-2.3382,38.0473,1482.0447],[-2.33,38.0602,1723.0718],[-2.3298,38.0654,1912.74],[-2.3135,38.0781,1852.9167],[-2.2933,38.0874,1838.3],[-2.2615,38.113,1610.0668],[-2.2503,38.1284,1478.8082],[-2.2495,38.135,1390.37],[-2.2509,38.1392,1390.5842],[-2.2455,38.1483,1266.4459],[-2.2375,38.1578,1265.1655],[-2.2332,38.1603,1284.5969],[-2.222,38.1775,1115.8413],[-2.2226,38.1833,1099.6747],[-2.2157,38.1938,1304.619],[-2.2134,38.2018,1472.7908],[-2.2066,38.2071,1448.0254],[-2.187,38.2143,1413.1261],[-2.1752,38.224,1427.3488],[-2.169,38.2265,1416.2043],[-2.1391,38.2316,1366.1204],[-2.1136,38.2382,1366.5649],[-2.0839,38.2651,1178.5884],[-2.0761,38.2828,1213.0814],[-2.0637,38.2976,1201.7092],[-2.0489,38.3058,1278.1018],[-2.03,38.2993,873.4072],[-2.0267,38.3007,861.0405],[-2.0209,38.3004,843.4077],[-2.0001,38.284,980.2845],[-1.986,38.2817,862.5448],[-1.9781,38.2822,937.4882],[-1.9628,38.2879,949.7673],[-1.9488,38.2893,777.0766],[-1.9075,38.298,710.8024],[-1.8931,38.303,668.3181],[-1.8686,38.3175,589.3934],[-1.8542,38.3303,609.8506],[-1.8425,38.3344,588.8338],[-1.8272,38.3339,559.3137],[-1.8218,38.3363,526.1571],[-1.8109,38.3514,690.9493],[-1.7923,38.3535,765.0149],[-1.7842,38.3562,813.0541],[-1.7969,38.365,545.5674],[-1.7957,38.3763,550.0421],[-1.8019,38.3856,501.6377],[-1.8039,38.3989,796.4362],[-1.8129,38.4081,689.704],[-1.8329,38.4133,590.0129],[-1.8336,38.4179,559.3936],[-1.8466,38.4267,599.2011],[-1.8818,38.4338,567.9821],[-1.8944,38.4319,621.9766],[-1.9116,38.4387,690.7708],[-1.9308,38.4375,897.2802],[-1.9444,38.4424,865.1784],[-1.953,38.4433,811.3296],[-1.9571,38.4418,800.5833],[-1.9617,38.4449,757.4516],[-1.9667,38.4453,826.4871],[-1.9648,38.4469,761.9667],[-1.9616,38.4619,740.9437],[-1.9614,38.4749,730.2416],[-1.951,38.4875,868.3888],[-1.962,38.4916,812.7355],[-1.9643,38.4899,795.3826],[-1.9739,38.4946,870.3362],[-1.994,38.4972,876.3218],[-1.9956,38.4937,879.4026],[-2.0181,38.4892,946.4727],[-2.0236,38.4846,929.3402],[-2.0261,38.485,948.0664],[-2.0267,38.4812,956.8139],[-2.0293,38.4795,915.4819],[-2.0389,38.4855,763.8364],[-2.047,38.5002,857.0855],[-2.0553,38.5035,921.1624],[-2.0483,38.5338,1029.8447],[-2.0454,38.5391,897.6888],[-2.0451,38.5504,699.277],[-2.0413,38.5553,893.1181],[-2.0387,38.5552,910.8092],[-2.0333,38.5658,986.1798],[-2.0342,38.5736,896.7338],[-2.0145,38.6075,961.0761],[-2.0047,38.6192,953.1288],[-2.0391,38.6199,1026.9066],[-2.0806,38.6279,1062.8099],[-2.0951,38.6352,1093.0459],[-2.1033,38.6421,1144.0997],[-2.1114,38.6439,1137.4974],[-2.1221,38.6352,1145.8385],[-2.1534,38.6434,1259.2775],[-2.1699,38.6435,1351.9648],[-2.1724,38.6452,1392.4382],[-2.189,38.6474,1422.701],[-2.1995,38.6462,1444.3369],[-2.2125,38.6475,1315.3158],[-2.2224,38.6459,1300.4744],[-2.2412,38.6405,1320.2637],[-2.2447,38.6362,1307.379],[-2.2501,38.639,1372.0388],[-2.2621,38.6411,1276.7913],[-2.2716,38.6406,1136.8926],[-2.276,38.6351,1019.1459],[-2.2754,38.629,982.0334],[-2.2718,38.6236,939.8694],[-2.2783,38.6082,1019.1423],[-2.277,38.6028,915.9446],[-2.2838,38.5892,1297.5232],[-2.281,38.562,1278.0879],[-2.2827,38.5575,1262.5043],[-2.2824,38.5478,1216.7922],[-2.2807,38.5416,1099.6244],[-2.2766,38.5365,1059.0391],[-2.2978,38.5326,1119.3535],[-2.2985,38.5312,1062.8838],[-2.3026,38.5404,1196.9755],[-2.2918,38.5462,1218.058],[-2.2942,38.5523,1295.2383],[-2.2996,38.5569,1354.8485],[-2.3047,38.5557,1357.0205],[-2.3132,38.5574,1365.2366],[-2.3217,38.5535,1381.5719],[-2.3308,38.5587,1425.1257],[-2.3364,38.5545,1433.2532],[-2.3423,38.5529,1420.413],[-2.3518,38.544,1471.9944],[-2.3539,38.5443,1512.3496],[-2.3696,38.5359,1517.7716],[-2.3761,38.5299,1572.8751],[-2.3883,38.5269,1525.0779],[-2.3992,38.5344,1486.2532],[-2.4094,38.5359,1361.6068],[-2.4146,38.5426,1479.6384],[-2.4133,38.5463,1454.9147],[-2.4193,38.555,1675.4216],[-2.4283,38.5523,1668.6929],[-2.4326,38.558,1449.6975],[-2.4384,38.5622,1579.4941],[-2.4454,38.5577,1632.6964],[-2.4437,38.5568,1593.4441],[-2.4442,38.5534,1617.7546],[-2.4466,38.5516,1621.1971],[-2.4449,38.5498,1698.0193],[-2.4556,38.5369,1557.9451],[-2.4714,38.5316,1435.6006],[-2.4723,38.5261,1266.6267],[-2.4703,38.5153,1137.0833],[-2.4531,38.5237,1190.1113],[-2.4401,38.5228,1283.9927],[-2.4287,38.5171,1249.0574],[-2.419,38.5233,1489.6919],[-2.4072,38.5274,1463.325],[-2.4058,38.5263,1410.376],[-2.4083,38.5201,1403.0536],[-2.392,38.5257,1520.0192],[-2.3896,38.5203,1249.1748],[-2.3827,38.5158,1171.3556],[-2.3734,38.515,1076.9417],[-2.3714,38.5134,1055.447],[-2.3714,38.5034,1376.8552],[-2.3745,38.5002,1355.1614],[-2.3764,38.4934,1104.3491],[-2.376,38.484,926.1082],[-2.3627,38.4832,930.5148],[-2.354,38.4857,903.8708],[-2.3476,38.4834,925.5203],[-2.348,38.481,956.5065],[-2.3529,38.4762,1006.7463],[-2.3518,38.4695,1079.6406],[-2.3637,38.4583,1229.1104],[-2.3653,38.4545,1342.8246],[-2.364,38.4521,1421.5482],[-2.3769,38.4537,1529.8535],[-2.3815,38.4489,1625.6245],[-2.3926,38.445,1673.5801],[-2.4129,38.4339,1599.4817],[-2.4198,38.4336,1631.2318],[-2.4227,38.4302,1615.9235],[-2.4437,38.4194,1595.0045],[-2.4815,38.3931,1586.2864],[-2.4923,38.3713,1451.9656],[-2.4899,38.3655,1300.1313],[-2.4908,38.3633,1278.6584],[-2.4857,38.3538,1187.6896],[-2.4791,38.3492,1455.4861],[-2.4811,38.3335,1705.333],[-2.48,38.329,1792.4894],[-2.4809,38.3245,1827.9287],[-2.4847,38.3202,1803.4592],[-2.485,38.3003,1523.0527],[-2.4814,38.295,1568.2782],[-2.446,38.2877,1038.1006],[-2.4407,38.2851,943.4418],[-2.439,38.2738,695.2302],[-2.4365,38.2722,674.2408],[-2.4364,38.2599,693.0775],[-2.4401,38.2601,720.4337],[-2.4397,38.2582,708.2737],[-2.4438,38.253,708.3781],[-2.4425,38.2481,705.142],[-2.4463,38.2443,700.874],[-2.4433,38.2443,707.7841],[-2.4421,38.2419,723.1916],[-2.4425,38.2355,716.7236],[-2.4406,38.2324,721.5677],[-2.4504,38.2202,747.0612],[-2.4536,38.2183,749.624],[-2.4529,38.2105,746.476],[-2.447,38.2076,830.8278],[-2.4454,38.2046,834.0057],[-2.4474,38.1908,939.7869],[-2.4462,38.1852,906.8576],[-2.4558,38.1796,921.3689],[-2.4579,38.1763,972.7054],[-2.4642,38.1729,942.3907],[-2.4684,38.1728,1005.5839],[-2.4684,38.1658,957.5826],[-2.474,38.1558,997.608],[-2.4803,38.1534,993.0591],[-2.4818,38.1505,1003.0283],[-2.486,38.1485,1013.5612],[-2.4985,38.1317,1065.4065],[-2.5128,38.1265,1134.8481],[-2.5122,38.1227,1125.9867],[-2.5164,38.1193,1134.5967],[-2.5156,38.1165,1157.4135],[-2.5202,38.1078,1172.5781],[-2.5248,38.1068,1194.0454],[-2.5269,38.1026,1213.2991],[-2.5374,38.0978,1177.9408],[-2.5393,38.0929,1200.8223],[-2.5458,38.0896,1201.4564],[-2.5477,38.0902,1199.5999],[-2.5512,38.0841,1221.1272],[-2.5474,38.0799,1244.8732],[-2.5392,38.0758,1356.1755],[-2.5311,38.0741,1455.9076]]]]}}