{"type":"Feature","properties":{"GID_3":"ESP.16.3.2_1","GID_0":"ESP","country":"Spain","GID_1":"ESP.16_1","province":"PaísVasco","NL_NAME_1":"NA","GID_2":"ESP.16.3_1","county":"Vizcaya","NL_NAME_2":"NA","city":"n.a.(262)","VARNAME_3":"NA","NL_NAME_3":"NA","TYPE_3":"Comarca","ENGTYPE_3":"Comarca","CC_3":"NA","HASC_3":"NA","name":"n.a.(262).city"},
"geometry":{"type": "MultiPolygon","coordinates": [[[[-3.4457,43.2376,323.5232],[-3.4487,43.2361,269.6656],[-3.449,43.2325,295.7871],[-3.4467,43.2305,296.546],[-3.4438,43.2211,325.5941],[-3.4326,43.2055,332.8953],[-3.435,43.198,339.6871],[-3.4334,43.171,453.5081],[-3.429,43.1602,477.1549],[-3.4272,43.1602,477.1549],[-3.4259,43.1556,500.7534],[-3.4224,43.1527,555.8586],[-3.4176,43.1334,1297.0311],[-3.4103,43.1345,1323.2561],[-3.4071,43.1374,1240.6753],[-3.3888,43.14,1120.2324],[-3.3719,43.1488,1091.1832],[-3.371,43.1514,1105.2009],[-3.3506,43.1543,888.2136],[-3.3419,43.1668,980.9854],[-3.3385,43.1675,982.1581],[-3.3337,43.1657,1048.944],[-3.3202,43.1697,978.5702],[-3.3195,43.1712,1009.7668],[-3.3093,43.1725,901.5564],[-3.3057,43.177,972.2469],[-3.3005,43.1791,849.1042],[-3.2974,43.1826,875.3552],[-3.2776,43.19,1013.9437],[-3.2781,43.1944,934.7115],[-3.285,43.1977,726.0223],[-3.291,43.2036,708.8615],[-3.2979,43.2067,688.7999],[-3.2946,43.2107,653.5088],[-3.2925,43.2191,623.6951],[-3.2964,43.2214,571.0932],[-3.2968,43.2299,516.6332],[-3.2927,43.2411,438.4998],[-3.2964,43.2434,464.6388],[-3.2997,43.2489,512.8215],[-3.3056,43.2526,621.3324],[-3.3032,43.2562,631.4758],[-3.3046,43.2587,641.9996],[-3.2886,43.2619,445.5937],[-3.2794,43.2619,325.1174],[-3.2713,43.2663,260.1194],[-3.2669,43.2669,237.8396],[-3.2494,43.2596,332.1173],[-3.2459,43.2622,290.2401],[-3.2453,43.2674,317.7653],[-3.2469,43.2699,281.0226],[-3.238,43.2764,392.8415],[-3.2305,43.2761,359.4624],[-3.2275,43.2798,504.0403],[-3.2204,43.2831,581.078],[-3.2179,43.2917,641.3652],[-3.225,43.2979,639.4366],[-3.2252,43.3089,713.6362],[-3.2486,43.3032,304.113],[-3.2543,43.2966,155.98],[-3.261,43.294,241.8479],[-3.2644,43.296,300.5522],[-3.2686,43.295,401.5655],[-3.2794,43.29,534.3592],[-3.2911,43.2903,607.988],[-3.2946,43.2928,646.0948],[-3.2927,43.2965,547.3548],[-3.2949,43.3007,400.6885],[-3.3134,43.2974,663.9713],[-3.3153,43.295,747.8591],[-3.3236,43.2924,475.6199],[-3.3324,43.3019,288.8344],[-3.3341,43.2988,324.355],[-3.3429,43.2944,643.3355],[-3.3395,43.2822,673.5584],[-3.3401,43.278,702.2813],[-3.3585,43.2723,623.1804],[-3.3686,43.2746,591.3348],[-3.378,43.2708,608.4174],[-3.3829,43.2705,630.3871],[-3.3884,43.2642,668.0012],[-3.3916,43.2526,136.3096],[-3.3989,43.2458,564.6306],[-3.4066,43.2507,603.8771],[-3.4134,43.2499,724.1337],[-3.4105,43.247,735.2808],[-3.4184,43.241,638.0426],[-3.423,43.2399,537.4907],[-3.4303,43.2421,610.9813],[-3.4381,43.2347,526.5866],[-3.4457,43.2376,323.5232]]]]}}