{"type": "Feature","bbox": [-2.9843,37.2118,-2.3556,37.7615],"geometry": {"type": "MultiPolygon","coordinates": [[[[-2.6417,37.3875,1060.2708],[-2.6388,37.3883,1036.5215],[-2.6355,37.3942,1012.7796],[-2.6081,37.4111,998.0463],[-2.6024,37.4175,1018.8076],[-2.5772,37.4291,1117.358],[-2.5716,37.4375,1122.6342],[-2.5711,37.4427,1114.5789],[-2.569,37.4437,1110.833],[-2.5689,37.4458,1131.2395],[-2.561,37.4502,1149.5067],[-2.5566,37.4504,1149.9902],[-2.5508,37.4564,1187.4387],[-2.5465,37.4566,1180.3002],[-2.535,37.4621,1212.5786],[-2.5346,37.4638,1214.2197],[-2.5299,37.4652,1221.2305],[-2.5143,37.4779,1468.5886],[-2.5141,37.4796,1455.3658],[-2.503,37.4836,1344.416],[-2.474,37.4835,1289.088],[-2.4574,37.4909,1441.4459],[-2.4619,37.4987,1263.7239],[-2.4593,37.5023,1242.1799],[-2.4601,37.5076,1302.2853],[-2.4562,37.5095,1307.1414],[-2.44,37.5112,1280.615],[-2.4342,37.5095,1295.3889],[-2.4325,37.5118,1283.4041],[-2.4288,37.5116,1260.8466],[-2.4159,37.516,1242.5638],[-2.4134,37.5193,1245.8876],[-2.4147,37.5216,1258.5104],[-2.4116,37.525,1305.0404],[-2.4071,37.5245,1305.8135],[-2.4029,37.5156,1229.8136],[-2.3971,37.5134,1241.9166],[-2.3943,37.5177,1245.2992],[-2.3811,37.523,1415.1876],[-2.3625,37.5201,1337.7566],[-2.3584,37.5223,1368.8252],[-2.3603,37.5346,1209.2861],[-2.3587,37.536,1210.8237],[-2.3603,37.5375,1230.0601],[-2.3556,37.547,1252.788],[-2.3742,37.5574,1291.0255],[-2.3674,37.5631,1235.5374],[-2.3681,37.5729,1212.8461],[-2.3748,37.5779,1205.4685],[-2.3745,37.5794,1190.4646],[-2.3697,37.5811,1169.8746],[-2.3678,37.5916,1140.5535],[-2.3759,37.6123,1228.4226],[-2.3802,37.6122,1348.3502],[-2.3887,37.618,1352.4315],[-2.3912,37.6325,1655.2494],[-2.4027,37.636,1790.8256],[-2.407,37.6297,1762.8328],[-2.411,37.6288,1746.3928],[-2.4231,37.6318,1657.0911],[-2.4247,37.631,1657.0911],[-2.4305,37.6345,1480.8171],[-2.4623,37.6373,1326.4712],[-2.4767,37.6438,1465.3184],[-2.4815,37.6438,1478.4355],[-2.4859,37.6463,1482.2728],[-2.4988,37.6493,1538.4812],[-2.5069,37.6552,1453.3754],[-2.5275,37.6574,1052.6439],[-2.5561,37.6668,944.1577],[-2.5653,37.6714,929.3787],[-2.6025,37.6709,907.7291],[-2.6149,37.6663,880.0252],[-2.6216,37.6676,879.8169],[-2.6372,37.6651,805.063],[-2.6611,37.6684,732.0447],[-2.6707,37.6681,706.3002],[-2.6732,37.6715,712.7311],[-2.6963,37.6828,800.5022],[-2.7113,37.694,861.5823],[-2.7105,37.6985,849.2715],[-2.7164,37.7007,876.6266],[-2.7224,37.7074,907.7217],[-2.735,37.709,928.208],[-2.7388,37.7119,936.7532],[-2.7406,37.7158,943.6816],[-2.752,37.7148,945.5528],[-2.7637,37.7093,943.631],[-2.7782,37.7113,942.4049],[-2.8023,37.7198,734.2145],[-2.8074,37.7229,817.2111],[-2.8128,37.732,902.4977],[-2.8282,37.748,964.2959],[-2.8365,37.7447,838.9668],[-2.8442,37.7534,891.7461],[-2.8547,37.7519,923.4117],[-2.8601,37.7484,975.572],[-2.8775,37.7596,1063.2297],[-2.89,37.7615,1138.7495],[-2.8992,37.7567,1157.7532],[-2.9037,37.7512,1062.5233],[-2.9023,37.739,977.2086],[-2.9071,37.7292,890.071],[-2.9047,37.7251,857.7975],[-2.9012,37.7248,965.4077],[-2.9006,37.7232,943.7595],[-2.904,37.7099,951.6487],[-2.9014,37.6893,937.9532],[-2.8988,37.6848,902.0153],[-2.8839,37.681399999999996,940.5351],[-2.8911,37.6731,901.2957],[-2.9021,37.6657,905.7811],[-2.9195,37.6597,870.0616],[-2.9381,37.65,844.7275],[-2.9778,37.634,830.6362],[-2.9733,37.6253,808.2063],[-2.9739,37.6229,806.9581],[-2.9784,37.6169,840.9098],[-2.9843,37.6143,856.3599],[-2.9761,37.6064,806.3936],[-2.9798,37.6022,816.2025],[-2.9747,37.5907,713.2062],[-2.9627,37.5812,798.3651],[-2.9549,37.567,746.8356],[-2.9551,37.5612,627.3735],[-2.9493,37.5517,648.092],[-2.941,37.5268,740.014],[-2.9386,37.5128,831.4888],[-2.9393,37.506,874.7575],[-2.9373,37.4996,958.7581],[-2.9395,37.4926,988.8342],[-2.9371,37.4563,1095.5726],[-2.9398,37.4402,1127.2782],[-2.9385,37.4341,1127.436],[-2.9302,37.4268,1184.4441],[-2.9242,37.4118,1235.321],[-2.9163,37.3991,1285.6929],[-2.8967,37.3944,1365.5952],[-2.8914,37.3903,1409.505],[-2.8996,37.3793,1708.4248],[-2.9007,37.3723,1912.5393],[-2.8971,37.3669,2094.2388],[-2.8902,37.3636,2001.3346],[-2.8823,37.3631,2045.8744],[-2.8727,37.366,2106.0195],[-2.8624,37.3642,2208.6958],[-2.8524,37.3687,2081.303],[-2.8406,37.3638,2108.9463],[-2.8361,37.3636,2148.4639],[-2.8335,37.3509,1880.1357],[-2.8396,37.3427,2147.7205],[-2.8354,37.3348,2106.4282],[-2.8365,37.3288,2214.718],[-2.8321,37.3277,2182.0603],[-2.8322,37.3253,2196.498],[-2.8508,37.3135,1992.4001],[-2.8559,37.3151,1993.8691],[-2.8619,37.3129,2006.9373],[-2.8599,37.3107,1985.9229],[-2.86,37.3069,1866.5813],[-2.854,37.3012,1774.8656],[-2.8548,37.2985,1794.651],[-2.8523,37.2924,1831.1083],[-2.8487,37.2956,1833.6567],[-2.8455,37.295,1856.329],[-2.8452,37.2936,1852.7925],[-2.8396,37.2922,1836.2516],[-2.8378,37.2889,1856.1737],[-2.832,37.2881,1812.6523],[-2.8335,37.2825,1813.1154],[-2.8253,37.2783,1888.9846],[-2.8193,37.2784,1866.9968],[-2.8148,37.2709,1903.9677],[-2.8021,37.2682,2011.4296],[-2.7944,37.2634,1958.8979],[-2.7789,37.2627,2013.1281],[-2.7771,37.2601,2006.6398],[-2.779,37.2569,2028.79],[-2.7746,37.2537,2033.0138],[-2.7785,37.2517,2051.2026],[-2.7721,37.2393,1927.1149],[-2.7679,37.2379,1914.7789],[-2.762,37.2331,1926.5796],[-2.7646,37.2317,1920.5408],[-2.7589,37.2268,1922.7957],[-2.7399,37.2288,1874.73],[-2.7398,37.2307,1880.676],[-2.7364,37.2323,1903.1431],[-2.7329,37.2374,1957.9807],[-2.7303,37.2329,1920.332],[-2.7252,37.2312,1924.9492],[-2.7184,37.2338,1897.4404],[-2.7105,37.2288,1932.1648],[-2.7098,37.2255,1947.4524],[-2.7066,37.2251,1930.3427],[-2.7048,37.2228,1929.8656],[-2.6993,37.2228,1952.9778],[-2.6936,37.2204,2020.7332],[-2.6924,37.2172,2028.9626],[-2.6905,37.2185,2028.9626],[-2.6767,37.216,2076.0557],[-2.669,37.2172,2032.563],[-2.6643,37.2118,2014.6508],[-2.66,37.212,1985.9888],[-2.6575,37.229,1915.9246],[-2.6598,37.232,1921.7965],[-2.6634,37.2322,1921.4258],[-2.6642,37.2365,1944.3584],[-2.6662,37.2381,1945.4878],[-2.6674,37.2496,1939.8298],[-2.6616,37.2667,1827.9976],[-2.6641,37.2723,1731.6787],[-2.6633,37.2772,1733.3309],[-2.6655,37.2851,1661.5419],[-2.6621,37.2935,1610.2867],[-2.6629,37.2959,1571.3774],[-2.6587,37.2994,1505.7606],[-2.6597,37.3013,1487.2041],[-2.6571,37.3021,1462.4275],[-2.6549,37.3056,1417.006],[-2.656,37.3073,1416.5625],[-2.6516,37.309,1358.8186],[-2.6508,37.3124,1320.3253],[-2.6509,37.3145,1333.5107],[-2.6544,37.3174,1376.1993],[-2.6542,37.3212,1362.1003],[-2.6504,37.3259,1344.9232],[-2.6547,37.3403,1235.2819],[-2.6468,37.3432,1176.7856],[-2.6372,37.3434,1169.0046],[-2.6352,37.3655,1118.4702],[-2.6431,37.376,1071.5132],[-2.6413,37.3776,1073.2526],[-2.6417,37.3875,1060.2708]]]]}
,"properties": {"GID_3": "ESP.1.4.3_1","GID_0": "ESP","country": "Spain","GID_1": "ESP.1_1","province": "Andalucía","NL_NAME_1": "NA","GID_2": "ESP.1.4_1","county": "Granada","NL_NAME_2": "NA","city": "n.a.(111)","VARNAME_3": "NA","NL_NAME_3": "NA","TYPE_3": "Comarca","ENGTYPE_3": "Comarca","CC_3": "NA","HASC_3": "NA","name": "n.a.(111).city","area_km2": 1716.159,"hist_schema_id": "Elevation0-9000","hist_area_km2": {"625": 22.666,"650": 19.639,"675": 34.286,"700": 56.697,"725": 65.073,"750": 64.101,"775": 68.666,"800": 72.516,"825": 69.577,"850": 62.509,"875": 60.984,"900": 70.024,"925": 69.497,"950": 88.058,"975": 75.455,"1000": 62.123,"1025": 54.696,"1050": 52.983,"1075": 51.692,"1100": 45.338,"1125": 44.291,"1150": 43.113,"1175": 40.072,"1200": 37.481,"1225": 32.977,"1250": 28.458,"1275": 23.213,"1300": 17.711,"1325": 15.253,"1350": 13.454,"1375": 12.73,"1400": 11.099,"1425": 9.568,"1450": 10.63,"1475": 10.26,"1500": 10.329,"1525": 10.483,"1550": 10.534,"1575": 9.541,"1600": 9.541,"1625": 9.71,"1650": 9.238,"1675": 8.278,"1700": 8.649,"1725": 8.093,"1750": 7.925,"1775": 7.723,"1800": 7.656,"1825": 8.011,"1850": 8.433,"1875": 10.645,"1900": 11.911,"1925": 12.756,"1950": 8.436,"1975": 4.655,"2000": 3.777,"2025": 3.305,"2050": 2.478,"2075": 1.736,"2100": 1.584,"2125": 1.449,"2150": 0.876,"2175": 0.792,"2200": 0.489,"2225": 0.185,"2250": 0.051}}}