{"type":"Feature","properties":{"GID_3":"ESP.10.2.7_1","GID_0":"ESP","country":"Spain","GID_1":"ESP.10_1","province":"ComunidadValenciana","NL_NAME_1":"NA","GID_2":"ESP.10.2_1","county":"Castellón","NL_NAME_2":"NA","city":"PlanaAlta","VARNAME_3":"NA","NL_NAME_3":"NA","TYPE_3":"Comarca","ENGTYPE_3":"Comarca","CC_3":"NA","HASC_3":"NA","name":"Plana_Alta.city"},
"geometry":{"type": "MultiPolygon","coordinates": [[[[-0.061,39.9329,19.5661],[-0.0551,39.929,17.5569],[-0.0206,39.9183,2.8472],[-0.0093,39.9107,0.9358],[-0.0054,39.9157,2.0739],[-0.0007,39.9321,2.2111],[0.0018,39.9338,0.0],[0.001,39.9368,3.4193],[0.0026,39.9374,0.3928],[0.0035,39.9526,0.6253],[0.0085,39.9663,1.4515],[0.0101,39.9679,2.2416],[0.0151,39.966,0.0],[0.0213,39.9668,0.0],[0.0204,39.9674,0.0],[0.0168,39.9665,0.1683],[0.014,39.9685,0.2014],[0.0151,39.969,1.1258],[0.0196,39.9676,0.0],[0.016,39.9715,0.0],[0.0168,39.9735,0.0],[0.0201,39.9726,0.3298],[0.0204,39.969,1.4807],[0.0243,39.9712,5.9909],[0.0287,39.9668,4.6192],[0.0265,39.974,2.8353],[0.0249,39.9751,3.067],[0.026,39.9774,0.0],[0.0229,39.9776,3.252],[0.0226,39.9793,3.2022],[0.0296,40.0007,0.2745],[0.0307,40.0021,1.395],[0.0329,40.0015,0.0],[0.0315,40.0038,2.5402],[0.0343,40.0115,0.4153],[0.0362,40.0115,0.0],[0.0404,40.016,0.4059],[0.0451,40.0288,1.4764],[0.0493,40.0351,2.339],[0.0837,40.0571,8.9837],[0.091,40.0554,0.0],[0.1068,40.056,0.0],[0.1138,40.061,5.3727],[0.1201,40.0615,0.3128],[0.1274,40.0687,2.4252],[0.1351,40.0737,0.0],[0.1357,40.0801,7.0826],[0.1374,40.0818,1.8948],[0.1424,40.084,3.3562],[0.1443,40.0807,2.6524],[0.1471,40.0818,0.0],[0.149,40.0865,0.0],[0.1468,40.0871,2.2573],[0.1465,40.0915,3.4277],[0.1496,40.101,0.2165],[0.1538,40.1063,0.0],[0.1632,40.1282,1.3428],[0.1837,40.1632,0.4344],[0.1871,40.1649,0.0],[0.1896,40.1693,0.7255],[0.2001,40.1799,0.0],[0.2051,40.1829,0.0],[0.211,40.1838,0.0],[0.2243,40.1946,2.3357],[0.2335,40.1987,0.0],[0.2387,40.1987,0.0],[0.2558,40.2032,0.2341],[0.2535,40.2089,5.3108],[0.2482,40.2128,8.4757],[0.2302,40.2235,26.4061],[0.2064,40.2342,74.0319],[0.195,40.2359,110.5577],[0.179,40.2315,174.6432],[0.1706,40.2217,189.6448],[0.1658,40.2197,181.0491],[0.1539,40.2235,137.7555],[0.1601,40.2315,113.8075],[0.1742,40.2569,168.0515],[0.1765,40.2653,197.6183],[0.1754,40.2774,172.0688],[0.1719,40.2869,263.9603],[0.1738,40.2904,320.6347],[0.1797,40.2942,297.3055],[0.1799,40.3034,308.1532],[0.1736,40.3108,198.7039],[0.1656,40.3279,365.4105],[0.1805,40.3434,503.8336],[0.1646,40.3598,513.6376],[0.1694,40.3678,490.0877],[0.1676,40.3706,505.9036],[0.169,40.3731,531.4485],[0.151,40.3822,286.6087],[0.1472,40.3823,277.4868],[0.1459,40.3807,255.9889],[0.1359,40.3823,271.7715],[0.1291,40.392,299.5418],[0.1253,40.3919,303.9658],[0.1204,40.3943,320.2156],[0.1209,40.397,329.4044],[0.1133,40.4049,415.614],[0.1138,40.4085,459.0989],[0.1067,40.4162,558.801],[0.1005,40.4183,583.6304],[0.0906,40.4083,585.5161],[0.0868,40.4022,512.6125],[0.0873,40.3984,487.9987],[0.0852,40.3972,493.184],[0.0862,40.3942,435.3716],[0.0816,40.3753,528.5231],[0.0494,40.3408,733.3263],[0.0394,40.3358,807.1304],[0.023,40.3214,906.7709],[0.0066,40.318,883.9554],[-0.0312,40.3178,536.819],[-0.0335,40.322,498.5333],[-0.0398,40.3147,467.3391],[-0.0447,40.3145,463.0306],[-0.0485,40.3021,446.7699],[-0.0558,40.299,440.7689],[-0.0572,40.2849,413.8116],[-0.0683,40.2788,405.3533],[-0.0653,40.2746,396.6875],[-0.069,40.2745,397.4005],[-0.0707,40.2704,383.972],[-0.0687,40.268,381.9261],[-0.0704,40.2646,378.4998],[-0.0817,40.2609,370.8033],[-0.0813,40.2563,363.7267],[-0.0755,40.2534,346.1101],[-0.0773,40.2399,326.5446],[-0.0814,40.2263,307.3372],[-0.0847,40.2257,305.5038],[-0.0854,40.22,296.8466],[-0.0808,40.2187,290.6141],[-0.0799,40.2168,295.158],[-0.0845,40.2137,286.0034],[-0.0836,40.2103,296.5347],[-0.0802,40.207,276.9839],[-0.0808,40.2023,277.4831],[-0.0761,40.1868,258.5273],[-0.0819,40.1727,247.2789],[-0.0812,40.1699,250.5216],[-0.0964,40.1498,226.011],[-0.0974,40.1434,222.2859],[-0.1074,40.1302,210.6865],[-0.1301,40.1296,197.8608],[-0.1343,40.128,194.9038],[-0.1379,40.1206,191.411],[-0.1428,40.1162,194.8514],[-0.138,40.1128,181.308],[-0.1377,40.111,180.489],[-0.1427,40.1108,180.5058],[-0.1435,40.1094,227.5482],[-0.141,40.1073,176.088],[-0.1421,40.1046,180.7548],[-0.1476,40.1031,172.6846],[-0.1431,40.0899,167.524],[-0.1536,40.086,160.7896],[-0.1555,40.0807,157.1831],[-0.1628,40.0756,145.184],[-0.1658,40.0709,138.4054],[-0.1641,40.0659,134.8481],[-0.1536,40.0612,131.19],[-0.1517,40.0587,128.4005],[-0.1519,40.0556,127.6547],[-0.1569,40.0529,127.3202],[-0.1548,40.0488,123.0],[-0.158,40.0453,123.0],[-0.1606,40.0361,123.0],[-0.1579,40.0331,123.0],[-0.1643,40.0287,121.9653],[-0.1612,40.0254,97.5907],[-0.1611,40.0198,92.4494],[-0.1582,40.0109,86.9192],[-0.1593,40.0035,84.3385],[-0.1346,39.987,65.54],[-0.1367,39.9831,71.0238],[-0.1465,39.9779,93.9993],[-0.1536,39.9712,70.1688],[-0.1419,39.966,66.2603],[-0.1348,39.9657,68.2719],[-0.1299,39.9618,63.4837],[-0.1276,39.9625,67.9612],[-0.1204,39.9602,61.8902],[-0.1187,39.9632,57.6791],[-0.1163,39.9635,53.1655],[-0.1146,39.9603,58.6761],[-0.1082,39.9596,50.0547],[-0.1024,39.9554,55.1344],[-0.0862,39.954,33.8355],[-0.0662,39.9393,23.3173],[-0.061,39.9329,19.5661]]],
[[[0.6726,39.8754,0.0],[0.6696,39.876,0.0],[0.6693,39.8746,0.0],[0.671,39.8737,0.0],[0.6726,39.8754,0.0]]],
[[[0.6685,39.8918,0.0],[0.6671,39.8926,0.0],[0.6671,39.8907,0.403],[0.6701,39.8896,0.0],[0.6701,39.8904,0.0],[0.6685,39.8918,0.0]]],
[[[0.6879,39.9001,20.1922],[0.6851,39.9004,27.4385],[0.6826,39.8979,9.3983],[0.6826,39.8949,2.6434],[0.6849,39.8929,0.0],[0.6907,39.8951,0.0],[0.6904,39.8968,0.0],[0.6874,39.8949,6.556],[0.6838,39.8957,0.0],[0.6879,39.9001,20.1922]]]]}}