{"type": "Feature","bbox": [-1.0262,38.4717,-0.6784,38.7839],"geometry": {"type": "MultiPolygon","coordinates": [[[[-0.8971,38.4717,558.7909],[-0.8742,38.4753,818.4325],[-0.8493,38.5096,545.5049],[-0.8557,38.5131,523.7277],[-0.8381,38.5087,562.1083],[-0.829,38.5111,516.2215],[-0.8063,38.5107,449.0834],[-0.7982,38.5125,477.5667],[-0.7942,38.5152,470.6005],[-0.7936,38.5201,486.7439],[-0.7816,38.5239,524.4075],[-0.7491,38.5518,859.5641],[-0.7744,38.5754,633.5907],[-0.7325,38.5961,736.049],[-0.7254,38.6129,797.8054],[-0.7178,38.6251,1156.2584],[-0.7129,38.6302,1084.2693],[-0.6947,38.6401,1091.993],[-0.6901,38.6489,1124.172],[-0.6784,38.6581,1154.1444],[-0.6927,38.686,1034.8171],[-0.7268,38.7275,675.3511],[-0.7433,38.7557,838.931],[-0.752,38.7554,847.2252],[-0.7614,38.7491,883.8488],[-0.7657,38.7511,917.6245],[-0.7704,38.7506,941.7294],[-0.7795,38.7467,962.9417],[-0.7837,38.7484,978.7411],[-0.7875,38.7466,977.8508],[-0.7926,38.7392,869.8119],[-0.8066,38.7353,897.9864],[-0.8084,38.7377,933.5326],[-0.8174,38.738,936.9911],[-0.8241,38.7363,869.5626],[-0.8302,38.7325,827.1361],[-0.8346,38.7325,836.2029],[-0.8375,38.7365,879.5397],[-0.8354,38.7407,725.3345],[-0.8616,38.7709,622.6766],[-0.8825,38.7721,665.1578],[-0.8872,38.7693,655.3163],[-0.9042,38.7671,684.069],[-0.9132,38.7696,686.3462],[-0.9175,38.7762,662.1096],[-0.9148,38.7814,634.4333],[-0.9289,38.7839,736.4655],[-0.9499,38.7761,837.4242],[-0.9614,38.7748,648.2604],[-0.9458,38.7368,598.6599],[-0.9394,38.7318,609.6555],[-0.9379,38.7259,588.7916],[-0.9277,38.7131,543.5823],[-0.9286,38.7095,534.9951],[-0.9266,38.7059,541.7318],[-0.9157,38.696,544.7493],[-0.9324,38.6776,502.4425],[-0.9624,38.657,512.7572],[-0.9915,38.6551,633.8331],[-1.009,38.6583,776.097],[-1.0108,38.6566,791.9084],[-1.0261,38.6557,694.0558],[-1.0241,38.6401,659.3137],[-1.016,38.6351,600.5203],[-1.0121,38.6058,618.1459],[-1.0015,38.5729,686.8246],[-1.0091,38.559,698.5268],[-1.0162,38.5371,735.3812],[-1.0262,38.5225,677.9094],[-1.0139,38.4971,1202.405],[-0.9856,38.5057,1073.361],[-0.9583,38.4865,686.6094],[-0.9523,38.484,685.4406],[-0.9481,38.4789,758.37],[-0.9322,38.4819,820.7631],[-0.9149,38.4749,556.9822],[-0.8971,38.4717,558.7909]]]]}
,"properties": {"GID_3": "ESP.10.1.3_1","GID_0": "ESP","country": "Spain","GID_1": "ESP.10_1","province": "ComunidadValenciana","NL_NAME_1": "NA","GID_2": "ESP.10.1_1","county": "Alicante","NL_NAME_2": "NA","city": "AltVinalopo","VARNAME_3": "NA","NL_NAME_3": "NA","TYPE_3": "Comarca","ENGTYPE_3": "Comarca","CC_3": "NA","HASC_3": "NA","name": "Alt_Vinalopo.city","area_km2": 644.4058,"hist_schema_id": "Elevation0-9000","hist_area_km2": {"450": 2.6375,"475": 33.6544,"500": 90.334,"525": 58.7944,"550": 49.4886,"575": 57.4523,"600": 63.368899999999996,"625": 53.8607,"650": 40.4682,"675": 32.1287,"700": 25.2606,"725": 19.9776,"750": 14.5274,"775": 12.9029,"800": 12.3707,"825": 11.9558,"850": 10.0355,"875": 8.9421,"900": 8.1803,"925": 9.074,"950": 8.6591,"975": 5.9299,"1000": 4.4575,"1025": 3.2654,"1050": 2.4203,"1075": 1.7403,"1100": 1.1104,"1125": 0.7457,"1150": 0.4142,"1175": 0.2153,"1200": 0.0332}}}