{"type":"Feature","properties":{"GID_3":"ESP.5.7.5_1","GID_0":"ESP","country":"Spain","GID_1":"ESP.5_1","province":"CastillayLeón","NL_NAME_1":"NA","GID_2":"ESP.5.7_1","county":"Soria","NL_NAME_2":"NA","city":"n.a.(237)","VARNAME_3":"NA","NL_NAME_3":"NA","TYPE_3":"Comarca","ENGTYPE_3":"Comarca","CC_3":"NA","HASC_3":"NA","name":"n.a.(237).city"},
"geometry":{"type": "MultiPolygon","coordinates": [[[[-2.4297,41.0723,1113.2653],[-2.4297,41.0659,1140.2986],[-2.4204,41.0602,1154.7041],[-2.4188,41.0577,1147.8741],[-2.4142,41.0609,1177.5547],[-2.4021,41.0617,1116.1506],[-2.383,41.0742,1212.1721],[-2.3813,41.077,1195.6722],[-2.3553,41.0865,1179.6882],[-2.3492,41.0774,1185.8628],[-2.3338,41.0674,1188.8344],[-2.3306,41.0668,1194.9731],[-2.3233,41.0565,1224.7046],[-2.3155,41.0616,1225.7278],[-2.3032,41.065,1258.3633],[-2.2935,41.0713,1270.907],[-2.291,41.0709,1259.3333],[-2.2844,41.0653,1249.6356],[-2.2635,41.0675,1283.9216],[-2.2321,41.097,1274.1543],[-2.2225,41.0934,1293.8406],[-2.1752,41.0838,1314.7583],[-2.1757,41.0866,1307.5569],[-2.1673,41.0954,1316.9463],[-2.1434,41.1026,1264.3888],[-2.1358,41.1167,1254.8202],[-2.1318,41.1181,1212.4651],[-2.1174,41.103,1294.7141],[-2.1094,41.0976,1236.4033],[-2.0974,41.0925,1186.6658],[-2.0871,41.0901,1176.9458],[-2.0814,41.0864,1162.2053],[-2.0766,41.082,1143.1763],[-2.0786,41.0774,1190.7654],[-2.0716,41.0725,1185.2144],[-2.0564,41.0697,1195.4919],[-2.0481,41.0784,1211.454],[-2.0575,41.0847,1159.188],[-2.0656,41.0958,1172.4031],[-2.0636,41.1035,1189.7159],[-2.0603,41.1052,1171.567],[-2.0627,41.1131,1181.4569],[-2.0591,41.1198,1181.3621],[-2.0505,41.1259,1188.8535],[-2.0516,41.1469,1098.5841],[-2.0773,41.1631,1091.5464],[-2.0798,41.171,1113.6803],[-2.095,41.1577,1059.9935],[-2.128,41.161,1040.0668],[-2.1287,41.1312,1143.1771],[-2.1397,41.142,1175.2646],[-2.1416,41.1477,1123.9022],[-2.139,41.1571,1053.0177],[-2.1336,41.1645,1051.8292],[-2.1612,41.1741,1024.7516],[-2.169,41.187,992.4354],[-2.1701,41.2015,909.4561],[-2.1677,41.2057,883.0891],[-2.1684,41.2155,862.8307],[-2.1707,41.2195,844.6309],[-2.176,41.2225,860.4783],[-2.1783,41.2294,836.1176],[-2.1882,41.2418,794.0545],[-2.2047,41.2472,776.0601],[-2.2111,41.2534,829.2584],[-2.2156,41.2607,838.288],[-2.2111,41.2688,819.2744],[-2.2159,41.2701,813.1815],[-2.2203,41.2685,820.7693],[-2.2443,41.2579,900.8501],[-2.2462,41.2546,940.3817],[-2.2537,41.2526,945.2521],[-2.2583,41.2485,944.327],[-2.2612,41.2478,953.6061],[-2.2715,41.2503,908.1008],[-2.2888,41.2463,966.2749],[-2.2962,41.2466,988.4792],[-2.2914,41.2812,838.7685],[-2.2857,41.2888,840.8141],[-2.2913,41.2974,885.2175],[-2.279,41.3274,932.8771],[-2.2998,41.3385,1018.6084],[-2.3512,41.3342,1141.9792],[-2.3467,41.3207,1109.3706],[-2.3492,41.3151,1104.7552],[-2.3485,41.2708,929.5673],[-2.3667,41.2553,1152.677],[-2.3608,41.2527,1120.6099],[-2.3569,41.2474,1099.8984],[-2.3528,41.2459,1106.2284],[-2.3516,41.2438,1136.1516],[-2.3633,41.2436,1158.728],[-2.3608,41.238,1161.4717],[-2.3562,41.2341,1154.4495],[-2.3725,41.224,940.337],[-2.3658,41.2189,928.3267],[-2.3664,41.2176,916.8925],[-2.3798,41.2264,954.948],[-2.3867,41.2254,993.4921],[-2.3883,41.2296,1043.4111],[-2.3942,41.2297,1051.439],[-2.3943,41.2353,980.0245],[-2.3967,41.2362,1005.7612],[-2.3994,41.2415,993.5035],[-2.3999,41.2505,1073.6755],[-2.4042,41.2551,1152.6228],[-2.4028,41.2582,1158.1306],[-2.4228,41.2876,1127.415],[-2.427,41.2854,1152.2979],[-2.4344,41.294,1122.7007],[-2.4375,41.2938,1134.9418],[-2.4433,41.2992,1127.2723],[-2.4891,41.3021,1156.8542],[-2.5071,41.3002,1141.3406],[-2.5076,41.3021,1127.2372],[-2.5122,41.3009,1098.1962],[-2.5118,41.3023,1133.9972],[-2.5165,41.3024,1121.4778],[-2.5189,41.3043,1125.9491],[-2.5165,41.3062,1142.4032],[-2.5175,41.3112,1150.873],[-2.5246,41.3112,1104.2726],[-2.521,41.3187,1102.0275],[-2.5317,41.3249,1053.521],[-2.5515,41.3503,1078.9249],[-2.5514,41.371,1122.208],[-2.5534,41.3748,1089.4138],[-2.5584,41.3779,1131.2986],[-2.5643,41.376,1130.7258],[-2.5713,41.3786,1129.202],[-2.5878,41.3787,1064.584],[-2.5883,41.3852,1046.6404],[-2.594,41.3866,1108.4573],[-2.5977,41.3916,1105.3379],[-2.6002,41.3889,1098.6848],[-2.6079,41.3875,1103.3253],[-2.6212,41.3899,1118.1443],[-2.6332,41.3891,1119.1367],[-2.6405,41.3858,1117.9231],[-2.6461,41.3933,1118.7139],[-2.6761,41.3924,1123.1124],[-2.6927,41.3761,1106.697],[-2.6952,41.3685,1079.7845],[-2.6931,41.3618,1102.5297],[-2.6942,41.3492,1109.0867],[-2.7024,41.3466,1116.4647],[-2.7204,41.3282,1052.2605],[-2.7411,41.3195,1099.7737],[-2.7486,41.3189,1053.243],[-2.7613,41.3119,1087.9325],[-2.7628,41.3126,1062.1864],[-2.7583,41.2793,1144.0508],[-2.7609,41.274,1147.3818],[-2.73,41.2717,1144.3529],[-2.7167,41.2757,1161.6711],[-2.714,41.2611,1138.8904],[-2.7095,41.252,1117.9003],[-2.6953,41.2456,1134.1438],[-2.6692,41.2371,1166.1213],[-2.6548,41.2407,1134.8507],[-2.6459,41.2402,1121.4067],[-2.6451,41.2379,1105.785],[-2.6346,41.2319,1133.9983],[-2.6362,41.2238,1172.8025],[-2.6291,41.2152,1218.4839],[-2.6238,41.2237,1182.4983],[-2.6169,41.2194,1198.8442],[-2.5894,41.2245,1156.8678],[-2.5873,41.2138,1138.7727],[-2.5931,41.2009,1140.719],[-2.6008,41.1948,1224.1099],[-2.6057,41.1936,1221.5586],[-2.6199,41.1954,1210.9327],[-2.622,41.188,1212.9414],[-2.6193,41.1833,1174.6737],[-2.6025,41.1887,1221.8145],[-2.5781,41.1793,1197.4943],[-2.5771,41.1778,1158.5824],[-2.5826,41.1644,1153.9016],[-2.5848,41.1614,1112.1008],[-2.5936,41.1566,1125.8557],[-2.596,41.1516,1106.6562],[-2.5812,41.1408,1182.2086],[-2.5755,41.1395,1183.7455],[-2.5675,41.1449,1207.8088],[-2.5551,41.1467,1216.3141],[-2.5418,41.1511,1220.6685],[-2.5364,41.1625,1231.7529],[-2.5169,41.1465,1205.8726],[-2.5173,41.137,1158.0425],[-2.5116,41.1315,1210.4404],[-2.5088,41.118899999999996,1190.6576],[-2.5036,41.1175,1174.3682],[-2.4854,41.1179,1283.7452],[-2.4803,41.1136,1251.7156],[-2.4694,41.0898,1201.2903],[-2.4694,41.0781,1206.4788],[-2.4494,41.0777,1201.8113],[-2.4479,41.0749,1206.3585],[-2.4422,41.0773,1130.6185],[-2.4399,41.0732,1141.8226],[-2.4409,41.0714,1146.304],[-2.4297,41.0723,1113.2653]]]]}}