{"type": "Feature","id": "5843","bbox": [-4.71385,40.63337,-3.19879,41.58325],"geometry": {"type": "Polygon","coordinates": [[[-3.83409,41.49952,979.8105],[-3.8358,41.49987,976.5341],[-3.88901,41.5471,938.6033],[-3.98061,41.58325,842.4993],[-3.99146,41.54023,927.0909],[-3.99915,41.5277,922.1168],[-4.01495,41.51391,871.7872],[-4.13375,41.47996,900.6424],[-4.16625,41.47754,900.7809],[-4.25237,41.45205,893.5901],[-4.32421,41.45096,883.6885],[-4.36496,41.43879,875.8376],[-4.40753,41.44187,860.0552],[-4.48646,41.40895,863.0306],[-4.51493,41.40962,859.2801],[-4.49607,41.36398,745.6532],[-4.49555,41.34106,751.2178],[-4.49224,41.33431,754.3313],[-4.47229,41.30918,768.0234],[-4.47033,41.30263,770.2532],[-4.47136,41.29157,771.8431],[-4.53416,41.31938,756.0812],[-4.55751,41.30255,763.429],[-4.59696,41.32074,759.9009],[-4.60699,41.29802,757.564],[-4.57914,41.27885,765.0454],[-4.65084,41.22155,841.8521],[-4.6505,41.19994,847.8055],[-4.70152,41.155,796.087],[-4.71385,41.09056,790.8701],[-4.69945,41.06802,826.8796],[-4.64265,41.02902,867.4053],[-4.63154,41.0161,882.745],[-4.61116,40.97677,910.7183],[-4.60184,40.96765,918.6088],[-4.59058,40.96141,918.7802],[-4.5749,40.95717,931.0074],[-4.56833,40.95345,912.6133],[-4.56365,40.9463,923.0197],[-4.56004,40.9143,926.0094],[-4.54554,40.87573,933.7608],[-4.54807,40.86365,964.1446],[-4.56103,40.84109,943.9785],[-4.55978,40.83064,939.385],[-4.54667,40.82405,986.069],[-4.51081,40.83289,1077.2224],[-4.49525,40.83099,1050.3486],[-4.48745,40.82405,1057.8251],[-4.48315,40.81606,1087.2388],[-4.48034,40.79748,1098.2119],[-4.4751,40.78308,1103.0735],[-4.45295,40.76368,1117.7706],[-4.44458,40.75143,1144.2743],[-4.41954,40.63337,1482.7085],[-4.34389,40.64689,1618.311],[-4.32193,40.65788,1621.5518],[-4.31849,40.68236,1396.7888],[-4.29935,40.69623,1572.5801],[-4.27628,40.69266,1572.9296],[-4.26102,40.69886,1285.5381],[-4.24585,40.7008,1388.2234],[-4.18522,40.69572,1593.3318],[-4.16129,40.68731,1770.4597],[-4.13274,40.71922,1492.905],[-4.12886,40.72547,1563.9684],[-4.09011,40.76914,1935.5012],[-4.07964,40.77645,1801.8843],[-4.05985,40.78413,1663.1802],[-4.04747,40.78397,1866.3761],[-4.03631,40.78232,1993.1893],[-4.02784,40.7796,1966.2623],[-4.01874,40.77937,1902.5405],[-3.99585,40.78301,1976.415],[-3.99011,40.78457,2137.2109],[-3.98409,40.78873,2127.2578],[-3.98024,40.79663,2059.4536],[-3.97575,40.80366,1988.3121],[-3.96862,40.81828,1794.0995],[-3.96644,40.82565,1906.1023],[-3.96544,40.84043,2254.2134],[-3.96365,40.84802,2281.6499],[-3.95937,40.85598,2064.2859],[-3.95293,40.86521,2103.1211],[-3.94991,40.87309,2044.2843],[-3.9496,40.88058,1933.3558],[-3.95306,40.8943,2114.5896],[-3.95107,40.90138,2013.0173],[-3.94789,40.90828,1919.8298],[-3.93479,40.92616,1960.8319],[-3.91988,40.94024,2024.389],[-3.91151,40.95027,1995.655],[-3.90208,40.95853,1972.4969],[-3.89188,40.96484,2033.8943],[-3.80573,40.98727,1749.8512],[-3.79622,40.99145,1812.7296],[-3.78713,40.99677,2023.2155],[-3.77349,41.013,2067.4207],[-3.76847,41.02062,2053.8826],[-3.76253,41.02806,1982.72],[-3.75276,41.04302,1704.8588],[-3.74302,41.05176,1809.1844],[-3.72791,41.06199,1908.6165],[-3.68491,41.0847,1798.2452],[-3.66543,41.09997,1653.5525],[-3.64763,41.11741,1800.6923],[-3.64148,41.12462,1767.1665],[-3.63383,41.13196,1767.1309],[-3.62388,41.1394,1625.188],[-3.5922,41.15408,1580.2544],[-3.54577,41.16175,1977.8545],[-3.52792,41.16005,1812.6538],[-3.51962,41.16222,1825.2426],[-3.44211,41.20653,1782.3351],[-3.41922,41.21071,1657.5582],[-3.41131,41.21361,1783.6863],[-3.40875,41.2218,1611.0894],[-3.40619,41.23717,1935.3562],[-3.40653,41.24405,1843.7937],[-3.4111,41.25061,1649.6733],[-3.4164,41.2564,1843.8964],[-3.41976,41.2612,1792.9362],[-3.41689,41.2641,1804.4471],[-3.38971,41.25557,1782.6711],[-3.33976,41.25355,1710.4213],[-3.29109,41.26069,1639.1108],[-3.27987,41.26601,1543.1691],[-3.24918,41.26663,1424.7412],[-3.21982,41.29304,1389.251],[-3.19879,41.3012,1433.7712],[-3.33263,41.37705,1090.7008],[-3.34366,41.38801,1052.0262],[-3.3456,41.40504,1062.026],[-3.33691,41.44802,1058.2207],[-3.33745,41.45267,1063.2321],[-3.34098,41.45709,1077.0156],[-3.34847,41.46111,1065.2407],[-3.38235,41.46522,1060.2216],[-3.41472,41.4796,1050.5376],[-3.41887,41.48359,1052.3171],[-3.42128,41.48873,1049.2081],[-3.42437,41.51223,1014.7795],[-3.42715,41.51689,1035.1559],[-3.43737,41.52463,1038.3107],[-3.44928,41.52962,1031.782],[-3.45654,41.53036,1034.4866],[-3.47506,41.52362,1036.4398],[-3.48278,41.52278,1036.9186],[-3.52355,41.54066,1023.4445],[-3.53188,41.54808,1016.434],[-3.53654,41.55677,1019.3062],[-3.54173,41.57777,938.006],[-3.57294,41.56542,973.8094],[-3.62332,41.57361,904.1916],[-3.64754,41.57016,916.5031],[-3.67277,41.55924,877.6732],[-3.67861,41.55428,903.0143],[-3.69086,41.53585,981.2705],[-3.69741,41.53105,979.2045],[-3.71995,41.52159,964.7529],[-3.72723,41.51408,971.2751],[-3.72957,41.50496,959.7742],[-3.72909,41.45765,1352.5994],[-3.76992,41.46007,1138.6237],[-3.78605,41.5021,1000.6597],[-3.83409,41.49952,979.8105]]]}
,"properties": {"ISO3166-1-Alpha-3": "ESP","country": "Spain","fill": "#FF0","name": "Segovia","area_km2": 6887.877,"hist_schema_id": "Elevation0-9000","hist_area_km2": {"725": 0.573,"750": 60.009,"775": 223.746,"800": 339.348,"825": 332.898,"850": 381.49,"875": 570.639,"900": 641.01,"925": 464.012,"950": 400.651,"975": 387.304,"1000": 368.479,"1025": 364.928,"1050": 337.914,"1075": 275.782,"1100": 240.93,"1125": 196.765,"1150": 178.121,"1175": 141.341,"1200": 104.9,"1225": 78.788,"1250": 72.335,"1275": 75.037,"1300": 62.253,"1325": 49.148,"1350": 43.251,"1375": 41.196,"1400": 38.165,"1425": 34.081,"1450": 29.637,"1475": 26.097,"1500": 23.41,"1525": 21.261,"1550": 21.019,"1575": 20.633,"1600": 20.349,"1625": 20.221,"1650": 16.972,"1675": 16.524,"1700": 15.164,"1725": 15.26,"1750": 13.768,"1775": 13.354,"1800": 13.416,"1825": 12.233,"1850": 11.481,"1875": 10.508,"1900": 9.995,"1925": 8.57,"1950": 7.817,"1975": 6.856,"2000": 6.038,"2025": 5.493,"2050": 4.677,"2075": 3.828,"2100": 2.818,"2125": 2.307,"2150": 1.426,"2175": 0.801,"2200": 0.417,"2225": 0.192,"2250": 0.225}}}