{"type":"Feature","properties":{"GID_2":"ESP.5.6_1","GID_0":"ESP","country":"Spain","GID_1":"ESP.5_1","province":"CastillayLeón","NL_NAME_1":"NA","county":"Segovia","VARNAME_2":"NA","NL_NAME_2":"NA","TYPE_2":"Provincia","ENGTYPE_2":"Province","CC_2":"40","HASC_2":"ES.CL.SG","name":"Segovia.county"},
"geometry":{"type": "MultiPolygon","coordinates": [[[[-4.4346,40.7062,1397.2357],[-4.4318,40.7041,1360.2435],[-4.422,40.6753,1252.9637],[-4.4192,40.655,1392.4196],[-4.4195,40.6334,1482.7085],[-4.4072,40.6344,1519.4019],[-4.3939,40.6332,1584.365],[-4.3646,40.6375,1587.6633],[-4.3325,40.6371,1447.1591],[-4.3349,40.6395,1478.4614],[-4.328,40.6473,1477.1997],[-4.3196,40.6475,1550.8542],[-4.3233,40.6522,1583.1023],[-4.3247,40.6577,1623.1978],[-4.3185,40.6617,1603.329],[-4.3173,40.6669,1619.2927],[-4.2942,40.6765,1648.3485],[-4.2903,40.6804,1630.1587],[-4.2855,40.6805,1603.3005],[-4.275,40.6763,1565.0254],[-4.2733,40.6813,1548.405],[-4.2655,40.6851,1590.4771],[-4.2584,40.6859,1647.5885],[-4.2528,40.6895,1687.7139],[-4.2513,40.6884,1712.1339],[-4.2453,40.6899,1734.7773],[-4.2322,40.6883,1700.043],[-4.2154,40.693,1714.3413],[-4.1875,40.6959,1624.1602],[-4.1836,40.698,1539.0825],[-4.1722,40.6925,1451.6223],[-4.165,40.6932,1649.3514],[-4.1602,40.6898,1797.3284],[-4.1564,40.6923,1734.1598],[-4.1509,40.6926,1638.3922],[-4.1449,40.6952,1628.8414],[-4.139,40.7127,1548.2261],[-4.1348,40.7188,1492.9781],[-4.126,40.7245,1567.0312],[-4.1251,40.7297,1636.8783],[-4.115,40.7423,1689.5215],[-4.1065,40.7462,1734.7064],[-4.0976,40.7481,1891.7229],[-4.094,40.7562,1796.5736],[-4.0965,40.7647,1990.9824],[-4.0805,40.7769,1801.8843],[-4.0785,40.7822,1767.8923],[-4.0788,40.7889,1978.5781],[-4.0754,40.7892,1977.6899],[-4.07,40.7938,1981.884],[-4.0469,40.7903,1921.7981],[-4.0421,40.7838,2059.6875],[-4.0213,40.7813,1941.2286],[-4.0024,40.7884,1853.1122],[-3.9796,40.7842,2255.8215],[-3.9779,40.7878,2238.1672],[-3.9796,40.7998,2027.1692],[-3.9753,40.8039,1982.2665],[-3.9751,40.8071,1975.9371],[-3.9677,40.8119,1897.3143],[-3.962,40.8221,1832.134],[-3.9648,40.8385,2238.9951],[-3.9624,40.844,2287.7063],[-3.9571,40.8482,2358.2246],[-3.9465,40.8648,2147.6729],[-3.9475,40.8733,2110.5925],[-3.9438,40.8785,2056.4102],[-3.9432,40.8887,2069.5681],[-3.9473,40.8888,2058.5186],[-3.9526,40.8935,2116.5547],[-3.9455,40.9036,2039.0007],[-3.942,40.9116,2061.9355],[-3.9372,40.9159,2037.6698],[-3.9377,40.9272,2020.2156],[-3.9277,40.9276,1959.3195],[-3.9224,40.9299,2052.9597],[-3.9175,40.9428,1975.0393],[-3.9119,40.9447,2002.6993],[-3.9124,40.9503,1995.655],[-3.9075,40.9559,1939.2249],[-3.8989,40.9591,1983.9645],[-3.895,40.967,2096.3289],[-3.8808,40.9729,2139.3765],[-3.8801,40.9746,2128.1689],[-3.874,40.9752,2119.0076],[-3.8693,40.9714,2142.7786],[-3.8596,40.9789,2083.802],[-3.8483,40.9799,2196.5288],[-3.8431,40.9829,2180.2805],[-3.8302,40.9862,2064.8762],[-3.8224,40.9848,1949.2153],[-3.8149,40.9863,1776.5924],[-3.7818,41.0002,2075.4849],[-3.7673,41.0162,2093.8362],[-3.7669,41.019,2073.063],[-3.7589,41.027,2068.2922],[-3.7556,41.0277,2055.7773],[-3.7497,41.0351,2008.451],[-3.7392,41.0539,1849.1111],[-3.7295,41.0622,1898.3163],[-3.7203,41.0656,1943.0934],[-3.7158,41.0715,1856.51],[-3.695,41.0832,1757.5361],[-3.6875,41.0852,1766.313],[-3.6803,41.0842,1808.3256],[-3.6767,41.0864,1813.5997],[-3.6721,41.0918,1767.3815],[-3.6506,41.1073,1780.303],[-3.6435,41.1205,1818.0692],[-3.6341,41.1257,1810.2057],[-3.6318,41.1339,1665.0475],[-3.6195,41.1427,1622.0105],[-3.6136,41.1491,1630.7404],[-3.6002,41.1552,1632.4326],[-3.5916,41.1543,1540.5933],[-3.59,41.1583,1491.2546],[-3.5834,41.1611,1264.5995],[-3.569,41.1594,1726.4438],[-3.5574,41.1645,1804.9335],[-3.527,41.1662,1859.2235],[-3.5158,41.1624,1832.808],[-3.5095,41.1686,1867.4792],[-3.5072,41.1688,1898.1415],[-3.5006,41.1791,1975.7883],[-3.4936,41.1775,2062.6304],[-3.4869,41.181,2064.0718],[-3.4816,41.1803,2166.9424],[-3.4745,41.1837,2180.2852],[-3.4668,41.1833,2215.9019],[-3.4687,41.1862,2131.0195],[-3.4665,41.1888,2068.0344],[-3.4602,41.191,2179.7261],[-3.4441,41.2153,1840.7079],[-3.4251,41.2142,1767.4286],[-3.42,41.2164,1709.7493],[-3.4091,41.2118,1819.4537],[-3.4024,41.2136,1909.8793],[-3.4041,41.218,1828.1409],[-3.4029,41.2282,1889.5691],[-3.4062,41.2336,1901.4266],[-3.3979,41.2433,1947.0306],[-3.4002,41.2493,1943.5288],[-3.3994,41.2545,2020.4067],[-3.4057,41.2596,1973.1346],[-3.4106,41.2599,1890.7667],[-3.4142,41.265,1730.8888],[-3.4151,41.2732,1559.5497],[-3.4097,41.2606,1893.1018],[-3.4061,41.2618,1939.2112],[-3.3942,41.257,1781.4305],[-3.3693,41.2604,1762.3679],[-3.3564,41.2562,1731.1243],[-3.3456,41.256,1737.9137],[-3.3363,41.253,1697.724],[-3.3304,41.2555,1619.3519],[-3.3299,41.2588,1572.8286],[-3.3227,41.2618,1540.4146],[-3.321,41.2606,1512.9841],[-3.3128,41.2617,1546.0972],[-3.3063,41.2606,1576.0894],[-3.3027,41.2577,1574.3645],[-3.2978,41.257,1604.0957],[-3.2901,41.2579,1643.5634],[-3.2878,41.2659,1600.7731],[-3.2757,41.275,1656.8995],[-3.271,41.2752,1584.178],[-3.2667,41.2719,1517.0144],[-3.259,41.2697,1447.1536],[-3.2548,41.2577,1439.4495],[-3.2378,41.2794,1343.0764],[-3.2398,41.283,1297.4127],[-3.24,41.2851,1311.6794],[-3.2378,41.2855,1342.2068],[-3.2389,41.2879,1289.6538],[-3.2262,41.2981,1398.3378],[-3.215,41.2984,1406.6886],[-3.2073,41.3042,1491.5121],[-3.2069,41.3068,1476.2096],[-3.2202,41.3106,1437.2799],[-3.2368,41.3185,1470.6068],[-3.2362,41.3303,1187.3069],[-3.2481,41.3301,1197.1135],[-3.2693,41.3415,1198.3351],[-3.2721,41.3527,1153.7424],[-3.281,41.3519,1179.3884],[-3.2882,41.3602,1164.2903],[-3.3027,41.3631,1166.4985],[-3.3059,41.3683,1138.5061],[-3.3292,41.3763,1111.2009],[-3.3412,41.3915,1077.9954],[-3.3505,41.3949,1067.5315],[-3.3471,41.397,1071.842],[-3.3471,41.4045,1062.6475],[-3.3492,41.4072,1059.0247],[-3.3464,41.4139,1044.0181],[-3.3416,41.417,1050.1448],[-3.3413,41.4233,1051.8889],[-3.346,41.429,1043.9161],[-3.34,41.4445,1031.8619],[-3.3389,41.4529,1066.2285],[-3.3303,41.4607,1074.0074],[-3.3342,41.4619,1071.5637],[-3.335,41.4601,1061.3518],[-3.3473,41.4581,1069.6797],[-3.3466,41.4568,1080.5326],[-3.3482,41.4565,1075.767],[-3.3563,41.463,1064.7515],[-3.3628,41.4621,1053.8414],[-3.3625,41.4652,1053.9626],[-3.3649,41.4676,1056.3984],[-3.3672,41.4653,1052.1317],[-3.3771,41.4643,1065.02],[-3.384,41.4657,1056.7327],[-3.3903,41.4707,1050.0247],[-3.4033,41.476,1048.1072],[-3.4132,41.4761,1053.1456],[-3.424,41.4827,1052.9937],[-3.4264,41.4978,1050.1709],[-3.4227,41.5035,1049.0416],[-3.4206,41.5127,1014.2897],[-3.4244,41.5167,1032.0608],[-3.4322,41.5187,1040.7932],[-3.4423,41.5243,1034.1541],[-3.4517,41.5325,1031.7833],[-3.4515,41.5339,1033.0818],[-3.4559,41.5347,1027.6302],[-3.458,41.5368,1031.0254],[-3.4643,41.5278,1031.8674],[-3.4796,41.5209,1038.4368],[-3.4851,41.5241,1033.6506],[-3.5019,41.5292,1025.1823],[-3.5188,41.5393,1022.1369],[-3.5248,41.5451,1020.7622],[-3.5348,41.5487,1001.4609],[-3.5383,41.552,980.5933],[-3.5366,41.5595,1020.7517],[-3.5438,41.5721,981.7078],[-3.5415,41.5776,938.006],[-3.5464,41.5801,948.06],[-3.5529,41.5807,952.6716],[-3.5629,41.5774,964.6353],[-3.5664,41.58,923.3727],[-3.5709,41.5774,934.3749],[-3.5745,41.5725,947.9948],[-3.5711,41.5687,963.9875],[-3.5726,41.5654,973.4839],[-3.6007,41.5705,935.8539],[-3.6046,41.5656,929.1621],[-3.6087,41.5661,931.6552],[-3.6168,41.5771,915.015],[-3.6261,41.57,898.3546],[-3.6452,41.5721,915.9504],[-3.6717,41.5604,915.3671],[-3.6754,41.5544,888.4858],[-3.6813,41.552,917.1313],[-3.6915,41.5345,974.3621],[-3.6982,41.5341,967.4637],[-3.7068,41.5302,992.5366],[-3.7068,41.5259,999.176],[-3.7166,41.524,928.2877],[-3.7282,41.5176,928.259],[-3.7248,41.5078,958.1671],[-3.7281,41.5028,968.8258],[-3.7265,41.4954,995.1825],[-3.729,41.4839,1056.9282],[-3.7236,41.4792,1070.8884],[-3.7323,41.4699,1123.9189],[-3.729,41.4576,1352.5994],[-3.7394,41.4508,1326.0389],[-3.7441,41.4611,1151.2917],[-3.7697,41.4601,1138.6237],[-3.7715,41.4706,1114.6864],[-3.7704,41.4893,1052.619],[-3.7685,41.4937,1040.8359],[-3.7708,41.4996,1009.3121],[-3.7669,41.5066,1022.8242],[-3.7695,41.5109,1006.9288],[-3.7696,41.5179,980.3368],[-3.7714,41.5214,964.8381],[-3.7658,41.5368,887.5102],[-3.7677,41.539,879.028],[-3.7828,41.5306,965.7246],[-3.7878,41.5312,921.0847],[-3.8035,41.5267,964.0583],[-3.8041,41.5163,975.1559],[-3.7991,41.509,992.8449],[-3.8021,41.5044,996.3696],[-3.8031,41.4964,1012.0459],[-3.794,41.4915,1032.3364],[-3.7876,41.4859,1051.5393],[-3.7959,41.4845,1043.4489],[-3.8001,41.4859,1031.9725],[-3.8238,41.4811,1021.8344],[-3.834,41.4996,979.8105],[-3.8422,41.5006,974.1238],[-3.8527,41.5125,953.6951],[-3.8636,41.529,941.6974],[-3.8679,41.5325,937.9437],[-3.8751,41.5347,938.1555],[-3.8828,41.534,937.7343],[-3.8857,41.5323,935.2869],[-3.8945,41.5521,939.4664],[-3.9055,41.557,939.2387],[-3.9144,41.5634,938.0599],[-3.9286,41.5687,935.8626],[-3.9422,41.5691,934.1984],[-3.953,41.5734,928.4753],[-3.9604,41.578,933.26],[-3.9637,41.5861,860.7839],[-3.9806,41.5834,842.4993],[-3.9806,41.5745,826.7434],[-3.9854,41.5649,816.2271],[-3.9938,41.556,926.1935],[-3.9936,41.5311,924.6485],[-3.9957,41.5211,924.9298],[-3.9998,41.5161,921.4083],[-4.0054,41.5157,913.2897],[-4.0066,41.5172,921.3258],[-4.0103,41.5158,901.1494],[-4.0114,41.5175,917.195],[-4.0182,41.5187,887.5735],[-4.0273,41.5178,870.8489],[-4.0363,41.5099,785.0752],[-4.0485,41.5079,888.9989],[-4.0524,41.5026,901.636],[-4.0564,41.5006,903.2728],[-4.0579,41.4973,897.1059],[-4.0652,41.4947,906.7243],[-4.0786,41.4954,903.6917],[-4.1086,41.4833,902.4044],[-4.1364,41.477,898.4154],[-4.1424,41.4699,902.5482],[-4.1582,41.4821,901.6242],[-4.1693,41.4758,901.7134],[-4.1783,41.4754,900.9813],[-4.1974,41.4711,898.3071],[-4.2277,41.46,897.4993],[-4.2334,41.4557,895.8889],[-4.2471,41.4623,892.8812],[-4.2598,41.4564,893.9397],[-4.261,41.4506,890.6623],[-4.2643,41.4562,891.1145],[-4.27,41.4613,890.5568],[-4.2741,41.4579,887.054],[-4.2877,41.4582,889.3616],[-4.2901,41.4553,887.4653],[-4.2941,41.455,888.1776],[-4.3005,41.4577,886.6776],[-4.3191,41.4533,882.5036],[-4.3203,41.4484,882.0164],[-4.3278,41.4448,883.7903],[-4.3316,41.445,883.6642],[-4.3374,41.449,880.5327],[-4.3466,41.4481,877.3635],[-4.3484,41.4505,882.0858],[-4.3623,41.4499,877.9186],[-4.3613,41.4447,878.2177],[-4.3648,41.436,872.6788],[-4.3678,41.4392,867.1335],[-4.3728,41.4387,877.1606],[-4.3767,41.4417,877.6611],[-4.379,41.4416,876.4714],[-4.3824,41.4382,875.0054],[-4.3885,41.4405,858.1061],[-4.3908,41.4378,873.5546],[-4.3937,41.4378,870.2697],[-4.3939,41.4397,863.6445],[-4.4074,41.4418,860.0552],[-4.4177,41.4389,865.0973],[-4.4188,41.4398,865.0973],[-4.4255,41.4328,870.161],[-4.4301,41.4339,867.4518],[-4.4318,41.431,852.5912],[-4.4347,41.4305,857.1981],[-4.4305,41.4286,827.5234],[-4.4363,41.427,825.7509],[-4.4407,41.4276,860.0798],[-4.4502,41.4233,832.2037],[-4.4529,41.4237,837.563],[-4.4534,41.4214,829.2222],[-4.4555,41.4204,824.6572],[-4.4586,41.4213,861.0339],[-4.4636,41.4191,855.2348],[-4.4625,41.4168,830.3475],[-4.4658,41.4166,837.9945],[-4.4657,41.4144,807.3961],[-4.4681,41.4131,840.9539],[-4.4827,41.412,839.2019],[-4.4846,41.4104,842.6498],[-4.4836,41.4091,842.6498],[-4.4952,41.41,856.2722],[-4.4951,41.4115,865.7123],[-4.4999,41.4139,866.5769],[-4.5017,41.4109,839.9833],[-4.5145,41.4096,859.2801],[-4.5164,41.4085,860.7589],[-4.5142,41.406,859.9758],[-4.5159,41.4014,775.4358],[-4.5152,41.3941,743.1779],[-4.4839,41.3668,751.2236],[-4.4839,41.3657,751.2236],[-4.4958,41.3639,745.6532],[-4.5,41.3576,745.999],[-4.4966,41.3496,752.0087],[-4.4993,41.3471,749.2454],[-4.4997,41.3502,750.5489],[-4.5044,41.3472,753.7183],[-4.5022,41.3469,751.4418],[-4.5021,41.3428,755.5978],[-4.4938,41.3264,759.9725],[-4.4822,41.3262,758.2974],[-4.4738,41.3223,759.7112],[-4.4705,41.3185,761.8155],[-4.4677,41.2959,769.6075],[-4.4714,41.2916,771.8431],[-4.4816,41.2949,769.9772],[-4.4825,41.2973,771.2161],[-4.4902,41.3012,764.7521],[-4.4961,41.3024,764.4278],[-4.5,41.3009,763.6754],[-4.5053,41.3113,764.8721],[-4.5285,41.3211,762.5219],[-4.5339,41.3193,756.0812],[-4.5387,41.3134,759.227],[-4.5435,41.3124,760.1142],[-4.5594,41.3022,764.8124],[-4.5652,41.3028,762.746],[-4.5728,41.3061,762.7044],[-4.5866,41.3171,759.9917],[-4.5968,41.3206,759.9009],[-4.6051,41.3131,733.9307],[-4.6009,41.3076,734.9145],[-4.6019,41.3027,729.7424],[-4.5933,41.2964,734.5715],[-4.5901,41.2919,761.4205],[-4.5804,41.2882,747.5187],[-4.5755,41.2837,744.1858],[-4.5765,41.277,753.1667],[-4.5738,41.2752,764.504],[-4.5878,41.2705,761.9851],[-4.5986,41.2642,768.6383],[-4.6039,41.2559,764.9507],[-4.6032,41.254,767.2498],[-4.6151,41.2414,777.6964],[-4.6238,41.2343,779.489],[-4.629,41.2329,795.0983],[-4.6372,41.2273,810.0787],[-4.6477,41.2241,840.0692],[-4.6508,41.2214,841.8521],[-4.6464,41.2083,855.8256],[-4.6505,41.2001,847.8055],[-4.6403,41.1937,853.5745],[-4.6383,41.1899,854.6138],[-4.6363,41.1906,854.1657],[-4.6318,41.1848,851.989],[-4.6277,41.1708,861.7186],[-4.635,41.1681,852.0578],[-4.6436,41.1681,812.2622],[-4.6658,41.1803,791.6701],[-4.6805,41.1857,780.7483],[-4.6829,41.1845,785.2019],[-4.6843,41.1807,789.072],[-4.7022,41.1745,785.2366],[-4.7089,41.1669,794.2187],[-4.7212,41.157,794.3074],[-4.722,41.1493,798.9316],[-4.7199,41.1349,804.3112],[-4.7166,41.1326,802.3242],[-4.7237,41.1286,806.3135],[-4.7246,41.1234,805.859],[-4.7213,41.1165,811.6915],[-4.715,41.1106,812.4856],[-4.716,41.1042,810.488],[-4.7099,41.0993,808.7211],[-4.7132,41.0917,812.6265],[-4.7178,41.09,791.0607],[-4.7071,41.0888,827.1279],[-4.709,41.0854,824.1794],[-4.7134,41.083,817.7408],[-4.7164,41.0716,810.0522],[-4.7131,41.0629,815.9465],[-4.7053,41.0542,808.7419],[-4.7002,41.0519,827.3911],[-4.6812,41.0512,837.2618],[-4.6656,41.0453,852.3334],[-4.6595,41.0415,861.2263],[-4.6527,41.0342,863.4905],[-4.6459,41.0315,865.4307],[-4.6382,41.0313,870.0837],[-4.6394,41.0301,869.5048],[-4.6227,41.0094,890.1028],[-4.6235,41.0069,891.28],[-4.6171,41.0037,889.0022],[-4.6181,40.9974,896.2651],[-4.6066,40.9708,911.8119],[-4.5959,40.9658,935.8953],[-4.5749,40.9603,929.7595],[-4.5719,40.9558,930.3175],[-4.5663,40.9562,903.3987],[-4.565,40.9524,918.8582],[-4.5678,40.9508,925.1841],[-4.5667,40.9454,925.5929],[-4.5618,40.9405,920.8268],[-4.5583,40.9401,919.0531],[-4.5592,40.9132,923.791],[-4.5524,40.9075,902.5258],[-4.5564,40.9029,903.5775],[-4.5551,40.895,907.2419],[-4.5595,40.8859,909.2834],[-4.5518,40.8821,921.0001],[-4.5508,40.8795,923.8094],[-4.5352,40.8724,1037.8485],[-4.5355,40.8655,1032.2229],[-4.5335,40.8641,1027.2637],[-4.5315,40.8586,1039.0271],[-4.5358,40.855,1033.9667],[-4.5396,40.8556,995.1793],[-4.5498,40.8534,961.4564],[-4.5588,40.8396,950.8461],[-4.5463,40.8256,1006.3734],[-4.5338,40.8287,1025.7432],[-4.5245,40.8258,1074.4987],[-4.5087,40.8313,1078.3188],[-4.5083,40.8301,1080.2758],[-4.5065,40.8312,1071.168],[-4.5015,40.8302,1063.7488],[-4.4986,40.8335,1060.2421],[-4.4937,40.8335,1043.9735],[-4.4867,40.8202,1073.5519],[-4.486,40.8143,1085.2694],[-4.4768,40.8076,1098.3335],[-4.4767,40.8033,1083.4525],[-4.4731,40.8,1099.7092],[-4.4805,40.7945,1089.8682],[-4.4813,40.7916,1088.3792],[-4.4805,40.7862,1111.7852],[-4.4724,40.7821,1121.6827],[-4.4737,40.7747,1114.1442],[-4.467,40.7691,1102.337],[-4.4598,40.7588,1155.9951],[-4.4544,40.7545,1143.9048],[-4.4386,40.7498,1138.2888],[-4.431,40.7424,1174.6218],[-4.4304,40.7362,1199.0831],[-4.4268,40.7296,1295.6992],[-4.4301,40.7282,1294.6891],[-4.4322,40.7172,1485.0237],[-4.4356,40.7159,1473.0649],[-4.4346,40.7062,1397.2357]]]]}}