{"type":"Feature","properties":{"GID_3":"ESP.16.1.1_1","GID_0":"ESP","country":"Spain","GID_1":"ESP.16_1","province":"PaísVasco","NL_NAME_1":"NA","GID_2":"ESP.16.1_1","county":"Álava","NL_NAME_2":"NA","city":"n.a.(1)","VARNAME_3":"NA","NL_NAME_3":"NA","TYPE_3":"Comarca","ENGTYPE_3":"Comarca","CC_3":"NA","HASC_3":"NA","name":"n.a.(1).city"},
"geometry":{"type": "MultiPolygon","coordinates": [[[[-2.9607,43.0931,609.8926],[-2.9729,43.0954,362.6275],[-2.9754,43.0995,300.0294],[-2.9648,43.1043,484.7181],[-2.9577,43.1152,603.6088],[-2.956,43.1152,603.6088],[-2.9485,43.1248,220.2684],[-2.9427,43.1289,187.2135],[-2.9413,43.1326,174.053],[-2.9358,43.1362,132.9128],[-2.9392,43.1388,122.3604],[-2.9375,43.1427,118.4481],[-2.9388,43.1453,120.9537],[-2.9496,43.157,430.2382],[-2.9541,43.1597,460.9905],[-2.9464,43.1709,642.3768],[-2.9615,43.1763,760.1119],[-2.973,43.1863,703.7851],[-2.98,43.2018,941.4937],[-3.0067,43.1966,848.3032],[-3.0122,43.2001,764.8538],[-3.0149,43.2057,633.9462],[-3.0196,43.2066,629.4041],[-3.0184,43.2098,412.6153],[-3.0272,43.217,80.8995],[-3.0332,43.2168,62.0961],[-3.04,43.2099,66.3951],[-3.0287,43.2051,356.3593],[-3.0165,43.2028,517.0493],[-3.0214,43.1996,494.2817],[-3.0175,43.1942,473.4962],[-3.0211,43.1923,388.9357],[-3.0186,43.1822,480.8767],[-3.0277,43.1691,134.1437],[-3.0269,43.1614,136.8291],[-3.0659,43.1558,595.2719],[-3.0747,43.1463,514.4014],[-3.0816,43.1478,403.402],[-3.088,43.1512,476.3639],[-3.0936,43.1515,418.9605],[-3.1113,43.1435,176.9975],[-3.1166,43.1463,239.2084],[-3.125,43.1557,430.8054],[-3.135,43.1581,259.8383],[-3.1382,43.1632,168.3998],[-3.1484,43.1611,179.7609],[-3.1618,43.1542,184.5951],[-3.1667,43.1469,280.1531],[-3.1614,43.1432,278.5214],[-3.1817,43.1209,513.4753],[-3.1804,43.1163,470.4194],[-3.1696,43.1096,290.4796],[-3.1625,43.1089,293.9461],[-3.152,43.1041,306.9254],[-3.1479,43.1082,439.7416],[-3.1414,43.1106,446.3054],[-3.1339,43.0972,392.0127],[-3.1476,43.0857,562.2559],[-3.1515,43.0789,521.2024],[-3.1581,43.074,569.2748],[-3.1474,43.0689,550.3652],[-3.141,43.0687,445.1428],[-3.1403,43.0671,445.1428],[-3.1406,43.0593,408.7572],[-3.1436,43.0536,468.7817],[-3.1417,43.049,495.7076],[-3.145,43.0493,453.7875],[-3.1443,43.0381,789.2534],[-3.1474,43.0349,825.3893],[-3.1418,43.0298,945.7178],[-3.1434,43.0274,1056.7845],[-3.1528,43.027,1076.7594],[-3.1702,43.0291,825.2792],[-3.1709,43.0255,979.9807],[-3.1778,43.022,736.8506],[-3.1692,43.0152,932.1937],[-3.1447,43.0068,1024.149],[-3.1243,43.0077,943.8149],[-3.1203,43.0059,916.9266],[-3.1061,43.0054,1081.7191],[-3.0889,43.0016,1059.5165],[-3.0904,43.0095,1063.8401],[-3.0656,43.0231,558.1694],[-3.0623,43.0359,397.8064],[-3.0497,43.0472,338.3973],[-3.0478,43.0444,298.9987],[-3.0442,43.0458,405.5571],[-3.0426,43.0441,391.044],[-3.0286,43.0466,543.2137],[-3.0291,43.0369,444.7157],[-3.0185,43.0376,486.1281],[-3.021,43.0322,489.0278],[-3.0331,43.0234,381.1279],[-3.0329,43.0203,371.0643],[-3.0294,43.0187,323.9258],[-3.0197,43.0183,445.3799],[-3.0071,43.0135,275.6071],[-2.9971,43.0143,497.1016],[-2.986,43.0121,586.3122],[-2.9843,43.0082,589.8885],[-2.9916,43.0002,340.1738],[-2.9858,42.9923,320.2509],[-2.9712,42.9969,511.1905],[-2.9666,42.9997,612.5303],[-2.9662,43.0015,695.5165],[-2.9557,42.9988,664.1645],[-2.9417,43.0047,594.9196],[-2.9413,43.0086,503.3405],[-2.933,43.0147,408.6611],[-2.927,43.0167,374.1404],[-2.9166,43.0164,345.6068],[-2.9148,43.0206,345.7007],[-2.9152,43.0263,350.2966],[-2.9136,43.0281,314.3522],[-2.9141,43.0318,303.3544],[-2.9164,43.032,321.4354],[-2.8972,43.0359,445.3949],[-2.886,43.0455,583.6099],[-2.8941,43.0464,597.7127],[-2.9066,43.0552,548.5081],[-2.9187,43.0603,541.514],[-2.9302,43.0732,440.7189],[-2.9425,43.0765,473.3636],[-2.9409,43.0789,492.8452],[-2.9607,43.0931,609.8926]]]]}}