{"type":"Feature","properties":{"GID_3":"ESP.5.4.4_1","GID_0":"ESP","country":"Spain","GID_1":"ESP.5_1","province":"CastillayLeón","NL_NAME_1":"NA","GID_2":"ESP.5.4_1","county":"Palencia","NL_NAME_2":"NA","city":"n.a.(203)","VARNAME_3":"NA","NL_NAME_3":"NA","TYPE_3":"Comarca","ENGTYPE_3":"Comarca","CC_3":"NA","HASC_3":"NA","name":"n.a.(203).city"},
"geometry":{"type": "MultiPolygon","coordinates": [[[[-4.584,42.7331,1062.801],[-4.5801,42.734,1047.8274],[-4.5702,42.7328,1080.3929],[-4.5621,42.7374,1118.6632],[-4.5579,42.7489,1152.6259],[-4.55,42.7516,1162.4213],[-4.5398,42.763,1168.3719],[-4.5249,42.766,1183.1749],[-4.5179,42.7731,1120.1765],[-4.5173,42.7763,1127.998],[-4.5138,42.777,1109.8281],[-4.5108,42.7839,1038.72],[-4.5032,42.7908,1069.0389],[-4.5005,42.7996,1045.6688],[-4.4888,42.8102,1078.7784],[-4.477,42.8131,1111.0181],[-4.4778,42.7999,1094.6892],[-4.4623,42.7857,1062.5352],[-4.4601,42.7886,1070.33],[-4.4453,42.785,1056.4409],[-4.4287,42.771,1029.6849],[-4.4224,42.7594,953.8101],[-4.425,42.7513,945.6459],[-4.3981,42.7729,1069.7942],[-4.3935,42.7832,1115.7943],[-4.3807,42.7894,1091.9688],[-4.3691,42.7889,1091.843],[-4.3679,42.79,1091.843],[-4.4255,42.8221,1136.7568],[-4.4082,42.8215,1091.2461],[-4.3962,42.8326,1041.3071],[-4.3905,42.8344,1006.9072],[-4.3892,42.8385,1000.6155],[-4.3987,42.8428,1017.313],[-4.3913,42.8469,955.7972],[-4.3967,42.8512,957.0934],[-4.4011,42.8513,957.7905],[-4.3991,42.8532,985.8972],[-4.3986,42.8602,987.3254],[-4.4009,42.8626,1037.6104],[-4.3938,42.8636,1043.6017],[-4.39,42.8687,1135.3092],[-4.3803,42.8729,1180.3276],[-4.381,42.8754,1154.897],[-4.3723,42.8924,1143.6641],[-4.3681,42.8943,1220.5215],[-4.3479,42.8941,1319.4863],[-4.3455,42.892,1291.8149],[-4.3443,42.8934,1294.9751],[-4.3345,42.8896,1271.0883],[-4.3353,42.8956,1343.2532],[-4.322,42.909,1441.2917],[-4.3237,42.9157,1312.8706],[-4.328,42.9188,1305.7769],[-4.3296,42.9223,1409.5833],[-4.3305,42.928,1554.8815],[-4.3426,42.929,1620.4194],[-4.3611,42.9343,1636.1116],[-4.365,42.9385,1700.8291],[-4.3634,42.9441,1840.7938],[-4.3666,42.9501,1876.2131],[-4.3774,42.9585,2065.6221],[-4.3765,42.9611,2059.8577],[-4.367,42.9672,2115.6094],[-4.3653,42.9777,1842.6583],[-4.3671,42.9806,1772.3724],[-4.3628,42.9849,1882.1451],[-4.3669,42.9911,1868.7081],[-4.3721,42.9946,1873.9326],[-4.3748,42.9995,1958.7722],[-4.3743,43.006,2089.0813],[-4.3862,43.0165,2001.5576],[-4.3891,43.0257,2140.8972],[-4.3922,43.0273,2108.0757],[-4.398,43.0348,2047.9755],[-4.4139,43.042,2001.0249],[-4.4318,43.0457,1977.0773],[-4.4424,43.0559,1618.4049],[-4.4475,43.0585,1556.3367],[-4.4567,43.057,1332.4146],[-4.461,43.0607,1358.1692],[-4.4711,43.0517,994.5126],[-4.4764,43.0413,1447.4576],[-4.4756,43.0387,1440.0399],[-4.4939,43.0396,1423.2411],[-4.4958,43.0384,1373.4368],[-4.5208,43.0473,1485.3345],[-4.5584,43.0195,1648.4475],[-4.5742,43.0269,1562.8657],[-4.5905,43.0258,1783.3118],[-4.606,43.0357,1918.4598],[-4.6116,43.0305,1772.6511],[-4.6195,43.0265,1816.7759],[-4.6295,43.0239,1883.3159],[-4.6381,43.0166,1943.4679],[-4.6514,43.0208,1849.5432],[-4.6731,43.0213,1934.9226],[-4.6842,43.026,1816.3163],[-4.6903,43.0263,1718.0601],[-4.7087,43.025,2009.0122],[-4.7144,43.0196,2209.8467],[-4.7196,43.0172,2323.8567],[-4.7286,43.0187,2292.9106],[-4.731,43.0222,2496.1108],[-4.7369,43.021,2426.144],[-4.7375,43.0154,2344.0552],[-4.715,42.998,2156.8203],[-4.7147,42.9881,2123.1812],[-4.7129,42.986,2139.562],[-4.7155,42.9815,2235.8604],[-4.7147,42.9787,2296.4077],[-4.7178,42.9787,2243.781],[-4.7196,42.9758,2182.2017],[-4.7289,42.9728,2154.604],[-4.7329,42.968,2160.8008],[-4.7293,42.9664,2124.4683],[-4.7332,42.9568,1972.067],[-4.7275,42.9517,1961.568],[-4.7293,42.9476,1867.7236],[-4.7372,42.9396,1914.6135],[-4.7218,42.9305,1812.8651],[-4.703,42.9262,1530.5906],[-4.6983,42.9226,1466.5797],[-4.6985,42.9172,1412.5127],[-4.6965,42.9138,1381.9456],[-4.6926,42.9096,1284.5],[-4.6895,42.9091,1284.5],[-4.6894,42.9032,1317.2535],[-4.6857,42.8995,1351.5817],[-4.6896,42.8971,1329.2953],[-4.6895,42.8863,1338.8821],[-4.6918,42.8833,1395.474],[-4.6962,42.8819,1429.0691],[-4.6958,42.8796,1460.6149],[-4.6991,42.877,1539.1812],[-4.6993,42.8746,1548.1423],[-4.693,42.8661,1843.7096],[-4.6898,42.8638,1755.1877],[-4.6756,42.8627,1634.9178],[-4.6541,42.8578,1774.5148],[-4.6491,42.8653,1678.9351],[-4.6452,42.8558,1708.7478],[-4.6488,42.8402,1229.5172],[-4.6455,42.8373,1225.506],[-4.6468,42.8335,1192.7271],[-4.6451,42.825,1161.6958],[-4.6485,42.8228,1175.9436],[-4.6482,42.8208,1175.2762],[-4.6542,42.8192,1157.9432],[-4.6506,42.8084,1122.4277],[-4.6539,42.8022,1116.0364],[-4.6538,42.7971,1132.292],[-4.6598,42.8017,1143.0881],[-4.6628,42.802,1137.7391],[-4.6602,42.7944,1131.5952],[-4.6681,42.793,1112.2421],[-4.6692,42.7915,1114.9908],[-4.6692,42.7738,1055.0133],[-4.6563,42.765,1019.9136],[-4.6527,42.7664,1017.1241],[-4.6511,42.7654,1032.4725],[-4.6402,42.7563,1024.4297],[-4.6405,42.7543,1031.0278],[-4.6204,42.7524,1143.1868],[-4.6123,42.7449,1117.5109],[-4.5946,42.7448,1070.8652],[-4.591,42.7374,1064.2129],[-4.584,42.7331,1062.801]]]]}}