{"type":"Feature","properties":{"GID_3":"ESP.1.2.6_1","GID_0":"ESP","country":"Spain","GID_1":"ESP.1_1","province":"Andalucía","NL_NAME_1":"NA","GID_2":"ESP.1.2_1","county":"Cádiz","NL_NAME_2":"NA","city":"SierradeCádiz","VARNAME_3":"NA","NL_NAME_3":"NA","TYPE_3":"Comarca","ENGTYPE_3":"Comarca","CC_3":"NA","HASC_3":"NA","name":"Sierrade_Cádiz.city"},
"geometry":{"type": "MultiPolygon","coordinates": [[[[-5.4888,36.6381,488.9653],[-5.4778,36.634,316.2303],[-5.4659,36.6258,522.4852],[-5.4641,36.6215,607.6424],[-5.4384,36.6142,753.9958],[-5.4341,36.618,750.9698],[-5.4132,36.6212,630.9191],[-5.409,36.6232,696.562],[-5.4065,36.6266,734.9883],[-5.3789,36.6326,1314.7944],[-5.3639,36.6457,1094.6494],[-5.3529,36.6526,1133.7295],[-5.3511,36.6561,1106.3901],[-5.3437,36.6596,1098.9799],[-5.3337,36.6724,1012.1686],[-5.3239,36.6734,972.5588],[-5.3302,36.6789,1193.6624],[-5.3295,36.6819,1225.8807],[-5.3195,36.6882,1142.4768],[-5.3187,36.6901,1056.2615],[-5.3188,36.6928,1075.8872],[-5.3214,36.6945,1110.6571],[-5.3273,36.6946,942.3142],[-5.3279,36.7005,941.6769],[-5.323,36.7188,1000.7194],[-5.3245,36.724,880.0179],[-5.3124,36.7345,988.3638],[-5.3075,36.751,884.4699],[-5.2951,36.7644,913.9169],[-5.2908,36.7752,775.635],[-5.3071,36.7804,606.0364],[-5.3197,36.7868,604.0427],[-5.3264,36.8053,382.9021],[-5.3331,36.8118,355.8061],[-5.3349,36.8169,350.0],[-5.3406,36.8194,350.0],[-5.3349,36.8276,507.6534],[-5.3324,36.8386,955.4094],[-5.3139,36.8563,741.0057],[-5.3076,36.8566,727.5835],[-5.3056,36.8582,752.3794],[-5.3014,36.8697,764.5272],[-5.2772,36.8787,638.905],[-5.2696,36.8842,647.4528],[-5.2666,36.8758,658.5621],[-5.2439,36.8628,498.012],[-5.231,36.8612,552.0095],[-5.225,36.8563,594.7911],[-5.222,36.8502,667.5211],[-5.2219,36.8428,772.9092],[-5.2001,36.8378,635.2449],[-5.1918,36.8334,715.5615],[-5.1865,36.828,814.3546],[-5.1792,36.8287,850.0511],[-5.1755,36.8253,858.3066],[-5.1703,36.8236,884.7576],[-5.1551,36.8318,871.1749],[-5.1339,36.8386,791.3541],[-5.1204,36.8589,791.156],[-5.1165,36.8712,800.2399],[-5.1123,36.8739,798.2267],[-5.1097,36.8894,774.0604],[-5.1024,36.8918,769.3933],[-5.1024,36.8956,780.8564],[-5.1049,36.898,776.4738],[-5.0995,36.9009,769.1323],[-5.0935,36.9008,819.6694],[-5.0866,36.9051,796.8326],[-5.0928,36.9117,814.5552],[-5.0916,36.9211,819.8275],[-5.0992,36.9317,663.3379],[-5.1049,36.9531,648.488],[-5.11,36.9594,833.1324],[-5.104,36.9643,645.626],[-5.1007999999999996,36.964,603.8154],[-5.0954,36.9683,502.7923],[-5.0981,36.9719,493.7966],[-5.1123,36.9765,458.1344],[-5.1122,36.9811,446.2327],[-5.1103,36.9821,453.3366],[-5.1123,36.9835,444.777],[-5.1106,36.984,441.8503],[-5.115,36.989,445.9014],[-5.1182,36.9885,451.1409],[-5.1238,36.991,468.7364],[-5.1278,36.9959,486.0229],[-5.1422,37.0039,548.9639],[-5.1479,36.9971,583.8325],[-5.1583,36.9893,664.2281],[-5.1625,36.9814,604.3484],[-5.1742,36.9772,548.3489],[-5.1816,36.9717,535.1985],[-5.1892,36.97,502.1489],[-5.1911,36.9667,470.388],[-5.2059,36.9627,433.9185],[-5.2156,36.9519,529.7124],[-5.2197,36.9509,561.1411],[-5.2257999999999996,36.9419,596.955],[-5.2349,36.9412,554.7313],[-5.2566,36.9641,644.305],[-5.262,36.9754,705.7482],[-5.2679,36.9783,647.7926],[-5.2737,36.9902,384.6517],[-5.2851,37.0002,355.1339],[-5.2936,37.0104,437.8535],[-5.3001,37.0138,466.8017],[-5.3016,37.018,477.4546],[-5.302,37.0374,437.5801],[-5.3378,37.0111,407.7892],[-5.3395,37.0046,350.1445],[-5.3452,36.9974,291.4671],[-5.3595,36.9925,262.6947],[-5.3606,36.9852,239.5768],[-5.3652,36.9857,242.793],[-5.374,36.9824,248.7606],[-5.3758,36.98,302.5045],[-5.3818,36.9794,373.0832],[-5.3932,36.9722,399.9863],[-5.4008,36.9628,415.2428],[-5.4134,36.9535,495.4867],[-5.4165,36.9443,530.737],[-5.4127,36.9407,506.6234],[-5.4388,36.9353,393.9547],[-5.4411,36.944,396.8546],[-5.4461,36.9465,421.2919],[-5.446,36.9524,191.4564],[-5.4478,36.9542,193.8756],[-5.4458,36.9567,223.2609],[-5.4544,36.9612,212.3861],[-5.457,36.9742,302.3602],[-5.4601,36.9752,277.9724],[-5.4599,36.978,250.0139],[-5.4568,36.9778,257.807],[-5.4528,36.9824,273.8778],[-5.4454,36.9853,319.1638],[-5.443,36.987,329.2504],[-5.4426,36.9896,322.187],[-5.4353,36.991,340.9853],[-5.4269,36.9997,371.3691],[-5.4259,37.0057,316.4812],[-5.4209,37.0112,340.7574],[-5.4213,37.0245,289.9734],[-5.427,37.0379,255.2222],[-5.4279,37.0452,232.8687],[-5.4335,37.0525,240.5831],[-5.4417,37.0495,240.2759],[-5.4478,37.0502,251.2624],[-5.4593,37.0422,241.1565],[-5.4647,37.0408,272.1107],[-5.4732,37.0429,299.5808],[-5.4967,37.0397,219.4877],[-5.5108,37.0336,221.7953],[-5.4949,37.0113,187.1708],[-5.487,37.0071,208.1],[-5.483,37.0022,231.8751],[-5.4729,36.9953,275.8577],[-5.4701,36.9917,296.3076],[-5.4696,36.984,258.5893],[-5.4817,36.9722,232.2654],[-5.4897,36.9729,226.078],[-5.4933,36.9709,217.091],[-5.4983,36.9662,209.8941],[-5.5022,36.9583,198.523],[-5.5121,36.9577,249.7354],[-5.5144,36.9556,215.0914],[-5.5151,36.9502,173.0177],[-5.5208,36.9476,154.1557],[-5.5203,36.9449,154.2792],[-5.5244,36.9377,150.0128],[-5.5326,36.9359,150.1446],[-5.5348,36.9303,150.1705],[-5.5456,36.9304,141.6688],[-5.5469,36.9259,139.9114],[-5.5507,36.9231,139.4402],[-5.5389,36.9061,227.6817],[-5.5337,36.8935,257.0348],[-5.5829,36.9149,130.2947],[-5.5856,36.9209,156.9779],[-5.588,36.9469,153.3438],[-5.5954,36.9449,148.3572],[-5.6057,36.9509,153.9385],[-5.6071,36.9451,138.3895],[-5.61,36.9416,128.4346],[-5.6147,36.9426,137.5439],[-5.6184,36.9405,123.0293],[-5.626,36.9545,107.8632],[-5.6323,36.9507,178.3038],[-5.6495,36.9543,169.3602],[-5.6559,36.9641,189.6644],[-5.666,36.9758,196.4273],[-5.6678,36.976,196.4273],[-5.6945,36.9568,184.6505],[-5.6935,36.9458,130.1325],[-5.696,36.9353,164.0386],[-5.7031,36.9256,151.6457],[-5.7169,36.9195,172.3692],[-5.7257,36.9216,177.4726],[-5.7362,36.9182,157.3668],[-5.7439,36.923,149.2162],[-5.7618,36.9256,151.4463],[-5.774,36.9243,108.7499],[-5.8048,36.9255,185.4779],[-5.8316,36.9157,110.3161],[-5.8371,36.9144,179.7958],[-5.8454,36.9152,170.4388],[-5.8598,36.9,107.7067],[-5.8695,36.8937,102.7053],[-5.8764,36.8947,89.698],[-5.8934,36.8516,96.5568],[-5.8887,36.8468,165.5077],[-5.8902,36.8444,173.9812],[-5.8886,36.8433,176.1639],[-5.8909,36.8422,180.6659],[-5.8909,36.8351,169.2241],[-5.9034,36.8215,144.6558],[-5.9142,36.805,98.1577],[-5.9159,36.7996,105.53],[-5.9223,36.7946,98.5853],[-5.9209,36.7942,100.3987],[-5.9198,36.7898,80.8862],[-5.9177,36.7651,86.1113],[-5.9211,36.7593,84.3137],[-5.9244,36.7454,64.4801],[-5.9395,36.735,66.6075],[-5.9459,36.7274,75.1028],[-5.9353,36.7139,63.5589],[-5.935,36.7099,75.1451],[-5.9292,36.7007,74.4152],[-5.9209,36.6943,52.6191],[-5.9174,36.6883,40.3572],[-5.9148,36.6874,32.1577],[-5.9024,36.6751,22.7694],[-5.8945,36.6768,25.4223],[-5.8924,36.6735,23.9428],[-5.8895,36.6735,29.9219],[-5.8799,36.6791,28.5734],[-5.8781,36.6774,23.6843],[-5.8728,36.6779,30.4803],[-5.8652,36.6753,46.4881],[-5.8542,36.6695,61.3854],[-5.8448,36.6683,65.667],[-5.8293,36.671,81.9688],[-5.8119,36.6686,53.9933],[-5.7889,36.6696,71.3775],[-5.7834,36.6681,95.0],[-5.7803,36.6706,95.0],[-5.776,36.6668,95.0],[-5.7752,36.6632,95.0],[-5.7687,36.665,95.0],[-5.7637,36.6606,95.0],[-5.7668,36.6534,95.0],[-5.7632,36.6528,95.0],[-5.7536,36.6594,95.0],[-5.751,36.6593,95.0],[-5.7504,36.6551,95.0],[-5.7458,36.655,95.0],[-5.7393,36.6597,95.0],[-5.7384,36.6585,95.0],[-5.7407,36.6523,95.0],[-5.732,36.6526,95.0],[-5.7271,36.6468,95.0],[-5.7213,36.6515,95.0],[-5.7116,36.6464,95.0],[-5.7077,36.6534,95.0],[-5.7105,36.656,95.0],[-5.7027,36.66,95.0],[-5.6881,36.656,95.0],[-5.6833,36.6469,95.0],[-5.6804,36.6477,95.0],[-5.6812,36.6507,95.0],[-5.6768,36.6522,112.3738],[-5.6729,36.6504,95.0],[-5.6717,36.6469,95.0],[-5.6697,36.6464,95.0],[-5.6728,36.6427,95.0],[-5.6633,36.6358,97.3056],[-5.6599,36.636,95.0],[-5.6574,36.6319,98.6205],[-5.6582,36.63,98.2621],[-5.6537,36.6294,95.0],[-5.6518,36.6238,95.0],[-5.6403,36.6262,97.1414],[-5.6406,36.6281,95.0],[-5.6341,36.6335,98.6893],[-5.6322,36.6395,98.1168],[-5.6296,36.6411,95.0],[-5.6194,36.6361,104.8148],[-5.6128,36.639,113.2112],[-5.6177,36.6431,282.8117],[-5.6167,36.6482,218.0205],[-5.6047,36.6598,232.3373],[-5.6108,36.6684,191.1234],[-5.6064,36.6753,212.3981],[-5.6031,36.6763,214.917],[-5.5988,36.685,243.235],[-5.595,36.6861,276.8403],[-5.5905,36.6898,267.1761],[-5.5845,36.6904,290.6829],[-5.5742,36.6842,429.2092],[-5.5475,36.679,321.5507],[-5.5425,36.6741,230.2212],[-5.541,36.6703,211.5],[-5.5313,36.664,414.2739],[-5.5308,36.6594,533.7961],[-5.5226,36.6601,517.2455],[-5.512,36.6567,498.217],[-5.5087,36.6531,506.4037],[-5.5025,36.6509,559.3695],[-5.4956,36.6445,644.6466],[-5.4915,36.6446,624.9227],[-5.4888,36.6381,488.9653]]]]}}