{"type":"Feature","properties":{"GID_3":"ESP.6.2.3_1","GID_0":"ESP","country":"Spain","GID_1":"ESP.6_1","province":"Cataluña","NL_NAME_1":"NA","GID_2":"ESP.6.2_1","county":"Girona","NL_NAME_2":"NA","city":"n.a.(103)","VARNAME_3":"NA","NL_NAME_3":"NA","TYPE_3":"Comarca","ENGTYPE_3":"Comarca","CC_3":"NA","HASC_3":"NA","name":"n.a.(103).city"},
"geometry":{"type": "MultiPolygon","coordinates": [[[[2.6312,42.0794,762.8103],[2.6338,42.0835,806.4724],[2.6312,42.0855,798.486],[2.6314,42.0894,846.4423],[2.6362,42.088,721.1362],[2.6458,42.0936,581.5786],[2.6462,42.0962,470.5122],[2.6528,42.1021,494.1901],[2.6534,42.1103,576.144],[2.6579,42.1117,511.0807],[2.6572,42.1188,322.7802],[2.6659,42.1237,279.5068],[2.6641,42.1326,312.6227],[2.6548,42.137,280.6111],[2.6622,42.1422,450.0572],[2.6571,42.1462,307.2272],[2.6583,42.1481,288.5875],[2.6565,42.1492,281.6402],[2.6586,42.1527,331.9547],[2.6575,42.1557,418.4208],[2.6635,42.1563,438.2688],[2.6686,42.1588,448.0791],[2.6667,42.1765,276.1393],[2.6736,42.176,282.2748],[2.6748,42.1746,258.8261],[2.6769,42.1773,312.4496],[2.6793,42.1749,247.4758],[2.6829,42.1773,322.9264],[2.6856,42.1746,232.1202],[2.6753999999999998,42.1727,331.0277],[2.682,42.1722,323.0161],[2.6926,42.1744,392.5257],[2.7032,42.1732,365.3445],[2.7106,42.1752,379.3591],[2.723,42.1871,183.2209],[2.7355,42.1819,190.4353],[2.7415,42.181399999999996,177.6091],[2.7644,42.1871,128.886],[2.7706,42.1899,115.6978],[2.7698,42.1922,116.5484],[2.7676,42.1927,136.5176],[2.7662,42.2034,157.142],[2.7686,42.2042,179.2997],[2.7688,42.2064,201.3154],[2.7705,42.2061,201.3154],[2.7793,42.2122,263.8798],[2.7764,42.2162,268.7278],[2.7758,42.2239,294.0232],[2.778,42.2274,226.9648],[2.7678,42.2384,316.3877],[2.7711,42.2521,289.0325],[2.7443,42.2611,500.7626],[2.7313,42.2638,580.8425],[2.7272,42.252,765.981],[2.7279,42.2498,685.8929],[2.7222,42.2459,669.4932],[2.7181,42.2509,710.9297],[2.7024,42.2495,794.6946],[2.7012,42.2547,894.6744],[2.703,42.2587,984.5202],[2.7063,42.2594,1071.6371],[2.7101,42.2667,982.2819],[2.6968,42.2743,1017.6249],[2.677,42.2705,721.9297],[2.681,42.2694,710.1448],[2.6909,42.2624,743.9839],[2.6761,42.2636,833.6039],[2.6729,42.2621,769.5158],[2.677,42.2604,778.7848],[2.6727,42.2571,725.3718],[2.6702,42.2596,534.9643],[2.6709,42.2634,616.9647],[2.663,42.265,406.8081],[2.6622,42.2686,401.5868],[2.6675,42.2726,435.2529],[2.6647,42.2779,479.1223],[2.666,42.283,554.2995],[2.6598,42.2907,590.1512],[2.658,42.2961,716.9189],[2.6448,42.2975,879.2925],[2.6284,42.2958,1072.1227],[2.633,42.3054,993.3412],[2.631,42.3128,1306.1118],[2.6224,42.3103,1064.5012],[2.6183,42.3067,864.0042],[2.6161,42.313,762.2977],[2.6128,42.3145,802.731],[2.6144,42.3186,897.7117],[2.5922,42.3278,858.0031],[2.581,42.3265,700.7454],[2.5777,42.321,966.3471],[2.5621,42.3177,1291.7612],[2.5623,42.3191,1258.3916],[2.5578,42.3214,1245.2581],[2.5512,42.3284,1310.3057],[2.542,42.3339,1332.4226],[2.5261,42.3334,1513.9559],[2.519,42.3262,1227.8972],[2.5239,42.3184,985.3694],[2.5269,42.3076,713.2758],[2.5279,42.3009,479.7479],[2.5244,42.2918,954.2797],[2.5316,42.2902,922.6265],[2.5507,42.2908,383.6045],[2.5548,42.2883,379.3981],[2.5552,42.286,356.4217],[2.5581,42.2872,375.9079],[2.5567,42.2847,405.51],[2.5515,42.2854,392.8795],[2.5449,42.2819,417.1611],[2.5383,42.282,555.3524],[2.5372,42.2798,566.7321],[2.5087,42.2811,722.6658],[2.5077,42.2861,824.9236],[2.5045,42.2867,817.1265],[2.5039,42.2984,635.1216],[2.5062,42.3037,489.3509],[2.5037,42.3039,528.2338],[2.4964,42.2987,820.7206],[2.4953,42.3003,762.7424],[2.4802,42.3029,520.8743],[2.486,42.2879,843.9755],[2.464,42.2797,1075.462],[2.452,42.2831,1154.4673],[2.4507,42.2813,1215.5082],[2.4461,42.2807,1254.6],[2.4421,42.2855,1172.709],[2.4378,42.2864,1196.8673],[2.4351,42.2852,1100.5448],[2.4311,42.2877,1195.3289],[2.4279,42.284,1251.8647],[2.4157,42.2866,1195.1274],[2.4063,42.2821,951.2261],[2.4054,42.2739,786.8843],[2.3983,42.2715,822.7562],[2.3875,42.2719,861.8771],[2.3751,42.2651,902.3574],[2.382,42.2558,1011.561],[2.385,42.2557,1022.0958],[2.3848,42.2545,1004.6134],[2.3774,42.2518,1011.0861],[2.3726,42.2523,1078.3066],[2.3701,42.2486,1008.7038],[2.3644,42.2491,1090.7976],[2.3603,42.2455,1053.4863],[2.3509,42.2449,1121.2361],[2.3442,42.2411,1119.1633],[2.345,42.2344,1006.8031],[2.3431,42.2318,1073.2758],[2.3477,42.2278,960.5326],[2.3552,42.2276,910.762],[2.3586,42.2259,900.9966],[2.361,42.2279,830.7618],[2.3685,42.2279,869.0083],[2.3738,42.2297,878.1111],[2.3757,42.2249,929.4912],[2.3693,42.216,697.816],[2.3322,42.2112,1056.283],[2.335,42.2048,1297.6106],[2.3398,42.2027,1344.3326],[2.3461,42.2023,1337.7065],[2.3485,42.1996,1209.3754],[2.3475,42.1945,1201.6628],[2.3551,42.1938,1207.8506],[2.3593,42.1886,1209.8927],[2.3578,42.1787,1247.4502],[2.361,42.1719,1279.9155],[2.3714,42.1763,1098.6877],[2.3675,42.1737,1080.9272],[2.3759,42.1696,1112.5691],[2.379,42.1713,1018.0948],[2.3813,42.1681,1116.7985],[2.3856,42.1668,1079.8018],[2.3841,42.1633,1068.5714],[2.381,42.1625,1033.0948],[2.3796,42.165,1027.8425],[2.377,42.1641,1035.3152],[2.3753,42.1664,1026.2208],[2.3748,42.1633,917.4465],[2.3709,42.1614,987.2427],[2.3581,42.1594,1134.1241],[2.3575,42.1549,1265.4203],[2.3488,42.1479,1384.0122],[2.3509,42.1378,1447.8947],[2.368,42.1292,1402.179],[2.374,42.1288,1346.4377],[2.381,42.1236,1404.7112],[2.374,42.1168,1324.4487],[2.3768,42.1059,1169.5371],[2.3799,42.1037,1234.2344],[2.3948,42.1043,1177.34],[2.4001,42.1022,1165.7892],[2.395,42.0952,930.0349],[2.3949,42.0912,1021.1779],[2.3973,42.088,1090.8142],[2.395,42.0868,1026.7943],[2.4058,42.0788,1235.1829],[2.411,42.0686,1173.6844],[2.4146,42.0689,1215.3203],[2.4172,42.0649,1238.441],[2.4206,42.0654,1282.9039],[2.4254,42.0625,1275.7725],[2.4293,42.064,1227.0084],[2.4435,42.0732,902.126],[2.4481,42.074,872.2267],[2.4496,42.0774,864.1749],[2.4535,42.0767,883.8594],[2.4546,42.078,859.3129],[2.4582,42.0752,929.2948],[2.4637,42.076,925.8222],[2.4667,42.0738,916.5645],[2.4719,42.0645,1034.8137],[2.4741,42.0637,1051.1907],[2.4773,42.0674,1002.8275],[2.4811,42.069,985.9418],[2.4904,42.0673,1023.6703],[2.5027,42.0514,1125.7964],[2.5113,42.0475,1030.3938],[2.5152,42.0419,1123.7372],[2.5338,42.0276,1026.3604],[2.5454,42.0297,723.1277],[2.5468,42.0387,471.761],[2.5532,42.0439,283.3897],[2.5581,42.0444,284.8559],[2.563,42.0421,261.1753],[2.5657,42.0386,248.4429],[2.5751,42.0378,228.2778],[2.5792,42.0348,238.4413],[2.5817,42.0369,244.4707],[2.5886,42.0376,314.761],[2.5959,42.0501,350.129],[2.602,42.0456,422.5788],[2.599,42.0438,442.0878],[2.5985,42.0406,427.4507],[2.6019,42.0383,392.0674],[2.6044,42.0331,386.5558],[2.6147,42.0242,476.5746],[2.6213,42.0252,412.2699],[2.6255,42.0228,466.3611],[2.6319,42.0135,355.8028],[2.6362,42.0137,374.8682],[2.6369,42.0165,396.8915],[2.6434,42.0164,397.8201],[2.6528,42.0193,529.0164],[2.6583,42.0188,563.8413],[2.6584,42.0171,564.3605],[2.6614,42.0166,539.6678],[2.6587,42.021,512.9117],[2.6436,42.0292,451.1125],[2.642,42.0338,454.9827],[2.637,42.038,407.3417],[2.6301,42.0381,370.7671],[2.6323,42.0441,394.8755],[2.631,42.0482,355.4015],[2.6392,42.055,301.8912],[2.6392,42.0586,309.8579],[2.6375,42.0589,343.7822],[2.6388,42.0609,350.2455],[2.6363,42.0649,391.2845],[2.6379,42.0711,564.3979],[2.6312,42.0794,762.8103]]]]}}