{"type": "Feature","bbox": [-2.3912,37.4773,-1.9111,37.9166],"geometry": {"type": "MultiPolygon","coordinates": [[[[-2.1149,37.5377,1113.1135],[-2.1039,37.5371,1037.9053],[-2.0748,37.5232,993.821],[-2.0662,37.5255,867.2228],[-2.059,37.5197,837.4536],[-2.0515,37.5189,974.2265],[-2.0521,37.5172,971.5148],[-2.0463,37.511,889.0673],[-2.0411,37.5014,798.4308],[-2.0403,37.4958,769.4139],[-2.0436,37.4913,727.4025],[-2.038,37.4845,670.2195],[-2.0354,37.4837,653.0995],[-2.0344,37.4773,620.9423],[-2.0309,37.4834,657.3366],[-2.0253,37.5135,927.6743],[-2.0128,37.5258,972.5527],[-1.9878,37.5275,918.7334],[-1.9476,37.5361,1010.5893],[-1.9163,37.536,1103.2734],[-1.9111,37.5383,1225.3619],[-1.9539,37.5883,753.9291],[-1.9556,37.5915,764.4276],[-1.9539,37.5975,789.9985],[-1.9556,37.601,807.276],[-1.9651,37.6051,831.697],[-1.97,37.6142,860.5501],[-1.9767,37.6188,891.7762],[-1.9784,37.6255,916.8149],[-1.9812,37.6284,927.8474],[-1.9817,37.6368,983.1495],[-1.9874,37.6452,1005.9963],[-1.9927,37.6433,1019.8217],[-1.9957,37.6503,856.9805],[-2.0019,37.6556,778.933],[-2.0076,37.6692,679.7132],[-2.0118,37.6735,712.7179],[-2.0097,37.6868,738.8944],[-2.0114,37.6925,791.1307],[-2.0103,37.6988,856.738],[-2.0125,37.7009,900.0625],[-2.0081,37.7115,1201.4742],[-2.0076,37.7198,1476.5809],[-2.004,37.7226,1293.6124],[-1.9998,37.723,1253.6837],[-1.9957,37.7281,1246.9919],[-2.0024,37.7478,1071.8121],[-2.0046,37.7662,952.3013],[-2.0087,37.775,1041.5381],[-2.0016,37.805,973.311],[-1.9964,37.819,859.901],[-1.9994,37.8232,714.7622],[-1.9952,37.8414,730.6379],[-1.9883,37.8535,771.5489],[-1.9773,37.8604,810.1087],[-1.9744,37.8685,834.3692],[-1.9826,37.8739,1006.3451],[-1.9879,37.8738,1068.3596],[-1.9946,37.8805,1003.4438],[-1.9988,37.8762,971.8755],[-2.0032,37.877,1003.0849],[-2.0044,37.8807,1017.2899],[-2.0217,37.8686,912.6989],[-2.0392,37.8754,929.5128],[-2.0424,37.8737,986.1979],[-2.0459,37.8746,1016.7782],[-2.0453,37.8762,977.9579],[-2.0499,37.8796,1019.643],[-2.0595,37.8801,1076.1167],[-2.0622,37.8835,1112.5491],[-2.0703,37.8845,1065.0702],[-2.0738,37.8838,1113.2523],[-2.0773,37.8784,1093.0221],[-2.0845,37.8724,984.8162],[-2.0857,37.8749,1032.9729],[-2.0983,37.8777,1199.9849],[-2.1034,37.8814,1223.4746],[-2.108,37.8815,1265.655],[-2.1064,37.8862,1185.254],[-2.1104,37.8909,1149.8271],[-2.118,37.8942,1183.1702],[-2.1231,37.9005,1194.5894],[-2.1299,37.9,1199.4788],[-2.1351,37.8977,1196.9507],[-2.1516,37.8973,1190.6196],[-2.1506,37.8957,1193.0458],[-2.1567,37.8913,1210.0405],[-2.1644,37.8926,1220.9797],[-2.1719,37.8887,1220.0146],[-2.1846,37.9017,1253.9514],[-2.1848,37.9037,1242.3964],[-2.2076,37.9166,1459.2477],[-2.2507,37.8972,1239.4094],[-2.2653,37.881,1210.9456],[-2.2884,37.8852,1148.0847],[-2.2948,37.8764,1059.9224],[-2.2962,37.8598,1077.0986],[-2.2937,37.8416,1094.064],[-2.2908,37.8376,1095.5544],[-2.2893,37.8315,1099.2817],[-2.2935,37.8282,1108.7681],[-2.3014,37.8103,1139.504],[-2.3007,37.8037,1134.5259],[-2.2935,37.7923,1064.3459],[-2.3001,37.7898,1056.787],[-2.2953,37.7886,1058.0081],[-2.2911,37.7896,1061.4482],[-2.2764,37.7769,1128.4885],[-2.287,37.7514,1158.6754],[-2.2886,37.7521,1164.8021],[-2.2946,37.7482,1163.3988],[-2.2942,37.7462,1158.105],[-2.2971,37.744,1166.2528],[-2.2968,37.7415,1129.0975],[-2.3074,37.7233,1016.5095],[-2.308,37.7206,1011.3464],[-2.3049,37.7192,1019.1058],[-2.3079,37.7168,1011.6813],[-2.3065,37.7103,1012.5304],[-2.3132,37.7114,1005.8625],[-2.3232,37.6939,991.9434],[-2.3257,37.6721,1056.9012],[-2.321,37.6599,1132.7217],[-2.3194,37.6597,1137.8352],[-2.3199,37.6481,1221.103],[-2.3165,37.645,1334.0337],[-2.3154,37.6415,1416.4618],[-2.3088,37.6358,1570.218],[-2.3157,37.6222,1718.4038],[-2.3391,37.6232,1728.86],[-2.3417,37.6238,1743.3772],[-2.3453,37.6293,1725.5946],[-2.3573,37.6247,1506.4963],[-2.3595,37.6213,1563.7097],[-2.3637,37.6215,1519.0171],[-2.3738,37.6292,1540.668],[-2.3912,37.6325,1655.2494],[-2.3887,37.618,1352.4315],[-2.3802,37.6122,1348.3502],[-2.3759,37.6123,1228.4226],[-2.3678,37.5916,1140.5535],[-2.3697,37.5811,1169.8746],[-2.3745,37.5794,1190.4646],[-2.3748,37.5779,1205.4685],[-2.3681,37.5729,1212.8461],[-2.3674,37.5631,1235.5374],[-2.3742,37.5574,1291.0255],[-2.3556,37.547,1252.788],[-2.3486,37.5479,1245.0859],[-2.3438,37.5508,1240.4785],[-2.327,37.5511,1186.2963],[-2.318,37.5536,1164.0867],[-2.3122,37.5578,1155.4034],[-2.3069,37.5553,1154.4003],[-2.2857,37.5542,1163.4802],[-2.2692,37.5568,1134.8196],[-2.2635,37.5506,1129.1409],[-2.2598,37.5501,1127.9705],[-2.2448,37.557,1126.7385],[-2.2401,37.5541,1127.3445],[-2.2149,37.5526,1122.2651],[-2.2007,37.5449,1163.9259],[-2.1829,37.5411,1074.4254],[-2.1728,37.5416,1145.6683],[-2.162,37.5384,1444.672],[-2.1617,37.541,1368.6771],[-2.1533,37.5458,1455.5864],[-2.128,37.5447,1090.2063],[-2.1138,37.5399,1094.344],[-2.1149,37.5377,1113.1135]]]]}
,"properties": {"GID_3": "ESP.1.1.8_1","GID_0": "ESP","country": "Spain","GID_1": "ESP.1_1","province": "Andalucía","NL_NAME_1": "NA","GID_2": "ESP.1.1_1","county": "Almería","NL_NAME_2": "NA","city": "n.a.(22)","VARNAME_3": "NA","NL_NAME_3": "NA","TYPE_3": "Comarca","ENGTYPE_3": "Comarca","CC_3": "NA","HASC_3": "NA","name": "n.a.(22).city","area_km2": 1145.1978,"hist_schema_id": "Elevation0-9000","hist_area_km2": {"625": 0.0168,"650": 0.1346,"675": 0.6218,"700": 2.7695,"725": 7.9495,"750": 12.8626,"775": 19.0687,"800": 23.5135,"825": 27.126,"850": 33.2563,"875": 41.5464,"900": 40.8747,"925": 41.7471,"950": 45.7888,"975": 48.1861,"1000": 55.987,"1025": 60.3829,"1050": 61.0891,"1075": 74.3717,"1100": 97.8244,"1125": 91.0877,"1150": 76.7453,"1175": 61.734,"1200": 51.2996,"1225": 31.1238,"1250": 20.4159,"1275": 15.4,"1300": 11.1734,"1325": 9.2629,"1350": 8.2903,"1375": 7.854,"1400": 7.0486,"1425": 6.2936,"1450": 5.2196,"1475": 4.6995,"1500": 4.4481,"1525": 3.5754,"1550": 3.9446,"1575": 3.29,"1600": 3.0215,"1625": 3.055,"1650": 2.7192,"1675": 2.1148,"1700": 2.3666,"1725": 1.9638,"1750": 2.0812,"1775": 1.5441,"1800": 1.5609,"1825": 1.3091,"1850": 1.3427,"1875": 1.1748,"1900": 1.0238,"1925": 0.7217,"1950": 0.2517,"1975": 0.3356,"2000": 0.2685,"2025": 0.2685,"2050": 0.0503}}}