{"type":"Feature","properties":{"GID_3":"ESP.5.7.1_1","GID_0":"ESP","country":"Spain","GID_1":"ESP.5_1","province":"CastillayLeón","NL_NAME_1":"NA","GID_2":"ESP.5.7_1","county":"Soria","NL_NAME_2":"NA","city":"n.a.(233)","VARNAME_3":"NA","NL_NAME_3":"NA","TYPE_3":"Comarca","ENGTYPE_3":"Comarca","CC_3":"NA","HASC_3":"NA","name":"n.a.(233).city"},
"geometry":{"type": "MultiPolygon","coordinates": [[[[-2.1986,41.806,1157.3678],[-2.1854,41.8068,1168.8104],[-2.1794,41.7967,1029.2598],[-2.1743,41.7938,1025.0349],[-2.1731,41.791,1024.4001],[-2.1711,41.7921,1024.2784],[-2.1715,41.7942,1025.7637],[-2.1629,41.7971,1030.8347],[-2.1579,41.8135,1062.4027],[-2.1497,41.8257,1148.2358],[-2.1375,41.8389,1340.6921],[-2.1159,41.8273,1370.5649],[-2.102,41.8257,1395.7195],[-2.098,41.827,1407.3683],[-2.0966,41.8291,1438.7355],[-2.1036,41.8313,1444.3903],[-2.1049,41.8347,1401.3011],[-2.1104,41.8361,1259.1187],[-2.0978,41.8455,1205.8682],[-2.0901,41.8483,1214.9393],[-2.0713,41.8673,992.4114],[-2.0782,41.8995,1142.7197],[-2.0531,41.9069,938.4993],[-2.036,41.9191,995.5747],[-2.0292,41.9071,1085.0056],[-2.027,41.9063,1063.7998],[-2.0311,41.8932,1046.1613],[-2.0289,41.8885,1015.9808],[-2.025,41.8861,1001.1481],[-2.0207,41.8859,1000.8876],[-2.0121,41.8897,1045.9222],[-2.0004,41.902,1119.4746],[-1.9861,41.9019,1063.3477],[-1.976,41.8996,1037.0336],[-1.9807,41.9101,1001.6349],[-1.982,41.9193,1028.6439],[-1.9983,41.9307,1127.9641],[-2.0013,41.9385,1139.272],[-2.013,41.9408,1030.4711],[-2.016,41.9448,1025.0013],[-2.0195,41.9445,1022.0647],[-2.0214,41.9484,980.1497],[-2.0281,41.9531,663.7927],[-2.0298,41.9531,663.7927],[-2.0306,41.9481,681.8243],[-2.0343,41.9464,690.8944],[-2.0336,41.9436,731.2402],[-2.0359,41.9437,704.8438],[-2.0363,41.9394,714.6724],[-2.0443,41.9462,885.9956],[-2.0452,41.9501,840.5664],[-2.0622,41.9544,863.5889],[-2.0762,41.9509,989.6074],[-2.0783,41.9513,1009.1425],[-2.0801,41.9544,1007.0166],[-2.0862,41.9544,1043.5131],[-2.0911,41.9563,1046.0959],[-2.1004,41.9553,976.9904],[-2.1099,41.9579,1095.5378],[-2.116,41.9636,1168.5425],[-2.1162,41.9747,1227.9651],[-2.1192,41.9766,1246.8936],[-2.1198,41.9861,1344.5045],[-2.124,41.9953,1489.9895],[-2.1194,41.9971,1504.2751],[-2.112,41.997,1472.543],[-2.1076,42.0028,1437.8438],[-2.1152,42.0115,1302.3131],[-2.117,42.0215,1111.5807],[-2.1288,42.0262,1109.5535],[-2.1448,42.0416,1166.025],[-2.1505,42.0422,1110.1323],[-2.1499,42.045,1035.29],[-2.1547,42.047,1015.777],[-2.1619,42.0667,1259.184],[-2.1516,42.0689,1155.0006],[-2.1421,42.0742,1108.8186],[-2.1353,42.0746,1134.2771],[-2.127,42.0809,914.2374],[-2.1268,42.0881,825.2659],[-2.1284,42.0896,888.6052],[-2.1273,42.0972,990.1959],[-2.1367,42.1031,1010.8214],[-2.1756,42.1048,1179.1636],[-2.1985,42.1025,1256.6055],[-2.2088,42.1047,1261.8625],[-2.2166,42.1001,1325.4734],[-2.224,42.0982,1331.8567],[-2.2307,42.1015,1319.4734],[-2.2378,42.1022,1328.5872],[-2.2588,42.0873,1581.2506],[-2.2695,42.0886,1638.3776],[-2.2817,42.1084,1397.3124],[-2.2806,42.1143,1299.5339],[-2.2825,42.1188,1228.4375],[-2.2789,42.1224,1134.317],[-2.2821,42.1317,1017.1353],[-2.2883,42.135,822.2835],[-2.3078,42.1402,1181.6577],[-2.3157,42.1445,1289.1638],[-2.3268,42.1437,1449.1547],[-2.3321,42.146,1509.1023],[-2.3439,42.1455,1467.1101],[-2.3481,42.1467,1511.0281],[-2.351,42.1449,1496.7676],[-2.3706,42.1434,1540.9155],[-2.3761,42.1414,1482.4491],[-2.3878,42.1425,1503.5342],[-2.3972,42.1369,1647.0713],[-2.4013,42.1396,1647.7433],[-2.4176,42.139,1695.1685],[-2.4269,42.1358,1744.8149],[-2.4384,42.1373,1726.8719],[-2.4464,42.1322,1732.2301],[-2.4485,42.1241,1749.0177],[-2.4535,42.1213,1702.5615],[-2.4586,42.1153,1683.6455],[-2.4717,42.1143,1582.0977],[-2.4744,42.1111,1576.7111],[-2.4843,42.1063,1550.3838],[-2.4903,42.111,1498.2883],[-2.4958,42.1129,1555.3068],[-2.501,42.1124,1610.3413],[-2.5085,42.1154,1642.662],[-2.5146,42.1145,1646.3796],[-2.5164,42.1108,1632.6764],[-2.5162,42.1027,1621.3721],[-2.5193,42.098,1647.28],[-2.5182,42.0908,1687.2224],[-2.5215,42.0875,1684.113],[-2.5226,42.0829,1736.0432],[-2.5193,42.081,1718.1139],[-2.5147,42.0742,1757.0255],[-2.5148,42.0689,1768.7416],[-2.5324,42.0552,1717.1238],[-2.5395,42.055,1707.3058],[-2.549,42.0515,1915.1995],[-2.552,42.0456,1827.7096],[-2.5512,42.0389,1905.0028],[-2.556,42.0348,1780.0981],[-2.5652,42.014,1745.0502],[-2.5752,42.0067,1735.3812],[-2.5798,41.9963,1827.5514],[-2.5965,42.0019,1843.2356],[-2.6096,42.0029,1818.6868],[-2.615,42.0058,1842.4252],[-2.6244,42.0049,1896.9299],[-2.6266,42.0065,1925.3472],[-2.65,42.0038,2067.7109],[-2.6597,42.0054,2120.3572],[-2.6618,42.0029,2122.1956],[-2.6735,41.9981,2126.1216],[-2.6871,42.0014,2063.3789],[-2.6962,42.0107,1992.0511],[-2.7057,42.0151,2026.7167],[-2.7102,42.0137,1974.3567],[-2.7202,42.0158,1910.5129],[-2.7271,42.015,1926.1423],[-2.7461,42.0087,2028.6918],[-2.7483,42.0115,2021.6655],[-2.7473,41.991,1895.845],[-2.7445,41.9839,1898.621],[-2.7346,41.9682,1809.3214],[-2.7314,41.9579,1820.4581],[-2.719,41.9417,1675.7871],[-2.7137,41.929,1674.2666],[-2.7098,41.9264,1671.8038],[-2.7219,41.9148,1345.8694],[-2.7122,41.8974,1311.3809],[-2.7147,41.8978,1336.2991],[-2.7112,41.8864,1182.3979],[-2.7029,41.8807,1092.1355],[-2.6918,41.8759,1053.1487],[-2.6942,41.8695,1133.3011],[-2.6907,41.868,1173.2542],[-2.6734,41.8697,1125.2291],[-2.6661,41.8667,1186.8027],[-2.641,41.8635,1095.4171],[-2.6277,41.8536,1066.5522],[-2.608,41.8532,1031.2148],[-2.6024,41.8492,1030.0081],[-2.5907,41.849,1035.3362],[-2.586,41.8442,1029.0789],[-2.5765,41.8429,1034.9949],[-2.58,41.8838,1127.6121],[-2.5864,41.8957,1308.9753],[-2.5773,41.8961,1309.2123],[-2.5712,41.9021,1436.7617],[-2.5503,41.8931,1420.188],[-2.5474,41.8933,1413.5797],[-2.5445,41.8985,1246.0314],[-2.5404,41.8981,1218.865],[-2.5363,41.8928,1236.7546],[-2.527,41.8876,1196.2017],[-2.5128,41.8861,1202.3699],[-2.5079,41.8872,1171.3765],[-2.5071,41.8814,1397.7357],[-2.4931,41.8663,1270.71],[-2.4812,41.8639,1036.2385],[-2.4756,41.8657,1044.5861],[-2.4757,41.8711,1080.5723],[-2.4686,41.8719,1078.8224],[-2.4718,41.8845,1100.7949],[-2.4704,41.8898,1103.1827],[-2.4658,41.8882,1105.8643],[-2.4582,41.8897,1129.001],[-2.454,41.8854,1151.1394],[-2.4495,41.8852,1177.5992],[-2.4256,41.8902,1275.7476],[-2.4216,41.8888,1267.2815],[-2.4128,41.8808,1204.7837],[-2.406,41.8807,1164.163],[-2.4007,41.8828,1151.8713],[-2.3936,41.8907,1130.0918],[-2.3813,41.8915,1094.171],[-2.3727,41.8874,1105.4287],[-2.3634,41.8982,1094.4097],[-2.345,41.8915,1135.4009],[-2.345,41.8878,1129.48],[-2.3222,41.8966,1117.0842],[-2.2976,41.895,1141.126],[-2.2971,41.8897,1131.5912],[-2.2782,41.885,1259.7096],[-2.2541,41.8868,1304.6024],[-2.2513,41.8763,1287.1206],[-2.2563,41.8741,1264.4995],[-2.261,41.8659,1201.979],[-2.2456,41.8645,1231.0994],[-2.2584,41.8546,1206.8823],[-2.2503,41.8369,1523.3479],[-2.2316,41.8365,1289.0533],[-2.216,41.8309,1305.7227],[-2.1986,41.806,1157.3678]]]]}}