{"type":"Feature","properties":{"GID_1":"ESP.8_1","GID_0":"ESP","country":"Spain","province":"ComunidaddeMadrid","VARNAME_1":"Madrid|CommunautédeMadrid|Com","NL_NAME_1":"NA","TYPE_1":"ComunidadAutónoma","ENGTYPE_1":"AutonomousCommunity","CC_1":"NA","HASC_1":"ES.MD","ISO_1":"NA","name":"Comunidadde_Madrid.province"},
"geometry":{"type": "MultiPolygon","coordinates": [[[[-3.8729,39.909,463.9496],[-3.8742,39.9081,466.4427],[-3.8705,39.9072,466.5211],[-3.8695,39.9047,466.1726],[-3.8658,39.9031,466.9789],[-3.8484,39.9026,495.9406],[-3.8343,39.8998,525.9408],[-3.8146,39.8859,550.9477],[-3.8038,39.8846,547.2122],[-3.8061,39.8878,549.4029],[-3.7889,39.8999,508.9032],[-3.7786,39.9114,513.8387],[-3.7559,39.9216,540.718],[-3.7458,39.9334,522.1354],[-3.7448,39.9406,514.9464],[-3.7312,39.9442,557.0034],[-3.7113,39.955,525.1671],[-3.6977,39.947,566.014],[-3.6775,39.9611,537.1698],[-3.6619,39.9662,557.9775],[-3.6349,39.9662,577.5677],[-3.6346,39.9692,575.0851],[-3.631,39.9688,581.3212],[-3.638,39.9888,575.6404],[-3.6291,39.993,609.973],[-3.6222,39.9914,585.3026],[-3.6094,39.9985,618.0641],[-3.5945,40.0019,619.4164],[-3.5896,40.0135,578.1142],[-3.5748,40.0137,629.6239],[-3.5742,40.0158,623.266],[-3.5504,40.0179,610.7272],[-3.5294,40.0184,619.2475],[-3.5198,40.0209,621.4858],[-3.5219,40.0259,629.9575],[-3.5152,40.0433,500.1157],[-3.5103,40.0432,499.4044],[-3.51,40.0463,499.5765],[-3.5082,40.0447,500.6086],[-3.5058,40.0455,501.0646],[-3.507,40.0482,501.5031],[-3.5045,40.0486,502.7396],[-3.5031,40.0461,501.9873],[-3.4992,40.0453,502.5341],[-3.4953,40.0477,502.4468],[-3.4898,40.0476,502.5049],[-3.4878,40.0415,503.5582],[-3.4855,40.0421,503.0347],[-3.483,40.0463,503.9836],[-3.4782,40.0449,503.0945],[-3.472,40.0461,505.0944],[-3.4727,40.0422,503.2281],[-3.4689,40.041,506.7916],[-3.4547,40.0468,505.3758],[-3.456,40.05,506.3761],[-3.4523,40.0502,506.6313],[-3.4467,40.0481,506.4988],[-3.4486,40.044,506.6891],[-3.4475,40.0383,508.114],[-3.4456,40.0374,507.8154],[-3.4403,40.0391,507.2761],[-3.4296,40.0388,507.8282],[-3.4249,40.0471,524.3023],[-3.4086,40.0405,510.9902],[-3.4093,40.0375,509.6576],[-3.4016,40.0342,513.3813],[-3.3941,40.0355,513.9409],[-3.3917,40.0403,511.7133],[-3.3942,40.0422,513.0894],[-3.3942,40.0455,512.3473],[-3.3863,40.05,513.3725],[-3.3859,40.0516,513.6612],[-3.3763,40.0498,514.848],[-3.3745,40.0585,583.8083],[-3.3796,40.0683,621.762],[-3.3769,40.0752,651.8643],[-3.3569,40.0761,652.5557],[-3.3443,40.0807,670.7864],[-3.3343,40.0816,653.1507],[-3.3273,40.0796,639.2246],[-3.3116,40.0687,614.5397],[-3.3028,40.0537,525.654],[-3.2969,40.0518,526.2985],[-3.2865,40.0521,526.574],[-3.2834,40.0513,526.0712],[-3.2833,40.0493,528.2651],[-3.2767,40.0474,527.466],[-3.2735,40.0479,527.9898],[-3.2726,40.0495,530.2599],[-3.2737,40.0548,528.239],[-3.2679,40.0531,527.8621],[-3.2663,40.0535,528.146],[-3.2656,40.057,527.8267],[-3.2629,40.0565,527.8955],[-3.2603,40.0518,529.7801],[-3.2575,40.0508,528.6656],[-3.2552,40.058,529.4996],[-3.2491,40.0561,529.5007],[-3.2456,40.0595,530.1796],[-3.2439,40.0536,549.4532],[-3.227,40.0567,594.171],[-3.2084,40.0632,567.5201],[-3.2084,40.0605,598.2898],[-3.2049,40.059,602.4479],[-3.201,40.0613,610.3315],[-3.206,40.0618,574.3147],[-3.2076,40.0638,552.5028],[-3.1905,40.077,580.1251],[-3.1893,40.0827,538.092],[-3.1789,40.0851,539.8892],[-3.1769,40.0901,535.7293],[-3.1749,40.091,536.4919],[-3.1663,40.0913,546.9045],[-3.168,40.086,599.0057],[-3.1629,40.0838,622.2195],[-3.1613,40.0744,643.2232],[-3.1627,40.0711,656.2719],[-3.1604,40.0694,654.2892],[-3.1613,40.0651,652.1467],[-3.1486,40.0662,618.2087],[-3.1393,40.0632,645.1155],[-3.1178,40.0617,692.6695],[-3.1066,40.0662,685.7214],[-3.0886,40.0705,680.9301],[-3.0607,40.0904,657.1926],[-3.0532,40.0991,609.9186],[-3.0571,40.1049,622.8452],[-3.054,40.1065,614.1893],[-3.0587,40.1113,598.0686],[-3.0564,40.1132,596.118],[-3.0579,40.1142,602.7077],[-3.0618,40.1131,604.6257],[-3.0624,40.1151,593.028],[-3.0678,40.1185,592.1282],[-3.0653,40.1215,587.9082],[-3.0704,40.1226,583.6835],[-3.0732,40.1252,590.7361],[-3.0719,40.1263,581.2751],[-3.0749,40.1289,582.9062],[-3.0726,40.1306,576.6134],[-3.0777,40.1326,581.5137],[-3.0776,40.135,572.1711],[-3.0823,40.1351,567.5485],[-3.0854,40.1385,562.35],[-3.0899,40.139,561.1057],[-3.0882,40.1393,560.2733],[-3.0905,40.1411,557.3356],[-3.0939,40.1388,561.8835],[-3.0948,40.1421,557.9915],[-3.0968,40.1425,550.6699],[-3.0941,40.1505,551.2303],[-3.0978,40.1535,550.1793],[-3.0881,40.1628,551.5908],[-3.0841,40.162,555.5697],[-3.0829,40.1583,562.8646],[-3.0786,40.1567,556.8297],[-3.0677,40.1575,557.2344],[-3.0691,40.1601,558.1611],[-3.0785,40.1652,596.2489],[-3.0771,40.1731,571.6055],[-3.0854,40.1865,632.4554],[-3.0842,40.1892,647.173],[-3.0866,40.1938,666.4625],[-3.0842,40.1985,677.8697],[-3.0883,40.2006,648.1033],[-3.083,40.2028,613.4254],[-3.0792,40.2091,605.2656],[-3.0832,40.2152,611.6937],[-3.079,40.224,665.1854],[-3.0806,40.2297,746.3554],[-3.0865,40.234,757.733],[-3.0892,40.2387,761.1319],[-3.0868,40.244,776.8632],[-3.0886,40.2482,787.4327],[-3.099,40.2605,798.5846],[-3.0958,40.2689,784.5448],[-3.0982,40.2751,773.4963],[-3.1023,40.2786,791.1028],[-3.1076,40.2803,814.6275],[-3.1094,40.2852,818.9855],[-3.112,40.2856,806.3066],[-3.1274,40.2782,811.2931],[-3.1438,40.2661,756.1427],[-3.1533,40.2641,774.5266],[-3.1516,40.2619,764.7632],[-3.1601,40.2565,732.3677],[-3.1729,40.2389,780.3522],[-3.1731,40.234,756.1368],[-3.178,40.2361,793.7487],[-3.1795,40.2406,802.7256],[-3.1831,40.2434,793.6639],[-3.1956,40.2478,796.9573],[-3.1961,40.2577,799.839],[-3.1835,40.2693,791.0737],[-3.1865,40.2786,800.3737],[-3.1806,40.2911,802.5626],[-3.1818,40.2951,809.262],[-3.1802,40.3013,808.501],[-3.1824,40.3068,793.4966],[-3.1778,40.3151,806.5519],[-3.1621,40.326,816.0676],[-3.1623,40.3274,798.7554],[-3.1533,40.3317,833.7747],[-3.1514,40.3385,690.0109],[-3.1561,40.3419,632.0424],[-3.1474,40.3474,631.0034],[-3.1467,40.3501,632.274],[-3.1415,40.3508,636.0417],[-3.1414,40.3526,635.626],[-3.1442,40.3537,648.1885],[-3.1437,40.3579,635.6461],[-3.1496,40.3609,680.5405],[-3.1533,40.3674,824.9257],[-3.1494,40.3717,831.7458],[-3.1502,40.3734,824.7727],[-3.1387,40.376,646.5229],[-3.1442,40.3875,648.5231],[-3.1356,40.39,791.3932],[-3.1344,40.3979,815.1413],[-3.1304,40.4051,856.4241],[-3.1418,40.4121,685.4347],[-3.1475,40.4196,851.0652],[-3.1476,40.4226,847.8101],[-3.1512,40.4265,860.2742],[-3.1511,40.4311,864.7722],[-3.1559,40.4392,839.0489],[-3.1685,40.4386,867.7204],[-3.1725,40.4362,866.3581],[-3.1782,40.4393,874.0771],[-3.1986,40.4423,848.1446],[-3.2004,40.4462,859.0605],[-3.1985,40.4599,865.9828],[-3.2002,40.4633,862.004],[-3.1953,40.4784,878.8612],[-3.202,40.4954,885.3547],[-3.1989,40.5039,899.7273],[-3.2006,40.5147,897.0323],[-3.224,40.5267,860.3755],[-3.2278,40.5355,700.2122],[-3.2318,40.5387,679.9132],[-3.2329,40.5379,679.9132],[-3.2302,40.532,710.9834],[-3.2356,40.5328,691.8974],[-3.2439,40.5368,667.5885],[-3.2497,40.5437,621.6962],[-3.2719,40.5351,606.2672],[-3.2777,40.534,599.6376],[-3.2835,40.5367,607.5012],[-3.2896,40.5317,607.8762],[-3.2969,40.5373,615.462],[-3.2838,40.5489,624.2041],[-3.2853,40.5496,624.477],[-3.2817,40.5524,626.1371],[-3.2882,40.5583,629.6582],[-3.2833,40.5638,636.3011],[-3.2866,40.5652,638.9242],[-3.2826,40.5693,641.9761],[-3.2833,40.5715,646.3051],[-3.3105,40.5796,698.7001],[-3.3304,40.5974,761.1775],[-3.3288,40.5989,763.2108],[-3.3308,40.6007,764.6438],[-3.3294,40.6036,765.6814],[-3.3307,40.6046,765.6497],[-3.3288,40.6061,766.3176],[-3.3304,40.6073,765.5192],[-3.322,40.6122,770.6164],[-3.3275,40.6202,765.7107],[-3.3375,40.6254,713.7179],[-3.3367,40.6268,709.7513],[-3.3312,40.6264,720.7706],[-3.3233,40.6301,729.4471],[-3.3228,40.6408,754.769],[-3.3149,40.6492,761.1486],[-3.3174,40.6543,778.7267],[-3.3177,40.6513,775.9828],[-3.3243,40.6436,740.3908],[-3.3338,40.6396,735.7216],[-3.3374,40.6409,711.2492],[-3.3388,40.6366,706.6334],[-3.3465,40.6385,732.9226],[-3.3449,40.6416,732.6321],[-3.3654,40.6479,708.064],[-3.3654,40.6514,687.5746],[-3.3632,40.655,690.2574],[-3.3677,40.6607,711.7279],[-3.3678,40.664,718.2656],[-3.3727,40.6694,734.4307],[-3.3728,40.6779,757.6471],[-3.3892,40.6875,830.6121],[-3.3932,40.6927,831.2241],[-3.3999,40.6917,831.9027],[-3.4047,40.6777,826.9508],[-3.4049,40.6701,812.8433],[-3.4105,40.6722,810.8093],[-3.4151,40.6713,783.2713],[-3.4207,40.6813,825.8088],[-3.4247,40.6808,825.6808],[-3.4259,40.6827,822.2109],[-3.4271,40.6726,822.5397],[-3.4357,40.6752,770.4574],[-3.4418,40.6743,756.6363],[-3.4422,40.6781,762.4105],[-3.4483,40.6784,786.5148],[-3.4487,40.6825,784.4513],[-3.4559,40.6879,755.4725],[-3.4674,40.6897,727.5497],[-3.4674,40.6926,736.2348],[-3.4616,40.6927,736.3104],[-3.4629,40.6977,739.6522],[-3.4567,40.7042,732.0117],[-3.4557,40.7093,752.724],[-3.4463,40.7147,756.4699],[-3.4421,40.72,785.3473],[-3.4378,40.7224,808.1287],[-3.4341,40.7308,821.9443],[-3.4416,40.7379,739.5712],[-3.4484,40.7329,726.2502],[-3.4509,40.738,737.5117],[-3.4495,40.7409,744.0215],[-3.4467,40.7411,753.2845],[-3.4432,40.7538,792.4562],[-3.4433,40.7608,851.3284],[-3.4467,40.7633,810.7394],[-3.45,40.7722,781.5201],[-3.4558,40.7763,757.0236],[-3.4594,40.7814,760.4448],[-3.4658,40.7843,790.8896],[-3.4852,40.7846,714.8138],[-3.4971,40.7886,686.7419],[-3.5106,40.7886,724.2341],[-3.5083,40.7909,661.7167],[-3.5026,40.7891,663.4248],[-3.5019,40.7972,663.9747],[-3.4987,40.7993,665.9591],[-3.4945,40.7975,665.974],[-3.4911,40.7994,669.7816],[-3.4908,40.8077,675.4711],[-3.4815,40.8156,689.7485],[-3.4814,40.8196,673.1002],[-3.4762,40.8263,685.645],[-3.4789,40.8385,684.8249],[-3.4711,40.8418,684.6284],[-3.4703,40.8443,683.6567],[-3.4767,40.8515,694.1827],[-3.4711,40.8515,687.2578],[-3.4677,40.8565,687.3622],[-3.4739,40.8625,692.7761],[-3.4731,40.8644,701.3196],[-3.4491,40.8772,734.7229],[-3.4463,40.8779,713.156],[-3.4408,40.8761,699.5673],[-3.4441,40.8879,725.4921],[-3.4402,40.8919,743.1011],[-3.4474,40.8961,731.2103],[-3.4506,40.8952,753.8611],[-3.4543,40.899,740.9509],[-3.4601,40.8986,781.6969],[-3.4607,40.9006,769.9856],[-3.4583,40.9023,748.353],[-3.4604,40.9052,771.4862],[-3.46,40.9083,734.5611],[-3.458,40.9092,752.6954],[-3.4516,40.9064,741.3197],[-3.4445,40.9082,746.1274],[-3.4494,40.9129,755.9279],[-3.4464,40.9188,885.1508],[-3.4471,40.9224,944.0695],[-3.4356,40.9337,1049.5863],[-3.4336,40.9376,954.6084],[-3.4349,40.9461,1126.1311],[-3.4313,40.9493,1173.0328],[-3.4277,40.9603,1431.0607],[-3.4215,40.9673,1463.2368],[-3.4166,40.9773,1509.1492],[-3.4181,40.9876,1643.7299],[-3.4004,40.9957,1743.7413],[-3.3945,41.0003,1754.095],[-3.3976,41.0074,1723.9263],[-3.422,41.026,1671.7673],[-3.4289,41.0399,1655.1257],[-3.4308,41.0415,1668.3481],[-3.4382,41.0426,1601.7992],[-3.4379,41.0467,1454.691],[-3.4345,41.0493,1357.8495],[-3.4354,41.0535,1317.9863],[-3.4316,41.0586,1260.6249],[-3.4328,41.0628,1266.4648],[-3.4274,41.0658,1214.9911],[-3.4257,41.0733,1148.4241],[-3.4278,41.0822,1142.2567],[-3.4258,41.0834,1135.5806],[-3.4323,41.0849,1161.9255],[-3.4485,41.0817,1172.5852],[-3.4556,41.0845,1181.079],[-3.4566,41.0874,1193.5436],[-3.4755,41.0957,1248.7263],[-3.4833,41.0929,1283.9263],[-3.488,41.0941,1233.4167],[-3.4907,41.1005,1272.0881],[-3.4894,41.1047,1272.6559],[-3.4923,41.1075,1303.9487],[-3.4921,41.1135,1367.0222],[-3.4995,41.1237,1355.27],[-3.5111,41.1342,1485.6208],[-3.5292,41.1407,1573.9531],[-3.5334,41.1471,1838.6495],[-3.5405,41.1505,1976.1637],[-3.5365,41.1604,2046.0344],[-3.5397,41.165,2120.4976],[-3.5574,41.1645,1804.9335],[-3.569,41.1594,1726.4438],[-3.5834,41.1611,1264.5995],[-3.59,41.1583,1491.2546],[-3.5916,41.1543,1540.5933],[-3.6002,41.1552,1632.4326],[-3.6136,41.1491,1630.7404],[-3.6195,41.1427,1622.0105],[-3.6318,41.1339,1665.0475],[-3.6341,41.1257,1810.2057],[-3.6435,41.1205,1818.0692],[-3.6506,41.1073,1780.303],[-3.6721,41.0918,1767.3815],[-3.6767,41.0864,1813.5997],[-3.6803,41.0842,1808.3256],[-3.6875,41.0852,1766.313],[-3.695,41.0832,1757.5361],[-3.7158,41.0715,1856.51],[-3.7203,41.0656,1943.0934],[-3.7295,41.0622,1898.3163],[-3.7392,41.0539,1849.1111],[-3.7497,41.0351,2008.451],[-3.7556,41.0277,2055.7773],[-3.7589,41.027,2068.2922],[-3.7669,41.019,2073.063],[-3.7673,41.0162,2093.8362],[-3.7818,41.0002,2075.4849],[-3.8149,40.9863,1776.5924],[-3.8224,40.9848,1949.2153],[-3.8302,40.9862,2064.8762],[-3.8431,40.9829,2180.2805],[-3.8483,40.9799,2196.5288],[-3.8596,40.9789,2083.802],[-3.8693,40.9714,2142.7786],[-3.874,40.9752,2119.0076],[-3.8801,40.9746,2128.1689],[-3.8808,40.9729,2139.3765],[-3.895,40.967,2096.3289],[-3.8989,40.9591,1983.9645],[-3.9075,40.9559,1939.2249],[-3.9124,40.9503,1995.655],[-3.9119,40.9447,2002.6993],[-3.9175,40.9428,1975.0393],[-3.9224,40.9299,2052.9597],[-3.9277,40.9276,1959.3195],[-3.9377,40.9272,2020.2156],[-3.9372,40.9159,2037.6698],[-3.942,40.9116,2061.9355],[-3.9455,40.9036,2039.0007],[-3.9526,40.8935,2116.5547],[-3.9473,40.8888,2058.5186],[-3.9432,40.8887,2069.5681],[-3.9438,40.8785,2056.4102],[-3.9475,40.8733,2110.5925],[-3.9465,40.8648,2147.6729],[-3.9571,40.8482,2358.2246],[-3.9624,40.844,2287.7063],[-3.9648,40.8385,2238.9951],[-3.962,40.8221,1832.134],[-3.9677,40.8119,1897.3143],[-3.9751,40.8071,1975.9371],[-3.9753,40.8039,1982.2665],[-3.9796,40.7998,2027.1692],[-3.9779,40.7878,2238.1672],[-3.9796,40.7842,2255.8215],[-4.0024,40.7884,1853.1122],[-4.0213,40.7813,1941.2286],[-4.0421,40.7838,2059.6875],[-4.0469,40.7903,1921.7981],[-4.07,40.7938,1981.884],[-4.0754,40.7892,1977.6899],[-4.0788,40.7889,1978.5781],[-4.0785,40.7822,1767.8923],[-4.0805,40.7769,1801.8843],[-4.0965,40.7647,1990.9824],[-4.094,40.7562,1796.5736],[-4.0976,40.7481,1891.7229],[-4.1065,40.7462,1734.7064],[-4.115,40.7423,1689.5215],[-4.1251,40.7297,1636.8783],[-4.126,40.7245,1567.0312],[-4.1348,40.7188,1492.9781],[-4.139,40.7127,1548.2261],[-4.1449,40.6952,1628.8414],[-4.1509,40.6926,1638.3922],[-4.1564,40.6923,1734.1598],[-4.1719,40.6796,1748.4536],[-4.1735,40.6668,1657.0103],[-4.169,40.6638,1594.6244],[-4.1679,40.6477,1483.4617],[-4.168,40.6433,1518.809],[-4.1718,40.638,1585.9434],[-4.1706,40.6342,1615.7366],[-4.173,40.6309,1630.1428],[-4.1687,40.6259,1725.5103],[-4.1629,40.6257,1710.8467],[-4.1612,40.6234,1704.158],[-4.1764,40.6163,1615.8351],[-4.1928,40.6133,1560.8185],[-4.2151,40.6049,1309.4718],[-4.2423,40.6023,1413.6049],[-4.2556,40.6034,1426.251],[-4.262,40.6056,1459.8408],[-4.2708,40.6227,1240.5015],[-4.2723,40.6291,1262.6527],[-4.2794,40.6305,1415.2552],[-4.2899,40.628,1272.105],[-4.2885,40.626,1279.088],[-4.2899,40.6084,1168.4202],[-4.2787,40.6042,1135.7699],[-4.279,40.601,1133.9757],[-4.2832,40.5953,1123.4269],[-4.2815,40.5896,1101.1233],[-4.2855,40.5823,1088.1487],[-4.2896,40.5644,1041.9583],[-4.3084,40.5588,1216.5486],[-4.3229,40.5511,1064.7346],[-4.3247,40.5477,1052.49],[-4.3246,40.541,1023.437],[-4.3285,40.5348,1011.9481],[-4.3213,40.5321,986.8341],[-4.3231,40.5177,911.2368],[-4.3276,40.5075,877.7341],[-4.325,40.5071,869.6396],[-4.3234,40.5016,837.9911],[-4.3233,40.477,747.4547],[-4.3205,40.4706,734.1429],[-4.3175,40.4697,718.6643],[-4.3192,40.4673,728.1647],[-4.3163,40.4654,697.0314],[-4.3205,40.4629,703.9378],[-4.3186,40.4594,685.7696],[-4.3263,40.4602,679.6489],[-4.3268,40.4572,720.5065],[-4.3217,40.4561,672.1825],[-4.3207,40.4515,660.4963],[-4.3232,40.4494,662.0435],[-4.3326,40.4487,678.7325],[-4.331,40.4447,657.0415],[-4.3351,40.4433,672.158],[-4.3322,40.4416,652.5823],[-4.3408,40.438,623.314],[-4.3394,40.4319,619.1997],[-4.3403,40.4291,618.9374],[-4.3355,40.4278,614.0542],[-4.334,40.4254,613.4406],[-4.3294,40.4234,605.5579],[-4.3241,40.4244,619.855],[-4.3241,40.4186,612.806],[-4.3263,40.4136,600.9068],[-4.3208,40.4107,602.8544],[-4.3287,40.4107,698.5087],[-4.334,40.4089,857.2347],[-4.352,40.4134,1010.7552],[-4.361,40.4117,914.0457],[-4.3656,40.4079,674.0052],[-4.3768,40.4074,576.3809],[-4.4006,40.4114,570.5],[-4.4138,40.4106,575.3147],[-4.4173,40.4065,571.0],[-4.4218,40.4064,573.2542],[-4.4233,40.4024,580.4312],[-4.432,40.3978,597.0127],[-4.4369,40.3932,596.9719],[-4.4368,40.39,611.2836],[-4.441,40.3886,610.9091],[-4.4425,40.3857,615.3677],[-4.4395,40.3799,652.0739],[-4.4405,40.3638,644.5452],[-4.4384,40.3544,651.1738],[-4.4396,40.3503,652.6147],[-4.4496,40.3459,660.6405],[-4.4572,40.3447,661.1095],[-4.4605,40.3403,667.2566],[-4.4536,40.333,728.424],[-4.4554,40.3199,804.6909],[-4.4647,40.3187,861.5443],[-4.4854,40.3211,705.2834],[-4.4908,40.3205,693.1694],[-4.4977,40.3167,704.136],[-4.5043,40.3151,710.4857],[-4.5129,40.3206,830.3951],[-4.5154,40.3288,861.8411],[-4.5209,40.3358,1023.0911],[-4.5267,40.3382,1129.2185],[-4.5263,40.3449,1289.574],[-4.5382,40.3407,1444.6407],[-4.5464,40.3421,1662.4941],[-4.5477,40.3394,1592.6575],[-4.5434,40.3335,1341.2188],[-4.5428,40.3308,1279.5613],[-4.5442,40.3302,1262.3024],[-4.5398,40.3278,1169.7166],[-4.5376,40.3113,769.8688],[-4.529,40.2928,1006.0826],[-4.5338,40.2888,925.7631],[-4.5421,40.2866,867.2211],[-4.5467,40.2801,784.0431],[-4.5554,40.2771,726.8123],[-4.554,40.2764,734.8928],[-4.5563,40.2645,651.9418],[-4.5691,40.2572,639.4922],[-4.5658,40.2397,780.3856],[-4.5601,40.2364,769.2422],[-4.5589,40.234,790.1335],[-4.5606,40.2228,984.7745],[-4.5655,40.218,1003.0691],[-4.5744,40.2197,1025.1088],[-4.5789,40.2174,1009.3795],[-4.5725,40.213,947.0231],[-4.5751,40.2071,933.0973],[-4.5358,40.1996,913.8512],[-4.522,40.2024,949.4452],[-4.5166,40.2057,880.6176],[-4.5172,40.2137,779.254],[-4.5143,40.2172,730.5707],[-4.5055,40.2207,682.812],[-4.4969,40.2214,654.4506],[-4.4813,40.2281,668.9128],[-4.4798,40.2302,679.2845],[-4.4474,40.2332,643.3267],[-4.4373,40.2377,616.1688],[-4.4343,40.2457,633.7381],[-4.4356,40.2593,663.5868],[-4.4274,40.2578,610.2298],[-4.4261,40.2624,620.5719],[-4.4196,40.2654,659.4778],[-4.4084,40.2743,680.6529],[-4.3989,40.2838,707.481],[-4.384,40.2892,637.7683],[-4.3855,40.2926,643.755],[-4.3837,40.2996,669.0327],[-4.388,40.3013,700.6953],[-4.3801,40.3141,774.9009],[-4.3811,40.3183,775.7776],[-4.3775,40.3176,774.3604],[-4.3752,40.3151,803.6949],[-4.3647,40.3141,808.1967],[-4.363,40.3116,831.1852],[-4.3568,40.3097,843.9611],[-4.3591,40.2944,725.9706],[-4.3574,40.2846,685.6897],[-4.3586,40.2765,721.5222],[-4.3574,40.2708,680.1678],[-4.3451,40.2533,594.803],[-4.3478,40.2455,576.6234],[-4.3481,40.2366,505.3958],[-4.3413,40.24,523.7653],[-4.3353,40.2388,514.4609],[-4.3268,40.2336,486.7676],[-4.3215,40.2251,463.4495],[-4.3108,40.2341,472.8873],[-4.3066,40.2329,459.0617],[-4.3058,40.2311,457.3464],[-4.3089,40.2277,460.4789],[-4.3062,40.2217,451.0646],[-4.2958,40.2191,438.3625],[-4.29,40.2224,438.7832],[-4.2856,40.2286,437.6472],[-4.2711,40.2332,442.6156],[-4.2684,40.236,440.3797],[-4.2671,40.2422,441.8983],[-4.2619,40.2479,441.7304],[-4.2576,40.2596,442.8944],[-4.2457,40.2737,447.4684],[-4.2342,40.2747,448.8323],[-4.2316,40.2768,456.0984],[-4.2291,40.2759,489.0523],[-4.2264,40.2699,538.331],[-4.2182,40.2728,539.4529],[-4.2135,40.2692,551.7258],[-4.2087,40.2681,555.5442],[-4.2037,40.269,561.0784],[-4.2031,40.2752,537.9645],[-4.205,40.2832,515.777],[-4.2029,40.2885,500.684],[-4.1989,40.2903,521.5272],[-4.1973,40.2938,521.3602],[-4.1913,40.297,560.2935],[-4.1795,40.2934,564.564],[-4.1746,40.2887,562.3569],[-4.1702,40.2883,563.787],[-4.1725,40.2874,566.4557],[-4.173,40.2845,558.7985],[-4.1669,40.2728,569.498],[-4.1636,40.2699,575.9346],[-4.1582,40.2707,581.3873],[-4.144,40.2643,598.8057],[-4.1447,40.259,579.5188],[-4.1505,40.2494,585.3959],[-4.1486,40.2468,592.8817],[-4.1436,40.245,596.033],[-4.1311,40.2488,600.3304],[-4.1207,40.2437,615.1866],[-4.1118,40.2441,631.8281],[-4.1041,40.2418,638.0947],[-4.1008,40.2459,632.183],[-4.0877,40.2532,598.7084],[-4.0804,40.2665,619.2424],[-4.0711,40.2648,635.7592],[-4.0644,40.2604,640.0903],[-4.0623,40.2571,648.2996],[-4.0515,40.2511,660.0914],[-4.0236,40.2491,617.495],[-4.0262,40.245,619.9175],[-4.0259,40.2362,620.0829],[-4.0211,40.2345,617.6782],[-4.0205,40.2308,619.8422],[-4.0092,40.2206,604.3624],[-3.9988,40.2163,581.6827],[-3.9923,40.2097,604.9431],[-3.9771,40.2124,588.8326],[-3.9529,40.2123,544.3026],[-3.9561,40.1986,541.3994],[-3.9508,40.1967,535.6727],[-3.9512,40.1903,537.2159],[-3.9492,40.1891,547.0327],[-3.9411,40.198,612.3732],[-3.9383,40.2034,632.2991],[-3.9309,40.204,626.8175],[-3.9158,40.1915,615.4755],[-3.9102,40.1898,622.7671],[-3.8994,40.1905,638.6421],[-3.8943,40.1887,654.0021],[-3.8777,40.1882,670.1884],[-3.8762,40.1911,666.9693],[-3.8649,40.1872,668.3615],[-3.8534,40.1798,648.1583],[-3.8511,40.1778,644.7039],[-3.8527,40.1697,633.9913],[-3.841,40.1625,625.5037],[-3.835,40.1613,626.5306],[-3.8173,40.1714,605.0983],[-3.8102,40.1691,602.7887],[-3.806,40.1775,620.853],[-3.8001,40.1757,608.6429],[-3.7842,40.1627,596.1046],[-3.7789,40.1558,586.3063],[-3.7781,40.1476,585.2499],[-3.7723,40.1421,575.5593],[-3.7718,40.1396,569.5214],[-3.745,40.1327,686.5609],[-3.7206,40.148,665.5204],[-3.7122,40.1428,651.3415],[-3.7128,40.1419,649.1315],[-3.691,40.1328,671.5949],[-3.6836,40.1325,664.4745],[-3.6783,40.1391,670.1189],[-3.6669,40.1435,631.7415],[-3.6658,40.1364,627.6025],[-3.66,40.1284,620.5231],[-3.6568,40.1279,616.6473],[-3.6565,40.1255,615.9365],[-3.6331,40.1196,590.0593],[-3.6239,40.1142,507.7242],[-3.6216,40.1139,505.4338],[-3.6212,40.1151,505.4338],[-3.6064,40.109,494.0898],[-3.6142,40.0988,492.084],[-3.6111,40.0945,490.3464],[-3.6043,40.0947,490.79],[-3.6094,40.0835,488.4685],[-3.6124,40.0801,487.9312],[-3.622,40.0807,488.816],[-3.6278,40.0773,488.9782],[-3.6277,40.0751,486.1122],[-3.617,40.0681,489.025],[-3.6181,40.066,485.1104],[-3.6242,40.0638,484.4295],[-3.6248,40.0611,485.4418],[-3.62,40.058,487.973],[-3.6205,40.0561,487.3925],[-3.6367,40.052,482.8864],[-3.636,40.0448,484.1121],[-3.6458,40.0396,483.5484],[-3.6467,40.0352,483.2332],[-3.6493,40.0337,480.2817],[-3.6566,40.0343,480.9297],[-3.6674,40.0285,480.4461],[-3.6791,40.016,480.4001],[-3.6849,40.0178,478.3069],[-3.6869,40.0217,479.7586],[-3.6963,40.0208,477.64],[-3.7003,40.0189,478.7069],[-3.712,40.0094,478.6325],[-3.7156,40.0033,477.2469],[-3.7205,40.001,476.6139],[-3.7241,39.995,475.0872],[-3.7228,39.9878,475.1909],[-3.7273,39.9897,477.8123],[-3.7296,39.9868,476.3181],[-3.7349,39.9851,475.6288],[-3.733,39.98,474.5921],[-3.7347,39.9771,473.9028],[-3.7407,39.9829,476.5975],[-3.7462,39.9808,477.0202],[-3.7406,39.9707,474.6409],[-3.7372,39.9687,474.78],[-3.7312,39.9697,475.6315],[-3.7284,39.9731,475.4422],[-3.7245,39.9713,472.5662],[-3.726,39.9665,473.1057],[-3.7394,39.9615,473.2366],[-3.75,39.9635,470.6848],[-3.757,39.971,468.9943],[-3.7612,39.971,470.5637],[-3.7513,39.9566,472.0077],[-3.7514,39.9528,472.9009],[-3.7552,39.95,478.4127],[-3.7633,39.9474,471.9023],[-3.7699,39.949,472.1671],[-3.7702,39.9537,472.3362],[-3.7589,39.9579,472.0642],[-3.7647,39.9664,472.852],[-3.766,39.9624,468.7792],[-3.7698,39.9588,470.5156],[-3.7744,39.9589,471.5883],[-3.7886,39.9542,469.3338],[-3.7858,39.9505,471.1845],[-3.7869,39.9465,471.3994],[-3.7961,39.9484,469.4699],[-3.801,39.9465,470.5898],[-3.8022,39.9527,471.7328],[-3.8081,39.9548,468.0445],[-3.8139,39.9525,466.2003],[-3.8182,39.9467,468.2762],[-3.8247,39.9467,467.9001],[-3.8295,39.9402,465.4823],[-3.8298,39.9319,463.5489],[-3.8317,39.9301,468.4265],[-3.837,39.9302,467.1099],[-3.8375,39.9411,461.0],[-3.839,39.9422,478.4716],[-3.8517,39.9394,465.1639],[-3.8668,39.9313,463.5148],[-3.8758,39.9287,463.4369],[-3.8756,39.924,468.1743],[-3.8692,39.9175,461.2305],[-3.8763,39.9109,462.9741],[-3.8729,39.909,463.9496]],
[[-3.3642,40.6351,781.1609],[-3.3665,40.6324,773.7322],[-3.3684,40.6334,784.3262],[-3.3693,40.6303,780.8953],[-3.3672,40.6303,773.3382],[-3.371,40.625,791.868],[-3.382,40.6298,675.8217],[-3.3733,40.6358,723.9834],[-3.375,40.6386,703.4677],[-3.3734,40.6412,692.9489],[-3.3654,40.6393,777.049],[-3.3642,40.6351,781.1609]]],
[[[-4.2574,40.6534,1520.0111],[-4.2565,40.6638,1520.1971],[-4.2632,40.6669,1539.5903],[-4.2698,40.6755,1585.1599],[-4.2855,40.6805,1603.3005],[-4.2903,40.6804,1630.1587],[-4.2942,40.6765,1648.3485],[-4.3173,40.6669,1619.2927],[-4.3185,40.6617,1603.329],[-4.3247,40.6577,1623.1978],[-4.3233,40.6522,1583.1023],[-4.3196,40.6475,1550.8542],[-4.3016,40.6527,1521.3745],[-4.2679,40.6549,1475.9165],[-4.2574,40.6534,1520.0111]]]]}}