{"type": "Feature","id": "5833","bbox": [-4.57189,39.89353,-3.06224,41.16175],"geometry": {"type": "MultiPolygon","coordinates": [[[[-4.25844,40.66165,1498.1157],[-4.27628,40.69266,1572.9296],[-4.29935,40.69623,1572.5801],[-4.31849,40.68236,1396.7888],[-4.32193,40.65788,1621.5518],[-4.25844,40.66165,1498.1157]]],
[[[-3.48875,40.78552,708.6154],[-3.49588,40.78904,680.8048],[-3.49844,40.79255,671.8364],[-3.49844,40.79622,671.1904],[-3.49472,40.79958,666.1919],[-3.49138,40.80371,669.442],[-3.48521,40.81291,673.4647],[-3.48004,40.82317,676.1096],[-3.47815,40.82908,677.4492],[-3.47237,40.85815,689.1609],[-3.46978,40.86301,692.9208],[-3.46611,40.86665,697.8652],[-3.46146,40.86952,698.2755],[-3.45717,40.8711,698.0367],[-3.45149,40.87513,697.6393],[-3.44738,40.88045,768.4798],[-3.44774,40.89073,819.4211],[-3.45265,40.89911,760.1658],[-3.45164,40.90704,741.3197],[-3.44816,40.91401,819.4949],[-3.44487,40.9235,921.6794],[-3.44004,40.93084,1053.175],[-3.43637,40.93843,951.7621],[-3.42792,40.96132,1416.9565],[-3.42353,40.96856,1398.5137],[-3.42015,40.97621,1462.9449],[-3.41227,40.98918,1574.8423],[-3.40945,40.99848,1489.8804],[-3.40979,41.0122,1596.8119],[-3.42467,41.04323,1527.5913],[-3.43645,41.07742,1315.3219],[-3.44575,41.08039,1219.8743],[-3.45327,41.08199,1214.9315],[-3.47666,41.09083,1353.8809],[-3.48405,41.09501,1243.8181],[-3.49317,41.10217,1340.7217],[-3.50386,41.11568,1466.9014],[-3.54161,41.14421,1949.5996],[-3.54577,41.16175,1977.8545],[-3.5922,41.15408,1580.2544],[-3.62388,41.1394,1625.188],[-3.63383,41.13196,1767.1309],[-3.64148,41.12462,1767.1665],[-3.64763,41.11741,1800.6923],[-3.66543,41.09997,1653.5525],[-3.68491,41.0847,1798.2452],[-3.72791,41.06199,1908.6165],[-3.74302,41.05176,1809.1844],[-3.75276,41.04302,1704.8588],[-3.76253,41.02806,1982.72],[-3.76847,41.02062,2053.8826],[-3.77349,41.013,2067.4207],[-3.78713,40.99677,2023.2155],[-3.79622,40.99145,1812.7296],[-3.80573,40.98727,1749.8512],[-3.89188,40.96484,2033.8943],[-3.90208,40.95853,1972.4969],[-3.91151,40.95027,1995.655],[-3.91988,40.94024,2024.389],[-3.93479,40.92616,1960.8319],[-3.94789,40.90828,1919.8298],[-3.95107,40.90138,2013.0173],[-3.95306,40.8943,2114.5896],[-3.9496,40.88058,1933.3558],[-3.94991,40.87309,2044.2843],[-3.95293,40.86521,2103.1211],[-3.95937,40.85598,2064.2859],[-3.96365,40.84802,2281.6499],[-3.96544,40.84043,2254.2134],[-3.96644,40.82565,1906.1023],[-3.96862,40.81828,1794.0995],[-3.97575,40.80366,1988.3121],[-3.98024,40.79663,2059.4536],[-3.98409,40.78873,2127.2578],[-3.99011,40.78457,2137.2109],[-3.99585,40.78301,1976.415],[-4.01874,40.77937,1902.5405],[-4.02784,40.7796,1966.2623],[-4.03631,40.78232,1993.1893],[-4.04747,40.78397,1866.3761],[-4.05985,40.78413,1663.1802],[-4.07964,40.77645,1801.8843],[-4.09011,40.76914,1935.5012],[-4.12886,40.72547,1563.9684],[-4.13274,40.71922,1492.905],[-4.16129,40.68731,1770.4597],[-4.16819,40.6676,1532.0549],[-4.16824,40.66093,1572.7018],[-4.17103,40.64491,1483.6968],[-4.17129,40.6299,1666.3375],[-4.17395,40.62287,1704.1184],[-4.18436,40.61636,1598.1814],[-4.19501,40.61318,1534.4905],[-4.20555,40.61116,1487.0935],[-4.22317,40.60545,1363.8101],[-4.24209,40.60279,1413.6049],[-4.25118,40.60445,1428.7242],[-4.25976,40.60713,1423.4612],[-4.26635,40.61142,1310.1317],[-4.27348,40.62333,1254.1255],[-4.27888,40.62757,1344.3328],[-4.28596,40.62677,1351.785],[-4.2903,40.62163,1242.7888],[-4.2902,40.61246,1198.1306],[-4.28668,40.60538,1168.3593],[-4.28438,40.59799,1156.4801],[-4.284,40.59111,1123.7114],[-4.28446,40.58414,1084.2687],[-4.28862,40.57295,1056.569],[-4.29051,40.56936,1058.7522],[-4.2933,40.56595,1088.3273],[-4.29717,40.56295,1109.0059],[-4.30467,40.5591,1171.5925],[-4.31208,40.55355,1123.4619],[-4.31898,40.54404,1024.2013],[-4.31921,40.53373,993.6518],[-4.31828,40.52528,986.783],[-4.31875,40.51071,929.7479],[-4.31725,40.50502,970.8423],[-4.31694,40.50016,1002.9949],[-4.31826,40.49469,938.6195],[-4.31875,40.48249,872.0601],[-4.3164,40.47598,770.4858],[-4.31523,40.46926,711.7189],[-4.31671,40.46254,694.1262],[-4.32064,40.45438,675.5341],[-4.32872,40.43257,880.4662],[-4.32371,40.41852,612.806],[-4.32482,40.41327,600.9068],[-4.33498,40.40942,922.8347],[-4.36332,40.40777,705.7053],[-4.3705,40.40505,668.5197],[-4.37495,40.40472,653.8561],[-4.38073,40.40567,573.53],[-4.38642,40.40738,601.9398],[-4.39448,40.40893,588.9288],[-4.40122,40.40955,593.3318],[-4.40727,40.40846,600.7365],[-4.41337,40.40591,645.4061],[-4.41879,40.4025,678.3663],[-4.4274,40.39511,635.2385],[-4.43148,40.38932,640.2814],[-4.43474,40.37255,648.7192],[-4.43489,40.36692,659.2704],[-4.43652,40.3596,651.9213],[-4.44029,40.3502,652.6147],[-4.45003,40.33537,717.8759],[-4.45763,40.32622,730.5938],[-4.46946,40.3201,828.2667],[-4.47928,40.31762,856.9308],[-4.49636,40.31645,721.3583],[-4.50109,40.3179,704.9156],[-4.50693,40.3218,836.3401],[-4.51806,40.33457,964.3248],[-4.52499,40.33899,1143.5188],[-4.53215,40.33842,1217.8501],[-4.53762,40.33408,1248.9194],[-4.53804,40.32503,1053.4982],[-4.53662,40.31746,902.0013],[-4.53142,40.30457,719.2904],[-4.52982,40.29666,891.398],[-4.53158,40.2893,926.6299],[-4.53698,40.28354,764.6166],[-4.54972,40.26312,690.5751],[-4.55814,40.22917,830.4819],[-4.57189,40.21202,935.4372],[-4.5493,40.2006,762.8632],[-4.533,40.19796,860.2575],[-4.52057,40.19884,889.8634],[-4.51124,40.20282,913.6836],[-4.50636,40.20892,769.0931],[-4.4967,40.21581,652.359],[-4.48406,40.22163,653.971],[-4.45373,40.23165,643.297],[-4.43975,40.23917,625.8026],[-4.43055,40.24741,624.0103],[-4.42543,40.25522,609.9894],[-4.39484,40.27945,671.4327],[-4.38823,40.28615,708.8417],[-4.38355,40.29348,656.2701],[-4.37107,40.30798,769.1951],[-4.36585,40.30948,789.7607],[-4.36012,40.30808,837.8275],[-4.35386,40.30416,849.089],[-4.34994,40.29832,763.4216],[-4.34898,40.29149,686.0826],[-4.35156,40.27671,675.9052],[-4.35123,40.26943,653.4438],[-4.34862,40.26266,607.2075],[-4.341,40.24927,581.8967],[-4.3342,40.24333,531.4548],[-4.32529,40.23762,491.9427],[-4.30999,40.23284,476.6736],[-4.29604,40.2208,434.7817],[-4.29198,40.22023,436.8961],[-4.28686,40.22235,436.2832],[-4.27286,40.23145,445.6611],[-4.26606,40.23708,444.4918],[-4.25777,40.24669,446.6428],[-4.25051,40.25749,447.8088],[-4.24498,40.26287,451.0203],[-4.2341,40.26889,473.4393],[-4.20865,40.27227,533.3133],[-4.1839,40.28413,532.6481],[-4.17468,40.28367,544.9075],[-4.16692,40.2794,528.1413],[-4.16075,40.27336,560.5835],[-4.13256,40.25181,595.9069],[-4.1168,40.24788,605.4806],[-4.09796,40.24553,616.8109],[-4.08442,40.24896,602.4391],[-4.07494,40.25362,638.4874],[-4.06605,40.25922,633.5555],[-4.05729,40.25827,638.6116],[-4.03572,40.25145,635.7828],[-4.02665,40.24679,632.4314],[-4.01908,40.24111,625.2491],[-4.01275,40.23421,608.2943],[-4.00779,40.22752,601.1243],[-3.99903,40.22158,584.9703],[-3.98639,40.21705,602.5304],[-3.93306,40.2039,627.2798],[-3.90123,40.19202,639.2818],[-3.85356,40.18266,653.1182],[-3.84852,40.17998,642.4059],[-3.84312,40.17584,634.0302],[-3.83764,40.17011,622.5984],[-3.82798,40.16419,624.5939],[-3.81886,40.16334,608.4166],[-3.80167,40.16683,602.9851],[-3.79382,40.16499,596.9443],[-3.7869,40.1606,590.8762],[-3.77147,40.14354,575.5593],[-3.76439,40.13977,589.9131],[-3.75865,40.13776,600.0455],[-3.74664,40.13512,644.5272],[-3.72145,40.13827,664.7189],[-3.70786,40.13672,648.098],[-3.69186,40.13311,671.5949],[-3.67334,40.13194,633.1901],[-3.6245,40.11321,503.8559],[-3.61411,40.10649,494.2679],[-3.61039,40.10158,493.1751],[-3.61101,40.0968,489.7361],[-3.61039,40.0868,490.5864],[-3.61163,40.08156,489.9091],[-3.62063,40.06097,486.8379],[-3.62334,40.05681,487.3314],[-3.63143,40.04706,488.1409],[-3.63367,40.04345,483.8846],[-3.6384,40.04035,484.0839],[-3.65024,40.03451,483.785],[-3.65765,40.03345,482.528],[-3.67065,40.02753,485.5533],[-3.71711,39.98945,477.4642],[-3.7331,39.97901,474.5921],[-3.7516,39.97482,474.8638],[-3.75731,39.97154,468.9943],[-3.77349,39.95704,471.9883],[-3.7786,39.95374,471.7811],[-3.79059,39.95307,471.0717],[-3.85296,39.93787,465.7199],[-3.86469,39.93291,463.7742],[-3.87387,39.92674,462.5178],[-3.86937,39.91955,462.9203],[-3.85728,39.91095,468.084],[-3.8257,39.89545,529.3942],[-3.80971,39.89353,531.33],[-3.7977,39.89601,547.5074],[-3.79038,39.90284,500.8739],[-3.77465,39.91245,539.1444],[-3.76612,39.91545,554.6681],[-3.75183,39.92583,524.691],[-3.74263,39.93441,529.2478],[-3.73592,39.93896,547.4105],[-3.72824,39.94183,571.2271],[-3.71739,39.94464,553.7899],[-3.69923,39.94619,561.6807],[-3.68768,39.95007,568.3701],[-3.67013,39.95968,549.9511],[-3.6469,39.9648,586.0048],[-3.63871,39.96831,560.5035],[-3.63615,39.97343,559.2557],[-3.6374,39.98756,568.0282],[-3.63267,39.99172,589.177],[-3.61701,39.99637,547.345],[-3.5983,40.00004,613.822],[-3.59675,40.00087,622.8566],[-3.58983,40.00588,590.6464],[-3.58363,40.00939,570.7927],[-3.57533,40.01249,620.1312],[-3.53557,40.02022,618.3544],[-3.52673,40.02324,608.6323],[-3.52234,40.02877,617.5936],[-3.51536,40.03968,592.4708],[-3.50205,40.04867,500.3982],[-3.40622,40.04562,516.9863],[-3.37175,40.0574,573.004],[-3.35292,40.04606,531.4526],[-3.34191,40.04464,521.7271],[-3.32943,40.04769,532.0884],[-3.28824,40.05316,527.6978],[-3.22773,40.07786,559.0804],[-3.18727,40.08835,538.2134],[-3.16939,40.0804,605.3392],[-3.16559,40.07606,626.7753],[-3.16355,40.06619,651.0001],[-3.11345,40.06802,677.0718],[-3.09376,40.07264,678.3815],[-3.07867,40.08231,673.3222],[-3.0687,40.09055,656.3484],[-3.06304,40.09812,639.3135],[-3.06224,40.10533,628.9298],[-3.06567,40.11192,617.3716],[-3.07182,40.11755,601.7139],[-3.07609,40.12411,597.1926],[-3.07955,40.13094,586.7128],[-3.08185,40.13879,585.9543],[-3.08567,40.14566,588.4702],[-3.08696,40.15471,574.5757],[-3.08412,40.15858,556.827],[-3.0804,40.15918,554.1289],[-3.07275,40.1576,560.0137],[-3.08273,40.19762,649.7636],[-3.08218,40.21822,619.7874],[-3.08311,40.22767,695.7089],[-3.08652,40.23933,753.8204],[-3.09534,40.25721,760.3855],[-3.10376,40.26989,755.6381],[-3.11539,40.27609,807.6545],[-3.12484,40.27485,805.3067],[-3.15073,40.26023,771.3419],[-3.15786,40.25403,749.1506],[-3.16396,40.24767,764.2219],[-3.17109,40.24251,782.357],[-3.17864,40.24227,794.1808],[-3.18592,40.24946,770.1699],[-3.18851,40.26369,673.1833],[-3.18794,40.27434,786.7667],[-3.18541,40.28382,796.0957],[-3.18197,40.29253,803.1495],[-3.18073,40.30157,802.6155],[-3.17797,40.31258,810.1165],[-3.17195,40.31971,815.1687],[-3.15768,40.33061,782.0616],[-3.15306,40.33625,710.9951],[-3.1512,40.3417,632.2424],[-3.1505,40.34656,629.8888],[-3.14634,40.35586,646.0623],[-3.14337,40.36017,635.7871],[-3.14208,40.36498,642.3683],[-3.14223,40.36989,703.146],[-3.14347,40.37929,689.9633],[-3.1427,40.3826,647.7526],[-3.14022,40.38679,683.9333],[-3.13867,40.39474,750.8964],[-3.14195,40.40591,649.7383],[-3.15714,40.42539,726.6285],[-3.16923,40.43306,862.6338],[-3.18058,40.43787,871.8872],[-3.18954,40.43939,865.1649],[-3.19647,40.44353,852.9486],[-3.20024,40.4505,865.7682],[-3.19879,40.47882,879.6316],[-3.20086,40.49872,886.8821],[-3.20081,40.50264,894.4724],[-3.20153,40.50714,894.5977],[-3.20453,40.51303,897.3596],[-3.2254,40.52864,812.2063],[-3.23326,40.53339,696.0518],[-3.24024,40.53856,656.7909],[-3.24853,40.54153,630.0715],[-3.25752,40.54277,605.3845],[-3.26375,40.54091,604.8502],[-3.2706,40.53804,602.4055],[-3.27669,40.53463,601.2891],[-3.28256,40.53339,601.7382],[-3.28951,40.53313,606.8918],[-3.293,40.53551,607.5909],[-3.29496,40.53882,616.6964],[-3.29315,40.54324,621.9745],[-3.29067,40.5459,623.1754],[-3.28881,40.5491,624.3854],[-3.28798,40.5537,625.8871],[-3.29005,40.56171,639.0483],[-3.29308,40.56853,651.1158],[-3.30695,40.57845,685.738],[-3.31579,40.58264,708.2445],[-3.32147,40.58936,730.105],[-3.32597,40.59778,754.0399],[-3.32413,40.62494,747.6245],[-3.31816,40.64625,751.973],[-3.32465,40.64832,751.5693],[-3.32984,40.64574,737.6275],[-3.33703,40.64326,713.1676],[-3.34493,40.64439,728.8413],[-3.35547,40.64972,736.1456],[-3.36677,40.65891,706.9262],[-3.38074,40.67819,768.6651],[-3.38919,40.68641,830.1744],[-3.39635,40.68641,807.8502],[-3.39961,40.68129,808.6309],[-3.40464,40.67731,826.9508],[-3.41883,40.6784,818.7025],[-3.43431,40.67548,776.8459],[-3.44211,40.67819,762.4105],[-3.44875,40.68305,784.4513],[-3.45505,40.68899,745.5656],[-3.4588,40.69496,742.208],[-3.45521,40.70377,733.4413],[-3.44312,40.71687,764.439],[-3.43966,40.7232,785.5629],[-3.43942,40.73087,784.5948],[-3.44296,40.7379,739.5712],[-3.44402,40.75141,789.3785],[-3.44637,40.76144,822.4962],[-3.45288,40.77234,769.7058],[-3.45991,40.7788,753.1523],[-3.48875,40.78552,708.6154]]]]}
,"properties": {"ISO3166-1-Alpha-3": "ESP","country": "Spain","fill": "#F0F","name": "Madrid","area_km2": 7991.563,"hist_schema_id": "Elevation0-9000","hist_area_km2": {"425": 0.518,"450": 18.314,"475": 75.921,"500": 133.834,"525": 168.062,"550": 238.169,"575": 344.295,"600": 584.313,"625": 708.23,"650": 671.395,"675": 613.12,"700": 510.51,"725": 389.294,"750": 332.693,"775": 277.594,"800": 174.605,"825": 194.085,"850": 202.28,"875": 192.075,"900": 196.579,"925": 150.728,"950": 133.318,"975": 121.095,"1000": 111.328,"1025": 98.008,"1050": 91.587,"1075": 83.684,"1100": 78.907,"1125": 71.845,"1150": 67.318,"1175": 62.874,"1200": 56.387,"1225": 52.952,"1250": 49.418,"1275": 46.038,"1300": 44.669,"1325": 41.684,"1350": 39.704,"1375": 35.346,"1400": 35.552,"1425": 32.378,"1450": 32.479,"1475": 31.188,"1500": 30.628,"1525": 31.447,"1550": 27.827,"1575": 28.181,"1600": 28.088,"1625": 24.986,"1650": 22.675,"1675": 21.31,"1700": 20.51,"1725": 19.133,"1750": 15.396,"1775": 15.458,"1800": 12.304,"1825": 10.623,"1850": 9.535,"1875": 8.846,"1900": 8.367,"1925": 7.822,"1950": 6.7,"1975": 6.909,"2000": 6.508,"2025": 6.172,"2050": 6.173,"2075": 5.292,"2100": 3.289,"2125": 2.712,"2150": 2.359,"2175": 2.311,"2200": 1.637,"2225": 1.284,"2250": 0.899,"2275": 0.497,"2300": 0.449,"2325": 0.385,"2350": 0.241,"2375": 0.16,"2400": 0.064}}}