{"type": "Feature","bbox": [-3.4556,38.4083,-2.6378,39.0989],"geometry": {"type": "MultiPolygon","coordinates": [[[[-3.2321,38.4548,905.6832],[-3.1799,38.45,615.7336],[-3.1498,38.4401,846.2945],[-3.1301,38.4388,826.6526],[-3.118,38.4487,837.7769],[-3.0649,38.4783,835.2957],[-3.0053,38.4149,740.2928],[-3.0024,38.4083,725.6952],[-3.001,38.4094,722.7294],[-3.0012,38.4142,726.1623],[-2.9967,38.4181,736.3716],[-2.9966,38.4211,731.603],[-2.9921,38.429,760.2359],[-2.9944,38.4322,748.8716],[-2.9934,38.4367,756.1536],[-2.9962,38.4436,758.2549],[-2.9934,38.4501,788.9486],[-2.9768,38.4549,854.5601],[-2.9687,38.4622,823.1628],[-2.9669,38.4685,864.0066],[-2.9635,38.4715,854.7091],[-2.9565,38.4686,778.6179],[-2.9479,38.47,833.1258],[-2.9383,38.4748,849.657],[-2.9328,38.4715,850.7953],[-2.9111,38.4681,837.1018],[-2.9095,38.4701,854.0464],[-2.9057,38.4699,840.5335],[-2.9016,38.4645,785.016],[-2.8964,38.4624,782.5693],[-2.8897,38.4559,778.2594],[-2.8814,38.4527,599.2248],[-2.8847,38.4566,624.5007],[-2.8841,38.4585,616.9995],[-2.8777,38.4571,606.5634],[-2.8801,38.4627,634.4297],[-2.8693,38.4658,599.685],[-2.8689,38.47,602.1791],[-2.8645,38.4717,601.3978],[-2.8606,38.4702,618.7685],[-2.8608,38.4752,614.7532],[-2.8512,38.4743,614.2512],[-2.8546,38.4785,641.4609],[-2.8439,38.4809,617.5931],[-2.84,38.4773,634.2266],[-2.8406,38.481,632.7076],[-2.8393,38.4841,622.3977],[-2.8375,38.4844,631.203],[-2.834,38.4773,622.3957],[-2.831,38.4765,646.5747],[-2.8298,38.4781,680.1407],[-2.8323,38.4861,641.1106],[-2.8301,38.4876,632.6534],[-2.8232,38.485,651.462],[-2.8251,38.4874,630.9809],[-2.817,38.494,643.5497],[-2.8125,38.4917,647.7497],[-2.8138,38.4959,638.5006],[-2.81,38.4952,650.4901],[-2.8065,38.5031,649.7985],[-2.8003,38.4997,649.1762],[-2.8016,38.5039,661.7064],[-2.7992,38.5046,655.758],[-2.7959,38.5015,652.7679],[-2.7914,38.5038,650.5406],[-2.7937,38.5078,667.1817],[-2.7875,38.5096,655.8495],[-2.7856,38.5121,663.9067],[-2.7869,38.5157,671.7464],[-2.7836,38.5144,670.4157],[-2.7805,38.5094,660.7386],[-2.7788,38.5107,665.8599],[-2.7799,38.5161,669.4374],[-2.7764,38.5168,671.6149],[-2.775,38.5194,682.813],[-2.7703,38.5203,671.4304],[-2.7737,38.5283,670.4928],[-2.7666,38.531,684.54],[-2.7676,38.5329,694.7731],[-2.762,38.5328,729.6547],[-2.7638,38.5357,692.7759],[-2.7585,38.5354,686.1151],[-2.7551,38.5376,736.2937],[-2.752,38.5436,687.4536],[-2.7489,38.5435,690.9963],[-2.7467,38.5468,687.0738],[-2.7522,38.5505,730.204],[-2.7518,38.5524,744.5345],[-2.7565,38.5549,719.1459],[-2.7569,38.5593,771.7068],[-2.7589,38.5593,731.2008],[-2.7603,38.5614,745.1295],[-2.7605,38.5684,780.7251],[-2.7654,38.5739,821.7622],[-2.7594,38.5791,745.7275],[-2.7543,38.5927,759.5897],[-2.7546,38.6006,775.4257],[-2.75,38.6156,788.8677],[-2.7572,38.6203,816.4572],[-2.7636,38.6279,837.6598],[-2.7454,38.6245,828.3722],[-2.7372,38.6176,1029.5903],[-2.7285,38.6163,1040.5989],[-2.7175,38.6222,1032.6455],[-2.7175,38.6252,1045.2241],[-2.7062,38.6265,1078.9661],[-2.6997,38.6254,1016.3154],[-2.6975,38.6284,943.7781],[-2.6868,38.6355,927.5129],[-2.6824,38.6442,1107.658],[-2.6748,38.6482,1039.1173],[-2.6688,38.6493,1028.6522],[-2.6604,38.6669,977.9756],[-2.6555,38.6715,853.1111],[-2.6546,38.6808,887.2401],[-2.6489,38.693,927.0388],[-2.6496,38.6998,955.6255],[-2.6467,38.7155,993.6361],[-2.6423,38.7201,1008.377],[-2.6378,38.7347,1013.4483],[-2.6434,38.7464,1006.012],[-2.6629,38.7536,996.1709],[-2.666,38.7589,996.4785],[-2.6745,38.7616,990.9109],[-2.6846,38.7744,987.6554],[-2.6973,38.7834,997.1644],[-2.7115,38.786,976.2373],[-2.7322,38.7819,965.8735],[-2.7344,38.7953,976.3477],[-2.7502,38.8071,965.9224],[-2.7526,38.8148,955.8159],[-2.7523,38.8232,957.6137],[-2.7492,38.8316,954.6697],[-2.7511,38.8484,962.9302],[-2.7549,38.8581,953.1475],[-2.7563,38.8678,953.2113],[-2.7612,38.8687,926.5916],[-2.7618,38.8804,900.1187],[-2.7721,38.8851,902.9175],[-2.7841,38.8878,895.178],[-2.7906,38.8916,885.3234],[-2.7929,38.8978,871.2423],[-2.7924,38.9056,875.689],[-2.7981,38.9058,865.9829],[-2.7992,38.9081,863.6588],[-2.8031,38.9082,864.9123],[-2.8357,38.906,919.3329],[-2.8399,38.9084,911.0901],[-2.8421,38.9148,905.26],[-2.8477,38.9206,897.4659],[-2.8576,38.9274,889.2282],[-2.867,38.9288,857.262],[-2.8761,38.9255,896.5861],[-2.8796,38.9364,907.4554],[-2.8828,38.9385,906.595],[-2.8801,38.9532,855.0891],[-2.8773,38.9562,783.5],[-2.8791,38.9605,789.0535],[-2.8857,38.9612,783.5],[-2.89,38.9651,789.4517],[-2.8902,38.9679,810.8538],[-2.8879,38.9698,783.5],[-2.8886,38.9723,782.2136],[-2.8937,38.9735,792.4939],[-2.9034,38.9852,804.3763],[-2.9171,38.9724,850.8131],[-2.9247,38.9697,874.0995],[-2.9392,38.9593,891.5302],[-2.9535,38.9548,901.4645],[-2.9611,38.956,902.9785],[-2.965,38.9595,907.0068],[-2.9888,38.9643,881.634],[-2.9928,38.9636,902.2064],[-3.0037,38.968,877.2366],[-3.0138,38.9752,869.293],[-3.0221,38.9773,872.8486],[-3.0334,38.9837,852.578],[-3.0518,38.989,813.6002],[-3.0702,39.01,768.3206],[-3.0779,39.0143,766.7777],[-3.1002,39.0132,750.7294],[-3.1197,39.0187,744.4471],[-3.1394,39.0308,714.6995],[-3.1468,39.0389,707.3907],[-3.1522,39.0413,708.7898],[-3.1672,39.036,698.7324],[-3.1857,39.0258,720.9863],[-3.1963,39.0253,716.7123],[-3.1994,39.017,710.4297],[-3.2029,39.0164,711.4453],[-3.2094,39.0199,701.3973],[-3.2169,39.0174,698.2761],[-3.2289,39.0095,707.6885],[-3.2297,39.0102,710.0151],[-3.2321,39.0061,712.9807],[-3.2379,39.0019,722.3705],[-3.2551,38.9996,718.9441],[-3.2543,38.9938,725.4526],[-3.2331,38.9865,731.3474],[-3.2124,38.9767,751.1127],[-3.2028,38.9667,767.8647],[-3.1853,38.9678,772.6707],[-3.1842,38.97,772.3367],[-3.1668,38.9743,766.8607],[-3.159,38.9681,792.7902],[-3.164,38.9594,803.0112],[-3.1675,38.9587,810.2057],[-3.1663,38.9551,814.907],[-3.1599,38.9533,816.1388],[-3.1386,38.955,812.098],[-3.1405,38.9339,870.1141],[-3.1348,38.9303,863.3499],[-3.1327,38.9255,859.3727],[-3.1329,38.9207,805.6866],[-3.1205,38.9173,799.2507],[-3.118,38.899,753.8523],[-3.1259,38.896,750.4949],[-3.1346,38.8958,746.671],[-3.1415,38.8914,741.676],[-3.1577,38.8877,734.459],[-3.1731,38.8796,728.6359],[-3.1717,38.8764,739.2345],[-3.1728,38.871,727.8969],[-3.1785,38.8743,727.7491],[-3.1875,38.8761,722.7769],[-3.2031,38.8781,718.0839],[-3.2126,38.8769,717.8326],[-3.1999,38.8591,786.7007],[-3.1986,38.8525,854.0566],[-3.1934,38.8432,956.7085],[-3.196,38.8286,789.8668],[-3.2162,38.8102,782.9958],[-3.2268,38.8086,782.7194],[-3.2348,38.8054,776.8903],[-3.2464,38.806,769.0264],[-3.2465,38.802,777.397],[-3.2633,38.8014,761.5441],[-3.2712,38.7992,754.0826],[-3.2677,38.7882,770.5862],[-3.2721,38.7867,764.8306],[-3.2717,38.7795,778.1892],[-3.2802,38.7768,774.6954],[-3.286,38.7648,764.5618],[-3.2835,38.762,762.2906],[-3.2665,38.7635,784.5372],[-3.266,38.7581,780.9083],[-3.2612,38.7582,788.9672],[-3.2576,38.7604,791.2897],[-3.2476,38.7427,781.3163],[-3.249,38.7381,784.1072],[-3.2471,38.7264,772.1465],[-3.2442,38.7224,778.8145],[-3.2455,38.7159,760.0],[-3.2604,38.7121,760.0],[-3.2616,38.7095,760.0],[-3.2659,38.7071,760.0],[-3.2697,38.7077,760.0],[-3.2754,38.7059,760.0],[-3.2753,38.6947,760.0],[-3.2859,38.684,741.0186],[-3.2922,38.6832,739.378],[-3.2952,38.679,736.2894],[-3.3089,38.675,733.6566],[-3.3161,38.6782,732.5237],[-3.3204,38.6759,729.9609],[-3.335,38.6873,790.8003],[-3.3647,38.693,778.5879],[-3.387,38.6921,743.0682],[-3.4041,38.6872,753.9875],[-3.4081,38.6835,724.063],[-3.4107,38.6741,714.9038],[-3.4178,38.6673,704.8588],[-3.4265,38.6673,705.7886],[-3.437,38.6489,715.7828],[-3.453,38.6277,737.0641],[-3.4525,38.6214,741.5901],[-3.4556,38.6117,764.6913],[-3.4509,38.6069,788.1426],[-3.4539,38.6049,777.6666],[-3.4353,38.5864,802.0051],[-3.4344,38.5788,828.5468],[-3.4313,38.5714,893.0046],[-3.4328,38.5579,848.1428],[-3.4296,38.5491,822.9904],[-3.4299,38.5383,819.4557],[-3.4167,38.5257,796.4217],[-3.4169,38.5147,789.3657],[-3.4133,38.5122,787.371],[-3.4128,38.5096,781.5204],[-3.4006,38.5046,771.9161],[-3.3993,38.4995,769.9376],[-3.3938,38.4952,763.9447],[-3.3906,38.4885,768.6223],[-3.3814,38.4848,756.5707],[-3.3749,38.4753,763.5498],[-3.3264,38.4821,1019.9619],[-3.3207,38.48,999.8891],[-3.3052,38.4793,868.5159],[-3.2967,38.4706,835.4324],[-3.2889,38.4704,805.1603],[-3.2851,38.4646,792.8945],[-3.2799,38.4604,699.2643],[-3.2624,38.4594,616.4111],[-3.2575,38.4574,671.1674],[-3.246,38.4577,781.2714],[-3.2321,38.4548,905.6832]]],
[[[-2.8261,39.0232,967.6616],[-2.8211,39.0232,971.315],[-2.8167,39.0253,984.0524],[-2.8098,39.0239,960.6956],[-2.8068,39.0434,880.7753],[-2.8092,39.0543,864.0815],[-2.8059,39.0699,850.0959],[-2.8076,39.0717,843.2768],[-2.8049,39.079,831.6005],[-2.8156,39.0941,785.2377],[-2.8224,39.0927,792.8327],[-2.8284,39.0891,794.3716],[-2.8485,39.0889,787.2088],[-2.86,39.0871,803.5469],[-2.8743,39.0901,805.66],[-2.9083,39.0926,760.9481],[-2.9256,39.0989,747.1562],[-2.9188,39.0796,801.3716],[-2.9039,39.0667,855.3746],[-2.9031,39.0616,832.7495],[-2.8959,39.0525,879.7802],[-2.8922,39.0448,861.8185],[-2.8878,39.0252,916.5548],[-2.8583,39.0264,968.4919],[-2.8521,39.0222,924.9502],[-2.8528,39.0185,913.9889],[-2.8671,38.997,878.3419],[-2.881,38.9858,853.905],[-2.8764,38.969,849.9711],[-2.8721,38.9681,852.4207],[-2.8736,38.9628,829.189],[-2.8725,38.96,785.1006],[-2.8707,38.9657,841.6122],[-2.8654,38.9666,870.3097],[-2.8586,38.9751,880.5507],[-2.8439,38.9875,889.8524],[-2.8381,39.0038,919.8397],[-2.8374,39.0139,959.2399],[-2.8322,39.0233,951.6152],[-2.8261,39.0232,967.6616]]]]}
,"properties": {"GID_3": "ESP.4.2.3_1","GID_0": "ESP","country": "Spain","GID_1": "ESP.4_1","province": "Castilla-LaMancha","NL_NAME_1": "NA","GID_2": "ESP.4.2_1","county": "CiudadReal","NL_NAME_2": "NA","city": "n.a.(81)","VARNAME_3": "NA","NL_NAME_3": "NA","TYPE_3": "Comarca","ENGTYPE_3": "Comarca","CC_3": "NA","HASC_3": "NA","name": "n.a.(81).city","area_km2": 2893.338,"hist_schema_id": "Elevation0-9000","hist_area_km2": {"600": 0.598,"625": 3.386,"650": 6.988,"675": 12.829,"700": 26.075,"725": 95.225,"750": 124.406,"775": 241.837,"800": 358.844,"825": 382.432,"850": 396.289,"875": 281.721,"900": 277.896,"925": 233.306,"950": 164.728,"975": 104.924,"1000": 163.842,"1025": 13.892,"1050": 2.118,"1075": 1.225,"1100": 0.547,"1125": 0.215}}}