{"type": "Feature","bbox": [-4.3275,36.984,-3.2498,37.4],"geometry": {"type": "MultiPolygon","coordinates": [[[[-3.6664,37.0522,847.4555],[-3.6633,37.0506,850.7382],[-3.6505,37.0554,840.0555],[-3.6485,37.0495,858.4729],[-3.6341,37.0477,1069.1868],[-3.6237,37.0487,1146.1069],[-3.6197,37.0455,1111.562],[-3.6062,37.0439,1267.9102],[-3.6011,37.0419,1322.6731],[-3.5976,37.0426,1361.0323],[-3.5931,37.0396,1494.175],[-3.5853,37.0413,1443.6715],[-3.5819,37.0438,1422.8469],[-3.5783,37.0439,1321.4761],[-3.5733,37.0404,1423.42],[-3.5656,37.0404,1414.2507],[-3.5523,37.0431,1469.913],[-3.5457,37.0488,1312.4152],[-3.5364,37.0489,1493.3611],[-3.533,37.0517,1725.39],[-3.5241,37.0518,1686.3489],[-3.5182,37.0493,1806.7518],[-3.5146,37.0527,1831.1627],[-3.5095,37.0519,1776.5453],[-3.5044,37.0532,1880.4698],[-3.4979,37.0521,1891.0853],[-3.4814,37.0449,2008.4884],[-3.4638,37.0498,2216.9265],[-3.4525,37.0549,2300.4365],[-3.4486,37.0537,2338.4883],[-3.4299,37.0558,2558.4199],[-3.4195,37.0529,2730.9373],[-3.4162,37.0491,2743.293],[-3.4172,37.0452,2785.1863],[-3.4126,37.0405,2918.2974],[-3.4051,37.0398,3121.3193],[-3.395,37.0424,3077.9988],[-3.3926,37.0406,3151.5735],[-3.39,37.0431,3155.6274],[-3.3835,37.043,3165.5957],[-3.3771,37.0474,3146.0991],[-3.3713,37.0482,3178.9565],[-3.371,37.0506,3228.1292],[-3.3656,37.0561,3354.5845],[-3.358,37.0569,3266.7622],[-3.3492,37.0538,3074.8364],[-3.3329,37.0553,3153.9138],[-3.3271,37.0579,3161.4731],[-3.3197,37.0545,3127.2173],[-3.3114,37.0534,3447.1353],[-3.3021,37.0672,3262.5779],[-3.2886,37.0807,3076.5544],[-3.2866,37.0962,3105.4463],[-3.2855,37.0982,3120.3586],[-3.2816,37.0985,3028.1309],[-3.2778,37.1027,3119.8655],[-3.2759,37.1096,3107.1631],[-3.2705,37.1144,3099.6389],[-3.2576,37.1147,3133.665],[-3.253,37.1239,3064.0532],[-3.2498,37.1418,2663.0439],[-3.2551,37.1453,2531.8069],[-3.2605,37.1533,2261.4822],[-3.2705,37.1585,2225.2805],[-3.2739,37.163,2230.4751],[-3.2738,37.1654,2225.2229],[-3.2819,37.1687,2238.1541],[-3.2859,37.1726,2321.1875],[-3.2852,37.1752,2294.0417],[-3.2819,37.1768,2263.96],[-3.2828,37.1842,2189.5603],[-3.2802,37.1853,2184.1401],[-3.283,37.198,2027.916],[-3.2856,37.2012,1997.4978],[-3.2901,37.2026,1975.9895],[-3.2938,37.2072,1862.5909],[-3.3046,37.2133,1752.9956],[-3.3111,37.2151,1754.3555],[-3.3219,37.2144,1945.0706],[-3.3211,37.2174,1905.8318],[-3.333,37.2245,1597.0455],[-3.3391,37.2304,1354.3105],[-3.3421,37.2381,1472.9615],[-3.3475,37.2405,1452.0511],[-3.3525,37.2401,1363.2188],[-3.3582,37.2369,1271.6266],[-3.3657,37.2424,1384.1973],[-3.3686,37.2468,1358.792],[-3.3724,37.2555,1312.9978],[-3.3718,37.2616,1340.5778],[-3.3775,37.275,1319.6774],[-3.3743,37.2816,1228.1125],[-3.3749,37.2847,1172.4957],[-3.3837,37.2813,1322.142],[-3.3823,37.2891,1297.7891],[-3.3836,37.2963,1247.7401],[-3.3941,37.3091,1445.7126],[-3.3958,37.3167,1195.7633],[-3.3916,37.3207,1334.1664],[-3.388,37.3318,1472.101],[-3.3876,37.3417,1304.9889],[-3.3769,37.3572,1615.3154],[-3.3955,37.3508,1731.3776],[-3.4095,37.3493,1723.8879],[-3.4273,37.3425,1870.6122],[-3.4526,37.3379,1846.8293],[-3.4554,37.3359,1797.9109],[-3.467,37.335,1995.094],[-3.4744,37.3294,1727.0101],[-3.5018,37.324,1941.5902],[-3.5147,37.3266,1923.0837],[-3.5222,37.3229,1788.9363],[-3.5249,37.3198,1711.7129],[-3.5405,37.3126,1674.8926],[-3.5528,37.3134,1333.0634],[-3.5553,37.3148,1181.8403],[-3.585,37.3081,894.2379],[-3.5977,37.3118,850.0408],[-3.5979,37.3158,813.0466],[-3.6128,37.3229,775.8994],[-3.6171,37.3183,771.4059],[-3.6275,37.3169,758.8915],[-3.6284,37.3201,684.0295],[-3.625,37.3227,684.6035],[-3.6253,37.3238,715.2229],[-3.6297,37.3222,688.2617],[-3.6305,37.3237,688.2617],[-3.6273,37.3317,744.314],[-3.6292,37.3361,709.4998],[-3.6237,37.3489,788.2874],[-3.6209,37.3517,801.8066],[-3.6195,37.3576,841.3207],[-3.6247,37.3606,805.2325],[-3.6289,37.3674,824.83],[-3.6291,37.3708,842.9578],[-3.6357,37.3783,892.8797],[-3.6396,37.3802,911.0422],[-3.6395,37.3911,1012.5569],[-3.6346,37.3921,1061.2688],[-3.641,37.4,1160.0959],[-3.6475,37.3997,1245.8105],[-3.6569,37.3896,1132.2833],[-3.6637,37.3861,1270.9791],[-3.6623,37.3719,1140.4763],[-3.6727,37.3652,1308.1443],[-3.6728,37.3605,1267.5322],[-3.6707,37.3581,1332.5448],[-3.6785,37.3562,1237.4023],[-3.6839,37.3482,984.4225],[-3.6834,37.3428,802.0851],[-3.6779,37.3329,730.2892],[-3.6745,37.3208,726.7529],[-3.6875,37.3195,720.9084],[-3.6876,37.3218,733.1129],[-3.6978,37.3203,698.8021],[-3.6977,37.3189,698.8021],[-3.7027,37.3167,659.2297],[-3.705,37.318,673.3444],[-3.7069,37.3098,699.539],[-3.7051,37.3053,740.4592],[-3.7119,37.3029,755.3033],[-3.7093,37.3009,745.2423],[-3.7058,37.2917,706.922],[-3.7209,37.2999,768.5058],[-3.7328,37.2953,762.2062],[-3.7393,37.2961,775.1281],[-3.7353,37.3019,760.9135],[-3.7348,37.3077,747.3702],[-3.7426,37.3086,726.6885],[-3.7552,37.305,660.5349],[-3.764,37.2951,589.8218],[-3.7675,37.2935,609.4483],[-3.7776,37.2943,667.7552],[-3.7824,37.2931,694.8043],[-3.794,37.2958,794.491],[-3.7969,37.2958,802.3071],[-3.7991,37.2935,793.6076],[-3.8099,37.2951,827.7066],[-3.8161,37.2938,841.595],[-3.8179,37.2903,849.3181],[-3.8132,37.2861,831.4716],[-3.8271,37.2791,858.6272],[-3.8328,37.2783,890.0986],[-3.8293,37.275,885.7104],[-3.8333,37.2722,821.1763],[-3.8396,37.2618,702.8283],[-3.8339,37.2501,599.0484],[-3.8325,37.2321,554.3901],[-3.8286,37.2293,550.5607],[-3.8241,37.221,541.0817],[-3.8291,37.2144,539.6967],[-3.8373,37.2126,544.8026],[-3.8478,37.2287,573.2551],[-3.8641,37.2179,592.8838],[-3.8741,37.2143,587.1266],[-3.9241,37.2066,577.4294],[-3.9279,37.1999,575.2123],[-3.9256,37.1983,510.1986],[-3.927,37.1968,516.6352],[-3.9338,37.1977,517.9448],[-3.9364,37.2038,540.7462],[-3.9425,37.2022,506.9557],[-3.9458,37.2042,520.8611],[-3.9509,37.2037,524.7426],[-3.9502,37.2076,512.3642],[-3.9536,37.2093,501.7108],[-3.952,37.218,501.893],[-3.9532,37.2196,503.7156],[-3.9594,37.2155,497.6295],[-3.9663,37.2159,497.5116],[-3.9661,37.214,497.4047],[-3.9722,37.2122,502.5252],[-3.978,37.2081,504.3857],[-3.9807,37.2077,497.0859],[-3.9827,37.2112,518.126],[-3.9857,37.2098,494.5015],[-3.993,37.2107,508.5242],[-3.9962,37.2144,505.6849],[-3.9877,37.2267,583.6768],[-3.991,37.236,582.7035],[-3.9894,37.2415,625.4382],[-3.9907,37.2496,723.3055],[-4.0074,37.2454,582.109],[-4.0155,37.2416,714.8574],[-4.0336,37.2422,628.317],[-4.0459,37.2579,785.2662],[-4.0942,37.2782,948.2145],[-4.0942,37.2832,1017.7603],[-4.0956,37.2828,1017.7603],[-4.1074,37.2929,919.8083],[-4.112,37.289,941.229],[-4.1275,37.2829,994.2975],[-4.1264,37.2804,950.6801],[-4.1279,37.2783,920.1273],[-4.1412,37.2765,780.0562],[-4.1526,37.2788,676.8251],[-4.1692,37.2745,549.5225],[-4.1823,37.2669,521.9631],[-4.1887,37.258,452.7419],[-4.1993,37.2572,421.4963],[-4.2108,37.2479,454.5952],[-4.2189,37.2475,415.0],[-4.2222,37.2452,415.0],[-4.2274,37.2465,415.0],[-4.2296,37.2505,444.5531],[-4.244,37.2467,415.0],[-4.251,37.2516,415.0],[-4.2575,37.2504,415.0],[-4.2552,37.2296,653.0333],[-4.2633,37.2275,812.4471],[-4.2826,37.2101,812.9235],[-4.283,37.2074,824.9319],[-4.2919,37.2037,842.4578],[-4.2954,37.1994,810.5206],[-4.3205,37.1918,695.4438],[-4.3236,37.1901,680.8197],[-4.3275,37.1844,581.6085],[-4.3232,37.1808,675.5328],[-4.3092,37.153,717.546],[-4.3027,37.1452,741.2273],[-4.2968,37.1335,773.3041],[-4.2914,37.1303,725.1919],[-4.2869,37.1196,786.3591],[-4.2871,37.1117,846.3348],[-4.2855,37.1086,847.7124],[-4.2865,37.0983,866.8465],[-4.2833,37.0919,823.5163],[-4.2845,37.0889,830.2739],[-4.2804,37.0549,1119.9691],[-4.2726,37.0418,860.9993],[-4.2699,37.0271,1154.8376],[-4.2724,37.0149,1363.0333],[-4.26,37.0174,1162.583],[-4.2549,37.0226,1044.9644],[-4.2518,37.023,1111.8015],[-4.2312,37.017,1055.8407],[-4.2232,37.0124,1081.0073],[-4.2128,37.0227,1330.599],[-4.2056,37.0267,1444.4977],[-4.1911,37.025,1554.2554],[-4.1826,37.0287,1483.7335],[-4.1841,37.0302,1499.3239],[-4.1819,37.0311,1466.3074],[-4.1843,37.0369,1445.0889],[-4.1809,37.0447,1499.1874],[-4.1824,37.048,1485.3152],[-4.1805,37.0489,1512.2351],[-4.1816,37.05,1512.2351],[-4.1802,37.0514,1513.5176],[-4.1709,37.0525,1448.6641],[-4.138,37.067,1395.322],[-4.1236,37.0695,1331.718],[-4.114,37.0747,1362.8903],[-4.1118,37.0732,1332.8319],[-4.1045,37.0742,1298.7134],[-4.0912,37.0799,1381.8309],[-4.0855,37.079,1360.5898],[-4.0864,37.0821,1301.3308],[-4.08,37.0852,1234.4744],[-4.0611,37.09,975.4277],[-4.0582,37.0923,898.473],[-4.0496,37.0921,740.7951],[-4.0211,37.1005,912.7962],[-4.0132,37.0977,923.6902],[-3.9941,37.1183,815.825],[-3.9854,37.119,733.7348],[-3.9823,37.1174,683.2777],[-3.9818,37.1236,673.321],[-3.98,37.1253,676.8778],[-3.9827,37.1321,665.5313],[-3.9805,37.1335,679.1998],[-3.9804,37.1367,664.8674],[-3.9772,37.1412,648.5062],[-3.976,37.1408,642.6322],[-3.9754,37.1493,625.7596],[-3.9677,37.1546,562.2574],[-3.957,37.156,699.8348],[-3.9552,37.1522,704.2678],[-3.9383,37.1424,740.108],[-3.9344,37.1467,728.7174],[-3.92,37.1486,710.1481],[-3.9024,37.1555,692.5538],[-3.8972,37.1592,671.8956],[-3.89,37.1602,624.0524],[-3.8839,37.1579,645.1106],[-3.8694,37.1566,639.5705],[-3.8584,37.158,638.9728],[-3.8614,37.1468,672.4158],[-3.8566,37.1425,697.8419],[-3.8494,37.1475,668.1243],[-3.8129,37.1468,697.96],[-3.8125,37.1543,687.809],[-3.8103,37.1578,677.5669],[-3.7963,37.1494,722.1489],[-3.7966,37.1464,739.0594],[-3.7937,37.1417,772.9757],[-3.7891,37.1382,805.9127],[-3.7847,37.1372,813.6927],[-3.7773,37.1485,729.9514],[-3.7779,37.1518,721.2622],[-3.7564,37.1467,715.1968],[-3.7475,37.1346,800.6161],[-3.752,37.1274,812.3975],[-3.7506,37.1251,846.8973],[-3.7569,37.1181,898.4991],[-3.7543,37.1165,885.8994],[-3.7524,37.1185,866.7022],[-3.7496,37.1165,846.8038],[-3.7459,37.1163,814.1433],[-3.7425,37.1188,799.032],[-3.7351,37.1169,736.3261],[-3.7264,37.1179,695.8141],[-3.7206,37.114,787.1478],[-3.7131,37.1153,829.2708],[-3.7101,37.1112,863.1327],[-3.7041,37.1107,850.5765],[-3.7009,37.1133,853.2595],[-3.6873,37.1091,859.1849],[-3.6897,37.1054,889.9226],[-3.6947,37.1037,836.2213],[-3.6974,37.0969,774.881],[-3.6958,37.0949,780.8701],[-3.6988,37.0936,765.4788],[-3.6999,37.0903,740.6999],[-3.7042,37.0868,755.3453],[-3.7171,37.0822,756.5286],[-3.7275,37.0762,778.9087],[-3.7266,37.0719,829.0147],[-3.7327,37.0661,864.6801],[-3.7308,37.049,917.6296],[-3.7349,37.0425,942.1519],[-3.7377,37.0412,962.7661],[-3.7381,37.0369,1070.4877],[-3.7549,37.0344,1137.9935],[-3.7642,37.0352,1133.2935],[-3.7646,37.0308,1060.7899],[-3.7593,37.0255,1072.6414],[-3.7612,37.025,1084.4094],[-3.7638,37.017,1121.1827],[-3.7655,37.0168,1129.8398],[-3.7691,37.0098,1177.0964],[-3.7678,37.0065,1201.6853],[-3.7741,37.0017,1207.5272],[-3.7751,36.9965,1252.0785],[-3.7712,36.9888,1370.906],[-3.7614,36.984,1344.2908],[-3.7568,36.9898,1257.4194],[-3.7563,36.9969,1236.2819],[-3.7487,37.0079,1159.5244],[-3.7516,37.016,1112.4597],[-3.7467,37.0242,1080.5837],[-3.7421,37.0267,1077.2275],[-3.7361,37.0252,1048.1733],[-3.7304,37.0271,1022.5308],[-3.7195,37.0273,1033.3804],[-3.714,37.03,1034.9738],[-3.7132,37.0327,938.6063],[-3.7096,37.0354,1021.0308],[-3.6999,37.0345,1050.407],[-3.6897,37.0403,949.6882],[-3.6817,37.0405,928.2617],[-3.677,37.0435,864.4722],[-3.6761,37.0471,828.0729],[-3.6731,37.0499,845.4929],[-3.6664,37.0522,847.4555]]]]}
,"properties": {"GID_3": "ESP.1.4.5_1","GID_0": "ESP","country": "Spain","GID_1": "ESP.1_1","province": "Andalucía","NL_NAME_1": "NA","GID_2": "ESP.1.4_1","county": "Granada","NL_NAME_2": "NA","city": "n.a.(113)","VARNAME_3": "NA","NL_NAME_3": "NA","TYPE_3": "Comarca","ENGTYPE_3": "Comarca","CC_3": "NA","HASC_3": "NA","name": "n.a.(113).city","area_km2": 2003.639,"hist_schema_id": "Elevation0-9000","hist_area_km2": {"425": 3.984,"450": 4.712,"475": 24.254,"500": 30.84,"525": 42.832,"550": 98.987,"575": 99.238,"600": 86.29,"625": 83.438,"650": 90.108,"675": 93.52,"700": 81.935,"725": 73.398,"750": 62.387,"775": 59.853,"800": 55.568,"825": 47.981,"850": 40.483,"875": 33.183,"900": 27.945,"925": 25.968,"950": 26.441,"975": 21.982,"1000": 19.768,"1025": 20.749,"1050": 20.378,"1075": 19.026,"1100": 19.043,"1125": 18.959,"1150": 17.388,"1175": 17.894,"1200": 20.715,"1225": 22.387,"1250": 23.737,"1275": 23.921,"1300": 25.895,"1325": 26.567,"1350": 28.628,"1375": 28.309,"1400": 27.849,"1425": 28.795,"1450": 26.178,"1475": 23.58,"1500": 20.388,"1525": 17.111,"1550": 14.544,"1575": 13.261,"1600": 11.249,"1625": 10.423,"1650": 9.731,"1675": 9.123,"1700": 9.596,"1725": 8.718,"1750": 9.463,"1775": 9.057,"1800": 7.604,"1825": 7.554,"1850": 6.726,"1875": 6.016,"1900": 6.693,"1925": 5.899,"1950": 5.155,"1975": 5.308,"2000": 5.578,"2025": 5.392,"2050": 5.376,"2075": 5.156,"2100": 4.903,"2125": 4.818,"2150": 4.953,"2175": 5.156,"2200": 4.65,"2225": 4.633,"2250": 3.669,"2275": 4.21,"2300": 3.889,"2325": 3.788,"2350": 3.737,"2375": 3.704,"2400": 3.399,"2425": 3.23,"2450": 3.332,"2475": 2.892,"2500": 2.52,"2525": 2.537,"2550": 2.435,"2575": 2.351,"2600": 2.436,"2625": 2.554,"2650": 2.368,"2675": 2.419,"2700": 2.08,"2725": 2.267,"2750": 2.097,"2775": 2.114,"2800": 2.081,"2825": 1.725,"2850": 1.844,"2875": 1.776,"2900": 1.658,"2925": 1.59,"2950": 1.37,"2975": 1.201,"3000": 1.472,"3025": 0.913,"3050": 0.88,"3075": 0.964,"3100": 0.71,"3125": 0.643,"3150": 0.254,"3175": 0.389,"3200": 0.152,"3225": 0.22,"3250": 0.102,"3275": 0.068,"3300": 0.135,"3325": 0.068,"3350": 0.034,"3375": 0.017,"3450": 0.017}}}