{"type":"Feature","properties":{"GID_3":"ESP.6.3.7_1","GID_0":"ESP","country":"Spain","GID_1":"ESP.6_1","province":"Cataluña","NL_NAME_1":"NA","GID_2":"ESP.6.3_1","county":"Lleida","NL_NAME_2":"NA","city":"n.a.(165)","VARNAME_3":"NA","NL_NAME_3":"NA","TYPE_3":"Comarca","ENGTYPE_3":"Comarca","CC_3":"NA","HASC_3":"NA","name":"n.a.(165).city"},
"geometry":{"type": "MultiPolygon","coordinates": [[[[0.8472,41.6903,206.8366],[0.8572,41.691,209.345],[0.8646,41.6846,211.9718],[0.8568,41.7113,245.1999],[0.8651,41.7244,233.9433],[0.8704,41.7251,233.5804],[0.8754,41.728,236.0436],[0.8789,41.7324,229.1433],[0.8743,41.7393,229.7767],[0.8515,41.7438,225.6826],[0.8398,41.7529,225.3771],[0.84,41.7573,227.8502],[0.8455,41.765,248.8525],[0.8454,41.7719,239.0255],[0.8518,41.7747,248.4065],[0.8533,41.7778,244.7703],[0.8812,41.7686,253.1739],[0.8868,41.781,289.2366],[0.8879,41.7888,317.423],[0.9102,41.785,333.4458],[0.9097,41.7835,350.3215],[0.9225,41.78,358.5814],[0.924,41.7765,324.6857],[0.9226,41.7741,307.4223],[0.9373,41.7705,311.9121],[0.9436,41.7737,324.7049],[0.9443,41.7758,341.8312],[0.9566,41.7775,356.1206],[0.9559,41.7731,348.4947],[0.9606,41.7702,330.6638],[0.9597,41.7687,316.7314],[0.9739,41.7668,319.0414],[0.9764,41.7758,357.1746],[0.9876,41.7743,359.2905],[0.9906,41.78,335.675],[0.9944,41.782,341.0183],[1.0058,41.7961,294.6021],[1.0064,41.8038,318.8705],[1.0171,41.8222,359.4786],[1.0179,41.8283,384.1071],[1.0216,41.8281,379.53],[1.024,41.8315,365.4866],[1.0246,41.8385,396.5057],[1.02,41.8389,402.0101],[1.0211,41.8505,448.6883],[1.025,41.8517,445.3578],[1.0289,41.8558,423.6831],[1.0314,41.8545,425.4608],[1.031,41.8523,429.9202],[1.0391,41.8544,419.0133],[1.0404,41.8575,405.3413],[1.042,41.857,413.4352],[1.0447,41.8596,403.3089],[1.0462,41.8573,405.6787],[1.055,41.8576,418.4182],[1.0578,41.8488,449.4094],[1.0614,41.8493,456.311],[1.0665,41.8354,374.8387],[1.0637,41.8235,354.5433],[1.0644,41.8146,345.2258],[1.0691,41.8128,334.9099],[1.0731,41.8166,340.536],[1.0755,41.8231,369.0544],[1.0919,41.8445,435.2729],[1.0994,41.8572,464.2485],[1.1042,41.8557,482.1584],[1.1026,41.8528,488.5889],[1.115,41.8539,502.0713],[1.1147,41.8511,473.3801],[1.1203,41.8493,467.6571],[1.1235,41.8387,411.0934],[1.1235,41.8305,396.2051],[1.1187,41.8268,401.8735],[1.1166,41.8228,382.841],[1.1135,41.8218,363.8745],[1.1039,41.828,408.389],[1.1009,41.8255,405.6967],[1.1014,41.8212,389.9661],[1.0987,41.8202,380.0435],[1.0988,41.8116,351.4443],[1.1232,41.8076,358.2923],[1.1266,41.8054,354.6714],[1.1335,41.8044,363.0191],[1.1342,41.8107,364.5123],[1.1381,41.8145,385.0028],[1.1424,41.8161,400.6201],[1.1447,41.8198,421.4706],[1.1497,41.8209,430.5101],[1.1527,41.8182,386.8159],[1.1387,41.8054,374.7349],[1.1365,41.8,351.8834],[1.1406,41.7921,359.1341],[1.1402,41.786,350.9722],[1.163,41.7814,393.215],[1.1871,41.7987,412.8309],[1.1956,41.8099,462.9211],[1.203,41.8149,498.407],[1.2118,41.8114,519.1473],[1.2253,41.82,541.2939],[1.2273,41.8253,535.6907],[1.2376,41.836,471.2751],[1.2369,41.8403,471.6775],[1.24,41.845,464.5821],[1.2427,41.8456,456.2948],[1.2432,41.8474,461.3331],[1.2574,41.8577,472.3712],[1.2595,41.8563,476.9605],[1.2826,41.8763,426.209],[1.2835,41.8823,538.6913],[1.2894,41.8869,508.9387],[1.2923,41.8977,609.5657],[1.291,41.9098,620.8674],[1.2974,41.9178,621.1448],[1.2954,41.9215,633.8536],[1.3098,41.9362,660.3087],[1.3138,41.9472,705.9678],[1.3112,41.9512,749.7372],[1.305,41.9536,704.178],[1.2937,41.9552,616.3024],[1.2916,41.9589,550.9133],[1.2887,41.9568,573.4572],[1.2865,41.9586,634.3985],[1.2608,41.9429,595.0182],[1.2514,41.9392,635.7044],[1.248,41.9399,641.4191],[1.2531,41.9449,595.6516],[1.2633,41.975,648.6113],[1.259,41.9767,625.9766],[1.2576,41.9819,518.9407],[1.2585,41.9892,435.9155],[1.2641,41.9985,507.6232],[1.2619,42.0034,604.036],[1.2548,42.0065,636.1157],[1.2519,42.006,662.4573],[1.2484,42.0085,691.2507],[1.249,42.0121,651.686],[1.2374,42.0202,686.5012],[1.2365,42.0254,711.3315],[1.2392,42.0282,716.7996],[1.2403,42.0362,823.1718],[1.233,42.047,1031.9205],[1.2401,42.0508,1009.401],[1.242,42.0535,959.5958],[1.2365,42.0608,901.4129],[1.2374,42.0645,905.4982],[1.2326,42.0636,829.3938],[1.2346,42.0666,876.0471],[1.2259,42.0705,842.4755],[1.2187,42.0696,698.316],[1.2207,42.08,785.3657],[1.2158,42.0802,824.8907],[1.2109,42.0763,819.2578],[1.2034,42.0831,901.3309],[1.2006,42.09,1011.2657],[1.1946,42.0902,1009.3347],[1.1791,42.0818,858.3978],[1.1757,42.0811,885.0833],[1.1733,42.0829,818.8348],[1.1715,42.0813,805.2294],[1.1682,42.0814,789.2976],[1.169,42.0801,770.2084],[1.1665,42.0775,673.0548],[1.1649,42.0771,630.7555],[1.1644,42.0797,653.0979],[1.1621,42.0792,740.4879],[1.1598,42.0857,802.3937],[1.1639,42.0859,767.1135],[1.1604,42.0915,940.5244],[1.162,42.0913,923.7247],[1.1655,42.0951,680.1776],[1.1643,42.1009,751.0137],[1.1655,42.1015,751.0137],[1.1645,42.1041,823.4132],[1.1627,42.104,712.8897],[1.1683,42.1198,831.5551],[1.1669,42.1229,822.8148],[1.1581,42.1227,1099.8979],[1.1563,42.118,1141.4313],[1.1519,42.116,1278.791],[1.1489,42.1184,1252.2449],[1.1465,42.1153,1279.0303],[1.1438,42.1184,1291.4207],[1.1405,42.1194,1301.4303],[1.1382,42.1176,1301.6782],[1.1356,42.1112,1308.0977],[1.125,42.0998,1225.6827],[1.1195,42.0893,1192.5612],[1.1118,42.0872,1088.2643],[1.1018,42.0762,1042.6587],[1.0976,42.0621,1132.0122],[1.0945,42.0581,1146.1659],[1.0785,42.0499,1100.7603],[1.0768,42.0457,1098.0715],[1.068,42.0365,1032.4852],[1.0442,42.0345,995.8582],[1.0353,42.0314,1144.0502],[1.0283,42.0312,1025.5668],[1.0218,42.034,1047.5016],[1.0114,42.0251,1356.6707],[1.0103,42.0216,1410.5403],[1.0064,42.0234,1413.016],[0.994,42.0212,1350.0757],[0.9839,42.022,1520.5927],[0.9657,42.0201,1611.722],[0.9534,42.0212,1590.6687],[0.9482,42.024,1655.801],[0.9187,42.0224,1385.229],[0.9162,42.0253,1349.2206],[0.9073,42.0287,1263.4492],[0.8862,42.0424,619.221],[0.8742,42.0368,891.6467],[0.8577,42.0354,1196.1416],[0.8502,42.0358,1371.3281],[0.832,42.0412,1503.2366],[0.8054,42.0409,1573.2023],[0.7982,42.043,1538.5353],[0.7909,42.041,1578.7162],[0.7602,42.0407,1584.6703],[0.7458,42.0466,1544.3617],[0.7431,42.0526,1498.4962],[0.7356,42.053,1509.1379],[0.7245,42.0509,1547.9044],[0.7082,42.0536,1438.7224],[0.7033,42.0571,1421.6261],[0.6927,42.0594,1386.9187],[0.6895,42.0637,1287.9713],[0.6807,42.07,685.5032],[0.6793,42.0761,772.483],[0.6688,42.0612,489.8039],[0.6679,42.0521,468.3872],[0.6686,42.0489,469.2191],[0.6712,42.0474,470.9271],[0.666,42.0418,467.7787],[0.6568,42.0404,466.0],[0.6565,42.0315,466.0],[0.6517,42.0263,466.0],[0.657,42.0149,474.1661],[0.6639,42.0146,504.2817],[0.6573,42.0016,481.25],[0.6466,41.9968,482.0],[0.6444,41.9924,490.0401],[0.6454,41.9871,482.0],[0.642,41.9821,483.8299],[0.6421,41.9869,569.2914],[0.6386,41.9946,641.826],[0.6238,41.9918,584.348],[0.6169,41.9872,482.0],[0.6192,41.9833,482.0],[0.6164,41.9816,482.0],[0.61,41.9689,449.7701],[0.6036,41.9654,372.8235],[0.6044,41.9607,365.3525],[0.5926,41.9689,745.399],[0.587,41.9668,632.5071],[0.586,41.9618,658.2026],[0.5782,41.9576,730.0792],[0.5619,41.9382,834.6765],[0.5625,41.9327,826.6177],[0.5757,41.9307,756.517],[0.577,41.9292,724.8077],[0.6029,41.9223,529.5632],[0.6075,41.9193,377.1057],[0.5949,41.918,364.0],[0.5952,41.9153,364.0],[0.601,41.9086,364.0],[0.5958,41.889,364.0],[0.5928,41.8844,364.0],[0.6083,41.8783,505.865],[0.6073,41.8723,459.6641],[0.6034,41.8691,434.7234],[0.594,41.8681,431.7556],[0.5908,41.8653,360.6483],[0.5801,41.8635,294.9301],[0.5822,41.8577,297.8322],[0.5801,41.8509,287.8765],[0.5797,41.8414,282.1965],[0.577,41.8335,276.8969],[0.5785,41.8252,272.6593],[0.5847,41.8208,270.7823],[0.5868,41.8088,263.4599],[0.5962,41.7957,252.4553],[0.6088,41.7857,245.1581],[0.6149,41.775,238.8078],[0.6192,41.7719,235.0385],[0.6214,41.7665,238.8391],[0.6287,41.7612,227.7451],[0.6335,41.76,224.6396],[0.6608,41.7347,206.5054],[0.6618,41.7297,203.3111],[0.6726,41.7193,198.9583],[0.6883,41.7288,243.4421],[0.7109,41.7236,234.6374],[0.7236,41.7174,218.4553],[0.7346,41.7101,180.0236],[0.7346,41.7083,178.317],[0.7421,41.7123,181.6082],[0.7483,41.7073,209.2111],[0.7633,41.6857,185.2858],[0.7661,41.678,197.3935],[0.7643,41.6769,189.2682],[0.7641,41.6652,188.2851],[0.7927,41.6484,199.3444],[0.7972,41.6469,202.483],[0.8089,41.647,208.0334],[0.8257,41.6427,214.629],[0.8499,41.6545,221.9114],[0.856,41.6592,222.5487],[0.8605,41.6668,220.9513],[0.8382,41.6719,211.4508],[0.8407,41.6809,208.8643],[0.8493,41.6847,209.9054],[0.8472,41.6903,206.8366]]]]}}