{"type":"Feature","properties":{"GID_3":"ESP.8.1.6_1","GID_0":"ESP","country":"Spain","GID_1":"ESP.8_1","province":"ComunidaddeMadrid","NL_NAME_1":"NA","GID_2":"ESP.8.1_1","county":"Madrid","NL_NAME_2":"NA","city":"n.a.(180)","VARNAME_3":"NA","NL_NAME_3":"NA","TYPE_3":"Comarca","ENGTYPE_3":"Comarca","CC_3":"NA","HASC_3":"NA","name":"n.a.(180).city"},
"geometry":{"type": "MultiPolygon","coordinates": [[[[-3.8658,39.9031,466.9789],[-3.8484,39.9026,495.9406],[-3.8343,39.8998,525.9408],[-3.8146,39.8859,550.9477],[-3.8038,39.8846,547.2122],[-3.8061,39.8878,549.4029],[-3.7889,39.8999,508.9032],[-3.7786,39.9114,513.8387],[-3.7559,39.9216,540.718],[-3.7458,39.9334,522.1354],[-3.7448,39.9406,514.9464],[-3.7312,39.9442,557.0034],[-3.7113,39.955,525.1671],[-3.6977,39.947,566.014],[-3.6775,39.9611,537.1698],[-3.6619,39.9662,557.9775],[-3.6349,39.9662,577.5677],[-3.6346,39.9692,575.0851],[-3.631,39.9688,581.3212],[-3.638,39.9888,575.6404],[-3.6291,39.993,609.973],[-3.6222,39.9914,585.3026],[-3.6094,39.9985,618.0641],[-3.5945,40.0019,619.4164],[-3.5896,40.0135,578.1142],[-3.5748,40.0137,629.6239],[-3.5742,40.0158,623.266],[-3.5504,40.0179,610.7272],[-3.5294,40.0184,619.2475],[-3.5198,40.0209,621.4858],[-3.5219,40.0259,629.9575],[-3.5152,40.0433,500.1157],[-3.5103,40.0432,499.4044],[-3.51,40.0463,499.5765],[-3.5082,40.0447,500.6086],[-3.5058,40.0455,501.0646],[-3.507,40.0482,501.5031],[-3.5045,40.0486,502.7396],[-3.5031,40.0461,501.9873],[-3.4992,40.0453,502.5341],[-3.4953,40.0477,502.4468],[-3.4898,40.0476,502.5049],[-3.4878,40.0415,503.5582],[-3.4855,40.0421,503.0347],[-3.483,40.0463,503.9836],[-3.4782,40.0449,503.0945],[-3.472,40.0461,505.0944],[-3.4727,40.0422,503.2281],[-3.4689,40.041,506.7916],[-3.4547,40.0468,505.3758],[-3.456,40.05,506.3761],[-3.4523,40.0502,506.6313],[-3.4467,40.0481,506.4988],[-3.4486,40.044,506.6891],[-3.4475,40.0383,508.114],[-3.4456,40.0374,507.8154],[-3.4403,40.0391,507.2761],[-3.4296,40.0388,507.8282],[-3.4249,40.0471,524.3023],[-3.4086,40.0405,510.9902],[-3.4093,40.0375,509.6576],[-3.4016,40.0342,513.3813],[-3.3941,40.0355,513.9409],[-3.3917,40.0403,511.7133],[-3.3942,40.0422,513.0894],[-3.3942,40.0455,512.3473],[-3.3863,40.05,513.3725],[-3.3859,40.0516,513.6612],[-3.3763,40.0498,514.848],[-3.3745,40.0585,583.8083],[-3.3796,40.0683,621.762],[-3.3769,40.0752,651.8643],[-3.3569,40.0761,652.5557],[-3.3443,40.0807,670.7864],[-3.3343,40.0816,653.1507],[-3.3273,40.0796,639.2246],[-3.3116,40.0687,614.5397],[-3.3028,40.0537,525.654],[-3.2969,40.0518,526.2985],[-3.2865,40.0521,526.574],[-3.2834,40.0513,526.0712],[-3.2833,40.0493,528.2651],[-3.2767,40.0474,527.466],[-3.2735,40.0479,527.9898],[-3.2726,40.0495,530.2599],[-3.2737,40.0548,528.239],[-3.2679,40.0531,527.8621],[-3.2663,40.0535,528.146],[-3.2656,40.057,527.8267],[-3.2629,40.0565,527.8955],[-3.2603,40.0518,529.7801],[-3.2575,40.0508,528.6656],[-3.2552,40.058,529.4996],[-3.2491,40.0561,529.5007],[-3.2456,40.0595,530.1796],[-3.2439,40.0536,549.4532],[-3.227,40.0567,594.171],[-3.2084,40.0632,567.5201],[-3.2084,40.0605,598.2898],[-3.2049,40.059,602.4479],[-3.201,40.0613,610.3315],[-3.206,40.0618,574.3147],[-3.2076,40.0638,552.5028],[-3.1905,40.077,580.1251],[-3.1893,40.0827,538.092],[-3.1789,40.0851,539.8892],[-3.1769,40.0901,535.7293],[-3.1749,40.091,536.4919],[-3.1663,40.0913,546.9045],[-3.168,40.086,599.0057],[-3.1629,40.0838,622.2195],[-3.1613,40.0744,643.2232],[-3.1627,40.0711,656.2719],[-3.1604,40.0694,654.2892],[-3.1613,40.0651,652.1467],[-3.1486,40.0662,618.2087],[-3.1393,40.0632,645.1155],[-3.1178,40.0617,692.6695],[-3.1066,40.0662,685.7214],[-3.0886,40.0705,680.9301],[-3.0607,40.0904,657.1926],[-3.0532,40.0991,609.9186],[-3.0571,40.1049,622.8452],[-3.054,40.1065,614.1893],[-3.0587,40.1113,598.0686],[-3.0564,40.1132,596.118],[-3.0579,40.1142,602.7077],[-3.0618,40.1131,604.6257],[-3.0624,40.1151,593.028],[-3.0678,40.1185,592.1282],[-3.0653,40.1215,587.9082],[-3.0704,40.1226,583.6835],[-3.0732,40.1252,590.7361],[-3.0719,40.1263,581.2751],[-3.0749,40.1289,582.9062],[-3.0726,40.1306,576.6134],[-3.0777,40.1326,581.5137],[-3.0776,40.135,572.1711],[-3.0823,40.1351,567.5485],[-3.0854,40.1385,562.35],[-3.0899,40.139,561.1057],[-3.0882,40.1393,560.2733],[-3.0905,40.1411,557.3356],[-3.0939,40.1388,561.8835],[-3.0948,40.1421,557.9915],[-3.0968,40.1425,550.6699],[-3.0941,40.1505,551.2303],[-3.0978,40.1535,550.1793],[-3.0881,40.1628,551.5908],[-3.0841,40.162,555.5697],[-3.0829,40.1583,562.8646],[-3.0786,40.1567,556.8297],[-3.0677,40.1575,557.2344],[-3.0691,40.1601,558.1611],[-3.0785,40.1652,596.2489],[-3.0771,40.1731,571.6055],[-3.0854,40.1865,632.4554],[-3.0842,40.1892,647.173],[-3.0866,40.1938,666.4625],[-3.0842,40.1985,677.8697],[-3.0883,40.2006,648.1033],[-3.083,40.2028,613.4254],[-3.0792,40.2091,605.2656],[-3.0832,40.2152,611.6937],[-3.079,40.224,665.1854],[-3.0806,40.2297,746.3554],[-3.0865,40.234,757.733],[-3.0892,40.2387,761.1319],[-3.0868,40.244,776.8632],[-3.0886,40.2482,787.4327],[-3.099,40.2605,798.5846],[-3.0958,40.2689,784.5448],[-3.0982,40.2751,773.4963],[-3.1023,40.2786,791.1028],[-3.1076,40.2803,814.6275],[-3.1094,40.2852,818.9855],[-3.112,40.2856,806.3066],[-3.1274,40.2782,811.2931],[-3.1438,40.2661,756.1427],[-3.1533,40.2641,774.5266],[-3.1516,40.2619,764.7632],[-3.1601,40.2565,732.3677],[-3.1729,40.2389,780.3522],[-3.1731,40.234,756.1368],[-3.178,40.2361,793.7487],[-3.1795,40.2406,802.7256],[-3.1831,40.2434,793.6639],[-3.1956,40.2478,796.9573],[-3.1961,40.2577,799.839],[-3.1835,40.2693,791.0737],[-3.1865,40.2786,800.3737],[-3.1806,40.2911,802.5626],[-3.1818,40.2951,809.262],[-3.1802,40.3013,808.501],[-3.1824,40.3068,793.4966],[-3.1778,40.3151,806.5519],[-3.1621,40.326,816.0676],[-3.1623,40.3274,798.7554],[-3.1533,40.3317,833.7747],[-3.1514,40.3385,690.0109],[-3.1561,40.3419,632.0424],[-3.1474,40.3474,631.0034],[-3.1467,40.3501,632.274],[-3.1415,40.3508,636.0417],[-3.1414,40.3526,635.626],[-3.1442,40.3537,648.1885],[-3.1437,40.3579,635.6461],[-3.1496,40.3609,680.5405],[-3.1533,40.3674,824.9257],[-3.1494,40.3717,831.7458],[-3.1509,40.3763,803.3849],[-3.162,40.3787,846.2191],[-3.169,40.3776,849.42],[-3.1774,40.3739,858.5703],[-3.1758,40.3662,841.3402],[-3.1776,40.3601,849.5032],[-3.1968,40.3522,830.0359],[-3.2044,40.3439,828.8905],[-3.1992,40.3372,796.5552],[-3.2,40.3304,730.6588],[-3.2072,40.3175,735.4448],[-3.2107,40.314,805.6426],[-3.2162,40.3126,807.886],[-3.2264,40.3143,809.6936],[-3.2421,40.3094,807.1937],[-3.2676,40.2951,797.2939],[-3.2793,40.2793,787.4878],[-3.2822,40.2714,708.1678],[-3.2819,40.2665,728.4216],[-3.2853,40.2627,738.1846],[-3.3036,40.2606,717.8948],[-3.3199,40.2607,760.4409],[-3.333,40.2635,767.7051],[-3.3482,40.2734,754.9606],[-3.3757,40.2626,744.8475],[-3.3899,40.2501,748.0678],[-3.3959,40.2482,745.09],[-3.4094,40.2589,756.3636],[-3.4184,40.2578,741.2607],[-3.4227,40.2548,736.2991],[-3.4365,40.2581,723.9269],[-3.4582,40.2584,712.2233],[-3.4711,40.2551,707.0237],[-3.4825,40.257,691.367],[-3.4919,40.2703,626.0155],[-3.4969,40.2718,622.6981],[-3.5192,40.2933,529.1439],[-3.5249,40.2957,522.3027],[-3.5269,40.2933,525.3315],[-3.5326,40.2938,521.4312],[-3.5438,40.2904,521.0079],[-3.5453,40.2913,523.8371],[-3.5446,40.2941,526.3486],[-3.551,40.2976,613.0282],[-3.563,40.2912,650.1433],[-3.5659,40.2917,656.4634],[-3.5719,40.2873,662.8186],[-3.5763,40.2881,655.7399],[-3.589,40.284,680.3263],[-3.5966,40.2854,668.8673],[-3.5949,40.2745,627.6082],[-3.626,40.2659,612.4889],[-3.6324,40.2604,613.6272],[-3.6379,40.2397,592.5057],[-3.6442,40.2297,603.0323],[-3.6346,40.2237,630.5945],[-3.6305,40.2232,643.6259],[-3.6226,40.2188,629.4647],[-3.6138,40.2093,600.4677],[-3.6042,40.2041,585.173],[-3.5943,40.2027,546.7692],[-3.5915,40.1964,530.9917],[-3.6033,40.1618,516.4888],[-3.6079,40.1606,517.7026],[-3.6321,40.1772,545.7263],[-3.6366,40.1784,567.1126],[-3.6465,40.1764,595.3271],[-3.6399,40.1701,590.3954],[-3.6355,40.1705,579.7955],[-3.6358,40.1662,592.9717],[-3.6389,40.1656,598.1799],[-3.6523,40.1563,614.2151],[-3.6599,40.1441,632.5513],[-3.6669,40.1435,631.7415],[-3.6658,40.1364,627.6025],[-3.66,40.1284,620.5231],[-3.6568,40.1279,616.6473],[-3.6565,40.1255,615.9365],[-3.6331,40.1196,590.0593],[-3.6239,40.1142,507.7242],[-3.6216,40.1139,505.4338],[-3.6212,40.1151,505.4338],[-3.6064,40.109,494.0898],[-3.6142,40.0988,492.084],[-3.6111,40.0945,490.3464],[-3.6043,40.0947,490.79],[-3.6094,40.0835,488.4685],[-3.6124,40.0801,487.9312],[-3.622,40.0807,488.816],[-3.6278,40.0773,488.9782],[-3.6277,40.0751,486.1122],[-3.617,40.0681,489.025],[-3.6181,40.066,485.1104],[-3.6242,40.0638,484.4295],[-3.6248,40.0611,485.4418],[-3.62,40.058,487.973],[-3.6205,40.0561,487.3925],[-3.6367,40.052,482.8864],[-3.636,40.0448,484.1121],[-3.6458,40.0396,483.5484],[-3.6467,40.0352,483.2332],[-3.6493,40.0337,480.2817],[-3.6566,40.0343,480.9297],[-3.6674,40.0285,480.4461],[-3.6791,40.016,480.4001],[-3.6849,40.0178,478.3069],[-3.6869,40.0217,479.7586],[-3.6963,40.0208,477.64],[-3.7003,40.0189,478.7069],[-3.712,40.0094,478.6325],[-3.7156,40.0033,477.2469],[-3.7205,40.001,476.6139],[-3.7241,39.995,475.0872],[-3.7228,39.9878,475.1909],[-3.7273,39.9897,477.8123],[-3.7296,39.9868,476.3181],[-3.7349,39.9851,475.6288],[-3.733,39.98,474.5921],[-3.7347,39.9771,473.9028],[-3.7407,39.9829,476.5975],[-3.7462,39.9808,477.0202],[-3.7406,39.9707,474.6409],[-3.7372,39.9687,474.78],[-3.7312,39.9697,475.6315],[-3.7284,39.9731,475.4422],[-3.7245,39.9713,472.5662],[-3.726,39.9665,473.1057],[-3.7394,39.9615,473.2366],[-3.75,39.9635,470.6848],[-3.757,39.971,468.9943],[-3.7612,39.971,470.5637],[-3.7513,39.9566,472.0077],[-3.7514,39.9528,472.9009],[-3.7552,39.95,478.4127],[-3.7633,39.9474,471.9023],[-3.7699,39.949,472.1671],[-3.7702,39.9537,472.3362],[-3.7589,39.9579,472.0642],[-3.7647,39.9664,472.852],[-3.766,39.9624,468.7792],[-3.7698,39.9588,470.5156],[-3.7744,39.9589,471.5883],[-3.7886,39.9542,469.3338],[-3.7858,39.9505,471.1845],[-3.7869,39.9465,471.3994],[-3.7961,39.9484,469.4699],[-3.801,39.9465,470.5898],[-3.8022,39.9527,471.7328],[-3.8081,39.9548,468.0445],[-3.8139,39.9525,466.2003],[-3.8182,39.9467,468.2762],[-3.8247,39.9467,467.9001],[-3.8295,39.9402,465.4823],[-3.8298,39.9319,463.5489],[-3.8317,39.9301,468.4265],[-3.837,39.9302,467.1099],[-3.8375,39.9411,461.0],[-3.839,39.9422,478.4716],[-3.8517,39.9394,465.1639],[-3.8668,39.9313,463.5148],[-3.8758,39.9287,463.4369],[-3.8756,39.924,468.1743],[-3.8692,39.9175,461.2305],[-3.8763,39.9109,462.9741],[-3.8729,39.909,463.9496],[-3.8742,39.9081,466.4427],[-3.8705,39.9072,466.5211],[-3.8695,39.9047,466.1726],[-3.8658,39.9031,466.9789]]]]}}