{"type":"Feature","properties":{"GID_3":"ESP.13.1.7_1","GID_0":"ESP","country":"Spain","GID_1":"ESP.13_1","province":"IslasBaleares","NL_NAME_1":"NA","GID_2":"ESP.13.1_1","county":"Baleares","NL_NAME_2":"NA","city":"n.a.(57)","VARNAME_3":"NA","NL_NAME_3":"NA","TYPE_3":"Comarca","ENGTYPE_3":"Comarca","CC_3":"NA","HASC_3":"NA","name":"n.a.(57).city"},
"geometry":{"type": "MultiPolygon","coordinates": [[[[2.4713,39.4624,0.725],[2.4707,39.4615,0.0],[2.4732,39.4635,0.0],[2.4724,39.4635,0.0],[2.4713,39.4624,0.725]]],
[[[2.4563,39.5015,0.0],[2.4565,39.5029,0.0],[2.4546,39.5026,3.3818],[2.4474,39.4954,0.0],[2.4504,39.4957,2.0864],[2.4512,39.4982,9.8399],[2.4563,39.5015,0.0]]],
[[[2.5639,39.5909,467.2087],[2.5926,39.6074,267.3155],[2.5912,39.6171,118.7725],[2.5736,39.6212,176.088],[2.5711,39.6294,364.1757],[2.5728,39.6299,382.8842],[2.5713,39.6345,445.621],[2.5814,39.6396,217.7571],[2.5836,39.6486,444.9219],[2.5886,39.6518,400.8564],[2.6009,39.65,214.654],[2.601,39.655,314.0179],[2.6045,39.6554,318.6975],[2.6298,39.6464,148.0367],[2.6399,39.6458,113.8244],[2.6462,39.6475,95.4788],[2.6429,39.6526,104.4367],[2.6615,39.6576,99.4507],[2.7073,39.6487,96.4219],[2.7254,39.6591,109.5252],[2.7408,39.6584,126.0853],[2.7369,39.6674,161.8626],[2.7331,39.6892,377.2422],[2.7364,39.6918,560.2339],[2.7315,39.6985,615.8842],[2.7413,39.7126,591.6344],[2.755,39.7177,498.57619999999997],[2.7636,39.7268,688.2065],[2.7729,39.7274,517.9507],[2.8013,39.7432,379.0019],[2.791,39.7507,427.0183],[2.7866,39.7521,499.9907],[2.8018,39.7687,727.6094],[2.799,39.7729,810.1727],[2.8048,39.7747,630.5717],[2.8138,39.7643,379.1426],[2.8214,39.765,524.124],[2.8421,39.7735,448.4877],[2.8438,39.7799,745.3236],[2.8518,39.7816,522.9271],[2.8696,39.7914,709.7485],[2.8781,39.8014,793.9321],[2.9039,39.815,726.2781],[2.9191,39.8162,468.9083],[2.9294,39.8127,550.8843],[2.9898,39.8338,371.5847],[3.0112,39.8158,203.9635],[3.0265,39.8257,104.6125],[3.0435,39.8178,223.5021],[3.0477,39.8226,169.8072],[3.0495,39.834,65.5912],[3.048,39.8469,37.4223],[3.0523,39.8494,26.0878],[3.0574,39.8479,34.1462],[3.0602,39.8531,15.6017],[3.0879,39.8693,0.0],[3.0829,39.876,1.1335],[3.0788,39.8904,0.4154],[3.0796,39.9012,0.1741],[3.0815,39.9043,1.5886],[3.0854,39.9015,0.0],[3.0887,39.9038,0.0],[3.0838,39.906,0.6784],[3.0849,39.9085,5.356],[3.0887,39.9107,1.7297],[3.1015,39.909,2.8037],[3.104,39.9051,0.0],[3.1079,39.9054,0.0],[3.1093,39.8996,0.0],[3.111,39.899,0.0],[3.1115,39.9043,0.0],[3.1093,39.9074,11.6852],[3.1099,39.9113,46.2842],[3.1168,39.9104,0.0],[3.1207,39.9143,0.0],[3.1268,39.9157,0.0],[3.1299,39.9188,0.0],[3.1296,39.9238,0.0],[3.1315,39.9263,0.0],[3.1407,39.9276,5.9438],[3.1449,39.924,0.0],[3.149,39.9249,9.9079],[3.1551,39.9226,7.823],[3.1554,39.924,73.1647],[3.161,39.926,10.1549],[3.1654,39.9299,7.8227],[3.1685,39.9301,0.0],[3.1704,39.9329,35.5053],[3.1729,39.9329,0.0],[3.1782,39.9371,51.8156],[3.1846,39.9371,0.0],[3.1893,39.9415,28.034],[3.1926,39.9396,0.0],[3.1957,39.9421,33.3516],[3.2015,39.9429,0.0],[3.2049,39.9457,98.3033],[3.2079,39.9518,1.5241],[3.214,39.9557,33.8466],[3.2143,39.9621,0.0],[3.2096,39.961,40.1023],[3.204,39.9568,187.1859],[3.1943,39.9543,75.5307],[3.1915,39.9543,72.8973],[3.1929,39.9576,0.0],[3.1913,39.9582,12.503],[3.1835,39.9524,37.5305],[3.1782,39.9512,15.3021],[3.1735,39.9526,14.3602],[3.1801,39.9582,55.2867],[3.1804,39.9613,0.0],[3.1649,39.9596,33.1088],[3.1626,39.9562,58.6988],[3.1593,39.9554,202.5711],[3.1582,39.9568,14.2919],[3.1468,39.9543,9.9825],[3.1437,39.9493,31.5577],[3.1385,39.9463,50.5895],[3.1321,39.946,0.0],[3.1304,39.9446,0.0],[3.1318,39.944,0.0],[3.1329,39.9446,0.0],[3.1313,39.9388,41.3118],[3.1221,39.9318,107.2288],[3.119,39.9318,86.8397],[3.1174,39.9351,12.8735],[3.1132,39.9315,91.0078],[3.1049,39.9321,0.0],[3.1032,39.9299,145.9024],[3.0968,39.9282,21.6609],[3.0954,39.9296,9.731],[3.101,39.9346,36.2309],[3.094,39.9357,0.0],[3.0932,39.9338,0.0],[3.0838,39.9287,17.5095],[3.079,39.924,20.5108],[3.0651,39.9229,5.8357],[3.0596,39.9199,14.3835],[3.0582,39.9201,9.681],[3.0604,39.9226,0.0],[3.0571,39.921,8.5047],[3.0551,39.9221,22.0392],[3.0574,39.9238,13.9138],[3.061,39.9324,0.0],[3.0549,39.9338,0.0],[3.0435,39.9299,80.0596],[3.0385,39.9299,23.2542],[3.0379,39.9324,2.6859],[3.0424,39.936,0.0],[3.0412,39.9374,0.0],[3.0365,39.9315,27.683],[3.0329,39.9301,59.9711],[3.0307,39.9315,14.1899],[3.0335,39.9346,6.1705],[3.0279,39.9349,47.5704],[3.0021,39.9235,84.5453],[2.9865,39.9093,12.7713],[2.969,39.9099,17.062],[2.9599,39.916,0.0],[2.9535,39.9168,105.1195],[2.9535,39.9196,11.3589],[2.9513,39.9199,16.8611],[2.9465,39.9179,7.9797],[2.944,39.914,52.0625],[2.9388,39.9113,4.2938],[2.9349,39.9035,38.1522],[2.9243,39.9001,62.5658],[2.9207,39.9018,77.7736],[2.9174,39.8965,95.2212],[2.9085,39.8954,200.1954],[2.9071,39.8982,0.0],[2.9032,39.8982,49.0237],[2.8882,39.8901,16.1457],[2.886,39.8862,118.6644],[2.879,39.8835,0.0],[2.8751,39.8787,168.1681],[2.866,39.8757,78.6871],[2.8532,39.8743,34.7506],[2.8532,39.8715,236.3822],[2.8487,39.869,3.7258],[2.8443,39.8618,27.8766],[2.8418,39.8613,52.335],[2.8379,39.8649,37.7747],[2.8274,39.8607,0.0],[2.8257,39.8574,2.4643],[2.8251,39.8585,2.4643],[2.826,39.8601,0.0],[2.8235,39.8607,0.0],[2.8235,39.8582,23.4425],[2.8154,39.8574,33.0078],[2.8132,39.8587,50.6276],[2.8104,39.8582,58.6278],[2.8115,39.8601,4.4717],[2.8096,39.8618,89.8521],[2.8026,39.8626,0.0],[2.8015,39.8593,0.0],[2.8046,39.8532,55.8043],[2.8001,39.8512,11.2482],[2.7987,39.8535,54.47],[2.7924,39.8565,47.9143],[2.7896,39.856,23.1776],[2.789,39.8532,58.8319],[2.7782,39.856,6.5566],[2.7754,39.8537,17.0897],[2.7768,39.8526,17.0897],[2.7743,39.8501,0.0],[2.7746,39.8451,0.0],[2.7735,39.8449,0.0],[2.7757,39.8399,15.0094],[2.7649,39.8426,0.0],[2.7654,39.8354,21.4453],[2.7554,39.8296,4.9246],[2.7485,39.8279,13.665],[2.7465,39.8296,0.0],[2.7465,39.8326,0.0],[2.7407,39.8329,5.8405],[2.7363,39.8276,133.8007],[2.7287,39.8262,16.6073],[2.7185,39.8193,8.5457],[2.7129,39.8182,0.0],[2.7124,39.8168,5.5595],[2.7096,39.819,0.0],[2.7101,39.8146,18.2668],[2.7068,39.8112,0.0],[2.6988,39.811,1.8111],[2.6979,39.8079,0.0],[2.6943,39.8054,0.0],[2.6943,39.8024,0.0],[2.6926,39.8021,0.0],[2.6915,39.7982,18.1269],[2.6887,39.7979,3.5921],[2.691,39.7954,0.0],[2.6965,39.796,0.0167],[2.696,39.7924,1.5133],[2.694,39.791,0.9509],[2.6918,39.7907,0.0],[2.6893,39.7938,0.0],[2.6851,39.7943,0.0],[2.6829,39.7985,4.1262],[2.6788,39.799,0.0],[2.6718,39.7949,0.0],[2.6679,39.7918,52.4225],[2.6657,39.7868,0.0],[2.6668,39.7837,97.5685],[2.6649,39.7801,40.876],[2.6637,39.7804,0.0],[2.6651,39.7785,24.0698],[2.664,39.7749,40.532],[2.6588,39.7707,0.0],[2.6515,39.7679,0.0],[2.6449,39.7624,0.0],[2.6404,39.7618,3.5306],[2.6407,39.7632,0.0],[2.6349,39.7651,0.0],[2.6321,39.7624,0.0],[2.6315,39.7582,155.4981],[2.6271,39.7537,33.8543],[2.6254,39.7535,10.9158],[2.6232,39.7568,3.8232],[2.619,39.7562,0.0],[2.6221,39.7543,5.4262],[2.6229,39.7485,103.9468],[2.6179,39.7451,25.5974],[2.6154,39.7451,0.0],[2.614,39.7426,5.6351],[2.5996,39.7332,0.0],[2.5957,39.7254,55.7818],[2.5904,39.7224,0.0],[2.589,39.719,0.0],[2.5774,39.7143,4.9618],[2.5754,39.7118,138.0445],[2.5735,39.7121,0.0],[2.5668,39.7062,7.3723],[2.5629,39.7054,0.0],[2.5624,39.7035,49.0126],[2.5557,39.7001,20.1958],[2.5535,39.7012,0.0],[2.5446,39.6987,58.4916],[2.5426,39.7007,0.0],[2.5412,39.6987,67.6801],[2.5376,39.7007,0.0],[2.5268,39.7015,6.8753],[2.5162,39.691,33.2083],[2.5074,39.6904,16.2935],[2.5043,39.6865,65.6218],[2.4974,39.6843,17.6009],[2.4965,39.6818,31.6303],[2.4938,39.6804,0.0],[2.4943,39.6774,3.8614],[2.4901,39.6726,27.4176],[2.4885,39.6712,36.5091],[2.4818,39.6724,0.0],[2.4793,39.6665,12.4016],[2.4715,39.659,11.1148],[2.4665,39.6571,0.0],[2.4624,39.6521,29.9079],[2.4529,39.6507,0.0],[2.4504,39.6485,67.592],[2.4476,39.649,0.0],[2.4404,39.6443,11.4793],[2.4354,39.644,0.0],[2.4276,39.639,18.8835],[2.4232,39.6387,15.9479],[2.4232,39.6368,61.1789],[2.421,39.6365,9.3363],[2.4226,39.6335,0.0],[2.4215,39.6299,36.6684],[2.4151,39.6301,3.5615],[2.4082,39.6251,24.6702],[2.3957,39.6201,18.6384],[2.3946,39.6179,80.2133],[2.3888,39.6171,0.0],[2.3851,39.614,4.6022],[2.3679,39.6143,0.0],[2.3665,39.6118,152.1049],[2.356,39.6049,0.9736],[2.3549,39.5974,0.0],[2.3471,39.5954,4.2789],[2.3474,39.5926,5.3581],[2.3446,39.5871,0.0],[2.346,39.5835,0.0],[2.3485,39.5835,0.0],[2.349,39.579,13.3589],[2.3535,39.5779,4.1473],[2.3526,39.5726,4.8169],[2.3463,39.5646,0.0],[2.3476,39.5626,0.0],[2.3549,39.5629,0.0],[2.3538,39.5568,0.0],[2.359,39.5565,0.0],[2.3626,39.5532,0.0],[2.3665,39.5543,30.7375],[2.369,39.5468,0.0],[2.3718,39.5438,26.5573],[2.3785,39.5438,2.7114],[2.381,39.5468,3.9012],[2.3846,39.5454,0.0],[2.3865,39.5474,1.0397],[2.3893,39.5468,0.0],[2.386,39.5454,1.5644],[2.3863,39.5438,1.5644],[2.384,39.5418,29.8719],[2.3749,39.539,0.0],[2.3737,39.5374,20.4474],[2.3682,39.5382,29.4801],[2.3651,39.536,0.0],[2.3654,39.5329,81.7354],[2.3632,39.5329,0.0],[2.3632,39.5315,0.0],[2.3713,39.5307,27.3879],[2.3768,39.5363,1.4592],[2.379,39.5349,0.0],[2.3793,39.5326,0.0],[2.3876,39.5337,0.0],[2.3893,39.5324,3.5039],[2.389,39.5268,61.6292],[2.3863,39.5254,56.0698],[2.3865,39.5215,20.739],[2.3888,39.5204,0.0],[2.3896,39.5221,124.9137],[2.4049,39.5262,0.0],[2.4076,39.531,3.8578],[2.4054,39.536,17.3507],[2.4138,39.5388,30.4429],[2.4232,39.5363,12.5467],[2.4212,39.5343,8.1234],[2.4226,39.5307,0.0],[2.419,39.5243,81.0136],[2.4199,39.5229,2.8592],[2.424,39.5232,0.0],[2.4285,39.5274,16.1857],[2.4365,39.5268,0.0],[2.4401,39.5285,0.0],[2.4399,39.531,0.0],[2.4385,39.5313,0.0],[2.441,39.5335,3.3929],[2.4482,39.5346,0.0],[2.4501,39.5371,8.2542],[2.4529,39.536,0.0],[2.4535,39.534,0.0],[2.4568,39.5351,1.0378],[2.4582,39.5307,2.1637],[2.4615,39.529,1.93],[2.4624,39.5257,15.4755],[2.4651,39.5249,1.3223],[2.4668,39.5185,0.0],[2.4807,39.5174,3.6202],[2.4785,39.5135,15.2229],[2.4693,39.5126,4.6292],[2.4649,39.5137,1.4313],[2.4599,39.5107,0.0],[2.4585,39.5068,30.9877],[2.4557,39.5051,0.0],[2.4565,39.5038,8.4506],[2.4604,39.504,10.3671],[2.4588,39.4987,0.0],[2.4623,39.4987,3.4289],[2.4665,39.4954,7.8391],[2.4651,39.4929,0.0],[2.4674,39.4896,0.0],[2.4726,39.4932,0.0],[2.479,39.4915,1.4126],[2.4762,39.4912,0.0],[2.4757,39.4851,0.0],[2.4774,39.4771,0.0],[2.4812,39.4765,24.3634],[2.4812,39.4738,33.7014],[2.4765,39.4668,0.0],[2.4735,39.4649,0.0],[2.4751,39.4646,0.0],[2.4854,39.4724,61.2983],[2.4907,39.4726,41.7262],[2.4985,39.4676,0.0],[2.5004,39.4607,1.992],[2.5063,39.4621,56.2036],[2.5096,39.4576,0.0],[2.5154,39.4582,0.0],[2.5224,39.4562,0.0],[2.5249,39.4604,0.0],[2.521,39.4618,27.3587],[2.5229,39.4635,3.186],[2.5221,39.4674,28.1043],[2.5235,39.4701,40.3046],[2.5235,39.4718,17.6908],[2.5213,39.4721,15.4379],[2.5213,39.4746,16.5437],[2.5262,39.4738,0.0],[2.5265,39.4785,0.0],[2.5299,39.479,14.7176],[2.5338,39.486,0.7818],[2.5371,39.4874,0.0],[2.5379,39.4932,7.2696],[2.5363,39.4954,0.0],[2.5374,39.5007,0.0],[2.5351,39.5018,17.3614],[2.534,39.5051,2.1069],[2.5371,39.5088,9.3246],[2.5432,39.5079,0.0],[2.5474,39.5113,4.7368],[2.546,39.5126,0.0],[2.5385,39.5135,2.799],[2.5368,39.5196,2.2214],[2.5396,39.5215,2.069],[2.5385,39.5229,2.1761],[2.5404,39.5243,3.4464],[2.5454,39.5238,5.4931],[2.5468,39.5257,3.9426],[2.551,39.5268,2.8973],[2.5529,39.5249,0.0],[2.5543,39.5285,8.4915],[2.5618,39.5318,0.0],[2.5646,39.5313,0.0],[2.5665,39.5282,0.0],[2.5701,39.5285,0.0],[2.5718,39.5315,0.6976],[2.5763,39.5326,3.9341],[2.5799,39.5315,0.0],[2.5885,39.5332,0.4652],[2.5907,39.531,0.5303],[2.5899,39.534,1.2751],[2.5974,39.5426,1.0565],[2.5971,39.5465,0.0],[2.5988,39.548,0.0],[2.5795,39.5569,258.8406],[2.596,39.5677,130.9251],[2.5733,39.5775,363.8788],[2.5752,39.5841,321.1539],[2.5654,39.5863,418.452],[2.5639,39.5909,467.2087]]],
[[[2.349,39.5779,0.0],[2.3468,39.5774,0.0],[2.3479,39.5754,0.0],[2.3493,39.5762,0.0],[2.349,39.5779,0.0]]],
[[[2.339,39.5971,0.0],[2.339,39.5985,0.0],[2.3346,39.5979,8.3702],[2.3329,39.5954,74.5584],[2.3224,39.5924,33.335],[2.3188,39.5876,137.0378],[2.3179,39.589,0.0],[2.3162,39.5885,34.238],[2.3137,39.5846,104.3233],[2.3087,39.584,0.0],[2.306,39.581,76.1531],[2.3065,39.5779,100.4781],[2.3043,39.5765,69.1683],[2.3032,39.571,0.0],[2.3074,39.5718,0.0],[2.3082,39.5738,13.6217],[2.3132,39.5735,0.0],[2.3193,39.5762,0.0],[2.3276,39.5868,2.1252],[2.3299,39.5865,0.0],[2.3349,39.5896,0.0],[2.3365,39.5949,17.5198],[2.339,39.5971,0.0]]],
[[[2.5454,39.5043,7.7597],[2.5432,39.5051,1.1205],[2.5451,39.5021,11.1536],[2.5471,39.5021,3.7469],[2.5474,39.5032,3.7469],[2.5454,39.5043,7.7597]]],
[[[2.5893,39.5304,3.8563],[2.5882,39.5313,0.3854],[2.5857,39.5279,1.2883],[2.589,39.5285,0.0],[2.5893,39.5304,3.8563]]],
[[[3.1471,39.9224,0.0],[3.1437,39.9218,0.0],[3.1457,39.9196,8.1191],[3.1499,39.9196,0.0],[3.1496,39.9218,0.0],[3.1471,39.9224,0.0]]]]}}