{"type": "Feature","bbox": [-1.9092,41.9099,-1.3033,42.3617],"geometry": {"type": "MultiPolygon","coordinates": [[[[-1.6932,41.9558,419.2847],[-1.6862,41.9535,399.9733],[-1.6815,41.956,394.98],[-1.6822,41.9573,392.6638],[-1.6769,41.9628,387.3964],[-1.676,41.9665,386.0025],[-1.6645,41.9624,393.5002],[-1.6636,41.96,406.0953],[-1.6581,41.9604,405.7086],[-1.6595,41.9622,410.4867],[-1.6541,41.9654,412.7883],[-1.6439,41.9591,403.4563],[-1.6168,41.9515,415.2617],[-1.609,41.9449,391.1905],[-1.5962,41.9271,384.517],[-1.5583,41.9138,415.8087],[-1.5233,41.9099,358.2815],[-1.5128,41.9149,342.6847],[-1.5061,41.9159,338.0152],[-1.5017,41.9243,321.8021],[-1.4739,41.9246,284.9911],[-1.4532,41.9157,283.3395],[-1.4407,41.9164,270.1837],[-1.4362,41.9145,264.6405],[-1.4182,41.9136,259.9762],[-1.4157,41.9169,256.8913],[-1.4107,41.919,252.6824],[-1.4073,41.9241,248.1144],[-1.4072,41.9278,247.3532],[-1.4022,41.9338,240.9273],[-1.4035,41.9351,241.534],[-1.3969,41.9389,238.6053],[-1.3822,41.9433,234.8879],[-1.38,41.9504,238.3627],[-1.386,41.957,236.5807],[-1.3743,41.962,284.7722],[-1.3652,41.984,332.0156],[-1.3541,41.9992,326.4675],[-1.341,42.0124,414.0059],[-1.3395,42.018,442.0664],[-1.3281,42.028,491.1275],[-1.3048,42.043,593.502],[-1.3081,42.0465,601.1766],[-1.3033,42.0518,597.0083],[-1.3081,42.0589,628.848],[-1.3081,42.062,612.9929],[-1.3127,42.065,636.4698],[-1.3105,42.0723,644.6229],[-1.3291,42.0731,627.4561],[-1.3463,42.0711,623.3607],[-1.3522,42.0731,626.6078],[-1.3594,42.0861,529.0342],[-1.3649,42.0926,536.5253],[-1.3667,42.107,553.45],[-1.3988,42.1262,572.9752],[-1.3999,42.1287,570.8368],[-1.3928,42.1496,387.8331],[-1.3941,42.155,380.3559],[-1.3983,42.1564,357.0294],[-1.394,42.1659,361.0716],[-1.3942,42.173,357.5769],[-1.3917,42.1796,366.203],[-1.3952,42.1907,379.3151],[-1.4133,42.2022,424.6642],[-1.4174,42.2118,445.2592],[-1.4163,42.222,441.2564],[-1.3998,42.2455,427.8513],[-1.3997,42.2564,451.968],[-1.3949,42.2638,469.2976],[-1.3955,42.2695,450.5483],[-1.3913,42.2721,426.4731],[-1.3898,42.2785,415.0109],[-1.398,42.2889,465.3485],[-1.3994,42.2974,461.8715],[-1.4052,42.3012,444.0515],[-1.4084,42.3058,445.7529],[-1.4188,42.3061,418.4297],[-1.4325,42.3159,454.785],[-1.454,42.3094,464.4398],[-1.4636,42.3122,440.5531],[-1.4772,42.3209,444.0349],[-1.4687,42.3258,410.1117],[-1.4701,42.3292,417.9085],[-1.4815,42.3334,439.2642],[-1.4869,42.3458,385.1583],[-1.4946,42.3495,364.4389],[-1.5011,42.3617,354.0286],[-1.5041,42.3615,343.7019],[-1.4993,42.3543,355.9354],[-1.4974,42.3473,364.6162],[-1.4978,42.338,423.5667],[-1.5088,42.3418,423.6776],[-1.5116,42.3359,421.2507],[-1.5189,42.3326,431.1957],[-1.5217,42.3267,408.4119],[-1.53,42.3224,392.1768],[-1.5326,42.3189,406.9917],[-1.5387,42.3173,395.7108],[-1.5454,42.3115,419.9642],[-1.5581,42.3048,409.2513],[-1.5773,42.2994,389.0497],[-1.5784,42.2971,392.6831],[-1.5845,42.2959,388.0977],[-1.5865,42.2919,392.8389],[-1.5922,42.2885,382.7454],[-1.5887,42.2825,363.7879],[-1.6061,42.2635,348.8483],[-1.6141,42.2609,380.0829],[-1.6271,42.2607,354.7648],[-1.634,42.2707,361.89],[-1.6398,42.2746,364.86],[-1.6797,42.2853,316.7433],[-1.681,42.2643,297.1769],[-1.6497,42.2542,307.4078],[-1.6448,42.251,318.5314],[-1.6437,42.247,356.2603],[-1.657,42.2227,351.4239],[-1.677,42.2071,264.3667],[-1.6777,42.2017,267.6781],[-1.6817,42.2002,263.5942],[-1.6814,42.1924,266.0463],[-1.679,42.1883,265.0746],[-1.6969,42.1804,272.5125],[-1.7008,42.1731,276.1287],[-1.6994,42.1669,281.6061],[-1.6933,42.158,309.3685],[-1.6868,42.1564,310.0172],[-1.6796,42.1517,320.0502],[-1.6902,42.1484,323.9346],[-1.7045,42.1393,325.697],[-1.7198,42.1334,336.8043],[-1.7255,42.1418,329.9674],[-1.7397,42.1497,361.767],[-1.7647,42.1504,316.4388],[-1.7702,42.1452,320.092],[-1.7804,42.1413,320.2755],[-1.779,42.1377,323.1471],[-1.7819,42.1377,322.2093],[-1.7992,42.1417,319.0368],[-1.8003,42.1453,319.6654],[-1.8045,42.1477,320.4438],[-1.8216,42.1536,339.9273],[-1.8324,42.1482,348.9707],[-1.8381,42.142,358.5044],[-1.8374,42.1341,370.7775],[-1.8402,42.1281,382.359],[-1.8594,42.115,422.4213],[-1.8642,42.1072,451.3852],[-1.8713,42.1035,476.645],[-1.8724,42.101,462.3201],[-1.8927,42.085,562.186],[-1.9057,42.0671,561.6298],[-1.9062,42.0604,503.3224],[-1.9092,42.0591,465.262],[-1.907,42.0561,453.727],[-1.9032,42.0545,447.0804],[-1.905,42.0495,467.227],[-1.9015,42.0297,500.3366],[-1.8977,42.0288,520.3791],[-1.8962,42.0268,564.8064],[-1.8866,42.0275,652.8926],[-1.8829,42.0263,664.4428],[-1.8832,42.0243,632.5572],[-1.872,42.0127,667.3929],[-1.8648,42.0151,663.8439],[-1.8624,42.0102,642.1858],[-1.8604,42.0097,634.069],[-1.8608,42.0068,600.5024],[-1.8552,42.0026,572.8672],[-1.849,42.0053,559.0622],[-1.8471,42.008,559.6203],[-1.8403,42.0042,637.2568],[-1.8336,41.9951,735.2466],[-1.8103,41.998,685.8737],[-1.7923,41.9897,630.2713],[-1.7853,41.9908,609.9408],[-1.774,41.9955,523.8914],[-1.7668,41.9958,504.598],[-1.7343,41.9639,456.2987],[-1.7152,41.957,440.094],[-1.7044,41.9572,421.2079],[-1.7007,41.9539,422.128],[-1.6932,41.9558,419.2847]]]]}
,"properties": {"GID_3": "ESP.9.1.6_1","GID_0": "ESP","country": "Spain","GID_1": "ESP.9_1","province": "ComunidadForaldeNavarra","NL_NAME_1": "NA","GID_2": "ESP.9.1_1","county": "Navarra","NL_NAME_2": "NA","city": "n.a.(190)","VARNAME_3": "NA","NL_NAME_3": "NA","TYPE_3": "Comarca","ENGTYPE_3": "Comarca","CC_3": "NA","HASC_3": "NA","name": "n.a.(190).city","area_km2": 1328.279,"hist_schema_id": "Elevation0-9000","hist_area_km2": {"225": 6.575,"250": 149.807,"275": 111.502,"300": 159.75,"325": 183.818,"350": 166.43,"375": 141.965,"400": 124.209,"425": 111.567,"450": 61.389,"475": 28.937,"500": 17.71,"525": 14.311,"550": 11.163,"575": 7.716,"600": 8.897,"625": 11.966,"650": 6.881,"675": 2.41,"700": 1.04,"725": 0.236}}}