{"type": "Feature","bbox": [-5.6848,40.4224,-5.4254,40.5672],"geometry": {"type": "MultiPolygon","coordinates": [[[[-5.5397,40.4244,984.2944],[-5.527,40.4224,978.1987],[-5.5135,40.4238,971.0959],[-5.511,40.428,957.0891],[-5.5096,40.4385,956.8998],[-5.5113,40.4435,956.1151],[-5.5201,40.4479,947.9026],[-5.5184,40.452,944.6879],[-5.5093,40.4591,943.675],[-5.5097,40.4637,942.3854],[-5.5003,40.4589,942.5117],[-5.4862,40.4583,944.2154],[-5.4824,40.4567,944.4944],[-5.4779,40.46,945.187],[-5.4693,40.4622,949.5895],[-5.4654,40.4659,953.4423],[-5.4676,40.4671,963.8309],[-5.4603,40.474,970.2512],[-5.4618,40.4912,1009.2541],[-5.4523,40.4941,1003.8976],[-5.4502,40.4975,1008.9951],[-5.4469,40.52,1041.3583],[-5.4421,40.5264,1073.8323],[-5.4363,40.5294,1136.0541],[-5.4331,40.5342,1142.1414],[-5.4297,40.552,1138.7017],[-5.4254,40.5566,1153.0258],[-5.431,40.5672,1233.2527],[-5.4379,40.5663,1221.4503],[-5.4534,40.5606,1195.2719],[-5.4605,40.5593,1239.1127],[-5.465,40.5602,1238.7725],[-5.4815,40.5567,1310.683],[-5.5174,40.5456,1214.4554],[-5.5246,40.5407,1076.6255],[-5.5226,40.54,1071.1113],[-5.525,40.5356,1067.8838],[-5.5233,40.53,1058.6561],[-5.5328,40.5213,1005.116],[-5.5372,40.5114,956.761],[-5.5426,40.5081,935.0596],[-5.5482,40.5072,907.5],[-5.5507,40.5096,908.3702],[-5.559,40.5123,907.5],[-5.5637,40.5113,899.9714],[-5.5714,40.5134,899.4303],[-5.5802,40.5132,903.3921],[-5.587,40.5166,880.9986],[-5.5875,40.5206,889.804],[-5.5967,40.5222,887.8721],[-5.6089,40.5221,876.1417],[-5.6153,40.5279,881.5345],[-5.6269,40.5322,874.5],[-5.6305,40.5351,874.5],[-5.6316,40.5433,874.0],[-5.6358,40.5363,893.1349],[-5.6394,40.5376,916.4072],[-5.6573,40.5341,909.2098],[-5.669,40.5296,928.8046],[-5.6743,40.524,943.8152],[-5.6667,40.5221,974.9296],[-5.6657,40.5192,989.2297],[-5.67,40.5152,972.4141],[-5.672,40.5088,970.3314],[-5.6746,40.5057,971.2861],[-5.6829,40.5014,979.3696],[-5.6848,40.4922,1032.6804],[-5.6824,40.4925,1022.2866],[-5.6795,40.4892,1021.4298],[-5.6777,40.4895,1016.51],[-5.6719,40.4855,1036.9412],[-5.6714,40.4833,1032.0072],[-5.6614,40.4826,1018.9793],[-5.6545,40.4789,983.809],[-5.6412,40.48,980.4134],[-5.6227,40.4658,995.3987],[-5.6097,40.4681,935.4376],[-5.5897,40.4673,1026.3217],[-5.575,40.4764,1009.9181],[-5.5608,40.4771,1029.8333],[-5.564,40.4728,1044.958],[-5.56,40.4668,1134.1003],[-5.561,40.4615,1312.1082],[-5.5665,40.4572,1143.175],[-5.5706,40.4565,1121.9227],[-5.5745,40.4443,1100.1382],[-5.5639,40.4406,1057.7878],[-5.5546,40.4339,1009.5651],[-5.5446,40.4231,985.6615],[-5.5397,40.4244,984.2944]]]]}
,"properties": {"GID_3": "ESP.5.5.9_1","GID_0": "ESP","country": "Spain","GID_1": "ESP.5_1","province": "CastillayLeón","NL_NAME_1": "NA","GID_2": "ESP.5.5_1","county": "Salamanca","NL_NAME_2": "NA","city": "n.a.(220)","VARNAME_3": "NA","NL_NAME_3": "NA","TYPE_3": "Comarca","ENGTYPE_3": "Comarca","CC_3": "NA","HASC_3": "NA","name": "n.a.(220).city","area_km2": 160.6953,"hist_schema_id": "Elevation0-9000","hist_area_km2": {"875": 0.5963,"900": 5.3034,"925": 13.3977,"950": 23.5112,"975": 29.3506,"1000": 24.172,"1025": 17.204,"1050": 12.4134,"1075": 9.8165,"1100": 8.542,"1125": 6.9937,"1150": 3.7708,"1175": 2.0788,"1200": 1.4984,"1225": 0.9184,"1250": 0.3706,"1275": 0.3545,"1300": 0.2095,"1325": 0.1773,"1350": 0.0161}}}