{"type":"Feature","properties":{"ISO3166-1-Alpha-3":"ESP","country":"Spain","fill":"#FF0","id":"5815","name":"Ceuta"},
"geometry":{"type": "Polygon","coordinates": [[[-5.34073,35.84737,0.0],[-5.33556,35.86237,0.0],[-5.29186,35.89053,105.7014],[-5.28307,35.91169,0.0],[-5.30932,35.90082,0.0],[-5.32738,35.90424,0.0],[-5.34411,35.91474,0.0],[-5.3662,35.92475,0.0],[-5.38516,35.92617,0.0],[-5.39883,35.92451,0.0],[-5.39886,35.9245,0.0],[-5.38972,35.90205,176.0701],[-5.3784,35.88169,116.2323],[-5.3629,35.86381,107.3513],[-5.34073,35.84737,0.0]]]}}