{"type":"Feature","properties":{"GID_3":"ESP.6.4.5_1","GID_0":"ESP","country":"Spain","GID_1":"ESP.6_1","province":"Cataluña","NL_NAME_1":"NA","GID_2":"ESP.6.4_1","county":"Tarragona","NL_NAME_2":"NA","city":"n.a.(244)","VARNAME_3":"NA","NL_NAME_3":"NA","TYPE_3":"Comarca","ENGTYPE_3":"Comarca","CC_3":"NA","HASC_3":"NA","name":"n.a.(244).city"},
"geometry":{"type": "MultiPolygon","coordinates": [[[[0.8709,41.0823,829.1981],[0.8731,41.0839,816.8962],[0.8625,41.0927,899.7347],[0.8504,41.0945,771.1185],[0.8431,41.0998,781.5432],[0.8307,41.0968,687.2006],[0.8268,41.0984,734.9863],[0.8203,41.0866,588.9566],[0.822,41.0881,657.953],[0.8245,41.087,581.9089],[0.8232,41.0842,576.8518],[0.8246,41.0774,499.0968],[0.8204,41.0746,395.5576],[0.819,41.0716,386.1557],[0.8157,41.0713,432.4678],[0.8155,41.067,451.4192],[0.8058,41.066,679.7991],[0.8009,41.0698,593.6154],[0.7919,41.0709,575.9363],[0.7872,41.0779,421.4105],[0.7703,41.0839,331.4733],[0.771,41.088,233.6454],[0.7678,41.0952,169.5],[0.7653,41.0935,170.8297],[0.7648,41.0887,266.6176],[0.7609,41.0847,286.657],[0.7517,41.0852,237.5166],[0.749,41.0911,222.8304],[0.7374,41.0973,156.9366],[0.7327,41.1032,118.0566],[0.7206,41.1027,103.0201],[0.7125,41.1051,94.7472],[0.7175,41.1093,148.5108],[0.7111,41.115,146.101],[0.7128,41.1169,110.6177],[0.7073,41.1197,88.7221],[0.7052,41.1237,78.0213],[0.7003,41.1243,73.9786],[0.7008,41.1266,76.7229],[0.6976,41.1272,66.35],[0.6957,41.1294,61.3211],[0.6932,41.1287,73.8159],[0.6936,41.1315,49.9279],[0.6906,41.1338,42.2775],[0.6976,41.1343,44.6379],[0.6946,41.1423,113.9286],[0.6919,41.1439,143.0059],[0.6877,41.1508,218.8408],[0.6831,41.1534,182.1237],[0.6761,41.1642,164.1035],[0.6772,41.1719,316.611],[0.6584,41.1855,460.3153],[0.66,41.1885,445.1236],[0.67,41.1912,490.4731],[0.6713,41.1938,408.3151],[0.6813,41.201,448.4652],[0.6863,41.2005,457.9667],[0.6874,41.2034,436.5277],[0.695,41.2073,457.1302],[0.7037,41.2159,504.8257],[0.706,41.2162,524.5],[0.7011,41.2171,452.1108],[0.6939,41.2225,367.9655],[0.6905,41.222,372.2343],[0.6856,41.2247,374.77],[0.6856,41.2301,437.2631],[0.6879,41.232,445.0826],[0.688,41.2351,416.6689],[0.6858,41.2369,429.0662],[0.6849,41.2455,459.4168],[0.6735,41.247,381.9269],[0.6685,41.2448,382.0851],[0.6559,41.2444,294.681],[0.6465,41.2388,266.9188],[0.6378,41.238,235.0417],[0.6299,41.2337,184.5634],[0.6266,41.2449,233.7024],[0.6271,41.2501,269.2092],[0.6199,41.2555,285.4711],[0.6159,41.2566,301.6046],[0.6154,41.2596,304.4391],[0.6185,41.2628,296.2455],[0.6157,41.2692,302.5329],[0.6181,41.2736,305.2865],[0.6167,41.2754,327.4338],[0.633,41.2812,341.0833],[0.6372,41.2813,359.4296],[0.6399,41.2853,339.4222],[0.6449,41.2884,346.3706],[0.6496,41.2878,366.9185],[0.6498,41.292,365.0293],[0.6533,41.2944,356.9642],[0.6647,41.2969,374.1741],[0.6758,41.3023,400.5851],[0.6886,41.3048,430.8571],[0.7015,41.3014,487.6151],[0.7034,41.3028,478.1163],[0.7198,41.304,531.165],[0.7214,41.3071,542.1249],[0.7287,41.3092,554.8738],[0.7389,41.3088,584.3026],[0.7453,41.3118,585.8736],[0.7501,41.3116,635.6642],[0.7536,41.3149,639.2835],[0.7516,41.3179,631.8402],[0.7422,41.3175,570.0887],[0.7245,41.3128,456.2398],[0.7131,41.3138,414.5639],[0.7066,41.3117,424.6612],[0.6957,41.3136,369.9363],[0.6808,41.3081,330.9483],[0.6777,41.3097,320.6165],[0.6697,41.3096,312.0995],[0.656,41.3013,277.9838],[0.6368,41.2976,238.2272],[0.6291,41.2933,232.2674],[0.6281,41.291,213.6151],[0.6251,41.2922,227.88],[0.6188,41.291,195.0324],[0.5968,41.2936,150.66],[0.5819,41.3113,332.5223],[0.5808,41.3201,344.8086],[0.5746,41.3185,291.7724],[0.5545,41.3267,332.3387],[0.5456,41.323,355.0254],[0.5419,41.3108,294.8147],[0.5347,41.3022,181.0615],[0.5301,41.3004,204.7552],[0.5252,41.2902,260.8875],[0.518,41.2916,288.3706],[0.5033,41.2898,320.8436],[0.4972,41.3031,287.8211],[0.4923,41.3052,325.5864],[0.4898,41.3103,366.3358],[0.4808,41.3174,363.1547],[0.4799,41.3235,361.7286],[0.4747,41.3251,374.2319],[0.4753,41.3268,372.9839],[0.4711,41.3279,356.1438],[0.4696,41.3308,365.5969],[0.4613,41.3349,377.1565],[0.4563,41.33,395.9424],[0.4515,41.3298,350.0004],[0.4418,41.3256,364.1497],[0.4348,41.3206,390.0014],[0.4323,41.3118,417.3368],[0.436,41.2974,452.9015],[0.4333,41.2875,464.5404],[0.4332,41.2761,465.1496],[0.424,41.2741,470.6489],[0.3857,41.2789,394.6511],[0.3816,41.2736,380.3528],[0.3768,41.2617,333.2468],[0.3779,41.2538,296.8714],[0.3737,41.2494,283.7686],[0.3742,41.2449,191.255],[0.3815,41.2346,90.9746],[0.3734,41.232,260.8036],[0.3714,41.2285,261.6373],[0.3733,41.2229,312.6587],[0.3713,41.2173,305.008],[0.3676,41.2133,313.7807],[0.3666,41.2073,313.0817],[0.3778,41.2121,225.8407],[0.4019,41.2164,341.2803],[0.403,41.2184,322.4102],[0.4132,41.22,259.324],[0.4222,41.2264,276.0427],[0.4305,41.2285,341.6218],[0.4385,41.2236,413.4781],[0.4458,41.2219,405.9019],[0.4525,41.2154,459.1528],[0.457,41.2141,448.4722],[0.4562,41.2084,458.5295],[0.4584,41.2065,463.484],[0.4578,41.2049,468.4028],[0.4818,41.2029,475.9467],[0.4867,41.198,514.2793],[0.4952,41.1968,529.1866],[0.4982,41.1827,541.5316],[0.5024,41.1736,557.0438],[0.4972,41.1684,523.3204],[0.5009,41.1625,548.7882],[0.4999,41.1581,548.2357],[0.4978,41.1583,541.3381],[0.4986,41.1555,542.0683],[0.4955,41.155,546.0507],[0.4933,41.1511,548.8522],[0.4942,41.1487,531.8254],[0.4876,41.1448,540.1353],[0.4889,41.1416,506.3179],[0.4934,41.1366,530.7802],[0.5166,41.1331,364.4085],[0.5284,41.1252,259.2037],[0.5539,41.1182,347.6612],[0.5505,41.1114,270.1537],[0.5433,41.1076,281.4318],[0.5364,41.0981,275.7865],[0.5361,41.0936,250.4579],[0.5271,41.0854,324.9257],[0.5171,41.0721,391.6476],[0.5124,41.0704,431.4095],[0.5124,41.069,431.4095],[0.5049,41.0678,514.5778],[0.4999,41.063,531.5255],[0.503,41.0596,618.4927],[0.5087,41.0613,601.0095],[0.5277,41.0623,470.7144],[0.5284,41.0552,305.304],[0.5369,41.0517,252.4777],[0.5451,41.0511,234.513],[0.5463,41.0472,239.577],[0.5487,41.0461,256.4644],[0.5476,41.0418,243.1383],[0.5502,41.0361,246.0757],[0.5578,41.0345,305.9791],[0.5587,41.0277,306.7885],[0.5638,41.0275,278.259],[0.5675,41.0248,262.7578],[0.5683,41.0201,297.5338],[0.5712,41.0189,312.0103],[0.5595,41.0146,317.2278],[0.5635,41.0071,47.7025],[0.5655,41.0072,39.7466],[0.574,41.0007,47.955],[0.5771,41.0001,138.6167],[0.586,41.0055,173.0359],[0.5958,41.0169,82.2262],[0.6001,41.0178,101.5853],[0.6044,41.0246,29.5531],[0.6146,41.025,36.9886],[0.626,41.0186,52.807],[0.6242,41.0138,46.9954],[0.6292,41.0144,91.2889],[0.6277,41.0091,60.3861],[0.6243,41.0081,64.311],[0.6429,40.9967,87.1636],[0.6411,40.9934,93.6943],[0.6435,40.9871,98.006],[0.6475,40.986,119.146],[0.6515,40.9713,123.157],[0.6564,40.9693,131.2709],[0.6576,40.9671,135.5615],[0.6559,40.9645,135.4175],[0.6589,40.9626,141.7406],[0.6579,40.9573,146.2878],[0.6623,40.9462,161.4446],[0.666,40.9437,168.6744],[0.6719,40.9459,179.4533],[0.6788,40.9449,191.5516],[0.6822,40.9404,212.2306],[0.689,40.9436,216.5246],[0.6933,40.9425,237.0324],[0.6989,40.9441,251.4488],[0.7396,40.939,196.4067],[0.7528,40.9322,183.5235],[0.7894,40.9388,201.4986],[0.819,40.9408,102.4441],[0.8223,40.943,79.9263],[0.81,40.9474,164.7666],[0.8034,40.9531,294.1769],[0.798,40.9664,578.5005],[0.7986,40.9685,570.8721],[0.7927,40.9724,520.7538],[0.7814,40.9919,506.9849],[0.7763,40.9901,510.4449],[0.7769,40.993899999999996,510.2028],[0.7748,40.9965,539.3035],[0.7787,40.9999,529.8663],[0.7789,41.0065,534.5146],[0.7844,41.0168,658.1754],[0.7829,41.0217,644.5518],[0.7863,41.0248,704.011],[0.781,41.029,644.4676],[0.7963,41.039,547.235],[0.8052,41.0536,607.6786],[0.8174,41.0622,491.1785],[0.8358,41.0527,527.3523],[0.8372,41.0541,545.5654],[0.8438,41.0534,531.6129],[0.8432,41.0554,518.5642],[0.8523,41.0565,579.4526],[0.8533,41.0608,634.4315],[0.855,41.0604,587.6073],[0.8569,41.0633,655.704],[0.8562,41.0705,627.8846],[0.8533,41.0723,666.3677],[0.8548,41.0752,690.0588],[0.8518,41.0778,689.7951],[0.8568,41.081,762.5326],[0.8583,41.0845,754.4572],[0.8627,41.0862,798.6198],[0.8693,41.0849,782.5688],[0.8689,41.0816,773.7939],[0.8662,41.0785,702.9354],[0.8713,41.0756,711.2599],[0.8724,41.0763,687.7089],[0.8705,41.0785,739.6726],[0.8709,41.0823,829.1981]]]]}}