{"type":"Feature","properties":{"GID_3":"ESP.3.1.11_1","GID_0":"ESP","country":"Spain","GID_1":"ESP.3_1","province":"Cantabria","NL_NAME_1":"NA","GID_2":"ESP.3.1_1","county":"Cantabria","NL_NAME_2":"NA","city":"Trasmiera","VARNAME_3":"NA","NL_NAME_3":"NA","TYPE_3":"Comarca","ENGTYPE_3":"Comarca","CC_3":"NA","HASC_3":"NA","name":"Trasmiera.city"},
"geometry":{"type": "MultiPolygon","coordinates": [[[[-3.6799,43.2862,674.354],[-3.6774,43.2911,659.8972],[-3.6815,43.2923,701.1174],[-3.6762,43.2948,643.4924],[-3.675,43.3018,684.9188],[-3.6649,43.3032,642.9528],[-3.6492,43.3011,632.9786],[-3.6436,43.3039,541.9334],[-3.6424,43.3072,489.789],[-3.6369,43.3104,490.2715],[-3.6281,43.3221,487.0557],[-3.6159,43.3307,513.3037],[-3.6082,43.3351,525.0735],[-3.5883,43.339,444.3507],[-3.5744,43.3438,526.757],[-3.5704,43.3418,507.3999],[-3.572,43.3326,431.1955],[-3.5688,43.3293,432.6611],[-3.5678,43.3237,578.8091],[-3.5632,43.3218,692.321],[-3.5599,43.3181,738.1276],[-3.5535,43.317,644.3162],[-3.5562,43.3115,815.2836],[-3.5067,43.3013,702.8365],[-3.4904,43.3007,742.1178],[-3.4737,43.3036,417.8562],[-3.472,43.308,408.4908],[-3.4759,43.3087,441.2054],[-3.4736,43.3149,440.8568],[-3.4683,43.3237,491.2369],[-3.4577,43.3339,479.0147],[-3.4534,43.3413,456.9853],[-3.4467,43.3453,432.7292],[-3.4478,43.351,417.3756],[-3.4442,43.3562,462.5787],[-3.432,43.3538,56.3889],[-3.4291,43.3556,11.3472],[-3.4308,43.3562,1.7368],[-3.4272,43.3621,2.3038],[-3.4355,43.3642,3.5649],[-3.4379,43.3685,3.6847],[-3.4351,43.3768,0.0],[-3.4549,43.3865,0.0975],[-3.4615,43.3821,0.0],[-3.464,43.3821,0.5452],[-3.4649,43.3849,0.0],[-3.4657,43.3743,15.7918],[-3.4746,43.3724,0.4323],[-3.4787,43.3699,10.7335],[-3.4765,43.3729,0.4323],[-3.4718,43.3735,2.1239],[-3.4676,43.3763,1.8504],[-3.4674,43.3885,1.8838],[-3.4654,43.3907,0.0],[-3.4665,43.4012,3.7618],[-3.4676,43.4038,0.0],[-3.4721,43.4063,0.5526],[-3.4718,43.409,0.0],[-3.4757,43.4154,0.8973],[-3.4782,43.4162,1.5219],[-3.4779,43.4179,0.0],[-3.4849,43.4254,0.0],[-3.4871,43.4226,0.0826],[-3.4907,43.4221,0.0],[-3.496,43.424,0.0367],[-3.4965,43.4257,0.0],[-3.4985,43.4254,-0.0052],[-3.5026,43.4301,0.1662],[-3.504,43.4299,0.0],[-3.5049,43.4243,0.5619],[-3.5076,43.424,4.8891],[-3.5096,43.4263,1.5163],[-3.516,43.4235,5.5056],[-3.5199,43.4249,4.0245],[-3.5151,43.4246,0.3077],[-3.5129,43.4293,0.3731],[-3.5138,43.4329,1.1578],[-3.5087,43.4368,0.7927],[-3.5054,43.4346,0.3962],[-3.5007,43.434,4.5943],[-3.5018,43.4304,0.1662],[-3.4999,43.4285,0.0],[-3.4935,43.4287,0.0],[-3.4918,43.426,0.2418],[-3.4882,43.4279,0.0],[-3.4868,43.4313,0.0],[-3.4843,43.4324,0.0],[-3.4876,43.4365,0.0599],[-3.4854,43.4388,3.3602],[-3.4896,43.4443,4.351],[-3.4885,43.4479,0.0],[-3.4796,43.4485,4.7379],[-3.476,43.4415,0.0],[-3.474,43.4418,0.0],[-3.476,43.4501,9.9921],[-3.4735,43.4515,0.1379],[-3.4721,43.456,0.0],[-3.4729,43.4624,3.1964],[-3.4696,43.4596,0.8388],[-3.4707,43.4574,0.0],[-3.4696,43.4546,0.0],[-3.4651,43.4512,0.0382],[-3.4643,43.4529,-0.6113],[-3.4613,43.451,0.1295],[-3.464,43.4418,0.3866],[-3.4632,43.4396,0.0],[-3.4599,43.4382,0.0],[-3.449,43.4393,2.0302],[-3.4376,43.4362,0.0],[-3.4254,43.4437,6.7126],[-3.4271,43.4485,10.1197],[-3.426,43.4554,24.403199999999998],[-3.4274,43.4585,31.6624],[-3.4335,43.464,5.1343],[-3.4438,43.4654,87.2032],[-3.4463,43.4671,0.0],[-3.4504,43.4674,0.0],[-3.4512,43.4657,4.7743],[-3.4618,43.4615,2.3],[-3.4643,43.4637,2.5275],[-3.4754,43.4649,4.0828],[-3.4754,43.469,6.8014],[-3.4771,43.4699,8.0647],[-3.4793,43.4685,26.0107],[-3.4876,43.4682,15.3455],[-3.4901,43.4699,0.0],[-3.499,43.4701,11.599],[-3.5043,43.4732,1.7109],[-3.511,43.4738,2.3095],[-3.5174,43.4785,2.4376],[-3.5165,43.4815,1.2424],[-3.5143,43.4815,0.0],[-3.5135,43.4832,0.0],[-3.5143,43.4896,2.0318],[-3.5113,43.4935,0.0],[-3.5143,43.4932,0.0],[-3.5174,43.4963,0.0],[-3.5199,43.4954,1.1386],[-3.5201,43.4971,0.0],[-3.524,43.4957,0.0],[-3.5296,43.4968,0.0],[-3.529,43.4946,0.0],[-3.5243,43.4938,0.0],[-3.5324,43.4896,4.954],[-3.534,43.4921,1.2048],[-3.5318,43.4924,0.0],[-3.534,43.4949,0.0],[-3.5379,43.4921,0.0],[-3.5404,43.4926,0.0],[-3.5451,43.4907,0.0],[-3.5465,43.4874,1.4713],[-3.5415,43.486,0.3216],[-3.5468,43.4835,1.2375],[-3.5457,43.4849,0.2174],[-3.5493,43.4863,0.0],[-3.5501,43.4882,0.0],[-3.5479,43.4915,1.8195],[-3.5438,43.4926,0.0],[-3.5429,43.4954,0.0],[-3.5401,43.494,0.0],[-3.5396,43.4987,0.0],[-3.541,43.5007,6.6027],[-3.5399,43.5032,0.0],[-3.5412,43.5049,0.0],[-3.544,43.5046,7.7229],[-3.5451,43.5082,5.2987],[-3.5504,43.5085,30.5743],[-3.5504,43.5096,0.0],[-3.5526,43.5079,23.8051],[-3.5582,43.5076,11.5289],[-3.5621,43.5079,25.0285],[-3.5638,43.5104,7.5704],[-3.5676,43.5082,16.7158],[-3.5712,43.5093,0.0],[-3.5771,43.5074,0.0],[-3.5771,43.5035,12.3681],[-3.5851,43.5015,5.5009],[-3.586,43.4932,1.9571],[-3.5879,43.4899,0.0],[-3.5865,43.4876,5.6283],[-3.589,43.4885,3.9773],[-3.5932,43.4843,0.0],[-3.5907,43.4827,0.0],[-3.5879,43.4837,0.1705],[-3.5868,43.4793,1.5608],[-3.5879,43.4782,0.7997],[-3.5899,43.4796,1.9445],[-3.589,43.4818,0.0],[-3.5929,43.4807,2.0151],[-3.5951,43.4849,0.0],[-3.5918,43.486,3.0008],[-3.5907,43.4907,12.8838],[-3.5868,43.4935,1.9571],[-3.5868,43.5018,0.0],[-3.5807,43.5046,1.2486],[-3.5796,43.5079,11.917],[-3.5818,43.5093,20.9294],[-3.5799,43.5132,0.0],[-3.5843,43.5124,0.0],[-3.586,43.5149,0.0],[-3.5865,43.5137,11.1098],[-3.5932,43.514,0.0],[-3.5937,43.5126,6.6685],[-3.5971,43.5135,4.2708],[-3.6004,43.5099,4.4413],[-3.6035,43.5093,1.7403],[-3.6093,43.5037,1.3239],[-3.6146,43.4954,5.9602],[-3.6157,43.4968,7.552],[-3.614,43.5001,0.0],[-3.6157,43.5015,0.0],[-3.6196,43.4965,12.1535],[-3.6226,43.5004,0.0],[-3.6237,43.4979,30.8904],[-3.6251,43.4987,5.6488],[-3.6288,43.4968,38.9499],[-3.6443,43.4993,0.0],[-3.6465,43.496,8.6218],[-3.6546,43.4935,4.9264],[-3.6571,43.4901,60.743899999999996],[-3.6624,43.4901,8.5963],[-3.669,43.4863,6.4044],[-3.6724,43.4865,0.0],[-3.6765,43.4804,9.2899],[-3.6793,43.481,0.0],[-3.6824,43.4779,13.8724],[-3.6849,43.4782,6.0905],[-3.6868,43.4751,14.4424],[-3.6946,43.4765,3.5848],[-3.6954,43.4785,38.5469],[-3.694,43.4796,0.0],[-3.7015,43.4799,5.6254],[-3.7235,43.4732,0.0],[-3.7265,43.4704,6.6928],[-3.7251,43.4621,6.8112],[-3.7265,43.4596,6.1191],[-3.7471,43.456,0.8997],[-3.7451,43.4485,28.7021],[-3.7485,43.4401,0.0],[-3.7521,43.4357,8.1372],[-3.7446,43.4351,0.0],[-3.7426,43.4335,0.0],[-3.741,43.4346,1.6987],[-3.7385,43.4326,0.6033],[-3.7346,43.4376,0.4649],[-3.7371,43.4315,14.4811],[-3.7574,43.4313,0.1111],[-3.7615,43.4357,2.0345],[-3.7601,43.4388,10.1721],[-3.7549,43.4412,0.0],[-3.7551,43.4474,0.0],[-3.7712,43.4487,2.3636],[-3.7715,43.4404,14.0995],[-3.7768,43.4365,3.6104],[-3.7782,43.4332,2.332],[-3.7907,43.4324,0.0],[-3.7896,43.4293,3.9689],[-3.7799,43.4238,7.6366],[-3.7799,43.4215,2.5169],[-3.7951,43.4188,0.0],[-3.7957,43.416,0.0],[-3.8001,43.4149,-0.3173],[-3.7993,43.4118,5.1586],[-3.8026,43.4129,0.4312],[-3.8021,43.4154,4.1629],[-3.8074,43.4171,0.0],[-3.8065,43.4129,7.3785],[-3.8085,43.4124,0.0],[-3.809,43.4085,1.9354],[-3.814,43.4038,3.6799],[-3.814,43.4021,6.4694],[-3.8087,43.3965,0.0],[-3.8051,43.3963,0.0],[-3.8001,43.4001,0.6462],[-3.7882,43.3999,0.0],[-3.7824,43.4035,0.7333],[-3.7751,43.4043,1.094],[-3.7879,43.3988,0.0],[-3.8007,43.3988,0.6462],[-3.8043,43.3954,6.9396],[-3.8151,43.3922,2.5311],[-3.8068,43.3848,120.4274],[-3.8052,43.3793,160.1646],[-3.8073,43.3704,351.752],[-3.806,43.3645,181.7606],[-3.8082,43.358,158.8768],[-3.8021,43.354,161.1781],[-3.7964,43.3403,134.7036],[-3.7895,43.3358,173.8541],[-3.7889,43.3322,196.8993],[-3.7789,43.3276,393.5461],[-3.7782,43.3211,456.2867],[-3.7759,43.3194,465.6406],[-3.7752,43.3157,432.6224],[-3.7782,43.3069,532.1023],[-3.7764,43.3012,601.0529],[-3.7783,43.2975,631.848],[-3.7666,43.2921,794.3054],[-3.7634,43.2854,805.1726],[-3.7668,43.2826,781.6911],[-3.7649,43.2803,794.8106],[-3.75,43.2739,616.1667],[-3.7377,43.2599,404.7996],[-3.7261,43.2554,348.3226],[-3.7219,43.255,366.6277],[-3.7158,43.2573,302.4848],[-3.7126,43.2552,350.9413],[-3.7075,43.2595,612.8572],[-3.6976,43.2621,774.356],[-3.6873,43.2612,912.6143],[-3.6887,43.2672,824.534],[-3.6824,43.2721,682.7686],[-3.683,43.2773,608.2957],[-3.6771,43.2824,662.0582],[-3.6799,43.2862,674.354]]],
[[[-3.7271,43.4741,0.0],[-3.7276,43.4757,0.0],[-3.7312,43.4754,0.0],[-3.7315,43.4704,0.0],[-3.729,43.4699,0.0],[-3.729,43.4726,1.5095],[-3.7271,43.4741,0.0]]]]}}