{"type": "Feature","bbox": [-5.8477,39.0808,-4.9524,39.6112],"geometry": {"type": "MultiPolygon","coordinates": [[[[-5.6131,39.1882,308.4183],[-5.6052,39.1907,308.0],[-5.5896,39.201,316.1038],[-5.5839,39.2001,313.9656],[-5.5704,39.2048,313.5037],[-5.5641,39.2106,320.2082],[-5.5566,39.2087,326.9237],[-5.5507,39.2157,323.3186],[-5.5477,39.2107,332.4184],[-5.5413,39.2064,343.3601],[-5.528,39.1915,373.3956],[-5.524,39.2018,397.8966],[-5.5184,39.2042,421.8106],[-5.5145,39.2097,433.7999],[-5.5113,39.199,418.63],[-5.5001,39.1876,345.7303],[-5.4934,39.1825,335.4552],[-5.4787,39.1781,316.5676],[-5.4695,39.169,311.8851],[-5.465,39.1607,305.6988],[-5.4597,39.1584,302.1893],[-5.4536,39.161,303.7027],[-5.4412,39.1596,308.0841],[-5.4278,39.1625,313.3223],[-5.4238,39.1601,312.4608],[-5.4245,39.1586,312.0165],[-5.4137,39.1567,315.4966],[-5.3989,39.1659,323.0985],[-5.3976,39.1686,324.4326],[-5.3939,39.169,325.899],[-5.3839,39.1742,330.9661],[-5.376,39.1866,343.0707],[-5.3671,39.213,366.0574],[-5.3533,39.2243,375.8587],[-5.347,39.2392,400.8332],[-5.347,39.248,414.2254],[-5.3527,39.2542,439.0149],[-5.3551,39.2603,499.3712],[-5.3529,39.2833,554.1257],[-5.3399,39.3333,619.181],[-5.3308,39.3313,616.6653],[-5.3231,39.3314,609.0332],[-5.3102,39.3252,604.9086],[-5.3031,39.3196,586.6449],[-5.283,39.3195,489.8655],[-5.2475,39.3018,438.6666],[-5.1862,39.3159,382.8804],[-5.1755,39.317,373.1353],[-5.1718,39.3155,372.2015],[-5.1502,39.321,392.9786],[-5.1234,39.3365,462.8527],[-5.1169,39.3435,523.891],[-5.1117,39.3575,541.544],[-5.1108,39.3677,552.6391],[-5.1136,39.3873,567.1122],[-5.0905,39.3906,569.4537],[-5.0745,39.38,556.7173],[-5.0537,39.3624,512.5832],[-5.0411,39.3665,480.5917],[-5.0195,39.3683,358.0096],[-5.0151,39.3745,413.0],[-5.0088,39.3783,413.0],[-4.9919,39.3707,413.0],[-4.9841,39.3718,413.0],[-4.9786,39.3797,413.0],[-4.9695,39.3829,413.0],[-4.9749,39.3938,413.0],[-4.9731,39.395,413.0],[-4.9524,39.395,416.0],[-4.9636,39.4044,618.0558],[-4.9722,39.4089,639.3809],[-4.9851,39.4195,591.5696],[-4.998,39.4267,667.9517],[-5.0004,39.43,679.2091],[-5.0077,39.4344,636.3564],[-5.0257,39.4523,662.7939],[-5.0439,39.4771,796.3876],[-5.0588,39.4894,837.6738],[-5.0746,39.4869,902.2385],[-5.0838,39.4907,893.2062],[-5.1035,39.5088,932.4547],[-5.1237,39.5216,933.0818],[-5.1351,39.5361,1094.8864],[-5.1457,39.5465,1090.7609],[-5.1459,39.5494,1137.5378],[-5.1547,39.5536,1221.8695],[-5.1606,39.5615,1216.7334],[-5.1777,39.5725,1273.5183],[-5.1893,39.5834,1222.0398],[-5.202,39.592,1205.2742],[-5.2158,39.5824,685.2791],[-5.2639,39.5658,693.8975],[-5.2757,39.5652,805.6001],[-5.3169,39.5496,997.4428],[-5.3479,39.5214,753.8107],[-5.3466,39.5177,736.7312],[-5.3537,39.5167,760.6505],[-5.3667,39.4929,941.4675],[-5.3733,39.4896,974.781],[-5.3799,39.476,1223.4996],[-5.3862,39.483,1188.3225],[-5.3878,39.5013,1236.7236],[-5.3963,39.5214,1028.3459],[-5.4006,39.525,1183.4526],[-5.4083,39.54,1217.0134],[-5.4106,39.5493,1055.6045],[-5.4138,39.5543,1069.8374],[-5.4227,39.5621,1026.6855],[-5.4367,39.5862,880.7899],[-5.4453,39.5943,883.4863],[-5.4526,39.5927,629.4462],[-5.4605,39.5884,845.2664],[-5.4747,39.5875,1064.272],[-5.481,39.5924,1040.4739],[-5.4876,39.594,978.822],[-5.4937,39.5933,908.9791],[-5.5314,39.5813,905.8729],[-5.5409,39.5866,904.8472],[-5.5521,39.5974,797.7814],[-5.572,39.6112,738.2374],[-5.5793,39.6101,644.7741],[-5.5839,39.6074,610.1643],[-5.5873,39.6006,586.7976],[-5.5901,39.5992,574.6522],[-5.5875,39.5829,501.1144],[-5.5899,39.5759,470.0422],[-5.5925,39.574,427.6645],[-5.5857,39.5581,427.5361],[-5.5814,39.5573,460.379],[-5.5783,39.555,423.451],[-5.5749,39.5484,438.0023],[-5.5685,39.5455,461.2463],[-5.5665,39.5376,433.3565],[-5.5725,39.529,445.1479],[-5.573,39.5234,448.8815],[-5.5757,39.5213,442.3178],[-5.5758,39.519,450.5544],[-5.5713,39.5196,471.7452],[-5.5568,39.5157,531.175],[-5.5563,39.5134,525.184],[-5.55,39.5107,557.3152],[-5.555,39.5094,593.7609],[-5.5552,39.5079,601.3582],[-5.5483,39.5053,590.8828],[-5.5355,39.4948,732.5703],[-5.5364,39.4932,684.0767],[-5.5488,39.4908,588.5945],[-5.5531,39.4868,539.4543],[-5.5534,39.4804,567.5021],[-5.5613,39.4735,504.757],[-5.5677,39.4707,501.0776],[-5.5622,39.4693,525.9874],[-5.5609,39.4641,529.2914],[-5.5649,39.4626,526.6982],[-5.5634,39.4615,531.5123],[-5.5661,39.4594,533.9813],[-5.5658,39.4569,553.8174],[-5.5559,39.4494,596.558],[-5.5556,39.4475,611.7708],[-5.5532,39.447,622.7678],[-5.5526,39.445,634.4713],[-5.5438,39.4514,665.6365],[-5.533,39.4476,856.9891],[-5.5401,39.4338,889.0456],[-5.5472,39.4312,755.8157],[-5.5527,39.4268,634.3815],[-5.5532,39.4213,744.1337],[-5.5643,39.3994,872.0022],[-5.5728,39.3933,1054.3374],[-5.5736,39.3837,1092.7554],[-5.5927,39.3745,994.8979],[-5.5973,39.3693,966.4924],[-5.623,39.3552,901.3574],[-5.6411,39.3569,848.0217],[-5.6511,39.3449,864.2672],[-5.6647,39.3433,818.0648],[-5.6701,39.3443,915.9755],[-5.6707,39.3466,933.5756],[-5.6714,39.3434,917.0264],[-5.6831,39.3353,827.1414],[-5.6849,39.3322,788.4814],[-5.6918,39.3291,782.3923],[-5.6976,39.3293,818.046],[-5.698,39.324,786.3793],[-5.7024,39.3199,708.6558],[-5.7088,39.3255,662.2325],[-5.722,39.3242,444.5099],[-5.7216,39.3231,442.438],[-5.7327,39.3189,417.6332],[-5.7363,39.3134,403.4557],[-5.7422,39.3101,400.6066],[-5.7561,39.3055,382.1125],[-5.7646,39.3056,374.8743],[-5.7734,39.2982,350.1386],[-5.7718,39.2951,349.8922],[-5.7778,39.283,325.1986],[-5.7802,39.2847,331.0187],[-5.781,39.2928,338.8505],[-5.7834,39.2936,341.0725],[-5.7856,39.2969,348.8688],[-5.7832,39.3011,359.1532],[-5.7904,39.3044,357.5695],[-5.7893,39.309,370.9464],[-5.7914,39.313,361.3101],[-5.8007,39.3247,396.1595],[-5.8076,39.3231,398.6941],[-5.8124,39.3191,391.486],[-5.8131,39.3086,391.0154],[-5.8186,39.2998,383.0528],[-5.8344,39.2877,377.6625],[-5.8359,39.2823,376.6999],[-5.8349,39.2787,374.9683],[-5.8388,39.27,373.5525],[-5.8424,39.2668,368.4999],[-5.8426,39.2628,369.1703],[-5.8477,39.2576,366.4399],[-5.8386,39.239,406.4898],[-5.8359,39.2388,404.1758],[-5.8415,39.2107,367.5827],[-5.834,39.2077,343.9258],[-5.8157,39.193,322.1819],[-5.8179,39.1911,335.8144],[-5.8184,39.1821,324.9804],[-5.8226,39.176,305.5066],[-5.8249,39.157,286.2154],[-5.8093,39.1513,273.1524],[-5.8103,39.1446,273.7264],[-5.763,39.1354,274.394],[-5.7551,39.1323,274.8883],[-5.7534,39.1297,273.4351],[-5.7265,39.1122,283.5085],[-5.7228,39.1073,283.5832],[-5.7015,39.0899,287.6844],[-5.69,39.083,294.8758],[-5.6708,39.0808,324.678],[-5.6641,39.0884,328.6459],[-5.6458,39.1023,287.5309],[-5.6375,39.1001,280.5511],[-5.6106,39.0992,299.682],[-5.6037,39.1006,312.885],[-5.5985,39.108,314.0454],[-5.5927,39.1079,307.5463],[-5.5835,39.1181,291.516],[-5.5951,39.1263,296.2262],[-5.6019,39.1285,299.4768],[-5.6007999999999996,39.1344,311.5053],[-5.5919,39.1348,309.638],[-5.5835,39.1391,308.5923],[-5.5793,39.1431,301.8633],[-5.5764,39.1509,307.9888],[-5.5872,39.1581,294.9298],[-5.5936,39.1666,299.9377],[-5.6056,39.1758,303.5992],[-5.6131,39.1882,308.4183]]]]}
,"properties": {"GID_3": "ESP.11.2.2_1","GID_0": "ESP","country": "Spain","GID_1": "ESP.11_1","province": "Extremadura","NL_NAME_1": "NA","GID_2": "ESP.11.2_1","county": "Cáceres","NL_NAME_2": "NA","city": "n.a.(70)","VARNAME_3": "NA","NL_NAME_3": "NA","TYPE_3": "Comarca","ENGTYPE_3": "Comarca","CC_3": "NA","HASC_3": "NA","name": "n.a.(70).city","area_km2": 1985.169,"hist_schema_id": "Elevation0-9000","hist_area_km2": {"275": 44.839,"300": 123.18,"325": 115.887,"350": 108.795,"375": 153.286,"400": 145.881,"425": 133.006,"450": 91.357,"475": 77.724,"500": 67.784,"525": 70.107,"550": 84.692,"575": 93.77,"600": 87.066,"625": 66.931,"650": 54.234,"675": 47.454,"700": 45.079,"725": 41.345,"750": 36.646,"775": 33.783,"800": 32.307,"825": 28.674,"850": 25.187,"875": 24.794,"900": 21.929,"925": 19.245,"950": 16.494,"975": 14.579,"1000": 12.729,"1025": 10.061,"1050": 8.834,"1075": 7.476,"1100": 7.165,"1125": 5.921,"1150": 5.595,"1175": 4.204,"1200": 3.844,"1225": 3.403,"1250": 2.29,"1275": 1.702,"1300": 1.276,"1325": 1.145,"1350": 1.096,"1375": 0.556,"1400": 0.622,"1425": 0.311,"1450": 0.311,"1475": 0.246,"1500": 0.115,"1525": 0.082,"1550": 0.065,"1575": 0.065}}}