{"type":"Feature","properties":{"GID_3":"ESP.15.1.2_1","GID_0":"ESP","country":"Spain","GID_1":"ESP.15_1","province":"LaRioja","NL_NAME_1":"NA","GID_2":"ESP.15.1_1","county":"LaRioja","NL_NAME_2":"NA","city":"Arnedo","VARNAME_3":"NA","NL_NAME_3":"NA","TYPE_3":"Comarca","ENGTYPE_3":"Comarca","CC_3":"NA","HASC_3":"NA","name":"Arnedo.city"},
"geometry":{"type": "MultiPolygon","coordinates": [[[[-2.0801,41.9544,1007.0166],[-2.0783,41.9513,1009.1425],[-2.0762,41.9509,989.6074],[-2.0622,41.9544,863.5889],[-2.0512,41.9509,802.0867],[-2.0477,41.96,728.7434],[-2.051,41.9691,821.4464],[-2.0469,41.9766,924.0533],[-2.0337,41.9814,854.4857],[-2.0218,41.9828,888.6344],[-2.0327,41.9882,825.3002],[-2.0373,41.9857,843.6356],[-2.0423,41.9879,839.3245],[-2.0441,41.9912,938.6284],[-2.0583,41.9968,1015.7946],[-2.0625,42.001,1085.8763],[-2.0798,41.9961,1210.1658],[-2.0853,41.9985,1166.4829],[-2.0835,42.0036,1216.7305],[-2.0852,42.006,1177.0807],[-2.0832,42.0093,1156.5588],[-2.0841,42.0144,1142.6848],[-2.0716,42.0194,970.6056],[-2.0653,42.025,1017.4798],[-2.0695,42.0294,936.8583],[-2.0613,42.0324,949.4224],[-2.0553,42.0375,843.0043],[-2.0528,42.0406,776.9941],[-2.0531,42.0447,689.3278],[-2.0392,42.0386,701.3541],[-2.0363,42.0455,656.1704],[-2.0398,42.049,688.7736],[-2.0538,42.0541,792.0506],[-2.0557,42.0573,826.8789],[-2.0546,42.0595,820.9249],[-2.0569,42.0602,822.1135],[-2.051,42.0654,707.1646],[-2.0493,42.0691,674.0495],[-2.0544,42.0751,657.2258],[-2.0552,42.0787,635.3546],[-2.0516,42.0907,767.0796],[-2.0552,42.1108,838.9798],[-2.0521,42.1087,851.8804],[-2.0485,42.1085,842.1244],[-2.0421,42.1115,812.5661],[-2.0359,42.1065,831.5964],[-2.0263,42.103,860.5684],[-2.0207,42.1038,867.6318],[-2.0142,42.0996,900.4719],[-2.0077,42.0989,822.7512],[-1.9997,42.0944,819.4207],[-1.9821,42.089,693.1023],[-1.9907,42.1018,738.0625],[-1.9852,42.1016,753.2509],[-1.981,42.1057,735.7928],[-1.9779,42.1035,747.6959],[-1.9705,42.1038,752.4794],[-1.9696,42.1056,724.7511],[-1.9719,42.1109,678.965],[-1.9613,42.1108,665.1185],[-1.9413,42.1001,633.541],[-1.9341,42.1021,605.828],[-1.9331,42.0989,628.9397],[-1.9243,42.0944,553.6761],[-1.9233,42.1003,600.9932],[-1.9414,42.1213,832.3069],[-1.9514,42.1302,936.4667],[-1.9629,42.1357,1015.3078],[-1.9667,42.1409,1066.3494],[-1.9722,42.1435,1089.9072],[-1.9767,42.1402,1018.6585],[-1.9838,42.1409,1027.4355],[-1.9857,42.1384,971.3846],[-1.9924,42.1365,926.1721],[-1.9966,42.1331,881.6097],[-2.0232,42.154,900.6219],[-2.0312,42.1699,679.1282],[-2.0354,42.1965,545.6372],[-2.0315,42.2134,506.6593],[-2.0152,42.2418,452.0695],[-2.018,42.2607,429.6207],[-2.0147,42.2736,386.7358],[-2.0296,42.2953,372.6028],[-2.0388,42.295,392.0657],[-2.0444,42.2916,402.4901],[-2.0491,42.2919,402.2038],[-2.0631,42.2885,433.1495],[-2.0676,42.2977,438.179],[-2.0758,42.296,452.5955],[-2.089,42.2895,480.8547],[-2.0885,42.288,482.4141],[-2.095,42.2818,515.2262],[-2.0949,42.2753,529.225],[-2.1301,42.275,636.9581],[-2.1287,42.2717,675.0698],[-2.1489,42.268,777.4473],[-2.1555,42.2703,846.2089],[-2.1482,42.2743,710.6537],[-2.1466,42.2784,701.0472],[-2.147,42.2853,688.37],[-2.1521,42.2914,674.8565],[-2.162,42.2912,721.9932],[-2.1736,42.2877,769.0893],[-2.1804,42.2834,825.0904],[-2.1888,42.2843,869.156],[-2.204,42.2751,1041.0929],[-2.2066,42.2708,1098.2516],[-2.2163,42.2629,1265.9364],[-2.2164,42.2603,1305.4351],[-2.2214,42.2608,1314.7849],[-2.2272,42.2586,1310.0667],[-2.2307,42.2623,1364.7109],[-2.2371,42.2616,1372.1421],[-2.2401,42.259,1320.1642],[-2.2444,42.2695,1307.9578],[-2.253,42.2721,1227.2998],[-2.2634,42.2717,1134.3376],[-2.2834,42.2881,1044.1622],[-2.2926,42.2907,668.8083],[-2.2947,42.2936,689.2748],[-2.3024,42.2945,865.3657],[-2.3058,42.2887,903.8766],[-2.3079,42.2885,921.5009],[-2.3117,42.2795,1022.0455],[-2.3088,42.2735,1019.2932],[-2.3146,42.2612,1104.4778],[-2.3213,42.2605,1150.3424],[-2.3249,42.2556,1154.5786],[-2.3305,42.2543,1158.9794],[-2.3371,42.2553,1186.9045],[-2.3397,42.2448,1101.4269],[-2.3368,42.2364,1153.327],[-2.3417,42.2355,1140.5697],[-2.3582,42.2385,1211.5818],[-2.3803,42.2488,1320.6228],[-2.3841,42.2426,1190.082],[-2.3885,42.2397,1208.1934],[-2.3859,42.2378,1214.2722],[-2.3903,42.2305,1218.5693],[-2.3937,42.2202,1397.6665],[-2.3882,42.2099,1463.2521],[-2.3825,42.206,1468.3137],[-2.3668,42.2054,1358.3975],[-2.3626,42.1947,1192.5111],[-2.354,42.1869,1096.2166],[-2.3542,42.1808,970.1275],[-2.3603,42.1757,1065.4941],[-2.3623,42.1682,1007.9083],[-2.3691,42.1633,1058.1371],[-2.3749,42.1638,1122.2223],[-2.3796,42.1614,1205.6526],[-2.3938,42.1626,1489.5505],[-2.4008,42.1544,1545.8344],[-2.4013,42.1396,1647.7433],[-2.3972,42.1369,1647.0713],[-2.3878,42.1425,1503.5342],[-2.3761,42.1414,1482.4491],[-2.3706,42.1434,1540.9155],[-2.351,42.1449,1496.7676],[-2.3481,42.1467,1511.0281],[-2.3439,42.1455,1467.1101],[-2.3321,42.146,1509.1023],[-2.3268,42.1437,1449.1547],[-2.3191,42.1452,1357.9059],[-2.3078,42.1402,1181.6577],[-2.2883,42.135,822.2835],[-2.2821,42.1317,1017.1353],[-2.2789,42.1224,1134.317],[-2.2825,42.1188,1228.4375],[-2.2806,42.1143,1299.5339],[-2.2817,42.1084,1397.3124],[-2.2695,42.0886,1638.3776],[-2.2588,42.0873,1581.2506],[-2.2378,42.1022,1328.5872],[-2.2307,42.1015,1319.4734],[-2.224,42.0982,1331.8567],[-2.2166,42.1001,1325.4734],[-2.2088,42.1047,1261.8625],[-2.1985,42.1025,1256.6055],[-2.1756,42.1048,1179.1636],[-2.1367,42.1031,1010.8214],[-2.1273,42.0972,990.1959],[-2.1284,42.0896,888.6052],[-2.1268,42.0881,825.2659],[-2.127,42.0809,914.2374],[-2.1353,42.0746,1134.2771],[-2.1421,42.0742,1108.8186],[-2.1516,42.0689,1155.0006],[-2.1619,42.0667,1259.184],[-2.1585,42.06,1339.3014],[-2.1589,42.0559,1258.3041],[-2.1547,42.047,1015.777],[-2.1499,42.045,1035.29],[-2.1505,42.0422,1110.1323],[-2.1448,42.0416,1166.025],[-2.1288,42.0262,1109.5535],[-2.117,42.0215,1111.5807],[-2.1152,42.0115,1302.3131],[-2.1076,42.0028,1437.8438],[-2.112,41.997,1472.543],[-2.1194,41.9971,1504.2751],[-2.124,41.9953,1489.9895],[-2.1198,41.9861,1344.5045],[-2.1192,41.9766,1246.8936],[-2.1162,41.9747,1227.9651],[-2.116,41.9636,1168.5425],[-2.1099,41.9579,1095.5378],[-2.1004,41.9553,976.9904],[-2.0911,41.9563,1046.0959],[-2.0862,41.9544,1043.5131],[-2.0801,41.9544,1007.0166]]]]}}