{"type": "Feature","bbox": [-6.9729,37.1962,-6.3054,37.6219],"geometry": {"type": "MultiPolygon","coordinates": [[[[-6.7308,37.1991,48.673],[-6.7256,37.1962,48.7164],[-6.7238,37.1968,48.7164],[-6.6843,37.2206,70.8183],[-6.6679,37.2338,92.0532],[-6.6393,37.2405,88.919],[-6.6291,37.2464,87.2392],[-6.6128,37.2527,96.9607],[-6.5735,37.2815,77.8093],[-6.5658,37.2844,103.8425],[-6.5592,37.291,108.8948],[-6.5487,37.2876,99.4186],[-6.5376,37.2881,80.2669],[-6.5352,37.2906,75.366],[-6.5351,37.2965,85.4884],[-6.5325,37.3016,95.3974],[-6.5263,37.3045,82.5695],[-6.5241,37.3046,71.7233],[-6.5209,37.3016,67.9899],[-6.517,37.3025,80.2903],[-6.5041,37.3092,106.2437],[-6.4979,37.3155,125.2099],[-6.4719,37.3306,158.9245],[-6.4684,37.3358,142.5171],[-6.4869,37.3464,150.4233],[-6.4873,37.3502,139.7892],[-6.4817,37.3552,123.1499],[-6.4693,37.3719,167.5755],[-6.4472,37.3633,159.0864],[-6.4536,37.3564,135.3347],[-6.4569,37.3425,110.3291],[-6.4499,37.3397,106.1919],[-6.4402,37.331,95.985],[-6.4331,37.3287,92.2649],[-6.4199,37.3199,88.1052],[-6.408,37.3335,122.1292],[-6.4022,37.3377,125.3597],[-6.3919,37.3428,94.9488],[-6.3844,37.3375,91.7246],[-6.3781,37.3461,117.1987],[-6.3738,37.3487,125.2376],[-6.3683,37.3495,136.7623],[-6.3618,37.3558,131.7636],[-6.349,37.3625,71.6668],[-6.3459,37.3657,69.7683],[-6.355,37.3708,74.439],[-6.3552,37.3739,78.02],[-6.3619,37.3759,77.8574],[-6.3555,37.3859,103.2675],[-6.3541,37.3973,84.8887],[-6.3618,37.4014,92.5254],[-6.3561,37.4122,77.11],[-6.3273,37.4161,53.8856],[-6.3212,37.4205,54.789],[-6.3203,37.4193,50.4118],[-6.3125,37.4187,46.8542],[-6.3121,37.4218,52.2278],[-6.3054,37.4263,39.3601],[-6.3065,37.4351,42.7235],[-6.3112,37.4417,47.9452],[-6.3118,37.4457,50.7327],[-6.3211,37.4514,55.6541],[-6.322,37.4542,57.8068],[-6.3249,37.4554,59.4267],[-6.3248,37.4575,60.084],[-6.3324,37.4645,64.3995],[-6.3323,37.4697,68.0448],[-6.34,37.4872,90.6867],[-6.3459,37.4929,100.6059],[-6.3561,37.4965,113.9104],[-6.3555,37.5,123.5657],[-6.358,37.5001,125.6811],[-6.3603,37.5044,147.1661],[-6.3579,37.5047,135.9201],[-6.3628,37.5147,155.823],[-6.3668,37.5179,180.2973],[-6.3696,37.5286,224.8485],[-6.3663,37.5358,241.374],[-6.3766,37.5471,286.4465],[-6.384,37.5509,319.4859],[-6.3889,37.5515,336.3739],[-6.3923,37.5541,346.1773],[-6.4023,37.58,209.0814],[-6.4001,37.584,231.3565],[-6.395,37.583,219.4462],[-6.3952,37.5854,219.9666],[-6.3935,37.5854,258.1959],[-6.3931,37.5881,235.3761],[-6.3994,37.5914,229.4011],[-6.3981,37.594,236.1956],[-6.4,37.5946,229.9835],[-6.3981,37.5955,253.7815],[-6.3991,37.5983,242.521],[-6.402,37.5989,246.0547],[-6.4003,37.601,247.9197],[-6.3971,37.6002,261.354],[-6.3977,37.6013,248.1843],[-6.3941,37.6041,266.9092],[-6.3959,37.6089,272.546],[-6.395,37.611,271.5511],[-6.3971,37.6105,280.441],[-6.3987,37.6126,290.6946],[-6.4095,37.6146,306.4179],[-6.4131,37.6195,333.1528],[-6.4169,37.6192,331.8569],[-6.4239,37.6219,378.0542],[-6.4277,37.6212,407.7745],[-6.4345,37.6033,402.0656],[-6.4497,37.5896,389.2927],[-6.4485,37.5892,389.2927],[-6.4495,37.5855,368.218],[-6.4543,37.5844,391.2878],[-6.4586,37.5703,403.1992],[-6.4594,37.5487,371.0584],[-6.4574,37.5424,352.821],[-6.4536,37.5392,331.7526],[-6.4553,37.5332,306.273],[-6.4529,37.5312,291.0492],[-6.4524,37.5278,269.9792],[-6.4564,37.516,228.7102],[-6.4626,37.5157,254.3],[-6.4692,37.5105,229.9015],[-6.4948,37.5034,218.1237],[-6.5131,37.503,205.2022],[-6.5243,37.5056,214.976],[-6.5238,37.5155,238.3695],[-6.531,37.5181,239.6852],[-6.54,37.5184,240.9989],[-6.5721,37.5289,131.8545],[-6.5758,37.5335,174.6382],[-6.5816,37.5351,82.9788],[-6.5812,37.5262,95.9515],[-6.5901,37.5259,106.401],[-6.5908,37.5212,236.4565],[-6.5928,37.5201,250.3434],[-6.5847,37.5172,183.0827],[-6.5935,37.5113,186.2667],[-6.6012,37.5104,208.785],[-6.6131,37.5163,271.311],[-6.6182,37.5131,256.9293],[-6.619,37.5066,234.0716],[-6.6223,37.5048,219.9897],[-6.6243,37.5077,232.3481],[-6.6194,37.5165,278.4904],[-6.6298,37.5189,290.5549],[-6.6351,37.5224,307.4151],[-6.6355,37.5272,269.3601],[-6.6376,37.529,268.0583],[-6.6396,37.53,277.0173],[-6.6448,37.5273,305.3938],[-6.6529,37.5301,301.9764],[-6.664,37.5304,290.6051],[-6.6664,37.5289,280.3537],[-6.665,37.5224,281.9957],[-6.6703,37.5109,246.1061],[-6.6735,37.5114,237.654],[-6.6807,37.5085,252.8895],[-6.6865,37.5158,264.9623],[-6.6954,37.511,242.4511],[-6.7049,37.5125,218.21],[-6.7177,37.5095,190.3074],[-6.7195,37.506,214.985],[-6.7292,37.4996,166.3954],[-6.7451,37.4971,152.423],[-6.7511,37.4982,140.837],[-6.7548,37.4954,122.8148],[-6.7601,37.5001,167.3904],[-6.7774,37.5086,215.4858],[-6.8005,37.5143,211.4375],[-6.8074,37.5135,203.7112],[-6.8097,37.5151,190.8058],[-6.8201,37.5157,177.9123],[-6.825,37.5212,159.3516],[-6.8274,37.5281,139.5433],[-6.8336,37.5304,131.6287],[-6.8376,37.5302,118.4233],[-6.8382,37.5289,118.4233],[-6.8399,37.531,124.5097],[-6.8461,37.5316,123.7296],[-6.8483,37.5358,103.9799],[-6.8514,37.5364,128.5031],[-6.8514,37.5381,91.0867],[-6.8554,37.5382,94.9519],[-6.8574,37.5403,85.7614],[-6.8569,37.5426,81.6978],[-6.8545,37.5438,84.2393],[-6.8567,37.5467,74.6386],[-6.8556,37.5486,74.772],[-6.854,37.5484,76.8781],[-6.8568,37.5496,68.6512],[-6.8589,37.5544,79.2705],[-6.862,37.5556,52.8486],[-6.8665,37.5547,43.1746],[-6.8684,37.5577,42.5732],[-6.8718,37.5577,43.6614],[-6.8682,37.5502,52.207],[-6.879,37.5471,64.2715],[-6.8799,37.541,42.6611],[-6.8931,37.5361,33.0479],[-6.8945,37.5302,40.3477],[-6.8984,37.5293,36.6385],[-6.9,37.5242,36.4331],[-6.9063,37.5236,32.8201],[-6.9112,37.5195,30.0522],[-6.9216,37.5201,33.4466],[-6.9239,37.5157,35.4066],[-6.9307,37.5115,27.9872],[-6.9313,37.5058,27.6961],[-6.9347,37.5028,26.4782],[-6.9386,37.4874,25.0488],[-6.945,37.4826,19.7695],[-6.9589,37.4858,39.9389],[-6.9633,37.4796,23.2809],[-6.9686,37.4796,29.3586],[-6.9711,37.4778,17.3633],[-6.9705,37.4743,16.5148],[-6.9729,37.4709,11.4428],[-6.9607,37.4691,65.9566],[-6.9491,37.4644,112.7815],[-6.9477,37.4656,118.9991],[-6.9284,37.4632,123.8206],[-6.915,37.4585,128.9992],[-6.903,37.4493,128.2128],[-6.8886,37.4419,118.8348],[-6.8813,37.4407,116.5317],[-6.8751,37.4373,117.3988],[-6.8671,37.4301,107.5084],[-6.8626,37.4225,97.7146],[-6.8557,37.4185,72.7964],[-6.8568,37.4119,64.3192],[-6.8549,37.407,60.8832],[-6.8555,37.4028,57.6567],[-6.8587,37.3966,53.5037],[-6.8628,37.3943,64.9022],[-6.8658,37.3878,51.9814],[-6.8647,37.3802,48.1918],[-6.8699,37.3744,36.6665],[-6.8749,37.3735,35.8132],[-6.8767,37.37,43.6776],[-6.8839,37.3676,31.9758],[-6.8872,37.3684,31.5998],[-6.889,37.3663,32.588],[-6.8957,37.3671,29.9475],[-6.8986,37.3649,30.5317],[-6.8995,37.3665,27.6528],[-6.9031,37.3651,27.7489],[-6.9056,37.3661,25.3698],[-6.9008,37.3597,53.2642],[-6.8924,37.3549,63.0816],[-6.8873,37.3457,43.5399],[-6.8666,37.3237,12.004],[-6.8635,37.3171,7.7922],[-6.8555,37.3107,9.6624],[-6.8529,37.3044,0.817],[-6.8462,37.304,1.1438],[-6.8417,37.2963,0.6961],[-6.829,37.3011,0.5035],[-6.8259,37.3033,0.2063],[-6.8227,37.3104,1.4177],[-6.8191,37.312,1.348],[-6.8131,37.3099,1.2468],[-6.8044,37.3095,1.3389],[-6.8024,37.3045,2.3323],[-6.8003,37.3049,2.247],[-6.7977,37.3085,4.8778],[-6.7857,37.3105,2.958],[-6.7781,37.3063,3.2394],[-6.7779,37.3042,3.9771],[-6.7739,37.3028,5.9753],[-6.7668,37.3084,6.0479],[-6.762,37.308,4.783],[-6.7565,37.3099,6.5311],[-6.7492,37.317,6.3488],[-6.7266,37.3284,7.3029],[-6.7228,37.3288,8.8146],[-6.7099,37.3126,98.1789],[-6.7074,37.3041,89.3483],[-6.7018,37.2986,125.0137],[-6.6977,37.2967,122.5276],[-6.6988,37.2946,120.7493],[-6.6975,37.2912,116.2471],[-6.6987,37.2887,113.0866],[-6.7012,37.2878,112.8585],[-6.6998,37.2861,111.9912],[-6.7022,37.2818,107.3815],[-6.7001,37.279,106.6982],[-6.715,37.2506,97.6124],[-6.7055,37.2424,90.1304],[-6.7428,37.2112,53.7943],[-6.7343,37.2069,51.4616],[-6.7318,37.2039,50.9321],[-6.7308,37.1991,48.673]]],
[[[-6.8529,37.304,0.817],[-6.8529,37.3044,0.817],[-6.8533,37.304,0.817],[-6.8529,37.304,0.817]]]]}
,"properties": {"GID_3": "ESP.1.5.6_1","GID_0": "ESP","country": "Spain","GID_1": "ESP.1_1","province": "Andalucía","NL_NAME_1": "NA","GID_2": "ESP.1.5_1","county": "Huelva","NL_NAME_2": "NA","city": "n.a.(138)","VARNAME_3": "NA","NL_NAME_3": "NA","TYPE_3": "Comarca","ENGTYPE_3": "Comarca","CC_3": "NA","HASC_3": "NA","name": "n.a.(138).city","area_km2": 1246.0853,"hist_schema_id": "Elevation0-9000","hist_area_km2": {"0": 27.5172,"25": 63.8073,"50": 122.593,"75": 181.4607,"100": 218.9144,"125": 197.9058,"150": 167.2472,"175": 106.8248,"200": 53.8624,"225": 33.6219,"250": 18.733,"275": 11.5835,"300": 9.9176,"325": 7.5966,"350": 7.6295,"375": 7.0073,"400": 7.0906,"425": 2.7388,"450": 0.0336}}}