{"type":"Feature","properties":{"GID_3":"ESP.13.1.5_1","GID_0":"ESP","country":"Spain","GID_1":"ESP.13_1","province":"IslasBaleares","NL_NAME_1":"NA","GID_2":"ESP.13.1_1","county":"Baleares","NL_NAME_2":"NA","city":"n.a.(55)","VARNAME_3":"NA","NL_NAME_3":"NA","TYPE_3":"Comarca","ENGTYPE_3":"Comarca","CC_3":"NA","HASC_3":"NA","name":"n.a.(55).city"},
"geometry":{"type": "MultiPolygon","coordinates": [[[[3.079,39.4987,94.2331],[3.0621,39.4745,85.6268],[3.057,39.4723,90.3374],[3.0511,39.4763,91.4582],[3.0304,39.4669,114.3568],[3.0227,39.4668,74.5698],[3.0172,39.471,87.2269],[3.0053,39.4612,69.5466],[2.9973,39.4649,77.7665],[2.9881,39.4602,80.3709],[2.9627,39.4624,89.8317],[2.9581,39.4803,242.2178],[2.9698,39.4836,134.6085],[2.9765,39.4935,190.559],[2.9642,39.4968,167.5695],[2.9674,39.5007,178.1439],[2.9625,39.505,216.1548],[2.9749,39.5182,248.0139],[2.9646,39.5243,288.6481],[2.9436,39.5302,289.7137],[2.9326,39.5254,492.9944],[2.9294,39.5193,361.319],[2.9204,39.5167,361.2554],[2.9106,39.5206,271.7006],[2.9028,39.5185,256.9023],[2.8643,39.5319,205.3508],[2.8308,39.5511,144.5937],[2.8137,39.5432,127.6317],[2.786,39.5239,73.9499],[2.7756,39.5104,47.0301],[2.7513,39.5009,1.6832],[2.7505,39.5026,0.2841],[2.7462,39.5026,0.0],[2.7449,39.5001,0.0],[2.7474,39.4985,6.2046],[2.7376,39.4932,0.0],[2.7349,39.4843,5.8248],[2.7257,39.4796,16.849],[2.7218,39.4754,0.0],[2.7299,39.4629,9.5267],[2.7399,39.4538,21.4472],[2.7435,39.4451,0.3156],[2.7465,39.4421,21.0849],[2.7476,39.4374,0.0],[2.7454,39.4349,0.0],[2.7462,39.4324,75.518],[2.7435,39.429,0.0],[2.7393,39.4174,0.0],[2.7396,39.4104,0.0],[2.7415,39.4065,0.0],[2.7524,39.3932,27.3057],[2.7715,39.3821,33.3351],[2.7737,39.3793,31.3946],[2.7732,39.3768,2.8],[2.7857,39.3679,37.8937],[2.7849,39.3651,0.0],[2.7871,39.3626,0.0],[2.791,39.3618,0.0],[2.799,39.3632,7.5808],[2.8063,39.3668,7.3505],[2.8174,39.3579,0.0],[2.8296,39.3557,6.4259],[2.8343,39.3613,8.4298],[2.8438,39.3654,0.0],[2.8515,39.3654,0.0],[2.8551,39.3624,0.0],[2.876,39.3624,0.0],[2.8818,39.3657,15.7465],[2.8896,39.3635,0.0],[2.8924,39.3607,3.6673],[2.8982,39.3604,0.0],[2.8996,39.3579,0.0],[2.9079,39.3565,0.0],[2.9085,39.3532,0.0],[2.9137,39.3524,0.9423],[2.9146,39.3585,4.0808],[2.919,39.3585,0.0],[2.9204,39.3596,0.0],[2.9193,39.3613,0.5641],[2.929,39.364,1.8058],[2.9385,39.364,4.2771],[2.9518,39.3596,0.0],[2.9574,39.3635,1.4035],[2.9657,39.359,2.2181],[2.9682,39.3549,0.0],[2.9721,39.3524,0.6577],[2.9774,39.3521,4.9789],[2.9915,39.3365,2.8095],[2.9921,39.3318,2.8848],[2.9899,39.3293,1.1011],[2.9904,39.3268,3.855],[2.9837,39.324,0.0],[2.9837,39.3215,0.2335],[2.9865,39.3199,0.0],[2.9851,39.3185,0.3831],[2.986,39.3157,0.0],[2.9932,39.3146,2.0804],[2.9921,39.3124,0.0],[2.9946,39.3121,1.6785],[2.9993,39.3151,0.0],[2.9985,39.3174,2.188],[3.0035,39.3171,1.7986],[3.0051,39.3146,0.0],[3.0035,39.3124,0.0],[3.006,39.3112,0.0],[3.0099,39.3121,2.9546],[3.0104,39.3104,0.0],[3.014,39.3101,4.0136],[3.0154,39.3071,2.1072],[3.0204,39.3032,1.8564],[3.0174,39.2993,0.0],[3.0174,39.2951,0.0],[3.0243,39.2882,0.2648],[3.0307,39.2893,1.6887],[3.0279,39.286,0.0],[3.0296,39.2829,0.0],[3.0376,39.2796,0.0],[3.0421,39.2799,0.69],[3.0443,39.2771,1.1939],[3.0429,39.2732,0.5677],[3.0482,39.2665,0.0],[3.0557,39.264,1.6066],[3.0649,39.2651,0.0],[3.0732,39.2682,0.0],[3.0918,39.2865,0.0],[3.0918,39.2885,0.0],[3.094,39.2882,0.0],[3.0962,39.2921,17.1601],[3.1007,39.2938,11.0026],[3.1049,39.3001,0.0],[3.1104,39.3018,0.0],[3.1107,39.3043,0.0],[3.1179,39.3115,4.6115],[3.1212,39.3115,0.0],[3.1243,39.3151,0.0],[3.1312,39.3132,0.0],[3.1376,39.3162,0.0],[3.1424,39.3199,0.0],[3.1415,39.3249,0.0],[3.1454,39.3254,0.0],[3.1471,39.3282,0.0],[3.1485,39.3265,0.0],[3.1693,39.3257,9.3381],[3.1737,39.3274,3.2393],[3.1732,39.3299,0.0],[3.1774,39.3288,8.0406],[3.1801,39.3307,17.9252],[3.179,39.3335,16.059],[3.1801,39.3346,22.2956],[3.1868,39.3346,0.0],[3.1896,39.3382,6.3768],[3.1885,39.3407,5.3613],[3.1924,39.3462,4.3083],[3.1857,39.3501,2.3777],[3.1879,39.3512,8.4518],[3.1888,39.3499,0.0],[3.1913,39.3499,0.0],[3.1915,39.3512,0.0],[3.2015,39.3504,0.0],[3.2154,39.3543,0.0],[3.2154,39.3563,0.0],[3.2093,39.3568,1.5819],[3.2118,39.3574,0.0],[3.2113,39.3621,2.6052],[3.2157,39.3615,14.6043],[3.2151,39.3582,0.0],[3.2201,39.3585,5.7265],[3.2201,39.3565,0.0],[3.2243,39.3565,0.0],[3.2251,39.3593,18.3277],[3.2262,39.3582,0.0],[3.2299,39.359,0.0],[3.2354,39.3665,0.0],[3.2346,39.3676,0.0],[3.2285,39.3674,2.2551],[3.2335,39.3688,6.1995],[3.234,39.3715,2.8473],[3.2376,39.369,1.5278],[3.2407,39.3729,0.0],[3.2401,39.3749,0.0],[3.2449,39.3774,0.0],[3.2493,39.3854,5.7673],[3.2476,39.3865,4.1945],[3.2501,39.3871,18.2301],[3.2507,39.3901,8.8129],[3.2526,39.3913,0.0],[3.2512,39.3929,5.3166],[3.2551,39.3949,0.0],[3.2543,39.4007,9.0604],[3.2632,39.4085,0.0],[3.2615,39.4099,1.3176],[3.2643,39.4104,0.0],[3.2679,39.4149,3.3404],[3.2685,39.4165,9.1318],[3.266,39.4174,0.0],[3.2635,39.4154,7.6682],[3.2596,39.416,3.5765],[3.2593,39.4179,5.6198],[3.2624,39.4188,1.531],[3.2626,39.4246,0.0],[3.2674,39.4257,2.6403],[3.2682,39.4196,0.0],[3.271,39.4196,14.13],[3.2699,39.4185,3.3034],[3.2704,39.4135,0.0],[3.2749,39.4151,5.511],[3.2774,39.4226,0.0],[3.2768,39.4265,15.9584],[3.2729,39.4285,2.9256],[3.2765,39.4318,12.5949],[3.2776,39.4386,0.0],[3.2244,39.4545,102.7081],[3.2058,39.463,162.9231],[3.2166,39.4748,120.1029],[3.2033,39.4828,126.4865],[3.1933,39.5007,181.0651],[3.1751,39.5007,126.5391],[3.1695,39.504,100.5984],[3.1703,39.5093,105.5965],[3.1625,39.5121,90.3493],[3.1641,39.5146,89.6633],[3.1592,39.5183,80.3553],[3.1552,39.5168,76.9317],[3.1523,39.5195,74.5455],[3.1474,39.5168,75.0777],[3.1496,39.5144,76.6053],[3.1471,39.5119,76.4645],[3.1386,39.5189,70.3059],[3.1394,39.5219,71.9152],[3.1327,39.5206,68.3733],[3.132,39.5255,69.5755],[3.1276,39.5253,67.9973],[3.125,39.5291,71.4751],[3.1059,39.534,92.3741],[3.0982,39.5332,93.516],[3.0882,39.5153,90.8136],[3.1116,39.4966,73.0213],[3.1091,39.4923,73.8143],[3.1032,39.4915,76.6418],[3.079,39.4987,94.2331]]],
[[[3.0115,39.3049,3.23],[3.0101,39.3057,0.0],[3.0087,39.3043,0.0],[3.0124,39.3032,0.0],[3.0129,39.3049,1.6541],[3.0115,39.3049,3.23]]],
[[[2.9846,39.3257,0.0],[2.9818,39.326,0.0],[2.9815,39.3249,0.0],[2.9837,39.3249,0.0],[2.9846,39.3257,0.0]]]]}}