{"type": "Feature","bbox": [-6.9316,40.7771,-6.1521,41.2942],"geometry": {"type": "MultiPolygon","coordinates": [[[[-6.5189,40.8082,792.5401],[-6.4931,40.7897,791.8121],[-6.4737,40.7857,794.4465],[-6.4697,40.8069,780.043],[-6.4621,40.8073,787.5187],[-6.4566,40.8116,793.3533],[-6.4381,40.82,791.8412],[-6.4248,40.825,728.8303],[-6.4188,40.8252,700.271],[-6.4211,40.8275,704.2618],[-6.4233,40.8371,697.5956],[-6.4277,40.8392,693.0538],[-6.4325,40.8504,692.7824],[-6.4302,40.8504,706.3435],[-6.418,40.8426,755.4874],[-6.4093,40.8335,778.1434],[-6.4011,40.8283,787.1174],[-6.3871,40.8257,779.0183],[-6.3785,40.8411,746.983],[-6.3702,40.8447,761.2854],[-6.36,40.8535,764.4587],[-6.346,40.8595,753.7347],[-6.3318,40.8564,755.8314],[-6.3229,40.8517,745.2692],[-6.3202,40.8482,756.3992],[-6.3182,40.8279,777.736],[-6.3114,40.8226,776.2044],[-6.3045,40.8235,769.3059],[-6.3008,40.8265,760.2647],[-6.2982,40.8265,766.456],[-6.3,40.8206,770.129],[-6.2774,40.8199,760.072],[-6.2699,40.8214,765.2706],[-6.2718,40.8395,765.6254],[-6.278,40.8543,782.6907],[-6.2809,40.8571,785.7477],[-6.2912,40.8589,764.0177],[-6.2932,40.8752,750.1022],[-6.2913,40.8897,725.2031],[-6.2843,40.8857,725.852],[-6.2751,40.8857,727.8812],[-6.2718,40.882,729.6371],[-6.2526,40.8846,732.0081],[-6.2526,40.8881,733.3643],[-6.2462,40.8885,746.1162],[-6.2419,40.8916,740.8551],[-6.243,40.8936,737.1704],[-6.2371,40.8978,741.8001],[-6.2369,40.9007,738.7988],[-6.2313,40.9043,741.3879],[-6.2262,40.9164,743.6987],[-6.2164,40.9158,771.3631],[-6.2111,40.9186,794.8715],[-6.2025,40.9273,789.678],[-6.1876,40.9366,843.995],[-6.1838,40.9358,847.1768],[-6.1763,40.9383,845.159],[-6.1716,40.9434,817.5477],[-6.1652,40.9466,816.2866],[-6.1521,40.9674,837.7159],[-6.1595,40.9701,814.183],[-6.1633,40.9739,788.5611],[-6.1729,40.9759,791.798],[-6.1785,40.9813,804.5526],[-6.1897,40.9815,816.338],[-6.1899,40.991,830.4326],[-6.1927,40.9968,833.6474],[-6.1915,41.0018,823.871],[-6.195,41.0083,816.0204],[-6.1945,41.0131,819.3453],[-6.19,41.0202,824.5557],[-6.1926,41.0247,837.4396],[-6.1765,41.0321,848.3045],[-6.1771,41.0332,848.3045],[-6.1717,41.0326,837.1479],[-6.1696,41.0396,807.9069],[-6.1652,41.0439,806.0024],[-6.1579,41.0579,799.4263],[-6.1659,41.066,774.6711],[-6.1711,41.0669,771.0623],[-6.1884,41.0655,773.765],[-6.2017,41.061,795.2474],[-6.2121,41.0554,848.1857],[-6.2145,41.056399999999996,847.0626],[-6.2225,41.0692,837.1302],[-6.2258,41.0714,838.7945],[-6.2215,41.0819,824.9078],[-6.2144,41.0864,831.9484],[-6.2099,41.0919,821.377],[-6.2012,41.0947,805.9329],[-6.1888,41.1053,779.7214],[-6.1933,41.1129,802.6207],[-6.2294,41.121,802.0076],[-6.2451,41.1215,828.705],[-6.2633,41.1392,809.1318],[-6.2683,41.1489,800.9631],[-6.2574,41.1637,758.0651],[-6.2612,41.1686,778.5892],[-6.2585,41.1729,768.8553],[-6.2609,41.1797,763.0499],[-6.2596,41.1817,765.1107],[-6.2611,41.1833,763.474],[-6.2606,41.1886,768.6404],[-6.2699,41.1884,765.8015],[-6.2826,41.1919,764.8108],[-6.2952,41.1999,740.415],[-6.3056,41.2019,717.0],[-6.3131,41.207,734.548],[-6.3138,41.2097,725.3923],[-6.311,41.2175,732.6077],[-6.2971,41.225,717.0],[-6.292,41.231,717.0],[-6.293,41.2363,717.0],[-6.288,41.2448,717.0],[-6.2884,41.2547,717.0],[-6.2988,41.2573,717.0],[-6.3012,41.2599,717.0],[-6.3113,41.2634,717.0],[-6.3176,41.2709,717.0],[-6.325,41.2683,657.8685],[-6.3348,41.2716,645.6813],[-6.3475,41.2727,530.4623],[-6.3486,41.2755,510.7596],[-6.3537,41.2786,538.1642],[-6.3635,41.2816,481.3032],[-6.3658,41.2846,460.901],[-6.3721,41.2863,442.1022],[-6.3825,41.2857,446.5556],[-6.3912,41.2789,428.6287],[-6.4146,41.276,392.8934],[-6.4138,41.2809,395.1872],[-6.4168,41.2828,399.3831],[-6.4214,41.2825,434.0034],[-6.4237,41.2797,377.4167],[-6.439,41.2839,439.6352],[-6.4452,41.2839,386.143],[-6.4542,41.2921,397.9601],[-6.4652,41.2862,356.8812],[-6.4774,41.2876,347.5934],[-6.4789,41.2884,348.9693],[-6.4796,41.2942,330.7272],[-6.4885,41.2901,351.3091],[-6.4915,41.2853,386.8224],[-6.4786,41.2769,334.4521],[-6.4804,41.2735,386.2579],[-6.4987,41.2652,360.025],[-6.5097,41.264,339.3379],[-6.5128,41.2653,358.1754],[-6.5174,41.2745,347.6258],[-6.5226,41.2756,335.4281],[-6.5249,41.2711,340.0027],[-6.5303,41.2669,338.6088],[-6.5471,41.258,344.6706],[-6.5516,41.2456,334.4733],[-6.567,41.2426,328.5942],[-6.5713,41.239,349.7206],[-6.5797,41.2389,330.1393],[-6.5846,41.241,325.0],[-6.5869,41.246,330.0345],[-6.5866,41.2524,333.4493],[-6.5916,41.2552,357.1359],[-6.5952,41.2529,325.0],[-6.5967,41.2459,358.0818],[-6.5998,41.2435,342.164],[-6.6072,41.2494,324.5],[-6.6203,41.2476,324.0],[-6.6287,41.2428,324.0],[-6.6358,41.2441,324.0],[-6.6419,41.2479,324.0],[-6.6479,41.2478,324.0],[-6.6529,41.2353,328.2771],[-6.6613,41.2333,326.7477],[-6.6714,41.2232,324.0],[-6.6795,41.2199,324.0],[-6.6849,41.2122,333.0202],[-6.6914,41.2096,220.6512],[-6.6915,41.207,197.125],[-6.6883,41.2027,195.25],[-6.6906,41.1959,218.3909],[-6.6923,41.1931,207.5486],[-6.6995,41.1924,194.394],[-6.6967,41.1887,195.2692],[-6.6975,41.1846,196.9727],[-6.7004,41.181,200.9321],[-6.7084,41.177,217.3334],[-6.7091,41.1726,197.015],[-6.7197,41.1658,236.4082],[-6.7309,41.1615,189.5],[-6.7374,41.155,232.4886],[-6.7413,41.1483,192.5508],[-6.7455,41.147,225.9548],[-6.7527,41.1405,203.265],[-6.7588,41.1397,189.5],[-6.7679,41.1348,189.5],[-6.7711,41.1301,189.5],[-6.7707,41.124,198.2834],[-6.7613,41.1139,194.3837],[-6.7596,41.1078,189.0],[-6.7542,41.104,189.0],[-6.7587,41.0978,189.0],[-6.7626,41.0958,189.0],[-6.7634,41.092,189.0],[-6.7692,41.0885,189.0],[-6.7743,41.0771,188.125],[-6.7908,41.0565,186.625],[-6.809,41.0447,127.4174],[-6.8076,41.0398,158.9805],[-6.8089,41.0365,125.0],[-6.8338,41.0285,142.2317],[-6.8685,41.0269,137.0315],[-6.8799,41.0282,132.0932],[-6.9161,41.0384,127.421],[-6.9313,41.0294,124.0],[-6.9296,41.0238,140.193],[-6.9316,41.0168,147.1426],[-6.9246,41.011,130.2848],[-6.9216,41.0025,164.8578],[-6.9088,40.9989,165.5008],[-6.9035,40.9897,140.1573],[-6.8904,40.9811,149.0605],[-6.8891,40.9761,155.0633],[-6.8788,40.9663,175.2034],[-6.8755,40.9609,170.3906],[-6.8669,40.9576,204.4761],[-6.8591,40.9497,224.6042],[-6.8524,40.9364,204.5625],[-6.8532,40.9312,204.2195],[-6.8476,40.9246,212.0636],[-6.8488,40.9228,218.4806],[-6.8473,40.9179,228.837],[-6.849,40.9142,233.417],[-6.8491,40.9028,282.2681],[-6.8427,40.8975,366.8409],[-6.8385,40.8905,286.6401],[-6.8289,40.8849,330.6434],[-6.8225,40.8849,319.0129],[-6.82,40.881,317.6129],[-6.809,40.8824,332.4479],[-6.8047,40.8707,343.9172],[-6.8052,40.8652,345.884],[-6.7995,40.8564,353.6863],[-6.787,40.8515,351.7789],[-6.7747,40.8423,375.1164],[-6.7642,40.8418,378.7771],[-6.7513,40.8382,366.7848],[-6.7479,40.8269,403.935],[-6.7383,40.8231,436.9313],[-6.7349,40.8161,446.2612],[-6.7357,40.8097,458.5285],[-6.7305,40.8031,451.2177],[-6.7222,40.8016,473.4126],[-6.7221,40.7984,475.3948],[-6.7184,40.7965,526.2188],[-6.7189,40.7927,535.6133],[-6.7129,40.7855,520.8569],[-6.6991,40.7782,511.1113],[-6.6851,40.7771,560.5157],[-6.677,40.7798,524.3083],[-6.673,40.7841,522.134],[-6.6695,40.785,538.8857],[-6.6678,40.7807,535.8709],[-6.6625,40.7856,626.8936],[-6.6588,40.7858,639.2845],[-6.6516,40.7802,659.5974],[-6.6366,40.7796,672.6255],[-6.6326,40.7811,676.2831],[-6.6334,40.7859,687.777],[-6.6268,40.7919,723.8944],[-6.6193,40.7931,747.105],[-6.6181,40.797,740.026],[-6.6138,40.8003,748.0865],[-6.5962,40.7858,759.796],[-6.592,40.7843,775.8464],[-6.5787,40.7829,780.409],[-6.5638,40.7847,784.1776],[-6.5574,40.783,780.6392],[-6.5513,40.7941,750.9786],[-6.5574,40.7951,747.9272],[-6.561,40.7996,746.0079],[-6.5517,40.7966,767.4796],[-6.5484,40.7971,783.9352],[-6.5467,40.801,785.5563],[-6.5493,40.8048,782.7546],[-6.5465,40.8069,785.1011],[-6.5447,40.8127,785.6011],[-6.5549,40.8183,797.5243],[-6.5569,40.8225,778.2173],[-6.5496,40.8205,786.9222],[-6.5446,40.824,777.6459],[-6.535,40.8175,773.6432],[-6.5287,40.8159,776.0507],[-6.5213,40.8167,797.1547],[-6.5189,40.8082,792.5401]]]]}
,"properties": {"GID_3": "ESP.5.5.5_1","GID_0": "ESP","country": "Spain","GID_1": "ESP.5_1","province": "CastillayLeón","NL_NAME_1": "NA","GID_2": "ESP.5.5_1","county": "Salamanca","NL_NAME_2": "NA","city": "n.a.(216)","VARNAME_3": "NA","NL_NAME_3": "NA","TYPE_3": "Comarca","ENGTYPE_3": "Comarca","CC_3": "NA","HASC_3": "NA","name": "n.a.(216).city","area_km2": 2347.921,"hist_schema_id": "Elevation0-9000","hist_area_km2": {"125": 1.36,"150": 1.696,"175": 2.927,"200": 6.969,"225": 4.781,"250": 4.989,"275": 5.677,"300": 5.709,"325": 8.66,"350": 8.488,"375": 9.783,"400": 11.206,"425": 12.87,"450": 13.702,"475": 15.526,"500": 19.782,"525": 26.006,"550": 35.511,"575": 43.344,"600": 60.421,"625": 78.765,"650": 108.508,"675": 178.185,"700": 278.087,"725": 393.871,"750": 397.742,"775": 321.593,"800": 197.643,"825": 78.697,"850": 15.23,"875": 0.192}}}