{"type":"Feature","properties":{"ISO3166-1-Alpha-3":"ESP","country":"Spain","fill":"#FF0","id":"5846","name":"Tarragona"},
"geometry":{"type": "Polygon","coordinates": [[[1.62436,41.19217,4.2998],[1.62783,41.21798,97.5288],[1.62423,41.22317,154.1716],[1.61724,41.22592,155.4268],[1.58424,41.22884,112.7293],[1.57393,41.23435,83.4011],[1.57468,41.24525,90.7786],[1.57896,41.24921,102.716],[1.6055,41.25897,141.8799],[1.61216,41.26479,137.2595],[1.6155,41.2724,126.7162],[1.61394,41.28179,138.0345],[1.6086,41.28849,149.9846],[1.58608,41.30103,183.0684],[1.56606,41.33411,359.9296],[1.56345,41.35825,378.9405],[1.55963,41.36626,464.2462],[1.53682,41.38524,658.0939],[1.48527,41.40752,729.827],[1.47187,41.42664,742.427],[1.48096,41.45412,735.3947],[1.48277,41.4766,580.227],[1.45897,41.49063,720.3695],[1.40472,41.50668,679.5179],[1.39742,41.52125,618.6757],[1.42766,41.5524,783.0129],[1.43662,41.56666,700.2961],[1.43111,41.57396,633.7605],[1.41841,41.57612,691.6339],[1.39268,41.57503,767.6526],[1.37176,41.56542,702.6644],[1.2078,41.57233,606.0217],[1.20101,41.5704,605.3667],[1.19462,41.56647,568.1215],[1.178,41.54452,617.9043],[1.16913,41.51843,714.2008],[1.17023,41.49542,752.6448],[1.1675,41.48657,720.2214],[1.15739,41.48025,681.1718],[1.13037,41.47322,717.3386],[1.11718,41.47255,784.4514],[1.07302,41.48273,586.2789],[1.06511,41.48083,546.1192],[1.06256,41.47524,626.213],[1.06337,41.45896,601.0746],[1.06203,41.45163,679.2673],[1.04551,41.42668,598.5231],[1.02367,41.40627,574.676],[0.98946,41.39831,597.5189],[0.98192,41.39179,647.8229],[0.96887,41.36442,754.7067],[0.95769,41.35451,999.5861],[0.87904,41.34201,890.4424],[0.86872,41.34351,772.9852],[0.84292,41.35758,645.243],[0.83352,41.35849,582.3977],[0.82745,41.35606,621.9825],[0.82365,41.35195,653.6984],[0.81779,41.34117,679.812],[0.80498,41.33134,729.9512],[0.75848,41.33126,685.23],[0.73644,41.3184,500.4043],[0.62076,41.29867,265.3831],[0.59595,41.30337,234.647],[0.57029,41.32083,261.5912],[0.56187,41.32391,310.8123],[0.55345,41.32193,255.3776],[0.54741,41.31567,256.4445],[0.53891,41.30001,176.802],[0.53137,41.29283,215.6171],[0.52093,41.28892,253.4545],[0.50977,41.28849,242.2102],[0.50002,41.29177,278.1931],[0.49162,41.29961,233.2142],[0.47281,41.32826,367.7813],[0.46414,41.33338,368.009],[0.45445,41.3346,368.8521],[0.44524,41.33178,347.6589],[0.43805,41.32476,345.2058],[0.43318,41.27611,465.1496],[0.3858,41.27886,394.6511],[0.36037,41.23283,96.8358],[0.35784,41.23053,110.9036],[0.34792,41.22575,84.5348],[0.33644,41.22157,80.4815],[0.3211,41.21392,232.7063],[0.31335,41.20689,266.1549],[0.30885,41.19929,287.9127],[0.30699,41.19201,280.2567],[0.30652,41.18353,310.9599],[0.29965,41.16488,308.5512],[0.29314,41.15826,314.7046],[0.28508,41.15317,333.323],[0.27624,41.15,259.2381],[0.25841,41.14643,313.5751],[0.25221,41.14152,329.7137],[0.24849,41.1362,310.0937],[0.24239,41.13204,296.4133],[0.23371,41.13033,268.283],[0.22441,41.13018,231.3803],[0.21371,41.12576,222.3429],[0.20891,41.11961,237.6411],[0.20658,41.11178,228.5861],[0.20519,41.10426,233.0965],[0.20534,41.09687,286.3124],[0.20813,41.08943,243.2491],[0.21247,41.08416,250.5572],[0.2165,41.07062,272.7643],[0.22782,41.04318,331.1309],[0.24332,41.03331,383.3372],[0.25795,41.02845,368.2527],[0.27423,41.01889,345.463],[0.28973,40.98246,468.354],[0.28554,40.95931,404.7156],[0.28012,40.95187,404.8074],[0.27593,40.94226,430.5509],[0.2643,40.92872,440.3549],[0.26043,40.9221,463.6377],[0.25826,40.91471,478.8303],[0.25454,40.90681,490.0742],[0.25175,40.89859,475.5874],[0.24958,40.88856,539.7312],[0.25578,40.87358,525.6248],[0.25748,40.86567,568.5928],[0.25795,40.85552,745.3822],[0.26151,40.84712,747.853],[0.2719,40.82921,725.0304],[0.27128,40.82138,882.6483],[0.26725,40.81428,1174.7502],[0.26198,40.80779,1041.5281],[0.2427,40.79074,1090.4619],[0.23418,40.77746,1180.261],[0.22736,40.77172,911.9152],[0.17273,40.74713,996.2235],[0.16746,40.7432,1207.1704],[0.17304,40.7309,1269.0316],[0.19899,40.72718,1213.5325],[0.21929,40.73054,1246.0265],[0.22379,40.72607,1114.4562],[0.22674,40.71943,922.3268],[0.23216,40.71168,753.7293],[0.24379,40.70305,855.3566],[0.2657,40.69788,964.231],[0.27826,40.69157,943.8198],[0.28771,40.68382,804.2046],[0.28601,40.67731,806.4422],[0.28105,40.67142,751.2837],[0.27702,40.66364,515.6802],[0.27624,40.65431,417.6102],[0.28384,40.63972,367.4921],[0.29314,40.63215,350.9931],[0.3166,40.62259,301.0512],[0.3875,40.60375,199.9776],[0.4184,40.59083,163.0046],[0.42988,40.5844,140.9633],[0.43685,40.57745,131.4969],[0.43685,40.57075,125.7275],[0.44042,40.56305,129.9895],[0.44739,40.55458,133.0225],[0.45608,40.5492,113.3825],[0.51891,40.52895,0.0],[0.52376,40.52616,0.0],[0.54851,40.57233,0.0],[0.56349,40.59003,5.7626],[0.58017,40.60366,0.8596],[0.59978,40.61371,0.0],[0.68222,40.63422,0.0],[0.71249,40.63618,0.0],[0.73268,40.63373,0.0],[0.69622,40.59036,-0.9918],[0.66318,40.57473,-1.2161],[0.64064,40.58686,0.0],[0.59246,40.5821,0.0],[0.6159,40.55345,0.0],[0.64796,40.55691,-0.0079],[0.67709,40.56517,-0.528],[0.70704,40.5834,0.0],[0.75636,40.64224,-0.0232],[0.78403,40.66096,-0.2605],[0.84832,40.67536,0.0],[0.85808,40.68627,0.0],[0.87241,40.7071,-0.8813],[0.87371,40.72793,0.2902],[0.85418,40.73314,0.6981],[0.84181,40.73212,0.0],[0.81593,40.7484,0.0],[0.792,40.77119,0.0],[0.78053,40.77949,-0.6494],[0.76694,40.78502,-0.3234],[0.75017,40.786,-1.4985],[0.76352,40.77839,0.0],[0.76726,40.77102,0.0],[0.76238,40.76606,0.0],[0.75017,40.76557,0.0],[0.72153,40.77428,-0.3225],[0.69483,40.786,-0.3551],[0.7142,40.81521,12.4327],[0.82276,40.8996,1.6948],[0.87745,40.95478,7.0911],[0.99041,41.0397,0.0],[1.01743,41.05178,0.55],[1.05567,41.06489,4.6874],[1.09767,41.07087,6.0813],[1.14169,41.07172,0.0],[1.1491,41.06965,21.7569],[1.17294,41.05866,28.3252],[1.1836,41.06257,0.0],[1.18865,41.0683,0.0],[1.19247,41.076,0.0],[1.21005,41.09988,2.7792],[1.21778,41.10468,3.0749],[1.2881,41.11628,0.0],[1.53924,41.18745,9.1209],[1.62436,41.19217,4.2998]]]}}