{"type":"Feature","properties":{"GID_2":"ESP.6.4_1","GID_0":"ESP","country":"Spain","GID_1":"ESP.6_1","province":"Cataluña","NL_NAME_1":"NA","county":"Tarragona","VARNAME_2":"NA","NL_NAME_2":"NA","TYPE_2":"Provincia","ENGTYPE_2":"Province","CC_2":"43","HASC_2":"ES.CT.TG","name":"Tarragona.county"},
"geometry":{"type": "MultiPolygon","coordinates": [[[[0.449,40.5413,76.3448],[0.4565,40.5403,68.1428],[0.4604,40.5376,64.1723],[0.477,40.532,46.9807],[0.4822,40.5319,40.4121],[0.4871,40.5292,34.6423],[0.4988,40.5279,20.7437],[0.5151,40.523,4.7437],[0.5188,40.5337,0.6874],[0.5224,40.5385,0.0],[0.5226,40.5426,0.7552],[0.5301,40.5507,1.3431],[0.5346,40.5513,0.0],[0.5326,40.554,0.0],[0.5382,40.5671,1.719],[0.5401,40.569,7.4835],[0.5424,40.5687,0.0],[0.5468,40.5737,0.0],[0.551,40.5693,0.0],[0.5568,40.5715,0.0],[0.5549,40.5724,0.0],[0.5512,40.5704,0.0],[0.5529,40.5726,0.0],[0.5496,40.5729,0.0],[0.5485,40.5749,0.9497],[0.561,40.5846,0.0],[0.5649,40.5899,0.7939],[0.5782,40.6001,0.0],[0.5915,40.6138,12.9793],[0.596,40.6138,0.0],[0.5982,40.6113,0.2764],[0.6035,40.6093,0.0],[0.5963,40.6146,0.0],[0.5976,40.6154,0.0],[0.5965,40.6174,0.4521],[0.601,40.6162,0.0],[0.5988,40.6146,0.0],[0.5996,40.6138,0.0],[0.6026,40.6154,0.0],[0.599,40.619,0.3802],[0.6001,40.6201,0.0],[0.6026,40.6193,0.0],[0.601,40.6221,0.5041],[0.6129,40.6232,0.0499],[0.6274,40.6221,-0.2108],[0.6526,40.6246,-0.0436],[0.6529,40.626,0.6077],[0.6568,40.6265,-0.0005],[0.6635,40.6263,-0.0103],[0.6835,40.634,0.0],[0.6832,40.636,-0.1539],[0.6865,40.6349,-0.0357],[0.6926,40.6365,0.0],[0.6929,40.6393,-0.4675],[0.6946,40.6368,0.0],[0.706,40.6376,-0.2582],[0.7088,40.6362,0.0],[0.7146,40.6387,0.0172],[0.7262,40.6393,-0.2464],[0.7443,40.6362,0.01],[0.7396,40.626,0.0],[0.7112,40.5926,-0.1096],[0.6949,40.5893,-0.9918],[0.684,40.5896,-0.0294],[0.6737,40.5932,-0.1819],[0.6693,40.5924,0.0],[0.6774,40.5893,-0.5205],[0.6599,40.5854,-1.5],[0.6651,40.5788,-1.2465],[0.6635,40.5776,-1.0186],[0.6604,40.579,-1.5],[0.6621,40.5776,-1.0186],[0.6607,40.576,-1.5],[0.6576,40.5774,-1.5],[0.6557,40.5874,-1.5],[0.6613,40.5879,-1.5],[0.6613,40.5918,-0.529],[0.6585,40.5913,-0.0161],[0.654,40.5854,-0.1236],[0.6432,40.5838,0.0],[0.6454,40.5821,0.0],[0.6518,40.584,-0.0112],[0.6568,40.5793,-0.7703],[0.6543,40.5785,0.0113],[0.6499,40.5815,-0.1035],[0.6501,40.5776,-0.1289],[0.6468,40.5765,0.0],[0.6435,40.5771,0.0],[0.6421,40.5793,0.0],[0.6415,40.5779,0.0],[0.6443,40.5757,0.0],[0.6432,40.5749,0.0148],[0.6315,40.5782,0.0],[0.6315,40.5812,0.0192],[0.6335,40.5815,0.0],[0.6337,40.5779,-0.0111],[0.6354,40.5774,-0.0878],[0.6363,40.5826,0.0],[0.6282,40.5824,0.0],[0.6182,40.5865,0.0],[0.6168,40.586,0.0],[0.6157,40.5782,0.0],[0.6132,40.5768,-0.0604],[0.6096,40.5782,0.0],[0.6029,40.576,-0.0219],[0.596,40.5765,-0.4059],[0.6035,40.5612,0.2025],[0.6065,40.5607,-0.0791],[0.6124,40.5557,-0.0944],[0.6185,40.554,-0.1898],[0.6343,40.5532,-0.0562],[0.6388,40.5557,-0.1513],[0.6487,40.5554,0.0],[0.6582,40.5574,0.0971],[0.6593,40.5599,-0.0026],[0.6704,40.5604,0.0],[0.6874,40.569,-0.0071],[0.704,40.581,0.0],[0.736,40.621,0.0251],[0.7568,40.6399,0.0],[0.769,40.6474,-0.1499],[0.846,40.6785,0.0],[0.8629,40.6893,0.0],[0.8696,40.696,0.0],[0.8788,40.7157,0.0],[0.879,40.7196,0.0],[0.8743,40.7318,0.0],[0.8688,40.7318,0.0],[0.8615,40.7349,0.0],[0.8435,40.731,0.0],[0.8304,40.7335,0.0],[0.8138,40.7482,-0.0038],[0.7974,40.7646,0.0],[0.7815,40.7835,0.0],[0.7718,40.7915,0.0],[0.7629,40.7938,0.0],[0.7476,40.7938,0.0],[0.7262,40.7901,0.0093],[0.7296,40.786,0.0],[0.7415,40.7865,-0.2042],[0.7826,40.7724,0.1325],[0.7707,40.764,-0.0392],[0.7593,40.7632,0.0275],[0.7335,40.7682,-0.0764],[0.7296,40.7699,-0.0805],[0.7243,40.7762,-0.1068],[0.709,40.786,0.0],[0.7043,40.786,-0.4723],[0.7038,40.7879,-1.0],[0.7054,40.7899,-0.0777],[0.6996,40.8021,0.0],[0.7063,40.8096,8.5061],[0.7115,40.8093,0.0],[0.7149,40.8124,10.23],[0.7237,40.8162,2.2332],[0.7321,40.8176,0.0],[0.7324,40.8213,6.4903],[0.7349,40.8235,0.0],[0.7418,40.8229,1.5009],[0.7426,40.8332,6.4153],[0.7451,40.8385,0.0],[0.7496,40.8399,0.0],[0.7488,40.8429,11.9932],[0.7535,40.8465,1.6688],[0.7635,40.8471,2.3357],[0.7649,40.8524,5.2023],[0.7701,40.8579,2.675],[0.7793,40.8596,0.0],[0.7932,40.8674,4.1494],[0.796,40.8704,0.0],[0.7968,40.8746,0.9849],[0.8021,40.8793,0.1598],[0.8024,40.8771,0.0],[0.8037,40.8771,0.0],[0.8049,40.8826,8.418],[0.814,40.8913,0.0],[0.8168,40.8913,0.0],[0.819,40.896,8.9409],[0.8271,40.9029,0.0],[0.8271,40.906,1.6114],[0.8293,40.9087,0.0],[0.8337,40.9113,0.0],[0.834,40.9132,0.0],[0.8368,40.9137,0.0],[0.8376,40.919,4.954],[0.8418,40.9201,0.0],[0.8482,40.926,12.0071],[0.851,40.9265,0.0],[0.8529,40.9321,19.3075],[0.8579,40.9346,0.0],[0.8571,40.9374,0.0],[0.8626,40.9471,14.5789],[0.8754,40.9512,2.7889],[0.8799,40.9551,0.0],[0.8804,40.9593,4.7656],[0.886,40.9618,0.0],[0.8938,40.9715,4.9256],[0.8988,40.9754,0.0],[0.9035,40.9765,0.0],[0.9079,40.9826,12.1705],[0.9162,40.9893,5.9387],[0.9268,40.989,8.3474],[0.9274,40.9868,0.0],[0.931,40.9882,0.0],[0.9296,40.9904,0.0],[0.9315,40.991,0.0],[0.9374,41.0024,0.0],[0.9496,41.0132,6.4219],[0.9529,41.0182,10.9433],[0.9835,41.039,2.1484],[0.9921,41.0426,1.7756],[1.004,41.0432,0.0],[1.0168,41.0518,0.55],[1.0237,41.0521,2.813],[1.029,41.0557,3.2971],[1.0507,41.0649,2.4723],[1.056,41.0649,4.6874],[1.0621,41.0624,0.0],[1.0596,41.0646,0.6335],[1.0632,41.0651,0.0],[1.0626,41.0604,0.0],[1.0651,41.0629,0.0],[1.0651,41.0651,0.0],[1.0676,41.0662,1.4046],[1.0846,41.064,3.6357],[1.1015,41.0704,1.9948],[1.1232,41.0749,1.5626],[1.1304,41.0749,1.1116],[1.1299,41.0724,0.0],[1.134,41.074,1.7163],[1.144,41.0726,3.392],[1.1443,41.0701,0.0],[1.1482,41.0679,4.5534],[1.1479,41.0654,0.0],[1.1571,41.0646,4.5543],[1.1621,41.059,10.4535],[1.161,41.0557,0.0],[1.1676,41.0565,4.2765],[1.1676,41.0551,0.0],[1.1724,41.0546,0.0],[1.1749,41.0596,7.3182],[1.1818,41.0638,12.8945],[1.1801,41.0668,4.01],[1.1782,41.0671,0.8523],[1.1785,41.0696,1.7095],[1.1904,41.0874,1.4824],[1.1946,41.0907,0.812],[1.1962,41.0913,0.812],[1.2013,41.0854,0.0],[1.2085,41.0815,0.0],[1.2001,41.0879,0.0],[1.1971,41.0924,1.7644],[1.2143,41.1035,2.9998],[1.216,41.1018,2.1053],[1.2143,41.0996,0.8735],[1.2174,41.1004,0.0],[1.2193,41.1037,0.0],[1.2221,41.1037,0.3911],[1.2246,41.0996,0.1222],[1.2282,41.099,0.0],[1.2371,41.1029,0.0],[1.2371,41.106,0.4826],[1.2413,41.1049,0.0],[1.2424,41.1085,0.0],[1.2485,41.1087,1.328],[1.2474,41.106,1.2778],[1.244,41.1063,1.0093],[1.2432,41.1035,1.0745],[1.2324,41.0996,0.0],[1.2318,41.0965,5.9133],[1.2279,41.096,0.0],[1.224,41.091,0.0],[1.226,41.0887,0.7592],[1.2254,41.0874,0.7592],[1.2201,41.0838,0.0],[1.2215,41.0835,0.0],[1.2276,41.0879,0.0],[1.2374,41.1001,9.2304],[1.2407,41.0993,6.9528],[1.2413,41.101,4.095],[1.2479,41.1032,2.1668],[1.2496,41.1068,2.7862],[1.2524,41.1063,0.0],[1.2549,41.1087,0.0],[1.2563,41.1124,6.6159],[1.2618,41.114,5.4118],[1.266,41.1124,0.9928],[1.2713,41.1129,0.0],[1.2749,41.1157,0.0],[1.2746,41.1193,6.2912],[1.2821,41.1196,0.0],[1.2843,41.1226,6.0755],[1.2871,41.1237,1.137],[1.289,41.1226,1.4402],[1.2935,41.1265,1.1782],[1.3007,41.129,6.9546],[1.3218,41.1301,1.1726],[1.3246,41.1274,9.5487],[1.3365,41.1282,0.0],[1.344,41.1246,0.0],[1.3454,41.1279,1.2859],[1.3485,41.1285,0.0],[1.3499,41.1268,0.0],[1.3579,41.1276,0.0],[1.3629,41.1307,3.6977],[1.3737,41.1338,2.6614],[1.3846,41.1343,6.189],[1.3863,41.1321,10.2324],[1.3901,41.1312,0.0],[1.3949,41.1312,0.0],[1.3987,41.1332,0.0],[1.4018,41.1321,0.2531],[1.4054,41.1354,0.0],[1.4021,41.1374,2.3913],[1.4046,41.1407,4.7731],[1.4104,41.1421,4.4001],[1.4374,41.156,1.1679],[1.4415,41.1563,0.4706],[1.4454,41.1593,1.8983],[1.4521,41.1593,0.2949],[1.4657,41.166,2.3879],[1.4726,41.166,1.8312],[1.4787,41.1682,2.6042],[1.4815,41.1674,0.0],[1.4824,41.1693,5.1766],[1.4957,41.1738,6.3484],[1.5082,41.1757,1.7812],[1.5213,41.1799,1.2235],[1.5243,41.1799,0.3618],[1.5251,41.176,0.1257],[1.5265,41.176,0.1538],[1.5276,41.1776,0.0],[1.5254,41.1807,6.7239],[1.5321,41.1821,3.9773],[1.6304,41.1921,2.1484],[1.6452,41.1957,1.9817],[1.6408,41.2038,26.8662],[1.6413,41.2118,79.3559],[1.6466,41.2119,58.4628],[1.6463,41.2086,45.5856],[1.6532,41.2074,31.3394],[1.6479,41.2123,77.4264],[1.6476,41.2165,105.7424],[1.644,41.2204,150.9564],[1.6461,41.2288,131.7001],[1.641,41.2354,166.7097],[1.6341,41.231,176.9126],[1.6311,41.2245,124.1512],[1.6214,41.2232,164.2531],[1.6142,41.226,192.6021],[1.6142,41.2296,212.5654],[1.6026,41.2349,144.2343],[1.5936,41.234,103.3652],[1.5817,41.2372,89.7678],[1.5756,41.2497,101.7469],[1.575,41.2562,114.5432],[1.5702,41.2608,135.4145],[1.5851,41.2575,116.4298],[1.5943,41.259,124.3973],[1.5935,41.258,119.1952],[1.5962,41.2567,127.7489],[1.595,41.2555,123.9834],[1.5992,41.2563,132.6038],[1.597,41.2534,133.928],[1.6025,41.2534,150.0412],[1.606,41.2504,172.2338],[1.6114,41.2506,164.3844],[1.6166,41.2525,184.1928],[1.6177,41.2547,178.8429],[1.6197,41.2537,185.5879],[1.622,41.255,197.8377],[1.621,41.2565,188.9636],[1.6239,41.2626,157.2218],[1.6223,41.2639,134.1915],[1.6229,41.2668,125.8676],[1.6275,41.2696,125.7603],[1.6259,41.273,117.2224],[1.6236,41.2738,118.8816],[1.6238,41.2763,121.7898],[1.62,41.2771,128.85],[1.6292,41.2828,154.4757],[1.6278,41.2947,145.6436],[1.6334,41.2945,144.188],[1.6368,41.296,148.5787],[1.6312,41.2989,155.4871],[1.6278,41.296,155.1569],[1.6249,41.2967,157.9336],[1.6164,41.2931,144.8369],[1.6121,41.2852,146.6902],[1.6089,41.2854,149.046],[1.6074,41.2873,148.1946],[1.6028,41.2868,151.3867],[1.6042,41.289,152.0404],[1.599,41.2893,155.0907],[1.5959,41.2923,162.5225],[1.5882,41.294,162.1296],[1.5957,41.3076,206.2541],[1.595,41.3094,207.9894],[1.5924,41.3116,201.42],[1.5783,41.3159,227.9614],[1.5748,41.3152,254.8406],[1.5737,41.3249,290.4296],[1.5686,41.3305,366.2708],[1.5692,41.3326,402.4799],[1.5658,41.3397,463.0236],[1.5587,41.3432,541.3363],[1.5736,41.3554,343.6564],[1.5788,41.3564,312.2453],[1.578,41.3625,364.1467],[1.5741,41.3633,355.4948],[1.5705,41.3614,372.7086],[1.5694,41.3684,392.8593],[1.563,41.3698,408.972],[1.5598,41.368,469.6344],[1.5522,41.3681,461.663],[1.5468,41.3737,502.0743],[1.5457,41.3792,573.2417],[1.5368,41.3854,658.0939],[1.5311,41.3877,642.9173],[1.5189,41.3888,589.2278],[1.5119,41.3944,770.6748],[1.5093,41.3945,749.9821],[1.5052,41.3915,654.3192],[1.4949,41.39,713.5947],[1.4847,41.3824,702.092],[1.4786,41.3819,643.1919],[1.4775,41.383,645.6426],[1.4731,41.3808,561.3582],[1.4803,41.3879,687.7684],[1.4825,41.3986,660.2141],[1.4902,41.4015,787.2656],[1.485,41.4135,686.7119],[1.4818,41.4167,674.365],[1.4838,41.4222,705.2051],[1.4771,41.4235,729.1795],[1.4751,41.4295,831.3761],[1.4777,41.4332,828.7258],[1.4834,41.4303,826.4118],[1.4912,41.4354,862.2437],[1.4952,41.4356,910.0739],[1.4757,41.4361,794.9842],[1.4685,41.444,757.3722],[1.4832,41.4579,713.4694],[1.4872,41.4663,590.1829],[1.4846,41.4749,579.4586],[1.4796,41.4761,626.6394],[1.4747,41.4795,768.1223],[1.4762,41.4826,782.7927],[1.474,41.4863,829.3605],[1.4656,41.484,870.2418],[1.464,41.4868,839.124],[1.46,41.4883,813.6023],[1.452,41.4864,754.3937],[1.4498,41.4922,646.7373],[1.4461,41.4948,635.4766],[1.437,41.4983,703.7967],[1.4226,41.4997,598.6782],[1.4218,41.5034,610.8405],[1.4188,41.5023,635.58],[1.4153,41.5054,669.0908],[1.408,41.5052,698.5487],[1.4046,41.5066,679.5179],[1.401,41.5121,626.2623],[1.3964,41.5129,605.0718],[1.3988,41.5158,610.4277],[1.3978,41.5194,612.7654],[1.4006,41.5212,650.1067],[1.3996,41.5285,643.6543],[1.4049,41.5308,654.939],[1.4087,41.535,674.077],[1.4256,41.5319,772.8624],[1.4362,41.5393,729.5164],[1.4486,41.5371,733.4682],[1.4493,41.5454,731.8183],[1.4467,41.5524,762.2316],[1.4337,41.5505,767.4359],[1.4311,41.5557,736.7505],[1.4396,41.563,723.8687],[1.4545,41.5692,723.654],[1.4475,41.5738,636.1897],[1.4353,41.5766,644.7021],[1.4332,41.5789,632.4241],[1.4197,41.5826,740.7228],[1.4155,41.5824,776.0194],[1.4122,41.5803,784.3544],[1.4106,41.5755,774.5109],[1.3955,41.5775,766.3442],[1.3929,41.5751,767.6526],[1.3955,41.5673,781.9869],[1.4023,41.5644,795.4816],[1.4035,41.5582,765.4936],[1.3919,41.5565,805.3416],[1.3846,41.5565,815.2573],[1.3805,41.5613,775.6887],[1.3717,41.5654,715.9749],[1.3464,41.568,717.4662],[1.3126,41.569,775.0091],[1.3047,41.5717,772.891],[1.2942,41.5667,776.6788],[1.2728,41.5722,737.5985],[1.2592,41.5675,701.8066],[1.257,41.5718,698.4357],[1.2512,41.5724,681.5029],[1.2516,41.5713,667.9747],[1.2465,41.5706,676.4423],[1.2437,41.5683,676.6005],[1.2345,41.5712,676.2191],[1.232,41.5693,666.5226],[1.2199,41.5696,649.3425],[1.2162,41.5672,639.5372],[1.217,41.5625,544.7631],[1.214,41.5604,613.9504],[1.2133,41.5529,682.4615],[1.2108,41.5486,688.1602],[1.1967,41.5434,666.887],[1.1807,41.5435,663.8542],[1.1679,41.5405,655.1635],[1.1668,41.537,658.0728],[1.1763,41.5338,666.9431],[1.172,41.5327,622.2742],[1.1647,41.5345,579.5082],[1.17,41.531,582.2776],[1.1732,41.5315,587.0012],[1.1714,41.5213,693.4298],[1.1702,41.5189,700.4069],[1.1662,41.5182,715.2206],[1.1647,41.5087,646.375],[1.1676,41.5048,665.0903],[1.1757,41.5016,688.8395],[1.1772,41.4945,710.4569],[1.181,41.4881,758.3383],[1.1758,41.4863,742.3734],[1.1725,41.487,739.8176],[1.155,41.4808,759.2042],[1.1306,41.4769,779.3167],[1.1298,41.4739,737.5983],[1.1197,41.4695,761.6136],[1.1138,41.4689,787.3909],[1.1122,41.467,727.4149],[1.1082,41.4668,741.0645],[1.1055,41.4741,769.7976],[1.094,41.4775,736.6714],[1.0913,41.4761,722.0332],[1.0825,41.4792,679.8165],[1.0784,41.4836,672.0749],[1.065,41.4873,615.0514],[1.0565,41.4936,531.4005],[1.0398,41.5011,472.4535],[1.0373,41.4983,483.2626],[1.0458,41.4913,564.7214],[1.0477,41.4875,575.5126],[1.046,41.4844,549.3135],[1.0374,41.48,572.9602],[1.057,41.4663,641.5692],[1.0722,41.463,685.4475],[1.0752,41.4599,709.0231],[1.0701,41.4557,697.6382],[1.0641,41.4547,668.006],[1.0612,41.4491,679.0604],[1.0624,41.4483,659.8936],[1.0551,41.4423,679.2592],[1.0504,41.4429,659.0126],[1.0465,41.4404,652.7505],[1.0463,41.4371,662.8934],[1.0399,41.4281,602.3095],[1.0378,41.4217,541.5433],[1.0309,41.4213,581.4244],[1.0321,41.4192,548.6243],[1.027,41.4098,513.9538],[1.0156,41.4043,576.1306],[1.0059,41.4059,596.4592],[1.0036,41.4049,595.8854],[1.0011,41.4021,596.299],[1.0037,41.4003,616.1577],[0.9983,41.3991,606.0239],[0.993,41.3938,627.2656],[0.9937,41.3913,638.2065],[0.9917,41.3886,641.584],[0.9817,41.3922,638.114],[0.9795,41.3866,678.1321],[0.9736,41.3818,671.079],[0.9726,41.3742,686.7942],[0.9623,41.3681,723.0125],[0.9631,41.3607,857.7802],[0.9669,41.3596,896.6902],[0.9643,41.3555,964.6249],[0.9518,41.3518,993.8785],[0.9482,41.3522,993.4479],[0.9449,41.35,976.259],[0.9342,41.3504,921.8788],[0.9219,41.3486,871.5389],[0.9118,41.3499,883.5665],[0.9016,41.3476,863.6008],[0.8931,41.3435,823.5281],[0.8721,41.3408,848.468],[0.8633,41.3381,812.4417],[0.8467,41.3549,653.8651],[0.8448,41.362,640.2149],[0.8322,41.3588,630.3789],[0.8195,41.3288,764.9674],[0.813,41.3273,779.3066],[0.802,41.3304,723.5556],[0.7948,41.3287,708.3575],[0.7921,41.3314,704.8049],[0.7613,41.3338,680.3567],[0.7505,41.3248,684.4967],[0.7516,41.3179,631.8402],[0.7422,41.3175,570.0887],[0.7245,41.3128,456.2398],[0.7131,41.3138,414.5639],[0.7066,41.3117,424.6612],[0.6957,41.3136,369.9363],[0.6808,41.3081,330.9483],[0.6777,41.3097,320.6165],[0.6697,41.3096,312.0995],[0.656,41.3013,277.9838],[0.6368,41.2976,238.2272],[0.6291,41.2933,232.2674],[0.6281,41.291,213.6151],[0.6251,41.2922,227.88],[0.6188,41.291,195.0324],[0.6051,41.2918,179.981],[0.6039,41.2936,167.7465],[0.5968,41.2936,150.66],[0.5819,41.3113,332.5223],[0.5808,41.3201,344.8086],[0.5746,41.3185,291.7724],[0.5545,41.3267,332.3387],[0.5456,41.323,355.0254],[0.5419,41.3108,294.8147],[0.5347,41.3022,181.0615],[0.5301,41.3004,204.7552],[0.5252,41.2902,260.8875],[0.518,41.2916,288.3706],[0.5033,41.2898,320.8436],[0.4972,41.3031,287.8211],[0.4923,41.3052,325.5864],[0.4898,41.3103,366.3358],[0.4808,41.3174,363.1547],[0.4799,41.3235,361.7286],[0.4747,41.3251,374.2319],[0.4753,41.3268,372.9839],[0.4711,41.3279,356.1438],[0.4696,41.3308,365.5969],[0.4613,41.3349,377.1565],[0.4563,41.33,395.9424],[0.4515,41.3298,350.0004],[0.4418,41.3256,364.1497],[0.4348,41.3206,390.0014],[0.4323,41.3118,417.3368],[0.436,41.2974,452.9015],[0.4333,41.2875,464.5404],[0.4332,41.2761,465.1496],[0.424,41.2741,470.6489],[0.3857,41.2789,394.6511],[0.3816,41.2736,380.3528],[0.3768,41.2617,333.2468],[0.3779,41.2538,296.8714],[0.3737,41.2494,283.7686],[0.3742,41.2449,191.255],[0.3788,41.2375,68.5],[0.3813,41.2365,68.5],[0.3646,41.2387,68.5],[0.3642,41.2277,68.5],[0.36,41.2255,73.8644],[0.3513,41.2268,68.5],[0.3413,41.2311,134.4618],[0.3384,41.2303,68.5],[0.3313,41.2227,68.5],[0.3224,41.2253,68.5],[0.3189,41.2211,223.1161],[0.3178,41.211,273.1758],[0.3148,41.2071,272.1368],[0.3126,41.1967,303.0362],[0.3098,41.1943,295.971],[0.3083,41.1872,307.7292],[0.306,41.1857,305.9001],[0.305,41.1723,315.5865],[0.3005,41.1669,332.0971],[0.3034,41.1644,323.5678],[0.292,41.1564,332.9823],[0.2731,41.1488,256.7464],[0.253,41.1502,331.4125],[0.256,41.1468,325.1811],[0.2548,41.145,334.6388],[0.2562,41.1437,332.7201],[0.2506,41.1384,334.3619],[0.2518,41.134,340.539],[0.2479,41.1302,346.7351],[0.237,41.1305,275.7726],[0.214,41.1373,211.2703],[0.2129,41.1365,197.5562],[0.2194,41.1344,227.3449],[0.2199,41.1324,203.6614],[0.2013,41.1268,209.385],[0.201,41.1246,210.8287],[0.209,41.1169,226.819],[0.2054,41.1104,236.6161],[0.2064,41.1096,236.6161],[0.2009,41.1027,240.7496],[0.2012,41.0847,246.2581],[0.208,41.0828,253.845],[0.2157,41.0843,251.3364],[0.2201,41.0829,254.3767],[0.2198,41.0792,256.0564],[0.2168,41.0777,262.3768],[0.2204,41.0715,261.0264],[0.2182,41.0629,265.8681],[0.2223,41.0592,269.264],[0.2288,41.0588,293.0255],[0.2302,41.0539,274.9681],[0.2209,41.0498,282.4394],[0.2178,41.0466,284.5186],[0.2178,41.0437,284.3521],[0.2202,41.0417,294.1429],[0.2259,41.0461,289.8351],[0.2331,41.0471,305.8322],[0.2348,41.046,311.2318],[0.2301,41.0398,296.22],[0.2304,41.037,304.6223],[0.2343,41.0346,305.1034],[0.2424,41.0349,311.8094],[0.2435,41.0402,325.1435],[0.2462,41.0413,310.0299],[0.253,41.033,315.1909],[0.2625,41.0267,325.3882],[0.2709,41.026,330.832],[0.2799,41.0198,346.191],[0.2764,41.0181,332.8634],[0.261,41.0189,344.9167],[0.2589,41.0139,344.8521],[0.2645,41.0103,345.778],[0.2706,41.0095,356.1529],[0.2743,41.0072,351.1072],[0.275,41.0053,354.6671],[0.2694,41.0019,353.6884],[0.2685,40.9983,359.0668],[0.2719,40.996,370.2631],[0.2723,40.9935,362.4189],[0.2811,40.9872,403.3088],[0.2824,40.9822,375.0733],[0.2811,40.9749,383.8322],[0.2834,40.9728,384.6301],[0.2894,40.9743,400.6771],[0.2935,40.9706,396.7791],[0.2843,40.9647,422.0361],[0.2854,40.9604,404.7156],[0.281,40.9512,419.2271],[0.276,40.951,440.9589],[0.2761,40.9481,408.3043],[0.2717,40.9448,412.7621],[0.2743,40.9366,421.0627],[0.2674,40.929,437.7567],[0.2606,40.9285,442.9286],[0.2539,40.9197,454.4396],[0.2541,40.9118,462.1766],[0.2488,40.9105,472.9196],[0.2499,40.9073,472.7958],[0.2533,40.9066,473.3708],[0.2496,40.9016,483.8942],[0.2501,40.896,481.274],[0.2459,40.8922,491.405],[0.246,40.8872,513.1525],[0.2413,40.8868,499.0855],[0.239,40.8849,500.6156],[0.2453,40.8805,532.6501],[0.2505,40.8795,525.8368],[0.2518,40.8766,550.2089],[0.2554,40.8746,532.5691],[0.2535,40.8702,530.063],[0.2543,40.8663,542.8808],[0.2517,40.8627,561.4531],[0.2534,40.86,560.8262],[0.2508,40.8563,563.8445],[0.2558,40.8531,568.8886],[0.2552,40.8509,569.3044],[0.2577,40.8485,576.7176],[0.2554,40.8467,588.2632],[0.2587,40.8463,604.5035],[0.26,40.8392,632.7948],[0.2625,40.8388,725.8162],[0.2617,40.8373,611.3322],[0.2666,40.8335,624.8558],[0.2664,40.8315,654.4946],[0.2783,40.8211,874.3154],[0.272,40.8188,1019.7178],[0.2718,40.817,1181.1548],[0.2652,40.8138,1130.2092],[0.2586,40.8046,883.7894],[0.2578,40.8003,748.9964],[0.2499,40.7985,977.2852],[0.2444,40.7921,1066.767],[0.2336,40.787,1209.3113],[0.2329,40.7794,1212.7073],[0.2347,40.7762,1149.4558],[0.2294,40.7712,972.1086],[0.23,40.7675,889.5876],[0.2239,40.7656,880.3981],[0.212,40.7675,1191.7809],[0.2016,40.7576,1124.5536],[0.1963,40.7586,1172.3918],[0.1902,40.7503,1155.9651],[0.185,40.7531,1203.135],[0.1841,40.7556,1175.2152],[0.1813,40.7533,1204.3712],[0.1753,40.755,1174.9534],[0.1763,40.751,1183.7434],[0.174,40.749,1153.2179],[0.1763,40.7438,1122.7006],[0.1754,40.7412,1072.6097],[0.168,40.7448,1096.9967],[0.1646,40.7487,1093.6914],[0.1592,40.7506,1184.8247],[0.1649,40.7433,1241.3702],[0.1632,40.7425,1234.583],[0.1645,40.7401,1234.7638],[0.1675,40.7395,1242.2286],[0.1708,40.7329,1337.5345],[0.1834,40.7282,1182.7103],[0.1911,40.7312,1288.0024],[0.1973,40.7242,1330.9272],[0.2171,40.7326,1264.063],[0.2262,40.7332,1252.7903],[0.2242,40.7257,1114.4562],[0.2275,40.715,904.8785],[0.2348,40.7063,571.7003],[0.236,40.7021,704.516],[0.2419,40.7004,937.9428],[0.2508,40.7046,1096.4733],[0.2619,40.706,1094.8433],[0.2695,40.7034,1057.7583],[0.2769,40.6944,1006.3401],[0.2919,40.6886,886.7307],[0.2924,40.6852,893.1769],[0.2857,40.6792,796.8482],[0.2822,40.6729,758.1711],[0.2753,40.6705,710.582],[0.2683,40.6596,390.8795],[0.2692,40.6479,369.2992],[0.2662,40.6462,354.0631],[0.2662,40.6442,342.9105],[0.271,40.6383,334.8867],[0.2759,40.6369,329.1896],[0.2789,40.6301,319.7288],[0.2923,40.6233,310.5928],[0.2985,40.626,314.6042],[0.3008,40.6226,300.7657],[0.3153,40.6143,284.1018],[0.3185,40.615,280.9163],[0.3453,40.6076,247.9971],[0.3508,40.6082,243.8828],[0.3711,40.6051,219.1929],[0.3748,40.6064,212.809],[0.3892,40.6066,193.2253],[0.3962,40.6025,182.8524],[0.402,40.6024,177.5804],[0.4064,40.5973,169.4358],[0.4046,40.5949,165.5884],[0.4307,40.5797,135.0425],[0.444,40.5782,122.4203],[0.4366,40.5727,128.4769],[0.4384,40.5702,121.3552],[0.4335,40.5654,103.0344],[0.4362,40.5588,96.5547],[0.4359,40.5499,94.3324],[0.438,40.5471,82.5076],[0.4463,40.545,79.5156],[0.449,40.5413,76.3448]]],
[[[0.7315,40.7796,0.0],[0.729,40.7807,0.0],[0.7268,40.7776,0.0],[0.7354,40.7726,0.0],[0.744,40.7715,0.0],[0.7451,40.7726,0.0],[0.7407,40.7743,0.0],[0.7315,40.7796,0.0]]],
[[[1.6076,41.186,0.0],[1.6088,41.186,0.0],[1.6079,41.1882,0.0],[1.6057,41.1868,0.1844],[1.6057,41.1854,0.0],[1.6076,41.186,0.0]]],
[[[1.641,41.3131,154.9238],[1.6333,41.3135,153.3088],[1.629,41.3107,148.6482],[1.6354,41.3095,147.7818],[1.6422,41.3121,151.14],[1.641,41.3131,154.9238]]]]}}