{"type":"Feature","properties":{"GID_2":"ESP.2.2_1","GID_0":"ESP","country":"Spain","GID_1":"ESP.2_1","province":"Aragón","NL_NAME_1":"NA","county":"Teruel","VARNAME_2":"NA","NL_NAME_2":"NA","TYPE_2":"Provincia","ENGTYPE_2":"Province","CC_2":"44","HASC_2":"ES.AR.TE","name":"Teruel.county"},
"geometry":{"type": "MultiPolygon","coordinates": [[[[-0.8299,39.9068,1527.4675],[-0.8328,39.911,1495.5999],[-0.8331,39.9172,1539.1383],[-0.8374,39.9234,1536.0697],[-0.8404,39.925,1526.5862],[-0.8363,39.9284,1500.2139],[-0.8396,39.9419,1553.5095],[-0.8462,39.9477,1586.5229],[-0.8441,39.954,1560.9614],[-0.8396,39.9554,1545.1846],[-0.8357,39.96,1540.6045],[-0.8384,39.9665,1545.9196],[-0.8414,39.969,1558.3146],[-0.838,39.9723,1544.9492],[-0.8379,39.9766,1501.8896],[-0.8347,39.9794,1436.2551],[-0.8242,39.9824,1423.2454],[-0.8169,39.9823,1384.0286],[-0.8034,39.9905,1211.3969],[-0.7987,39.9914,1183.4607],[-0.7896,39.9899,1188.5947],[-0.7778,39.9983,1177.3966],[-0.7745,40.0043,1192.0614],[-0.7672,40.0101,1139.6091],[-0.7653,40.0268,1077.8989],[-0.7628,40.0303,1079.297],[-0.7622,40.0413,1119.6864],[-0.7536,40.0466,1010.0121],[-0.7475,40.0379,1096.8296],[-0.731,40.0424,964.9864],[-0.7188,40.0387,944.6573],[-0.7028,40.0466,926.7546],[-0.6829,40.0443,953.1875],[-0.6641,40.0515,977.4215],[-0.6458,40.0677,865.6931],[-0.6416,40.0676,849.8767],[-0.6379,40.0697,860.7983],[-0.6359,40.0675,841.6523],[-0.6358,40.0718,842.7324],[-0.6347,40.0727,855.236],[-0.6334,40.0707,842.4563],[-0.6307,40.071,832.7321],[-0.6312,40.0735,831.2987],[-0.6272,40.0762,829.2136],[-0.6231,40.0753,824.661],[-0.6231,40.0696,824.0104],[-0.619,40.0684,825.3908],[-0.6135,40.07,780.885],[-0.6286,40.1021,1003.8641],[-0.6065,40.1283,631.1358],[-0.604,40.1268,644.5117],[-0.5985,40.1286,643.6125],[-0.597,40.1321,658.9354],[-0.5908,40.1337,674.3477],[-0.5869,40.1315,676.4565],[-0.5784,40.1381,692.2981],[-0.5793,40.1476,720.9002],[-0.5747,40.1487,733.0366],[-0.5747,40.1526,736.4904],[-0.5705,40.1554,768.1557],[-0.5692,40.1592,764.4478],[-0.5707,40.16,764.4478],[-0.5696,40.162,772.1829],[-0.5739,40.173,842.047],[-0.5716,40.1749,829.9601],[-0.5704,40.1803,881.5598],[-0.5721,40.1815,848.7708],[-0.5637,40.1887,1048.085],[-0.5609,40.1974,1105.4541],[-0.5578,40.2009,1124.8116],[-0.559,40.2101,1185.0343],[-0.5478,40.2443,1689.7549],[-0.5441,40.2517,1628.1825],[-0.5292,40.2394,1611.5281],[-0.5105,40.2318,1494.0247],[-0.5015,40.2332,1492.4437],[-0.4945,40.2288,1367.1252],[-0.4866,40.2342,1213.2524],[-0.4772,40.2353,1036.4424],[-0.4699,40.2402,835.4756],[-0.4638,40.2339,823.9547],[-0.4518,40.2353,1019.7321],[-0.428,40.2438,1249.363],[-0.3836,40.2649,1642.9781],[-0.385,40.2744,1591.7848],[-0.3828,40.2783,1523.0635],[-0.3903,40.288,1244.2659],[-0.4001,40.2942,1186.4075],[-0.4001,40.2957,1184.7664],[-0.3939,40.2976,1191.5398],[-0.3946,40.3004,1171.7686],[-0.3927,40.2987,1191.5398],[-0.3899,40.2999,1176.5082],[-0.3914,40.3025,1170.9291],[-0.3901,40.3057,1201.3423],[-0.3877,40.3073,1213.0264],[-0.3845,40.3057,1141.4122],[-0.3789,40.31,1170.5518],[-0.3764,40.305,1145.5881],[-0.3725,40.3086,1120.1145],[-0.3724,40.3041,1105.176],[-0.3703,40.3044,1103.0209],[-0.37,40.3066,1086.3419],[-0.3662,40.3051,1095.4836],[-0.3672,40.3083,1085.0537],[-0.37,40.3099,1075.2837],[-0.3685,40.3121,1114.3153],[-0.3646,40.3137,1084.3218],[-0.3631,40.3166,1039.9021],[-0.3582,40.313,1043.036],[-0.3548,40.3148,1027.4885],[-0.3529,40.3134,1100.5315],[-0.352,40.3176,1023.904],[-0.3535,40.318,1080.5544],[-0.3485,40.3207,1015.5684],[-0.3497,40.328,996.3633],[-0.3477,40.3283,991.6987],[-0.3465,40.3251,987.6307],[-0.3431,40.3254,997.2026],[-0.3437,40.3271,978.4388],[-0.341,40.329,966.2902],[-0.343,40.3343,961.132],[-0.3406,40.34,990.3077],[-0.3376,40.3394,944.4682],[-0.3368,40.341,1020.0966],[-0.3324,40.3415,925.8122],[-0.3316,40.3448,913.3961],[-0.3212,40.3501,915.6799],[-0.319,40.3547,912.9183],[-0.3144,40.3584,858.6357],[-0.3086,40.3577,844.9251],[-0.3045,40.3627,864.3011],[-0.298,40.3617,822.2719],[-0.2892,40.3681,828.835],[-0.2891,40.3655,815.3239],[-0.2854,40.3665,825.8947],[-0.2823,40.3651,797.1318],[-0.2839,40.3687,843.5006],[-0.2825,40.3702,781.0673],[-0.28,40.3695,796.3109],[-0.2816,40.3734,822.2542],[-0.2807,40.3769,903.3573],[-0.2852,40.3863,998.7495],[-0.2959,40.3954,1121.1626],[-0.3013,40.3976,1154.1147],[-0.3072,40.4092,1311.1049],[-0.3166,40.4172,1377.4272],[-0.3279,40.4217,1598.4818],[-0.3328,40.4256,1584.5038],[-0.3411,40.4382,1367.6571],[-0.3473,40.444,1234.5847],[-0.3426,40.4435,1191.1852],[-0.3428,40.4466,1160.2661],[-0.3388,40.4489,1166.2244],[-0.339,40.4534,1167.2092],[-0.337,40.4566,1151.2411],[-0.3326,40.4591,1157.0172],[-0.3225,40.4601,1133.2921],[-0.3085,40.4658,1132.5541],[-0.2934,40.466,1122.2909],[-0.2954,40.4704,1132.1667],[-0.2903,40.4706,1101.0579],[-0.2873,40.4724,1118.3252],[-0.2857,40.4701,1114.2537],[-0.2832,40.4732,1110.5574],[-0.281,40.4739,1093.7317],[-0.2801,40.4724,1079.2175],[-0.2785,40.4754,1075.3546],[-0.2764,40.4758,1105.1915],[-0.2728,40.4737,1085.1646],[-0.2714,40.4785,1065.2733],[-0.2741,40.4817,1089.8286],[-0.2797,40.4835,1110.1498],[-0.2793,40.4886,1113.1265],[-0.2749,40.4934,1139.0343],[-0.2747,40.4969,1174.7921],[-0.2811,40.5052,1267.9827],[-0.2881,40.5096,1283.8848],[-0.2976,40.5058,1287.8644],[-0.2994,40.5131,1134.5],[-0.3018,40.516,1180.0294],[-0.2974,40.5313,982.8788],[-0.293,40.5366,986.7912],[-0.2901,40.544,972.1162],[-0.2925,40.5467,954.8965],[-0.2902,40.5531,951.2375],[-0.294,40.554,953.3773],[-0.2924,40.5561,936.603],[-0.296,40.5605,920.7372],[-0.2948,40.5702,898.7167],[-0.2993,40.5738,880.5258],[-0.2998,40.5774,928.1119],[-0.2952,40.581,870.5981],[-0.2943,40.584,854.7916],[-0.2953,40.586,857.3096],[-0.2934,40.5915,851.0901],[-0.2954,40.5953,844.6583],[-0.2933,40.5964,833.902],[-0.2947,40.5998,824.7673],[-0.2923,40.6044,813.1167],[-0.2932,40.6111,825.1976],[-0.2991,40.6129,812.2191],[-0.3115,40.6115,824.825],[-0.3176,40.6081,852.5152],[-0.322,40.6029,874.1321],[-0.3345,40.6074,884.9607],[-0.3432,40.6065,899.4538],[-0.344,40.6112,973.2521],[-0.3602,40.6155,1189.713],[-0.3704,40.6136,1220.6509],[-0.3775,40.618899999999996,1266.4238],[-0.3796,40.6236,1178.4784],[-0.3764,40.636,1011.2753],[-0.3719,40.6411,982.1002],[-0.3727,40.6476,935.9221],[-0.3707,40.6508,915.7335],[-0.3791,40.6568,959.1025],[-0.3815,40.6616,897.6359],[-0.378,40.6674,933.1959],[-0.372,40.6673,912.3549],[-0.3703,40.669,895.7557],[-0.3728,40.6706,927.0154],[-0.3696,40.6701,895.7557],[-0.3705,40.672,867.4885],[-0.3561,40.6777,978.6682],[-0.3288,40.6803,821.5286],[-0.3258,40.678,844.8398],[-0.3221,40.6777,850.2413],[-0.32,40.6678,922.8073],[-0.3169,40.6636,938.5287],[-0.3069,40.6595,1083.2207],[-0.3061,40.664,1081.3979],[-0.299,40.6677,1100.8542],[-0.2936,40.674,1063.0989],[-0.2894,40.6722,1059.7705],[-0.2789,40.6802,1078.5461],[-0.2609,40.6851,1074.6313],[-0.25,40.6908,1064.2395],[-0.2359,40.6911,1088.9695],[-0.2375,40.698,974.5011],[-0.2335,40.7086,976.1346],[-0.2363,40.7097,983.9313],[-0.2392,40.7181,944.1832],[-0.2371,40.7238,938.8024],[-0.2328,40.7262,924.3779],[-0.2316,40.7328,924.5692],[-0.2292,40.7357,921.6633],[-0.2304,40.7383,930.071],[-0.2268,40.7438,936.1041],[-0.227,40.7477,904.895],[-0.224,40.7542,919.7492],[-0.213,40.7581,907.8961],[-0.2104,40.7674,878.2548],[-0.2058,40.771,886.3688],[-0.2055,40.7734,889.2732],[-0.2024,40.7748,866.891],[-0.2007,40.7772,904.7983],[-0.2017,40.7796,909.5123],[-0.1944,40.7818,837.0272],[-0.1971,40.7845,855.537],[-0.1667,40.7858,848.4878],[-0.1649,40.7887,852.7717],[-0.1445,40.7855,534.5211],[-0.1471,40.7751,821.6123],[-0.1438,40.7687,849.9292],[-0.1385,40.7663,881.0272],[-0.1331,40.758,899.3375],[-0.1257,40.7529,867.7047],[-0.1129,40.7483,841.7173],[-0.1074,40.7434,774.3401],[-0.0864,40.7382,840.5778],[-0.0804,40.7337,897.8563],[-0.0647,40.7274,1088.3181],[-0.0559,40.7268,956.3405],[-0.0537,40.7279,892.2009],[-0.0307,40.7226,1168.7485],[-0.0286,40.7263,1139.592],[-0.0226,40.7302,1055.3092],[-0.0177,40.7312,1083.1072],[0.0158,40.7285,990.5001],[0.018,40.7259,997.0726],[0.0161,40.7233,995.1602],[0.0188,40.7196,974.2049],[0.0239,40.7176,977.9241],[0.0284,40.7132,1029.5447],[0.0245,40.7073,1061.2339],[0.0243,40.7024,1098.7241],[0.0269,40.7004,1176.3445],[0.0265,40.695,1225.9901],[0.0422,40.691,1052.4026],[0.0727,40.7143,1181.4738],[0.1125,40.7272,1280.0425],[0.1119,40.7247,1277.797],[0.1166,40.7251,1344.6177],[0.1238,40.7208,1333.5088],[0.1414,40.7185,1246.5487],[0.1639,40.7236,1309.967],[0.1647,40.7278,1321.0217],[0.1684,40.7295,1313.3733],[0.1708,40.7329,1337.5345],[0.1675,40.7395,1242.2286],[0.1645,40.7401,1234.7638],[0.1632,40.7425,1234.583],[0.1649,40.7433,1241.3702],[0.1592,40.7506,1184.8247],[0.1646,40.7487,1093.6914],[0.168,40.7448,1096.9967],[0.1754,40.7412,1072.6097],[0.1763,40.7438,1122.7006],[0.174,40.749,1153.2179],[0.1763,40.751,1183.7434],[0.1753,40.755,1174.9534],[0.1813,40.7533,1204.3712],[0.1841,40.7556,1175.2152],[0.185,40.7531,1203.135],[0.1902,40.7503,1155.9651],[0.1963,40.7586,1172.3918],[0.2016,40.7576,1124.5536],[0.212,40.7675,1191.7809],[0.2239,40.7656,880.3981],[0.23,40.7675,889.5876],[0.2294,40.7712,972.1086],[0.2347,40.7762,1149.4558],[0.2329,40.7794,1212.7073],[0.2336,40.787,1209.3113],[0.2444,40.7921,1066.767],[0.2499,40.7985,977.2852],[0.2578,40.8003,748.9964],[0.2586,40.8046,883.7894],[0.2652,40.8138,1130.2092],[0.2718,40.817,1181.1548],[0.272,40.8188,1019.7178],[0.2783,40.8211,874.3154],[0.2664,40.8315,654.4946],[0.2666,40.8335,624.8558],[0.2617,40.8373,611.3322],[0.2625,40.8388,725.8162],[0.26,40.8392,632.7948],[0.2587,40.8463,604.5035],[0.2554,40.8467,588.2632],[0.2577,40.8485,576.7176],[0.2552,40.8509,569.3044],[0.2558,40.8531,568.8886],[0.2508,40.8563,563.8445],[0.2534,40.86,560.8262],[0.2517,40.8627,561.4531],[0.2543,40.8663,542.8808],[0.2535,40.8702,530.063],[0.2554,40.8746,532.5691],[0.2518,40.8766,550.2089],[0.2505,40.8795,525.8368],[0.2453,40.8805,532.6501],[0.239,40.8849,500.6156],[0.2413,40.8868,499.0855],[0.246,40.8872,513.1525],[0.2459,40.8922,491.405],[0.2501,40.896,481.274],[0.2496,40.9016,483.8942],[0.2533,40.9066,473.3708],[0.2499,40.9073,472.7958],[0.2488,40.9105,472.9196],[0.2541,40.9118,462.1766],[0.2539,40.9197,454.4396],[0.2606,40.9285,442.9286],[0.2674,40.929,437.7567],[0.2743,40.9366,421.0627],[0.2717,40.9448,412.7621],[0.2761,40.9481,408.3043],[0.276,40.951,440.9589],[0.281,40.9512,419.2271],[0.2854,40.9604,404.7156],[0.2843,40.9647,422.0361],[0.2935,40.9706,396.7791],[0.2894,40.9743,400.6771],[0.2834,40.9728,384.6301],[0.2811,40.9749,383.8322],[0.2824,40.9822,375.0733],[0.2811,40.9872,403.3088],[0.2723,40.9935,362.4189],[0.2719,40.996,370.2631],[0.2685,40.9983,359.0668],[0.2694,41.0019,353.6884],[0.275,41.0053,354.6671],[0.2743,41.0072,351.1072],[0.2706,41.0095,356.1529],[0.2645,41.0103,345.778],[0.2589,41.0139,344.8521],[0.261,41.0189,344.9167],[0.2764,41.0181,332.8634],[0.2799,41.0198,346.191],[0.2709,41.026,330.832],[0.2625,41.0267,325.3882],[0.253,41.033,315.1909],[0.2462,41.0413,310.0299],[0.2435,41.0402,325.1435],[0.2424,41.0349,311.8094],[0.2343,41.0346,305.1034],[0.2304,41.037,304.6223],[0.2301,41.0398,296.22],[0.2348,41.046,311.2318],[0.2331,41.0471,305.8322],[0.2259,41.0461,289.8351],[0.2202,41.0417,294.1429],[0.2178,41.0437,284.3521],[0.2178,41.0466,284.5186],[0.2209,41.0498,282.4394],[0.2302,41.0539,274.9681],[0.2288,41.0588,293.0255],[0.2223,41.0592,269.264],[0.2182,41.0629,265.8681],[0.2204,41.0715,261.0264],[0.1969,41.068,330.0952],[0.1673,41.0708,454.414],[0.1459,41.0631,407.9668],[0.1446,41.0658,364.4345],[0.1268,41.0718,342.5],[0.1183,41.0768,307.619],[0.0933,41.0801,448.9993],[0.0725,41.0794,474.1841],[0.0576,41.0751,456.1308],[0.0547,41.0685,510.2818],[0.0557,41.0667,502.08],[0.0511,41.0592,498.5839],[0.0519,41.0548,505.7903],[0.0497,41.053,500.6044],[0.0467,41.0534,496.6919],[0.0413,41.0484,483.5366],[0.037,41.0466,488.1064],[0.0251,41.0648,370.5688],[0.0194,41.0679,353.9335],[0.0132,41.0747,359.857],[0.0114,41.079,329.423],[0.0004,41.0893,285.3091],[-0.0048,41.097,264.787],[-0.0086,41.104,252.1416],[-0.0122,41.1203,220.5],[-0.0257,41.1281,244.1416],[-0.0382,41.1291,262.9164],[-0.0433,41.134,264.0765],[-0.0532,41.1387,283.1133],[-0.0714,41.144,319.5317],[-0.0784,41.1506,413.477],[-0.1035,41.1496,390.358],[-0.1224,41.1567,279.9633],[-0.1345,41.1628,272.83],[-0.1504,41.1743,258.2718],[-0.1803,41.1879,193.2837],[-0.2054,41.192,229.4011],[-0.2224,41.1889,305.5649],[-0.2252,41.19,304.6644],[-0.2321,41.1959,284.9305],[-0.2431,41.2098,244.3087],[-0.247,41.2122,236.9863],[-0.2686,41.215,253.8008],[-0.2726,41.218,238.6412],[-0.2786,41.2268,211.3758],[-0.3133,41.2557,168.0912],[-0.318,41.2576,157.0025],[-0.3237,41.2553,149.2331],[-0.323,41.2456,154.9507],[-0.3305,41.2445,172.0063],[-0.3372,41.2414,165.9833],[-0.3399,41.2442,195.7834],[-0.358,41.253,263.2446],[-0.3779,41.2655,255.0844],[-0.3858,41.2655,251.8634],[-0.4058,41.2724,279.7631],[-0.4113,41.2791,252.4105],[-0.4204,41.2855,221.5816],[-0.4287,41.2941,179.1651],[-0.4257,41.298,175.737],[-0.4269,41.3029,171.742],[-0.4247,41.3051,169.0614],[-0.4266,41.3085,166.7544],[-0.4207,41.3118,178.1255],[-0.4242,41.3122,159.6317],[-0.4242,41.3135,159.6317],[-0.444,41.3132,236.6918],[-0.4594,41.3183,295.7269],[-0.4597,41.316,299.8707],[-0.4701,41.3183,300.092],[-0.4747,41.3241,271.3389],[-0.4799,41.346,173.8686],[-0.4985,41.353,179.1672],[-0.5002,41.3522,178.3869],[-0.5024,41.3541,180.7463],[-0.5101,41.3541,182.324],[-0.5214,41.3505,189.1803],[-0.5225,41.3484,190.7041],[-0.5434,41.349,197.6609],[-0.5506,41.3455,204.0677],[-0.5589,41.3543,210.3873],[-0.5677,41.3539,213.8946],[-0.5817,41.3481,226.5251],[-0.5818,41.3214,332.7908],[-0.5773,41.314,331.4863],[-0.5655,41.3033,312.0853],[-0.5516,41.3029,297.8073],[-0.5448,41.3006,294.8335],[-0.5447,41.2989,289.2388],[-0.5351,41.2947,288.7113],[-0.5271,41.2882,249.9104],[-0.5081,41.2558,270.0872],[-0.5068,41.2471,279.102],[-0.5096,41.2383,277.9093],[-0.5141,41.2346,276.9222],[-0.5315,41.2278,303.5517],[-0.5422,41.247,299.1114],[-0.5484,41.2678,292.9492],[-0.5749,41.2952,319.5768],[-0.6052,41.3233,291.7011],[-0.6297,41.3118,362.1586],[-0.6319,41.3018,364.8004],[-0.6272,41.28,338.5159],[-0.6287,41.2598,349.1255],[-0.6254,41.2482,365.5424],[-0.6427,41.2384,400.6329],[-0.6631,41.2394,424.886],[-0.6692,41.2369,441.3078],[-0.6605,41.2297,435.015],[-0.6389,41.2172,402.3185],[-0.6287,41.2044,398.8401],[-0.6218,41.1988,406.4819],[-0.6113,41.1948,405.7586],[-0.6099,41.1917,410.6098],[-0.6218,41.1843,439.8559],[-0.6241,41.1799,445.8561],[-0.6408,41.171,480.1397],[-0.6445,41.1654,501.2986],[-0.665,41.146,582.6774],[-0.672,41.1342,717.1191],[-0.6719,41.13,731.6907],[-0.6803,41.1208,755.0225],[-0.6939,41.1123,907.3364],[-0.6965,41.1155,895.4792],[-0.7121,41.1218,946.2145],[-0.7155,41.1247,914.8407],[-0.7138,41.1263,910.285],[-0.7223,41.1335,886.1888],[-0.7223,41.1377,892.0859],[-0.7258,41.138,902.2051],[-0.7277,41.1439,919.7491],[-0.7332,41.1452,924.9235],[-0.7359,41.1507,861.2027],[-0.7453,41.1573,743.4399],[-0.7464,41.1618,722.4581],[-0.7507,41.1654,657.0031],[-0.7614,41.1697,707.5084],[-0.7649,41.1641,726.4122],[-0.7648,41.1589,754.1163],[-0.7763,41.1526,806.5518],[-0.7805,41.1474,830.4647],[-0.7816,41.1438,841.3237],[-0.7795,41.138,863.1381],[-0.7846,41.1366,840.8236],[-0.7824,41.1265,781.7306],[-0.7837,41.1176,829.5517],[-0.7915,41.1115,839.999],[-0.7885,41.1079,824.2921],[-0.799,41.1033,780.6969],[-0.8085,41.1015,708.3989],[-0.8114,41.1023,684.2077],[-0.8117,41.1008,683.5999],[-0.8285,41.0964,687.5569],[-0.8598,41.108,715.0667],[-0.8713,41.1165,811.0911],[-0.8711,41.1194,783.8743],[-0.8755,41.1212,776.2978],[-0.8836,41.1301,808.4538],[-0.8834,41.1354,776.9856],[-0.886,41.1409,728.8899],[-0.8832,41.1488,675.5359],[-0.8895,41.1473,690.6528],[-0.8914,41.1452,718.4277],[-0.8936,41.1325,788.0394],[-0.8905,41.1256,849.4368],[-0.8933,41.1225,850.7297],[-0.9004,41.1192,827.92],[-0.9016,41.1119,864.1643],[-0.9153,41.1052,801.1462],[-0.9125,41.093,810.8337],[-0.9377,41.0834,932.6771],[-0.9449,41.0753,926.4277],[-0.9572,41.0764,867.4966],[-0.9606,41.0781,833.2252],[-0.9627,41.0821,854.3447],[-0.9818,41.0922,867.8491],[-0.9895,41.0912,861.1151],[-0.9985,41.0952,919.4708],[-1.0005,41.1147,915.9951],[-0.9956,41.1192,901.2508],[-0.9842,41.1391,866.4374],[-0.9724,41.1535,819.3928],[-0.9807,41.1451,850.1712],[-0.9857,41.1438,864.9509],[-1.0008,41.134,934.5296],[-1.0125,41.1347,925.2955],[-1.0281,41.1382,886.0112],[-1.0352,41.1371,899.2673],[-1.0393,41.1347,907.1764],[-1.0445,41.1408,872.2765],[-1.0612,41.1517,839.197],[-1.0861,41.1641,944.9509],[-1.0964,41.1628,1041.4956],[-1.1004,41.1639,1181.4797],[-1.1047,41.1677,1304.8065],[-1.117,41.1555,1048.1085],[-1.1176,41.1509,997.1902],[-1.1131,41.1428,944.7953],[-1.1212,41.1389,967.8376],[-1.1215,41.1349,999.7028],[-1.1563,41.129,1115.4556],[-1.1547,41.1277,1160.4198],[-1.1669,41.1264,1150.6514],[-1.1739,41.1237,1216.0127],[-1.177,41.1281,1165.5283],[-1.1924,41.127,1020.2977],[-1.2099,41.1388,1094.7544],[-1.2152,41.1375,1026.9756],[-1.2271,41.1302,967.9337],[-1.2493,41.1256,933.277],[-1.2546,41.1226,954.7451],[-1.267,41.1055,957.233],[-1.2713,41.1033,962.7252],[-1.2568,41.0867,992.7317],[-1.2532,41.0773,1012.3771],[-1.2637,41.0615,1017.7041],[-1.2709,41.0548,1037.6805],[-1.2814,41.0559,1031.2954],[-1.2874,41.0489,1025.3649],[-1.2925,41.048,1031.5541],[-1.299,41.0524,1023.2522],[-1.3103,41.0498,1035.3645],[-1.3201,41.0501,1044.7742],[-1.3247,41.0552,1035.8121],[-1.3348,41.0517,888.8405],[-1.3396,41.0545,973.7781],[-1.3392,41.0566,983.1262],[-1.3424,41.0588,974.5874],[-1.3451,41.0561,999.1328],[-1.3541,41.0575,900.2822],[-1.3554,41.0587,876.5956],[-1.3531,41.0624,912.8439],[-1.3568,41.0638,932.9204],[-1.3575,41.0657,960.1546],[-1.3553,41.0697,983.1069],[-1.3601,41.0716,958.3629],[-1.3595,41.0777,936.7817],[-1.3578,41.0802,956.8099],[-1.3523,41.0819,997.0336],[-1.3557,41.0885,992.3041],[-1.3607,41.0879,997.2582],[-1.3781,41.0731,818.8212],[-1.3973,41.066,831.7419],[-1.4052,41.0663,857.3133],[-1.41,41.0579,878.5729],[-1.4048,41.0506,876.6708],[-1.4167,41.0438,942.5319],[-1.413,41.041,935.0208],[-1.4111,41.0351,941.95],[-1.4222,41.0272,1037.4851],[-1.44,41.0262,1128.4603],[-1.4579,41.0184,1098.1172],[-1.4763,41.0149,1299.9843],[-1.4706,41.0095,1310.4651],[-1.4645,41.0104,1169.1042],[-1.4593,41.0068,1138.6224],[-1.4475,40.9881,1126.1913],[-1.4469,40.9766,1074.9524],[-1.4714,40.958,992.7071],[-1.4729,40.9488,992.0567],[-1.5053,40.9641,990.5],[-1.5152,40.9547,999.981],[-1.5579,40.9393,1045.0715],[-1.5759,40.9386,1118.5699],[-1.5835,40.9418,1117.0337],[-1.5895,40.9362,1135.7731],[-1.6174,40.9437,1118.26],[-1.6118,40.9376,1120.2607],[-1.6078,40.9276,1138.0145],[-1.6104,40.9168,1127.2898],[-1.6156,40.9082,1136.8594],[-1.6259,40.8987,1152.6306],[-1.6202,40.8795,1154.2825],[-1.6034,40.8598,1162.8887],[-1.5963,40.8539,1171.4738],[-1.5936,40.8533,1178.0789],[-1.5887,40.845,1194.7542],[-1.5704,40.8301,1204.7621],[-1.5636,40.8315,1186.4841],[-1.5567,40.8288,1138.89],[-1.5539,40.8267,1161.3928],[-1.5533,40.8235,1170.9712],[-1.5446,40.8162,1161.7194],[-1.5423,40.8112,1154.083],[-1.5392,40.7927,1203.6328],[-1.5409,40.7851,1209.8431],[-1.5393,40.7808,1173.5736],[-1.5421,40.7771,1156.5336],[-1.5429,40.7684,1245.7883],[-1.5398,40.7607,1254.7266],[-1.5552,40.7501,1229.3563],[-1.562,40.7398,1432.7422],[-1.5588,40.7193,1479.8246],[-1.5541,40.7156,1520.2141],[-1.5533,40.7059,1506.9561],[-1.5434,40.6972,1517.3342],[-1.5356,40.687,1567.5237],[-1.5403,40.681399999999996,1566.5653],[-1.5389,40.6581,1363.015],[-1.5519,40.6431,1352.9528],[-1.5547,40.6304,1395.2438],[-1.5648,40.6148,1436.9309],[-1.5553,40.6072,1458.553],[-1.5549,40.6048,1470.7971],[-1.5454,40.5952,1501.1195],[-1.5496,40.5931,1474.4763],[-1.5556,40.586,1435.6584],[-1.5828,40.5695,1470.5936],[-1.5871,40.5694,1462.8931],[-1.5987,40.5621,1470.5293],[-1.6296,40.5761,1487.4021],[-1.6342,40.5798,1383.6003],[-1.6664,40.5821,1647.5645],[-1.6743,40.5922,1724.661],[-1.678,40.591,1699.4548],[-1.6858,40.5799,1711.5004],[-1.6932,40.5777,1767.7657],[-1.6896,40.5665,1701.4641],[-1.7018,40.5382,1698.7588],[-1.6955,40.5114,1748.5952],[-1.6951,40.4937,1602.296],[-1.6924,40.4868,1653.7434],[-1.7338,40.4725,1564.5105],[-1.7485,40.4629,1542.3096],[-1.7652,40.4433,1619.1628],[-1.7696,40.4349,1590.7588],[-1.7764,40.4305,1639.5731],[-1.7854,40.4132,1772.8071],[-1.7933,40.4179,1707.7197],[-1.7967,40.4178,1709.1194],[-1.8006,40.4142,1705.4905],[-1.8044,40.404,1692.9098],[-1.8038,40.4007,1603.002],[-1.8063,40.3983,1509.7502],[-1.7894,40.3974,1527.2368],[-1.7897,40.3921,1530.4294],[-1.7784,40.3921,1536.3314],[-1.7754,40.3875,1521.8346],[-1.7739,40.3882,1524.0555],[-1.7672,40.3824,1523.7832],[-1.7644,40.3755,1527.7838],[-1.7598,40.3725,1525.884],[-1.7535,40.364,1530.611],[-1.7532,40.3609,1529.4419],[-1.7506,40.3612,1534.6573],[-1.7422,40.3528,1534.1587],[-1.7412,40.3496,1536.7759],[-1.7361,40.3491,1546.197],[-1.7347,40.3469,1545.332],[-1.7203,40.3409,1576.6724],[-1.7075,40.3267,1565.2496],[-1.6976,40.3213,1574.6252],[-1.6972,40.3166,1597.5146],[-1.7068,40.3136,1658.854],[-1.7201,40.3185,1697.8578],[-1.7205,40.3133,1723.5839],[-1.7231,40.3119,1724.5613],[-1.7292,40.3032,1694.2524],[-1.7269,40.2883,1675.6179],[-1.7192,40.2771,1531.8262],[-1.7142,40.2768,1540.9359],[-1.71,40.2807,1650.9519],[-1.7105,40.2921,1694.5465],[-1.7003,40.3071,1661.9115],[-1.6903,40.3097,1679.8575],[-1.6798,40.3008,1682.7976],[-1.6655,40.2946,1729.3569],[-1.6591,40.2824,1686.1091],[-1.647,40.2743,1688.5598],[-1.6391,40.2659,1588.6541],[-1.6323,40.2617,1586.0516],[-1.6178,40.2486,1532.0809],[-1.6086,40.2428,1502.766],[-1.6037,40.243,1507.2737],[-1.5925,40.2363,1504.3079],[-1.5702,40.2136,1393.6025],[-1.5404,40.1908,1261.5128],[-1.5305,40.1936,1381.2832],[-1.5211,40.2022,1377.8333],[-1.5108,40.2037,1409.8373],[-1.4744,40.1851,1599.9209],[-1.4391,40.197,1475.5431],[-1.4423,40.1576,1482.8534],[-1.4488,40.1454,1548.2666],[-1.4333,40.1395,1516.8693],[-1.4297,40.1394,1499.629],[-1.4223,40.1424,1323.2025],[-1.4045,40.1392,1222.4829],[-1.3935,40.1344,1090.5714],[-1.3768,40.1403,1043.5732],[-1.3636,40.1386,1008.6165],[-1.3643,40.1327,1068.6707],[-1.3617,40.1297,1132.6699],[-1.357,40.1289,1124.592],[-1.336,40.1422,1122.8785],[-1.3197,40.1464,893.2531],[-1.3165,40.1497,948.6905],[-1.3194,40.1562,1084.5116],[-1.3172,40.1641,1123.6108],[-1.3225,40.1717,1179.3794],[-1.3229,40.1849,1183.5125],[-1.3149,40.2014,1161.1832],[-1.3109,40.2039,1154.0825],[-1.302,40.2058,1167.2644],[-1.2969,40.2099,1245.0869],[-1.2982,40.2117,1264.1221],[-1.293,40.2069,1252.5546],[-1.2967,40.1993,1192.9495],[-1.2869,40.1819,1134.9529],[-1.2843,40.1715,1068.0486],[-1.2764,40.1669,978.6786],[-1.2765,40.1622,983.3912],[-1.2524,40.1433,871.5021],[-1.2454,40.1471,764.4849],[-1.2442,40.146,756.4302],[-1.2472,40.1402,754.205],[-1.2461,40.1386,757.8187],[-1.2488,40.135,751.9829],[-1.2461,40.1272,749.731],[-1.2506,40.1239,745.9163],[-1.2449,40.1162,760.7007],[-1.2363,40.1134,792.3658],[-1.2207,40.1155,833.9224],[-1.2072,40.1102,840.7015],[-1.1927,40.1106,868.359],[-1.1655,40.1149,912.3553],[-1.1497,40.1148,945.8719],[-1.1473,40.114,945.8883],[-1.1439,40.1086,1006.5776],[-1.1356,40.1041,1023.746],[-1.1334,40.0974,1089.86],[-1.1223,40.0955,1208.1071],[-1.1178,40.0929,1280.4482],[-1.1118,40.0928,1378.5895],[-1.078,40.0688,1710.9188],[-1.0796,40.0678,1705.7421],[-1.0721,40.0605,1767.0],[-1.0717,40.0511,1776.733],[-1.079,40.0447,1760.3508],[-1.0842,40.0362,1690.5508],[-1.0978,40.0327,1500.0344],[-1.1097,40.0253,1485.5228],[-1.1158,40.024,1457.193],[-1.1361,40.0151,1343.3524],[-1.1462,40.0168,1309.0127],[-1.1534,40.0126,1402.3062],[-1.1651,40.0101,1463.921],[-1.1634,40.0002,1181.3278],[-1.1473,39.9886,1152.833],[-1.1423,39.9719,869.287],[-1.1302,39.9703,887.7593],[-1.1284,39.9629,983.6226],[-1.1217,39.9609,1025.6741],[-1.1238,39.966,1145.9984],[-1.1191,39.9682,1141.9597],[-1.1162,39.9721,1075.252],[-1.1127,39.9732,1036.4127],[-1.1098,39.969,970.9925],[-1.107,39.9706,1037.312],[-1.1078,39.9719,1037.312],[-1.105,39.975,1082.6177],[-1.0921,39.9678,1072.4586],[-1.0845,39.9719,1100.7372],[-1.0869,39.9732,1109.8125],[-1.0859,39.9764,1118.4219],[-1.0715,39.9797,1273.3268],[-1.0564,39.9804,1409.9431],[-1.0252,39.9746,1419.3472],[-1.0025,39.9819,1501.1373],[-0.999,39.9802,1482.5938],[-0.9913,39.9819,1493.7064],[-0.9762,39.9758,1512.3812],[-0.9684,39.9745,1522.6938],[-0.9521,39.967,1510.267],[-0.9491,39.9673,1487.5984],[-0.9445,39.9629,1492.5789],[-0.9347,39.9599,1499.0773],[-0.9318,39.9561,1514.0044],[-0.9245,39.9593,1411.1381],[-0.9204,39.9644,1369.4042],[-0.9157,39.9579,1348.3159],[-0.9171,39.9549,1357.9661],[-0.906,39.944,1363.9421],[-0.9026,39.9319,1258.1576],[-0.9034,39.9262,1243.0015],[-0.9075,39.928,1323.0278],[-0.9138,39.918,1413.182],[-0.9075,39.9005,1217.2058],[-0.9096,39.8986,1167.4401],[-0.9029,39.8971,1163.76],[-0.9002,39.8919,1087.1564],[-0.9036,39.8879,1067.542],[-0.9081,39.8861,1057.5541],[-0.9125,39.8724,1020.9205],[-0.9077,39.8657,1059.3208],[-0.8885,39.8521,1247.2607],[-0.8792,39.8523,1163.3291],[-0.874,39.8484,1162.0023],[-0.8701,39.8489,1109.1155],[-0.8674,39.8468,1102.5703],[-0.858,39.8505,997.8429],[-0.8564,39.8555,1057.2317],[-0.8493,39.857,1016.7696],[-0.839,39.8625,1118.6805],[-0.8291,39.8709,1348.7068],[-0.8149,39.8735,1423.5759],[-0.7976,39.8811,1475.6851],[-0.7975,39.8833,1439.783],[-0.8015,39.8847,1527.7629],[-0.8045,39.8921,1558.4091],[-0.8299,39.9068,1527.4675]]]]}}