{"type": "Feature","bbox": [-4.3186,36.7104,-3.7659,36.9805],"geometry": {"type": "MultiPolygon","coordinates": [[[[-4.2324,36.7124,3.0155],[-4.1929,36.7157,6.0108],[-4.1787,36.7154,0.0],[-4.1607,36.7201,0.9035],[-4.1093,36.7249,0.0],[-4.101,36.7282,0.0],[-4.0999,36.7321,1.6794],[-4.0979,36.7321,0.1854],[-4.0871,36.7432,0.5639],[-4.0737,36.7485,0.0],[-4.0682,36.7485,0.0],[-4.0654,36.7463,0.0],[-4.064,36.7487,0.2535],[-4.0515,36.7449,0.7881],[-4.0329,36.7421,23.4212],[-4.0235,36.744,13.4845],[-3.9968,36.7393,5.0064],[-3.9746,36.7307,0.8408],[-3.9568,36.7262,0.5205],[-3.9268,36.7368,0.0],[-3.921,36.741,21.475],[-3.8957,36.7435,0.3744],[-3.8843,36.7407,3.9145],[-3.8749,36.744,1.218],[-3.8646,36.751,6.4677],[-3.8485,36.7501,0.0],[-3.8443,36.7535,0.0],[-3.8415,36.7518,0.0],[-3.8365,36.7537,0.0],[-3.8299,36.7515,0.0],[-3.8232,36.7524,45.9971],[-3.8088,36.7499,1.1283],[-3.799,36.7454,0.0],[-3.7915,36.746,9.9417],[-3.7885,36.744,20.0168],[-3.7879,36.741,2.0369],[-3.7857,36.7393,0.0],[-3.7804,36.7393,74.8422],[-3.7776,36.7368,0.0],[-3.7772,36.7449,62.8196],[-3.7812,36.751,154.6541],[-3.7796,36.7528,132.1209],[-3.7791,36.7589,250.1867],[-3.7822,36.7645,354.5],[-3.7794,36.7675,502.5088],[-3.7775,36.7748,663.4822],[-3.7746,36.7755,676.5128],[-3.7703,36.7831,720.6526],[-3.7669,36.7847,736.3057],[-3.7659,36.7883,711.9919],[-3.7709,36.7966,783.7434],[-3.768,36.802,849.452],[-3.7864,36.8124,1261.9839],[-3.7863,36.8155,1325.4252],[-3.7905,36.8207,1480.9504],[-3.7952,36.821,1571.7332],[-3.7933,36.8267,1597.8274],[-3.796,36.8316,1674.2373],[-3.8151,36.8419,1804.1136],[-3.8152,36.8469,1725.4092],[-3.8214,36.8494,1578.4646],[-3.8271,36.8556,1479.1305],[-3.8383,36.8564,1544.314],[-3.8422,36.8582,1590.5417],[-3.8587,36.8516,1493.8333],[-3.8609,36.8511,1495.8748],[-3.864,36.853,1542.0138],[-3.8675,36.8507,1454.288],[-3.8756,36.853,1339.6873],[-3.8776,36.8548,1337.3535],[-3.877,36.857,1323.5986],[-3.8824,36.8577,1213.0022],[-3.8807,36.8599,1239.4296],[-3.8904,36.8676,1720.1183],[-3.8954,36.8654,1521.1248],[-3.899,36.8675,1506.8247],[-3.9094,36.8675,1597.2795],[-3.9124,36.8694,1630.6526],[-3.9185,36.8681,1541.0177],[-3.924,36.879,1530.946],[-3.9294,36.8829,1611.1416],[-3.9399,36.8843,1496.6276],[-3.944,36.8865,1508.4968],[-3.9463,36.885,1530.6821],[-3.952,36.8879,1566.5618],[-3.9599,36.8876,1627.3247],[-3.9614,36.8894,1649.0466],[-3.9707,36.8921,1704.658],[-3.9826,36.8926,1593.4926],[-3.9991,36.8899,1581.1235],[-4.0121,36.8961,1661.5322],[-4.014,36.8988,1768.6781],[-4.0355,36.9049,2041.2152],[-4.0473,36.9036,2029.2139],[-4.0536,36.915,1876.4109],[-4.0635,36.9214,1584.8201],[-4.0721,36.9242,1301.8938],[-4.074,36.9266,1299.8236],[-4.0919,36.9333,1055.5554],[-4.099,36.9423,946.8523],[-4.0998,36.9527,1098.3888],[-4.1112,36.9497,1200.6401],[-4.1388,36.9523,1237.261],[-4.1665,36.9571,1244.2975],[-4.169,36.9624,1127.799],[-4.1767,36.9665,1231.6433],[-4.193,36.9805,1446.8112],[-4.2191,36.9704,1076.7941],[-4.2169,36.9637,1078.3726],[-4.2168,36.9555,922.3496],[-4.2336,36.9464,635.043],[-4.2437,36.9436,564.6812],[-4.2541,36.9347,572.7009],[-4.243,36.9281,683.0928],[-4.2388,36.9284,707.1536],[-4.2351,36.9153,519.1234],[-4.2408,36.9085,490.6429],[-4.2502,36.9051,497.9349],[-4.2504,36.9018,522.7739],[-4.2568,36.8995,416.4459],[-4.2571,36.8959,417.3835],[-4.2598,36.8927,443.1888],[-4.2597,36.8887,388.8128],[-4.2643,36.888,359.4785],[-4.2736,36.8818,318.9525],[-4.2763,36.8784,273.5126],[-4.2738,36.8763,268.9406],[-4.2771,36.874,381.0977],[-4.278,36.8699,479.1744],[-4.2767,36.8683,449.63],[-4.2812,36.8578,309.0267],[-4.2868,36.8585,306.7441],[-4.2895,36.856,337.4035],[-4.2884,36.854,333.1133],[-4.2918,36.8463,398.3031],[-4.2878,36.8417,405.6984],[-4.2879,36.8398,410.2305],[-4.2824,36.8374,433.5411],[-4.2834,36.8341,501.5467],[-4.2794,36.832,611.3815],[-4.2719,36.8333,537.7058],[-4.2699,36.8371,453.6713],[-4.266,36.8388,419.3352],[-4.2653,36.8317,475.5121],[-4.2611,36.8315,588.6447],[-4.2618,36.8213,719.4001],[-4.2668,36.8193,698.1608],[-4.2728,36.8195,744.4928],[-4.2738,36.8209,774.3608],[-4.2768,36.8117,790.2294],[-4.282,36.8051,850.9834],[-4.2851,36.8039,859.9086],[-4.2802,36.8005,680.0917],[-4.2807,36.7993,696.879],[-4.2748,36.7969,583.2848],[-4.2747,36.7951,637.6962],[-4.2839,36.7985,745.6665],[-4.2901,36.7969,713.1096],[-4.2902,36.7951,693.6513],[-4.2928,36.7967,738.5771],[-4.2962,36.7957,794.0164],[-4.2974,36.7933,695.8871],[-4.2923,36.7919,575.6885],[-4.2904,36.7819,366.0475],[-4.2923,36.7822,437.3831],[-4.2955,36.778,534.4384],[-4.2992,36.7791,610.3758],[-4.303,36.7746,493.179],[-4.3047,36.7683,412.7851],[-4.3035,36.7627,311.1901],[-4.3056,36.7601,234.165],[-4.3049,36.7547,167.6321],[-4.3101,36.753,140.8928],[-4.3147,36.7494,135.6254],[-4.3168,36.7455,140.8998],[-4.3152,36.7421,131.9819],[-4.3176,36.7389,97.3407],[-4.3041,36.7387,303.1094],[-4.3053,36.7358,270.0203],[-4.3124,36.7347,169.1055],[-4.3169,36.7311,66.4897],[-4.3186,36.7315,66.8169],[-4.3138,36.7228,40.6787],[-4.316,36.7177,30.8457],[-4.3147,36.7126,1.7301],[-4.3032,36.7149,3.4185],[-4.2951,36.7126,5.616],[-4.2935,36.7149,23.0274],[-4.2854,36.7149,2.6521],[-4.2504,36.7104,0.0],[-4.2324,36.7124,3.0155]]]]}
,"properties": {"GID_3": "ESP.1.7.1_1","GID_0": "ESP","country": "Spain","GID_1": "ESP.1_1","province": "Andalucía","NL_NAME_1": "NA","GID_2": "ESP.1.7_1","county": "Málaga","NL_NAME_2": "NA","city": "n.a.(181)","VARNAME_3": "NA","NL_NAME_3": "NA","TYPE_3": "Comarca","ENGTYPE_3": "Comarca","CC_3": "NA","HASC_3": "NA","name": "n.a.(181).city","area_km2": 865.126,"hist_schema_id": "Elevation0-9000","hist_area_km2": {"0": 15.7685,"25": 31.5978,"50": 30.8814,"75": 27.7553,"100": 27.5315,"125": 26.0857,"150": 26.1172,"175": 26.3025,"200": 26.657,"225": 34.9156,"250": 32.1659,"275": 33.1827,"300": 33.4193,"325": 32.8749,"350": 30.261,"375": 28.9355,"400": 28.6135,"425": 25.8967,"450": 24.1648,"475": 22.3833,"500": 19.6843,"525": 18.7507,"550": 15.8822,"575": 15.1687,"600": 14.2186,"625": 13.0131,"650": 12.877,"675": 11.1285,"700": 10.5677,"725": 9.2951,"750": 8.2267,"775": 8.5491,"800": 7.5647,"825": 7.2424,"850": 7.2254,"875": 6.8686,"900": 6.0213,"925": 5.631,"950": 5.4106,"975": 5.5294,"1000": 5.0713,"1025": 5.1903,"1050": 4.9866,"1075": 4.5965,"1100": 4.0198,"1125": 4.1895,"1150": 4.6813,"1175": 3.8841,"1200": 3.935,"1225": 3.7486,"1250": 3.7314,"1275": 3.664,"1300": 3.6468,"1325": 2.9346,"1350": 3.1722,"1375": 2.7989,"1400": 2.6463,"1425": 2.6971,"1450": 2.3409,"1475": 2.273,"1500": 2.2221,"1525": 1.8828,"1550": 1.5944,"1575": 1.5265,"1600": 1.272,"1625": 1.374,"1650": 1.0854,"1675": 0.6444,"1700": 0.7632,"1725": 0.5427,"1750": 0.4579,"1775": 0.407,"1800": 0.2713,"1825": 0.4578,"1850": 0.4069,"1875": 0.373,"1900": 0.3391,"1925": 0.2204,"1950": 0.1695,"1975": 0.1695,"2000": 0.0339,"2025": 0.1187,"2050": 0.1865,"2075": 0.0339}}}