{"type": "Feature","bbox": [-1.4984,38.2878,-1.0015,38.7544],"geometry": {"type": "MultiPolygon","coordinates": [[[[-1.4222,38.6768,849.0078],[-1.4477,38.6494,845.5593],[-1.443,38.6364,790.0736],[-1.4484,38.6124,700.5277],[-1.4523,38.5818,629.4054],[-1.4666,38.5758,620.9577],[-1.4873,38.5632,590.4328],[-1.4984,38.5321,594.6895],[-1.4901,38.5157,640.4021],[-1.4807,38.4809,667.7071],[-1.4804,38.4667,611.6847],[-1.4782,38.456,649.6912],[-1.4777,38.4211,481.5522],[-1.4748,38.4089,466.4358],[-1.4783,38.3764,571.0052],[-1.4503,38.3727,362.6337],[-1.4295,38.3615,356.6382],[-1.3859,38.3439,561.5854],[-1.3538,38.3345,467.307],[-1.3254,38.3187,336.2843],[-1.3186,38.3132,314.7842],[-1.312,38.3119,321.2195],[-1.3052,38.3153,326.6888],[-1.2995,38.3158,326.4986],[-1.2953,38.3142,331.074],[-1.2889,38.3186,341.6642],[-1.2835,38.32,342.7545],[-1.2679,38.3162,357.5641],[-1.2588,38.3172,371.7057],[-1.2534,38.3203,375.6885],[-1.2358,38.3068,445.9053],[-1.2187,38.3047,528.0918],[-1.2165,38.3019,528.1508],[-1.2103,38.3009,540.3385],[-1.2034,38.293,606.8046],[-1.1975,38.2893,650.6485],[-1.198,38.2878,658.1466],[-1.1916,38.2921,762.968],[-1.1863,38.2929,782.6207],[-1.18,38.2978,644.8853],[-1.1739,38.2978,712.2648],[-1.1684,38.3008,650.157],[-1.1689,38.3024,634.9767],[-1.1629,38.3041,628.3484],[-1.1495,38.3116,607.1207],[-1.1459,38.312,633.7136],[-1.1422,38.3163,607.4724],[-1.1213,38.3219,658.53],[-1.0844,38.3465,604.5175],[-1.0881,38.3677,671.0425],[-1.0867,38.3983,651.6251],[-1.0883,38.4035,653.5894],[-1.085,38.4291,694.8765],[-1.076,38.4317,672.217],[-1.0941,38.4383,726.7977],[-1.0817,38.4419,690.2687],[-1.0681,38.4504,641.803],[-1.0417,38.4697,724.2112],[-1.0139,38.4971,1202.405],[-1.0262,38.5225,677.9094],[-1.0162,38.5371,735.3812],[-1.0091,38.559,698.5268],[-1.0015,38.5729,686.8246],[-1.0121,38.6058,618.1459],[-1.016,38.6351,600.5203],[-1.0241,38.6401,659.3137],[-1.0261,38.6557,694.0558],[-1.0337,38.6566,708.3415],[-1.045,38.662,740.0946],[-1.1159,38.7102,712.5649],[-1.12,38.7379,846.5908],[-1.1839,38.7544,933.2366],[-1.2052,38.7477,866.5862],[-1.2296,38.7443,753.5686],[-1.2426,38.7405,745.4617],[-1.2458,38.738,735.7479],[-1.2494,38.7384,735.5273],[-1.2657,38.7275,726.0322],[-1.2704,38.7203,730.9127],[-1.2867,38.7053,816.1409],[-1.3123,38.6956,844.2407],[-1.3283,38.685,843.9068],[-1.329,38.6825,844.0784],[-1.3429,38.6775,901.9525],[-1.3667,38.7043,855.7135],[-1.3835,38.6999,919.8217],[-1.4022,38.6913,915.4688],[-1.4222,38.6768,849.0078]]]]}
,"properties": {"GID_3": "ESP.18.1.1_1","GID_0": "ESP","country": "Spain","GID_1": "ESP.18_1","province": "RegióndeMurcia","NL_NAME_1": "NA","GID_2": "ESP.18.1_1","county": "Murcia","NL_NAME_2": "NA","city": "Altiplano","VARNAME_3": "NA","NL_NAME_3": "NA","TYPE_3": "Comarca","ENGTYPE_3": "Comarca","CC_3": "NA","HASC_3": "NA","name": "Altiplano.city","area_km2": 1572.9,"hist_schema_id": "Elevation0-9000","hist_area_km2": {"325": 5.572,"350": 9.777,"375": 16.424,"400": 25.83,"425": 30.667,"450": 33.06,"475": 49.186,"500": 51.457,"525": 55.055,"550": 124.97,"575": 120.745,"600": 108.61,"625": 108.945,"650": 124.102,"675": 117.881,"700": 113.295,"725": 100.338,"750": 82.591,"775": 71.979,"800": 62.114,"825": 49.153,"850": 37.524,"875": 24.574,"900": 14.172,"925": 8.754,"950": 5.557,"975": 3.866,"1000": 2.722,"1025": 2.474,"1050": 1.926,"1075": 1.528,"1100": 1.511,"1125": 1.063,"1150": 1.096,"1175": 0.83,"1200": 1.162,"1225": 0.88,"1250": 0.681,"1275": 0.415,"1300": 0.249,"1325": 0.133,"1350": 0.033}}}