{"type":"Feature","properties":{"GID_3":"ESP.13.1.3_1","GID_0":"ESP","country":"Spain","GID_1":"ESP.13_1","province":"IslasBaleares","NL_NAME_1":"NA","GID_2":"ESP.13.1_1","county":"Baleares","NL_NAME_2":"NA","city":"n.a.(53)","VARNAME_3":"NA","NL_NAME_3":"NA","TYPE_3":"Comarca","ENGTYPE_3":"Comarca","CC_3":"NA","HASC_3":"NA","name":"n.a.(53).city"},
"geometry":{"type": "MultiPolygon","coordinates": [[[[4.2896,39.8035,0.1948],[4.2882,39.8035,0.5788],[4.2874,39.801,2.9368],[4.2824,39.8021,0.0],[4.2815,39.8007,0.391],[4.2904,39.7988,4.5264],[4.2965,39.7999,0.0],[4.2954,39.8024,0.1026],[4.2896,39.8035,0.1948]]],
[[[4.2801,39.8863,0.0],[4.2749,39.8849,25.2679],[4.2774,39.8893,0.0],[4.2762,39.8913,1.5349],[4.2671,39.8901,18.2576],[4.2582,39.8932,38.8297],[4.2576,39.8946,7.2378],[4.2693,39.8935,1.5785],[4.2696,39.8918,0.0],[4.2712,39.8921,0.0],[4.2704,39.8937,1.5785],[4.2785,39.8932,0.0],[4.2804,39.8915,0.0],[4.2876,39.8904,7.17],[4.2896,39.8885,0.0],[4.2946,39.889,9.0598],[4.2965,39.8849,0.0],[4.3096,39.879,0.5272],[4.3096,39.8774,0.0],[4.3068,39.876,2.2962],[4.3085,39.871,0.3952],[4.3104,39.8699,0.0],[4.3118,39.8699,0.0],[4.3115,39.8718,6.5578],[4.3165,39.871,2.2416],[4.3282,39.8763,9.2254],[4.3229,39.8799,0.0],[4.311,39.8804,3.8666],[4.3124,39.8857,0.0],[4.3104,39.8865,11.5516],[4.3124,39.8896,0.0],[4.3101,39.8885,12.4216],[4.3093,39.8921,0.0],[4.3068,39.8926,3.2475],[4.309,39.8996,0.0],[4.299,39.8979,9.1179],[4.2993,39.9001,7.707],[4.2949,39.9038,6.4875],[4.296,39.9054,0.0],[4.2932,39.911,2.6455],[4.2904,39.9113,4.891],[4.2901,39.9132,0.426],[4.2893,39.9118,4.3124],[4.2865,39.9126,0.0],[4.2876,39.9143,0.0],[4.2863,39.9146,1.2919],[4.2865,39.9224,0.0],[4.2851,39.9251,11.343],[4.2835,39.9251,11.343],[4.2824,39.9282,3.1648],[4.2749,39.9332,13.2655],[4.2754,39.9388,23.1146],[4.2838,39.9446,0.0],[4.2799,39.9457,0.0],[4.281,39.9512,1.6623],[4.2732,39.9504,6.8164],[4.2699,39.9515,2.8621],[4.2663,39.949,3.1333],[4.264,39.9524,7.6148],[4.2718,39.9538,0.0],[4.2696,39.9565,0.0],[4.2707,39.9593,0.8305],[4.2674,39.9599,3.8981],[4.2632,39.9582,6.2559],[4.2668,39.9632,0.0],[4.2629,39.9629,2.85],[4.2624,39.9646,4.8787],[4.2549,39.9638,1.6021],[4.256,39.9688,12.4991],[4.2585,39.9701,2.3234],[4.2579,39.9721,22.6974],[4.2607,39.9765,0.0],[4.2596,39.979,10.0216],[4.2632,39.9785,0.0],[4.2657,39.9821,0.0],[4.2599,39.9818,7.8793],[4.2599,39.9876,0.0],[4.2551,39.9885,5.7552],[4.2549,39.9929,4.7886],[4.2615,39.9957,5.0181],[4.2701,39.9965,0.0],[4.2632,39.9993,0.0],[4.2588,39.9993,0.0],[4.259,39.9971,0.0],[4.2551,39.9979,8.6094],[4.2507,40.0026,0.0],[4.2451,40.0005,0.0],[4.2385,40.0013,0.0],[4.2365,39.999,3.2803],[4.2299,39.9996,0.0],[4.2293,39.9976,0.0],[4.2237,39.999,0.0],[4.2199,39.9971,0.0],[4.2204,39.9996,0.0],[4.2179,40.0004,5.0648],[4.2207,40.0024,0.0],[4.2179,40.0043,0.0],[4.2096,40.0032,3.3215],[4.2132,40.0074,0.0],[4.211,40.0076,4.0384],[4.2107,40.011,0.0],[4.2085,40.0135,2.1901],[4.2054,40.0107,0.0],[4.2054,40.0088,0.5552],[4.2082,40.0082,3.1789],[4.2082,40.0068,5.0277],[4.2054,40.0057,2.8329],[4.2046,40.009,0.5921],[4.2026,40.0096,0.0],[4.2007,40.0088,8.0785],[4.2001,40.0057,2.3903],[4.2026,39.9993,0.0],[4.2077,39.9935,-0.009],[4.209,39.9938,6.0247],[4.2055,39.9853,8.9916],[4.2133,39.9773,20.8135],[4.2023,39.9698,69.708],[4.1959,39.9696,66.9878],[4.1904,39.9757,73.1797],[4.1798,39.9642,99.1605],[4.1763,39.9672,97.7244],[4.1685,39.9666,95.1799],[4.1678,39.9641,97.2428],[4.1472,39.965,122.3202],[4.1417,39.9679,114.4707],[4.1373,39.9558,147.2579],[4.1306,39.9556,148.1306],[4.1237,39.9618,110.493],[4.1145,39.9632,94.7107],[4.1118,39.9587,82.9808],[4.0946,39.9552,89.058],[4.0874,39.9591,91.5612],[4.0807,39.9563,84.7977],[4.0778,39.9581,75.9932],[4.0703,39.9449,79.8928],[4.0624,39.9435,70.2125],[4.0657,39.9415,61.0907],[4.0635,39.9374,51.2348],[4.0667,39.9374,43.9839],[4.0669,39.931,66.4448],[4.0567,39.9277,74.8932],[4.0574,39.9068,0.0],[4.0776,39.8971,9.1452],[4.0796,39.8907,23.8614],[4.0818,39.8915,9.1077],[4.086,39.8854,4.3577],[4.0901,39.8824,0.0],[4.0949,39.8815,5.8388],[4.0985,39.8771,0.0],[4.1249,39.8674,17.616],[4.1304,39.8671,15.7124],[4.1321,39.8715,2.2554],[4.1318,39.8643,0.0],[4.1371,39.864,42.3138],[4.1471,39.8601,0.0],[4.1579,39.8546,23.5164],[4.1632,39.8496,0.0],[4.1693,39.8485,0.0],[4.1729,39.844,3.6083],[4.1801,39.8413,0.0],[4.1818,39.8385,0.0],[4.1885,39.8368,0.0],[4.1962,39.8318,0.0],[4.1993,39.8324,13.635],[4.2057,39.8296,5.4317],[4.2046,39.8274,0.0],[4.2076,39.8246,0.0],[4.2101,39.8251,0.0],[4.2096,39.8279,0.0],[4.2115,39.8288,9.3885],[4.2143,39.8282,1.1353],[4.2146,39.8254,0.0],[4.2154,39.8279,3.5358],[4.2179,39.8262,0.0],[4.2199,39.8271,7.886],[4.2229,39.8243,0.0],[4.2196,39.8215,0.0],[4.2215,39.8213,0.0],[4.2224,39.8235,0.056],[4.2246,39.824,1.1231],[4.2257,39.8229,8.3212],[4.224,39.8224,0.0],[4.2243,39.821,0.0],[4.2285,39.8224,5.6865],[4.2321,39.8182,0.0],[4.2362,39.8165,3.3961],[4.2371,39.8138,1.3907],[4.241,39.8126,0.0],[4.2421,39.8132,0.0],[4.2399,39.816,6.3746],[4.2435,39.8163,3.9925],[4.2443,39.8135,0.0],[4.2471,39.8151,0.0],[4.2479,39.8138,0.0],[4.2613,39.8118,0.1546],[4.2618,39.8099,0.0],[4.2732,39.809,6.3124],[4.2813,39.8104,0.0],[4.2801,39.814,4.9762],[4.2885,39.8151,0.0],[4.2918,39.8199,1.2718],[4.2965,39.8226,0.0],[4.2949,39.8276,9.2721],[4.3001,39.8326,2.231],[4.3049,39.831,0.0],[4.304,39.8357,0.0],[4.3004,39.8404,6.6857],[4.3026,39.8418,0.0],[4.3054,39.8482,2.8511],[4.3093,39.849,0.1299],[4.3068,39.8532,1.0541],[4.3076,39.8576,0.4205],[4.3054,39.8593,6.9045],[4.3065,39.8599,0.0],[4.306,39.8635,0.0],[4.3079,39.8651,0.0],[4.3015,39.874,1.2699],[4.2988,39.8757,0.0],[4.2965,39.8749,11.0099],[4.2971,39.8776,0.0],[4.2935,39.8779,6.8907],[4.296,39.8801,0.0],[4.2935,39.8818,3.8089],[4.2904,39.881,6.3196],[4.2899,39.8838,0.0],[4.2854,39.8835,10.0673],[4.2801,39.8863,0.0]]],
[[[4.3026,39.8812,6.6317],[4.301,39.8815,0.0],[4.3015,39.8757,0.0],[4.3076,39.8713,0.1313],[4.306,39.876,2.2962],[4.3062,39.8793,0.0],[4.3026,39.8812,6.6317]]],
[[[4.2885,39.8874,0.0],[4.2868,39.8882,3.7215],[4.2871,39.8851,0.0],[4.2888,39.886,2.0822],[4.2885,39.8874,0.0]]],
[[[4.2785,39.9671,0.0],[4.2746,39.966,0.0],[4.2729,39.9637,0.0],[4.2746,39.9615,0.0],[4.2726,39.9601,0.0],[4.2743,39.9579,0.0],[4.2726,39.9574,0.0],[4.2732,39.9562,1.3559],[4.281,39.956,2.9251],[4.2846,39.9596,2.7255],[4.2793,39.9632,0.0],[4.2804,39.9643,0.0],[4.2782,39.9649,3.7188],[4.2785,39.9671,0.0]]],
[[[4.2096,40.0218,0.0],[4.2082,40.0221,0.0],[4.2088,40.0137,2.1901],[4.2129,40.0171,4.9321],[4.2126,40.0187,4.9321],[4.2104,40.0187,4.5437],[4.2096,40.0218,0.0]]]]}}