{"type": "Feature","id": "5840","bbox": [-8.94262,41.8889,-7.86815,42.85301],"geometry": {"type": "Polygon","coordinates": [[[-8.04921,42.83453,319.4707],[-8.17445,42.85301,306.5535],[-8.19219,42.84762,336.5742],[-8.20463,42.83429,280.8451],[-8.20994,42.8307,250.8441],[-8.22071,42.82904,269.4259],[-8.25207,42.8363,152.492],[-8.26229,42.83376,167.2167],[-8.28966,42.82003,153.3728],[-8.29884,42.82164,110.2396],[-8.30436,42.82829,183.6813],[-8.30895,42.83679,152.929],[-8.31531,42.84394,113.4866],[-8.32175,42.84611,214.3079],[-8.32932,42.84572,128.6936],[-8.33596,42.84267,123.6907],[-8.33962,42.83694,129.9505],[-8.33932,42.83167,101.2436],[-8.33385,42.81296,92.8451],[-8.33343,42.80142,99.4838],[-8.33591,42.79142,138.1525],[-8.34222,42.78399,76.406],[-8.35333,42.78015,66.8278],[-8.39203,42.78949,62.7136],[-8.42164,42.75676,102.9002],[-8.44537,42.74429,74.0538],[-8.45829,42.74202,109.227],[-8.47234,42.74325,46.8513],[-8.50233,42.75607,60.2108],[-8.57805,42.74587,70.2066],[-8.59413,42.73844,77.8477],[-8.59966,42.73209,227.2569],[-8.60165,42.7263,212.4416],[-8.60202,42.72217,211.0859],[-8.60347,42.71942,246.4831],[-8.60875,42.7178,174.3795],[-8.64543,42.72552,49.8731],[-8.71634,42.70646,0.0],[-8.73095,42.68842,1.1252],[-8.73876,42.66608,0.8658],[-8.7755,42.60472,0.0],[-8.7884,42.59219,0.0],[-8.80158,42.5893,0.0],[-8.81383,42.58145,0.0],[-8.82299,42.56953,13.292],[-8.82653,42.55463,1.3384],[-8.82518,42.53742,4.5184],[-8.81286,42.50275,4.7707],[-8.82506,42.49494,0.0],[-8.82518,42.48412,14.9759],[-8.8225,42.47236,17.1418],[-8.82653,42.46186,0.0],[-8.83698,42.45893,0.1647],[-8.85155,42.46076,0.0],[-8.86555,42.46503,0.0],[-8.87434,42.46931,44.4235],[-8.86115,42.47557,10.7556],[-8.86083,42.48501,7.331],[-8.86901,42.49339,11.5427],[-8.88126,42.49657,5.7464],[-8.89599,42.49388,0.0],[-8.91674,42.48762,0.0],[-8.93505,42.47907,0.0],[-8.94262,42.46931,0.0],[-8.93545,42.4654,24.8089],[-8.90095,42.461,2.7435],[-8.88801,42.45563,0.0],[-8.88024,42.44501,0.0],[-8.87572,42.42597,1.1667],[-8.8675,42.4147,15.9288],[-8.84358,42.40371,29.9081],[-8.81102,42.4007,7.5342],[-8.77937,42.4029,29.6164],[-8.75764,42.40721,135.8367],[-8.74364,42.41323,16.6112],[-8.71882,42.42796,79.1158],[-8.69677,42.43797,14.874],[-8.69449,42.43964,14.6025],[-8.69127,42.44062,10.3025],[-8.68253,42.44135,38.1401],[-8.67252,42.43842,87.2375],[-8.66438,42.43797,134.632],[-8.65526,42.44135,70.7991],[-8.66251,42.42691,9.8313],[-8.67687,42.41645,0.0],[-8.70983,42.40038,0.0],[-8.72688,42.38874,0.0],[-8.76464,42.3557,0.0],[-8.77196,42.34272,0.0],[-8.77693,42.34016,0.0],[-8.81286,42.34638,0.0],[-8.82726,42.34414,0.0],[-8.83072,42.34162,0.0],[-8.82852,42.33723,60.6585],[-8.82653,42.32905,11.1851],[-8.82722,42.2967,0.0],[-8.833,42.28913,0.0],[-8.84699,42.30484,0.0],[-8.85326,42.30484,13.0375],[-8.85342,42.29108,80.3875],[-8.86364,42.26899,0.0],[-8.8675,42.25642,64.3997],[-8.8483,42.26097,15.8243],[-8.79577,42.25825,56.3198],[-8.78498,42.26008,0.0],[-8.77392,42.26899,23.4351],[-8.71984,42.28758,16.94],[-8.69957,42.29116,279.9623],[-8.67479,42.29902,177.6605],[-8.66076,42.3168,17.1746],[-8.64989,42.3356,135.3385],[-8.63476,42.34638,0.0],[-8.62645,42.34833,27.9953],[-8.62271,42.34748,0.0],[-8.62165,42.34081,0.0],[-8.62165,42.31021,1.7248],[-8.62515,42.30195,0.0],[-8.63174,42.29682,0.0],[-8.65201,42.28632,9.1001],[-8.66991,42.28091,0.0],[-8.70189,42.25853,39.232],[-8.70645,42.25642,0.0],[-8.71955,42.25235,0.0],[-8.77196,42.22224,2.2246],[-8.79064,42.20454,0.0],[-8.79524,42.20173,0.0],[-8.80578,42.1975,0.0],[-8.81102,42.18814,27.6945],[-8.81347,42.1787,23.9389],[-8.81599,42.17451,3.8119],[-8.84203,42.16429,0.0],[-8.84699,42.16083,0.0],[-8.84276,42.15445,113.3502],[-8.82372,42.14761,30.0287],[-8.81908,42.13972,0.0],[-8.82653,42.13052,0.0],[-8.84496,42.12661,0.0],[-8.88459,42.12604,0.0],[-8.8955,42.11909,0.0],[-8.89859,42.10175,0.0],[-8.87873,41.90713,0.0],[-8.88126,41.8933,0.0],[-8.86465,41.8889,139.4475],[-8.84878,41.89948,5.4224],[-8.83283,41.91397,7.6499],[-8.81599,41.92121,41.7413],[-8.7954,41.92569,15.0725],[-8.77709,41.93716,28.6326],[-8.76195,41.95258,13.2895],[-8.7508,41.96898,4.0785],[-8.73959,41.97511,13.5339],[-8.71701,41.98377,6.3237],[-8.69127,41.98961,0.0],[-8.67081,41.99981,2.4582],[-8.66321,42.00989,5.8468],[-8.65257,42.03144,35.1902],[-8.64389,42.04149,8.3716],[-8.62688,42.05103,0.0],[-8.60942,42.05366,0.0],[-8.57281,42.05441,7.0926],[-8.55443,42.06007,17.0033],[-8.52002,42.07772,6.6679],[-8.50121,42.08309,36.8641],[-8.34675,42.10169,169.5953],[-8.32995,42.10844,86.25],[-8.30427,42.12583,195.5365],[-8.29538,42.13009,84.3507],[-8.28784,42.13143,136.1916],[-8.27068,42.132,123.9811],[-8.25233,42.13758,39.7476],[-8.22236,42.15363,209.5781],[-8.18336,42.17312,305.2785],[-8.17961,42.20987,69.515],[-8.16487,42.24591,145.8137],[-8.23563,42.23181,617.4163],[-8.24595,42.2363,736.4326],[-8.26844,42.25669,1022.6303],[-8.27452,42.2664,928.7992],[-8.27548,42.27852,1020.8558],[-8.26198,42.31523,1035.611],[-8.27601,42.31851,830.1863],[-8.28643,42.32385,756.2479],[-8.31811,42.36084,922.8712],[-8.31897,42.36658,961.0922],[-8.31701,42.38398,1001.4066],[-8.31864,42.38916,1012.6514],[-8.33415,42.4127,893.6337],[-8.34229,42.43254,860.2509],[-8.33901,42.48523,835.3072],[-8.34057,42.49231,782.3121],[-8.30282,42.49026,691.1661],[-8.24887,42.53142,762.2147],[-8.21413,42.53998,882.3552],[-8.17378,42.57193,711.6571],[-8.14667,42.54859,809.8345],[-8.06714,42.55204,760.2401],[-8.01867,42.54207,711.6077],[-8.01269,42.54538,696.1957],[-7.99261,42.57025,840.5763],[-7.98424,42.5718,842.4908],[-7.95821,42.56847,839.2409],[-7.9308,42.57845,989.3417],[-7.893,42.63531,1059.1707],[-7.89092,42.66763,871.8002],[-7.88733,42.67828,879.9204],[-7.86825,42.69816,768.1003],[-7.86815,42.71321,863.8817],[-7.88041,42.72201,839.9222],[-7.91228,42.72986,753.0602],[-7.93225,42.73995,764.7723],[-7.97852,42.78115,736.6549],[-7.98157,42.79508,715.2125],[-7.96446,42.84236,429.2543],[-7.99981,42.84886,327.7765],[-8.03283,42.83646,338.6906],[-8.04921,42.83453,319.4707]]]}
,"properties": {"ISO3166-1-Alpha-3": "ESP","country": "Spain","fill": "#00F","name": "Pontevedra","area_km2": 4409.114,"hist_schema_id": "Elevation0-9000","hist_area_km2": {"0": 144.798,"25": 217.259,"50": 226.745,"75": 190.305,"100": 165.568,"125": 149.777,"150": 144.912,"175": 140.26,"200": 138.532,"225": 132.6,"250": 134.833,"275": 129.592,"300": 130.765,"325": 132.137,"350": 140.625,"375": 146.467,"400": 143.777,"425": 135.539,"450": 125.211,"475": 123.097,"500": 125.52,"525": 128.594,"550": 130.638,"575": 135.66,"600": 129.745,"625": 118.233,"650": 100.931,"675": 91.014,"700": 77.791,"725": 69.135,"750": 62.162,"775": 53.575,"800": 46.374,"825": 36.77,"850": 29.253,"875": 24.709,"900": 18.501,"925": 13.571,"950": 11.05,"975": 6.479,"1000": 2.911,"1025": 1.848,"1050": 0.798,"1075": 0.485,"1100": 0.313,"1125": 0.204,"1150": 0.047}}}