{"type":"Feature","properties":{"GID_3":"ESP.5.5.8_1","GID_0":"ESP","country":"Spain","GID_1":"ESP.5_1","province":"CastillayLeón","NL_NAME_1":"NA","GID_2":"ESP.5.5_1","county":"Salamanca","NL_NAME_2":"NA","city":"n.a.(219)","VARNAME_3":"NA","NL_NAME_3":"NA","TYPE_3":"Comarca","ENGTYPE_3":"Comarca","CC_3":"NA","HASC_3":"NA","name":"n.a.(219).city"},
"geometry":{"type": "MultiPolygon","coordinates": [[[[-6.8543,40.3034,1045.7195],[-6.8614,40.2996,1119.9777],[-6.8639,40.2962,1114.27],[-6.8644,40.2842,1080.8105],[-6.8622,40.2792,1123.9688],[-6.8648,40.2705,1217.3945],[-6.8467,40.2544,1200.2509],[-6.8398,40.2556,1228.7217],[-6.8371,40.2486,1224.4827],[-6.8226,40.2482,1278.1215],[-6.8232,40.2458,1248.4219],[-6.8211,40.2447,1214.9886],[-6.8105,40.2444,1210.546],[-6.8066,40.2415,1227.3645],[-6.8,40.2421,1233.021],[-6.802,40.2496,1082.2961],[-6.7814,40.2491,1086.9563],[-6.778,40.2455,1028.8977],[-6.7555,40.2389,1447.6509],[-6.7554,40.2463,1305.1406],[-6.7517,40.2499,1197.7085],[-6.7413,40.2562,996.0143],[-6.7351,40.2572,985.7369],[-6.7266,40.265,1002.3896],[-6.7181,40.2692,1009.2582],[-6.7114,40.2669,946.8875],[-6.7097,40.2605,910.7923],[-6.7031,40.2511,883.118],[-6.69,40.2427,945.5339],[-6.6883,40.2466,912.4423],[-6.6777,40.251,972.9438],[-6.6776,40.258,924.4957],[-6.6716,40.2632,956.0201],[-6.6398,40.2689,1056.8477],[-6.6345,40.2647,1180.6937],[-6.6251,40.2666,1184.1255],[-6.6147,40.2661,1167.4003],[-6.5973,40.2716,1199.9559],[-6.5869,40.2707,1343.803],[-6.5835,40.2745,1267.0332],[-6.5709,40.2795,1131.2112],[-6.5687,40.2828,1132.8174],[-6.5561,40.2908,1190.7825],[-6.5595,40.2958,1169.8588],[-6.5559,40.3042,1053.0759],[-6.5566,40.306399999999996,1071.0144],[-6.5646,40.3146,1070.4757],[-6.5603,40.3291,825.6669],[-6.5362,40.3473,914.4028],[-6.4933,40.362,1146.0803],[-6.4857,40.3632,1204.614],[-6.4746,40.3701,1179.4016],[-6.462,40.3727,1138.0063],[-6.4501,40.3709,1185.0585],[-6.4382,40.3728,1375.5413],[-6.441,40.378,1228.2856],[-6.4395,40.3816,1170.9818],[-6.4242,40.3915,1200.1342],[-6.4187,40.3993,1311.0544],[-6.4077,40.402,1349.6215],[-6.3911,40.399,1352.3258],[-6.3831,40.4007,1467.0381],[-6.3759,40.4002,1387.7937],[-6.3618,40.4071,1561.8405],[-6.3629,40.4117,1504.53],[-6.3613,40.4154,1532.671],[-6.3657,40.4173,1443.9833],[-6.3654,40.4224,1495.3613],[-6.3458,40.4371,1263.1213],[-6.3445,40.4428,1241.0516],[-6.3346,40.4475,1196.5074],[-6.3252,40.4477,1196.2745],[-6.3222,40.4505,1163.7704],[-6.2943,40.452,1043.8928],[-6.2877,40.4576,1249.6432],[-6.2752,40.4585,1228.8875],[-6.2709,40.4609,1105.4547],[-6.2683,40.4676,1075.0015],[-6.2647,40.4709,1119.0254],[-6.2549,40.47,1126.2756],[-6.2398,40.4859,1363.7557],[-6.2312,40.4867,1351.0042],[-6.2238,40.4844,1447.0134],[-6.2013,40.4829,1578.14],[-6.1986,40.4814,1598.3997],[-6.1883,40.4868,1424.9004],[-6.184,40.4978,1538.9749],[-6.1853,40.5011,1616.7595],[-6.1791,40.5038,1540.5709],[-6.1761,40.5093,1510.6023],[-6.1704,40.5132,1668.7533],[-6.1695,40.5166,1654.7284],[-6.1771,40.5246,1567.0667],[-6.1796,40.5248,1551.1658],[-6.1722,40.5285,1366.7551],[-6.1767,40.5376,1258.8328],[-6.1694,40.5499,1054.1975],[-6.1673,40.5576,1033.5607],[-6.173,40.5717,1009.6106],[-6.1733,40.5765,994.9542],[-6.1713,40.5861,971.1779],[-6.168,40.5892,958.1504],[-6.1671,40.5927,951.5356],[-6.1698,40.5988,942.6627],[-6.1734,40.5989,944.4126],[-6.1819,40.5957,934.0632],[-6.19,40.5956,941.0594],[-6.2081,40.5871,979.2286],[-6.2164,40.5856,993.743],[-6.2258,40.5849,993.5706],[-6.2325,40.5886,973.6067],[-6.2368,40.5854,982.8274],[-6.2394,40.5743,988.3805],[-6.2488,40.5782,968.8677],[-6.2506,40.5932,948.004],[-6.2467,40.6231,892.5543],[-6.2533,40.6306,875.4379],[-6.2626,40.6376,859.1776],[-6.2854,40.6458,825.2128],[-6.2949,40.6592,810.1169],[-6.2916,40.6657,802.9924],[-6.2907,40.6818,795.6066],[-6.2882,40.6854,794.5842],[-6.2943,40.6958,802.1664],[-6.3044,40.6932,803.2008],[-6.3179,40.6813,796.6861],[-6.3276,40.6824,773.2573],[-6.3422,40.6872,768.2493],[-6.3426,40.6894,768.4757],[-6.3466,40.6884,770.1621],[-6.3533,40.694,767.4158],[-6.3555,40.6992,764.4977],[-6.3506,40.7271,749.0176],[-6.3442,40.733,747.6243],[-6.3532,40.7419,744.7701],[-6.3542,40.7459,741.9194],[-6.3496,40.7514,740.6044],[-6.3504,40.7531,740.9377],[-6.357,40.7567,737.5055],[-6.3608,40.7596,735.7369],[-6.3617,40.7626,732.8708],[-6.3654,40.7643,732.4617],[-6.3681,40.7641,730.8604],[-6.3736,40.7587,734.8752],[-6.3843,40.7606,733.5734],[-6.3865,40.765,730.1313],[-6.3777,40.7798,727.2985],[-6.3808,40.7798,726.8886],[-6.3847,40.7826,725.8294],[-6.402,40.7822,721.8145],[-6.4045,40.7838,727.25],[-6.4102,40.7937,713.4582],[-6.4479,40.78,763.719],[-6.4586,40.7743,780.0164],[-6.471,40.7814,784.2391],[-6.4737,40.7857,794.4465],[-6.4931,40.7897,791.8121],[-6.5189,40.8082,792.5401],[-6.5213,40.8167,797.1547],[-6.5287,40.8159,776.0507],[-6.535,40.8175,773.6432],[-6.5446,40.824,777.6459],[-6.5496,40.8205,786.9222],[-6.5569,40.8225,778.2173],[-6.5549,40.8183,797.5243],[-6.5447,40.8127,785.6011],[-6.5465,40.8069,785.1011],[-6.5493,40.8048,782.7546],[-6.5467,40.801,785.5563],[-6.5484,40.7971,783.9352],[-6.5517,40.7966,767.4796],[-6.561,40.7996,746.0079],[-6.5574,40.7951,747.9272],[-6.5513,40.7941,750.9786],[-6.5574,40.783,780.6392],[-6.5638,40.7847,784.1776],[-6.5787,40.7829,780.409],[-6.592,40.7843,775.8464],[-6.5962,40.7858,759.796],[-6.6138,40.8003,748.0865],[-6.6181,40.797,740.026],[-6.6193,40.7931,747.105],[-6.6268,40.7919,723.8944],[-6.6334,40.7859,687.777],[-6.6326,40.7811,676.2831],[-6.6366,40.7796,672.6255],[-6.6516,40.7802,659.5974],[-6.6588,40.7858,639.2845],[-6.6625,40.7856,626.8936],[-6.6678,40.7807,535.8709],[-6.6695,40.785,538.8857],[-6.673,40.7841,522.134],[-6.677,40.7798,524.3083],[-6.6851,40.7771,560.5157],[-6.6991,40.7782,511.1113],[-6.7129,40.7855,520.8569],[-6.7189,40.7927,535.6133],[-6.7184,40.7965,526.2188],[-6.7221,40.7984,475.3948],[-6.7222,40.8016,473.4126],[-6.7305,40.8031,451.2177],[-6.7357,40.8097,458.5285],[-6.7349,40.8161,446.2612],[-6.7383,40.8231,436.9313],[-6.7479,40.8269,403.935],[-6.7513,40.8382,366.7848],[-6.7642,40.8418,378.7771],[-6.7747,40.8423,375.1164],[-6.787,40.8515,351.7789],[-6.7995,40.8564,353.6863],[-6.8019,40.8604,345.1276],[-6.803,40.8601,345.1276],[-6.8039,40.8567,372.014],[-6.8013,40.8526,371.9657],[-6.8019,40.8495,407.7466],[-6.8002,40.8486,388.0921],[-6.8019,40.8456,399.0772],[-6.8076,40.8458,432.1005],[-6.8141,40.842,523.5508],[-6.8163,40.8439,541.2062],[-6.8188,40.8421,537.3398],[-6.8209,40.8438,548.5769],[-6.823,40.8431,547.225],[-6.8248,40.8451,554.7099],[-6.8269,40.8403,596.2974],[-6.8241,40.8401,581.5885],[-6.8212,40.8369,579.0415],[-6.821,40.8335,603.8506],[-6.8234,40.8343,589.0388],[-6.8234,40.8272,606.8326],[-6.8251,40.8259,622.3112],[-6.8231,40.8241,619.1378],[-6.8237,40.8179,623.9606],[-6.8173,40.8075,643.5159],[-6.8182,40.8018,645.6876],[-6.8169,40.7971,648.7947],[-6.8196,40.7945,648.5907],[-6.8192,40.7925,649.4581],[-6.8222,40.7876,660.5827],[-6.8257,40.7849,666.0262],[-6.8254,40.7814,674.1561],[-6.8278,40.7761,674.994],[-6.8259,40.7678,679.7084],[-6.8312,40.7528,686.7102],[-6.8286,40.7446,692.729],[-6.8305,40.7428,691.979],[-6.8286,40.7385,694.3608],[-6.8249,40.7371,695.4411],[-6.8247,40.7299,706.6032],[-6.8199,40.7281,707.1667],[-6.8193,40.7257,705.8738],[-6.8174,40.7255,708.7862],[-6.8108,40.7169,708.1942],[-6.8132,40.7084,713.1398],[-6.8113,40.7019,716.9483],[-6.807,40.6979,722.2359],[-6.8068,40.6933,722.5533],[-6.805,40.6929,723.8923],[-6.8058,40.6906,723.3591],[-6.8017,40.6779,731.983],[-6.8056,40.6685,738.526],[-6.794,40.6613,777.8863],[-6.7995,40.6545,785.2076],[-6.8062,40.6327,791.2611],[-6.8154,40.6182,790.3879],[-6.8276,40.603,792.8975],[-6.8381,40.5942,789.7086],[-6.8368,40.5846,785.2115],[-6.8378,40.5799,785.9924],[-6.8413,40.5766,784.8144],[-6.8454,40.5659,786.8314],[-6.83,40.563,770.513],[-6.8232,40.5582,761.9483],[-6.8083,40.5544,761.3372],[-6.8056,40.5549,755.6525],[-6.8046,40.5504,757.9657],[-6.8009,40.5503,765.6887],[-6.8054,40.5408,771.3547],[-6.8052,40.5359,783.2964],[-6.8042,40.5312,804.9327],[-6.7974,40.5224,761.0558],[-6.7953,40.5114,725.6808],[-6.8108,40.5052,771.2237],[-6.8147,40.5016,774.9556],[-6.818,40.4946,790.4354],[-6.8176,40.4901,799.2323],[-6.8227,40.4832,807.6336],[-6.8352,40.4754,764.4169],[-6.8497,40.4515,832.5245],[-6.8387,40.4147,795.8184],[-6.8345,40.4077,819.416],[-6.8219,40.3956,860.0887],[-6.8125,40.3909,870.4681],[-6.8095,40.3873,861.7842],[-6.8105,40.3849,866.1469],[-6.8092,40.3837,861.5198],[-6.8037,40.3815,856.9899],[-6.7934,40.3721,864.7528],[-6.7842,40.3699,892.0668],[-6.781,40.3643,896.0402],[-6.7896,40.3599,902.2516],[-6.7939,40.3554,895.9785],[-6.7903,40.3342,864.6393],[-6.7941,40.3284,866.1262],[-6.804,40.3244,873.9149],[-6.817,40.3253,887.6143],[-6.8215,40.3224,889.5418],[-6.8246,40.3228,898.5582],[-6.8266,40.3189,906.1857],[-6.8323,40.3173,912.1201],[-6.8347,40.3145,916.3811],[-6.8401,40.3137,935.2548],[-6.8477,40.3069,1007.4435],[-6.8543,40.3034,1045.7195]]]]}}