{"type": "Feature","bbox": [-4.228,37.3784,-3.6917,37.7059],"geometry": {"type": "MultiPolygon","coordinates": [[[[-4.0188,37.4198,952.7681],[-4.0135,37.4164,1025.7881],[-4.0007,37.4021,971.5354],[-3.9813,37.3875,914.0352],[-3.9731,37.3882,917.1639],[-3.9508,37.3784,1080.5707],[-3.9378,37.3797,1029.6202],[-3.9121,37.3784,1099.0698],[-3.9048,37.3808,1167.7728],[-3.9013,37.3835,1166.6957],[-3.8823,37.3875,987.4162],[-3.8576,37.3879,856.4352],[-3.8434,37.3854,912.2029],[-3.8411,37.3863,903.2205],[-3.8362,37.3956,917.4373],[-3.8304,37.4014,945.1967],[-3.8253,37.4025,894.5712],[-3.8241,37.4058,791.3067],[-3.8274,37.4101,788.7238],[-3.8259,37.4141,806.5582],[-3.8176,37.422,818.5625],[-3.8159,37.429,846.5634],[-3.8134,37.4306,852.8475],[-3.8021,37.4534,941.5386],[-3.8082,37.458,1000.5653],[-3.8082,37.4599,1025.0107],[-3.8019,37.4608,1040.6554],[-3.7916,37.4662,1014.5436],[-3.7914,37.4717,1070.0391],[-3.7864,37.4783,1098.697],[-3.7914,37.4789,1160.1294],[-3.7924,37.4825,1211.9298],[-3.7855,37.4909,1396.8074],[-3.7756,37.4911,1243.1406],[-3.7796,37.4965,1274.0439],[-3.7703,37.5014,1450.4474],[-3.762,37.5014,1412.8705],[-3.752,37.5103,1142.3131],[-3.7438,37.5145,1525.2905],[-3.7411,37.5204,1495.8451],[-3.7434,37.5237,1585.1693],[-3.7407,37.5342,1629.533],[-3.731,37.535,1584.5028],[-3.7263,37.5417,1483.9276],[-3.7267,37.5451,1495.162],[-3.7216,37.5457,1415.7025],[-3.7177,37.5495,1256.13],[-3.7173,37.5566,1142.6552],[-3.7074,37.5717,958.3251],[-3.709,37.5729,954.5145],[-3.708,37.5808,927.1946],[-3.7059,37.5821,911.1244],[-3.705,37.5878,937.5359],[-3.7016,37.592,910.8369],[-3.703,37.5928,929.3788],[-3.6986,37.5939,855.914],[-3.6966,37.5977,834.5775],[-3.697,37.6036,880.0362],[-3.6917,37.6133,847.8173],[-3.6932,37.6136,831.3038],[-3.6923,37.6202,854.4968],[-3.6964,37.62,795.2648],[-3.696,37.6229,783.3815],[-3.7003,37.6232,784.8615],[-3.7034,37.6259,789.9023],[-3.7151,37.6247,776.0],[-3.7262,37.6288,776.0],[-3.7276,37.6317,776.0],[-3.7329,37.6347,881.3516],[-3.7434,37.6318,937.74],[-3.759,37.6335,1439.5701],[-3.7644,37.6281,1744.0317],[-3.8186,37.6443,1542.1644],[-3.8384,37.6388,1140.6162],[-3.8839,37.6444,1096.6111],[-3.8812,37.627,1107.7679],[-3.8763,37.6149,1173.3707],[-3.8701,37.6061,1163.3383],[-3.8731,37.5911,722.8373],[-3.8779,37.5831,1105.7383],[-3.8787,37.5771,1267.4741],[-3.8835,37.5762,1239.5723],[-3.9029,37.581,789.1796],[-3.9085,37.5804,765.6713],[-3.9146,37.5818,709.481],[-3.9174,37.5849,696.9011],[-3.9295,37.5908,901.3686],[-3.9393,37.5881,899.7556],[-3.953,37.5935,950.7326],[-3.9666,37.5938,960.4623],[-3.9745,37.5968,1014.7822],[-3.9895,37.5988,929.6068],[-3.9935,37.6024,813.861],[-3.9939,37.6061,776.5851],[-3.9957,37.6064,797.8505],[-3.997,37.6094,845.4566],[-4.0118,37.6176,1212.8965],[-4.0137,37.62,1251.2649],[-4.0266,37.6247,1058.0966],[-4.0316,37.6312,926.3626],[-4.0398,37.6296,869.1295],[-4.0546,37.6334,643.0005],[-4.059,37.6383,519.4446],[-4.0713,37.6426,477.3197],[-4.0735,37.646,501.929],[-4.0736,37.6509,528.1876],[-4.0714,37.6522,537.1207],[-4.0686,37.6606,568.3088],[-4.0716,37.668,622.3019],[-4.0656,37.6783,531.6597],[-4.0612,37.6819,487.2188],[-4.0673,37.6884,489.5887],[-4.0766,37.7042,436.0376],[-4.0805,37.7059,420.869],[-4.0846,37.7006,428.2799],[-4.0929,37.6947,436.0565],[-4.0972,37.687,456.1653],[-4.1008,37.6851,456.8713],[-4.1029,37.6863,466.1976],[-4.1159,37.6779,509.626],[-4.1339,37.6766,527.0047],[-4.1546,37.6807,477.7841],[-4.1623,37.6794,439.0628],[-4.1642,37.6815,435.6315],[-4.1753,37.6774,430.811],[-4.1875,37.6701,438.7731],[-4.2147,37.6468,416.2534],[-4.228,37.6396,316.9367],[-4.2255,37.6381,356.0],[-4.2239,37.631,356.0],[-4.2206,37.63,356.0],[-4.2181,37.6266,356.0],[-4.2211,37.6225,356.0],[-4.2196,37.62,356.0],[-4.2108,37.6162,359.9651],[-4.2083,37.6108,356.0],[-4.206,37.611,356.0],[-4.2057,37.613,356.0],[-4.2017,37.6154,356.0],[-4.1976,37.6117,364.2836],[-4.1952,37.6121,356.0],[-4.1946,37.6154,363.6101],[-4.1875,37.6166,356.0],[-4.1812,37.6147,356.0],[-4.1761,37.6104,361.686],[-4.1737,37.6101,356.0],[-4.163,37.5993,376.8427],[-4.1626,37.5979,360.5853],[-4.1663,37.5958,357.5787],[-4.1703,37.5888,397.6451],[-4.1689,37.5872,362.0306],[-4.1616,37.5893,367.6047],[-4.1602,37.5849,362.9022],[-4.1622,37.5822,396.5111],[-4.1577,37.5799,368.4085],[-4.161,37.5761,372.7443],[-4.1599,37.5745,367.0315],[-4.1499,37.5744,375.7916],[-4.1493,37.5676,396.0098],[-4.1477,37.5706,387.442],[-4.1445,37.5691,376.2371],[-4.1463,37.5666,379.2155],[-4.1453,37.5633,378.5632],[-4.1395,37.5604,397.1744],[-4.1366,37.5623,385.7777],[-4.1335,37.5583,434.4537],[-4.1303,37.5586,404.863],[-4.1253,37.5541,403.7053],[-4.1226,37.5549,410.7697],[-4.12,37.5532,414.8536],[-4.1225,37.5516,400.4258],[-4.1222,37.5469,416.2676],[-4.1165,37.5483,412.9479],[-4.114,37.547,408.304],[-4.1135,37.54,414.0309],[-4.1106,37.5375,414.3451],[-4.1091,37.5333,452.9308],[-4.1067,37.5324,422.9374],[-4.1051,37.5341,421.99],[-4.0974,37.5277,467.77],[-4.099,37.5223,437.2836],[-4.0966,37.517,456.0322],[-4.0991,37.5147,448.4146],[-4.0979,37.5116,447.8021],[-4.0956,37.5116,459.6176],[-4.095,37.51,451.2934],[-4.0853,37.5136,493.8507],[-4.0795,37.5093,522.3438],[-4.0629,37.5074,655.623],[-4.0597,37.5055,678.5783],[-4.0727,37.4964,630.0045],[-4.0743,37.4931,606.2418],[-4.0831,37.4897,533.5469],[-4.0872,37.486,499.1337],[-4.0827,37.4838,519.144],[-4.0814,37.4805,514.9912],[-4.0726,37.4734,536.593],[-4.0674,37.4717,544.8704],[-4.06,37.472,552.5208],[-4.048,37.468,569.7992],[-4.0446,37.4619,616.0854],[-4.0404,37.4588,592.3689],[-4.0309,37.4433,721.2385],[-4.0317,37.4425,721.2385],[-4.0289,37.4422,746.9399],[-4.0273,37.4344,845.1068],[-4.0217,37.4274,909.5983],[-4.0188,37.4198,952.7681]]]]}
,"properties": {"GID_3": "ESP.1.6.9_1","GID_0": "ESP","country": "Spain","GID_1": "ESP.1_1","province": "Andalucía","NL_NAME_1": "NA","GID_2": "ESP.1.6_1","county": "Jaén","NL_NAME_2": "NA","city": "SierraSur","VARNAME_3": "NA","NL_NAME_3": "NA","TYPE_3": "Comarca","ENGTYPE_3": "Comarca","CC_3": "NA","HASC_3": "NA","name": "Sierra_Sur.city","area_km2": 824.5006,"hist_schema_id": "Elevation0-9000","hist_area_km2": {"325": 0.0168,"350": 4.9031,"375": 5.0546,"400": 10.63,"425": 16.121,"450": 22.0651,"475": 25.5926,"500": 22.0339,"525": 17.8214,"550": 15.7088,"575": 16.8715,"600": 17.0258,"625": 18.44,"650": 20.2067,"675": 20.0557,"700": 18.9957,"725": 16.4742,"750": 14.6089,"775": 12.9779,"800": 15.5219,"825": 26.1098,"850": 34.8788,"875": 39.574,"900": 39.4223,"925": 38.6474,"950": 32.0171,"975": 26.6798,"1000": 24.2404,"1025": 20.9245,"1050": 17.3895,"1075": 16.2271,"1100": 17.0323,"1125": 15.063,"1150": 15.4489,"1175": 15.4313,"1200": 14.1531,"1225": 13.2285,"1250": 12.7915,"1275": 12.8244,"1300": 11.5978,"1325": 11.4801,"1350": 10.3035,"1375": 8.8914,"1400": 7.4122,"1425": 5.815,"1450": 4.8735,"1475": 4.2179,"1500": 4.0329,"1525": 2.6716,"1550": 2.1001,"1575": 1.8145,"1600": 1.4446,"1625": 1.3943,"1650": 1.0918,"1675": 0.6718,"1700": 0.5542,"1725": 0.3863,"1750": 0.2855,"1775": 0.1511,"1800": 0.0504,"1825": 0.0336,"1850": 0.0168}}}