{"type":"Feature","properties":{"GID_3":"ESP.4.1.2_1","GID_0":"ESP","country":"Spain","GID_1":"ESP.4_1","province":"Castilla-LaMancha","NL_NAME_1":"NA","GID_2":"ESP.4.1_1","county":"Albacete","NL_NAME_2":"NA","city":"n.a.(11)","VARNAME_3":"NA","NL_NAME_3":"NA","TYPE_3":"Comarca","ENGTYPE_3":"Comarca","CC_3":"NA","HASC_3":"NA","name":"n.a.(11).city"},
"geometry":{"type": "MultiPolygon","coordinates": [[[[-1.4442,39.3618,457.2881],[-1.455,39.3609,448.4693],[-1.455,39.364,456.8097],[-1.4494,39.3665,469.8304],[-1.4521,39.3736,462.0721],[-1.4485,39.3771,454.5181],[-1.4492,39.3787,454.5181],[-1.4576,39.3802,448.0206],[-1.4625,39.3794,451.6757],[-1.4681,39.3834,457.4045],[-1.4631,39.3874,481.2206],[-1.4549,39.3828,456.1256],[-1.4532,39.3834,463.685],[-1.4527,39.3853,452.1712],[-1.457,39.3869,463.7932],[-1.4578,39.3897,453.198],[-1.4522,39.3907,454.9579],[-1.4543,39.3927,476.2955],[-1.4527,39.3987,473.6765],[-1.4559,39.4007,468.4694],[-1.4622,39.4,470.6501],[-1.4672,39.3904,473.9457],[-1.4732,39.3912,466.6354],[-1.4771,39.3948,482.1457],[-1.4752,39.3987,468.657],[-1.4667,39.4012,473.4558],[-1.4701,39.4072,480.2256],[-1.4749,39.4087,479.433],[-1.4817,39.4013,481.9379],[-1.4885,39.4011,470.6995],[-1.4898,39.4066,469.3638],[-1.4874,39.4118,476.6675],[-1.4885,39.4159,478.0021],[-1.488,39.4178,480.1488],[-1.4824,39.4189,486.3307],[-1.484,39.4229,499.2906],[-1.4895,39.4223,492.3799],[-1.4984,39.4153,495.6634],[-1.5051,39.418,482.695],[-1.5151,39.4164,572.0262],[-1.5347,39.4075,646.4238],[-1.5556,39.4019,681.8293],[-1.5814,39.3853,700.6146],[-1.5983,39.3786,744.1021],[-1.6128,39.3682,735.3042],[-1.6268,39.361,748.4117],[-1.6965,39.3375,730.64],[-1.7165,39.325,739.4464],[-1.7392,39.3212,750.4526],[-1.7626,39.302,734.7836],[-1.7698,39.2805,716.6411],[-1.8124,39.2863,724.6662],[-1.8451,39.2861,711.2776],[-1.8503,39.2586,716.9329],[-1.8574,39.241,704.5928],[-1.857,39.2327,688.5857],[-1.8471,39.2025,695.8934],[-1.8379,39.1924,698.3401],[-1.8243,39.1687,641.8299],[-1.8181,39.1653,649.5765],[-1.8047,39.1633,633.7106],[-1.7978,39.1605,630.6003],[-1.7971,39.1576,636.8367],[-1.8117,39.1564,624.665],[-1.8146,39.1446,618.1167],[-1.8125,39.1434,631.3174],[-1.8015,39.147,630.8652],[-1.7929,39.1522,634.2635],[-1.7899,39.1502,617.0662],[-1.7724,39.1477,613.9869],[-1.7475,39.137,616.179],[-1.7442,39.1387,608.8432],[-1.7335,39.1343,637.0659],[-1.7217,39.1257,675.8975],[-1.7126,39.1072,683.6837],[-1.7011,39.1014,682.3854],[-1.6933,39.0928,675.1857],[-1.6865,39.0915,669.2851],[-1.68,39.0834,650.1664],[-1.6688,39.0799,658.267],[-1.658,39.0728,670.2775],[-1.6006,39.0521,771.9608],[-1.5599,39.0406,832.1537],[-1.5447,39.0329,803.1173],[-1.5208,39.0271,881.5261],[-1.4653,39.0236,954.0173],[-1.4292,39.026,1011.1423],[-1.3988,39.0339,1057.3876],[-1.39,39.0328,1061.1887],[-1.3645,39.0432,1074.7734],[-1.3218,39.0502,1056.678],[-1.2976,39.0506,1091.1169],[-1.2892,39.0547,1098.89],[-1.2834,39.0551,1104.6265],[-1.2667,39.051,1052.1008],[-1.2652,39.0525,1062.0026],[-1.2637,39.0684,1063.1798],[-1.2656,39.0755,1105.1998],[-1.2557,39.0841,1123.9609],[-1.2557,39.1062,1103.5811],[-1.2404,39.1138,1004.8362],[-1.2269,39.1517,983.461],[-1.2105,39.1623,857.1449],[-1.197,39.1768,823.5094],[-1.1944,39.1804,763.5428],[-1.1922,39.1939,678.5129],[-1.1808,39.2119,810.6659],[-1.1763,39.2303,742.0649],[-1.1768,39.2467,739.1066],[-1.1747,39.2793,570.8965],[-1.1664,39.2934,536.4854],[-1.1618,39.3054,388.4714],[-1.1649,39.3105,390.951],[-1.1781,39.3147,364.4869],[-1.1885,39.3156,366.4856],[-1.1915,39.3144,365.5343],[-1.1947,39.3159,367.2701],[-1.1976,39.3136,411.888],[-1.2041,39.3183,374.9495],[-1.2035,39.3209,363.3],[-1.2074,39.326,364.5021],[-1.21,39.3264,365.103],[-1.2143,39.3222,389.7101],[-1.2146,39.3191,366.6256],[-1.2233,39.3161,372.869],[-1.2277,39.3195,381.9344],[-1.238,39.3225,374.4516],[-1.2442,39.3216,378.6221],[-1.2471,39.3286,383.1207],[-1.2501,39.3225,376.0454],[-1.2549,39.3271,405.1041],[-1.2625,39.3299,393.24],[-1.2674,39.3286,381.1621],[-1.2737,39.3332,382.1638],[-1.2774,39.3327,381.3054],[-1.2818,39.3286,399.7959],[-1.2851,39.3299,382.746],[-1.285,39.3321,414.8752],[-1.2911,39.3348,401.6631],[-1.2935,39.3316,386.3832],[-1.298,39.3312,387.1149],[-1.3016,39.3344,399.583],[-1.2989,39.3359,397.3918],[-1.2991,39.3378,398.5277],[-1.3098,39.3404,405.0374],[-1.3124,39.3431,393.3911],[-1.318,39.3432,402.6631],[-1.3206,39.3397,390.8762],[-1.3288,39.3423,431.8498],[-1.3334,39.3407,404.8478],[-1.3348,39.3396,407.1794],[-1.3314,39.3384,392.3784],[-1.3304,39.3357,391.8719],[-1.3362,39.334,392.4256],[-1.3427,39.3402,399.3701],[-1.3522,39.3398,404.3432],[-1.3555,39.3422,414.7779],[-1.3575,39.3474,409.3866],[-1.362,39.349,413.1644],[-1.3674,39.3561,424.8564],[-1.3774,39.3564,414.8042],[-1.3851,39.3543,406.091],[-1.3816,39.3595,425.2541],[-1.3837,39.3663,413.149],[-1.3919,39.3674,421.9597],[-1.4011,39.3635,449.6703],[-1.4077,39.3658,418.6884],[-1.4088,39.3682,432.9885],[-1.4066,39.3694,414.6234],[-1.4006,39.3685,453.3318],[-1.3976,39.3706,425.5009],[-1.3961,39.3743,437.5704],[-1.4003,39.377,419.4263],[-1.4076,39.3717,435.2769],[-1.41,39.373,426.3311],[-1.4108,39.3781,441.1941],[-1.4141,39.3802,435.3172],[-1.4223,39.3812,433.0948],[-1.4259,39.3791,449.827],[-1.4231,39.3742,475.7633],[-1.4222,39.3655,435.44],[-1.4236,39.364,438.5982],[-1.4286,39.3619,456.5196],[-1.4322,39.3648,481.4879],[-1.428,39.3708,431.7381],[-1.4283,39.3758,445.2434],[-1.4322,39.3776,445.5199],[-1.4341,39.3764,448.8096],[-1.432,39.3728,440.387],[-1.4381,39.3734,436.8021],[-1.4429,39.3676,456.8298],[-1.4442,39.3618,457.2881]]]]}}