{"type":"Feature","properties":{"GID_3":"ESP.5.5.6_1","GID_0":"ESP","country":"Spain","GID_1":"ESP.5_1","province":"CastillayLeón","NL_NAME_1":"NA","GID_2":"ESP.5.5_1","county":"Salamanca","NL_NAME_2":"NA","city":"n.a.(217)","VARNAME_3":"NA","NL_NAME_3":"NA","TYPE_3":"Comarca","ENGTYPE_3":"Comarca","CC_3":"NA","HASC_3":"NA","name":"n.a.(217).city"},
"geometry":{"type": "MultiPolygon","coordinates": [[[[-5.9839,40.9217,813.7782],[-5.9913,40.9273,812.2677],[-5.9962,40.9272,814.8277],[-5.9898,40.9362,810.7754],[-5.9855,40.9512,815.4532],[-5.9797,40.9544,806.9687],[-5.9691,40.956,804.3831],[-5.9692,40.9532,802.8165],[-5.9582,40.9527,796.3802],[-5.9508,40.9479,824.4779],[-5.9464,40.9485,822.6805],[-5.9424,40.9468,814.2599],[-5.9424,40.9429,813.9013],[-5.9372,40.9397,813.6628],[-5.9296,40.9383,811.9414],[-5.9231,40.9343,816.9987],[-5.9134,40.943,803.9893],[-5.9093,40.9418,804.0587],[-5.9041,40.9439,795.7941],[-5.9024,40.9432,798.4216],[-5.9006,40.9459,794.5087],[-5.8977,40.9438,797.9235],[-5.8948,40.9452,800.0497],[-5.8941,40.9436,804.2469],[-5.8905,40.9433,805.4484],[-5.894,40.9514,798.6948],[-5.8931,40.9553,792.293],[-5.8807,40.962,813.2162],[-5.9016,40.9781,790.0853],[-5.9026,40.9804,784.706],[-5.9009,40.9824,780.9948],[-5.8942,40.9815,781.9936],[-5.8922,40.9866,815.0431],[-5.8875,40.9858,817.1176],[-5.8864,40.989,808.0131],[-5.8884,40.9905,801.9348],[-5.8815,40.9991,836.2206],[-5.8834,41.0051,829.7328],[-5.8726,41.0031,838.9435],[-5.8699,41.0042,834.9642],[-5.8662,41.011,845.8964],[-5.8579,41.0096,848.6541],[-5.8532,41.0128,848.9521],[-5.8522,41.0233,826.0797],[-5.8558,41.0322,810.4344],[-5.8539,41.0355,791.48],[-5.8559,41.0433,780.1705],[-5.8584,41.0441,777.4822],[-5.8518,41.0448,777.6285],[-5.852,41.0461,783.0179],[-5.8405,41.049,779.907],[-5.834,41.0453,771.9856],[-5.8276,41.0518,764.5778],[-5.8262,41.0559,756.4442],[-5.8262,41.0547,760.4725],[-5.8222,41.0536,753.458],[-5.8137,41.0558,750.7233],[-5.806,41.0514,751.87],[-5.7998,41.0501,753.6237],[-5.7953,41.0521,758.5031],[-5.7907,41.057,787.5468],[-5.7912,41.06,798.1638],[-5.7878,41.0618,801.521],[-5.7907,41.0654,784.0886],[-5.7819,41.0791,805.6552],[-5.7848,41.0821,802.6479],[-5.7972,41.0828,798.686],[-5.8036,41.0873,797.5297],[-5.7915,41.1247,813.5939],[-5.7939,41.1268,820.9184],[-5.7953,41.1383,829.3887],[-5.7855,41.141,827.1091],[-5.7849,41.1456,829.2009],[-5.7661,41.1484,809.2103],[-5.7579,41.1466,853.298],[-5.7579,41.1419,848.947],[-5.7427,41.1447,824.5052],[-5.7262,41.1541,844.6996],[-5.7291,41.1695,874.6061],[-5.7283,41.1748,874.2308],[-5.7173,41.1881,869.8857],[-5.7262,41.1979,857.3195],[-5.7334,41.2182,851.9125],[-5.7322,41.2242,872.7829],[-5.7346,41.2244,872.6925],[-5.7348,41.2276,863.2446],[-5.7511,41.2259,876.8956],[-5.756,41.2237,871.4307],[-5.7652,41.2158,883.002],[-5.7907,41.216,904.9464],[-5.7958,41.2195,907.6904],[-5.8042,41.2208,913.2451],[-5.8086,41.2245,914.0548],[-5.8351,41.2203,922.9673],[-5.8506,41.2251,938.7885],[-5.8557,41.2246,945.0931],[-5.861,41.2285,948.7951],[-5.8646,41.228,946.5209],[-5.8692,41.2327,951.2748],[-5.8778,41.2374,955.2316],[-5.8912,41.2358,975.9644],[-5.8976,41.2386,967.0814],[-5.9134,41.2308,893.0755],[-5.9131,41.228,892.869],[-5.9212,41.2181,866.6873],[-5.9177,41.2049,876.2829],[-5.9159,41.1875,860.0122],[-5.9138,41.1838,861.6058],[-5.9151,41.1824,865.7237],[-5.913,41.1783,852.3642],[-5.9155,41.1743,859.9101],[-5.922,41.1758,847.2189],[-5.9324,41.1661,826.4199],[-5.9305,41.1595,829.8276],[-5.9315,41.1577,824.019],[-5.9366,41.1587,816.251],[-5.9337,41.1515,813.7525],[-5.944,41.1505,813.3422],[-5.9476,41.1478,815.2535],[-5.945,41.1442,809.1817],[-5.9531,41.1401,811.4062],[-5.9555,41.1436,812.2203],[-5.9631,41.146,824.4342],[-5.9628,41.149,823.5111],[-5.9664,41.1559,812.9061],[-5.9687,41.1567,796.4142],[-5.9719,41.1623,796.6182],[-5.9713,41.1688,807.3705],[-5.974,41.1726,816.0753],[-5.9791,41.1746,830.0803],[-5.9849,41.1733,820.3576],[-6.0024,41.1531,806.0992],[-6.0097,41.1521,805.1261],[-6.0217,41.1553,799.0346],[-6.0281,41.1665,798.2635],[-6.0274,41.1791,824.058],[-6.0181,41.1903,832.465],[-6.0109,41.1938,837.1729],[-6.0087,41.2005,844.466],[-6.0466,41.209,810.5823],[-6.0584,41.2147,828.4301],[-6.0619,41.221,843.4286],[-6.0655,41.2176,835.4861],[-6.0693,41.2168,817.4824],[-6.0739,41.2113,805.8342],[-6.0924,41.2125,810.8834],[-6.0999,41.2103,806.3357],[-6.1092,41.2126,769.1129],[-6.121,41.2037,724.4688],[-6.1241,41.2029,719.2836],[-6.1262,41.1966,717.0],[-6.1344,41.1904,717.0],[-6.1434,41.1978,717.0],[-6.1642,41.2077,717.0],[-6.1783,41.2087,717.0],[-6.1913,41.214,717.0],[-6.2009,41.2202,717.0],[-6.2039,41.22,717.0],[-6.2251,41.2277,717.0],[-6.2311,41.2328,717.0],[-6.2343,41.2384,717.0],[-6.2522,41.2424,717.0],[-6.268,41.2556,717.0],[-6.2741,41.2572,717.0],[-6.2775,41.2547,717.0],[-6.2884,41.2547,717.0],[-6.288,41.2448,717.0],[-6.293,41.2363,717.0],[-6.292,41.231,717.0],[-6.2971,41.225,717.0],[-6.311,41.2175,732.6077],[-6.3138,41.2097,725.3923],[-6.3131,41.207,734.548],[-6.3056,41.2019,717.0],[-6.2952,41.1999,740.415],[-6.2826,41.1919,764.8108],[-6.2699,41.1884,765.8015],[-6.2606,41.1886,768.6404],[-6.2611,41.1833,763.474],[-6.2596,41.1817,765.1107],[-6.2609,41.1797,763.0499],[-6.2585,41.1729,768.8553],[-6.2612,41.1686,778.5892],[-6.2574,41.1637,758.0651],[-6.2683,41.1489,800.9631],[-6.2633,41.1392,809.1318],[-6.2451,41.1215,828.705],[-6.2294,41.121,802.0076],[-6.1933,41.1129,802.6207],[-6.1888,41.1053,779.7214],[-6.2012,41.0947,805.9329],[-6.2099,41.0919,821.377],[-6.2144,41.0864,831.9484],[-6.2215,41.0819,824.9078],[-6.2258,41.0714,838.7945],[-6.2225,41.0692,837.1302],[-6.2145,41.056399999999996,847.0626],[-6.2121,41.0554,848.1857],[-6.2017,41.061,795.2474],[-6.1884,41.0655,773.765],[-6.1711,41.0669,771.0623],[-6.1659,41.066,774.6711],[-6.1579,41.0579,799.4263],[-6.1652,41.0439,806.0024],[-6.1696,41.0396,807.9069],[-6.1717,41.0326,837.1479],[-6.1771,41.0332,848.3045],[-6.1765,41.0321,848.3045],[-6.1926,41.0247,837.4396],[-6.19,41.0202,824.5557],[-6.1945,41.0131,819.3453],[-6.195,41.0083,816.0204],[-6.1915,41.0018,823.871],[-6.1927,40.9968,833.6474],[-6.1899,40.991,830.4326],[-6.1897,40.9815,816.338],[-6.1785,40.9813,804.5526],[-6.1729,40.9759,791.798],[-6.1633,40.9739,788.5611],[-6.1595,40.9701,814.183],[-6.1521,40.9674,837.7159],[-6.1652,40.9466,816.2866],[-6.1716,40.9434,817.5477],[-6.1763,40.9383,845.159],[-6.16,40.9358,844.0158],[-6.1572,40.9336,855.4532],[-6.1578,40.9305,840.2054],[-6.1633,40.9256,832.9273],[-6.1638,40.9224,817.1558],[-6.1576,40.9234,826.1873],[-6.15,40.9146,800.4719],[-6.1439,40.9131,787.4572],[-6.1357,40.9164,811.7447],[-6.1182,40.9191,861.3818],[-6.1135,40.9257,862.5526],[-6.1029,40.9257,874.7693],[-6.1009,40.9317,891.3045],[-6.0929,40.9345,876.9935],[-6.0907,40.9397,862.3644],[-6.0828,40.9332,877.8087],[-6.0835,40.9296,871.6621],[-6.0803,40.9293,872.856],[-6.0781,40.9248,876.0888],[-6.0815,40.9192,874.6284],[-6.081,40.9135,878.0417],[-6.0755,40.9093,870.4832],[-6.0688,40.907,851.6603],[-6.0744,40.9057,868.2635],[-6.0763,40.9017,853.9039],[-6.0771,40.895,856.2063],[-6.0748,40.8889,853.4714],[-6.0654,40.8892,830.0005],[-6.0553,40.8865,847.1376],[-6.0549,40.8887,847.0012],[-6.0513,40.8906,833.4954],[-6.0448,40.8887,833.1912],[-6.0354,40.8884,824.73],[-6.0344,40.893,829.9969],[-6.028,40.8879,827.7242],[-6.005,40.8841,789.2952],[-6.0015,40.8851,788.9223],[-5.9997,40.8829,796.7252],[-5.9933,40.8863,799.5857],[-5.9903,40.884,791.6213],[-5.9813,40.8862,795.7156],[-5.9824,40.8893,798.73],[-5.9792,40.8909,803.5634],[-5.9824,40.894,798.0059],[-5.9801,40.8956,798.8337],[-5.9647,40.8942,802.4915],[-5.9616,40.8964,811.2638],[-5.9705,40.9065,809.833],[-5.9658,40.9129,821.1616],[-5.9749,40.9243,809.942],[-5.9773,40.9223,810.4558],[-5.9839,40.9217,813.7782]]]]}}