{"type": "Feature","bbox": [1.6449,42.1036,1.6919,42.1154],"geometry": {"type": "MultiPolygon","coordinates": [[[[1.6449,42.1126,1209.5686],[1.6676,42.1049,1211.2906],[1.6794,42.1036,1137.7964],[1.6894,42.1049,902.6677],[1.6879,42.1065,899.1437],[1.6919,42.1103,943.1432],[1.6917,42.1129,1158.9745],[1.6832,42.1145,1175.1357],[1.664,42.1136,1123.9539],[1.656,42.1154,1283.0983],[1.6554,42.1135,1205.928],[1.6519,42.1145,1247.8461],[1.6449,42.1126,1209.5686]]]]}
,"properties": {"GID_3": "ESP.6.1.2_1","GID_0": "ESP","country": "Spain","GID_1": "ESP.6_1","province": "Cataluña","NL_NAME_1": "NA","GID_2": "ESP.6.1_1","county": "Barcelona","NL_NAME_2": "NA","city": "n.a.(164)","VARNAME_3": "NA","NL_NAME_3": "NA","TYPE_3": "Comarca","ENGTYPE_3": "Comarca","CC_3": "NA","HASC_3": "NA","name": "n.a.(164).city","area_km2": 3.145816,"hist_schema_id": "Elevation0-9000","hist_area_km2": {"875": 0.01573,"900": 0.110108,"925": 0.110107,"950": 0.141565,"975": 0.267402,"1000": 0.267398,"1025": 0.298855,"1050": 0.314584,"1075": 0.188753,"1100": 0.330311,"1125": 0.220206,"1150": 0.251662,"1175": 0.173016,"1200": 0.157283,"1225": 0.125828,"1250": 0.110097,"1275": 0.015728,"1300": 0.031456,"1325": 0.015728}}}