{"type": "Feature","bbox": [-6.4737,40.5743,-5.6656,40.9397],"geometry": {"type": "MultiPolygon","coordinates": [[[[-6.1571,40.5921,928.7777],[-6.1566,40.5964,942.5001],[-6.1612,40.6034,917.4277],[-6.158,40.6215,922.2591],[-6.1456,40.619,964.8253],[-6.1382,40.6198,1008.3157],[-6.128,40.6264,943.8796],[-6.1243,40.6346,955.8005],[-6.0984,40.6311,998.5022],[-6.0868,40.634,1054.1198],[-6.0839,40.6401,986.0631],[-6.0737,40.6481,895.4822],[-6.0729,40.6531,874.2635],[-6.0632,40.6587,859.0734],[-6.0549,40.6574,865.4329],[-6.0474,40.6657,869.6119],[-6.04,40.6655,858.5229],[-6.0313,40.6608,874.2158],[-6.0256,40.6615,873.9171],[-6.0261,40.6582,884.972],[-6.0206,40.6636,876.9827],[-6.0212,40.6705,914.1841],[-6.0176,40.6765,908.3679],[-6.0112,40.6791,901.2006],[-6.01,40.6817,899.8691],[-6.0033,40.6863,895.0189],[-5.9967,40.6832,881.6306],[-5.9948,40.6843,864.3236],[-5.9976,40.687,880.5711],[-5.9959,40.6877,875.0342],[-5.9919,40.6843,853.7247],[-5.9927,40.683,860.7303],[-5.9898,40.6817,858.1626],[-5.9964,40.6687,921.8914],[-5.9957,40.6635,925.1321],[-5.9913,40.6578,923.7632],[-5.9876,40.6614,906.7385],[-5.9684,40.6609,876.7733],[-5.9639,40.6508,894.7539],[-5.9565,40.644,907.444],[-5.9497,40.6446,916.9323],[-5.9505,40.6397,916.4028],[-5.9408,40.6383,923.7783],[-5.9369,40.6349,937.7516],[-5.9356,40.6295,945.768],[-5.9235,40.62,1004.4449],[-5.9157,40.6241,979.0973],[-5.9125,40.6238,983.0536],[-5.9017,40.6191,962.0123],[-5.8972,40.6147,940.1769],[-5.8945,40.618,949.6086],[-5.89,40.618899999999996,952.9655],[-5.8942,40.6242,958.7981],[-5.8947,40.6299,969.5655],[-5.8888,40.6346,948.9582],[-5.8887,40.642,963.4977],[-5.8857,40.6456,959.6238],[-5.8875,40.6529,978.9708],[-5.8847,40.6595,1002.6727],[-5.8637,40.6641,943.5511],[-5.8529,40.6638,950.6326],[-5.8454,40.6556,939.7844],[-5.8246,40.6587,952.5022],[-5.8216,40.6577,947.5512],[-5.8198,40.6616,955.1724],[-5.8092,40.6653,954.3489],[-5.7939,40.6769,1059.6432],[-5.7725,40.6835,1098.1897],[-5.764,40.7014,977.3432],[-5.7666,40.7207,980.6082],[-5.7632,40.7223,975.1302],[-5.7582,40.7299,945.9722],[-5.7562,40.7297,944.8099],[-5.7549,40.7315,936.5429],[-5.7505,40.7318,930.2034],[-5.7489,40.7335,937.4012],[-5.7346,40.7328,929.7449],[-5.7377,40.7451,981.7502],[-5.7413,40.7481,997.423],[-5.7392,40.7521,1003.4811],[-5.7436,40.754,1000.9963],[-5.7391,40.7621,980.0153],[-5.7349,40.7625,970.9862],[-5.736,40.7647,977.5786],[-5.7314,40.7657,973.1831],[-5.7319,40.7631,971.3571],[-5.7288,40.761,966.7422],[-5.7259,40.7649,976.7189],[-5.7227,40.7654,986.73],[-5.7233,40.7679,976.0161],[-5.7136,40.7678,994.7834],[-5.7153,40.7688,1000.4747],[-5.7135,40.7721,1004.0195],[-5.7147,40.7752,1001.7621],[-5.7099,40.7786,988.3121],[-5.7037,40.7778,989.461],[-5.702,40.781,1000.0441],[-5.6952,40.7851,997.2458],[-5.6805,40.7912,990.8477],[-5.6784,40.7896,986.7923],[-5.6724,40.7901,984.6841],[-5.6695,40.7924,991.3829],[-5.6742,40.7956,989.9023],[-5.673,40.7985,999.5795],[-5.6744,40.8008,983.7471],[-5.6656,40.8167,942.4745],[-5.6757,40.8216,931.3699],[-5.6817,40.8299,957.5665],[-5.6855,40.8292,946.3013],[-5.6916,40.8316,923.9669],[-5.6968,40.8314,918.6416],[-5.6963,40.8289,922.446],[-5.6987,40.8272,919.5829],[-5.7059,40.8299,932.2077],[-5.7237,40.8286,949.9447],[-5.7298,40.8352,925.1802],[-5.7336,40.8348,922.3511],[-5.7333,40.8396,914.6423],[-5.7461,40.8369,927.801],[-5.7451,40.839,921.6895],[-5.7491,40.8407,917.6292],[-5.7555,40.8485,902.8083],[-5.7522,40.8519,887.0145],[-5.7642,40.8594,889.6865],[-5.7625,40.864,882.2782],[-5.7653,40.8702,875.8571],[-5.7748,40.8688,875.5289],[-5.7762,40.8664,872.0805],[-5.7726,40.8632,887.333],[-5.7744,40.8616,881.0361],[-5.7826,40.8649,871.5304],[-5.7838,40.8619,860.1985],[-5.7894,40.8642,851.4335],[-5.7931,40.8633,870.7047],[-5.796,40.8674,860.4818],[-5.8089,40.8744,854.2012],[-5.8187,40.8744,871.2906],[-5.8189,40.8783,865.3014],[-5.8235,40.8796,861.111],[-5.8247,40.878,865.4352],[-5.8222,40.8548,887.1005],[-5.8243,40.8529,888.286],[-5.8258,40.8539,882.7028],[-5.8287,40.8527,869.3941],[-5.8337,40.8488,882.802],[-5.8359,40.85,889.7029],[-5.8421,40.8461,889.0532],[-5.842,40.8379,902.8756],[-5.8503,40.8349,903.835],[-5.8542,40.8409,890.7318],[-5.8583,40.8436,893.1548],[-5.8621,40.8516,865.3359],[-5.8678,40.8569,855.4167],[-5.8688,40.8614,849.1433],[-5.8738,40.8617,841.1964],[-5.89,40.8574,842.4059],[-5.8921,40.8589,831.1392],[-5.899,40.8528,852.0351],[-5.9073,40.84,863.2827],[-5.9106,40.8551,846.3292],[-5.9151,40.8638,835.4939],[-5.9211,40.8611,834.8678],[-5.9225,40.8621,835.6574],[-5.9319,40.8608,843.5106],[-5.9339,40.8571,846.4068],[-5.9364,40.8638,841.9214],[-5.9451,40.8642,828.4804],[-5.9498,40.8687,833.2579],[-5.9553,40.8691,828.4677],[-5.9587,40.8728,835.2593],[-5.9683,40.8707,823.8886],[-5.975,40.8768,807.2623],[-5.9783,40.8861,801.3633],[-5.9903,40.884,791.6213],[-5.9933,40.8863,799.5857],[-5.9997,40.8829,796.7252],[-6.0015,40.8851,788.9223],[-6.005,40.8841,789.2952],[-6.028,40.8879,827.7242],[-6.0344,40.893,829.9969],[-6.0354,40.8884,824.73],[-6.0448,40.8887,833.1912],[-6.0513,40.8906,833.4954],[-6.0549,40.8887,847.0012],[-6.0553,40.8865,847.1376],[-6.0654,40.8892,830.0005],[-6.0748,40.8889,853.4714],[-6.0771,40.895,856.2063],[-6.0763,40.9017,853.9039],[-6.0744,40.9057,868.2635],[-6.0688,40.907,851.6603],[-6.0755,40.9093,870.4832],[-6.081,40.9135,878.0417],[-6.0815,40.9192,874.6284],[-6.0781,40.9248,876.0888],[-6.0803,40.9293,872.856],[-6.0835,40.9296,871.6621],[-6.0828,40.9332,877.8087],[-6.0907,40.9397,862.3644],[-6.0929,40.9345,876.9935],[-6.1009,40.9317,891.3045],[-6.1029,40.9257,874.7693],[-6.1135,40.9257,862.5526],[-6.1182,40.9191,861.3818],[-6.1357,40.9164,811.7447],[-6.1439,40.9131,787.4572],[-6.15,40.9146,800.4719],[-6.1576,40.9234,826.1873],[-6.1638,40.9224,817.1558],[-6.1633,40.9256,832.9273],[-6.1578,40.9305,840.2054],[-6.1572,40.9336,855.4532],[-6.16,40.9358,844.0158],[-6.1763,40.9383,845.159],[-6.1838,40.9358,847.1768],[-6.1876,40.9366,843.995],[-6.2025,40.9273,789.678],[-6.2111,40.9186,794.8715],[-6.2164,40.9158,771.3631],[-6.2262,40.9164,743.6987],[-6.2313,40.9043,741.3879],[-6.2369,40.9007,738.7988],[-6.2371,40.8978,741.8001],[-6.243,40.8936,737.1704],[-6.2419,40.8916,740.8551],[-6.2462,40.8885,746.1162],[-6.2526,40.8881,733.3643],[-6.2526,40.8846,732.0081],[-6.2718,40.882,729.6371],[-6.2751,40.8857,727.8812],[-6.2843,40.8857,725.852],[-6.2913,40.8897,725.2031],[-6.2932,40.8752,750.1022],[-6.2912,40.8589,764.0177],[-6.2809,40.8571,785.7477],[-6.278,40.8543,782.6907],[-6.2718,40.8395,765.6254],[-6.2699,40.8214,765.2706],[-6.2774,40.8199,760.072],[-6.3,40.8206,770.129],[-6.2982,40.8265,766.456],[-6.3008,40.8265,760.2647],[-6.3045,40.8235,769.3059],[-6.3114,40.8226,776.2044],[-6.3182,40.8279,777.736],[-6.3202,40.8482,756.3992],[-6.3229,40.8517,745.2692],[-6.3318,40.8564,755.8314],[-6.346,40.8595,753.7347],[-6.36,40.8535,764.4587],[-6.3702,40.8447,761.2854],[-6.3785,40.8411,746.983],[-6.3871,40.8257,779.0183],[-6.4011,40.8283,787.1174],[-6.4093,40.8335,778.1434],[-6.418,40.8426,755.4874],[-6.4302,40.8504,706.3435],[-6.4325,40.8504,692.7824],[-6.4277,40.8392,693.0538],[-6.4233,40.8371,697.5956],[-6.4211,40.8275,704.2618],[-6.4188,40.8252,700.271],[-6.4248,40.825,728.8303],[-6.4381,40.82,791.8412],[-6.4566,40.8116,793.3533],[-6.4621,40.8073,787.5187],[-6.4697,40.8069,780.043],[-6.4737,40.7857,794.4465],[-6.471,40.7814,784.2391],[-6.4586,40.7743,780.0164],[-6.4479,40.78,763.719],[-6.4102,40.7937,713.4582],[-6.4045,40.7838,727.25],[-6.402,40.7822,721.8145],[-6.3847,40.7826,725.8294],[-6.3808,40.7798,726.8886],[-6.3777,40.7798,727.2985],[-6.3865,40.765,730.1313],[-6.3843,40.7606,733.5734],[-6.3736,40.7587,734.8752],[-6.3681,40.7641,730.8604],[-6.3654,40.7643,732.4617],[-6.3496,40.7514,740.6044],[-6.3542,40.7459,741.9194],[-6.3532,40.7419,744.7701],[-6.3442,40.733,747.6243],[-6.3506,40.7271,749.0176],[-6.3555,40.6992,764.4977],[-6.3533,40.694,767.4158],[-6.3466,40.6884,770.1621],[-6.3426,40.6894,768.4757],[-6.3422,40.6872,768.2493],[-6.3276,40.6824,773.2573],[-6.3179,40.6813,796.6861],[-6.3044,40.6932,803.2008],[-6.2943,40.6958,802.1664],[-6.2882,40.6854,794.5842],[-6.2907,40.6818,795.6066],[-6.2916,40.6657,802.9924],[-6.2949,40.6592,810.1169],[-6.2854,40.6458,825.2128],[-6.2626,40.6376,859.1776],[-6.2533,40.6306,875.4379],[-6.2467,40.6231,892.5543],[-6.2506,40.5932,948.004],[-6.2488,40.5782,968.8677],[-6.2394,40.5743,988.3805],[-6.2368,40.5854,982.8274],[-6.2325,40.5886,973.6067],[-6.2258,40.5849,993.5706],[-6.2164,40.5856,993.743],[-6.2081,40.5871,979.2286],[-6.19,40.5956,941.0594],[-6.1819,40.5957,934.0632],[-6.1734,40.5989,944.4126],[-6.1698,40.5988,942.6627],[-6.1671,40.5927,951.5356],[-6.168,40.5892,958.1504],[-6.1577,40.5882,929.1286],[-6.1554,40.5893,943.8132],[-6.1525,40.5881,954.269],[-6.149,40.583,963.8295],[-6.146,40.5826,967.1858],[-6.1508,40.5867,958.991],[-6.152,40.5914,946.2349],[-6.1571,40.5921,928.7777]]]]}
,"properties": {"GID_3": "ESP.5.5.4_1","GID_0": "ESP","country": "Spain","GID_1": "ESP.5_1","province": "CastillayLeón","NL_NAME_1": "NA","GID_2": "ESP.5.5_1","county": "Salamanca","NL_NAME_2": "NA","city": "n.a.(215)","VARNAME_3": "NA","NL_NAME_3": "NA","TYPE_3": "Comarca","ENGTYPE_3": "Comarca","CC_3": "NA","HASC_3": "NA","name": "n.a.(215).city","area_km2": 1424.525,"hist_schema_id": "Elevation0-9000","hist_area_km2": {"675": 0.016,"700": 2.038,"725": 15.617,"750": 107.001,"775": 196.272,"800": 181.063,"825": 155.973,"850": 131.714,"875": 137.012,"900": 127.557,"925": 109.507,"950": 97.409,"975": 83.295,"1000": 44.546,"1025": 15.686,"1050": 7.265,"1075": 6.204,"1100": 3.552,"1125": 2.009,"1150": 0.659,"1175": 0.129}}}