{"type":"Feature","properties":{"ISO3166-1-Alpha-3":"ESP","country":"Spain","fill":"#F00","id":"5838","name":"Orense"},
"geometry":{"type": "Polygon","coordinates": [[[-7.75273,42.45113,445.2285],[-7.78154,42.47207,679.8712],[-7.8615,42.50398,700.8159],[-7.89685,42.50569,676.6031],[-7.89265,42.53652,731.4891],[-7.89442,42.54636,759.0728],[-7.90068,42.55649,801.1713],[-7.9308,42.57845,989.3417],[-7.95821,42.56847,839.2409],[-7.98424,42.5718,842.4908],[-7.99261,42.57025,840.5763],[-8.01269,42.54538,696.1957],[-8.01867,42.54207,711.6077],[-8.06714,42.55204,760.2401],[-8.14667,42.54859,809.8345],[-8.17378,42.57193,711.6571],[-8.21413,42.53998,882.3552],[-8.24887,42.53142,762.2147],[-8.30282,42.49026,691.1661],[-8.34057,42.49231,782.3121],[-8.33901,42.48523,835.3072],[-8.34229,42.43254,860.2509],[-8.33415,42.4127,893.6337],[-8.31864,42.38916,1012.6514],[-8.31701,42.38398,1001.4066],[-8.31897,42.36658,961.0922],[-8.31811,42.36084,922.8712],[-8.28643,42.32385,756.2479],[-8.27601,42.31851,830.1863],[-8.26198,42.31523,1035.611],[-8.27548,42.27852,1020.8558],[-8.27452,42.2664,928.7992],[-8.26844,42.25669,1022.6303],[-8.24595,42.2363,736.4326],[-8.23563,42.23181,617.4163],[-8.16487,42.24591,145.8137],[-8.17961,42.20987,69.515],[-8.18336,42.17312,305.2785],[-8.22236,42.15363,209.5781],[-8.2134,42.14402,118.9783],[-8.20433,42.1288,341.6125],[-8.20738,42.08578,1022.7968],[-8.20402,42.06955,1224.6812],[-8.1913,42.06208,976.6252],[-8.17616,42.06526,1037.5428],[-8.15839,42.07139,1177.9241],[-8.13761,42.07291,1141.1451],[-8.11844,42.06686,1190.604],[-8.1032,42.05581,1193.7291],[-8.09508,42.04092,1275.9995],[-8.09736,42.02348,1270.0945],[-8.10803,42.0109,1287.0057],[-8.12392,42.0009,1148.0708],[-8.15296,41.98682,846.5852],[-8.18213,41.96542,701.578],[-8.22071,41.92271,636.9971],[-8.23022,41.90468,809.2184],[-8.23172,41.88605,623.2961],[-8.2204,41.86819,214.0725],[-8.18459,41.85773,444.7916],[-8.17704,41.84985,518.2563],[-8.17539,41.83659,742.6193],[-8.17927,41.81261,1005.0235],[-8.17957,41.8107,1050.2831],[-8.09348,41.80673,1217.5476],[-8.05045,41.81599,1496.3416],[-8.04857,41.81639,1469.5366],[-8.01571,41.84189,1198.7019],[-8.00589,41.85396,1197.1093],[-7.99364,41.86367,1330.0953],[-7.97943,41.86861,1380.1346],[-7.96336,41.86662,1231.2356],[-7.94476,41.86695,1211.2268],[-7.93535,41.87995,1286.0947],[-7.93049,41.89667,1105.5936],[-7.92579,41.90817,866.796],[-7.9061,41.91385,828.5063],[-7.90336,41.88682,1066.625],[-7.89659,41.85794,1291.374],[-7.86481,41.85789,1294.1248],[-7.85789,41.86378,1330.0081],[-7.85443,41.87026,1188.7186],[-7.84972,41.87577,1303.191],[-7.83923,41.87838,1374.1052],[-7.81215,41.87713,1180.3962],[-7.75014,41.88837,1125.3086],[-7.72203,41.89925,1346.6824],[-7.70637,41.89626,1377.412],[-7.67867,41.88135,904.1425],[-7.66116,41.87491,814.9707],[-7.60736,41.87318,705.288],[-7.62281,41.84174,778.6288],[-7.62219,41.83233,808.7561],[-7.60607,41.82554,807.9697],[-7.5884,41.82422,821.8977],[-7.5671,41.8266,856.278],[-7.54669,41.83205,792.6576],[-7.53155,41.84016,723.3616],[-7.52633,41.84737,741.6281],[-7.52525,41.85416,774.9128],[-7.52328,41.86016,808.5706],[-7.51584,41.86499,807.0969],[-7.50814,41.86494,769.506],[-7.493,41.8569,478.1739],[-7.48329,41.85621,481.6838],[-7.46938,41.85254,379.6965],[-7.45657,41.83923,405.3885],[-7.44696,41.82184,402.7974],[-7.44272,41.80595,415.8905],[-7.42954,41.8145,378.2322],[-7.40541,41.8352,413.2533],[-7.39192,41.84205,400.024],[-7.37683,41.84404,519.813],[-7.3405,41.84321,1001.4574],[-7.32247,41.84541,968.9698],[-7.25146,41.8637,784.1549],[-7.21865,41.87905,694.4277],[-7.20932,41.88916,773.0909],[-7.19793,41.9015,838.7692],[-7.19565,41.91737,696.3412],[-7.20211,41.94974,789.5513],[-7.19994,41.96372,747.1534],[-7.19261,41.96961,658.6708],[-7.17731,41.97837,717.5789],[-7.15974,41.98573,856.5206],[-7.14537,41.98749,991.9674],[-7.11318,41.97243,1036.8302],[-7.08274,41.95279,780.9663],[-7.05127,41.94201,879.679],[-7.01577,41.95367,968.8703],[-6.99236,41.96638,976.8748],[-6.98346,41.963,944.9333],[-6.98344,41.96318,944.9333],[-6.98272,41.97398,980.0891],[-6.98771,41.98338,982.9151],[-6.98647,41.98917,1000.6588],[-6.98313,41.99671,1002.2056],[-6.96531,42.02831,1379.3896],[-6.966,42.03296,1240.1316],[-6.9675,42.03594,1238.4569],[-6.97786,42.04792,1478.7301],[-6.98476,42.05118,1456.7607],[-7.00507,42.05103,1177.6519],[-7.01269,42.05221,1105.5365],[-7.01977,42.05624,1236.4553],[-7.02628,42.06136,1406.4056],[-7.02814,42.06798,1426.3728],[-7.02466,42.07573,1281.5173],[-7.01122,42.08575,1031.0826],[-6.98693,42.11412,1035.6229],[-6.97918,42.1195,1161.0815],[-6.97081,42.12203,1270.3401],[-6.96259,42.12616,1396.5818],[-6.95559,42.13221,1408.948],[-6.94474,42.15836,1452.1512],[-6.94058,42.16533,1493.328],[-6.9329,42.17412,1546.9255],[-6.89841,42.20016,1595.8923],[-6.88255,42.20959,1665.1006],[-6.86676,42.21701,1547.8661],[-6.84464,42.22089,1693.4161],[-6.83046,42.22094,1746.6056],[-6.81134,42.2166,1609.4119],[-6.80547,42.21794,1771.4741],[-6.8024,42.23081,2013.1333],[-6.79942,42.23838,1886.5518],[-6.78325,42.25287,1959.2114],[-6.78325,42.25288,1959.2114],[-6.76981,42.26197,1806.7471],[-6.7564,42.28088,1792.406],[-6.74441,42.29184,1664.2799],[-6.74062,42.29819,1828.1794],[-6.73832,42.30496,1722.2949],[-6.73775,42.31199,1829.8696],[-6.73876,42.32636,1857.7446],[-6.73806,42.33385,1729.0459],[-6.73571,42.34114,1661.9198],[-6.74046,42.35026,1667.1655],[-6.75542,42.36266,1683.3306],[-6.78917,42.37889,1392.0092],[-6.83911,42.41012,358.0],[-6.83185,42.41261,362.3225],[-6.82854,42.41545,373.9021],[-6.82074,42.42366,393.0844],[-6.8164,42.4302,369.2991],[-6.81304,42.43891,409.176],[-6.81082,42.45612,699.9664],[-6.80878,42.46402,393.71],[-6.82105,42.48506,808.5513],[-6.89257,42.49978,882.759],[-6.89717,42.50162,895.4294],[-6.90944,42.50929,934.8135],[-6.91999,42.51283,828.5814],[-6.93293,42.51306,759.977],[-6.95265,42.50826,733.1913],[-6.96202,42.50381,975.9946],[-6.96662,42.50056,1208.7014],[-6.96835,42.49839,1294.1381],[-6.97231,42.4957,1419.4005],[-6.98313,42.49482,1406.9929],[-7.02628,42.50201,1269.9113],[-7.07104,42.50345,1226.8677],[-7.10321,42.45782,1001.5998],[-7.13889,42.44039,1183.3641],[-7.15083,42.42723,1088.6875],[-7.20263,42.32553,322.3183],[-7.25573,42.40622,1019.7164],[-7.26932,42.41469,1216.1632],[-7.32023,42.42501,977.3],[-7.36199,42.41954,986.7783],[-7.36974,42.42127,993.4639],[-7.40637,42.44432,275.3394],[-7.41828,42.43317,640.719],[-7.52087,42.395,568.5422],[-7.57707,42.40766,380.0737],[-7.61734,42.40209,664.1977],[-7.71541,42.45114,225.5519],[-7.75109,42.45213,388.0822],[-7.75273,42.45113,445.2285]]]}}