{"type":"Feature","properties":{"featurecla":"River","scalerank":9,"rivernum":1134,"dissolve":"1134River","name":"Minho","name_alt":null,"note":null,"min_zoom":7.1,"strokeweig":0.2,"name_en":"Minho","min_label":8.1},
"geometry":{"type": "LineString","coordinates": [[-8.1880371093749886,42.162127996869117,244.374],[-8.2017578124999773,42.16034577030662,268.338],[-8.2193359374999773,42.15582916874412,231.1959],[-8.2529785156249886,42.137811590619116,54.3993],[-8.2713378906249773,42.13226959843162,139.849],[-8.2884277343749773,42.13165924686912,136.1916],[-8.2959960937499773,42.13031647343162,89.2088],[-8.304931640625,42.12604401249412,195.5365],[-8.33056640625,42.108661199994117,86.25],[-8.347412109375,42.10199616093162,156.6321],[-8.5018066406249773,42.08331940311912,38.3429],[-8.5206054687499773,42.077997137494116,6.6132],[-8.5550292968749773,42.060321356244117,17.0033],[-8.573486328125,42.054706121869117,7.0926],[-8.610107421875,42.05390045780662,4.299],[-8.6275390624999773,42.051288153119117,0.0],[-8.64453125,42.04169342655662,8.3716],[-8.6531738281249773,42.03168366093162,35.1902],[-8.6638671874999886,42.010126043744116,5.8468],[-8.6714355468749886,42.00006744999412,2.4582],[-8.69189453125,41.98981354374412,0.0],[-8.7176269531249773,41.984002996869116,5.5439],[-8.740234375,41.975360418744117,13.5339],[-8.7507812499999886,41.969012762494117,4.0785]]}}