{"type": "Feature","id": "5852","bbox": [-7.02814,41.11615,-5.22873,42.25288],"geometry": {"type": "Polygon","coordinates": [[[-6.69056,42.21361,1933.719],[-6.70563,42.21718,1801.7635],[-6.78325,42.25288,1959.2114],[-6.78325,42.25287,1959.2114],[-6.79942,42.23838,1886.5518],[-6.8024,42.23081,2013.1333],[-6.80547,42.21794,1771.4741],[-6.81134,42.2166,1609.4119],[-6.83046,42.22094,1746.6056],[-6.84464,42.22089,1693.4161],[-6.86676,42.21701,1547.8661],[-6.88255,42.20959,1665.1006],[-6.89841,42.20016,1595.8923],[-6.9329,42.17412,1546.9255],[-6.94058,42.16533,1493.328],[-6.94474,42.15836,1452.1512],[-6.95559,42.13221,1408.948],[-6.96259,42.12616,1396.5818],[-6.97081,42.12203,1270.3401],[-6.97918,42.1195,1161.0815],[-6.98693,42.11412,1035.6229],[-7.01122,42.08575,1031.0826],[-7.02466,42.07573,1281.5173],[-7.02814,42.06798,1426.3728],[-7.02628,42.06136,1406.4056],[-7.01977,42.05624,1236.4553],[-7.01269,42.05221,1105.5365],[-7.00507,42.05103,1177.6519],[-6.98476,42.05118,1456.7607],[-6.97786,42.04792,1478.7301],[-6.9675,42.03594,1238.4569],[-6.966,42.03296,1240.1316],[-6.96531,42.02831,1379.3896],[-6.98313,41.99671,1002.2056],[-6.98647,41.98917,1000.6588],[-6.98771,41.98338,982.9151],[-6.98272,41.97398,980.0891],[-6.98344,41.96318,944.9333],[-6.98346,41.963,944.9333],[-6.96952,41.9577,920.5007],[-6.94513,41.94336,962.3237],[-6.91712,41.93909,948.98],[-6.85495,41.94294,932.9282],[-6.83123,41.95395,1132.6199],[-6.82493,41.98377,1360.4395],[-6.79439,41.97971,1363.047],[-6.7579,41.93757,1064.1111],[-6.72798,41.93085,833.0659],[-6.65677,41.93307,748.3137],[-6.62282,41.94096,779.0462],[-6.60949,41.96232,858.9308],[-6.58515,41.95465,912.9661],[-6.57166,41.94261,845.0325],[-6.56763,41.92607,822.0533],[-6.5758,41.8829,916.5362],[-6.56789,41.87587,874.05],[-6.55006,41.87388,778.18],[-6.52422,41.86742,681.6692],[-6.53575,41.84858,721.2204],[-6.56014,41.76688,628.8719],[-6.56437,41.7575,669.9664],[-6.57151,41.74921,634.5238],[-6.5774,41.73973,645.972],[-6.57435,41.73105,625.0942],[-6.56768,41.72244,718.9097],[-6.56308,41.71304,704.9687],[-6.5605,41.69446,626.6742],[-6.55528,41.6749,577.8322],[-6.54153,41.65891,635.2594],[-6.51342,41.65092,719.7833],[-6.50304,41.65309,746.6017],[-6.48805,41.6588,740.6898],[-6.47435,41.66593,765.1627],[-6.46774,41.67206,777.0134],[-6.46082,41.67655,801.6706],[-6.44707,41.67624,810.847],[-6.36594,41.66361,788.8155],[-6.3171,41.650149999999996,788.4432],[-6.27225,41.62824,814.7715],[-6.23008,41.5949,792.5308],[-6.21613,41.5801,769.4535],[-6.20595,41.57028,685.5002],[-6.25364,41.51752,668.0736],[-6.27953,41.497,625.6334],[-6.28589,41.48687,668.6854],[-6.28517,41.47897,522.2742],[-6.28248,41.4723,554.6002],[-6.28295,41.46564,608.0116],[-6.32103,41.41959,623.629],[-6.32113,41.41101,648.7717],[-6.35235,41.40926,696.6228],[-6.36625,41.40517,668.5208],[-6.37917,41.39732,649.8518],[-6.37617,41.39685,649.0963],[-6.37555,41.39081,528.3043],[-6.37674,41.383,625.5263],[-6.37917,41.37748,649.1361],[-6.3832,41.37655,643.1129],[-6.3955,41.37841,535.3527],[-6.39958,41.37748,612.5922],[-6.431,41.33903,507.5744],[-6.46314,41.31412,554.1663],[-6.48213,41.30299,530.1902],[-6.32189,41.28047,717.0],[-6.12865,41.19718,717.0],[-6.1093,41.21264,769.1129],[-6.05636,41.20836,799.0466],[-6.03142,41.20073,826.1298],[-6.02562,41.19619,833.3851],[-6.02259,41.18998,828.2261],[-6.0231,41.18159,829.3155],[-6.0283,41.16878,794.4857],[-6.02764,41.16502,783.9175],[-6.00769,41.15164,804.223],[-5.9995,41.14921,796.2541],[-5.99198,41.15041,778.7623],[-5.98049,41.16169,790.813],[-5.97607,41.16415,803.1998],[-5.96972,41.16308,804.7583],[-5.96579,41.15747,804.134],[-5.96274,41.15042,821.4016],[-5.95897,41.14499,814.3616],[-5.94676,41.14115,800.0403],[-5.93261,41.1438,799.7812],[-5.92055,41.15148,828.6119],[-5.91466,41.16267,833.3771],[-5.91497,41.16846,839.1198],[-5.91853,41.18052,860.9541],[-5.92077,41.2052,867.1604],[-5.91774,41.22186,883.5662],[-5.90809,41.23299,907.3406],[-5.88918,41.23528,973.4999],[-5.81127,41.21658,891.623],[-5.71185,41.22853,857.0319],[-5.67327,41.24541,853.6575],[-5.66046,41.24408,846.2006],[-5.63049,41.21625,867.4658],[-5.61121,41.20869,858.6991],[-5.54914,41.20668,886.4009],[-5.49675,41.17729,911.922],[-5.40752,41.18553,870.277],[-5.40169,41.14778,834.3977],[-5.39721,41.14613,839.4556],[-5.36264,41.14392,824.9581],[-5.35597,41.14047,816.6277],[-5.3372,41.12205,789.2445],[-5.32914,41.11782,784.2651],[-5.32008,41.11615,784.7391],[-5.30955,41.11702,784.069],[-5.30109,41.11986,781.3408],[-5.29634,41.12451,779.3467],[-5.29415,41.13115,787.0313],[-5.28878,41.18209,809.306],[-5.32548,41.17798,814.4781],[-5.34026,41.19411,813.5173],[-5.30827,41.21818,736.8776],[-5.29697,41.2335,818.1719],[-5.29441,41.25282,808.5585],[-5.29784,41.29278,797.8352],[-5.30237,41.30553,793.6512],[-5.32347,41.33276,790.5027],[-5.32789,41.34355,796.5504],[-5.329,41.35727,797.8828],[-5.32123,41.41138,726.7578],[-5.32629,41.41719,707.7092],[-5.33337,41.42213,717.1727],[-5.33934,41.43319,684.7697],[-5.34122,41.4495,674.144],[-5.33862,41.46601,646.8763],[-5.33146,41.48091,648.5485],[-5.31968,41.4923,682.5306],[-5.3065,41.49809,666.4042],[-5.26439,41.5034,703.6903],[-5.25458,41.5073,701.0072],[-5.22873,41.52836,706.1282],[-5.2898,41.56301,694.6308],[-5.29444,41.57253,701.5418],[-5.2901,41.58054,723.6063],[-5.28287,41.58834,746.2488],[-5.27886,41.59724,796.0223],[-5.28292,41.6047,756.2239],[-5.31399,41.61424,739.9362],[-5.32298,41.63083,756.6622],[-5.32692,41.67027,792.3356],[-5.33711,41.68652,740.3584],[-5.3692,41.71943,728.9271],[-5.39122,41.76099,746.5227],[-5.27959,41.81333,710.335],[-5.30182,41.85097,727.5222],[-5.30791,41.87115,704.64],[-5.30537,41.89302,707.2875],[-5.29686,41.90908,727.2079],[-5.2967,41.92137,732.6827],[-5.30483,41.94436,712.48],[-5.30393,41.95532,724.4111],[-5.28055,41.97893,741.6441],[-5.3763,42.04139,793.9349],[-5.42158,42.03075,775.9933],[-5.43839,41.96725,754.9091],[-5.48474,41.98441,743.3867],[-5.47169,42.00638,746.8757],[-5.50771,42.05751,718.3254],[-5.52076,42.09698,759.2321],[-5.5417,42.09801,783.3589],[-5.55336,42.06301,765.8976],[-5.62474,42.08359,720.4407],[-5.62115,42.10219,737.8913],[-5.62251,42.10732,737.7476],[-5.62513,42.11119,746.4185],[-5.64327,42.12875,754.4628],[-5.656,42.13477,775.5347],[-5.67965,42.14021,780.3489],[-5.67691,42.12031,764.6876],[-5.74313,42.11347,746.6072],[-5.75514,42.13679,751.0172],[-5.83819,42.1186,772.8248],[-5.86942,42.12204,796.7578],[-5.88363,42.14214,815.6851],[-5.89304,42.15046,849.5283],[-5.90358,42.15107,812.0815],[-5.90737,42.14815,806.0733],[-5.91158,42.14071,773.0933],[-5.91532,42.13753,769.781],[-5.92075,42.13613,768.8326],[-5.93248,42.13635,791.2267],[-5.93795,42.13483,798.5824],[-5.95036,42.1264,828.6934],[-5.95588,42.12583,827.5999],[-6.04502,42.15769,857.3755],[-6.2037,42.14834,890.9272],[-6.21472,42.15047,902.6201],[-6.24368,42.16788,1047.0269],[-6.27954,42.17784,1130.7467],[-6.29079,42.18593,1059.9941],[-6.30212,42.20234,1199.4742],[-6.31153,42.20812,1433.6238],[-6.32039,42.20721,1467.8608],[-6.33954,42.20013,1378.5688],[-6.42776,42.202,1803.5339],[-6.49058,42.18417,1840.8116],[-6.52377,42.2007,1928.406],[-6.55781,42.20714,1869.3916],[-6.61629,42.2056,1933.0923],[-6.64417,42.2156,1954.1193],[-6.65406,42.21682,1941.9285],[-6.69056,42.21361,1933.719]]]}
,"properties": {"ISO3166-1-Alpha-3": "ESP","country": "Spain","fill": "#000","name": "Zamora","area_km2": 10639.431,"hist_schema_id": "Elevation0-9000","hist_area_km2": {"400": 4.362,"425": 2.006,"450": 3.899,"475": 3.676,"500": 3.644,"525": 7.467,"550": 9.127,"575": 14.329,"600": 26.813,"625": 132.167,"650": 274.133,"675": 604.542,"700": 1279.889,"725": 1449.66,"750": 1297.939,"775": 1123.657,"800": 919.732,"825": 686.286,"850": 522.703,"875": 392.821,"900": 243.838,"925": 177.229,"950": 148.652,"975": 128.815,"1000": 112.575,"1025": 90.075,"1050": 76.652,"1075": 67.314,"1100": 55.548,"1125": 45.201,"1150": 39.009,"1175": 32.991,"1200": 32.8,"1225": 29.308,"1250": 29.671,"1275": 28.063,"1300": 27.119,"1325": 24.573,"1350": 24.383,"1375": 24.396,"1400": 23.407,"1425": 21.975,"1450": 22.259,"1475": 21.706,"1500": 20.967,"1525": 22.412,"1550": 23.293,"1575": 26.2,"1600": 28.13,"1625": 29.638,"1650": 29.73,"1675": 29.367,"1700": 23.707,"1725": 19.887,"1750": 16.411,"1775": 14.429,"1800": 13.562,"1825": 11.675,"1850": 8.042,"1875": 7.711,"1900": 6.973,"1925": 5.669,"1950": 4.837,"1975": 4.162,"2000": 4.303,"2025": 1.712,"2050": 0.173}}}