{"type": "Feature","bbox": [-3.9142,39.2696,-2.9081,40.0913],"geometry": {"type": "MultiPolygon","coordinates": [[[[-3.7012,39.2776,1027.0739],[-3.688,39.2849,833.428],[-3.6837,39.2903,896.3625],[-3.6796,39.2921,1015.2826],[-3.6801,39.2983,965.9495],[-3.6751,39.2967,985.7222],[-3.6574,39.2994,1046.6228],[-3.6388,39.2998,1056.0068],[-3.6238,39.3027,1082.0974],[-3.6227,39.3006,1110.4395],[-3.6116,39.3034,1130.5436],[-3.6078,39.3022,1108.0736],[-3.5865,39.3077,1049.2097],[-3.5773,39.3053,1104.6812],[-3.5737,39.3008,1033.5103],[-3.567,39.2994,1059.274],[-3.5561,39.2991,854.4305],[-3.5482,39.3021,801.0524],[-3.5325,39.3042,787.0039],[-3.5313,39.3093,757.2648],[-3.5249,39.315,748.0953],[-3.4928,39.3346,687.4132],[-3.4857,39.3412,685.4978],[-3.4768,39.3432,681.1225],[-3.4704,39.3722,673.4451],[-3.4478,39.387,666.4672],[-3.4269,39.3944,666.8827],[-3.4199,39.3993,665.972],[-3.4123,39.4013,660.609],[-3.4102,39.4046,661.3713],[-3.3495,39.4083,638.94],[-3.3305,39.4054,635.6571],[-3.309,39.3992,637.1873],[-3.3113,39.4043,636.4792],[-3.309,39.4103,637.2191],[-3.3117,39.4193,637.8533],[-3.3154,39.4247,638.4337],[-3.3163,39.4289,639.549],[-3.3144,39.4313,640.0741],[-3.3157,39.4337,640.6366],[-3.3141,39.4386,640.7238],[-3.3033,39.4502,643.3307],[-3.3022,39.4546,643.5553],[-3.2972,39.4601,644.0176],[-3.2941,39.4709,644.9775],[-3.2557,39.4709,664.8428],[-3.21,39.4763,679.3716],[-3.1851,39.4742,690.1663],[-3.1844,39.488,673.8836],[-3.1572,39.4961,678.9521],[-3.1433,39.4956,678.4013],[-3.1101,39.476,702.522],[-3.1001,39.4754,697.1316],[-3.0961,39.4733,703.7316],[-3.0757,39.4581,714.2847],[-3.0695,39.4503,717.2711],[-3.0497,39.4507,691.0442],[-3.0225,39.457,665.9215],[-3.0148,39.4451,665.1182],[-2.9995,39.4417,662.7125],[-3.0,39.4489,666.0629],[-2.9947,39.4514,667.2311],[-2.9776,39.4447,659.1089],[-2.966,39.448,668.5068],[-2.9567,39.4472,679.621],[-2.9552,39.4549,670.0264],[-2.9313,39.4715,675.1328],[-2.9345,39.4822,690.3174],[-2.9338,39.5048,715.0222],[-2.9358,39.5113,708.2256],[-2.9312,39.5186,706.0184],[-2.935,39.5256,704.6435],[-2.929,39.5299,714.4805],[-2.9274,39.5496,726.6138],[-2.9247,39.5557,738.056],[-2.9206,39.5592,753.2931],[-2.9227,39.5702,767.228],[-2.9205,39.5823,787.6058],[-2.9254,39.6018,817.6257],[-2.9232,39.6024,818.3091],[-2.9137,39.6138,845.7576],[-2.9178,39.6231,832.7864],[-2.9154,39.6253,829.4252],[-2.9148,39.632,828.293],[-2.9081,39.6424,807.5471],[-2.9184,39.6457,818.7347],[-2.9381,39.6668,766.7004],[-2.9495,39.6765,750.5084],[-2.9541,39.6864,734.6425],[-2.9698,39.6897,739.0341],[-2.9725,39.6937,749.5804],[-2.9774,39.6967,744.7999],[-2.9766,39.7029,747.0848],[-2.9934,39.7141,732.1935],[-2.9977,39.7189,728.7437],[-3.0154,39.7648,762.8674],[-3.0208,39.7711,757.7971],[-3.0296,39.7771,762.3954],[-3.0404,39.7876,757.4585],[-3.0376,39.7902,758.687],[-3.0517,39.8126,726.7379],[-3.0556,39.8237,737.2944],[-3.0556,39.8292,742.7775],[-3.0596,39.8375,735.286],[-3.0762,39.8557,752.5071],[-3.0822,39.8579,752.1923],[-3.0962,39.8691,753.2509],[-3.1068,39.8711,756.2754],[-3.112,39.875,760.3626],[-3.1185,39.8745,763.7747],[-3.122,39.8761,766.2811],[-3.1271,39.8747,749.8554],[-3.1221,39.886,758.1411],[-3.1128,39.8943,757.0088],[-3.1132,39.8995,759.0111],[-3.1068,39.9032,761.2478],[-3.1068,39.9164,771.5657],[-3.1003,39.9217,766.3575],[-3.097,39.9335,775.0348],[-3.0982,39.9436,781.7958],[-3.0966,39.9472,790.494],[-3.0988,39.9526,789.0477],[-3.0947,39.956,793.7135],[-3.0973,39.9594,791.5639],[-3.0961,39.9661,801.3694],[-3.0974,39.9695,796.6193],[-3.0948,39.9717,800.1118],[-3.0985,39.9752,799.1536],[-3.0965,39.987,807.5861],[-3.11,39.9876,813.0039],[-3.1318,39.9841,794.0371],[-3.1425,39.985,789.2263],[-3.1504,40.0108,767.7565],[-3.1607,40.0263,747.8115],[-3.1654,40.0282,753.8353],[-3.1653,40.0393,722.1944],[-3.1701,40.0482,683.9272],[-3.1663,40.052,684.14],[-3.1613,40.0619,650.2186],[-3.1604,40.0694,654.2892],[-3.1627,40.0711,656.2719],[-3.1613,40.0744,643.2232],[-3.1629,40.0838,622.2195],[-3.168,40.086,599.0057],[-3.1663,40.0913,546.9045],[-3.1749,40.091,536.4919],[-3.1769,40.0901,535.7293],[-3.1789,40.0851,539.8892],[-3.1893,40.0827,538.092],[-3.1905,40.077,580.1251],[-3.2076,40.0638,552.5028],[-3.206,40.0618,574.3147],[-3.201,40.0613,610.3315],[-3.2049,40.059,602.4479],[-3.2084,40.0605,598.2898],[-3.2084,40.0632,567.5201],[-3.227,40.0567,594.171],[-3.2439,40.0536,549.4532],[-3.2456,40.0595,530.1796],[-3.2491,40.0561,529.5007],[-3.2552,40.058,529.4996],[-3.2575,40.0508,528.6656],[-3.2603,40.0518,529.7801],[-3.2629,40.0565,527.8955],[-3.2656,40.057,527.8267],[-3.2663,40.0535,528.146],[-3.2679,40.0531,527.8621],[-3.2737,40.0548,528.239],[-3.2726,40.0495,530.2599],[-3.2735,40.0479,527.9898],[-3.2767,40.0474,527.466],[-3.2833,40.0493,528.2651],[-3.2834,40.0513,526.0712],[-3.2865,40.0521,526.574],[-3.2969,40.0518,526.2985],[-3.3028,40.0537,525.654],[-3.3116,40.0687,614.5397],[-3.3273,40.0796,639.2246],[-3.3343,40.0816,653.1507],[-3.3443,40.0807,670.7864],[-3.3569,40.0761,652.5557],[-3.3769,40.0752,651.8643],[-3.3796,40.0683,621.762],[-3.3745,40.0585,583.8083],[-3.3763,40.0498,514.848],[-3.3859,40.0516,513.6612],[-3.3863,40.05,513.3725],[-3.3942,40.0455,512.3473],[-3.3942,40.0422,513.0894],[-3.3917,40.0403,511.7133],[-3.3941,40.0355,513.9409],[-3.4016,40.0342,513.3813],[-3.4093,40.0375,509.6576],[-3.4086,40.0405,510.9902],[-3.4249,40.0471,524.3023],[-3.4296,40.0388,507.8282],[-3.4403,40.0391,507.2761],[-3.4456,40.0374,507.8154],[-3.4475,40.0383,508.114],[-3.4486,40.044,506.6891],[-3.4467,40.0481,506.4988],[-3.4523,40.0502,506.6313],[-3.456,40.05,506.3761],[-3.4547,40.0468,505.3758],[-3.4689,40.041,506.7916],[-3.4727,40.0422,503.2281],[-3.472,40.0461,505.0944],[-3.4782,40.0449,503.0945],[-3.483,40.0463,503.9836],[-3.4855,40.0421,503.0347],[-3.4878,40.0415,503.5582],[-3.4898,40.0476,502.5049],[-3.4953,40.0477,502.4468],[-3.4992,40.0453,502.5341],[-3.5031,40.0461,501.9873],[-3.5045,40.0486,502.7396],[-3.507,40.0482,501.5031],[-3.5058,40.0455,501.0646],[-3.5082,40.0447,500.6086],[-3.51,40.0463,499.5765],[-3.5103,40.0432,499.4044],[-3.5152,40.0433,500.1157],[-3.5219,40.0259,629.9575],[-3.5198,40.0209,621.4858],[-3.5294,40.0184,619.2475],[-3.5504,40.0179,610.7272],[-3.5742,40.0158,623.266],[-3.5748,40.0137,629.6239],[-3.5896,40.0135,578.1142],[-3.5945,40.0019,619.4164],[-3.6094,39.9985,618.0641],[-3.6222,39.9914,585.3026],[-3.6291,39.993,609.973],[-3.638,39.9888,575.6404],[-3.631,39.9688,581.3212],[-3.6346,39.9692,575.0851],[-3.6349,39.9662,577.5677],[-3.6619,39.9662,557.9775],[-3.6775,39.9611,537.1698],[-3.6977,39.947,566.014],[-3.7113,39.955,525.1671],[-3.7312,39.9442,557.0034],[-3.7448,39.9406,514.9464],[-3.7458,39.9334,522.1354],[-3.7559,39.9216,540.718],[-3.7786,39.9114,513.8387],[-3.7889,39.8999,508.9032],[-3.8061,39.8878,549.4029],[-3.8038,39.8846,547.2122],[-3.8146,39.8859,550.9477],[-3.8176,39.8852,546.7932],[-3.8205,39.8815,544.5412],[-3.8311,39.88,555.428],[-3.8403,39.8826,540.3872],[-3.8489,39.8804,482.4083],[-3.8602,39.8801,501.4373],[-3.8678,39.8728,532.4449],[-3.8651,39.8694,539.7327],[-3.8648,39.8639,555.7857],[-3.8576,39.8591,571.3802],[-3.8592,39.8476,596.1257],[-3.8559,39.8448,606.6714],[-3.8559,39.8412,608.7964],[-3.8519,39.8358,630.1149],[-3.8728,39.8285,564.3531],[-3.8782,39.8233,585.1038],[-3.8757,39.8213,579.5582],[-3.8706,39.8208,595.9795],[-3.866,39.8148,619.332],[-3.8652,39.8106,627.1149],[-3.8597,39.8022,658.4904],[-3.8615,39.7927,665.5084],[-3.8747,39.7933,647.9913],[-3.8802,39.789,638.2955],[-3.8899,39.7907,663.9687],[-3.9022,39.789,685.6032],[-3.9064,39.7915,691.2318],[-3.9064,39.7788,699.2178],[-3.9091,39.7743,708.0463],[-3.9034,39.7702,693.4318],[-3.898,39.7605,709.6516],[-3.8918,39.7584,705.0326],[-3.9028,39.7462,850.2192],[-3.9007,39.7417,740.2148],[-3.9052,39.7301,714.4038],[-3.9128,39.7326,723.4472],[-3.9118,39.7283,716.6464],[-3.9142,39.7246,708.9562],[-3.8989,39.7043,712.6826],[-3.8888,39.701,727.0425],[-3.8866,39.6974,737.5078],[-3.8917,39.6963,733.816],[-3.8915,39.6929,730.8524],[-3.8862,39.6938,736.2261],[-3.8759,39.6874,752.7653],[-3.8728,39.6876,754.0769],[-3.8728,39.6862,756.5226],[-3.8597,39.6874,755.2087],[-3.856,39.6813,766.0116],[-3.8412,39.6773,761.8763],[-3.8371,39.6745,753.7286],[-3.8319,39.6659,742.8829],[-3.8252,39.6686,742.1714],[-3.8236,39.6621,736.6833],[-3.8191,39.6542,730.2393],[-3.8099,39.645,723.074],[-3.8005,39.6313,725.5231],[-3.7921,39.6091,752.4545],[-3.7878,39.6054,751.9965],[-3.7848,39.6049,758.3578],[-3.7749,39.5953,698.6609],[-3.7886,39.5893,696.5616],[-3.7941,39.5808,698.1232],[-3.8034,39.5718,698.0724],[-3.8099,39.558,700.4089],[-3.8105,39.5493,702.6235],[-3.8132,39.5461,702.6557],[-3.8141,39.5414,705.1571],[-3.8191,39.5354,705.4286],[-3.8229,39.5324,706.8534],[-3.8298,39.5302,711.707],[-3.8315,39.5277,709.1657],[-3.8361,39.5261,710.3979],[-3.8442,39.5262,711.8528],[-3.8397,39.5095,723.0175],[-3.8324,39.494,730.0162],[-3.8224,39.4906,732.5801],[-3.8072,39.4885,732.1676],[-3.7952,39.4762,732.2863],[-3.7901,39.4743,735.4615],[-3.7839,39.4574,905.6703],[-3.7692,39.4517,939.6974],[-3.7738,39.4344,817.193],[-3.7856,39.4149,778.7324],[-3.7868,39.4089,778.9491],[-3.7981,39.3968,781.3092],[-3.8055,39.3752,816.1714],[-3.81,39.3427,841.0614],[-3.8133,39.333,876.3419],[-3.8095,39.3194,1170.1562],[-3.7954,39.2933,1045.7186],[-3.7656,39.2933,1018.6868],[-3.7568,39.2901,891.2599],[-3.7447,39.2828,757.9296],[-3.7406,39.2763,745.9197],[-3.73,39.2748,782.2958],[-3.7224,39.2696,901.172],[-3.7012,39.2776,1027.0739]]]]}
,"properties": {"GID_3": "ESP.4.5.1_1","GID_0": "ESP","country": "Spain","GID_1": "ESP.4_1","province": "Castilla-LaMancha","NL_NAME_1": "NA","GID_2": "ESP.4.5_1","county": "Toledo","NL_NAME_2": "NA","city": "n.a.(254)","VARNAME_3": "NA","NL_NAME_3": "NA","TYPE_3": "Comarca","ENGTYPE_3": "Comarca","CC_3": "NA","HASC_3": "NA","name": "n.a.(254).city","area_km2": 4937.892,"hist_schema_id": "Elevation0-9000","hist_area_km2": {"475": 2.587,"500": 20.752,"525": 54.171,"550": 72.521,"575": 95.478,"600": 144.886,"625": 172.437,"650": 449.165,"675": 846.656,"700": 1227.361,"725": 845.449,"750": 428.692,"775": 213.541,"800": 125.518,"825": 63.885,"850": 42.115,"875": 32.057,"900": 24.474,"925": 18.378,"950": 15.691,"975": 12.216,"1000": 8.757,"1025": 5.658,"1050": 4.92,"1075": 3.788,"1100": 3.099,"1125": 1.951,"1150": 1.131,"1175": 0.476,"1200": 0.082}}}