{"type": "Feature","bbox": [-2.6674,37.209,-1.9976,37.5578],"geometry": {"type": "MultiPolygon","coordinates": [[[[-2.2479,37.2633,869.9395],[-2.2495,37.2716,983.9563],[-2.243,37.2716,955.5124],[-2.2392,37.2661,927.2541],[-2.2308,37.2619,794.5457],[-2.2299,37.266,782.5406],[-2.2274,37.2668,765.0117],[-2.2279,37.2697,735.8564],[-2.2267,37.2691,754.697],[-2.2247,37.2732,729.0228],[-2.2207,37.2754,724.8976],[-2.2225,37.2764,680.6151],[-2.222,37.2783,683.7665],[-2.2184,37.2783,676.7562],[-2.2144,37.2751,781.478],[-2.211,37.2783,781.6189],[-2.1965,37.2778,521.2893],[-2.1996,37.2736,546.0572],[-2.1967,37.2686,721.413],[-2.1839,37.2673,613.0496],[-2.1781,37.2639,761.7438],[-2.1587,37.2577,795.4496],[-2.1365,37.2535,846.6685],[-2.1354,37.251,838.3635],[-2.1218,37.267,778.8964],[-2.1193,37.2678,770.6583],[-2.1181,37.27,724.4764],[-2.1206,37.2776,684.7025],[-2.119,37.2802,678.1461],[-2.1091,37.2828,614.3511],[-2.1073,37.2851,634.7141],[-2.0905,37.2854,574.7051],[-2.0849,37.287,600.0272],[-2.0812,37.2924,596.8469],[-2.079,37.2921,618.5594],[-2.0747,37.2954,680.9214],[-2.0605,37.2939,668.3467],[-2.0564,37.2905,670.4316],[-2.046,37.2881,587.4102],[-2.0348,37.2908,489.0305],[-2.0329,37.2927,450.7079],[-2.0298,37.2929,452.9536],[-2.029,37.2953,448.2069],[-2.0236,37.2965,442.48],[-2.0116,37.3067,408.7076],[-2.0094,37.3114,378.4431],[-2.0071,37.3335,248.4408],[-2.0009,37.3497,199.8846],[-2.0081,37.3557,206.9898],[-2.0076,37.3669,239.8231],[-2.0017,37.3787,279.7956],[-1.9976,37.3816,279.3428],[-1.9994,37.3862,301.0516],[-2.0004,37.4165,383.5002],[-2.0028,37.4224,400.3644],[-2.0059,37.425,407.0887],[-2.0116,37.4259,432.155],[-2.0149,37.432,438.5711],[-2.0208,37.4351,467.8205],[-2.0221,37.4414,473.614],[-2.0272,37.4439,497.2262],[-2.0289,37.4509,524.9306],[-2.0271,37.4529,535.45],[-2.032,37.4624,574.9696],[-2.0354,37.4837,653.0995],[-2.038,37.4845,670.2195],[-2.0436,37.4913,727.4025],[-2.0403,37.4958,769.4139],[-2.0411,37.5014,798.4308],[-2.0463,37.511,889.0673],[-2.0521,37.5172,971.5148],[-2.0515,37.5189,974.2265],[-2.059,37.5197,837.4536],[-2.0662,37.5255,867.2228],[-2.0748,37.5232,993.821],[-2.1039,37.5371,1037.9053],[-2.1149,37.5377,1113.1135],[-2.1138,37.5399,1094.344],[-2.128,37.5447,1090.2063],[-2.1533,37.5458,1455.5864],[-2.1617,37.541,1368.6771],[-2.162,37.5384,1444.672],[-2.1728,37.5416,1145.6683],[-2.1829,37.5411,1074.4254],[-2.2007,37.5449,1163.9259],[-2.2149,37.5526,1122.2651],[-2.2401,37.5541,1127.3445],[-2.2448,37.557,1126.7385],[-2.2598,37.5501,1127.9705],[-2.2635,37.5506,1129.1409],[-2.2692,37.5568,1134.8196],[-2.2857,37.5542,1163.4802],[-2.3069,37.5553,1154.4003],[-2.3122,37.5578,1155.4034],[-2.318,37.5536,1164.0867],[-2.327,37.5511,1186.2963],[-2.3438,37.5508,1240.4785],[-2.3486,37.5479,1245.0859],[-2.3556,37.547,1252.788],[-2.3603,37.5375,1230.0601],[-2.3587,37.536,1210.8237],[-2.3603,37.5346,1209.2861],[-2.3584,37.5223,1368.8252],[-2.3625,37.5201,1337.7566],[-2.3811,37.523,1415.1876],[-2.3943,37.5177,1245.2992],[-2.3971,37.5134,1241.9166],[-2.4029,37.5156,1229.8136],[-2.4071,37.5245,1305.8135],[-2.4116,37.525,1305.0404],[-2.4147,37.5216,1258.5104],[-2.4134,37.5193,1245.8876],[-2.4159,37.516,1242.5638],[-2.4288,37.5116,1260.8466],[-2.4325,37.5118,1283.4041],[-2.4342,37.5095,1295.3889],[-2.44,37.5112,1280.615],[-2.4562,37.5095,1307.1414],[-2.4601,37.5076,1302.2853],[-2.4593,37.5023,1242.1799],[-2.4619,37.4987,1263.7239],[-2.4574,37.4909,1441.4459],[-2.474,37.4835,1289.088],[-2.503,37.4836,1344.416],[-2.5141,37.4796,1455.3658],[-2.5143,37.4779,1468.5886],[-2.5299,37.4652,1221.2305],[-2.5346,37.4638,1214.2197],[-2.535,37.4621,1212.5786],[-2.5465,37.4566,1180.3002],[-2.5508,37.4564,1187.4387],[-2.5566,37.4504,1149.9902],[-2.561,37.4502,1149.5067],[-2.5689,37.4458,1131.2395],[-2.569,37.4437,1110.833],[-2.5711,37.4427,1114.5789],[-2.5716,37.4375,1122.6342],[-2.5772,37.4291,1117.358],[-2.6024,37.4175,1018.8076],[-2.6081,37.4111,998.0463],[-2.6355,37.3942,1012.7796],[-2.6388,37.3883,1036.5215],[-2.6417,37.3875,1060.2708],[-2.6413,37.3776,1073.2526],[-2.6431,37.376,1071.5132],[-2.6352,37.3655,1118.4702],[-2.6372,37.3434,1169.0046],[-2.6468,37.3432,1176.7856],[-2.6547,37.3403,1235.2819],[-2.6504,37.3259,1344.9232],[-2.6542,37.3212,1362.1003],[-2.6544,37.3174,1376.1993],[-2.6509,37.3145,1333.5107],[-2.6508,37.3124,1320.3253],[-2.6516,37.309,1358.8186],[-2.656,37.3073,1416.5625],[-2.6549,37.3056,1417.006],[-2.6571,37.3021,1462.4275],[-2.6597,37.3013,1487.2041],[-2.6587,37.2994,1505.7606],[-2.6629,37.2959,1571.3774],[-2.6621,37.2935,1610.2867],[-2.6655,37.2851,1661.5419],[-2.6633,37.2772,1733.3309],[-2.6641,37.2723,1731.6787],[-2.6616,37.2667,1827.9976],[-2.6674,37.2496,1939.8298],[-2.6662,37.2381,1945.4878],[-2.6642,37.2365,1944.3584],[-2.6634,37.2322,1921.4258],[-2.6598,37.232,1921.7965],[-2.6575,37.229,1915.9246],[-2.6506,37.2352,1946.7706],[-2.6192,37.2423,1680.2107],[-2.6063,37.2419,1894.0625],[-2.5788,37.2456,1682.3771],[-2.5763,37.2471,1670.4497],[-2.57,37.2452,1648.7532],[-2.5649,37.2515,1385.0902],[-2.5561,37.2477,1442.531],[-2.5513,37.2415,1596.8754],[-2.5486,37.2216,2150.156],[-2.5385,37.222,2108.4556],[-2.5303,37.2201,2103.8555],[-2.5252,37.2147,2036.032],[-2.5196,37.2149,1977.4724],[-2.5155,37.2118,1961.9895],[-2.5003,37.209,1964.96],[-2.4758,37.2128,1985.7633],[-2.4657,37.2176,1917.6875],[-2.4562,37.2163,1899.1943],[-2.4505,37.22,1868.8511],[-2.4385,37.2227,1913.5874],[-2.4362,37.2249,1928.3282],[-2.427,37.2226,1917.7792],[-2.4201,37.2251,1888.5945],[-2.415,37.2367,1813.7019],[-2.4066,37.2459,1753.151],[-2.4029,37.2646,1537.1666],[-2.3973,37.2572,1559.0752],[-2.3939,37.2555,1504.375],[-2.39,37.2585,1432.8529],[-2.3684,37.25,1606.8982],[-2.3657,37.2541,1599.1736],[-2.3661,37.2593,1529.8887],[-2.361,37.2558,1465.7526],[-2.3611,37.2541,1484.3391],[-2.3458,37.2547,1226.8759],[-2.3428,37.2532,1279.2468],[-2.3396,37.2592,1259.1628],[-2.3359,37.2613,1239.2014],[-2.3326,37.2659,1228.1709],[-2.3254,37.2656,1029.5393],[-2.3087,37.2694,947.6672],[-2.2941,37.2764,1083.9619],[-2.2977,37.2714,1207.951],[-2.2975,37.2655,1303.3354],[-2.2912,37.2583,1246.5691],[-2.2752,37.2476,1107.3394],[-2.2734,37.242,925.4794],[-2.2677,37.2411,989.0385],[-2.2632,37.2439,1133.6544],[-2.2565,37.2452,1205.9611],[-2.2479,37.2633,869.9395]]]]}
,"properties": {"GID_3": "ESP.1.1.1_1","GID_0": "ESP","country": "Spain","GID_1": "ESP.1_1","province": "Andalucía","NL_NAME_1": "NA","GID_2": "ESP.1.1_1","county": "Almería","NL_NAME_2": "NA","city": "n.a.(15)","VARNAME_3": "NA","NL_NAME_3": "NA","TYPE_3": "Comarca","ENGTYPE_3": "Comarca","CC_3": "NA","HASC_3": "NA","name": "n.a.(15).city","area_km2": 1598.7,"hist_schema_id": "Elevation0-9000","hist_area_km2": {"200": 0.775,"225": 4.601,"250": 7.685,"275": 11.426,"300": 15.556,"325": 16.971,"350": 17.697,"375": 20.847,"400": 25.161,"425": 31.059,"450": 36.569,"475": 38.691,"500": 38.1,"525": 35.606,"550": 34.038,"575": 35.638,"600": 35.249,"625": 35.6,"650": 33.795,"675": 34.635,"700": 32.865,"725": 31.265,"750": 30.792,"775": 34.008,"800": 32.424,"825": 32.103,"850": 31.986,"875": 32.961,"900": 36.127,"925": 37.795,"950": 38.887,"975": 43.551,"1000": 44.726,"1025": 43.139,"1050": 45.946,"1075": 44.829,"1100": 44.793,"1125": 41.257,"1150": 31.381,"1175": 27.478,"1200": 24.262,"1225": 22.749,"1250": 22.483,"1275": 21.238,"1300": 21.826,"1325": 22.148,"1350": 17.219,"1375": 14.798,"1400": 12.779,"1425": 10.758,"1450": 10.135,"1475": 9.849,"1500": 9.175,"1525": 9.277,"1550": 8.569,"1575": 8.334,"1600": 7.137,"1625": 7.98,"1650": 7.357,"1675": 7.964,"1700": 7.847,"1725": 7.931,"1750": 7.965,"1775": 7.594,"1800": 7.493,"1825": 6.768,"1850": 5.89,"1875": 5.047,"1900": 4.929,"1925": 4.254,"1950": 3.595,"1975": 1.334,"2000": 1.232,"2025": 0.861,"2050": 0.675,"2075": 0.473,"2100": 0.405,"2125": 0.219,"2150": 0.135}}}