{"type": "Feature","bbox": [-4.7246,40.8,-3.9106,41.4821],"geometry": {"type": "MultiPolygon","coordinates": [[[[-4.2835,40.8822,972.1133],[-4.2788,40.8783,988.2385],[-4.2765,40.8797,989.8806],[-4.2707,40.8776,1008.454],[-4.2729,40.8874,990.4666],[-4.2674,40.8907,1025.4874],[-4.2488,40.8912,1042.5198],[-4.2458,40.8957,1021.9243],[-4.2439,40.8955,1013.0333],[-4.2451,40.8968,1021.9243],[-4.244,40.8982,1014.2828],[-4.2408,40.8984,1012.7587],[-4.2395,40.9019,1014.8603],[-4.2223,40.9025,996.9531],[-4.2244,40.9046,995.4932],[-4.2173,40.919,938.3499],[-4.2201,40.9215,960.583],[-4.2194,40.9224,958.7095],[-4.2099,40.9243,945.1225],[-4.2057,40.9229,941.2705],[-4.2039,40.9315,926.6669],[-4.1988,40.9361,924.205],[-4.1893,40.9392,899.7279],[-4.181,40.9455,917.0167],[-4.1775,40.9452,921.6448],[-4.1772,40.9464,918.1575],[-4.1829,40.9499,909.7319],[-4.1841,40.9544,891.3082],[-4.1871,40.9574,886.8442],[-4.1887,40.9562,889.8719],[-4.1917,40.96,883.2848],[-4.1903,40.9627,891.5455],[-4.1887,40.9616,885.509],[-4.1849,40.9645,911.1353],[-4.182,40.9686,938.3709],[-4.1832,40.9702,950.7275],[-4.1769,40.9765,977.6158],[-4.1808,40.9806,955.1995],[-4.1862,40.9767,947.4817],[-4.1901,40.9792,933.5255],[-4.1929,40.9789,920.0472],[-4.1985,40.9731,893.3318],[-4.2053,40.9711,884.8838],[-4.2057,40.9688,882.5142],[-4.2086,40.9731,884.584],[-4.2195,40.9804,894.6904],[-4.2277,40.9772,908.4064],[-4.2371,40.9825,911.1294],[-4.2397,40.982,914.8823],[-4.2422,41.0002,883.3303],[-4.2468,41.0151,856.5989],[-4.2437,41.0153,866.8067],[-4.2251,41.0276,958.8143],[-4.2039,41.0387,971.0655],[-4.1983,41.0247,951.2338],[-4.1942,41.0186,905.6946],[-4.1925,41.0189,907.7224],[-4.1911,41.0169,921.0558],[-4.1817,41.0197,946.0112],[-4.1744,41.0154,964.9613],[-4.1707,41.0251,930.694],[-4.1597,41.0252,953.6371],[-4.1594,41.0304,958.7682],[-4.1518,41.0399,976.6603],[-4.1519,41.0424,960.8477],[-4.136,41.049,966.4597],[-4.1289,41.063,958.5748],[-4.1255,41.0634,961.5809],[-4.1118,41.0787,949.2817],[-4.0952,41.0823,975.4299],[-4.0952,41.0837,975.4299],[-4.0869,41.0818,996.816],[-4.0825,41.0855,952.3159],[-4.08,41.0927,923.9402],[-4.0682,41.0995,995.4122],[-4.0676,41.1017,993.1823],[-4.0626,41.1028,995.2451],[-4.067,41.1129,954.2042],[-4.0767,41.1131,937.0613],[-4.0728,41.121,993.3646],[-4.0775,41.1283,983.5507],[-4.0833,41.1321,929.2554],[-4.0817,41.1382,958.5609],[-4.0847,41.1417,970.5312],[-4.0741,41.1508,951.24],[-4.0793,41.1561,943.9349],[-4.0741,41.1627,936.9296],[-4.068,41.1598,937.4158],[-4.0638,41.1622,934.3412],[-4.048,41.1596,936.7822],[-4.0448,41.1542,949.7826],[-4.0376,41.1502,949.7263],[-4.0225,41.1356,954.9326],[-4.0194,41.1388,947.6204],[-4.0198,41.1352,953.5398],[-4.0111,41.133,968.4017],[-4.0038,41.1098,1050.5811],[-4.0039,41.1037,1075.2834],[-4.0084,41.0969,1061.6951],[-4.0095,41.0863,1002.1433],[-4.0036,41.0809,1012.6976],[-4.0045,41.072,1080.6204],[-4.0028,41.0661,1089.6423],[-3.9805,41.0649,1090.5101],[-3.9614,41.0563,1125.9407],[-3.9524,41.0572,1114.5608],[-3.9496,41.0515,1133.2294],[-3.9455,41.0483,1142.2748],[-3.932,41.0468,1164.5918],[-3.9191,41.0536,1217.8174],[-3.913,41.0591,1258.6724],[-3.9119,41.0665,1257.428],[-3.9145,41.0719,1250.7568],[-3.9106,41.0827,1194.6992],[-3.9234,41.0814,1168.6331],[-3.9319,41.0881,1141.7097],[-3.9335,41.0866,1147.458],[-3.9423,41.0892,1141.6871],[-3.9454,41.0977,1086.6951],[-3.948,41.0972,1091.4608],[-3.9487,41.0993,1093.2179],[-3.9628,41.0989,1085.0459],[-3.9639,41.1008,1081.913],[-3.9844,41.1124,1040.9983],[-3.992,41.1202,1011.9175],[-3.9933,41.1294,994.3419],[-3.9836,41.1346,986.1913],[-3.9826,41.1332,979.6971],[-3.9842,41.1311,996.0479],[-3.9767,41.1351,997.3516],[-3.9803,41.1355,999.3491],[-3.9819,41.1396,997.4862],[-3.9815,41.1429,986.8293],[-3.9751,41.1489,1006.2379],[-3.9644,41.1427,1036.0603],[-3.9564,41.1412,1045.9344],[-3.9588,41.1482,1019.0375],[-3.9556,41.1509,1005.759],[-3.9398,41.1595,1000.1978],[-3.9339,41.1588,1013.8754],[-3.9275,41.1612,1035.3972],[-3.9227,41.173,985.3274],[-3.922,41.1802,950.2452],[-3.9178,41.1821,925.8391],[-3.9207,41.1877,930.4119],[-3.9282,41.1925,920.9612],[-3.9298,41.1924,906.5109],[-3.9289,41.1912,917.9803],[-3.938,41.1914,908.6077],[-3.9394,41.1943,910.803],[-3.9438,41.1949,903.3702],[-3.9414,41.1966,906.2073],[-3.9423,41.1976,905.5369],[-3.9447,41.1981,903.9598],[-3.945,41.1939,903.3702],[-3.9468,41.1939,902.4102],[-3.9487,41.1961,909.1843],[-3.9534,41.1959,904.1964],[-3.9602,41.1998,906.6404],[-3.9631,41.1986,906.4473],[-3.9642,41.2009,904.048],[-3.9625,41.2027,902.0734],[-3.9639,41.2043,903.3849],[-3.9725,41.2031,908.887],[-3.9776,41.2039,914.9327],[-3.9771,41.2056,903.9863],[-3.979,41.2058,908.0277],[-3.9806,41.2045,906.3818],[-3.9861,41.2107,893.9462],[-3.9911,41.2128,896.3588],[-3.9883,41.219,898.4176],[-3.9896,41.2218,893.255],[-3.9925,41.2217,895.0983],[-3.9909,41.224,902.1401],[-3.9989,41.2283,893.6002],[-4.0013,41.2277,892.5125],[-4.0053,41.2297,891.6229],[-4.0067,41.2283,892.6677],[-4.0087,41.2295,889.2386],[-4.009,41.2327,896.6486],[-4.0126,41.2319,895.9966],[-4.0144,41.2347,886.8809],[-4.0149,41.2328,893.1295],[-4.0192,41.2343,886.6703],[-4.0197,41.232,896.355],[-4.0225,41.2331,886.5637],[-4.022,41.2342,885.9295],[-4.035,41.2355,884.1846],[-4.0416,41.2386,892.7481],[-4.0407,41.2403,885.4173],[-4.0375,41.2401,883.5303],[-4.0354,41.2383,885.9409],[-4.0225,41.2355,892.9409],[-4.0172,41.2363,894.8508],[-4.0111,41.2629,909.0232],[-4.0134,41.2719,901.2359],[-4.0194,41.2746,900.5228],[-4.0242,41.274,898.6036],[-4.0267,41.2757,896.5759],[-4.0344,41.2742,891.132],[-4.0362,41.2755,892.7007],[-4.0341,41.2777,895.8979],[-4.0348,41.28,896.5336],[-4.0301,41.2816,894.6638],[-4.0346,41.2871,892.1944],[-4.0328,41.2869,895.936],[-4.0347,41.2886,892.1944],[-4.033,41.2922,891.975],[-4.0375,41.2916,892.2969],[-4.0344,41.2976,890.0507],[-4.0686,41.322,880.2379],[-4.0582,41.3346,874.6091],[-4.0902,41.3732,896.1141],[-4.1031,41.3803,876.0947],[-4.1116,41.391,851.2085],[-4.1164,41.4026,841.5109],[-4.1125,41.4088,851.5286],[-4.0969,41.4142,877.3982],[-4.1003,41.421,881.8156],[-4.0995,41.4249,885.2687],[-4.0944,41.4313,879.0997],[-4.1097,41.4339,866.2617],[-4.112,41.4365,868.7501],[-4.1104,41.4412,880.1603],[-4.1145,41.4426,878.5214],[-4.1238,41.4515,895.9943],[-4.1248,41.4543,890.5582],[-4.1203,41.4612,899.7445],[-4.1227,41.4804,900.3532],[-4.1364,41.477,898.4154],[-4.1424,41.4699,902.5482],[-4.1582,41.4821,901.6242],[-4.1693,41.4758,901.7134],[-4.1783,41.4754,900.9813],[-4.1974,41.4711,898.3071],[-4.2277,41.46,897.4993],[-4.2334,41.4557,895.8889],[-4.2471,41.4623,892.8812],[-4.2598,41.4564,893.9397],[-4.261,41.4506,890.6623],[-4.2643,41.4562,891.1145],[-4.27,41.4613,890.5568],[-4.2741,41.4579,887.054],[-4.2877,41.4582,889.3616],[-4.2901,41.4553,887.4653],[-4.2941,41.455,888.1776],[-4.3005,41.4577,886.6776],[-4.3191,41.4533,882.5036],[-4.3203,41.4484,882.0164],[-4.3278,41.4448,883.7903],[-4.3316,41.445,883.6642],[-4.3374,41.449,880.5327],[-4.3466,41.4481,877.3635],[-4.3484,41.4505,882.0858],[-4.3623,41.4499,877.9186],[-4.3613,41.4447,878.2177],[-4.3648,41.436,872.6788],[-4.3678,41.4392,867.1335],[-4.3728,41.4387,877.1606],[-4.3767,41.4417,877.6611],[-4.379,41.4416,876.4714],[-4.3824,41.4382,875.0054],[-4.3885,41.4405,858.1061],[-4.3908,41.4378,873.5546],[-4.3937,41.4378,870.2697],[-4.3939,41.4397,863.6445],[-4.4074,41.4418,860.0552],[-4.4177,41.4389,865.0973],[-4.4188,41.4398,865.0973],[-4.4255,41.4328,870.161],[-4.4301,41.4339,867.4518],[-4.4318,41.431,852.5912],[-4.4347,41.4305,857.1981],[-4.4305,41.4286,827.5234],[-4.4363,41.427,825.7509],[-4.4407,41.4276,860.0798],[-4.4502,41.4233,832.2037],[-4.4529,41.4237,837.563],[-4.4534,41.4214,829.2222],[-4.4555,41.4204,824.6572],[-4.4586,41.4213,861.0339],[-4.4636,41.4191,855.2348],[-4.4625,41.4168,830.3475],[-4.4658,41.4166,837.9945],[-4.4657,41.4144,807.3961],[-4.4681,41.4131,840.9539],[-4.4827,41.412,839.2019],[-4.4846,41.4104,842.6498],[-4.4836,41.4091,842.6498],[-4.4952,41.41,856.2722],[-4.4951,41.4115,865.7123],[-4.4999,41.4139,866.5769],[-4.5017,41.4109,839.9833],[-4.5145,41.4096,859.2801],[-4.5164,41.4085,860.7589],[-4.5142,41.406,859.9758],[-4.5159,41.4014,775.4358],[-4.5152,41.3941,743.1779],[-4.4839,41.3668,751.2236],[-4.4839,41.3657,751.2236],[-4.4958,41.3639,745.6532],[-4.5,41.3576,745.999],[-4.4966,41.3496,752.0087],[-4.4993,41.3471,749.2454],[-4.4997,41.3502,750.5489],[-4.5044,41.3472,753.7183],[-4.5022,41.3469,751.4418],[-4.5021,41.3428,755.5978],[-4.4938,41.3264,759.9725],[-4.4822,41.3262,758.2974],[-4.4738,41.3223,759.7112],[-4.4705,41.3185,761.8155],[-4.4677,41.2959,769.6075],[-4.4714,41.2916,771.8431],[-4.4816,41.2949,769.9772],[-4.4825,41.2973,771.2161],[-4.4902,41.3012,764.7521],[-4.4961,41.3024,764.4278],[-4.5,41.3009,763.6754],[-4.5053,41.3113,764.8721],[-4.5285,41.3211,762.5219],[-4.5339,41.3193,756.0812],[-4.5387,41.3134,759.227],[-4.5435,41.3124,760.1142],[-4.5594,41.3022,764.8124],[-4.5652,41.3028,762.746],[-4.5728,41.3061,762.7044],[-4.5866,41.3171,759.9917],[-4.5968,41.3206,759.9009],[-4.6051,41.3131,733.9307],[-4.6009,41.3076,734.9145],[-4.6019,41.3027,729.7424],[-4.5933,41.2964,734.5715],[-4.5901,41.2919,761.4205],[-4.5804,41.2882,747.5187],[-4.5755,41.2837,744.1858],[-4.5765,41.277,753.1667],[-4.5738,41.2752,764.504],[-4.5878,41.2705,761.9851],[-4.5986,41.2642,768.6383],[-4.6039,41.2559,764.9507],[-4.6032,41.254,767.2498],[-4.6151,41.2414,777.6964],[-4.6238,41.2343,779.489],[-4.629,41.2329,795.0983],[-4.6372,41.2273,810.0787],[-4.6477,41.2241,840.0692],[-4.6508,41.2214,841.8521],[-4.6464,41.2083,855.8256],[-4.6505,41.2001,847.8055],[-4.6403,41.1937,853.5745],[-4.6383,41.1899,854.6138],[-4.6363,41.1906,854.1657],[-4.6318,41.1848,851.989],[-4.6277,41.1708,861.7186],[-4.635,41.1681,852.0578],[-4.6436,41.1681,812.2622],[-4.6658,41.1803,791.6701],[-4.6805,41.1857,780.7483],[-4.6829,41.1845,785.2019],[-4.6843,41.1807,789.072],[-4.7022,41.1745,785.2366],[-4.7089,41.1669,794.2187],[-4.7212,41.157,794.3074],[-4.722,41.1493,798.9316],[-4.7199,41.1349,804.3112],[-4.7166,41.1326,802.3242],[-4.7237,41.1286,806.3135],[-4.7246,41.1234,805.859],[-4.7213,41.1165,811.6915],[-4.715,41.1106,812.4856],[-4.716,41.1042,810.488],[-4.7099,41.0993,808.7211],[-4.7132,41.0917,812.6265],[-4.7178,41.09,791.0607],[-4.7071,41.0888,827.1279],[-4.709,41.0854,824.1794],[-4.7134,41.083,817.7408],[-4.7164,41.0716,810.0522],[-4.7131,41.0629,815.9465],[-4.7053,41.0542,808.7419],[-4.7002,41.0519,827.3911],[-4.6812,41.0512,837.2618],[-4.6656,41.0453,852.3334],[-4.6595,41.0415,861.2263],[-4.6527,41.0342,863.4905],[-4.6459,41.0315,865.4307],[-4.6382,41.0313,870.0837],[-4.6394,41.0301,869.5048],[-4.6227,41.0094,890.1028],[-4.6235,41.0069,891.28],[-4.6171,41.0037,889.0022],[-4.6181,40.9974,896.2651],[-4.6066,40.9708,911.8119],[-4.5959,40.9658,935.8953],[-4.5749,40.9603,929.7595],[-4.5719,40.9558,930.3175],[-4.5663,40.9562,903.3987],[-4.565,40.9524,918.8582],[-4.5678,40.9508,925.1841],[-4.5667,40.9454,925.5929],[-4.5618,40.9405,920.8268],[-4.5583,40.9401,919.0531],[-4.5592,40.9132,923.791],[-4.5524,40.9075,902.5258],[-4.5564,40.9029,903.5775],[-4.5551,40.895,907.2419],[-4.5595,40.8859,909.2834],[-4.5518,40.8821,921.0001],[-4.5508,40.8795,923.8094],[-4.5352,40.8724,1037.8485],[-4.5355,40.8655,1032.2229],[-4.5335,40.8641,1027.2637],[-4.5315,40.8586,1039.0271],[-4.5358,40.855,1033.9667],[-4.5396,40.8556,995.1793],[-4.5498,40.8534,961.4564],[-4.5588,40.8396,950.8461],[-4.5463,40.8256,1006.3734],[-4.5338,40.8287,1025.7432],[-4.5245,40.8258,1074.4987],[-4.5087,40.8313,1078.3188],[-4.5083,40.8301,1080.2758],[-4.5065,40.8312,1071.168],[-4.5015,40.8302,1063.7488],[-4.4986,40.8335,1060.2421],[-4.4937,40.8335,1043.9735],[-4.4867,40.8202,1073.5519],[-4.486,40.8143,1085.2694],[-4.4768,40.8076,1098.3335],[-4.4767,40.8033,1083.4525],[-4.4731,40.8,1099.7092],[-4.4705,40.8001,1104.7728],[-4.4676,40.8039,1107.6793],[-4.4652,40.8132,1091.2756],[-4.4544,40.8262,1039.4536],[-4.4488,40.8296,1029.7286],[-4.439,40.828,1027.2749],[-4.436,40.8292,1027.4509],[-4.4373,40.8308,1030.9761],[-4.4362,40.8346,1025.2604],[-4.4398,40.8411,1016.5507],[-4.4344,40.8566,1006.9837],[-4.4312,40.8608,990.1184],[-4.4273,40.8629,980.5848],[-4.4156,40.8596,1013.4213],[-4.4047,40.853,1016.6096],[-4.3954,40.8534,1040.4795],[-4.3846,40.8659,1014.9796],[-4.3632,40.8655,1006.793],[-4.3599,40.8618,1001.5526],[-4.3405,40.8607,936.1373],[-4.3338,40.858,973.9064],[-4.3325,40.859,969.3286],[-4.3274,40.85,966.6102],[-4.3334,40.8479,972.333],[-4.3323,40.8459,969.5452],[-4.3293,40.8457,967.7736],[-4.3275,40.8486,964.5355],[-4.3226,40.8481,973.2116],[-4.3132,40.8521,920.9965],[-4.3038,40.8527,964.5032],[-4.3031,40.8546,982.5509],[-4.2975,40.8527,1000.8149],[-4.2954,40.8539,1001.6763],[-4.2943,40.852,982.0664],[-4.2879,40.8528,1008.6714],[-4.3002,40.8631,982.4757],[-4.3052,40.8734,941.3308],[-4.2987,40.8706,961.2822],[-4.2996,40.8739,953.1929],[-4.2969,40.8704,970.6474],[-4.2961,40.8723,950.9585],[-4.2895,40.8713,972.3651],[-4.2889,40.8755,985.3634],[-4.2824,40.8776,977.4085],[-4.2843,40.8799,972.7334],[-4.2835,40.8822,972.1133]]]]}
,"properties": {"GID_3": "ESP.5.6.2_1","GID_0": "ESP","country": "Spain","GID_1": "ESP.5_1","province": "CastillayLeón","NL_NAME_1": "NA","GID_2": "ESP.5.6_1","county": "Segovia","NL_NAME_2": "NA","city": "n.a.(224)","VARNAME_3": "NA","NL_NAME_3": "NA","TYPE_3": "Comarca","ENGTYPE_3": "Comarca","CC_3": "NA","HASC_3": "NA","name": "n.a.(224).city","area_km2": 2806.745,"hist_schema_id": "Elevation0-9000","hist_area_km2": {"725": 0.605,"750": 58.257,"775": 223.049,"800": 335.365,"825": 316.613,"850": 326.786,"875": 457.545,"900": 463.622,"925": 243.128,"950": 146.851,"975": 81.582,"1000": 56.664,"1025": 39.829,"1050": 19.246,"1075": 14.165,"1100": 9.868,"1125": 4.699,"1150": 3.485,"1175": 2.014,"1200": 1.79,"1225": 0.991,"1250": 0.575}}}