{"type": "Feature","bbox": [-1.3411,37.5335,-0.6479,37.8483],"geometry": {"type": "MultiPolygon","coordinates": [[[[-0.9679,37.5582,0.0],[-0.9668,37.5601,5.0312],[-0.9715,37.5596,0.0853],[-0.9713,37.5585,0.0],[-0.9679,37.5582,0.0]]],
[[[-0.8429,37.5782,0.0],[-0.8313,37.5782,3.4068],[-0.8204,37.5749,0.0],[-0.8137,37.5785,0.0],[-0.8132,37.581,13.8205],[-0.8107,37.5826,47.8775],[-0.804,37.5843,0.0],[-0.8038,37.586,57.0524],[-0.7904,37.5865,0.0],[-0.7874,37.5913,10.5381],[-0.7829,37.594,7.8975],[-0.7765,37.5932,0.0],[-0.7712,37.5968,0.939],[-0.7507,37.5974,1.8715],[-0.7431,37.5999,0.5521],[-0.7315,37.601,1.4652],[-0.7287,37.6043,1.5631],[-0.7179,37.6065,0.0],[-0.7179,37.6115,31.8892],[-0.716,37.6126,18.7779],[-0.7143,37.6171,3.9295],[-0.7076,37.6188,0.8679],[-0.7076,37.6215,4.1673],[-0.7051,37.6249,17.9659],[-0.7021,37.624,0.0],[-0.7029,37.6265,1.7735],[-0.7015,37.6304,0.2265],[-0.6937,37.6296,0.0],[-0.6865,37.6332,0.7595],[-0.6882,37.6343,0.0],[-0.6879,37.6371,0.0],[-0.6974,37.633,2.7677],[-0.701,37.634,0.0],[-0.7107,37.6421,0.0],[-0.714,37.6499,6.1338],[-0.7171,37.6532,-0.0188],[-0.7168,37.6554,0.0],[-0.7187,37.656,1.0868],[-0.7212,37.6613,0.0],[-0.719,37.6643,0.0],[-0.7232,37.6649,2.0788],[-0.726,37.6674,2.4498],[-0.7335,37.6838,0.009],[-0.7396,37.7024,0.0],[-0.741,37.7129,2.0383],[-0.7401,37.7215,1.2514],[-0.738,37.7257,0.0],[-0.7382,37.7363,0.2573],[-0.7332,37.7374,0.0],[-0.7349,37.739,0.2556],[-0.7337,37.7432,0.5752],[-0.7349,37.7443,1.2765],[-0.7298,37.7455,0.372],[-0.7288,37.7438,0.0835],[-0.7288,37.7468,0.0],[-0.7254,37.7449,0.0],[-0.7238,37.741,0.0],[-0.7218,37.741,0.0],[-0.7272,37.7501,0.0],[-0.7326,37.7485,1.7764],[-0.7354,37.751,0.0],[-0.7379,37.751,0.3608],[-0.7462,37.7601,1.1396],[-0.746,37.7693,1.3826],[-0.7421,37.7729,0.9006],[-0.7396,37.7721,0.0],[-0.7451,37.7846,0.0],[-0.7462,37.7821,0.0],[-0.7448,37.7799,0.0618],[-0.7526,37.7813,0.0004],[-0.7562,37.7879,0.0],[-0.7612,37.7888,0.0],[-0.7593,37.781,0.0],[-0.7545,37.7782,0.2386],[-0.7487,37.7687,0.0],[-0.7465,37.7562,0.2259],[-0.7421,37.7538,1.1108],[-0.7454,37.7501,0.0],[-0.7449,37.749,0.0],[-0.7432,37.7499,0.1205],[-0.7424,37.7468,0.0],[-0.7457,37.7474,0.1818],[-0.744,37.7421,0.0],[-0.7391,37.7371,1.1467],[-0.741,37.7335,0.0],[-0.7401,37.7271,0.0],[-0.746,37.7057,0.0],[-0.7437,37.706,2.0157],[-0.7421,37.704,0.0],[-0.7404,37.6918,0.0],[-0.7426,37.6899,0.0],[-0.739,37.6874,3.385],[-0.734,37.676,0.0],[-0.7334,37.6665,10.3479],[-0.7349,37.6635,0.0],[-0.7301,37.6615,0.0],[-0.7363,37.6627,0.0],[-0.7401,37.6615,0.0],[-0.7407,37.6596,0.0],[-0.7368,37.6579,1.6587],[-0.7343,37.6607,1.9022],[-0.7304,37.661,0.0],[-0.724,37.6582,0.1066],[-0.7246,37.6512,0.0],[-0.7229,37.6501,-0.0505],[-0.7224,37.6429,0.1108],[-0.7251,37.6407,0.4366],[-0.7257,37.636,0.1593],[-0.734,37.6324,0.0],[-0.7407,37.6324,0.0],[-0.7479,37.6349,0.0],[-0.751,37.6376,0.2433],[-0.7493,37.6393,0.0],[-0.7504,37.6424,0.0],[-0.7574,37.6418,2.3234],[-0.7596,37.6426,0.0966],[-0.759,37.6446,0.0],[-0.7657,37.6451,3.2949],[-0.7665,37.6474,0.0],[-0.7707,37.6465,1.9856],[-0.7868,37.6507,0.0],[-0.8096,37.6624,0.0],[-0.8235,37.6738,0.0],[-0.8257,37.6787,0.0],[-0.8279,37.6796,1.1109],[-0.8285,37.6832,1.7454],[-0.8338,37.6865,0.8228],[-0.8404,37.6974,0.0],[-0.8565,37.7126,0.249],[-0.8596,37.7179,0.2977],[-0.8596,37.7217,0.2567],[-0.868,37.7207,5.3855],[-0.8753,37.7227,7.3813],[-0.8963,37.7203,14.3932],[-0.9141,37.7211,20.4869],[-0.9197,37.7231,22.9552],[-0.9374,37.7245,28.8191],[-0.9667,37.7219,41.1301],[-0.9724,37.7241,42.5858],[-0.982,37.7235,44.7316],[-0.9882,37.7249,46.7684],[-0.9969,37.7209,50.5393],[-1.0036,37.7203,54.3277],[-1.0189,37.7265,59.066],[-1.04,37.7231,68.495],[-1.0508,37.7237,73.073],[-1.0633,37.7601,104.5455],[-1.0708,37.7743,117.3485],[-1.0803,37.7732,124.5207],[-1.0847,37.7767,128.8254],[-1.0863,37.7757,131.4166],[-1.0959,37.7808,142.8374],[-1.1007,37.7737,140.9095],[-1.1063,37.7742,147.1572],[-1.1111,37.7696,145.9295],[-1.1175,37.7682,147.0082],[-1.1267,37.7634,151.6267],[-1.128,37.756,141.5733],[-1.1416,37.7517,141.247],[-1.1461,37.7581,152.0067],[-1.153,37.762,167.0872],[-1.1569,37.7692,180.9243],[-1.165,37.7747,196.9542],[-1.1602,37.7895,214.486],[-1.1764,37.8007,248.199],[-1.1874,37.8122,280.5246],[-1.1986,37.804,271.5516],[-1.2107,37.8001,320.0393],[-1.2245,37.8038,367.0062],[-1.2176,37.8093,315.6096],[-1.222,37.8172,342.3157],[-1.232,37.8277,408.9633],[-1.2491,37.8326,538.9851],[-1.249,37.8351,561.9693],[-1.2612,37.8468,946.0453],[-1.2686,37.8483,1014.6267],[-1.2865,37.8248,729.1675],[-1.2866,37.8076,445.3113],[-1.2893,37.7895,332.7982],[-1.2826,37.7798,287.9984],[-1.277,37.7648,233.5059],[-1.275,37.7441,182.4449],[-1.2729,37.7433,179.2801],[-1.2841,37.7375,189.3446],[-1.306,37.7298,196.8782],[-1.3126,37.7303,207.1272],[-1.324,37.7258,215.6946],[-1.3411,37.7241,220.9763],[-1.3261,37.6989,231.9284],[-1.3197,37.6927,218.6559],[-1.3119,37.6773,200.6961],[-1.2933,37.6734,267.0052],[-1.2495,37.6583,268.7243],[-1.2242,37.6353,291.6627],[-1.2162,37.6325,380.1994],[-1.2085,37.6211,173.8627],[-1.2091,37.6187,163.6857],[-1.2115,37.6181,160.2089],[-1.2088,37.6119,142.2742],[-1.2125,37.6087,124.4215],[-1.2089,37.6025,122.2244],[-1.2141,37.6011,127.3657],[-1.216,37.5975,92.2404],[-1.2152,37.5931,68.3466],[-1.2233,37.5883,37.2397],[-1.2214,37.5837,26.9497],[-1.2262,37.5732,0.0],[-1.2145,37.5751,0.4177],[-1.2085,37.5729,1.8279],[-1.2088,37.5707,0.0],[-1.2074,37.5707,0.0],[-1.2062,37.5732,0.0],[-1.2024,37.5735,0.0],[-1.1899,37.5679,0.3823],[-1.1798,37.566,2.4306],[-1.1683,37.5574,0.2545],[-1.171,37.5521,0.0],[-1.1749,37.5504,0.0],[-1.1712,37.5446,3.5192],[-1.1651,37.5415,0.0],[-1.1507,37.5396,0.0],[-1.1471,37.5415,11.754],[-1.1443,37.5393,0.0],[-1.1362,37.5401,0.0],[-1.1321,37.5376,12.0985],[-1.124,37.5385,0.0],[-1.1201,37.5366,62.4059],[-1.1185,37.5335,0.0],[-1.1121,37.5351,12.5534],[-1.1115,37.5337,0.0],[-1.1071,37.5346,0.0],[-1.1171,37.5449,30.3962],[-1.1196,37.5446,42.2717],[-1.1271,37.5485,25.3245],[-1.1257,37.5501,6.0469],[-1.1271,37.5518,33.6771],[-1.1262,37.5537,4.3924],[-1.1221,37.5565,0.0],[-1.121,37.5595,16.4588],[-1.1185,37.5599,10.2957],[-1.1176,37.5632,3.0155],[-1.1149,37.5638,12.3062],[-1.1107,37.5677,29.9686],[-1.0949,37.569,8.5047],[-1.0915,37.5749,8.8923],[-1.0851,37.5774,29.7343],[-1.0821,37.5768,0.0],[-1.0793,37.5812,13.2085],[-1.0763,37.5812,3.3825],[-1.0746,37.5838,15.8778],[-1.0715,37.5838,36.9235],[-1.0668,37.5796,0.0],[-1.059,37.5793,0.0],[-1.0576,37.5824,64.9381],[-1.054,37.5826,22.226],[-1.0451,37.579,23.0414],[-1.0329,37.5796,5.603],[-1.0229,37.5729,0.92],[-1.0199,37.574,12.7958],[-1.0176,37.5726,0.7435],[-1.0124,37.5749,8.1489],[-1.0118,37.5815,36.7301],[-1.0079,37.5829,0.0],[-1.0082,37.5857,9.6951],[-0.9993,37.584,0.0],[-0.9982,37.5868,0.0],[-0.9946,37.5863,39.0897],[-0.9892,37.5812,1.2297],[-0.986,37.5846,5.4513],[-0.9843,37.5843,0.0],[-0.9885,37.5879,0.0],[-0.9857,37.5926,0.0],[-0.9876,37.5957,0.0],[-0.9932,37.5965,2.8457],[-0.9932,37.6001,3.705],[-0.9874,37.5957,0.0],[-0.9763,37.5963,1.6723],[-0.9746,37.5938,0.4203],[-0.9754,37.5904,5.3302],[-0.9837,37.5887,0.0],[-0.9768,37.5879,0.0],[-0.9799,37.5821,0.0],[-0.9758,37.5801,20.5785],[-0.9757,37.5765,7.5739],[-0.9696,37.5729,0.0],[-0.9599,37.5735,0.0],[-0.959,37.5726,0.0],[-0.9612,37.5715,0.0],[-0.9601,37.5696,0.0],[-0.9568,37.5707,1.0682],[-0.9526,37.5674,1.9601],[-0.9507,37.5679,2.7865],[-0.9512,37.5665,4.5127],[-0.9565,37.5654,8.9907],[-0.9596,37.5679,0.0],[-0.959,37.5649,1.1202],[-0.9604,37.5646,2.0645],[-0.9682,37.5699,0.0],[-0.9626,37.5638,1.4414],[-0.9629,37.5607,7.1179],[-0.9601,37.5582,0.0],[-0.9524,37.5574,19.2761],[-0.9435,37.5593,49.4978],[-0.9337,37.559,51.0896],[-0.9326,37.5571,0.0],[-0.9279,37.5551,0.0],[-0.9196,37.5537,0.0],[-0.9151,37.5591,158.6951],[-0.909,37.559,37.2799],[-0.9046,37.5629,42.2187],[-0.8787,37.5699,0.0],[-0.8785,37.5779,1.9045],[-0.8757,37.5785,1.3403],[-0.8715,37.5743,0.0],[-0.8671,37.5793,6.7772],[-0.8537,37.5788,1.9234],[-0.8512,37.5821,0.2331],[-0.8454,37.5815,0.1399],[-0.8429,37.5782,0.0]]],
[[[-0.6479,37.6565,0.0],[-0.6488,37.6571,0.0],[-0.6501,37.6549,0.0],[-0.649,37.6549,0.0],[-0.6479,37.6565,0.0]]],
[[[-0.7474,37.6654,0.0],[-0.7476,37.6662,0.0],[-0.7504,37.666,0.0],[-0.7496,37.6643,1.5045],[-0.7474,37.6654,0.0]]],
[[[-0.7704,37.7021,0.0],[-0.7721,37.7026,0.0],[-0.7749,37.7007,0.0],[-0.776,37.6951,0.0],[-0.7715,37.6904,0.0],[-0.7651,37.6904,0.0],[-0.7649,37.6957,0.0],[-0.7704,37.7021,0.0]]],
[[[-0.7987,37.7029,0.0],[-0.801,37.7038,0.0],[-0.804,37.701,0.4491],[-0.8009,37.7007,8.1934],[-0.7965,37.6954,0.0],[-0.796,37.6971,0.0],[-0.7979,37.6988,0.0],[-0.7966,37.7015,0.0],[-0.7987,37.7029,0.0]]],
[[[-0.705,37.7304,4.7682],[-0.7096,37.7293,3.462],[-0.709,37.7254,0.0],[-0.706,37.7257,19.6936],[-0.7043,37.7279,0.0],[-0.705,37.7304,4.7682]]]]}
,"properties": {"GID_3": "ESP.18.1.4_1","GID_0": "ESP","country": "Spain","GID_1": "ESP.18_1","province": "RegióndeMurcia","NL_NAME_1": "NA","GID_2": "ESP.18.1_1","county": "Murcia","NL_NAME_2": "NA","city": "CampodeCartagena","VARNAME_3": "NA","NL_NAME_3": "NA","TYPE_3": "Comarca","ENGTYPE_3": "Comarca","CC_3": "NA","HASC_3": "NA","name": "Campode_Cartagena.city","area_km2": 882.5514,"hist_schema_id": "Elevation0-9000","hist_area_km2": {"0": 63.9695,"25": 120.2908,"50": 103.6269,"75": 75.0218,"100": 63.0807,"125": 64.2721,"150": 78.6279,"175": 71.3442,"200": 65.2521,"225": 53.425,"250": 32.3859,"275": 23.0899,"300": 14.4175,"325": 11.3283,"350": 9.0788,"375": 6.4434,"400": 5.3355,"425": 4.0266,"450": 3.6406,"475": 2.7176,"500": 2.3477,"525": 1.3582,"550": 1.1065,"575": 1.022,"600": 0.67,"625": 0.4856,"650": 0.3852,"675": 0.3852,"700": 0.4354,"725": 0.3684,"750": 0.3517,"775": 0.2679,"800": 0.2512,"825": 0.1172,"850": 0.3014,"875": 0.1842,"900": 0.1507,"925": 0.2847,"950": 0.2009,"975": 0.1172,"1000": 0.1507,"1025": 0.1674,"1050": 0.067}}}