{"type": "Feature","bbox": [-0.445,39.6135,-0.1888,39.8015],"geometry": {"type": "MultiPolygon","coordinates": [[[[-0.3931,39.6649,394.5641],[-0.3907,39.6427,190.5639],[-0.3793,39.6243,214.86],[-0.3533,39.6338,157.3929],[-0.3432,39.6399,163.6585],[-0.2957,39.6287,7.1349],[-0.2684,39.6135,-0.0489],[-0.259,39.6149,0.8326],[-0.2493,39.6263,0.8881],[-0.2374,39.6365,0.0],[-0.214,39.6468,2.5874],[-0.214,39.6482,2.0295],[-0.2185,39.6504,0.818],[-0.2157,39.6549,0.6828],[-0.211,39.6538,2.5531],[-0.2087,39.6429,0.0],[-0.2082,39.644,0.0],[-0.2101,39.6535,2.5986],[-0.1946,39.6465,0.0],[-0.2004,39.6504,0.0],[-0.2129,39.6554,2.5531],[-0.2143,39.6576,4.4363],[-0.2096,39.661,0.407],[-0.2054,39.6693,1.2617],[-0.2015,39.6729,0.0],[-0.2032,39.676,1.4256],[-0.2018,39.6901,1.3568],[-0.1974,39.704,2.277],[-0.1888,39.7221,1.7587],[-0.2286,39.7368,5.2149],[-0.2339,39.7401,11.2088],[-0.2347,39.739,11.2088],[-0.2468,39.743,22.9976],[-0.2609,39.7441,45.725],[-0.2711,39.7505,68.1773],[-0.2736,39.7551,74.9743],[-0.2715,39.7604,106.287],[-0.2754,39.7641,155.4638],[-0.2765,39.7706,338.9739],[-0.2974,39.7852,182.3237],[-0.3085,39.797,459.7522],[-0.316,39.7999,333.8781],[-0.3282,39.8015,255.3955],[-0.3779,39.7999,360.2216],[-0.3827,39.7942,291.6814],[-0.3884,39.7906,234.9851],[-0.3917,39.7799,284.6698],[-0.3858,39.7765,326.3311],[-0.3869,39.7692,230.2831],[-0.3889,39.7687,235.5464],[-0.3947,39.7602,253.7715],[-0.4095,39.7452,293.8329],[-0.4191,39.746,319.0575],[-0.433,39.7364,358.1746],[-0.439,39.7369,403.0909],[-0.4374,39.7335,373.9866],[-0.445,39.7189,647.4457],[-0.4269,39.717,424.7963],[-0.4083,39.7186,302.8733],[-0.3994,39.7023,465.5711],[-0.3892,39.6908,542.5424],[-0.399,39.6741,373.4495],[-0.3931,39.6649,394.5641]]]]}
,"properties": {"GID_3": "ESP.10.3.1_1","GID_0": "ESP","country": "Spain","GID_1": "ESP.10_1","province": "ComunidadValenciana","NL_NAME_1": "NA","GID_2": "ESP.10.3_1","county": "Valencia","NL_NAME_2": "NA","city": "CampdeMorvedre","VARNAME_3": "NA","NL_NAME_3": "NA","TYPE_3": "Comarca","ENGTYPE_3": "Comarca","CC_3": "NA","HASC_3": "NA","name": "Campde_Morvedre.city","area_km2": 271.0308,"hist_schema_id": "Elevation0-9000","hist_area_km2": {"0": 43.0326,"25": 33.4346,"50": 11.4034,"75": 10.3923,"100": 11.2399,"125": 17.0141,"150": 20.4692,"175": 22.6345,"200": 21.7673,"225": 17.071,"250": 14.4616,"275": 12.1959,"300": 9.0502,"325": 6.5396,"350": 5.3823,"375": 3.6705,"400": 2.6915,"425": 1.7781,"450": 1.4192,"475": 1.4355,"500": 0.9135,"525": 0.8972,"550": 0.9625,"575": 0.6362,"600": 0.3099,"625": 0.0979,"650": 0.0979,"675": 0.0326}}}