{"type":"Feature","properties":{"GID_3":"ESP.5.2.10_1","GID_0":"ESP","country":"Spain","GID_1":"ESP.5_1","province":"CastillayLeón","NL_NAME_1":"NA","GID_2":"ESP.5.2_1","county":"Burgos","NL_NAME_2":"NA","city":"n.a.(68)","VARNAME_3":"NA","NL_NAME_3":"NA","TYPE_3":"Comarca","ENGTYPE_3":"Comarca","CC_3":"NA","HASC_3":"NA","name":"n.a.(68).city"},
"geometry":{"type": "MultiPolygon","coordinates": [[[[-3.1598,42.8049,1265.3921],[-3.1481,42.8145,816.8055],[-3.1488,42.8205,769.2413],[-3.1409,42.8363,700.6087],[-3.1329,42.8373,637.6904],[-3.1301,42.8405,648.3824],[-3.1313,42.8446,654.0596],[-3.1279,42.8496,578.6509],[-3.1229,42.8489,595.6785],[-3.1208,42.855,648.1309],[-3.1131,42.861,792.9235],[-3.1137,42.864,814.1469],[-3.1082,42.8712,916.6522],[-3.1051,42.8802,1044.7793],[-3.1133,42.8818,997.1601],[-3.1125,42.8867,794.0131],[-3.1189,42.8913,773.8414],[-3.1256,42.8913,895.8115],[-3.138,42.8761,792.3769],[-3.1387,42.8713,877.7504],[-3.1447,42.8687,830.8624],[-3.1498,42.8613,698.7456],[-3.1607,42.8563,673.6812],[-3.173,42.8572,942.2579],[-3.1906,42.8694,1057.6831],[-3.2004,42.855,979.5298],[-3.2069,42.8513,984.2987],[-3.2094,42.8442,823.2059],[-3.2221,42.8386,910.5746],[-3.1934,42.8184,1170.8363],[-3.1723,42.8099,1251.0002],[-3.1686,42.8099,1318.3479],[-3.1598,42.8049,1265.3921]]]]}}