{"type":"Feature","properties":{"GID_3":"ESP.10.3.16_1","GID_0":"ESP","country":"Spain","GID_1":"ESP.10_1","province":"ComunidadValenciana","NL_NAME_1":"NA","GID_2":"ESP.10.3_1","county":"Valencia","NL_NAME_2":"NA","city":"Serranos","VARNAME_3":"NA","NL_NAME_3":"NA","TYPE_3":"Comarca","ENGTYPE_3":"Comarca","CC_3":"NA","HASC_3":"NA","name":"Serranos.city"},
"geometry":{"type": "MultiPolygon","coordinates": [[[[-0.8746,39.5529,862.0369],[-0.8297,39.5425,878.7518],[-0.7916,39.5562,474.2987],[-0.7759,39.5525,495.9677],[-0.7438,39.5381,309.4789],[-0.718,39.5454,272.1067],[-0.7212,39.5528,240.7727],[-0.7178,39.5603,226.3126],[-0.7182,39.5656,228.9712],[-0.7059,39.5748,206.8216],[-0.6999,39.5817,196.7239],[-0.6974,39.5863,205.4391],[-0.6948,39.5998,164.0337],[-0.6931,39.6019,140.8055],[-0.6905,39.6022,131.931],[-0.691,39.6068,127.1784],[-0.6856,39.6067,129.7059],[-0.6861,39.6165,170.7225],[-0.6835,39.6207,162.6499],[-0.6775,39.6219,157.0381],[-0.6828,39.6289,217.5381],[-0.7062,39.652,324.7551],[-0.7247,39.6547,262.2344],[-0.7295,39.6534,248.7274],[-0.7294,39.6555,265.7791],[-0.7529,39.6588,346.7903],[-0.7876,39.6606,364.915],[-0.7893,39.6982,421.494],[-0.7932,39.7204,449.434],[-0.7962,39.7289,481.7938],[-0.7945,39.7393,505.1271],[-0.7871,39.7423,578.367],[-0.7681,39.7613,573.3355],[-0.7414,39.7804,762.2977],[-0.733,39.7821,821.4858],[-0.7003,39.7752,752.7515],[-0.6985,39.7717,758.5414],[-0.6694,39.7626,673.2348],[-0.6523,39.7541,595.1793],[-0.6477,39.788,717.1301],[-0.6446,39.7916,673.6174],[-0.6561,39.836,887.6028],[-0.668,39.8403,911.7452],[-0.691,39.8525,948.9359],[-0.6951,39.8501,959.2233],[-0.707,39.8352,1088.0413],[-0.7125,39.8169,1043.8156],[-0.7228,39.8133,933.7643],[-0.7279,39.8162,886.9492],[-0.7305,39.815,924.2731],[-0.7306,39.8167,909.6478],[-0.7364,39.8201,937.5492],[-0.7378,39.8234,957.5264],[-0.7366,39.8292,1012.4415],[-0.741,39.8322,1042.2709],[-0.7451,39.832,1055.7815],[-0.7451,39.8358,1079.3112],[-0.7491,39.8405,1113.1536],[-0.754,39.8433,1124.5281],[-0.7735,39.8698,1155.7557],[-0.7937,39.8815,1483.4658],[-0.7976,39.8811,1475.6851],[-0.8149,39.8735,1423.5759],[-0.8291,39.8709,1348.7068],[-0.839,39.8625,1118.6805],[-0.8493,39.857,1016.7696],[-0.8564,39.8555,1057.2317],[-0.858,39.8505,997.8429],[-0.8635,39.8474,1139.7507],[-0.874,39.8484,1162.0023],[-0.8792,39.8523,1163.3291],[-0.8885,39.8521,1247.2607],[-0.9077,39.8657,1059.3208],[-0.9125,39.8724,1020.9205],[-0.9081,39.8861,1057.5541],[-0.9036,39.8879,1067.542],[-0.9002,39.8919,1087.1564],[-0.9029,39.8971,1163.76],[-0.9096,39.8986,1167.4401],[-0.9075,39.9005,1217.2058],[-0.9138,39.918,1413.182],[-0.9075,39.928,1323.0278],[-0.9034,39.9262,1243.0015],[-0.9026,39.9319,1258.1576],[-0.906,39.944,1363.9421],[-0.9171,39.9549,1357.9661],[-0.9157,39.9579,1348.3159],[-0.9204,39.9644,1369.4042],[-0.9245,39.9593,1411.1381],[-0.9318,39.9561,1514.0044],[-0.9347,39.9599,1499.0773],[-0.9445,39.9629,1492.5789],[-0.9491,39.9673,1487.5984],[-0.9521,39.967,1510.267],[-0.9684,39.9745,1522.6938],[-0.9762,39.9758,1512.3812],[-0.9913,39.9819,1493.7064],[-0.999,39.9802,1482.5938],[-1.0025,39.9819,1501.1373],[-1.0252,39.9746,1419.3472],[-1.0564,39.9804,1409.9431],[-1.0715,39.9797,1273.3268],[-1.0859,39.9764,1118.4219],[-1.0869,39.9732,1109.8125],[-1.0845,39.9719,1100.7372],[-1.0921,39.9678,1072.4586],[-1.105,39.975,1082.6177],[-1.1078,39.9719,1037.312],[-1.107,39.9706,1037.312],[-1.1098,39.969,970.9925],[-1.1127,39.9732,1036.4127],[-1.1162,39.9721,1075.252],[-1.1191,39.9682,1141.9597],[-1.1238,39.966,1145.9984],[-1.1217,39.9609,1025.6741],[-1.1284,39.9629,983.6226],[-1.1302,39.9703,887.7593],[-1.1423,39.9719,869.287],[-1.1539,39.9639,956.0966],[-1.2039,39.9494,850.1281],[-1.2081,39.9438,752.4745],[-1.2084,39.9414,647.0264],[-1.2068,39.9407,679.266],[-1.2097,39.9341,647.3195],[-1.2069,39.9322,620.5257],[-1.2089,39.9282,642.0873],[-1.2005,39.9229,648.3082],[-1.1999,39.92,625.9197],[-1.1972,39.9184,623.5293],[-1.1986,39.916,634.5147],[-1.1958,39.914,623.6195],[-1.1981,39.9088,847.6451],[-1.2,39.8885,899.4663],[-1.2,39.8738,1045.3766],[-1.1976,39.873,1033.9065],[-1.2007,39.8709,994.1963],[-1.1999,39.8595,846.6652],[-1.2108,39.8382,1075.8247],[-1.2106,39.8333,1274.4357],[-1.2038,39.8301,1220.9053],[-1.2012,39.8201,1115.0851],[-1.198,39.8179,1087.9922],[-1.1965,39.8141,996.7119],[-1.1836,39.8078,832.8792],[-1.1647,39.7818,819.6268],[-1.15,39.7747,954.3028],[-1.165,39.7597,724.5042],[-1.1694,39.7498,837.5884],[-1.1693,39.7435,822.7797],[-1.1615,39.7308,870.1407],[-1.1625,39.6942,951.7259],[-1.167,39.6784,1083.595],[-1.1615,39.6757,1060.4111],[-1.1605,39.6678,1193.5385],[-1.1468,39.6597,1190.1383],[-1.128,39.6453,1202.4208],[-1.1214,39.6432,1155.3638],[-1.1133,39.6379,1067.6365],[-1.0999,39.624,1044.8359],[-1.0884,39.617,969.708],[-1.0671,39.6135,925.6382],[-1.0609,39.6225,839.6444],[-1.0635,39.6284,855.3412],[-1.0628,39.6308,876.3077],[-1.0516,39.6391,906.6757],[-1.0487,39.6393,912.7115],[-1.0406,39.6506,983.7412],[-1.0298,39.6466,1011.675],[-1.0237,39.6403,1017.376],[-1.0175,39.6378,1032.0206],[-1.0103,39.632,1048.1028],[-1.0057,39.6369,1050.3492],[-1.0022,39.6444,854.4466],[-0.9829,39.6669,678.3135],[-0.9777,39.6705,721.1865],[-0.9627,39.6758,774.2708],[-0.9571,39.6808,720.7203],[-0.953,39.6877,720.1918],[-0.9459,39.6887,526.7458],[-0.9406,39.6921,490.028],[-0.9278,39.695,330.5923],[-0.9239,39.6985,359.8499],[-0.9029,39.6988,399.811],[-0.8948,39.6953,436.8709],[-0.8906,39.6955,452.3381],[-0.9042,39.6834,374.6588],[-0.9116,39.6745,393.4704],[-0.9148,39.6489,463.6945],[-0.9469,39.641,649.1564],[-0.9639,39.6301,696.4951],[-0.9581,39.6274,673.8987],[-0.9538,39.62,526.5273],[-0.9474,39.6147,459.9003],[-0.9337,39.6083,401.0397],[-0.9352,39.6029,535.0703],[-0.9309,39.5963,744.8678],[-0.9038,39.5816,798.8461],[-0.8968,39.571,759.8038],[-0.899,39.5674,726.6036],[-0.8981,39.5639,724.6147],[-0.9082,39.5633,788.074],[-0.9268,39.5578,963.5144],[-0.936,39.5536,1097.0017],[-0.9316,39.5436,929.4093],[-0.927,39.5401,1091.7751],[-0.9201,39.5387,1100.6089],[-0.9196,39.544,1086.105],[-0.8881,39.5536,748.8535],[-0.8746,39.5529,862.0369]]]]}}