{"type": "Feature","bbox": [-5.647,42.7013,-4.7341,43.2384],"geometry": {"type": "MultiPolygon","coordinates": [[[[-5.3247,42.7367,1034.2716],[-5.3186,42.7356,1049.6138],[-5.3074,42.7368,1054.3087],[-5.2956,42.7398,1100.5078],[-5.2755,42.7572,1123.0183],[-5.2751,42.7501,1106.4305],[-5.2654,42.7364,1100.1633],[-5.2596,42.7321,1085.6306],[-5.2559,42.7315,1072.3057],[-5.2523,42.7331,1073.3329],[-5.2475,42.7295,1066.9836],[-5.2421,42.7295,1050.0671],[-5.2344,42.7323,1045.6554],[-5.2277,42.7395,1017.8445],[-5.2158,42.7417,973.0472],[-5.2088,42.7479,1034.2153],[-5.196,42.7467,991.3029],[-5.1889,42.7511,990.1352],[-5.1832,42.7515,1062.7806],[-5.1808,42.7508,1070.2466],[-5.1867,42.7412,1036.8047],[-5.1861,42.7322,986.4381],[-5.198,42.713,1026.2222],[-5.1784,42.7019,895.4057],[-5.169,42.7013,888.5673],[-5.1641,42.7114,897.6611],[-5.1601,42.7129,902.0724],[-5.1556,42.721,896.6238],[-5.1526,42.7229,897.6505],[-5.1521,42.737,907.7144],[-5.1465,42.7422,903.5736],[-5.1431,42.7438,910.0023],[-5.1272,42.744,989.495],[-5.1065,42.7375,1110.5044],[-5.1044,42.7382,1116.9182],[-5.1045,42.743899999999996,1120.8467],[-5.0999,42.7549,1141.8676],[-5.1026,42.7586,1135.6763],[-5.0902,42.775,1016.444],[-5.0868,42.774,1016.2604],[-5.0782,42.7777,1047.8772],[-5.0692,42.791,1136.0225],[-5.0694,42.798,1197.1724],[-5.0737,42.8032,1298.8634],[-5.07,42.8062,1457.8297],[-5.0737,42.8119,1614.9978],[-5.0735,42.8156,1635.208],[-5.0564,42.8147,1803.7694],[-5.0418,42.8183,1320.7997],[-5.0363,42.8139,1319.1171],[-5.0314,42.8043,1227.8914],[-5.0302,42.8052,1227.8914],[-5.0177,42.8013,1138.1024],[-5.0148,42.7941,1077.5834],[-5.0096,42.794,1059.0332],[-5.0079,42.7896,1020.8495],[-4.9929,42.7897,1010.4681],[-4.9874,42.7841,991.8011],[-4.9916,42.7806,1006.1066],[-4.992,42.7765,1026.5309],[-4.9971,42.7703,1006.9324],[-5.0071,42.7708,1049.6254],[-5.0144,42.7677,1086.2372],[-5.0096,42.7617,1009.7616],[-5.0052,42.7617,977.9016],[-5.0009,42.7593,954.0618],[-5.004,42.7535,959.2506],[-5.0007,42.7492,949.3321],[-5.0023,42.744,945.7924],[-4.9757999999999996,42.7449,1067.6018],[-4.9671,42.747,1126.6426],[-4.9587,42.755,1130.2341],[-4.9508,42.7542,1123.4098],[-4.9414,42.7578,1114.8737],[-4.9285,42.7554,1062.5271],[-4.925,42.7593,1059.5287],[-4.9205,42.7574,1127.6707],[-4.9095,42.7742,1176.4259],[-4.909,42.7794,1108.5535],[-4.9027,42.7844,1193.7098],[-4.9015,42.783,1177.6724],[-4.8958,42.7851,1194.207],[-4.8965,42.7997,1156.7151],[-4.8989,42.8022,1195.4423],[-4.8988,42.8052,1199.0194],[-4.9028,42.8093,1233.8469],[-4.8969,42.8173,1342.7781],[-4.8958,42.827,1518.2502],[-4.8919,42.8322,1534.9329],[-4.8885,42.8411,1562.3885],[-4.9007,42.8516,1636.7513],[-4.901,42.8574,1651.8728],[-4.8983,42.8631,1694.6493],[-4.8804,42.8659,1741.8021],[-4.8684,42.8628,1769.9562],[-4.8655,42.8605,1750.4515],[-4.8605,42.871,1257.671],[-4.8583,42.8781,1503.4309],[-4.8594,42.8837,1585.0791],[-4.8554,42.8917,1904.4465],[-4.8459,42.8975,1902.3374],[-4.8383,42.8953,1938.0469],[-4.836,42.8993,1818.1312],[-4.8378,42.9067,1626.1843],[-4.8304,42.9119,1515.844],[-4.8283,42.917,1473.9127],[-4.8196,42.9223,1523.8582],[-4.8137,42.924,1573.4038],[-4.813,42.9274,1584.4546],[-4.8091,42.9303,1626.359],[-4.8108,42.936,1801.0079],[-4.8051,42.9418,1955.6277],[-4.8026,42.9495,2035.8458],[-4.8064,42.9565,1970.2742],[-4.8051,42.9618,1985.0239],[-4.8072,42.9677,2036.3987],[-4.7956,42.9738,2183.0149],[-4.7947,42.9866,2119.9961],[-4.7882,42.9925,2231.5601],[-4.7828,42.9935,2211.6387],[-4.781,42.9979,2117.1003],[-4.7668,43.0015,2207.4771],[-4.7569,43.0155,2368.7563],[-4.7388,43.0184,2378.7847],[-4.7369,43.021,2426.144],[-4.7432,43.0281,2406.9634],[-4.7388,43.0407,2075.2651],[-4.7341,43.047,2143.9663],[-4.7439,43.0564,2004.4829],[-4.7497,43.0558,1908.6805],[-4.7528,43.0572,1805.0896],[-4.766,43.0556,1773.2234],[-4.7664,43.0745,1862.9922],[-4.7844,43.0836,1963.2148],[-4.7967,43.0878,2133.0527],[-4.8006,43.0877,2023.5455],[-4.8074,43.0918,1971.667],[-4.8168,43.0926,2031.9573],[-4.8172,43.096,2066.6582],[-4.8214,43.0993,1947.7366],[-4.8327,43.1026,1918.5948],[-4.8357,43.1163,1840.7482],[-4.8452,43.1215,1769.1918],[-4.8457,43.1238,1859.1736],[-4.8513,43.1259,1858.8134],[-4.8426,43.1333,1490.796],[-4.8438,43.146,2137.6069],[-4.8385,43.147,2155.3],[-4.8347,43.1582,2246.2664],[-4.8406,43.1623,2261.4141],[-4.8388,43.1667,2351.5305],[-4.8516,43.1728,2470.646],[-4.8493,43.177,2340.3184],[-4.8409,43.1807,2503.0356],[-4.8391,43.1897,2437.6863],[-4.8527,43.1963,2509.0935],[-4.8568,43.2041,2323.2832],[-4.8616,43.2056,2064.8826],[-4.8601,43.2084,2258.1587],[-4.8625,43.2122,2195.3101],[-4.8595,43.2155,2145.0388],[-4.8601,43.2184,2132.3545],[-4.8735,43.2296,1597.5574],[-4.882,43.232,849.3167],[-4.8935,43.2384,589.6764],[-4.9074,43.2379,1474.61],[-4.9125,43.2368,1380.6083],[-4.9194,43.2275,1831.8264],[-4.9322,43.2249,1854.7711],[-4.9422,43.2249,2037.3083],[-4.9519,43.2193,2217.0044],[-4.9519,43.2144,2204.5647],[-4.9638,43.2124,2289.2271],[-4.971,43.2044,2281.3096],[-4.9702,43.2022,2302.811],[-4.9789,43.2005,2174.853],[-4.9965,43.1854,1090.134],[-4.9968,43.1731,1246.1914],[-5.0014,43.1763,1460.3511],[-5.0174,43.1819,1496.0309],[-5.0208,43.1851,1816.7268],[-5.0307,43.1836,1776.0082],[-5.0408,43.1846,1526.4924],[-5.0532,43.1827,1559.62],[-5.0543,43.1795,1498.7394],[-5.0758,43.1815,403.9364],[-5.0781,43.1752,424.717],[-5.0762,43.1726,441.4689],[-5.0784,43.1604,453.9778],[-5.0828,43.1582,503.8601],[-5.0874,43.1531,569.8336],[-5.0856,43.1482,803.8873],[-5.0948,43.143,637.2378],[-5.0903,43.134,862.5679],[-5.091,43.1295,984.4437],[-5.0992,43.1158,1605.7739],[-5.0956,43.1077,1652.1422],[-5.1016,43.1018,1818.1005],[-5.1204,43.1006,1673.1112],[-5.1406,43.1029,1994.8942],[-5.1477,43.1151,1934.8411],[-5.1534,43.1109,1770.0658],[-5.1575,43.1099,1773.053],[-5.1599,43.111,1787.8003],[-5.163,43.1092,1799.4088],[-5.1678,43.1024,1586.7155],[-5.1753,43.1,1568.2758],[-5.1885,43.0997,1583.1165],[-5.1911,43.0953,1608.7444],[-5.1989,43.0927,1638.2379],[-5.2011,43.0902,1691.5403],[-5.2067,43.0923,1782.3562],[-5.2096,43.0868,1570.2983],[-5.2201,43.0836,1507.9503],[-5.2259,43.0855,1627.8309],[-5.2287,43.0842,1710.8512],[-5.2402,43.0885,1828.1948],[-5.2684,43.0875,1832.4281],[-5.2781,43.0833,1729.2128],[-5.282,43.0774,1783.4185],[-5.2969,43.0792,1749.3276],[-5.3114,43.0841,1847.8242],[-5.3171,43.0827,1826.9421],[-5.3204,43.0793,1792.7302],[-5.3366,43.0819,1933.5173],[-5.3413,43.0837,1972.217],[-5.3389,43.0915,1953.557],[-5.3447,43.0942,1861.6667],[-5.369,43.0945,1781.8557],[-5.3777,43.0883,1804.5878],[-5.383,43.0872,1878.7844],[-5.3903,43.0493,2021.187],[-5.3949,43.0476,1942.6921],[-5.4003,43.0478,1907.0613],[-5.4058,43.0499,1936.876],[-5.4107,43.0491,1877.0052],[-5.4168,43.0521,1871.0316],[-5.4338,43.0527,1890.7465],[-5.4481,43.0554,1927.6427],[-5.4667,43.0505,1951.738],[-5.4755,43.0555,2011.691],[-5.4784,43.0549,1979.6658],[-5.4806,43.0535,1993.4738],[-5.4809,43.0421,1683.9225],[-5.4874,43.0315,1699.9705],[-5.4902,43.0305,1711.8264],[-5.4936,43.0213,2056.5569],[-5.5059,43.0286,1987.2336],[-5.5285,43.0258,1859.3499],[-5.5301,43.0226,1846.2391],[-5.5403,43.0183,1890.05],[-5.5561,43.0205,1880.0491],[-5.5579,43.0225,1800.0874],[-5.57,43.0227,1872.8256],[-5.5745,43.0322,1891.1316],[-5.5951,43.0334,1830.5878],[-5.6037,43.036,1825.8572],[-5.609,43.034,1725.5845],[-5.613,43.0354,1728.2571],[-5.6274,43.0342,1646.5306],[-5.6366,43.0353,1737.1819],[-5.6386,43.0385,1906.9648],[-5.643,43.0378,2016.5704],[-5.6448,43.0294,1993.936],[-5.647,43.0279,2040.7103],[-5.637,43.0142,2030.8492],[-5.6387,43.0104,2096.3267],[-5.6436,43.007,2096.9822],[-5.6429,43.0038,2129.6025],[-5.6193,42.9951,1960.7462],[-5.6259,42.9801,1800.1814],[-5.6207,42.9776,1786.9493],[-5.6208,42.9745,1833.5215],[-5.6256,42.9718,1891.2628],[-5.6224,42.9697,1888.0479],[-5.6156,42.969,1804.9998],[-5.6146,42.9593,1378.4144],[-5.6115,42.9566,1352.042],[-5.6158,42.9354,1845.365],[-5.6129,42.9348,1884.3475],[-5.6114,42.9319,1716.5408],[-5.6139,42.9291,1608.6049],[-5.6139,42.9176,1691.2749],[-5.6177,42.9138,1693.1663],[-5.6124,42.911,1601.062],[-5.6058,42.904,1622.2128],[-5.6075,42.8972,1592.2666],[-5.6114,42.8971,1558.2213],[-5.6168,42.8886,1334.3145],[-5.6134,42.8867,1202.2617],[-5.6122,42.8828,1258.7074],[-5.5926,42.8784,1532.6763],[-5.5897,42.8735,1480.9558],[-5.59,42.8706,1463.6284],[-5.5955,42.8665,1299.1365],[-5.595,42.8617,1311.9293],[-5.5913,42.8579,1483.0857],[-5.5879,42.8598,1454.5264],[-5.583,42.8588,1428.1053],[-5.5773,42.8548,1375.4559],[-5.5774,42.8477,1329.2849],[-5.5742,42.8405,1293.7983],[-5.5605,42.8405,1246.5708],[-5.5549,42.8391,1226.7361],[-5.5436,42.8275,1035.5154],[-5.534,42.8134,1172.7654],[-5.5275,42.8086,1155.2012],[-5.5255,42.8029,1107.4791],[-5.5146,42.7994,1090.9469],[-5.4961,42.8013,1002.686],[-5.4764,42.8,1182.0591],[-5.4719,42.8038,1202.9785],[-5.4639,42.8059,1257.5558],[-5.4624,42.8097,1257.405],[-5.4565,42.8141,1291.7308],[-5.4553,42.8168,1286.9929],[-5.4387,42.8141,1239.8901],[-5.4333,42.8101,1201.1248],[-5.4332,42.806399999999996,1182.8074],[-5.429,42.8025,1145.1871],[-5.4264,42.8032,1121.3862],[-5.4172,42.8004,1049.4191],[-5.4144,42.8023,997.2744],[-5.408,42.801,965.9435],[-5.4067,42.7959,965.2346],[-5.4019,42.7948,1075.431],[-5.3981,42.7918,1072.887],[-5.3906,42.7799,1158.7527],[-5.3859,42.7877,1160.8384],[-5.378,42.7901,1172.8324],[-5.3672,42.786,1079.6139],[-5.3581,42.7847,1026.8607],[-5.3664,42.7799,1017.2717],[-5.3799,42.777,1076.7732],[-5.3785,42.7751,1094.9604],[-5.3649,42.7706,1062.7902],[-5.3611,42.7658,992.6987],[-5.3439,42.7531,919.0273],[-5.3616,42.7286,887.4932],[-5.3602,42.7273,880.6763],[-5.3581,42.7306,885.483],[-5.3418,42.7346,926.342],[-5.3376,42.7331,1003.6451],[-5.3271,42.733,1041.8501],[-5.3247,42.7367,1034.2716]]]]}
,"properties": {"GID_3": "ESP.5.3.3_1","GID_0": "ESP","country": "Spain","GID_1": "ESP.5_1","province": "CastillayLeón","NL_NAME_1": "NA","GID_2": "ESP.5.3_1","county": "León","NL_NAME_2": "NA","city": "n.a.(150)","VARNAME_3": "NA","NL_NAME_3": "NA","TYPE_3": "Comarca","ENGTYPE_3": "Comarca","CC_3": "NA","HASC_3": "NA","name": "n.a.(150).city","area_km2": 2413.992,"hist_schema_id": "Elevation0-9000","hist_area_km2": {"350": 0.031,"400": 0.046,"425": 0.185,"450": 0.309,"475": 0.572,"500": 0.495,"525": 0.711,"550": 0.866,"575": 0.742,"600": 1.299,"625": 1.191,"650": 1.593,"675": 1.438,"700": 1.701,"725": 1.593,"750": 1.763,"775": 1.608,"800": 1.794,"825": 1.531,"850": 2.165,"875": 2.926,"900": 13.142,"925": 15.234,"950": 21.729,"975": 36.174,"1000": 49.568,"1025": 58.387,"1050": 65.584,"1075": 78.56,"1100": 106.996,"1125": 89.577,"1150": 89.47,"1175": 90.506,"1200": 87.853,"1225": 89.488,"1250": 88.624,"1275": 86.255,"1300": 82.968,"1325": 81.887,"1350": 81.012,"1375": 78.124,"1400": 76.939,"1425": 75.617,"1450": 72.976,"1475": 66.998,"1500": 66.422,"1525": 62.383,"1550": 58.333,"1575": 54.746,"1600": 50.944,"1625": 46.569,"1650": 43.853,"1675": 39.091,"1700": 34.859,"1725": 33.446,"1750": 29.633,"1775": 26.765,"1800": 23.867,"1825": 20.89,"1850": 16.798,"1875": 14.969,"1900": 13.293,"1925": 10.737,"1950": 9.619,"1975": 7.404,"2000": 6.488,"2025": 5.281,"2050": 4.366,"2075": 3.994,"2100": 3.157,"2125": 2.863,"2150": 2.228,"2175": 2.259,"2200": 1.702,"2225": 1.284,"2250": 1.362,"2275": 1.315,"2300": 0.975,"2325": 0.867,"2350": 0.712,"2375": 0.541,"2400": 0.433,"2425": 0.34,"2450": 0.34,"2475": 0.216,"2500": 0.17,"2525": 0.139,"2550": 0.062,"2575": 0.046}}}