{"type":"Feature","properties":{"GID_3":"ESP.6.1.8_1","GID_0":"ESP","country":"Spain","GID_1":"ESP.6_1","province":"Cataluña","NL_NAME_1":"NA","GID_2":"ESP.6.1_1","county":"Barcelona","NL_NAME_2":"NA","city":"n.a.(34)","VARNAME_3":"NA","NL_NAME_3":"NA","TYPE_3":"Comarca","ENGTYPE_3":"Comarca","CC_3":"NA","HASC_3":"NA","name":"n.a.(34).city"},
"geometry":{"type": "MultiPolygon","coordinates": [[[[1.9129,41.9697,445.921],[1.9123,41.9737,448.7965],[1.9144,41.973,451.4471],[1.9172,41.9761,450.5742],[1.9162,41.9776,454.6252],[1.9258,41.9872,474.0486],[1.9305,41.9896,469.8976],[1.9317,41.9986,565.5412],[1.9406,42.0067,615.7513],[1.9468,42.0085,571.0443],[1.9533,42.0041,519.5731],[1.963,42.0186,555.1125],[1.9742,42.0219,641.2193],[1.9779,42.0313,671.7478],[1.9734,42.0368,663.6003],[1.9879,42.0433,633.2861],[1.9998,42.0393,576.6416],[1.9971,42.0484,650.2887],[1.9997,42.0523,678.4279],[2.0067,42.0536,589.2933],[2.009,42.0716,616.491],[2.0077,42.0737,619.0339],[2.0097,42.083,637.9772],[2.008,42.085,636.9469],[2.014,42.0942,675.8153],[2.026,42.0964,719.4542],[2.0282,42.0953,712.0983],[2.0264,42.0931,741.0289],[2.0345,42.0774,785.8967],[2.0451,42.0811,725.4362],[2.0426,42.0817,737.8351],[2.0402,42.0848,772.055],[2.0397,42.0881,812.4066],[2.0424,42.0925,839.9924],[2.0531,42.0948,832.8625],[2.0539,42.0904,793.4839],[2.0577,42.0875,810.7387],[2.0625,42.0987,745.5954],[2.0457,42.1044,828.366],[2.0547,42.1079,830.3227],[2.0497,42.1218,825.4562],[2.0682,42.1225,882.5004],[2.07,42.1322,936.0117],[2.0675,42.1342,955.7405],[2.0546,42.1375,789.8647],[2.0517,42.1431,840.777],[2.046,42.1444,865.2808],[2.0371,42.1433,956.9338],[2.0333,42.1498,975.6687],[2.0269,42.1526,1189.2429],[2.0128,42.1493,1122.6038],[2.004,42.1495,1001.3937],[2.0059,42.1517,1062.0278],[2.0036,42.1528,904.0286],[2.0054,42.155,921.9416],[1.9969,42.1621,1134.6384],[1.9908,42.1716,1268.3534],[1.9922,42.1724,1253.6656],[1.9892,42.1767,1212.0515],[1.9915,42.1826,1156.0742],[1.9837,42.1811,1086.4834],[1.9788,42.1829,1027.3539],[1.9707,42.1802,991.8148],[1.9706,42.1782,989.2613],[1.9659,42.1788,946.0299],[1.9652,42.1991,1536.6528],[1.97,42.1975,1602.8328],[1.9764,42.1991,1492.3582],[1.9877,42.1948,1457.7205],[2.0073,42.1941,1345.4342],[1.998,42.1921,1452.1729],[1.999,42.1885,1202.9374],[2.0062,42.1838,1143.7725],[2.0016,42.177,1093.7434],[1.9956,42.1723,1196.1398],[2.0039,42.1663,1128.6021],[2.0048,42.1621,980.5584],[2.0129,42.164,1075.4434],[2.0228,42.1641,1215.6367],[2.0275,42.1666,1254.2532],[2.0279,42.1695,1251.8271],[2.0315,42.1722,1181.4172],[2.0314,42.177,1103.2798],[2.037,42.179,976.6672],[2.0453,42.176,955.2392],[2.0556,42.1756,1008.0974],[2.0605,42.1779,935.165],[2.0592,42.1791,951.895],[2.061,42.1798,949.4935],[2.0616,42.189,1049.0934],[2.0636,42.1916,1016.8933],[2.0603,42.1953,1003.2878],[2.0525,42.1958,1020.3186],[2.0536,42.2006,1064.7384],[2.0505,42.2084,1236.1086],[2.0515,42.2136,1320.2891],[2.0501,42.2159,1466.5592],[2.0533,42.2196,1414.6071],[2.0489,42.2214,1461.0641],[2.0395,42.2212,1336.3765],[2.0302,42.2159,1197.5651],[2.0232,42.2274,1000.9908],[2.0194,42.2284,985.6375],[2.0167,42.2327,935.6177],[2.0206,42.2319,949.9909],[2.0248,42.2333,962.6483],[2.0247,42.2399,977.2072],[2.0278,42.2413,976.5897],[2.0268,42.2422,1017.1467],[2.0296,42.245,994.8364],[2.0274,42.2495,1064.264],[2.0292,42.2514,1050.519],[2.0287,42.2535,1053.9404],[2.0271,42.2533,1107.611],[2.0304,42.257,1079.8202],[2.0399,42.2606,1162.9858],[2.0433,42.268,1214.2793],[2.0421,42.2694,1218.2366],[2.0484,42.275,1320.9692],[2.0515,42.2753,1317.791],[2.0524,42.2788,1436.5072],[2.0598,42.2826,1578.8589],[2.0669,42.2839,1702.8125],[2.0699,42.2916,1884.3993],[2.0664,42.2902,1899.3662],[2.057,42.2956,1853.4674],[2.0477,42.2977,1947.8527],[2.0401,42.3021,1886.0948],[2.038,42.3052,1890.5798],[2.0283,42.3063,1952.4971],[2.0185,42.3103,1951.9407],[2.014,42.3075,2016.4868],[2.0058,42.3076,2007.623],[1.9933,42.3026,1937.4357],[1.9921,42.3003,1936.79],[1.9873,42.3004,1975.437],[1.9838,42.2981,1972.0205],[1.9703,42.3033,1866.9149],[1.9487,42.3157,2176.7969],[1.9433,42.3085,2295.8052],[1.9393,42.3165,2138.5303],[1.9329,42.3187,2055.6519],[1.9212,42.317,2018.5254],[1.9031,42.3233,2378.2844],[1.8929,42.3209,2517.8254],[1.8931,42.3187,2486.3389],[1.8911,42.3174,2408.574],[1.8835,42.3172,2242.2244],[1.8831,42.3149,2226.5825],[1.8792,42.3127,2143.6758],[1.8737,42.3136,2095.752],[1.8639,42.311,2086.2156],[1.8614,42.3132,2152.572],[1.8578,42.3107,2132.825],[1.8506,42.3107,2127.9646],[1.8426,42.3064,2232.3062],[1.8373,42.3056,2099.4946],[1.8328,42.3013,2051.1101],[1.8265,42.2993,1980.3511],[1.8184,42.2995,1996.5007],[1.8146,42.3023,2000.3301],[1.8045,42.3021,1978.3501],[1.797,42.2975,1804.1868],[1.7973,42.2948,1831.845],[1.7868,42.2945,1819.2383],[1.7755,42.2909,2001.7379],[1.7624,42.2938,2108.8472],[1.7407,42.2906,2323.4609],[1.7343,42.284,2395.8833],[1.7192,42.284,2441.9807],[1.7184,42.28,2372.4709],[1.6902,42.2771,2259.8511],[1.6951,42.2639,1847.959],[1.6854,42.2605,1828.7444],[1.6846,42.2565,2002.1412],[1.688,42.2545,1965.7212],[1.6898,42.2476,2161.957],[1.6967,42.245,2247.7637],[1.6988,42.2411,2376.6768],[1.7032,42.2399,2432.4883],[1.7042,42.2362,2361.1475],[1.7013,42.2348,2216.6072],[1.7003,42.2307,2016.7391],[1.681,42.2243,1406.6543],[1.6854,42.2208,1377.2407],[1.6804,42.2064,1576.5312],[1.6863,42.2064,1498.4272],[1.6896,42.1991,1417.9834],[1.7074,42.1901,1725.4629],[1.7132,42.1905,1869.2457],[1.7145,42.1928,1849.7574],[1.7215,42.1962,1980.8529],[1.7377,42.1895,2285.4253],[1.7368,42.1852,2080.6704],[1.738,42.185,2090.0403],[1.7363,42.1835,1844.8295],[1.7391,42.1766,1547.5923],[1.7359,42.171,1482.3033],[1.7365,42.1628,1428.8931],[1.7343,42.1594,1372.9928],[1.7206,42.1517,1506.9521],[1.7136,42.1541,1514.9497],[1.708,42.1498,1355.6309],[1.7068,42.1453,1309.2954],[1.7027,42.1421,1274.1907],[1.7038,42.1407,1250.8256],[1.6986,42.1357,1039.7795],[1.6989,42.1285,1083.3411],[1.7117,42.1195,975.455],[1.7093,42.1098,1076.9296],[1.7051,42.1067,977.5707],[1.7117,42.1016,1191.6196],[1.7225,42.0998,1027.5227],[1.7221,42.0911,1505.6235],[1.7166,42.0847,1397.2664],[1.7076,42.0827,1329.304],[1.6913,42.0871,1019.697],[1.6884,42.0815,1325.9526],[1.6883,42.0784,1202.817],[1.6914,42.0781,1330.829],[1.6897,42.0744,1158.3855],[1.6844,42.0671,992.6739],[1.6744,42.0592,1133.7229],[1.6737,42.0523,1096.7538],[1.6708,42.045,894.9346],[1.6719,42.041,839.7538],[1.6786,42.0383,770.609],[1.68,42.0465,855.1057],[1.6826,42.0499,831.5833],[1.6836,42.0481,845.3726],[1.6925,42.0462,1040.736],[1.6973,42.037,935.1727],[1.6943,42.0352,880.5342],[1.6995,42.0296,837.1134],[1.698,42.0274,820.665],[1.6888,42.0279,818.9677],[1.6897,42.0271,818.9677],[1.6837,42.0255,879.7917],[1.678,42.0186,793.3698],[1.6749,42.0196,705.2324],[1.6725,42.0181,692.6988],[1.6686,42.0137,720.7261],[1.6699,42.007,667.2045],[1.666,42.0035,610.4373],[1.6603,42.0067,602.4984],[1.664,42.0081,622.6816],[1.6653,42.0107,659.7814],[1.6623,42.0116,689.6855],[1.662,42.0154,721.031],[1.665,42.0191,767.6573],[1.6647,42.0223,855.9155],[1.6619,42.0234,780.0463],[1.6559,42.0209,710.5406],[1.6545,42.016,627.2926],[1.6517,42.014,598.465],[1.6527,42.007,561.4821],[1.6487,42.0034,555.9761],[1.6479,42.0002,535.6992],[1.6517,41.9993,547.3375],[1.652,41.9925,521.6274],[1.6554,41.9935,524.9891],[1.6577,41.9983,554.9825],[1.6551,41.9996,558.2825],[1.657,42.0013,586.1703],[1.6548,42.0024,579.155],[1.6579,42.0051,600.1735],[1.6619,42.003,598.3344],[1.662,41.9911,557.1194],[1.6682,41.9904,559.069],[1.6766,41.9944,583.3966],[1.6848,41.9949,607.6738],[1.6897,41.9903,599.0471],[1.6911,41.9908,618.946],[1.6911,41.9866,611.3369],[1.6975,41.9852,588.4477],[1.6967,41.9915,617.7301],[1.6993,41.993,632.6937],[1.6909,42.006,714.8351],[1.6978,42.0147,853.2986],[1.7078,42.0075,757.2102],[1.7069,42.0028,706.6561],[1.7128,42.0028,733.0348],[1.718,41.9995,690.7485],[1.718,41.9972,687.678],[1.7156,41.9968,655.7001],[1.7175,41.993899999999996,690.1144],[1.7155,41.9912,636.1317],[1.713,41.992,655.6749],[1.7192,41.9845,600.8019],[1.7148,41.9813,643.576],[1.6963,41.975,559.5513],[1.6828,41.9674,557.9357],[1.6788,41.9689,563.0081],[1.6718,41.9683,499.7476],[1.6705,41.9706,505.1713],[1.6695,41.9699,504.7953],[1.6694,41.9733,526.8245],[1.6753,41.9826,554.9222],[1.6679,41.9846,544.125],[1.6599,41.983,516.1859],[1.6603,41.9777,502.8456],[1.6561,41.9791,517.019],[1.6556,41.9807,515.8724],[1.6501,41.9797,530.8621],[1.6514,41.9787,537.3018],[1.6443,41.969,574.8056],[1.6457,41.959,529.7876],[1.6494,41.9566,529.7341],[1.6548,41.9579,566.4536],[1.6589,41.9612,529.2717],[1.6647,41.9621,529.965],[1.6689,41.9578,492.3077],[1.6714,41.9575,482.7598],[1.6704,41.9545,479.1624],[1.6744,41.9506,532.5186],[1.6744,41.9474,470.3614],[1.6786,41.9473,473.5822],[1.6783,41.9426,480.3159],[1.686,41.9373,661.8539],[1.6883,41.9388,648.519],[1.7027,41.9393,653.5006],[1.7168,41.9435,495.765],[1.7199,41.9374,454.7156],[1.7196,41.9315,434.2112],[1.7332,41.9253,542.1266],[1.7304,41.9189,553.1437],[1.7344,41.9171,547.7217],[1.751,41.917,635.1067],[1.7549,41.9219,695.991],[1.7601,41.9161,574.5925],[1.7624,41.9181,650.9927],[1.7645,41.917,656.2408],[1.7665,41.9122,691.1467],[1.7874,41.9197,662.819],[1.8,41.9193,612.2133],[1.8097,41.9258,617.1779],[1.8232,41.9208,544.0465],[1.8268,41.9166,547.5264],[1.8319,41.9147,479.4727],[1.8335,41.9107,482.9772],[1.8418,41.9087,460.2202],[1.8397,41.9028,414.7018],[1.8409,41.9001,391.0646],[1.8451,41.8996,389.9184],[1.8449,41.8976,376.272],[1.8495,41.902,393.9483],[1.847,41.9029,395.7939],[1.848,41.9064,403.1989],[1.846,41.9084,414.4166],[1.8478,41.9163,437.2701],[1.8639,41.9168,550.3643],[1.8708,41.9109,463.7672],[1.8803,41.9067,323.3431],[1.8857,41.9062,326.3007],[1.8862,41.9097,346.8472],[1.8835,41.9127,354.7443],[1.886,41.9166,376.9843],[1.8859,41.9207,343.2335],[1.8826,41.9261,347.0988],[1.8855,41.9318,365.2651],[1.8857,41.9377,366.8831],[1.8972,41.9386,400.5316],[1.8984,41.9403,385.929],[1.8942,41.9417,386.5187],[1.8987,41.9449,390.112],[1.9,41.9433,408.783],[1.9042,41.9467,410.1597],[1.9012,41.9486,407.2775],[1.9055,41.9504,429.5585],[1.9061,41.9582,416.3918],[1.9153,41.9642,454.5063],[1.9073,41.9675,437.3135],[1.9129,41.9697,445.921]],
[[2.0025,42.1256,938.1146],[2.0175,42.1262,902.3176],[2.0218,42.1277,842.0305],[2.0204,42.1313,887.1429],[2.026,42.1309,853.0009],[2.0314,42.127,872.7067],[2.0298,42.1213,774.6832],[2.0197,42.1211,793.735],[2.0209,42.117,847.9706],[2.0176,42.1103,699.3524],[2.0149,42.1084,704.9223],[2.0076,42.1073,698.4835],[2.0066,42.1159,871.3306],[2.0013,42.1203,880.0361],[2.006,42.1213,801.2978],[2.0025,42.1256,938.1146]]]]}}