{"type":"Feature","properties":{"GID_3":"ESP.1.1.4_1","GID_0":"ESP","country":"Spain","GID_1":"ESP.1_1","province":"Andalucía","NL_NAME_1":"NA","GID_2":"ESP.1.1_1","county":"Almería","NL_NAME_2":"NA","city":"n.a.(18)","VARNAME_3":"NA","NL_NAME_3":"NA","TYPE_3":"Comarca","ENGTYPE_3":"Comarca","CC_3":"NA","HASC_3":"NA","name":"n.a.(18).city"},
"geometry":{"type": "MultiPolygon","coordinates": [[[[-2.646,36.9152,1193.8126],[-2.6338,36.9168,1206.9745],[-2.6067,36.9078,977.4972],[-2.6056,36.9107,1018.6655],[-2.5982,36.9121,1004.7623],[-2.5906,36.9103,942.1248],[-2.5809,36.9144,920.8984],[-2.5775,36.9217,806.9581],[-2.5642,36.9298,592.5449],[-2.5582,36.9308,521.7234],[-2.5511,36.948,395.4472],[-2.5446,36.9518,389.4858],[-2.5373,36.9599,360.3079],[-2.5421,36.9698,224.1799],[-2.5424,36.9749,247.1401],[-2.5428,36.9715,225.1293],[-2.5528,36.9735,229.2684],[-2.5611,36.9777,300.9637],[-2.5668,36.9764,251.0647],[-2.5733,36.98,254.9079],[-2.5889,36.981,263.0204],[-2.5891,36.9875,276.8976],[-2.5941,36.9893,327.813],[-2.5969,36.995,370.3464],[-2.6032,37.0001,389.3943],[-2.6133,37.0048,417.1697],[-2.6141,37.0068,406.667],[-2.6226,37.0083,477.3741],[-2.6282,37.0138,483.2974],[-2.6327,37.0147,525.7107],[-2.6339,37.0191,528.7308],[-2.6422,37.0232,607.8281],[-2.6459,37.0272,639.5955],[-2.6624,37.027,698.1046],[-2.672,37.0347,854.8312],[-2.6845,37.0537,1254.6211],[-2.6913,37.0683,1505.0359],[-2.7032,37.0727,1696.6461],[-2.7177,37.0813,1462.3868],[-2.7299,37.0817,1239.2227],[-2.7386,37.0859,1277.8237],[-2.7437,37.0842,1336.1876],[-2.7688,37.0867,1636.958],[-2.7761,37.0898,1756.8767],[-2.7859,37.0904,1762.0272],[-2.7844,37.0935,1777.0762],[-2.7912,37.0956,1819.3792],[-2.7974,37.0927,1846.4657],[-2.7974,37.0879,1871.3273],[-2.804,37.0816,2162.1321],[-2.8122,37.0836,2243.0762],[-2.8289,37.0825,2300.9236],[-2.8351,37.0795,2358.8794],[-2.8455,37.0816,2352.2749],[-2.8514,37.0805,2407.1553],[-2.8542,37.0828,2440.5447],[-2.8653,37.0844,2372.8005],[-2.8786,37.0912,2405.7007],[-2.8836,37.0905,2385.4531],[-2.8897,37.0922,2426.2524],[-2.8954,37.0903,2462.1226],[-2.9012,37.0922,2370.4146],[-2.9049,37.0903,2403.0376],[-2.9079,37.0909,2405.6973],[-2.9118,37.0881,2491.115],[-2.9184,37.0921,2300.5149],[-2.9257,37.0908,2433.4604],[-2.9396,37.0969,2314.2183],[-2.97,37.0965,2269.3599],[-2.979,37.0933,2485.5535],[-2.9841,37.0931,2526.176],[-2.9964,37.0958,2575.4753],[-3.0002,37.095,2598.2837],[-3.0038,37.0972,2482.2368],[-3.0149,37.1133,2214.0281],[-3.022,37.1134,2126.6948],[-3.0263,37.1166,2102.855],[-3.0295,37.1133,2044.2644],[-3.0257,37.1027,2025.1003],[-3.0219,37.099,1971.594],[-3.0221,37.0922,1900.1132],[-3.0243,37.0894,1834.406],[-3.0238,37.0845,1800.0032],[-3.0177,37.0707,1697.8296],[-3.0161,37.0522,1563.6898],[-3.0057,37.0339,1396.2584],[-3.0054,37.023,1255.5383],[-2.9995,37.0221,1058.7684],[-2.9986,37.0122,922.1425],[-2.9932,37.0135,1049.657],[-2.989,37.0073,1111.5614],[-2.9824,37.006,1130.3192],[-2.9767,36.987,771.6563],[-2.9783,36.9814,714.5967],[-2.9764,36.9774,686.2369],[-2.9783,36.9739,662.0959],[-2.9849,36.972,632.7061],[-2.986,36.9683,621.8518],[-2.9847,36.9645,644.7266],[-2.9901,36.9584,599.0916],[-2.9959,36.9567,553.601],[-3.0141,36.9564,492.0107],[-3.0171,36.954,487.6366],[-3.0221,36.9541,555.0621],[-3.0316,36.9441,510.8705],[-3.0302,36.9351,566.9534],[-3.0283,36.9341,499.9072],[-3.0313,36.9322,461.2148],[-3.0316,36.93,426.3659],[-3.0294,36.9283,416.3202],[-3.0309,36.9279,428.1115],[-3.0312,36.9246,388.4834],[-3.0435,36.9212,662.796],[-3.048,36.9161,836.9319],[-3.0558,36.9119,938.0116],[-3.0662,36.9125,694.9546],[-3.0688,36.9157,626.0145],[-3.068,36.9072,922.8231],[-3.0704,36.9012,900.0266],[-3.0649,36.8983,756.1465],[-3.0565,36.8851,444.6713],[-3.04,36.887,371.0627],[-3.0347,36.8848,343.3561],[-3.0326,36.8875,334.2874],[-3.0298,36.8878,332.5],[-3.0273,36.894,344.4105],[-3.0253,36.8948,379.9457],[-3.0252,36.8973,388.2619],[-3.0274,36.8978,370.7983],[-3.0258,36.905,397.804],[-3.0219,36.9065,458.3618],[-3.011,36.9089,718.9565],[-3.0051,36.9062,763.7742],[-2.9943,36.9071,799.7143],[-2.9887,36.9124,857.4316],[-2.9776,36.9153,792.8347],[-2.9385,36.9199,1034.6855],[-2.9147,36.9189,1383.949],[-2.9071,36.9111,1421.3352],[-2.8978,36.9131,1671.5114],[-2.8809,36.9051,1962.884],[-2.8461,36.9064,2169.4431],[-2.8398,36.903,2198.0146],[-2.8316,36.9026,2175.0745],[-2.8282,36.9066,2155.0488],[-2.8237,36.908,2139.1277],[-2.8275,36.9125,2089.1462],[-2.818,36.9238,1649.9329],[-2.8098,36.9186,1653.9121],[-2.7981,36.919,1709.8601],[-2.7902,36.9131,1677.6335],[-2.7822,36.9112,1628.9652],[-2.7718,36.9055,1599.8533],[-2.7698,36.9038,1602.4961],[-2.7696,36.8988,1639.7675],[-2.7711,36.8965,1611.8746],[-2.7681,36.8916,1752.1792],[-2.7548,36.8996,1644.9346],[-2.7489,36.9097,1651.9272],[-2.7448,36.9214,1650.3564],[-2.7412,36.9204,1617.842],[-2.7381,36.9245,1585.8552],[-2.7328,36.9186,1534.5029],[-2.7213,36.9172,1549.5448],[-2.7198,36.9144,1519.2295],[-2.6968,36.9173,1486.2147],[-2.6915,36.9142,1423.0151],[-2.6793,36.9193,1462.3673],[-2.6697,36.9164,1409.2112],[-2.6623,36.9158,1325.7762],[-2.6545,36.9177,1242.7206],[-2.646,36.9152,1193.8126]]]]}}