{"type":"Feature","properties":{"GID_3":"ESP.4.1.7_1","GID_0":"ESP","country":"Spain","GID_1":"ESP.4_1","province":"Castilla-LaMancha","NL_NAME_1":"NA","GID_2":"ESP.4.1_1","county":"Albacete","NL_NAME_2":"NA","city":"n.a.(9)","VARNAME_3":"NA","NL_NAME_3":"NA","TYPE_3":"Comarca","ENGTYPE_3":"Comarca","CC_3":"NA","HASC_3":"NA","name":"n.a.(9).city"},
"geometry":{"type": "MultiPolygon","coordinates": [[[[-2.5699,38.4429,1162.1323],[-2.5689,38.4419,1102.5642],[-2.5718,38.4379,1031.4556],[-2.5769,38.4343,952.784],[-2.5753,38.4317,879.4525],[-2.5773,38.4262,809.4443],[-2.5714,38.414,746.9136],[-2.5603,38.4112,954.1611],[-2.558,38.409,903.9807],[-2.5581,38.4064,950.6973],[-2.5548,38.4041,957.6219],[-2.55,38.4031,806.3033],[-2.5455,38.4056,810.4388],[-2.5348,38.4063,853.4969],[-2.5208,38.4043,1060.667],[-2.5157,38.4002,1131.4851],[-2.4833,38.3979,1544.3538],[-2.4815,38.3931,1586.2864],[-2.4437,38.4194,1595.0045],[-2.4227,38.4302,1615.9235],[-2.4198,38.4336,1631.2318],[-2.4129,38.4339,1599.4817],[-2.4062,38.4369,1597.6226],[-2.3926,38.445,1673.5801],[-2.3815,38.4489,1625.6245],[-2.3769,38.4537,1529.8535],[-2.364,38.4521,1421.5482],[-2.3653,38.4545,1342.8246],[-2.3637,38.4583,1229.1104],[-2.3518,38.4695,1079.6406],[-2.3529,38.4762,1006.7463],[-2.348,38.481,956.5065],[-2.3476,38.4834,925.5203],[-2.354,38.4857,903.8708],[-2.3627,38.4832,930.5148],[-2.376,38.484,926.1082],[-2.3764,38.4934,1104.3491],[-2.3745,38.5002,1355.1614],[-2.3714,38.5034,1376.8552],[-2.3714,38.5134,1055.447],[-2.3734,38.515,1076.9417],[-2.3827,38.5158,1171.3556],[-2.3896,38.5203,1249.1748],[-2.392,38.5257,1520.0192],[-2.4083,38.5201,1403.0536],[-2.4058,38.5263,1410.376],[-2.4072,38.5274,1463.325],[-2.419,38.5233,1489.6919],[-2.4287,38.5171,1249.0574],[-2.4401,38.5228,1283.9927],[-2.4531,38.5237,1190.1113],[-2.4703,38.5153,1137.0833],[-2.4723,38.5261,1266.6267],[-2.4714,38.5316,1435.6006],[-2.4556,38.5369,1557.9451],[-2.4449,38.5498,1698.0193],[-2.4466,38.5516,1621.1971],[-2.4442,38.5534,1617.7546],[-2.4437,38.5568,1593.4441],[-2.4454,38.5577,1632.6964],[-2.4384,38.5622,1579.4941],[-2.4326,38.558,1449.6975],[-2.4283,38.5523,1668.6929],[-2.4193,38.555,1675.4216],[-2.4133,38.5463,1454.9147],[-2.4146,38.5426,1479.6384],[-2.4094,38.5359,1361.6068],[-2.3992,38.5344,1486.2532],[-2.3883,38.5269,1525.0779],[-2.3761,38.5299,1572.8751],[-2.3696,38.5359,1517.7716],[-2.3539,38.5443,1512.3496],[-2.3518,38.544,1471.9944],[-2.3423,38.5529,1420.413],[-2.3364,38.5545,1433.2532],[-2.3308,38.5587,1425.1257],[-2.3217,38.5535,1381.5719],[-2.3132,38.5574,1365.2366],[-2.3047,38.5557,1357.0205],[-2.2996,38.5569,1354.8485],[-2.2942,38.5523,1295.2383],[-2.2918,38.5462,1218.058],[-2.3026,38.5404,1196.9755],[-2.2985,38.5312,1062.8838],[-2.2978,38.5326,1119.3535],[-2.2766,38.5365,1059.0391],[-2.2807,38.5416,1099.6244],[-2.2824,38.5478,1216.7922],[-2.2827,38.5575,1262.5043],[-2.281,38.562,1278.0879],[-2.2838,38.5892,1297.5232],[-2.277,38.6028,915.9446],[-2.2783,38.6082,1019.1423],[-2.2718,38.6236,939.8694],[-2.2754,38.629,982.0334],[-2.276,38.6351,1019.1459],[-2.2716,38.6406,1136.8926],[-2.2621,38.6411,1276.7913],[-2.2501,38.639,1372.0388],[-2.2447,38.6362,1307.379],[-2.2412,38.6405,1320.2637],[-2.2224,38.6459,1300.4744],[-2.2125,38.6475,1315.3158],[-2.1995,38.6462,1444.3369],[-2.189,38.6474,1422.701],[-2.1724,38.6452,1392.4382],[-2.1699,38.6435,1351.9648],[-2.1534,38.6434,1259.2775],[-2.1221,38.6352,1145.8385],[-2.1114,38.6439,1137.4974],[-2.1111,38.6478,1193.1799],[-2.1294,38.661,1109.2817],[-2.1447,38.699,1188.5283],[-2.1594,38.7129,1186.4562],[-2.16,38.7172,1230.5149],[-2.1717,38.7282,1187.8931],[-2.1594,38.7306,1259.0728],[-2.1443,38.7367,1196.7393],[-2.1349,38.7501,1099.4082],[-2.1379,38.7611,1047.1029],[-2.1355,38.7686,980.0648],[-2.137,38.7905,889.8724],[-2.1422,38.799,873.8087],[-2.1482,38.8037,873.2271],[-2.1609,38.8253,834.0385],[-2.1652,38.8339,821.6255],[-2.1663,38.8485,836.0911],[-2.1567,38.8499,802.0603],[-2.1507,38.8525,801.8741],[-2.1356,38.8532,788.3958],[-2.1103,38.8584,771.5974],[-2.088,38.8756,745.7024],[-2.0787,38.8885,732.9981],[-2.0797,38.8982,725.6732],[-2.085,38.9132,725.5461],[-2.0891,38.9193,725.139],[-2.107,38.9302,725.7651],[-2.124,38.9277,727.7299],[-2.149,38.9164,777.673],[-2.1641,38.9149,774.4301],[-2.1676,38.9088,796.9755],[-2.1875,38.896,843.686],[-2.2024,38.8732,788.1248],[-2.2335,38.8665,904.8907],[-2.2388,38.8677,928.2174],[-2.2445,38.8663,915.2714],[-2.2536,38.8587,917.8091],[-2.259,38.8581,929.2343],[-2.2714,38.8497,952.7122],[-2.2823,38.8473,975.8738],[-2.2916,38.8413,989.4463],[-2.2978,38.8521,900.7913],[-2.3141,38.8615,976.827],[-2.3345,38.8566,977.9307],[-2.3585,38.8539,1028.5356],[-2.3713,38.8433,983.1066],[-2.3763,38.8344,936.5323],[-2.3763,38.8498,1005.6981],[-2.3795,38.8537,1009.1705],[-2.3809,38.8676,1005.0829],[-2.3997,38.8859,1025.8904],[-2.4086,38.892,1019.8341],[-2.4373,38.9027,1030.72],[-2.4526,38.9042,1043.1619],[-2.4674,38.8932,1029.1232],[-2.4979,38.8785,1068.9614],[-2.5208,38.8721,1004.9785],[-2.5466,38.8683,987.6827],[-2.5508,38.8702,986.3729],[-2.5692,38.8715,986.0347],[-2.5796,38.8741,993.3683],[-2.5863,38.8808,982.0714],[-2.6011,38.8847,974.2213],[-2.6116,38.89,973.9774],[-2.6223,38.8982,977.2059],[-2.6371,38.8897,971.7162],[-2.642,38.8765,975.6636],[-2.637,38.8727,974.8395],[-2.621,38.8539,977.0544],[-2.6171,38.8454,986.4354],[-2.6049,38.8342,976.1458],[-2.6088,38.8373,969.8689],[-2.6137,38.8385,969.6708],[-2.6161,38.8378,966.7993],[-2.617,38.8331,968.2771],[-2.6277,38.8281,968.6823],[-2.6299,38.8297,968.5191],[-2.6327,38.8292,968.2422],[-2.6362,38.8324,968.1362],[-2.6412,38.8306,972.207],[-2.6439,38.8331,968.2651],[-2.6513,38.8293,962.0612],[-2.657,38.8286,959.2214],[-2.659,38.8305,963.7473],[-2.6636,38.8277,959.8873],[-2.6661,38.8288,955.804],[-2.6678,38.8268,966.0379],[-2.6722,38.8279,955.8976],[-2.698,38.8144,965.0896],[-2.7172,38.7944,982.5314],[-2.722,38.7838,973.09],[-2.7115,38.786,976.2373],[-2.6973,38.7834,997.1644],[-2.6846,38.7744,987.6554],[-2.6745,38.7616,990.9109],[-2.666,38.7589,996.4785],[-2.6629,38.7536,996.1709],[-2.6434,38.7464,1006.012],[-2.6378,38.7347,1013.4483],[-2.6423,38.7201,1008.377],[-2.6467,38.7155,993.6361],[-2.6496,38.6998,955.6255],[-2.6489,38.693,927.0388],[-2.6546,38.6808,887.2401],[-2.6555,38.6715,853.1111],[-2.6604,38.6669,977.9756],[-2.6688,38.6493,1028.6522],[-2.6748,38.6482,1039.1173],[-2.6824,38.6442,1107.658],[-2.6868,38.6355,927.5129],[-2.6975,38.6284,943.7781],[-2.6997,38.6254,1016.3154],[-2.7062,38.6265,1078.9661],[-2.7175,38.6252,1045.2241],[-2.7175,38.6222,1032.6455],[-2.7285,38.6163,1040.5989],[-2.7372,38.6176,1029.5903],[-2.7454,38.6245,828.3722],[-2.7636,38.6279,837.6598],[-2.7572,38.6203,816.4572],[-2.75,38.6156,788.8677],[-2.7546,38.6006,775.4257],[-2.7543,38.5927,759.5897],[-2.7594,38.5791,745.7275],[-2.7654,38.5739,821.7622],[-2.7605,38.5684,780.7251],[-2.7603,38.5614,745.1295],[-2.7589,38.5593,731.2008],[-2.7569,38.5593,771.7068],[-2.7565,38.5549,719.1459],[-2.7518,38.5524,744.5345],[-2.7522,38.5505,730.204],[-2.7467,38.5468,687.0738],[-2.7489,38.5435,690.9963],[-2.752,38.5436,687.4536],[-2.7551,38.5376,736.2937],[-2.7585,38.5354,686.1151],[-2.7638,38.5357,692.7759],[-2.762,38.5328,729.6547],[-2.7545,38.5284,739.6721],[-2.7537,38.526,783.6218],[-2.7478,38.5256,802.9725],[-2.7389,38.5223,778.9742],[-2.7325,38.5142,757.3921],[-2.7097,38.5059,789.5488],[-2.7024,38.5011,781.9403],[-2.6975,38.5003,788.7274],[-2.6726,38.4967,819.4081],[-2.664,38.5013,778.4586],[-2.6445,38.5072,813.618],[-2.6361,38.5076,819.7263],[-2.6185,38.5126,850.1885],[-2.5987,38.5129,892.0671],[-2.5926,38.5108,1021.1835],[-2.5866,38.5066,1145.5635],[-2.585,38.5035,1261.0869],[-2.58,38.5036,1276.9713],[-2.5665,38.4905,1353.2526],[-2.5725,38.4877,1353.7903],[-2.5756,38.4829,1372.9563],[-2.5767,38.4765,1328.6863],[-2.5732,38.4683,1228.0514],[-2.5673,38.4607,1535.1058],[-2.5669,38.4535,1354.1063],[-2.5709,38.444,1200.1794],[-2.5699,38.4429,1162.1323]]]]}}