{"type":"Feature","properties":{"GID_3":"ESP.6.3.10_1","GID_0":"ESP","country":"Spain","GID_1":"ESP.6_1","province":"Cataluña","NL_NAME_1":"NA","GID_2":"ESP.6.3_1","county":"Lleida","NL_NAME_2":"NA","city":"n.a.(168)","VARNAME_3":"NA","NL_NAME_3":"NA","TYPE_3":"Comarca","ENGTYPE_3":"Comarca","CC_3":"NA","HASC_3":"NA","name":"n.a.(168).city"},
"geometry":{"type": "MultiPolygon","coordinates": [[[[0.3554,41.4518,78.4346],[0.3483,41.4433,77.1686],[0.3464,41.4317,91.0561],[0.3475,41.4273,79.655],[0.3419,41.4138,71.4904],[0.32,41.3949,68.5],[0.3323,41.3862,205.3463],[0.36,41.3705,347.7719],[0.3738,41.3489,123.0955],[0.3837,41.3532,150.337],[0.3872,41.3526,162.715],[0.3886,41.3551,168.4417],[0.3918,41.3522,182.2134],[0.3935,41.3516,194.2395],[0.3936,41.3542,194.9296],[0.3975,41.3518,214.4264],[0.4007,41.3566,195.446],[0.4034,41.3554,215.6452],[0.4061,41.3573,212.8091],[0.4061,41.36,214.4556],[0.4286,41.3617,292.4312],[0.4373,41.3601,317.4355],[0.4509,41.3538,310.1409],[0.4649,41.3414,360.6713],[0.4678,41.3449,365.3864],[0.4726,41.3597,353.7859],[0.46,41.3773,316.0816],[0.4728,41.3887,301.3513],[0.4725,41.4184,233.9048],[0.4747,41.4223,230.0092],[0.4731,41.428,200.3779],[0.4818,41.431399999999996,167.0072],[0.4934,41.4463,193.0011],[0.4958,41.4453,195.8304],[0.4962,41.4407,214.7432],[0.519,41.4305,264.3325],[0.5289,41.4321,285.4162],[0.5419,41.4465,250.3788],[0.5375,41.4502,251.4317],[0.5371,41.457,234.7204],[0.5338,41.4609,226.9634],[0.5353,41.4698,190.3507],[0.5438,41.4723,172.032],[0.5398,41.4772,189.2977],[0.5305,41.4827,182.8327],[0.527,41.4871,161.9182],[0.5282,41.4881,163.2242],[0.5207,41.4922,148.7983],[0.518,41.4956,144.3135],[0.5193,41.5039,144.6597],[0.518,41.5059,144.3289],[0.5239,41.5024,149.3452],[0.5234,41.5049,144.4902],[0.5396,41.4997,171.1905],[0.5614,41.5026,157.695],[0.5748,41.4977,198.7865],[0.5773,41.5042,163.0686],[0.5748,41.5167,222.3412],[0.5704,41.5221,202.3643],[0.5696,41.5298,191.1512],[0.5735,41.5348,178.4063],[0.5746,41.5408,159.6212],[0.5861,41.546,145.4608],[0.5889,41.5455,149.8666],[0.599,41.5371,154.7851],[0.6091,41.5354,164.2162],[0.611,41.5323,164.3463],[0.6147,41.5322,171.2851],[0.621,41.5447,200.2861],[0.6272,41.5486,192.3482],[0.6316,41.5543,184.0532],[0.657,41.5509,201.0826],[0.6589,41.5366,217.5768],[0.6557,41.5331,219.3636],[0.6573,41.5231,227.5926],[0.6594,41.5225,230.8728],[0.6636,41.5158,237.8942],[0.6752,41.5104,256.7867],[0.6763,41.5116,258.5798],[0.6813,41.5054,269.4018],[0.6957,41.4996,278.4814],[0.7001,41.5051,285.3411],[0.705,41.5187,263.2862],[0.7099,41.5255,272.6724],[0.7263,41.5189,303.8145],[0.731,41.5206,283.6798],[0.741,41.5296,220.3158],[0.7449,41.5283,226.5766],[0.7465,41.5294,229.7993],[0.7475,41.5336,222.2902],[0.7504,41.5315,225.7971],[0.7584,41.5382,225.653],[0.7541,41.5406,212.2413],[0.7563,41.5505,208.06],[0.7646,41.5514,213.7719],[0.7647,41.557,230.1462],[0.744,41.5612,237.4059],[0.7408,41.5655,255.0207],[0.7325,41.5668,228.2461],[0.7322,41.5707,214.7451],[0.7352,41.5799,233.715],[0.7382,41.5837,242.6605],[0.7409,41.5829,242.0716],[0.7455,41.5887,238.9223],[0.7609,41.5878,244.4149],[0.7597,41.5977,235.6341],[0.7558,41.6035,232.8525],[0.7487,41.6289,190.6716],[0.7392,41.6318,180.5936],[0.7322,41.6316,179.2678],[0.7293,41.6337,184.0298],[0.7284,41.6382,181.3378],[0.7324,41.646,182.0767],[0.7365,41.6486,186.4135],[0.7373,41.662,183.9014],[0.75,41.662,187.4026],[0.7641,41.6652,188.2851],[0.7643,41.6769,189.2682],[0.7661,41.678,197.3935],[0.7633,41.6857,185.2858],[0.7483,41.7073,209.2111],[0.7421,41.7123,181.6082],[0.7346,41.7083,178.317],[0.7346,41.7101,180.0236],[0.7236,41.7174,218.4553],[0.7109,41.7236,234.6374],[0.6883,41.7288,243.4421],[0.6726,41.7193,198.9583],[0.6618,41.7297,203.3111],[0.6608,41.7347,206.5054],[0.6335,41.76,224.6396],[0.6287,41.7612,227.7451],[0.6214,41.7665,238.8391],[0.6192,41.7719,235.0385],[0.6149,41.775,238.8078],[0.6088,41.7857,245.1581],[0.5962,41.7957,252.4553],[0.5868,41.8088,263.4599],[0.5847,41.8208,270.7823],[0.5785,41.8252,272.6593],[0.577,41.8335,276.8969],[0.5797,41.8414,282.1965],[0.5801,41.8509,287.8765],[0.5622,41.8536,456.1346],[0.5622,41.8522,456.1346],[0.5574,41.8542,449.0753],[0.5525,41.8494,423.5551],[0.5516,41.8407,385.6163],[0.5536,41.8402,375.7674],[0.5534,41.8351,385.4098],[0.5494,41.8265,380.5785],[0.5424,41.8204,369.8906],[0.5251,41.8226,286.6659],[0.5195,41.8209,280.162],[0.5155,41.8224,277.4982],[0.5106,41.8206,272.4944],[0.5022,41.8144,266.2419],[0.499,41.807,255.6302],[0.4952,41.8045,254.4734],[0.4891,41.8052,246.6815],[0.4833,41.8015,248.826],[0.4738,41.7872,250.9904],[0.4697,41.7656,227.6082],[0.4647,41.7632,245.9249],[0.448,41.7647,221.688],[0.4383,41.7613,207.4845],[0.4089,41.7593,196.9382],[0.4006,41.7567,193.5476],[0.3987,41.7578,192.4284],[0.3994,41.7527,191.4218],[0.395,41.7379,185.5648],[0.3955,41.732,183.9863],[0.3848,41.7403,200.8792],[0.3728,41.7239,199.9191],[0.3693,41.7247,200.0386],[0.3687,41.7142,185.0036],[0.3421,41.6966,175.7832],[0.3282,41.6811,167.2581],[0.326,41.6747,170.5],[0.3263,41.6622,166.4207],[0.3329,41.6596,162.3501],[0.3489,41.6368,222.5465],[0.358,41.6317,242.3624],[0.3459,41.6219,215.6198],[0.3496,41.5995,224.8925],[0.3921,41.5953,249.9447],[0.4021,41.5927,238.5349],[0.4285,41.6024,248.8363],[0.4359,41.5849,232.7186],[0.4316,41.5814,229.2955],[0.4302,41.5779,229.626],[0.4329,41.569,203.017],[0.4304,41.5653,217.5952],[0.4391,41.556,213.5071],[0.447,41.5423,209.5613],[0.443,41.5411,182.0783],[0.4323,41.531,135.3639],[0.4271,41.5235,138.8682],[0.4181,41.5176,140.7753],[0.3979,41.4913,126.5569],[0.384,41.4859,142.8],[0.3709,41.4847,247.4294],[0.3474,41.4878,88.39],[0.3421,41.484,86.9497],[0.3414,41.4809,86.13],[0.3449,41.471,83.1174],[0.3446,41.4631,82.8498],[0.3457,41.4607,82.6042],[0.3546,41.4543,77.6041],[0.3554,41.4518,78.4346]]]]}}