{"type":"Feature","properties":{"GID_3":"ESP.3.1.1_1","GID_0":"ESP","country":"Spain","GID_1":"ESP.3_1","province":"Cantabria","NL_NAME_1":"NA","GID_2":"ESP.3.1_1","county":"Cantabria","NL_NAME_2":"NA","city":"Asón-Agüera","VARNAME_3":"NA","NL_NAME_3":"NA","TYPE_3":"Comarca","ENGTYPE_3":"Comarca","CC_3":"NA","HASC_3":"NA","name":"Asón-Agüera.city"},
"geometry":{"type": "MultiPolygon","coordinates": [[[[-3.472,43.308,408.4908],[-3.4737,43.3036,417.8562],[-3.4792,43.3022,596.584],[-3.4856,43.3025,674.559],[-3.4904,43.3007,742.1178],[-3.5067,43.3013,702.8365],[-3.5562,43.3115,815.2836],[-3.5535,43.317,644.3162],[-3.5599,43.3181,738.1276],[-3.5632,43.3218,692.321],[-3.5678,43.3237,578.8091],[-3.5688,43.3293,432.6611],[-3.572,43.3326,431.1955],[-3.5704,43.3418,507.3999],[-3.5744,43.3438,526.757],[-3.5883,43.339,444.3507],[-3.6082,43.3351,525.0735],[-3.6281,43.3221,487.0557],[-3.6369,43.3104,490.2715],[-3.6424,43.3072,489.789],[-3.6436,43.3039,541.9334],[-3.6492,43.3011,632.9786],[-3.6649,43.3032,642.9528],[-3.675,43.3018,684.9188],[-3.6762,43.2948,643.4924],[-3.6815,43.2923,701.1174],[-3.6774,43.2911,659.8972],[-3.6799,43.2862,674.354],[-3.6771,43.2824,662.0582],[-3.683,43.2773,608.2957],[-3.6824,43.2721,682.7686],[-3.6887,43.2672,824.534],[-3.6873,43.2612,912.6143],[-3.6976,43.2621,774.356],[-3.7075,43.2595,612.8572],[-3.7126,43.2552,350.9413],[-3.7013,43.2388,360.6974],[-3.7,43.2316,459.7255],[-3.7044,43.2285,443.2306],[-3.7083,43.2207,499.0229],[-3.7043,43.211,545.4891],[-3.696,43.2013,604.9352],[-3.6953,43.1963,648.5425],[-3.6885,43.1909,674.8516],[-3.6853,43.1783,778.7224],[-3.6731,43.1719,946.2322],[-3.656,43.1707,1317.7589],[-3.6581,43.1776,1463.2054],[-3.651,43.181,1434.0031],[-3.645,43.1793,1514.1982],[-3.641,43.176,1453.8138],[-3.6336,43.1755,1365.9011],[-3.6311,43.1729,1314.8699],[-3.6236,43.1739,1357.1781],[-3.6124,43.1695,1543.8624],[-3.6082,43.1637,1432.3081],[-3.6035,43.1496,1499.6324],[-3.5996,43.1519,1415.984],[-3.5855,43.1545,1265.3707],[-3.5612,43.1495,1400.6458],[-3.5437,43.1481,1164.5096],[-3.5084,43.1366,958.7667],[-3.5021,43.1366,930.6524],[-3.4869,43.1332,894.5897],[-3.4803,43.1361,1023.9745],[-3.4589,43.1361,960.1644],[-3.4447,43.1315,1147.7539],[-3.4416,43.1328,1180.5325],[-3.4335,43.1319,1290.4733],[-3.4296,43.1337,1316.3269],[-3.4219,43.1323,1274.1234],[-3.4176,43.1334,1297.0311],[-3.4224,43.1527,555.8586],[-3.4259,43.1556,500.7534],[-3.4272,43.1602,477.1549],[-3.429,43.1602,477.1549],[-3.4334,43.171,453.5081],[-3.435,43.198,339.6871],[-3.4326,43.2055,332.8953],[-3.4438,43.2211,325.5941],[-3.4467,43.2305,296.546],[-3.449,43.2325,295.7871],[-3.4487,43.2361,269.6656],[-3.4457,43.2376,323.5232],[-3.4381,43.2347,526.5866],[-3.4303,43.2421,610.9813],[-3.423,43.2399,537.4907],[-3.4184,43.241,638.0426],[-3.4105,43.247,735.2808],[-3.4134,43.2499,724.1337],[-3.4066,43.2507,603.8771],[-3.3989,43.2458,564.6306],[-3.3916,43.2526,136.3096],[-3.3884,43.2642,668.0012],[-3.3829,43.2705,630.3871],[-3.378,43.2708,608.4174],[-3.3686,43.2746,591.3348],[-3.3585,43.2723,623.1804],[-3.3401,43.278,702.2813],[-3.3395,43.2822,673.5584],[-3.3429,43.2944,643.3355],[-3.3341,43.2988,324.355],[-3.3324,43.3019,288.8344],[-3.3236,43.2924,475.6199],[-3.3153,43.295,747.8591],[-3.3134,43.2974,663.9713],[-3.2949,43.3007,400.6885],[-3.2927,43.2965,547.3548],[-3.2946,43.2928,646.0948],[-3.2911,43.2903,607.988],[-3.2794,43.29,534.3592],[-3.2686,43.295,401.5655],[-3.2644,43.296,300.5522],[-3.261,43.294,241.8479],[-3.2543,43.2966,155.98],[-3.2486,43.3032,304.113],[-3.2252,43.3089,713.6362],[-3.2319,43.3161,625.4576],[-3.2371,43.3177,596.252],[-3.2423,43.3231,596.7064],[-3.2506,43.3267,578.7995],[-3.2555,43.3269,576.7783],[-3.26,43.33,583.5978],[-3.2712,43.3317,514.7159],[-3.2794,43.3371,489.7615],[-3.2766,43.3416,440.4646],[-3.2804,43.3451,426.3528],[-3.28,43.3586,341.2159],[-3.2933,43.3702,251.4061],[-3.2885,43.3799,515.0149],[-3.2991,43.3762,418.7252],[-3.3049,43.3802,276.7074],[-3.3133,43.382,128.2271],[-3.3183,43.3863,1.1881],[-3.3331,43.3878,175.2307],[-3.3478,43.3805,278.6845],[-3.3521,43.377,239.1658],[-3.3527,43.368,230.8101],[-3.3668,43.3574,523.5878],[-3.3718,43.3564,509.3352],[-3.3803,43.3611,453.8365],[-3.389,43.3626,459.9911],[-3.3927,43.3665,397.5643],[-3.3946,43.3737,330.3307],[-3.4052,43.3792,265.0091],[-3.4022,43.3821,261.6521],[-3.403,43.3847,236.2],[-3.4052,43.3839,204.8375],[-3.4075,43.3957,107.528],[-3.4106,43.4008,136.5865],[-3.4191,43.3996,96.9444],[-3.424,43.3917,195.5233],[-3.4268,43.3898,206.39],[-3.4287,43.3905,196.3359],[-3.4233,43.3866,245.6928],[-3.4225,43.3804,208.9162],[-3.4194,43.3779,231.8315],[-3.4048,43.3741,286.6634],[-3.4243,43.3735,180.0397],[-3.4275,43.3807,175.318],[-3.4343,43.3777,0.3781],[-3.4351,43.3715,0.4231],[-3.431,43.3685,0.0],[-3.4285,43.3688,10.4962],[-3.4285,43.3671,4.4134],[-3.4313,43.3674,0.9321],[-3.4357,43.3713,0.0765],[-3.4373,43.3682,0.6998],[-3.4355,43.3642,3.5649],[-3.4272,43.3621,2.3038],[-3.4308,43.3562,1.7368],[-3.4291,43.3556,11.3472],[-3.432,43.3538,56.3889],[-3.4442,43.3562,462.5787],[-3.4478,43.351,417.3756],[-3.4467,43.3453,432.7292],[-3.4534,43.3413,456.9853],[-3.4577,43.3339,479.0147],[-3.4683,43.3237,491.2369],[-3.4736,43.3149,440.8568],[-3.4759,43.3087,441.2054],[-3.472,43.308,408.4908]]],
[[[-3.2702,43.2295,238.8715],[-3.2689,43.2341,232.8863],[-3.2573,43.2401,253.5058],[-3.2515,43.2475,229.8126],[-3.2494,43.2596,332.1173],[-3.2669,43.2669,237.8396],[-3.2713,43.2663,260.1194],[-3.2794,43.2619,325.1174],[-3.2886,43.2619,445.5937],[-3.3046,43.2587,641.9996],[-3.3032,43.2562,631.4758],[-3.3056,43.2526,621.3324],[-3.2997,43.2489,512.8215],[-3.2964,43.2434,464.6388],[-3.2927,43.2411,438.4998],[-3.2968,43.2299,516.6332],[-3.2964,43.2214,571.0932],[-3.2925,43.2191,623.6951],[-3.2946,43.2107,653.5088],[-3.2979,43.2067,688.7999],[-3.291,43.2036,708.8615],[-3.285,43.1977,726.0223],[-3.2837,43.2,677.8435],[-3.2697,43.2021,455.554],[-3.265,43.2062,366.2229],[-3.2713,43.2175,280.7608],[-3.2663,43.2228,253.1842],[-3.2702,43.2295,238.8715]]]]}}