{"type": "Feature","bbox": [-5.3579,36.3104,-4.2611,36.9606],"geometry": {"type": "MultiPolygon","coordinates": [[[[-5.2775,36.3371,165.3148],[-5.2677,36.3242,176.1651],[-5.2594,36.3224,173.7904],[-5.2521,36.3107,14.8794],[-5.2471,36.3104,0.0],[-5.2337,36.3454,0.0],[-5.234,36.3482,6.8432],[-5.2321,36.3493,2.4992],[-5.2326,36.3521,10.221],[-5.2301,36.3546,6.735],[-5.2274,36.3537,0.0],[-5.2287,36.3576,0.1984],[-5.2218,36.3737,2.9997],[-5.2174,36.3793,2.8599],[-5.211,36.3799,0.0],[-5.2093,36.3835,2.0983],[-5.2054,36.386,1.6122],[-5.2038,36.3901,7.6043],[-5.1982,36.3929,0.0],[-5.1888,36.4051,2.6822],[-5.1776,36.414,4.6166],[-5.1657,36.4162,3.1173],[-5.1632,36.4135,0.119],[-5.1571,36.4115,0.0],[-5.1493,36.4212,0.5289],[-5.1407,36.4265,0.7241],[-5.1212,36.4282,0.0],[-5.1101,36.4326,0.9461],[-5.1026,36.4388,5.5216],[-5.0971,36.4404,0.0],[-5.0885,36.4476,6.9117],[-5.0813,36.451,7.5518],[-5.0699,36.4521,11.8175],[-5.0654,36.4499,0.0],[-5.0601,36.4499,0.0],[-5.0549,36.4524,3.8198],[-5.051,36.4524,3.4721],[-5.0446,36.4579,9.2787],[-5.0335,36.4615,3.4889],[-5.0249,36.4607,4.4451],[-5.0163,36.4621,8.0334],[-5.0104,36.4593,1.4804],[-5.006,36.4593,2.3777],[-5.0013,36.4637,0.0],[-4.9957,36.4657,3.0898],[-4.9776,36.4779,3.3971],[-4.971,36.4785,0.0],[-4.9587,36.4851,1.1464],[-4.9557,36.4854,4.068],[-4.956,36.4843,4.068],[-4.9532,36.4837,0.0],[-4.9532,36.4851,0.0],[-4.9482,36.4876,0.9375],[-4.949,36.4907,9.6324],[-4.946,36.4935,4.5818],[-4.9346,36.5001,0.0],[-4.9265,36.4996,1.262],[-4.9104,36.506,6.1625],[-4.8899,36.5068,0.3181],[-4.8913,36.5051,0.0],[-4.8901,36.5046,0.0],[-4.879,36.5076,10.2262],[-4.8596,36.5076,9.6965],[-4.8432,36.5029,0.0],[-4.8149,36.499,6.219],[-4.7663,36.4874,2.514],[-4.7412,36.4846,1.6897],[-4.7393,36.4829,0.0],[-4.7371,36.486,6.6784],[-4.7115,36.4871,8.8999],[-4.7057,36.4904,1.059],[-4.694,36.4904,0.0],[-4.6904,36.4924,0.0],[-4.6885,36.4963,2.1104],[-4.6771,36.5037,0.9019],[-4.6696,36.5037,0.0],[-4.6618,36.5068,0.0],[-4.6543,36.5054,0.0],[-4.6485,36.5071,13.6098],[-4.639,36.5062,0.0],[-4.6293,36.5193,2.0108],[-4.6229,36.5354,2.6268],[-4.6201,36.5382,0.0],[-4.6154,36.5396,0.0],[-4.6143,36.5421,0.0],[-4.6151,36.5421,0.0],[-4.616,36.5396,0.0],[-4.6188,36.5399,1.8766],[-4.6163,36.541,0.0],[-4.6179,36.5449,5.1181],[-4.6093,36.5579,4.7986],[-4.6035,36.5632,0.8525],[-4.5993,36.5635,0.0],[-4.5879,36.5729,23.3829],[-4.5707,36.5771,9.4968],[-4.5643,36.5771,8.0519],[-4.5601,36.5801,1.1388],[-4.5532,36.5793,4.6076],[-4.5482,36.5807,17.2398],[-4.539,36.5785,0.0],[-4.5388,36.5807,22.269],[-4.5335,36.5815,0.0],[-4.5332,36.5849,1.518],[-4.5301,36.5882,0.5507],[-4.5215,36.5921,4.0155],[-4.5188,36.5951,3.3195],[-4.516,36.596,2.743],[-4.5146,36.5943,1.1975],[-4.5104,36.5937,0.0],[-4.5079,36.5968,0.0],[-4.5099,36.5982,5.9569],[-4.5096,36.6001,10.1943],[-4.4996,36.6154,0.935],[-4.4971,36.6162,0.0],[-4.4932,36.6254,8.6231],[-4.4879,36.6326,4.6638],[-4.4646,36.6582,1.0046],[-4.4554,36.6649,0.443],[-4.4437,36.6824,1.1887],[-4.4446,36.6843,1.6604],[-4.4421,36.6899,5.2716],[-4.4326,36.7038,4.3822],[-4.4299,36.7051,0.3944],[-4.431,36.7068,2.9207],[-4.4262,36.7101,1.936],[-4.4237,36.7076,2.4917],[-4.421,36.7079,0.9668],[-4.4212,36.7093,2.2435],[-4.4232,36.7093,2.9637],[-4.4232,36.7113,3.0062],[-4.4182,36.7149,0.442],[-4.4176,36.7174,5.9531],[-4.414,36.7177,0.9614],[-4.416,36.7121,0.1082],[-4.4138,36.7118,0.0],[-4.4135,36.7143,3.4907],[-4.4068,36.7196,13.7225],[-4.3926,36.7229,5.3712],[-4.3813,36.7201,0.0],[-4.3573,36.7185,0.3543],[-4.3471,36.7163,1.5652],[-4.3462,36.7137,0.0],[-4.3429,36.7141,2.8568],[-4.3393,36.7124,4.8014],[-4.3301,36.7132,1.6292],[-4.3265,36.7113,0.508],[-4.3257,36.7126,3.2936],[-4.3147,36.7126,1.7301],[-4.316,36.7177,30.8457],[-4.3138,36.7228,40.6787],[-4.3186,36.7315,66.8169],[-4.3169,36.7311,66.4897],[-4.3124,36.7347,169.1055],[-4.3053,36.7358,270.0203],[-4.3041,36.7387,303.1094],[-4.3176,36.7389,97.3407],[-4.3152,36.7421,131.9819],[-4.3168,36.7455,140.8998],[-4.3147,36.7494,135.6254],[-4.3101,36.753,140.8928],[-4.3049,36.7547,167.6321],[-4.3056,36.7601,234.165],[-4.3035,36.7627,311.1901],[-4.3047,36.7683,412.7851],[-4.303,36.7746,493.179],[-4.2992,36.7791,610.3758],[-4.2955,36.778,534.4384],[-4.2923,36.7822,437.3831],[-4.2904,36.7819,366.0475],[-4.2923,36.7919,575.6885],[-4.2974,36.7933,695.8871],[-4.2962,36.7957,794.0164],[-4.2928,36.7967,738.5771],[-4.2902,36.7951,693.6513],[-4.2901,36.7969,713.1096],[-4.2839,36.7985,745.6665],[-4.2747,36.7951,637.6962],[-4.2748,36.7969,583.2848],[-4.2807,36.7993,696.879],[-4.2802,36.8005,680.0917],[-4.2851,36.8039,859.9086],[-4.282,36.8051,850.9834],[-4.2768,36.8117,790.2294],[-4.2738,36.8209,774.3608],[-4.2728,36.8195,744.4928],[-4.2668,36.8193,698.1608],[-4.2618,36.8213,719.4001],[-4.2611,36.8315,588.6447],[-4.2653,36.8317,475.5121],[-4.266,36.8388,419.3352],[-4.2699,36.8371,453.6713],[-4.2719,36.8333,537.7058],[-4.2794,36.832,611.3815],[-4.2834,36.8341,501.5467],[-4.2824,36.8374,433.5411],[-4.2879,36.8398,410.2305],[-4.2878,36.8417,405.6984],[-4.2918,36.8463,398.3031],[-4.2884,36.854,333.1133],[-4.2895,36.856,337.4035],[-4.2868,36.8585,306.7441],[-4.297,36.8597,337.4803],[-4.2984,36.8619,353.6435],[-4.3032,36.8625,382.2936],[-4.3076,36.8624,415.4881],[-4.3089,36.8608,407.278],[-4.3157,36.8622,455.6552],[-4.3191,36.8608,433.2344],[-4.3214,36.862,431.8487],[-4.3214,36.8641,450.0706],[-4.3235,36.8641,469.3414],[-4.3252,36.8705,582.3978],[-4.3296,36.8749,711.8646],[-4.3426,36.8783,808.738],[-4.344,36.8821,738.6939],[-4.3501,36.8847,699.1132],[-4.3535,36.8881,666.9168],[-4.3579,36.8881,662.8209],[-4.3589,36.8915,652.8589],[-4.3642,36.8939,613.7792],[-4.371,36.8933,570.8019],[-4.3724,36.8908,581.5544],[-4.3713,36.8895,583.1855],[-4.3803,36.8799,797.7371],[-4.3843,36.8655,915.5546],[-4.3822,36.8635,953.8851],[-4.3844,36.8605,931.4581],[-4.3825,36.8581,881.9556],[-4.3923,36.852,652.3564],[-4.3966,36.8447,537.2445],[-4.3983,36.8441,537.2445],[-4.4002,36.8467,537.6907],[-4.4046,36.8475,511.2267],[-4.4089,36.8517,473.6621],[-4.4137,36.8509,468.5017],[-4.4143,36.8493,449.7236],[-4.4189,36.8498,445.3115],[-4.4191,36.8478,429.8823],[-4.4212,36.8483,480.7758],[-4.4221,36.851,420.2368],[-4.4256,36.8511,423.6887],[-4.4266,36.8486,439.6246],[-4.428,36.8499,398.2422],[-4.4333,36.8457,373.7215],[-4.4361,36.8465,360.0443],[-4.4383,36.8443,381.2214],[-4.4415,36.8449,342.3089],[-4.4408,36.8427,344.7302],[-4.4424,36.8431,335.4367],[-4.4442,36.8411,334.7296],[-4.4457,36.8423,345.5677],[-4.4482,36.8403,306.7958],[-4.453,36.8459,378.7978],[-4.4656,36.8497,577.4033],[-4.4699,36.8563,611.1057],[-4.4713,36.8625,613.3621],[-4.4763,36.8633,610.559],[-4.4769,36.8663,591.6772],[-4.4842,36.8689,513.729],[-4.4859,36.8742,387.7064],[-4.489,36.875,362.8219],[-4.4888,36.8786,403.8864],[-4.4913,36.8818,484.6812],[-4.4905,36.8935,522.0953],[-4.4927,36.9023,543.8588],[-4.4921,36.9076,527.4407],[-4.5365,36.9001,455.6623],[-4.5517,36.8996,525.2147],[-4.5766,36.8925,628.1747],[-4.6063,36.8942,512.0145],[-4.6252,36.9001,438.3318],[-4.6348,36.9008,467.4596],[-4.659,36.9064,448.713],[-4.6715,36.9114,424.8551],[-4.6682,36.9187,535.0091],[-4.6579,36.9172,522.2931],[-4.6533,36.9331,634.4896],[-4.6475,36.9384,684.7133],[-4.6399,36.9517,704.1592],[-4.6393,36.9588,808.5471],[-4.6577,36.9606,715.032],[-4.6708,36.9595,621.5945],[-4.6724,36.9568,564.4319],[-4.683,36.9527,421.4167],[-4.6878,36.9549,416.2156],[-4.7133,36.9426,1145.3445],[-4.7119,36.9325,945.1211],[-4.6996,36.9307,798.1616],[-4.6829,36.9152,364.8388],[-4.7163,36.9279,639.0032],[-4.7275,36.9244,665.1909],[-4.7685,36.9194,613.3716],[-4.7713,36.915,195.4437],[-4.7687,36.912,192.3881],[-4.7632,36.9101,187.5],[-4.7626,36.9039,195.097],[-4.7647,36.897,386.3407],[-4.772,36.8815,300.8782],[-4.7865,36.8634,557.8055],[-4.7903,36.853,769.8115],[-4.7977,36.8636,647.9261],[-4.8084,36.8671,623.5355],[-4.8132,36.8643,600.9385],[-4.8218,36.8674,685.5302],[-4.8275,36.8672,632.6085],[-4.8392,36.8626,554.0745],[-4.841,36.8556,691.2726],[-4.8577,36.8515,1017.518],[-4.8634,36.8517,793.3528],[-4.8722,36.8477,751.1213],[-4.8815,36.8484,609.575],[-4.8838,36.845,609.1501],[-4.8876,36.8501,428.3618],[-4.8909,36.846,434.0132],[-4.8969,36.8423,441.6536],[-4.8984,36.8398,436.1681],[-4.8973,36.8388,436.1681],[-4.8934,36.841,447.2866],[-4.8919,36.8395,443.5549],[-4.8958,36.8361,448.2304],[-4.9022,36.8343,445.5372],[-4.8961,36.8296,458.6581],[-4.9024,36.8224,458.7754],[-4.8994,36.8199,461.4984],[-4.8956,36.822,478.1667],[-4.8926,36.8201,512.5118],[-4.8906,36.8222,476.0343],[-4.8804,36.8124,497.8028],[-4.8822,36.8096,529.541],[-4.8811,36.8075,519.4005],[-4.8862,36.8064,564.3712],[-4.8868,36.8041,600.402],[-4.8854,36.8033,562.2668],[-4.891,36.7998,604.6462],[-4.8893,36.799,589.8341],[-4.8905,36.798,627.6669],[-4.8888,36.7943,632.411],[-4.8917,36.7812,1026.5526],[-4.8878,36.7721,1258.6191],[-4.9004,36.769,1453.2224],[-4.9077,36.7712,1086.2678],[-4.9227,36.7723,776.2198],[-4.934,36.7696,633.8397],[-4.9548,36.7598,804.9818],[-4.955,36.7564,818.0392],[-4.9634,36.755,722.3097],[-4.9715,36.7489,755.3972],[-4.9744,36.7486,802.2536],[-4.9707,36.7411,870.8549],[-4.9764,36.7353,1014.8043],[-4.9854,36.7314,1068.594],[-4.9872,36.7314,1082.8904],[-4.9892,36.7346,1127.052],[-4.996,36.7328,1179.0812],[-5.0,36.7338,1230.4922],[-5.0023,36.7131,1650.9703],[-5.005,36.705,1735.8496],[-5.0243,36.6857,1700.3298],[-5.0306,36.6694,1001.3014],[-5.0215,36.6613,788.3478],[-5.0168,36.6605,823.1584],[-5.0228,36.6521,1043.5437],[-5.0432,36.6458,1407.3237],[-5.0427,36.6425,1443.4023],[-5.0548,36.6321,1316.6708],[-5.058,36.6171,1215.6687],[-5.0619,36.6088,1288.9133],[-5.0602,36.6024,1354.6653],[-5.0693,36.6011,1138.4775],[-5.0753,36.5979,905.6366],[-5.0803,36.5924,817.0312],[-5.0793,36.588,603.9789],[-5.0865,36.5803,664.0605],[-5.0995,36.5723,993.4277],[-5.1062,36.5707,967.2076],[-5.1062,36.5589,913.4737],[-5.1206,36.5434,338.418],[-5.1368,36.5345,565.5209],[-5.14,36.53,758.8021],[-5.1469,36.5347,926.6519],[-5.1616,36.5352,1066.553],[-5.1647,36.5304,993.7494],[-5.1706,36.528,1039.0441],[-5.1753,36.5244,1048.6521],[-5.1762,36.5218,974.7651],[-5.1823,36.5187,1132.1272],[-5.1902,36.5227,1006.3922],[-5.1961,36.5292,680.0978],[-5.2008,36.5306,567.5812],[-5.2011,36.5354,447.5753],[-5.2082,36.5405,793.8949],[-5.2108,36.5472,910.7173],[-5.2151,36.5502,824.2724],[-5.2326,36.5499,695.8987],[-5.2435,36.5579,240.4428],[-5.2502,36.5553,235.6848],[-5.2566,36.5588,492.0498],[-5.2592,36.5581,449.5615],[-5.2581,36.55,188.8606],[-5.2617,36.5448,208.8413],[-5.2616,36.5415,213.942],[-5.2585,36.5401,177.361],[-5.2595,36.5282,234.1392],[-5.2567,36.5235,204.9679],[-5.2613,36.5248,164.2312],[-5.2636,36.522,147.6214],[-5.2718,36.5218,146.381],[-5.2721,36.518,138.0159],[-5.2756,36.5174,128.8864],[-5.2781,36.5199,139.5258],[-5.2785,36.513,123.6193],[-5.2767,36.5115,119.306],[-5.2778,36.5084,120.2018],[-5.2814,36.5093,201.3318],[-5.2845,36.503,104.3725],[-5.2883,36.5006,126.8888],[-5.2931,36.4846,310.1031],[-5.3041,36.4756,248.3437],[-5.3098,36.475,252.6764],[-5.3145,36.471,262.3619],[-5.3188,36.4633,219.6896],[-5.334,36.4537,78.9678],[-5.3524,36.4385,257.6997],[-5.3579,36.4319,219.6674],[-5.3571,36.4239,196.1197],[-5.347,36.4187,199.0618],[-5.3381,36.3978,25.3251],[-5.3348,36.3949,22.7142],[-5.3363,36.3829,129.4095],[-5.3339,36.3789,134.151],[-5.3347,36.37,70.7319],[-5.3259,36.3576,40.7149],[-5.3205,36.3461,10.5501],[-5.315,36.3434,8.0939],[-5.3154,36.3409,7.7198],[-5.3229,36.3322,7.5181],[-5.3199,36.3251,6.7782],[-5.2897,36.3371,145.9522],[-5.2775,36.3371,165.3148]]],
[[[-4.4187,36.7113,0.4647],[-4.4168,36.7124,0.1082],[-4.4218,36.7115,1.1155],[-4.4212,36.7104,2.2435],[-4.4187,36.7113,0.4647]]]]}
,"properties": {"GID_3": "ESP.1.7.4_1","GID_0": "ESP","country": "Spain","GID_1": "ESP.1_1","province": "Andalucía","NL_NAME_1": "NA","GID_2": "ESP.1.7_1","county": "Málaga","NL_NAME_2": "NA","city": "n.a.(184)","VARNAME_3": "NA","NL_NAME_3": "NA","TYPE_3": "Comarca","ENGTYPE_3": "Comarca","CC_3": "NA","HASC_3": "NA","name": "n.a.(184).city","area_km2": 2617.38,"hist_schema_id": "Elevation0-9000","hist_area_km2": {"0": 65.16,"25": 145.122,"50": 137.322,"75": 129.514,"100": 124.639,"125": 117.296,"150": 112.304,"175": 107.439,"200": 97.995,"225": 93.45,"250": 92.914,"275": 90.905,"300": 91.863,"325": 85.191,"350": 83.516,"375": 79.27,"400": 74.659,"425": 70.427,"450": 65.379,"475": 56.814,"500": 55.75,"525": 51.942,"550": 48.781,"575": 44.64,"600": 41.53,"625": 38.524,"650": 34.645,"675": 33.745,"700": 30.921,"725": 29.341,"750": 27.779,"775": 25.159,"800": 23.868,"825": 21.032,"850": 20.048,"875": 17.616,"900": 14.983,"925": 14.712,"950": 12.315,"975": 11.55,"1000": 9.781,"1025": 8.421,"1050": 7.503,"1075": 7.485,"1100": 6.668,"1125": 6.276,"1150": 5.663,"1175": 4.661,"1200": 4.082,"1225": 3.351,"1250": 3.198,"1275": 2.722,"1300": 2.62,"1325": 2.024,"1350": 1.973,"1375": 1.837,"1400": 1.513,"1425": 1.326,"1450": 1.207,"1475": 1.207,"1500": 0.867,"1525": 0.799,"1550": 0.85,"1575": 1.003,"1600": 1.207,"1625": 1.496,"1650": 1.564,"1675": 1.717,"1700": 1.479,"1725": 1.462,"1750": 0.578,"1775": 0.357,"1800": 0.153,"1825": 0.085,"1850": 0.119,"1875": 0.051}}}