{"type":"Feature","properties":{"GID_3":"ESP.1.3.6_1","GID_0":"ESP","country":"Spain","GID_1":"ESP.1_1","province":"Andalucía","NL_NAME_1":"NA","GID_2":"ESP.1.3_1","county":"Córdoba","NL_NAME_2":"NA","city":"n.a.(90)","VARNAME_3":"NA","NL_NAME_3":"NA","TYPE_3":"Comarca","ENGTYPE_3":"Comarca","CC_3":"NA","HASC_3":"NA","name":"n.a.(90).city"},
"geometry":{"type": "MultiPolygon","coordinates": [[[[-4.9023,37.7157,233.2418],[-4.916,37.7048,214.0039],[-4.9446,37.7207,182.9298],[-4.941,37.7286,183.4804],[-4.9415,37.7347,182.717],[-4.922,37.7482,198.7808],[-4.9032,37.7638,210.4771],[-4.9063,37.7637,211.5804],[-4.91,37.7761,215.7381],[-4.9078,37.777,212.7849],[-4.8995,37.7753,218.4227],[-4.8934,37.7771,217.1897],[-4.878,37.7744,230.3866],[-4.8809,37.7858,184.0587],[-4.8799,37.7965,222.8438],[-4.875,37.8032,202.6563],[-4.8777,37.8041,191.2036],[-4.8839,37.7976,218.1547],[-4.8971,37.7955,178.4354],[-4.903,37.7967,179.5452],[-4.9057,37.7949,187.19],[-4.914,37.7938,194.257],[-4.9192,37.7958,194.6369],[-4.9269,37.7833,131.7007],[-4.9334,37.7839,123.5614],[-4.9404,37.7823,175.5528],[-4.945,37.7768,191.7933],[-4.9574,37.7775,175.0614],[-4.9663,37.7833,161.6498],[-4.9757999999999996,37.7868,119.189],[-4.9914,37.7861,108.5935],[-4.9913,37.78,94.550299999999993],[-4.9876,37.7721,114.5613],[-4.9915,37.7686,156.0334],[-4.9938,37.76,157.8204],[-4.9965,37.7565,159.2373],[-5.025,37.7387,147.3182],[-5.0275,37.745,147.7895],[-5.0288,37.7594,124.7852],[-5.0326,37.7573,122.6511],[-5.0357,37.7618,120.6071],[-5.0304,37.7687,90.1696],[-5.0313,37.7743,78.9168],[-5.038,37.7824,73.3709],[-5.0364,37.7858,74.4834],[-5.041,37.7871,72.1511],[-5.0416,37.7901,72.0527],[-5.0429,37.79,73.436],[-5.0438,37.7856,77.9535],[-5.051,37.7808,93.2606],[-5.0648,37.7823,86.1963],[-5.0699,37.7791,89.9703],[-5.0705,37.7708,121.2078],[-5.0669,37.7494,140.6867],[-5.0697,37.7367,148.1985],[-5.0718,37.7358,143.7766],[-5.0804,37.7384,140.3634],[-5.0937,37.756,108.1632],[-5.1037,37.7598,114.3351],[-5.1145,37.7703,93.6941],[-5.1188,37.7671,61.2738],[-5.1314,37.768,61.3859],[-5.1395,37.7767,61.7517],[-5.1402,37.7812,60.3344],[-5.1443,37.7833,61.7184],[-5.1502,37.7824,61.1604],[-5.1569,37.7766,56.9912],[-5.1548,37.7749,60.8241],[-5.1481,37.7765,61.7988],[-5.1443,37.7743,62.1862],[-5.1414,37.7748,62.227],[-5.1365,37.7706,64.1118],[-5.1369,37.7674,73.6954],[-5.1331,37.7673,75.9725],[-5.1332,37.7597,116.2825],[-5.1386,37.7488,123.153],[-5.1424,37.7448,122.0828],[-5.1441,37.7264,127.6648],[-5.1427,37.7232,122.2587],[-5.1305,37.7196,132.7867],[-5.1127,37.7079,153.2576],[-5.1147,37.702,126.0234],[-5.1126,37.7026,154.0497],[-5.1081,37.7004,154.2419],[-5.1007999999999996,37.6894,165.0943],[-5.0998,37.6837,164.7904],[-5.0933,37.675,172.8013],[-5.0978,37.6703,160.3387],[-5.091,37.6679,172.9046],[-5.0815,37.6606,176.4552],[-5.0705,37.6607,170.6392],[-5.0721,37.6635,169.9368],[-5.0739,37.6625,168.3654],[-5.0767,37.6647,173.5754],[-5.0763,37.6689,175.6455],[-5.0797,37.6712,176.2074],[-5.083,37.6701,167.1086],[-5.0901,37.6764,174.7747],[-5.0914,37.68,175.4422],[-5.0903,37.6836,175.291],[-5.0857,37.6886,176.9455],[-5.0889,37.6947,173.5937],[-5.0866,37.6957,176.5489],[-5.0866,37.6977,176.7334],[-5.0798,37.701,178.6588],[-5.0743,37.701,177.6776],[-5.0725,37.7077,165.2785],[-5.0505,37.7157,165.8599],[-5.0506,37.717,165.8599],[-5.0476,37.7182,162.3867],[-4.9997,37.7066,174.5349],[-4.9964,37.6991,173.475],[-4.9916,37.6969,173.8573],[-4.9887,37.6935,167.0017],[-4.9905,37.6921,168.3539],[-4.9868,37.6886,155.3488],[-4.9826,37.6763,174.8431],[-4.9714,37.6724,167.8814],[-4.9536,37.6525,186.7494],[-4.958,37.6217,215.3163],[-4.9653,37.6115,218.4805],[-4.9681,37.6124,215.5277],[-4.9747,37.603,213.7795],[-4.9738,37.5999,215.4184],[-4.9652,37.6109,218.4805],[-4.9593,37.6095,223.2141],[-4.9568,37.6114,225.7721],[-4.9576,37.6129,225.0268],[-4.9477,37.6152,238.0897],[-4.9421,37.618,240.5504],[-4.94,37.6213,230.9725],[-4.9316,37.6174,240.6079],[-4.933,37.6388,216.6687],[-4.9283,37.6367,222.7574],[-4.9258,37.6311,218.96],[-4.9142,37.6352,244.6393],[-4.9097,37.6399,251.8813],[-4.9046,37.6415,247.9],[-4.9031,37.6449,250.6385],[-4.8999,37.6469,252.9194],[-4.8899,37.6493,252.6015],[-4.8873,37.6586,244.244],[-4.8789,37.6547,273.1171],[-4.8566,37.6481,293.3792],[-4.8401,37.6499,269.582],[-4.8337,37.6492,279.2378],[-4.815,37.6403,292.4622],[-4.8144,37.6379,306.5165],[-4.8186,37.6326,291.4988],[-4.8194,37.6285,261.0243],[-4.8144,37.6202,265.0023],[-4.8163,37.6199,258.7992],[-4.817,37.6137,225.9772],[-4.8143,37.6085,202.9376],[-4.8101,37.61,218.9067],[-4.7887,37.6097,183.0402],[-4.7909,37.6045,188.5925],[-4.785,37.6036,175.176],[-4.7842,37.5955,172.1775],[-4.7807,37.5923,173.8182],[-4.7807,37.5896,171.0919],[-4.771,37.591,180.8668],[-4.7543,37.5987,250.6277],[-4.748,37.5957,303.8557],[-4.7438,37.5959,340.4729],[-4.733,37.6031,333.9841],[-4.7235,37.6049,319.7889],[-4.7089,37.6141,363.2367],[-4.6966,37.6128,355.8871],[-4.694,37.6146,349.6447],[-4.6984,37.6247,364.5931],[-4.704,37.6284,370.994],[-4.7096,37.6281,376.3255],[-4.7121,37.6314,369.8145],[-4.7129,37.64,369.2404],[-4.7163,37.644,365.5172],[-4.7203,37.6544,377.1989],[-4.7239,37.6562,364.9913],[-4.7233,37.6578,359.8981],[-4.7304,37.6594,330.5279],[-4.7324,37.6622,330.8845],[-4.7418,37.6615,319.6748],[-4.7469,37.6634,257.1655],[-4.7468,37.6729,240.9613],[-4.7703,37.6791,337.8602],[-4.7702,37.6833,339.6007],[-4.7726,37.6874,332.0844],[-4.7574,37.7025,308.741],[-4.7528,37.7046,332.299],[-4.7426,37.7061,263.6801],[-4.7414,37.7178,264.0988],[-4.7367,37.7164,251.853],[-4.7343,37.7114,225.42],[-4.7272,37.709,216.9794],[-4.7203,37.7108,227.3808],[-4.7209,37.7128,225.0291],[-4.7135,37.7169,243.4813],[-4.7141,37.718,248.0563],[-4.7116,37.7194,223.527],[-4.719,37.7332,325.2052],[-4.7149,37.7381,349.899],[-4.7171,37.7385,341.2695],[-4.716,37.7403,345.1411],[-4.729,37.7449,327.5347],[-4.7309,37.7447,318.5342],[-4.7305,37.7437,317.2426],[-4.7366,37.7451,340.0871],[-4.741,37.7432,316.5214],[-4.7395,37.7419,308.8487],[-4.7405,37.7378,290.1536],[-4.7438,37.7346,314.2176],[-4.7515,37.7345,321.3404],[-4.7535,37.7375,267.8481],[-4.7614,37.7349,297.7389],[-4.7668,37.7285,271.1638],[-4.7764,37.7278,248.7709],[-4.7793,37.7231,287.6771],[-4.7865,37.724,277.0344],[-4.7865,37.729,242.1607],[-4.7928,37.731,237.2947],[-4.7925,37.7271,252.5659],[-4.8044,37.7242,271.1342],[-4.8082,37.7279,258.2301],[-4.8133,37.7284,249.8159],[-4.8156,37.7249,245.7319],[-4.8197,37.726,254.3927],[-4.819,37.7299,220.6476],[-4.8263,37.7282,222.2669],[-4.8337,37.7285,219.1311],[-4.837,37.7309,207.9255],[-4.8531,37.7314,200.854],[-4.8631,37.7158,281.5331],[-4.8672,37.7138,270.5089],[-4.8721,37.7139,269.4818],[-4.8821,37.7181,255.3747],[-4.8916,37.72,241.8015],[-4.9007,37.7187,239.0796],[-4.9008,37.7161,233.2418],[-4.9023,37.7157,233.2418]],
[[-4.8742,37.6695,266.6212],[-4.8767,37.6643,260.078],[-4.8822,37.6677,243.8267],[-4.8751,37.6836,229.8411],[-4.8703,37.6803,253.4836],[-4.8624,37.6674,235.4297],[-4.8641,37.6663,239.9586],[-4.8682,37.6689,261.9975],[-4.8714,37.6681,272.7742],[-4.8742,37.6695,266.6212]]],
[[[-5.0321,37.618,194.1602],[-5.0336,37.6244,191.0485],[-5.0294,37.628,191.0645],[-5.0299,37.6322,189.8001],[-5.0264,37.6352,190.308],[-5.0311,37.6415,189.912],[-5.0334,37.642,190.4088],[-5.0341,37.6385,189.7338],[-5.0467,37.632,185.9249],[-5.0485,37.6369,181.2081],[-5.0537,37.6424,178.1772],[-5.084,37.6481,177.0129],[-5.0848,37.6438,177.2528],[-5.0452,37.6299,187.4518],[-5.04,37.6259,190.1075],[-5.0478,37.6082,177.6262],[-5.0309,37.6106,194.5991],[-5.0269,37.5962,193.4273],[-5.0251,37.594,194.69],[-5.018,37.5921,193.2238],[-5.0171,37.5936,193.157],[-5.0245,37.5949,194.69],[-5.0321,37.618,194.1602]]]]}}