{"type":"Feature","properties":{"GID_3":"ESP.12.2.5_1","GID_0":"ESP","country":"Spain","GID_1":"ESP.12_1","province":"Galicia","NL_NAME_1":"NA","GID_2":"ESP.12.2_1","county":"Lugo","NL_NAME_2":"NA","city":"n.a.(173)","VARNAME_3":"NA","NL_NAME_3":"NA","TYPE_3":"Comarca","ENGTYPE_3":"Comarca","CC_3":"NA","HASC_3":"NA","name":"n.a.(173).city"},
"geometry":{"type": "MultiPolygon","coordinates": [[[[-7.1766,42.7607,1014.2562],[-7.1705,42.7588,1128.4684],[-7.1713,42.7488,1206.541],[-7.1642,42.7431,1316.8434],[-7.1692,42.74,1253.2277],[-7.1721,42.7332,1290.9263],[-7.1745,42.7324,1377.9569],[-7.1721,42.7285,1371.8271],[-7.1745,42.7226,1236.2727],[-7.1825,42.7185,1308.4072],[-7.1821,42.7164,1244.1422],[-7.1711,42.7085,1006.9254],[-7.1599,42.6973,1169.0131],[-7.153,42.6992,1262.6313],[-7.1415,42.6992,1166.1971],[-7.1356,42.6938,1260.2404],[-7.1289,42.6906,1237.1714],[-7.1285,42.6853,1191.6583],[-7.1226,42.6817,1063.9993],[-7.1221,42.6794,1014.9966],[-7.1232,42.6745,958.5453],[-7.1267,42.671,819.9263],[-7.1313,42.6719,919.4475],[-7.1316,42.6694,968.177],[-7.128,42.6668,872.3109],[-7.1294,42.664,777.8795],[-7.1232,42.6581,755.66],[-7.124,42.6558,736.4639],[-7.1143,42.6536,941.8696],[-7.106,42.6583,985.9019],[-7.1037,42.6575,943.2972],[-7.096,42.65,916.0753],[-7.0882,42.6494,1084.0236],[-7.0821,42.6468,1146.1024],[-7.0805,42.6447,1136.0166],[-7.085,42.639,1157.4557],[-7.0846,42.6368,1248.4421],[-7.0813,42.6321,1328.469],[-7.0778,42.6328,1390.8987],[-7.0753,42.6277,1473.9666],[-7.0644,42.6285,1454.1387],[-7.0479,42.626,1557.6299],[-7.0469,42.6327,1554.59],[-7.0418,42.6361,1521.4724],[-7.0379,42.636,1530.9132],[-7.0316,42.6396,1472.9055],[-7.0289,42.6394,1465.0404],[-7.0239,42.643,1237.5664],[-7.0177,42.6452,1307.1187],[-7.0129,42.6418,1371.6068],[-7.0042,42.6428,1424.7307],[-7.0089,42.6492,1159.2886],[-7.0213,42.6519,1078.1117],[-7.0203,42.6547,1069.5814],[-7.0125,42.6578,1000.825],[-7.0172,42.6611,1059.7186],[-7.0154,42.6646,963.9158],[-7.0206,42.6665,1030.2527],[-7.0216,42.6692,1016.0212],[-7.0317,42.6756,1053.2644],[-7.0339,42.684,1239.0488],[-7.045,42.6947,1324.1984],[-7.0366,42.7002,1060.9406],[-7.0289,42.7105,1380.6155],[-7.0249,42.7125,1391.2679],[-7.0198,42.7102,1274.9406],[-7.0215,42.714,1288.3917],[-7.0107,42.7236,1142.9592],[-7.0029,42.7238,1205.3993],[-6.9993,42.7269,1211.234],[-6.9941,42.7256,1228.157],[-6.99,42.7266,1258.2365],[-6.9836,42.7187,1326.5702],[-6.9727,42.725,1106.6263],[-6.969,42.7294,1160.9391],[-6.9727,42.7379,1137.8169],[-6.9666,42.7387,1042.8124],[-6.9658,42.7423,1101.8491],[-6.9677,42.7475,1135.1285],[-6.9593,42.755,1257.6687],[-6.9564,42.7556,1274.9199],[-6.9468,42.7415,1241.4604],[-6.9355,42.7408,1226.9427],[-6.904,42.7595,1694.0736],[-6.8992,42.7651,1746.274],[-6.8961,42.7651,1751.7771],[-6.8977,42.7667,1726.6067],[-6.8968,42.7719,1768.5588],[-6.8906,42.7773,1718.1121],[-6.8797,42.7823,1580.5493],[-6.8756,42.7824,1665.1422],[-6.8673,42.7871,1622.1332],[-6.8639,42.7928,1620.5608],[-6.8644,42.7974,1641.2172],[-6.8686,42.7992,1730.249],[-6.8691,42.8008,1733.8929],[-6.8628,42.8069,1718.0933],[-6.8542,42.8106,1819.0752],[-6.8513,42.8187,1824.6176],[-6.8402,42.8233,1781.1305],[-6.844,42.8281,1697.9707],[-6.8412,42.8323,1819.168],[-6.8481,42.8334,1811.2076],[-6.853,42.8387,1786.6919],[-6.8594,42.8485,1470.1422],[-6.8711,42.8738,1179.6613],[-6.8336,42.882,1449.019],[-6.8403,42.8781,1458.9192],[-6.8373,42.8774,1460.1051],[-6.8353,42.8736,1493.3059],[-6.8197,42.8673,1653.032],[-6.8148,42.8708,1666.7175],[-6.8259,42.8769,1516.3782],[-6.8276,42.8799,1470.8208],[-6.8276,42.8886,1347.6429],[-6.833,42.8978,1049.8156],[-6.8438,42.9062,1048.2092],[-6.8479,42.9143,840.1595],[-6.824,42.915,1350.1602],[-6.8357,42.9163,1245.5378],[-6.8417,42.9282,1418.0934],[-6.8345,42.9409,1176.1406],[-6.8359,42.9577,1193.1654],[-6.8618,42.9793,964.2573],[-6.8647,42.9838,927.6443],[-6.8677,42.9837,982.6566],[-6.8716,42.9889,928.2128],[-6.8805,42.9913,1152.3556],[-6.8936,42.9879,1049.1013],[-6.9102,42.9901,969.1598],[-6.9219,43.0013,899.3167],[-6.9307,43.0046,815.0916],[-6.9323,43.0086,744.4843],[-6.9354,43.0103,736.4739],[-6.9405,43.0114,791.6478],[-6.9464,43.0324,752.9008],[-6.957,43.0367,448.7833],[-6.9559,43.0346,505.7004],[-6.9577,43.0335,468.1724],[-6.9578,43.0291,419.3542],[-6.9643,43.0265,276.9767],[-6.9605,43.0229,260.4196],[-6.9606,43.0212,260.4832],[-6.9638,43.0196,256.7441],[-6.9594,43.0144,264.3482],[-6.9619,43.012,268.446],[-6.9598,43.0072,268.8669],[-6.962,43.0057,268.0793],[-6.9598,43.0044,293.9345],[-6.9619,43.0008,272.8402],[-6.9559,42.9961,317.7401],[-6.9636,42.9957,293.6933],[-6.9637,42.9928,275.1794],[-6.9618,42.9938,303.3269],[-6.9621,42.9906,298.7253],[-6.972,42.994,624.093],[-6.9724,42.9963,654.033],[-6.975,42.9963,674.8499],[-6.9795,43.0048,616.7131],[-6.9836,43.004,799.9954],[-6.9857,43.0142,817.1897],[-6.997,43.0194,820.4394],[-6.9948,43.0263,850.0966],[-6.9968,43.0277,834.786],[-6.9911,43.0308,886.3162],[-6.9871,43.0292,859.2169],[-6.9818,43.0413,517.499],[-6.9778,43.0379,644.7369],[-6.9757,43.0319,710.4988],[-6.9723,43.0303,454.0028],[-6.9689,43.0327,448.0895],[-6.969,43.0351,445.022],[-6.9645,43.0346,296.692],[-6.9659,43.0377,251.5243],[-6.9632,43.0443,268.3885],[-6.9646,43.0504,296.9178],[-6.962,43.0524,297.6211],[-6.9679,43.0557,251.8981],[-6.966,43.0613,239.0841],[-6.9611,43.0611,246.2765],[-6.9559,43.0635,310.1636],[-6.9572,43.0681,234.6246],[-6.9503,43.0682,224.7262],[-6.9517,43.0762,230.2158],[-6.9442,43.0774,224.0382],[-6.9401,43.0806,258.3918],[-6.938,43.0867,215.75],[-6.9473,43.0961,305.524],[-6.9539,43.0976,345.9539],[-6.9628,43.103,371.6481],[-6.9622,43.1088,602.9285],[-6.9573,43.1113,714.403],[-6.9587,43.1153,808.9979],[-6.9538,43.119,1034.7169],[-6.9548,43.1268,1170.4641],[-6.9532,43.1301,1133.5918],[-6.9581,43.1334,1123.359],[-6.957,43.1397,1180.9053],[-6.9614,43.1456,1142.6348],[-6.9649,43.1487,1009.9538],[-6.9733,43.1495,1022.6048],[-6.9806,43.1668,742.0911],[-6.9739,43.1789,740.3356],[-6.965,43.187,595.9439],[-6.9657,43.1947,431.7918],[-6.9709,43.2042,328.5467],[-6.9862,43.2021,609.0404],[-6.9926,43.2086,710.7258],[-7.0013,43.2072,722.9226],[-7.0094,43.2228,600.5427],[-7.0171,43.2216,634.247],[-7.0168,43.2148,702.3888],[-7.0199,43.2132,699.5663],[-7.034,43.2281,843.1058],[-7.0411,43.2286,774.1978],[-7.0464,43.2312,746.4479],[-7.0505,43.2378,772.8976],[-7.0614,43.244,852.7102],[-7.0651,43.2494,810.8176],[-7.0714,43.2712,805.2315],[-7.0704,43.2758,745.7971],[-7.069,43.2754,748.9711],[-7.0696,43.2794,745.7729],[-7.0663,43.2796,772.4926],[-7.0681,43.2832,758.4931],[-7.0645,43.2887,790.2269],[-7.0651,43.2991,811.8293],[-7.0596,43.3053,859.8615],[-7.0675,43.3069,887.5891],[-7.0738,43.3057,916.9156],[-7.0785,43.3004,910.0416],[-7.0865,43.3003,909.7338],[-7.0927,43.296,900.2059],[-7.0962,43.2973,919.4631],[-7.0963,43.2945,822.8317],[-7.1024,43.2951,792.3416],[-7.1092,43.2923,731.7996],[-7.1179,43.2953,581.6951],[-7.118,43.2859,874.1567],[-7.1284,43.269,882.2989],[-7.13,43.261,864.1344],[-7.136,43.2556,840.847],[-7.1408,43.2605,761.4191],[-7.1451,43.2615,677.7834],[-7.1453,43.2636,676.0402],[-7.1598,43.2647,660.1899],[-7.1602,43.2614,670.1542],[-7.1667,43.2543,761.9801],[-7.1638,43.2512,792.6449],[-7.1652,43.2509,774.9357],[-7.1659,43.2462,833.8575],[-7.1724,43.2432,749.1828],[-7.1706,43.2409,779.313],[-7.1736,43.2379,812.6873],[-7.171,43.2354,860.55],[-7.1558,43.1983,539.7185],[-7.1521,43.1962,473.3674],[-7.1488,43.1895,342.8932],[-7.1496,43.1871,377.3205],[-7.1532,43.1868,365.9297],[-7.16,43.1812,312.0941],[-7.1556,43.1773,357.5988],[-7.1491,43.1758,394.0869],[-7.1494,43.1716,651.116],[-7.1513,43.1702,690.1532],[-7.158,43.1702,516.2877],[-7.1634,43.1722,360.8635],[-7.1631,43.1695,385.895],[-7.1662,43.1678,507.7607],[-7.164,43.1664,499.4342],[-7.1628,43.1623,516.9485],[-7.162,43.1529,587.1052],[-7.1601,43.15,630.5913],[-7.1616,43.149,630.5913],[-7.1552,43.146,749.6556],[-7.1526,43.1381,789.4454],[-7.1587,43.1392,849.8068],[-7.1667,43.1382,761.8533],[-7.1842,43.1408,661.8513],[-7.1975,43.136,812.3708],[-7.1987,43.1328,824.679],[-7.218,43.1324,518.0837],[-7.2225,43.1453,327.8883],[-7.2331,43.1475,602.2904],[-7.2313,43.1542,594.4418],[-7.2343,43.1591,423.9688],[-7.2439,43.1521,560.7841],[-7.2503,43.1495,602.7651],[-7.2602,43.1482,822.5547],[-7.2532,43.1371,766.7117],[-7.2597,43.1299,651.9674],[-7.2597,43.1243,776.9769],[-7.273,43.1124,631.6106],[-7.2786,43.1117,620.5002],[-7.2929,43.0881,936.0256],[-7.2905,43.0843,962.1022],[-7.2896,43.0796,960.3737],[-7.2914,43.0734,1021.7706],[-7.2837,43.0416,919.9167],[-7.2765,43.025,893.5801],[-7.267,43.0158,862.5286],[-7.261,42.9917,823.6941],[-7.2535,42.977,934.3004],[-7.2457,42.9697,893.1613],[-7.2434,42.9535,810.6599],[-7.2485,42.9481,903.3406],[-7.2525,42.9499,926.7155],[-7.263,42.9438,831.4706],[-7.271,42.9429,774.972],[-7.2733,42.9452,772.9093],[-7.2828,42.9449,725.3231],[-7.2834,42.9427,721.1422],[-7.2898,42.9386,693.2587],[-7.2956,42.94,707.6205],[-7.3061,42.9396,758.9537],[-7.3141,42.9424,780.0309],[-7.3216,42.9303,750.8594],[-7.3337,42.9235,569.8953],[-7.3493,42.9222,591.5468],[-7.3506,42.9178,593.3784],[-7.3419,42.9061,526.4241],[-7.3323,42.9045,601.9964],[-7.3234,42.8856,652.6027],[-7.3264,42.8713,569.025],[-7.3335,42.8539,464.4554],[-7.3352,42.853,507.1614],[-7.3323,42.8501,602.5131],[-7.3148,42.8477,668.6167],[-7.3065,42.8481,704.5754],[-7.2946,42.8396,726.509],[-7.2791,42.8448,628.0948],[-7.2676,42.8512,772.9787],[-7.2599,42.8421,805.8169],[-7.226,42.8381,960.7049],[-7.2192,42.8258,939.63],[-7.2204,42.8221,920.2719],[-7.2306,42.81,1094.9086],[-7.2243,42.8019,969.7556],[-7.2101,42.7995,939.4397],[-7.2023,42.7878,973.2003],[-7.1887,42.7738,972.9231],[-7.1761,42.7716,979.9253],[-7.1732,42.7744,1034.4119],[-7.1713,42.7708,1006.3992],[-7.1657,42.7672,1022.0459],[-7.1657,42.761,1056.778],[-7.1722,42.762,1077.7935],[-7.1766,42.7607,1014.2562]]]]}}