{"type": "Feature","bbox": [-7.3359,38.2791,-6.9195,38.7858],"geometry": {"type": "MultiPolygon","coordinates": [[[[-7.334,38.4377,145.5],[-7.3359,38.4358,145.5],[-7.3341,38.4346,145.5],[-7.3301,38.4381,146.6747],[-7.3288,38.4364,145.5],[-7.328,38.4388,149.1447],[-7.3168,38.4402,145.5],[-7.3147,38.4392,148.4692],[-7.3144,38.4352,146.5302],[-7.3103,38.4358,145.5],[-7.3107,38.4337,158.021],[-7.3067,38.4328,147.6149],[-7.3071,38.4311,146.0672],[-7.3032,38.4319,148.3647],[-7.3025,38.4296,148.7039],[-7.3002,38.429,149.3215],[-7.2999,38.426,163.5178],[-7.2948,38.4258,156.6169],[-7.2944,38.4281,160.6516],[-7.2915,38.4277,169.0124],[-7.2931,38.4263,162.3261],[-7.2922,38.424,165.8747],[-7.2881,38.4251,163.4135],[-7.2879,38.4227,165.6265],[-7.2844,38.4233,164.6328],[-7.283,38.4208,164.7886],[-7.2839,38.4192,169.7624],[-7.2798,38.4197,167.1373],[-7.28,38.4133,177.0741],[-7.2713,38.3948,208.3398],[-7.2601,38.3822,230.4382],[-7.2566,38.3804,233.4301],[-7.2482,38.3695,208.6871],[-7.2322,38.3567,199.7161],[-7.2197,38.3425,158.5041],[-7.2145,38.3409,167.4156],[-7.2023,38.329,177.0027],[-7.1992,38.3211,196.7126],[-7.183,38.2969,193.8737],[-7.1755,38.2885,188.3827],[-7.1685,38.2842,166.141],[-7.1695,38.2791,171.0163],[-7.1643,38.2814,173.2576],[-7.1609,38.2794,173.7999],[-7.162,38.2794,172.029],[-7.1607,38.2791,173.7999],[-7.1588,38.2795,174.1424],[-7.1584,38.284,205.2791],[-7.1556,38.2827,189.0617],[-7.153,38.2837,201.635],[-7.1499,38.2816,216.1005],[-7.144,38.284,202.9879],[-7.1315,38.2958,195.8798],[-7.1291,38.2964,188.0981],[-7.1248,38.2944,197.808],[-7.1255,38.2967,192.0584],[-7.1201,38.3033,195.9285],[-7.1177,38.3024,208.8253],[-7.1193,38.2964,213.5356],[-7.1116,38.3036,196.0266],[-7.111,38.298,208.3217],[-7.1085,38.2974,201.0846],[-7.1065,38.2993,208.2138],[-7.0984,38.2969,204.7952],[-7.0941,38.2981,203.674],[-7.0929,38.2931,211.4052],[-7.0907,38.2934,215.1352],[-7.087,38.2972,207.7034],[-7.0816,38.2981,214.3645],[-7.0816,38.2951,217.7585],[-7.0858,38.2946,208.983],[-7.0785,38.2879,213.8906],[-7.076,38.2893,211.8235],[-7.0762,38.2927,218.1333],[-7.0725,38.2907,215.8225],[-7.068,38.2966,218.509],[-7.0649,38.2981,222.9388],[-7.0634,38.2967,220.2505],[-7.0666,38.2963,220.1238],[-7.0661,38.2948,223.4493],[-7.0608,38.2927,228.4445],[-7.0592,38.294,234.2747],[-7.0551,38.2906,225.375],[-7.0466,38.2931,232.7767],[-7.0492,38.2967,235.4769],[-7.0422,38.2978,247.3561],[-7.0451,38.3009,237.0463],[-7.0431,38.3027,234.7634],[-7.0432,38.3052,232.9042],[-7.0465,38.3078,233.9193],[-7.046,38.3095,236.9536],[-7.0391,38.3094,237.8863],[-7.0379,38.313,238.6051],[-7.0343,38.3157,239.9736],[-7.0283,38.317,242.4207],[-7.0287,38.3245,248.8234],[-7.0204,38.3322,251.972],[-7.0136,38.3356,252.6119],[-7.0112,38.3397,259.0148],[-7.0148,38.3459,256.8433],[-7.0113,38.3488,263.6047],[-7.0121,38.3515,275.0294],[-7.0073,38.3511,271.3403],[-7.0072,38.3536,268.9068],[-7.0052,38.355,274.4297],[-7.0048,38.357,268.8724],[-7.0085,38.3583,268.929],[-7.0058,38.3606,271.3395],[-7.0067,38.364,270.7613],[-7.0025,38.3672,275.4391],[-7.0015,38.3642,279.0907],[-6.9976,38.3639,278.3073],[-6.9982,38.3683,278.7166],[-6.996,38.3713,286.6528],[-6.9909,38.3704,293.8144],[-6.9881,38.3752,286.4537],[-6.9767,38.3762,299.506],[-6.9727,38.3838,312.8603],[-6.9682,38.3856,320.3024],[-6.9694,38.3868,314.16],[-6.9663,38.3937,317.6837],[-6.9643,38.3935,329.0994],[-6.9616,38.3984,326.0086],[-6.9605,38.4077,327.5239],[-6.9573,38.4087,339.9084],[-6.957,38.4138,341.3187],[-6.9543,38.4187,342.2291],[-6.9466,38.4268,352.3417],[-6.9398,38.4294,360.2684],[-6.9403,38.4406,434.0144],[-6.9379,38.4441,450.7984],[-6.9438,38.4587,340.7631],[-6.955,38.4625,327.4863],[-6.9588,38.4672,331.0823],[-6.9664,38.4659,326.2677],[-6.9724,38.4792,352.0986],[-6.9734,38.4879,361.0983],[-6.9694,38.5002,389.3942],[-6.9647,38.5056,400.4848],[-6.9649,38.5143,428.2435],[-6.9619,38.5186,416.4979],[-6.9558,38.5408,393.4469],[-6.9563,38.5445,364.9304],[-6.9526,38.5593,374.9549],[-6.9565,38.568,305.678],[-6.9604,38.5701,309.8934],[-6.9631,38.5753,305.5697],[-6.9678,38.5767,301.8763],[-6.9674,38.5806,306.4789],[-6.9593,38.5827,294.8322],[-6.9564,38.5866,292.5086],[-6.9623,38.5895,286.0255],[-6.9665,38.5892,287.1429],[-6.9698,38.593,281.0887],[-6.9761,38.5944,279.0491],[-6.9783,38.5977,276.755],[-6.983,38.5989,278.3929],[-6.9889,38.5981,271.4766],[-6.9867,38.6055,268.8444],[-6.9962,38.6081,261.2465],[-6.995,38.6121,266.7798],[-6.9973,38.6121,260.1437],[-6.9996,38.6071,251.6663],[-7.0028,38.6074,252.9849],[-7.0105,38.6129,243.0914],[-7.0093,38.6167,254.0991],[-7.0185,38.6185,242.6646],[-7.0166,38.6227,243.2179],[-7.02,38.6303,234.694],[-7.0243,38.6302,236.6437],[-7.0247,38.6314,229.2851],[-7.0207,38.6385,225.9419],[-7.0054,38.6296,266.8183],[-6.9923,38.6186,278.4263],[-6.9864,38.622,287.1049],[-6.9814,38.6166,309.7054],[-6.9741,38.6193,323.242],[-6.9706,38.6253,338.905],[-6.9662,38.6279,335.809],[-6.9602,38.6282,351.0177],[-6.9561,38.6228,356.5454],[-6.9433,38.628,403.9374],[-6.9445,38.6352,436.4523],[-6.9392,38.6431,394.3641],[-6.9195,38.65,348.7575],[-6.9233,38.6564,334.7152],[-6.925,38.6668,311.3857],[-6.9328,38.6829,284.3384],[-6.9359,38.6857,275.3288],[-6.9358,38.6996,262.7264],[-6.923,38.698,263.4331],[-6.9567,38.7132,253.715],[-6.9715,38.7136,247.8794],[-6.9741,38.7156,249.8723],[-6.9926,38.7115,254.085],[-7.0041,38.7011,271.317],[-7.0173,38.6974,239.0557],[-7.0224,38.6907,201.4931],[-7.0273,38.6965,197.4084],[-7.0352,38.7019,197.0172],[-7.0369,38.7078,192.2469],[-7.0524,38.7331,190.2137],[-7.0575,38.7339,183.4649],[-7.0622,38.7417,182.4004],[-7.0693,38.743899999999996,180.1137],[-7.0717,38.7482,179.2684],[-7.0755,38.7493,183.0597],[-7.0916,38.7487,176.1228],[-7.0953,38.7499,174.5786],[-7.0988,38.7534,175.9165],[-7.1113,38.7587,172.7877],[-7.1183,38.7647,170.2883],[-7.1263,38.7679,167.7988],[-7.1277,38.7699,168.5184],[-7.1367,38.7694,166.4516],[-7.1445,38.7788,161.1798],[-7.1509,38.7792,163.6393],[-7.1476,38.7834,161.2024],[-7.1497,38.7858,166.7539],[-7.1535,38.7838,162.3523],[-7.159,38.7849,147.0599],[-7.1659,38.7784,151.1072],[-7.1812,38.7735,145.5],[-7.1854,38.7702,149.5795],[-7.1889,38.7707,152.9051],[-7.1882,38.769,145.5],[-7.1907,38.7699,145.5],[-7.1921,38.7675,145.6879],[-7.1969,38.765,145.5],[-7.1958,38.7612,147.5135],[-7.2025,38.7524,154.1326],[-7.2124,38.745,146.89],[-7.2285,38.7367,145.5],[-7.2379,38.7369,145.5],[-7.2427,38.7352,145.5],[-7.2522,38.7302,145.5],[-7.2598,38.7235,145.5],[-7.2604,38.72,145.5],[-7.258,38.7135,145.5],[-7.2672,38.6993,154.7848],[-7.2689,38.6879,145.5],[-7.2662,38.6814,145.5],[-7.2702,38.6666,145.5],[-7.2698,38.6485,145.5],[-7.2725,38.6384,145.5],[-7.2656,38.6273,147.0392],[-7.2468,38.6275,145.5],[-7.2436,38.624,145.5],[-7.259,38.6124,145.5],[-7.2604,38.6088,145.5],[-7.2594,38.6038,145.5],[-7.2634,38.5945,145.5],[-7.2639,38.5879,145.5],[-7.2696,38.5846,145.5],[-7.2757,38.5755,145.5],[-7.284,38.5759,145.5],[-7.2867,38.5711,145.5],[-7.286,38.5633,145.5],[-7.289,38.5581,145.5],[-7.3034,38.5431,145.5],[-7.3014,38.5244,145.5],[-7.3045,38.519,145.5],[-7.3146,38.5139,145.5],[-7.3154,38.4965,145.5],[-7.3208,38.4854,145.5],[-7.3216,38.4783,145.5],[-7.3194,38.4748,145.5],[-7.3133,38.4741,145.5],[-7.3077,38.481,145.5],[-7.3004,38.483,145.5],[-7.2963,38.4803,145.5],[-7.2959,38.476,145.5],[-7.3019,38.4653,145.5],[-7.3084,38.4614,145.5],[-7.3122,38.4612,145.5],[-7.3143,38.459,145.5],[-7.3125,38.4546,145.5],[-7.3151,38.4491,145.5],[-7.3303,38.4445,145.5],[-7.334,38.4377,145.5]]]]}
,"properties": {"GID_3": "ESP.11.1.8_1","GID_0": "ESP","country": "Spain","GID_1": "ESP.11_1","province": "Extremadura","NL_NAME_1": "NA","GID_2": "ESP.11.1_1","county": "Badajoz","NL_NAME_2": "NA","city": "n.a.(46)","VARNAME_3": "NA","NL_NAME_3": "NA","TYPE_3": "Comarca","ENGTYPE_3": "Comarca","CC_3": "NA","HASC_3": "NA","name": "n.a.(46).city","area_km2": 1307.334,"hist_schema_id": "Elevation0-9000","hist_area_km2": {"150": 63.577,"175": 130.168,"200": 208.154,"225": 204.025,"250": 202.266,"275": 148.773,"300": 104.388,"325": 86.943,"350": 71.807,"375": 46.033,"400": 22.974,"425": 9.571,"450": 4.926,"475": 1.857,"500": 0.679,"525": 0.464,"550": 0.431,"575": 0.215,"600": 0.083}}}