{"type":"Feature","properties":{"GID_3":"ESP.10.1.1_1","GID_0":"ESP","country":"Spain","GID_1":"ESP.10_1","province":"ComunidadValenciana","NL_NAME_1":"NA","GID_2":"ESP.10.1_1","county":"Alicante","NL_NAME_2":"NA","city":"Alacanti","VARNAME_3":"NA","NL_NAME_3":"NA","TYPE_3":"Comarca","ENGTYPE_3":"Comarca","CC_3":"NA","HASC_3":"NA","name":"Alacanti.city"},
"geometry":{"type": "MultiPolygon","coordinates": [[[[-0.3945,38.5327,1104.7937],[-0.3998,38.5407,1098.0404],[-0.3947,38.5528,1049.4949],[-0.3959,38.5542,1072.6737],[-0.3939,38.5592,925.0788],[-0.397,38.5628,794.1549],[-0.403,38.5649,933.4081],[-0.4088,38.5737,1070.9304],[-0.3992,38.5792,1019.2693],[-0.3911,38.5871,1055.4597],[-0.376,38.591,1009.2981],[-0.378,38.597,860.1008],[-0.3653,38.6008,929.6079],[-0.3636,38.6049,927.301],[-0.3582,38.6056,863.6713],[-0.3495,38.6123,594.9211],[-0.3516,38.6153,619.3481],[-0.3636,38.6178,676.1289],[-0.3859,38.6162,786.5797],[-0.4002,38.6284,833.9229],[-0.4069,38.6302,895.884],[-0.4096,38.6331,942.2295],[-0.4069,38.6347,984.3877],[-0.4078,38.6357,1033.5693],[-0.4122,38.6342,992.2828],[-0.4173,38.6379,1088.7759],[-0.4202,38.6346,1178.1758],[-0.4273,38.6342,1255.7742],[-0.4286,38.636,1285.9933],[-0.4373,38.6277,1209.5222],[-0.4448,38.6259,1136.4888],[-0.4506,38.628,1026.3362],[-0.4601,38.6365,834.5992],[-0.4597,38.6401,864.783],[-0.4645,38.6425,843.1799],[-0.4672,38.6413,795.1667],[-0.4669,38.6495,770.8011],[-0.4686,38.6509,764.8834],[-0.4732,38.6467,783.3671],[-0.4831,38.6426,806.9567],[-0.4844,38.6306,1016.1006],[-0.5103,38.6087,1134.8894],[-0.537,38.5989,1079.5255],[-0.5473,38.5973,1027.1521],[-0.5645,38.5912,895.5796],[-0.5709,38.5917,828.2386],[-0.5749,38.5898,788.7916],[-0.5673,38.5869,816.3015],[-0.557,38.5869,844.4222],[-0.5583,38.5824,957.9216],[-0.5566,38.5789,1004.4985],[-0.5604,38.573,957.6234],[-0.5568,38.5657,882.5306],[-0.5547,38.5645,909.9852],[-0.5526,38.5519,1104.6943],[-0.5503,38.5499,1104.5697],[-0.5518,38.5448,1041.308],[-0.5481,38.5431,1080.5792],[-0.5449,38.5357,1094.7136],[-0.5411,38.5351,1181.3835],[-0.5451,38.5249,736.271],[-0.5569,38.5108,739.1857],[-0.5536,38.5035,583.6285],[-0.5621,38.481,641.7294],[-0.595,38.4742,444.4888],[-0.6147,38.4764,861.8168],[-0.6196,38.4785,769.663],[-0.6214,38.4823,637.8979],[-0.6261,38.4854,635.5162],[-0.6267,38.4893,711.1177],[-0.6303,38.4937,780.2517],[-0.6314,38.5023,1221.4276],[-0.6354,38.498,1083.679],[-0.643,38.4959,999.8325],[-0.6487,38.4966,863.5189],[-0.6555,38.494,709.6032],[-0.6532,38.4859,597.2788],[-0.656,38.4835,574.9023],[-0.6587,38.4757,535.39],[-0.6685,38.4658,439.5173],[-0.7057,38.4522,776.1558],[-0.6869,38.424,333.4708],[-0.676,38.4176,296.1771],[-0.6636,38.4072,260.4933],[-0.6463,38.4017,247.9418],[-0.6362,38.3964,387.4688],[-0.6447,38.3885,479.9878],[-0.6449,38.3866,466.6446],[-0.6566,38.3823,492.5678],[-0.6463,38.3577,225.7313],[-0.645,38.3503,205.6682],[-0.6404,38.3448,192.3292],[-0.6235,38.3429,152.5988],[-0.6129,38.3373,145.3098],[-0.6117,38.3346,129.2479],[-0.6008,38.3247,183.678],[-0.5768,38.306,78.0019],[-0.568,38.3018,98.9429],[-0.5505,38.3033,78.9012],[-0.543,38.3065,80.8462],[-0.5416,38.3058,81.9465],[-0.5356,38.2997,14.6867],[-0.5246,38.275,7.2284],[-0.5199,38.2749,7.4661],[-0.521,38.2899,1.5288],[-0.5193,38.2999,0.0],[-0.5126,38.3221,6.4034],[-0.5096,38.3274,2.9124],[-0.5074,38.3285,0.1013],[-0.5062,38.3326,5.9122],[-0.5015,38.3351,3.8418],[-0.501,38.3332,2.6864],[-0.4988,38.3332,2.2102],[-0.4929,38.329,1.7015],[-0.4912,38.3307,0.0],[-0.4946,38.334,1.6775],[-0.4921,38.3343,1.6344],[-0.4901,38.3321,0.7489],[-0.4863,38.3329,0.0],[-0.4874,38.3357,2.2248],[-0.4821,38.3374,0.0],[-0.4849,38.3387,6.2935],[-0.4835,38.3393,0.0],[-0.4846,38.3418,5.3431],[-0.4826,38.3424,2.5453],[-0.4832,38.3401,0.0],[-0.4796,38.3385,0.0],[-0.4793,38.3368,0.2724],[-0.4865,38.3318,0.7127],[-0.4868,38.3293,0.0],[-0.4774,38.3365,0.3905],[-0.4785,38.344,6.5281],[-0.476,38.3465,0.0],[-0.4654,38.3513,0.0],[-0.4624,38.3549,6.4126],[-0.4515,38.3585,0.0],[-0.4449,38.3632,2.5046],[-0.4424,38.3632,1.5126],[-0.4399,38.3604,0.0],[-0.4343,38.3607,9.0394],[-0.4337,38.3557,0.0393],[-0.4285,38.354,3.3298],[-0.4124,38.3515,0.0],[-0.4021,38.3526,0.0],[-0.409,38.3576,10.3932],[-0.4104,38.3621,1.1339],[-0.4076,38.3929,5.0318],[-0.4013,38.4121,9.4705],[-0.391,38.4157,1.0643],[-0.389,38.4279,7.384],[-0.3871,38.4299,0.3963],[-0.3851,38.4304,0.1602],[-0.3837,38.429,0.2734],[-0.3818,38.4315,0.606],[-0.3801,38.431,0.3179],[-0.3826,38.4349,5.908],[-0.3765,38.4379,0.0],[-0.3768,38.4407,1.9865],[-0.3751,38.4426,1.8886],[-0.3696,38.4432,0.0],[-0.3676,38.4457,24.7036],[-0.364,38.4454,0.0],[-0.3632,38.4476,12.5776],[-0.3607,38.4471,0.0],[-0.3601,38.449,9.1265],[-0.3568,38.4482,0.0],[-0.3546,38.4493,3.9339],[-0.3513,38.4529,4.0077],[-0.349,38.4529,0.0],[-0.346,38.4557,16.9575],[-0.3432,38.4554,0.0],[-0.3418,38.4579,1.7406],[-0.3326,38.4637,0.0],[-0.3182,38.4707,1.7402],[-0.3162,38.4749,3.3748],[-0.3015,38.4821,11.2006],[-0.3045,38.4849,19.5472],[-0.3032,38.4916,41.3931],[-0.3073,38.4925,60.1813],[-0.3078,38.4967,76.1781],[-0.3135,38.4989,104.8534],[-0.3168,38.4975,117.8715],[-0.3171,38.4989,146.2364],[-0.322,38.5005,154.526],[-0.3219,38.5049,193.9658],[-0.3242,38.5097,225.9114],[-0.3271,38.5092,250.6808],[-0.3269,38.5108,255.2695],[-0.3321,38.5136,288.6965],[-0.3318,38.5163,317.4709],[-0.3451,38.5281,445.8286],[-0.3556,38.5291,606.349],[-0.3619,38.537,590.2447],[-0.3667,38.538,665.6868],[-0.3724,38.5358,658.6581],[-0.3809,38.5368,775.4536],[-0.3807,38.5352,757.8671],[-0.3893,38.5365,999.0162],[-0.3945,38.5327,1104.7937]]]]}}