{"type":"Feature","properties":{"GID_3":"ESP.5.7.6_1","GID_0":"ESP","country":"Spain","GID_1":"ESP.5_1","province":"CastillayLeón","NL_NAME_1":"NA","GID_2":"ESP.5.7_1","county":"Soria","NL_NAME_2":"NA","city":"n.a.(238)","VARNAME_3":"NA","NL_NAME_3":"NA","TYPE_3":"Comarca","ENGTYPE_3":"Comarca","CC_3":"NA","HASC_3":"NA","name":"n.a.(238).city"},
"geometry":{"type": "MultiPolygon","coordinates": [[[[-2.9411,41.3139,1238.4343],[-2.934,41.3134,1227.5939],[-2.9242,41.3186,1211.0637],[-2.9109,41.3212,1223.2502],[-2.9066,41.3276,1202.5461],[-2.9099,41.3316,1201.1582],[-2.9113,41.336,1214.1511],[-2.9101,41.3398,1201.3785],[-2.9152,41.353,1191.3688],[-2.9309,41.3581,1184.1689],[-2.9547,41.3625,1225.1245],[-2.9562,41.369,1201.4221],[-2.9647,41.3812,1269.7468],[-2.9716,41.3882,1219.8129],[-2.9775,41.3868,1210.5187],[-2.9733,41.4093,1168.6746],[-2.9758,41.4112,1158.6052],[-2.9738,41.417,1138.1298],[-2.9675,41.4231,1121.557],[-2.9713,41.4393,1070.176],[-2.9553,41.4472,1004.5269],[-2.9533,41.4655,929.6233],[-2.9567,41.4851,884.3471],[-2.9605,41.4848,888.3575],[-2.9657,41.4896,884.763],[-2.969,41.4898,888.0072],[-2.972,41.4875,885.3019],[-2.9692,41.4843,887.827],[-2.9694,41.4813,884.1903],[-2.972,41.4812,883.3308],[-2.9845,41.4866,882.8468],[-2.9854,41.49,883.7379],[-2.9889,41.4903,881.2797],[-3.0063,41.4817,889.3433],[-3.0248,41.4831,878.9697],[-3.028,41.4908,910.1319],[-3.0245,41.5002,875.4202],[-3.029,41.5059,877.0226],[-3.0297,41.5126,881.225],[-3.0245,41.5174,880.5381],[-3.02,41.5169,883.1914],[-3.0176,41.5188,875.5139],[-3.0185,41.5218,877.6757],[-3.022,41.5215,876.4117],[-3.024,41.5268,874.8238],[-3.0068,41.5334,927.5166],[-2.9985,41.5386,986.8126],[-2.9844,41.5597,952.6165],[-2.9861,41.5635,945.4387],[-2.9899,41.5659,923.6848],[-2.9894,41.5705,955.8986],[-2.9923,41.5779,990.5494],[-2.9775,41.5858,1026.0078],[-2.963,41.5858,1021.1316],[-2.9553,41.5984,1012.3434],[-2.9433,41.6007,1002.0605],[-2.9418,41.6069,1030.2214],[-2.9389,41.6097,1033.5573],[-2.9173,41.6165,1019.1196],[-2.9072,41.6251,1034.2402],[-2.8941,41.6269,1038.0583],[-2.8975,41.6337,1007.7866],[-2.8962,41.6381,992.0692],[-2.8984,41.6473,952.3192],[-2.9032,41.656,980.4648],[-2.9379,41.679,1078.4076],[-2.944,41.6849,1087.1686],[-2.9459,41.6803,1084.8252],[-2.9497,41.6787,1075.9957],[-2.9534,41.6716,1066.4033],[-2.961,41.6673,1067.1063],[-2.9603,41.6631,1051.2063],[-2.9769,41.6729,1040.1467],[-2.9854,41.6958,1111.3749],[-3.0011,41.7092,1008.2735],[-2.9928,41.7312,1098.9802],[-2.9986,41.7474,1012.5311],[-3.0242,41.7383,1017.1904],[-3.0299,41.7346,1001.2044],[-3.0691,41.7477,1060.9683],[-3.0722,41.7511,1034.2334],[-3.0718,41.7536,1020.7817],[-3.0825,41.7584,1018.7554],[-3.0814,41.76,989.0889],[-3.0854,41.763,1012.7726],[-3.0896,41.7639,1008.1896],[-3.0865,41.7662,991.2689],[-3.0916,41.7692,1017.2825],[-3.0878,41.7718,994.7255],[-3.0912,41.7721,1009.9883],[-3.0904,41.774,1001.3885],[-3.0941,41.776,1003.8944],[-3.0979,41.7813,1008.3559],[-3.1035,41.7826,1004.8771],[-3.1002,41.7855,1011.3127],[-3.1032,41.7902,1004.1453],[-3.1095,41.7939,1017.9405],[-3.1131,41.7939,1010.876],[-3.1161,41.7972,1025.6603],[-3.1204,41.7969,1056.5847],[-3.121,41.7996,1021.4832],[-3.1241,41.8015,1023.3987],[-3.1235,41.8048,1050.4895],[-3.1275,41.8057,1045.3612],[-3.1267,41.808,1048.8306],[-3.1386,41.8123,1065.2405],[-3.1594,41.7986,1108.7455],[-3.1713,41.793,1167.4778],[-3.174,41.7964,1177.9033],[-3.1789,41.7961,1147.7863],[-3.1816,41.7988,1100.4069],[-3.1885,41.8017,1129.9971],[-3.1982,41.8172,1137.2705],[-3.1944,41.8289,1216.0852],[-3.2018,41.8333,1220.4984],[-3.2067,41.8316,1121.0197],[-3.2243,41.8404,1178.4607],[-3.2244,41.8393,1178.4607],[-3.2343,41.8406,1183.123],[-3.2382,41.8376,1169.0002],[-3.2351,41.8347,1161.5408],[-3.2451,41.8201,1149.6182],[-3.2552,41.823,1218.0027],[-3.2637,41.8188,1029.3093],[-3.2638,41.8173,998.4612],[-3.2783,41.8149,1000.4185],[-3.2753,41.7943,1030.6367],[-3.2858,41.7882,1012.279],[-3.2835,41.7783,950.8729],[-3.2754,41.7687,986.825],[-3.287,41.7601,982.4408],[-3.2961,41.762,960.0572],[-3.3072,41.7602,991.6585],[-3.3096,41.751,1028.4153],[-3.3216,41.7492,1028.099],[-3.3228,41.7409,1010.6422],[-3.329,41.7406,1004.151],[-3.3303,41.7393,999.8202],[-3.3356,41.7414,976.7688],[-3.3432,41.7387,965.2181],[-3.3528,41.7379,964.9548],[-3.3551,41.7338,969.6889],[-3.3524,41.7292,958.47],[-3.3606,41.7216,918.161],[-3.3598,41.7137,906.996],[-3.3617,41.7103,909.7953],[-3.3609,41.6995,917.8835],[-3.3583,41.6934,949.5043],[-3.3703,41.6918,948.0361],[-3.3851,41.693,952.1861],[-3.3933,41.6906,927.6717],[-3.3947,41.6845,872.3438],[-3.4073,41.6756,910.6832],[-3.4069,41.6732,916.1778],[-3.4146,41.6648,941.897],[-3.4177,41.6562,986.9736],[-3.4165,41.6479,980.9875],[-3.419,41.6441,988.8086],[-3.4214,41.6461,980.9722],[-3.4297,41.6463,962.1901],[-3.4329,41.6398,947.6095],[-3.4352,41.6394,948.1248],[-3.4365,41.6342,934.1315],[-3.4404,41.6295,907.7728],[-3.4393,41.6251,871.1121],[-3.4353,41.622,849.8107],[-3.4409,41.6184,837.7257],[-3.4426,41.6116,829.8356],[-3.4497,41.6058,849.8693],[-3.4591,41.5896,1015.0417],[-3.4684,41.589,1007.384],[-3.4682,41.5922,972.4101],[-3.4753,41.597,977.4782],[-3.4795,41.5946,973.0112],[-3.4813,41.5947,962.2255],[-3.4816,41.5975,945.7625],[-3.5099,41.5972,1015.0192],[-3.5114,41.5982,1015.0192],[-3.5104,41.6003,987.414],[-3.5291,41.6126,922.0383],[-3.5414,41.6082,905.6031],[-3.5396,41.6076,908.9312],[-3.5406,41.5978,1014.2028],[-3.5456,41.5985,1015.6677],[-3.5504,41.5966,1010.7506],[-3.5361,41.5865,965.7631],[-3.5438,41.5721,981.7078],[-3.5366,41.5595,1020.7517],[-3.5383,41.552,980.5933],[-3.5348,41.5487,1001.4609],[-3.5248,41.5451,1020.7622],[-3.5188,41.5393,1022.1369],[-3.5019,41.5292,1025.1823],[-3.4851,41.5241,1033.6506],[-3.4796,41.5209,1038.4368],[-3.4643,41.5278,1031.8674],[-3.458,41.5368,1031.0254],[-3.4559,41.5347,1027.6302],[-3.4515,41.5339,1033.0818],[-3.4517,41.5325,1031.7833],[-3.4423,41.5243,1034.1541],[-3.4322,41.5187,1040.7932],[-3.4244,41.5167,1032.0608],[-3.4206,41.5127,1014.2897],[-3.4227,41.5035,1049.0416],[-3.4264,41.4978,1050.1709],[-3.424,41.4827,1052.9937],[-3.4132,41.4761,1053.1456],[-3.4033,41.476,1048.1072],[-3.3903,41.4707,1050.0247],[-3.384,41.4657,1056.7327],[-3.3771,41.4643,1065.02],[-3.3672,41.4653,1052.1317],[-3.3649,41.4676,1056.3984],[-3.3625,41.4652,1053.9626],[-3.3628,41.4621,1053.8414],[-3.3563,41.463,1064.7515],[-3.3482,41.4565,1075.767],[-3.3466,41.4568,1080.5326],[-3.3473,41.4581,1069.6797],[-3.335,41.4601,1061.3518],[-3.3342,41.4619,1071.5637],[-3.3303,41.4607,1074.0074],[-3.3389,41.4529,1066.2285],[-3.34,41.4445,1031.8619],[-3.346,41.429,1043.9161],[-3.3413,41.4233,1051.8889],[-3.3416,41.417,1050.1448],[-3.3464,41.4139,1044.0181],[-3.3492,41.4072,1059.0247],[-3.3471,41.4045,1062.6475],[-3.3471,41.397,1071.842],[-3.3505,41.3949,1067.5315],[-3.3412,41.3915,1077.9954],[-3.3292,41.3763,1111.2009],[-3.3059,41.3683,1138.5061],[-3.3027,41.3631,1166.4985],[-3.2882,41.3602,1164.2903],[-3.281,41.3519,1179.3884],[-3.2721,41.3527,1153.7424],[-3.2693,41.3415,1198.3351],[-3.2481,41.3301,1197.1135],[-3.2362,41.3303,1187.3069],[-3.2368,41.3185,1470.6068],[-3.2202,41.3106,1437.2799],[-3.2086,41.3078,1478.9526],[-3.2069,41.3068,1476.2096],[-3.2073,41.3042,1491.5121],[-3.1921,41.3027,1481.1826],[-3.1885,41.3039,1491.0779],[-3.1785,41.2998,1485.1633],[-3.1708,41.299,1502.756],[-3.1648,41.2954,1483.9419],[-3.1483,41.292,1430.7628],[-3.1412,41.2922,1441.1606],[-3.13,41.2882,1420.1201],[-3.125,41.2909,1486.8514],[-3.1086,41.2879,1483.3914],[-3.1001,41.2801,1461.9271],[-3.0978,41.2799,1476.059],[-3.0938,41.284,1467.0258],[-3.0899,41.2834,1477.0785],[-3.0834,41.2797,1497.3076],[-3.0729,41.2778,1509.5856],[-3.0618,41.2734,1521.5833],[-3.0606,41.2765,1519.23],[-3.0355,41.2812,1455.1183],[-3.0179,41.2891,1442.2594],[-3.0113,41.2854,1357.7285],[-3.0059,41.2844,1361.6401],[-2.9792,41.2908,1350.4728],[-2.9674,41.2919,1264.5896],[-2.966,41.2932,1266.7252],[-2.9501,41.2926,1249.5725],[-2.944,41.2975,1247.0066],[-2.94,41.306,1243.0231],[-2.9411,41.3139,1238.4343]]]]}}