{"type":"Feature","properties":{"ISO3166-1-Alpha-3":"ESP","country":"Spain","fill":"#F0F","id":"5842","name":"Santa Cruz de Tenerife"},
"geometry":{"type": "MultiPolygon","coordinates": [[[[-17.88512,27.79792,0.0],[-17.87926,27.81452,0.0],[-17.88402,27.82758,0.0],[-17.89647,27.84032,0.0],[-17.91405,27.84955,0.0],[-17.93395,27.85204,0.0],[-17.96862,27.83222,1.502],[-17.98986,27.82372,0.0],[-17.99413,27.81875,0.0],[-17.99535,27.80805,0.0],[-18.00324,27.79881,0.0],[-18.04198,27.7652,0.0],[-18.05679,27.7565,114.2611],[-18.09777,27.76537,0.0],[-18.14049,27.76878,0.0],[-18.16723,27.75755,0.0],[-18.16039,27.72236,10.5337],[-18.14664,27.70856,103.647],[-18.12694,27.70026,0.0],[-18.05313,27.69123,0.0],[-18.03978,27.68134,0.0],[-18.03067,27.66787,0.0],[-18.01578,27.65347,0.0],[-17.99413,27.64224,35.1007],[-17.97948,27.64252,28.7532],[-17.9713,27.65436,159.7917],[-17.96862,27.67768,6.8603],[-17.96524,27.687,43.0368],[-17.95775,27.694,0.0],[-17.95031,27.69953,0.0],[-17.94693,27.70466,0.0],[-17.94514,27.71076,0.0],[-17.94066,27.71369,0.0],[-17.93513,27.71564,0.0],[-17.93017,27.71865,0.0],[-17.92691,27.72435,0.0],[-17.92691,27.73037,0.0],[-17.9276,27.73652,13.4888],[-17.92642,27.74282,50.1914],[-17.88512,27.79792,0.0]]],
[[[-17.20711,28.02669,120.7175],[-17.18498,28.03162,31.9548],[-17.16319,28.04501,18.4062],[-17.13353,28.06978,25.0891],[-17.11394,28.08097,64.5725],[-17.09842,28.10076,0.0],[-17.10428,28.12304,0.0],[-17.11612,28.14623,0.0],[-17.1704,28.1811,0.0],[-17.21272,28.20545,0.0],[-17.25917,28.21772,0.0],[-17.30967,28.20712,0.0],[-17.33882,28.17105,0.0],[-17.34338,28.13336,0.0],[-17.34322,28.09766,27.6981],[-17.31007,28.05347,132.5657],[-17.25789,28.02457,0.0],[-17.23271,28.01911,0.0],[-17.20711,28.02669,120.7175]]],
[[[-16.11775,28.57209,0.0],[-16.14135,28.58344,112.8662],[-16.20271,28.56403,165.0376],[-16.30016,28.56664,387.5366],[-16.3164,28.57209,4.7492],[-16.32274,28.55345,408.8586],[-16.34105,28.54658,259.751],[-16.36335,28.54304,104.4585],[-16.38121,28.53425,114.25],[-16.38939,28.52875,102.8818],[-16.40827,28.51984,166.2627],[-16.41198,28.51374,198.7068],[-16.4143,28.49921,326.9068],[-16.4204,28.49063,338.3371],[-16.43993,28.47525,233.0309],[-16.4869,28.43827,93.0298],[-16.50714,28.42413,0.0],[-16.52819,28.42211,0.0],[-16.53893,28.41787,0.0],[-16.56448,28.41534,0.0],[-16.58463,28.4011,0.0],[-16.60441,28.39967,0.0],[-16.6444,28.39643,37.182],[-16.66418,28.40073,0.0],[-16.68719,28.39278,17.374],[-16.71962,28.38326,61.9948],[-16.74157,28.37348,99.7666],[-16.77013,28.36628,349.4208],[-16.78254,28.36603,169.082],[-16.79418,28.36913,48.4927],[-16.81777,28.38356,9.8349],[-16.83744,28.39108,20.9794],[-16.89194,28.36866,0.0],[-16.91606,28.35497,38.6424],[-16.90661,28.33515,0.0],[-16.8734,28.30524,457.5687],[-16.8612,28.28189,206.0061],[-16.84724,28.26252,0.0],[-16.84398,28.25308,0.0],[-16.83715,28.20897,4.1862],[-16.82681,28.19575,21.3318],[-16.81054,28.18187,40.724],[-16.7954,28.16527,114.5391],[-16.78869,28.14378,61.0131],[-16.78063,28.12788,18.0918],[-16.74161,28.09382,56.1965],[-16.72789,28.0786,64.8292],[-16.72594,28.07148,70.6439],[-16.72411,28.05268,22.9083],[-16.72106,28.0445,0.0],[-16.71325,28.03828,0.0],[-16.70409,28.03498,125.5792],[-16.70575,28.023,7.0382],[-16.70355,28.01368,11.9333],[-16.69268,27.99985,0.9225],[-16.67634,27.9971,0.0],[-16.65744,28.00365,0.0],[-16.63442,28.01166,32.3133],[-16.57971,28.03033,6.3292],[-16.54577,28.02399,2.8761],[-16.53633,28.03647,0.0],[-16.52155,28.05757,2.2649],[-16.45678,28.11546,0.0],[-16.44103,28.13276,0.0],[-16.4277,28.14967,8.0814],[-16.42797,28.16769,15.0818],[-16.41923,28.21138,0.0],[-16.38677,28.26499,0.0],[-16.38002,28.28834,1.6884],[-16.371,28.29712,6.7336],[-16.36133,28.30442,0.0],[-16.35811,28.31463,1.4271],[-16.36058,28.32458,0.0],[-16.36611,28.34143,0.0],[-16.36577,28.36246,8.1852],[-16.35551,28.38115,0.0],[-16.34163,28.39133,0.0],[-16.3239,28.39747,0.0],[-16.29614,28.41776,0.0],[-16.26867,28.44332,0.0],[-16.24801,28.46112,2.8448],[-16.23139,28.48842,6.5918],[-16.1574,28.52448,139.0484],[-16.12707,28.54382,0.0],[-16.11775,28.57209,0.0]]],
[[[-17.86583,28.84064,0.0],[-17.89053,28.84395,0.0],[-17.91115,28.85562,42.755],[-17.93635,28.84032,236.9824],[-17.97069,28.81322,120.083],[-17.99682,28.7801,434.1258],[-18.00219,28.74958,0.0],[-17.9923,28.73859,0.0],[-17.97614,28.72818,493.2121],[-17.97141,28.71256,364.4165],[-17.96715,28.69674,291.9417],[-17.9631,28.67149,0.0],[-17.92484,28.61834,109.8683],[-17.91929,28.5963,26.8996],[-17.89859,28.57165,33.4476],[-17.89117,28.55565,15.4046],[-17.87969,28.54371,212.5867],[-17.87215,28.49443,35.9918],[-17.86512,28.47538,36.9853],[-17.84288,28.46503,177.3445],[-17.83707,28.45539,1.019],[-17.83088,28.45539,0.0],[-17.82169,28.47582,0.0],[-17.8033,28.50946,0.0],[-17.78334,28.5486,50.9238],[-17.75986,28.57682,0.0],[-17.75366,28.60303,1.1068],[-17.7456,28.62189,0.0],[-17.75753,28.65768,0.0],[-17.76525,28.67755,0.0],[-17.7511,28.69998,0.0],[-17.72104,28.73064,0.0],[-17.72188,28.74903,0.0],[-17.74144,28.75791,197.5795],[-17.7506,28.77476,0.0],[-17.7578,28.79865,0.0],[-17.75577,28.81851,0.0],[-17.765,28.82941,0.0],[-17.78148,28.84227,0.0],[-17.80138,28.84931,0.0],[-17.84166,28.83544,2.0308],[-17.86583,28.84064,0.0]]]]}}