{"type": "Feature","bbox": [-1.9808,39.5639,-1.1423,40.2037],"geometry": {"type": "MultiPolygon","coordinates": [[[[-1.5628,39.6638,733.511],[-1.5604,39.6589,697.8772],[-1.563,39.6555,719.0339],[-1.5578,39.6537,680.7064],[-1.5656,39.6473,674.7236],[-1.5577,39.6353,644.0],[-1.5533,39.634,644.0],[-1.5484,39.6277,644.0],[-1.5504,39.6204,644.0],[-1.5495,39.6167,644.0],[-1.5536,39.6132,644.0],[-1.5485,39.6133,644.0],[-1.5312,39.6042,644.0],[-1.5276,39.6048,644.0],[-1.5226,39.5994,644.0],[-1.5261,39.596,644.0],[-1.5265,39.5929,644.0],[-1.5167,39.5849,644.0],[-1.5191,39.5804,644.0],[-1.5178,39.5778,644.0],[-1.5122,39.5796,644.0],[-1.5103,39.5777,644.0],[-1.5136,39.5757,644.0],[-1.5129,39.5749,644.0],[-1.5043,39.5723,644.0],[-1.5043,39.5639,644.0],[-1.4834,39.5692,835.3831],[-1.4767,39.5691,836.7925],[-1.462,39.5766,806.2653],[-1.4549,39.5876,875.684],[-1.4456,39.6112,935.4604],[-1.4365,39.6288,899.6437],[-1.4179,39.655,927.5016],[-1.4039,39.666,1020.6219],[-1.3685,39.6896,1020.7596],[-1.3426,39.6816,938.1609],[-1.3257,39.6731,890.6108],[-1.3128,39.6705,876.9763],[-1.2919,39.6726,886.2288],[-1.2795,39.6779,864.5092],[-1.2619,39.6989,870.8918],[-1.271,39.7131,931.0171],[-1.2722,39.7185,913.2814],[-1.2709,39.7312,1022.2974],[-1.2754,39.737,998.1168],[-1.2491,39.7725,863.6016],[-1.234,39.7829,869.3191],[-1.2211,39.8032,914.639],[-1.2149,39.8088,1057.2393],[-1.2168,39.8144,1137.5278],[-1.2117,39.8203,1144.3615],[-1.2108,39.8382,1075.8247],[-1.1999,39.8595,846.6652],[-1.2007,39.8709,994.1963],[-1.1976,39.873,1033.9065],[-1.2,39.8738,1045.3766],[-1.2,39.8885,899.4663],[-1.1981,39.9088,847.6451],[-1.1958,39.914,623.6195],[-1.1986,39.916,634.5147],[-1.1972,39.9184,623.5293],[-1.1999,39.92,625.9197],[-1.2005,39.9229,648.3082],[-1.2089,39.9282,642.0873],[-1.2069,39.9322,620.5257],[-1.2097,39.9341,647.3195],[-1.2068,39.9407,679.266],[-1.2084,39.9414,647.0264],[-1.2081,39.9438,752.4745],[-1.2039,39.9494,850.1281],[-1.1539,39.9639,956.0966],[-1.1423,39.9719,869.287],[-1.1473,39.9886,1152.833],[-1.1634,40.0002,1181.3278],[-1.1651,40.0101,1463.921],[-1.1729,40.0109,1461.3418],[-1.1917,40.0016,1364.6959],[-1.1995,40.0035,1265.8676],[-1.2166,40.0016,1260.8926],[-1.248,39.9951,981.3426],[-1.2649,39.9988,929.3895],[-1.2863,40.0082,959.6835],[-1.3283,40.0134,1133.6067],[-1.3357,40.0167,1137.766],[-1.3643,40.0122,1151.2155],[-1.3768,40.0165,1268.8569],[-1.3812,40.0272,1272.0259],[-1.3831,40.039,1211.2981],[-1.3937,40.0531,1246.509],[-1.4007,40.0671,1216.3884],[-1.4131,40.0812,1226.4319],[-1.4135,40.0861,1232.9888],[-1.4202,40.0935,1402.144],[-1.4075,40.1014,1434.5338],[-1.4101,40.1045,1298.4628],[-1.4293,40.1136,1398.7922],[-1.4427,40.1181,1505.7876],[-1.4562,40.131,1503.7473],[-1.4572,40.1351,1514.8175],[-1.4488,40.1454,1548.2666],[-1.4423,40.1576,1482.8534],[-1.4391,40.197,1475.5431],[-1.4744,40.1851,1599.9209],[-1.5108,40.2037,1409.8373],[-1.5211,40.2022,1377.8333],[-1.5305,40.1936,1381.2832],[-1.544,40.1895,1238.5074],[-1.5472,40.1856,1282.2773],[-1.5456,40.1814,1245.4987],[-1.553,40.1695,1268.7159],[-1.5491,40.1596,1439.9675],[-1.5493,40.1489,1447.5098],[-1.5576,40.1478,1544.8069],[-1.5653,40.1585,1583.3121],[-1.5898,40.1542,1479.4161],[-1.6025,40.1669,1499.027],[-1.6165,40.1747,1510.3206],[-1.6214,40.1742,1613.2505],[-1.6237,40.177,1634.9185],[-1.6405,40.1705,1401.9266],[-1.6398,40.1653,1345.2814],[-1.642,40.1637,1284.1782],[-1.6718,40.1493,1367.3997],[-1.6646,40.1357,1379.3063],[-1.6561,40.1287,1368.7065],[-1.6539,40.1211,1327.8105],[-1.6606,40.1158,1399.9446],[-1.6652,40.1224,1349.4624],[-1.6817,40.121,1229.2386],[-1.6971,40.1228,1268.4602],[-1.7037,40.1252,1324.92],[-1.7138,40.1235,1403.5402],[-1.7148,40.1166,1413.3542],[-1.7198,40.1089,1377.5378],[-1.7157,40.0935,1333.9109],[-1.7238,40.0729,1375.606],[-1.7329,40.066,1373.1807],[-1.731,40.0623,1328.1979],[-1.7162,40.0543,1267.9476],[-1.711,40.0539,1300.7883],[-1.7278,40.0241,1269.8461],[-1.729,40.0157,1226.073],[-1.7278,39.9931,1092.7363],[-1.7434,39.9863,1088.5818],[-1.7669,39.9947,1087.9028],[-1.7881,39.9983,1092.7988],[-1.8058,39.9976,1137.0131],[-1.8063,39.9991,1185.6421],[-1.8146,40.0034,1197.2482],[-1.8149,40.0075,1128.0155],[-1.8191,40.0116,1052.3145],[-1.8245,40.012,1006.7087],[-1.8257,40.0165,1011.6362],[-1.8447,40.0204,1041.6483],[-1.8512,40.0176,1172.9553],[-1.8669,40.0236,1194.6373],[-1.8854,40.0237,1199.074],[-1.8923,40.0256,1208.4541],[-1.895,40.024,1228.6693],[-1.9066,40.0236,1208.7899],[-1.911,40.022,1189.5378],[-1.9263,40.0059,1191.208],[-1.9361,40.0002,1183.7416],[-1.9359,39.9928,1159.0413],[-1.9436,40.0004,1168.3202],[-1.958,40.0048,1203.7279],[-1.9659,40.0036,1199.613],[-1.9706,40.0005,1203.2001],[-1.9808,39.9894,1186.1754],[-1.9783,39.9739,1148.4874],[-1.9532,39.9639,1115.8562],[-1.9438,39.9549,1063.084],[-1.9484,39.9426,1088.028],[-1.9412,39.9153,1156.3289],[-1.9458,39.8966,1141.2549],[-1.9562,39.8819,1114.4673],[-1.9564,39.8756,1078.5391],[-1.9477,39.8594,1077.3861],[-1.9477,39.8553,1108.3602],[-1.9432,39.8537,1106.0442],[-1.9395,39.8457,1089.5077],[-1.9235,39.8406,1039.6189],[-1.9163,39.8405,994.343],[-1.9133,39.8387,1023.4041],[-1.906,39.8385,1086.226],[-1.9036,39.8399,1082.7031],[-1.8916,39.8334,1033.0698],[-1.8867,39.8333,947.8996],[-1.8849,39.8366,930.6865],[-1.8808,39.8321,927.7232],[-1.8854,39.8313,934.347],[-1.8858,39.8286,938.765],[-1.8797,39.8267,947.2839],[-1.8788,39.8238,924.9365],[-1.869,39.8151,931.9103],[-1.8709,39.8121,935.2328],[-1.8698,39.8045,928.0472],[-1.8622,39.8043,911.8663],[-1.8585,39.8065,911.6566],[-1.8525,39.8072,915.6356],[-1.8489,39.8055,923.9728],[-1.849,39.8033,920.5554],[-1.8451,39.8026,941.0524],[-1.8436,39.805,926.141],[-1.8405,39.8042,924.4893],[-1.8378,39.8068,912.7244],[-1.8339,39.806399999999996,918.7075],[-1.8298,39.8092,974.4288],[-1.8254,39.806,907.8558],[-1.819,39.8103,907.1913],[-1.8093,39.8103,889.1629],[-1.8102,39.8061,919.0669],[-1.8164,39.8001,893.3907],[-1.8098,39.7968,910.616],[-1.81,39.7935,917.5928],[-1.8034,39.795,876.1633],[-1.8059,39.7898,878.7986],[-1.8039,39.7867,883.0436],[-1.7992,39.7916,873.5822],[-1.797,39.7914,872.7766],[-1.7972,39.787,875.5363],[-1.7849,39.7866,865.0684],[-1.782,39.7886,1019.1218],[-1.7676,39.7897,984.4853],[-1.7599,39.7876,982.1904],[-1.7019,39.7548,875.6451],[-1.6783,39.7501,859.8266],[-1.6748,39.7476,867.7371],[-1.674,39.7425,893.3917],[-1.6709,39.7385,902.7332],[-1.6686,39.7414,918.1388],[-1.6651,39.7424,930.7046],[-1.6508,39.7394,937.3833],[-1.6352,39.7398,856.8373],[-1.6345,39.7333,820.1396],[-1.6375,39.7305,805.2014],[-1.6342,39.7274,808.1352],[-1.6334,39.7224,813.2099],[-1.6256,39.723,802.4929],[-1.6231,39.7207,801.4282],[-1.6252,39.717,805.6002],[-1.6243,39.7151,791.2671],[-1.6204,39.715,800.8204],[-1.617,39.7127,785.673],[-1.6177,39.7057,706.4886],[-1.6143,39.7,679.647],[-1.6128,39.7083,878.3448],[-1.6137,39.7129,872.7057],[-1.6159,39.7147,894.3275],[-1.6088,39.7175,854.1414],[-1.59,39.7165,739.2659],[-1.5906,39.718,732.1144],[-1.5866,39.7181,789.0233],[-1.5867,39.7197,762.5803],[-1.5836,39.7175,846.223],[-1.5779,39.719,876.4941],[-1.5688,39.7151,834.6869],[-1.559,39.7138,859.6102],[-1.5546,39.7149,869.9048],[-1.5484,39.722,879.6066],[-1.5374,39.7268,913.3655],[-1.5362,39.7317,899.9015],[-1.5314,39.7308,895.6371],[-1.5298,39.729,878.3898],[-1.5099,39.7256,747.192],[-1.5036,39.722,862.7776],[-1.5119,39.7192,847.2697],[-1.5106,39.7173,873.8685],[-1.5119,39.7122,880.3796],[-1.5355,39.7025,929.8342],[-1.5437,39.6967,937.0416],[-1.5511,39.6891,761.1091],[-1.5565,39.6779,685.9398],[-1.5624,39.6728,690.7315],[-1.5619,39.6706,689.158],[-1.5551,39.6656,685.9519],[-1.5628,39.6638,733.511]]]]}
,"properties": {"GID_3": "ESP.4.3.4_1","GID_0": "ESP","country": "Spain","GID_1": "ESP.4_1","province": "Castilla-LaMancha","NL_NAME_1": "NA","GID_2": "ESP.4.3_1","county": "Cuenca","NL_NAME_2": "NA","city": "n.a.(96)","VARNAME_3": "NA","NL_NAME_3": "NA","TYPE_3": "Comarca","ENGTYPE_3": "Comarca","CC_3": "NA","HASC_3": "NA","name": "n.a.(96).city","area_km2": 2489.042,"hist_schema_id": "Elevation0-9000","hist_area_km2": {"625": 0.715,"650": 8.451,"675": 5.359,"700": 4.918,"725": 7.034,"750": 9.985,"775": 13.798,"800": 19.489,"825": 27.004,"850": 35.466,"875": 65.649,"900": 79.697,"925": 90.769,"950": 131.877,"975": 167.775,"1000": 182.765,"1025": 188.782,"1050": 188.728,"1075": 174.939,"1100": 159.447,"1125": 128.144,"1150": 100.788,"1175": 91.806,"1200": 87.356,"1225": 83.064,"1250": 76.519,"1275": 72.168,"1300": 63.82,"1325": 58.353,"1350": 44.631,"1375": 32.543,"1400": 24.991,"1425": 20.772,"1450": 15.987,"1475": 10.1,"1500": 7.051,"1525": 4.231,"1550": 2.237,"1575": 1.443,"1600": 0.292,"1625": 0.049,"1650": 0.049}}}