{"type":"Feature","properties":{"GID_3":"ESP.4.2.1_1","GID_0":"ESP","country":"Spain","GID_1":"ESP.4_1","province":"Castilla-LaMancha","NL_NAME_1":"NA","GID_2":"ESP.4.2_1","county":"CiudadReal","NL_NAME_2":"NA","city":"n.a.(79)","VARNAME_3":"NA","NL_NAME_3":"NA","TYPE_3":"Comarca","ENGTYPE_3":"Comarca","CC_3":"NA","HASC_3":"NA","name":"n.a.(79).city"},
"geometry":{"type": "MultiPolygon","coordinates": [[[[-3.4178,38.6673,704.8588],[-3.4107,38.6741,714.9038],[-3.4081,38.6835,724.063],[-3.4041,38.6872,753.9875],[-3.387,38.6921,743.0682],[-3.3647,38.693,778.5879],[-3.3506,38.6893,777.235],[-3.3466,38.6902,762.3625],[-3.335,38.6873,790.8003],[-3.3204,38.6759,729.9609],[-3.3161,38.6782,732.5237],[-3.3089,38.675,733.6566],[-3.2952,38.679,736.2894],[-3.2922,38.6832,739.378],[-3.2859,38.684,741.0186],[-3.2753,38.6947,760.0],[-3.2754,38.7059,760.0],[-3.2697,38.7077,760.0],[-3.2659,38.7071,760.0],[-3.2616,38.7095,760.0],[-3.2604,38.7121,760.0],[-3.2455,38.7159,760.0],[-3.2442,38.7224,778.8145],[-3.2471,38.7264,772.1465],[-3.249,38.7381,784.1072],[-3.2476,38.7427,781.3163],[-3.2576,38.7604,791.2897],[-3.2612,38.7582,788.9672],[-3.266,38.7581,780.9083],[-3.2665,38.7635,784.5372],[-3.2835,38.762,762.2906],[-3.286,38.7648,764.5618],[-3.2802,38.7768,774.6954],[-3.2717,38.7795,778.1892],[-3.2721,38.7867,764.8306],[-3.2677,38.7882,770.5862],[-3.2712,38.7992,754.0826],[-3.2633,38.8014,761.5441],[-3.2465,38.802,777.397],[-3.2464,38.806,769.0264],[-3.2348,38.8054,776.8903],[-3.2268,38.8086,782.7194],[-3.2162,38.8102,782.9958],[-3.196,38.8286,789.8668],[-3.1934,38.8432,956.7085],[-3.1986,38.8525,854.0566],[-3.1999,38.8591,786.7007],[-3.2126,38.8769,717.8326],[-3.2031,38.8781,718.0839],[-3.1875,38.8761,722.7769],[-3.1785,38.8743,727.7491],[-3.1728,38.871,727.8969],[-3.1717,38.8764,739.2345],[-3.1731,38.8796,728.6359],[-3.1577,38.8877,734.459],[-3.1415,38.8914,741.676],[-3.1346,38.8958,746.671],[-3.1259,38.896,750.4949],[-3.118,38.899,753.8523],[-3.1205,38.9173,799.2507],[-3.1329,38.9207,805.6866],[-3.1327,38.9255,859.3727],[-3.1348,38.9303,863.3499],[-3.1405,38.9339,870.1141],[-3.1386,38.955,812.098],[-3.1599,38.9533,816.1388],[-3.1663,38.9551,814.907],[-3.1675,38.9587,810.2057],[-3.164,38.9594,803.0112],[-3.159,38.9681,792.7902],[-3.1668,38.9743,766.8607],[-3.1842,38.97,772.3367],[-3.1853,38.9678,772.6707],[-3.2028,38.9667,767.8647],[-3.2124,38.9767,751.1127],[-3.2331,38.9865,731.3474],[-3.2543,38.9938,725.4526],[-3.2551,38.9996,718.9441],[-3.2379,39.0019,722.3705],[-3.2321,39.0061,712.9807],[-3.2297,39.0102,710.0151],[-3.2289,39.0095,707.6885],[-3.2169,39.0174,698.2761],[-3.2094,39.0199,701.3973],[-3.2029,39.0164,711.4453],[-3.1994,39.017,710.4297],[-3.1963,39.0253,716.7123],[-3.1857,39.0258,720.9863],[-3.1672,39.036,698.7324],[-3.1522,39.0413,708.7898],[-3.1468,39.0389,707.3907],[-3.1394,39.0308,714.6995],[-3.1197,39.0187,744.4471],[-3.1002,39.0132,750.7294],[-3.0779,39.0143,766.7777],[-3.0702,39.01,768.3206],[-3.0518,38.989,813.6002],[-3.0334,38.9837,852.578],[-3.0221,38.9773,872.8486],[-3.0138,38.9752,869.293],[-3.0037,38.968,877.2366],[-2.9928,38.9636,902.2064],[-2.9888,38.9643,881.634],[-2.965,38.9595,907.0068],[-2.9611,38.956,902.9785],[-2.9535,38.9548,901.4645],[-2.9392,38.9593,891.5302],[-2.9247,38.9697,874.0995],[-2.9171,38.9724,850.8131],[-2.9034,38.9852,804.3763],[-2.8937,38.9735,792.4939],[-2.8886,38.9723,782.2136],[-2.8879,38.9698,783.5],[-2.8902,38.9679,810.8538],[-2.89,38.9651,789.4517],[-2.8857,38.9612,783.5],[-2.8791,38.9605,789.0535],[-2.8773,38.9562,783.5],[-2.8725,38.96,785.1006],[-2.8736,38.9628,829.189],[-2.8721,38.9681,852.4207],[-2.8764,38.969,849.9711],[-2.881,38.9858,853.905],[-2.8671,38.997,878.3419],[-2.8528,39.0185,913.9889],[-2.8521,39.0222,924.9502],[-2.8583,39.0264,968.4919],[-2.8878,39.0252,916.5548],[-2.8922,39.0448,861.8185],[-2.8959,39.0525,879.7802],[-2.9031,39.0616,832.7495],[-2.9039,39.0667,855.3746],[-2.9188,39.0796,801.3716],[-2.9256,39.0989,747.1562],[-2.9083,39.0926,760.9481],[-2.8743,39.0901,805.66],[-2.86,39.0871,803.5469],[-2.8485,39.0889,787.2088],[-2.8284,39.0891,794.3716],[-2.8224,39.0927,792.8327],[-2.8311,39.1053,771.735],[-2.8341,39.1123,764.7012],[-2.8335,39.1209,750.1229],[-2.8426,39.1345,724.0084],[-2.8228,39.1535,719.2788],[-2.8077,39.177,709.5037],[-2.7823,39.1959,705.1862],[-2.7731,39.2094,700.5999],[-2.7711,39.2154,699.9887],[-2.7597,39.2304,696.9762],[-2.7303,39.255,693.514],[-2.7231,39.2648,686.3286],[-2.722,39.2687,685.1237],[-2.7233,39.2777,681.8888],[-2.7267,39.2864,683.0419],[-2.7343,39.293,687.6154],[-2.7391,39.3085,676.4196],[-2.7436,39.316,683.8777],[-2.7422,39.3182,678.4364],[-2.7465,39.3224,679.3958],[-2.7562,39.3382,675.9565],[-2.7625,39.3585,676.7041],[-2.772,39.3696,679.6351],[-2.7763,39.3863,674.0793],[-2.7759,39.3948,677.6367],[-2.793,39.3978,676.6589],[-2.7941,39.3943,676.0478],[-2.7981,39.3928,675.0336],[-2.8018,39.3887,673.8841],[-2.8087,39.3874,673.348],[-2.8101,39.3829,672.2995],[-2.813,39.3824,672.5816],[-2.8132,39.3755,671.194],[-2.8167,39.3684,668.8331],[-2.8281,39.3569,666.6064],[-2.8456,39.3493,669.3241],[-2.8532,39.3502,665.3833],[-2.8608,39.3472,666.5518],[-2.8599,39.3486,666.5518],[-2.8646,39.3569,672.4958],[-2.8823,39.3509,669.9877],[-2.8827,39.3525,668.5433],[-2.8862,39.3533,668.528],[-2.8887,39.3574,671.8892],[-2.893,39.3587,670.7855],[-2.8965,39.3668,671.125],[-2.8873,39.3785,673.8909],[-2.8864,39.3843,672.7072],[-2.8845,39.3854,671.8801],[-2.8705,39.3844,674.0355],[-2.8701,39.3911,663.9993],[-2.874,39.3948,664.7243],[-2.8773,39.3954,663.5883],[-2.8794,39.3996,671.4901],[-2.8858,39.4056,677.4426],[-2.8896,39.4219,683.458],[-2.8932,39.4214,685.3098],[-2.9,39.425,681.4098],[-2.8973,39.4301,686.4353],[-2.9026,39.4297,684.5451],[-2.9018,39.4325,684.6007],[-2.9042,39.4342,683.5434],[-2.9038,39.4284,681.9962],[-2.9013,39.4272,683.2659],[-2.9034,39.4262,680.5277],[-2.9124,39.4377,683.0131],[-2.9142,39.447,685.8558],[-2.9213,39.4503,682.7115],[-2.9219,39.452,684.887],[-2.9253,39.4524,680.1558],[-2.9269,39.4507,678.6252],[-2.9263,39.4542,681.6034],[-2.9317,39.4528,678.8395],[-2.9321,39.4554,675.0423],[-2.9292,39.4575,684.6421],[-2.931,39.4628,673.5903],[-2.9276,39.4708,675.4067],[-2.9293,39.4697,673.847],[-2.9313,39.4715,675.1328],[-2.9552,39.4549,670.0264],[-2.9567,39.4472,679.621],[-2.966,39.448,668.5068],[-2.9776,39.4447,659.1089],[-2.9947,39.4514,667.2311],[-3.0,39.4489,666.0629],[-2.9995,39.4417,662.7125],[-3.0148,39.4451,665.1182],[-3.0225,39.457,665.9215],[-3.0497,39.4507,691.0442],[-3.0695,39.4503,717.2711],[-3.0757,39.4581,714.2847],[-3.1001,39.4754,697.1316],[-3.1101,39.476,702.522],[-3.1433,39.4956,678.4013],[-3.1572,39.4961,678.9521],[-3.1844,39.488,673.8836],[-3.1851,39.4742,690.1663],[-3.21,39.4763,679.3716],[-3.2557,39.4709,664.8428],[-3.2941,39.4709,644.9775],[-3.2972,39.4601,644.0176],[-3.3022,39.4546,643.5553],[-3.3033,39.4502,643.3307],[-3.3141,39.4386,640.7238],[-3.3157,39.4337,640.6366],[-3.3144,39.4313,640.0741],[-3.3163,39.4289,639.549],[-3.3154,39.4247,638.4337],[-3.3117,39.4193,637.8533],[-3.309,39.4103,637.2191],[-3.3113,39.4043,636.4792],[-3.309,39.3992,637.1873],[-3.3305,39.4054,635.6571],[-3.3495,39.4083,638.94],[-3.4102,39.4046,661.3713],[-3.4123,39.4013,660.609],[-3.4199,39.3993,665.972],[-3.4269,39.3944,666.8827],[-3.4478,39.387,666.4672],[-3.4704,39.3722,673.4451],[-3.4768,39.3432,681.1225],[-3.4857,39.3412,685.4978],[-3.4928,39.3346,687.4132],[-3.5249,39.315,748.0953],[-3.5313,39.3093,757.2648],[-3.5325,39.3042,787.0039],[-3.5482,39.3021,801.0524],[-3.5561,39.2991,854.4305],[-3.567,39.2994,1059.274],[-3.5737,39.3008,1033.5103],[-3.5773,39.3053,1104.6812],[-3.5865,39.3077,1049.2097],[-3.6078,39.3022,1108.0736],[-3.6116,39.3034,1130.5436],[-3.6227,39.3006,1110.4395],[-3.6238,39.3027,1082.0974],[-3.6388,39.2998,1056.0068],[-3.6574,39.2994,1046.6228],[-3.6751,39.2967,985.7222],[-3.6801,39.2983,965.9495],[-3.6796,39.2921,1015.2826],[-3.6837,39.2903,896.3625],[-3.688,39.2849,833.428],[-3.7012,39.2776,1027.0739],[-3.7206,39.2698,1019.8348],[-3.7224,39.2696,901.172],[-3.73,39.2748,782.2958],[-3.7406,39.2763,745.9197],[-3.7447,39.2828,757.9296],[-3.7441,39.2738,746.2408],[-3.7527,39.2618,726.921],[-3.7513,39.2248,893.9905],[-3.7573,39.2136,669.0374],[-3.7652,39.2121,658.5786],[-3.7709,39.2139,663.5336],[-3.769,39.2002,649.8266],[-3.7657,39.1923,644.2318],[-3.7656,39.1573,634.6277],[-3.7624,39.1524,635.3138],[-3.7784,39.1416,622.0721],[-3.802,39.1345,628.8256],[-3.804,39.1258,611.6602],[-3.8026,39.1144,604.807],[-3.804,39.1126,604.5099],[-3.8058,39.1132,604.5029],[-3.8057,39.1106,608.4161],[-3.8028,39.1071,608.5386],[-3.7942,39.1067,605.4813],[-3.7945,39.1054,604.4034],[-3.7994,39.1052,602.7283],[-3.7906,39.0996,608.6755],[-3.7812,39.101,602.572],[-3.7796,39.0988,609.511],[-3.7708,39.0948,617.8419],[-3.7618,39.0928,618.3401],[-3.7395,39.0928,616.9701],[-3.7333,39.0885,613.911],[-3.7335,39.0814,617.5343],[-3.7277,39.0693,611.7772],[-3.7247,39.0659,618.0362],[-3.7172,39.0625,620.0127],[-3.7031,39.0434,624.9318],[-3.7044,39.0425,624.9318],[-3.7022,39.0413,628.105],[-3.6957,39.0302,622.8669],[-3.6876,39.0233,638.2538],[-3.6986,39.0053,620.9433],[-3.6849,38.9908,629.2714],[-3.6724,38.9881,639.0519],[-3.656,38.9953,633.348],[-3.6319,38.9987,634.9891],[-3.6217,38.9912,636.4787],[-3.6153,38.9782,638.6641],[-3.616,38.9748,639.8494],[-3.5922,38.9511,642.6433],[-3.5761,38.9269,644.3397],[-3.5754,38.9234,644.4722],[-3.5563,38.9278,646.2156],[-3.555,38.9062,709.1098],[-3.535,38.8792,730.622],[-3.5299,38.861,774.4084],[-3.5211,38.8489,883.3335],[-3.5174,38.8486,868.7071],[-3.5118,38.8521,809.352],[-3.514,38.845,864.2911],[-3.5075,38.8293,837.7535],[-3.509,38.8194,880.2361],[-3.5078,38.8151,854.0394],[-3.5162,38.7837,668.7158],[-3.5137,38.7743,670.8466],[-3.5145,38.7667,740.0468],[-3.5219,38.7641,771.9075],[-3.5249,38.7614,773.845],[-3.5234,38.76,766.6351],[-3.5249,38.7563,765.7225],[-3.5338,38.7513,792.5388],[-3.5296,38.7498,791.6414],[-3.5321,38.7469,777.4195],[-3.535,38.7461,780.4099],[-3.5328,38.7383,745.7783],[-3.5342,38.7267,716.5056],[-3.5365,38.7234,708.5546],[-3.56,38.7049,673.0889],[-3.5743,38.6814,748.2552],[-3.5886,38.6673,792.5831],[-3.5886,38.6638,803.16],[-3.5845,38.6574,845.8165],[-3.5793,38.6534,835.2007],[-3.5747,38.6446,853.2321],[-3.5607,38.6362,837.8577],[-3.5527,38.6267,771.7956],[-3.5529,38.6222,765.7222],[-3.5443,38.6164,734.9547],[-3.5396,38.61,777.3651],[-3.5317,38.5856,760.8302],[-3.5331,38.5798,830.4739],[-3.5195,38.5758,790.5367],[-3.4934,38.5784,748.7515],[-3.4712,38.5712,801.6179],[-3.4547,38.5683,899.8517],[-3.438,38.5674,893.0439],[-3.4329,38.5649,858.6322],[-3.4313,38.5714,893.0046],[-3.4344,38.5788,828.5468],[-3.4353,38.5864,802.0051],[-3.4539,38.6049,777.6666],[-3.4509,38.6069,788.1426],[-3.4556,38.6117,764.6913],[-3.4525,38.6214,741.5901],[-3.453,38.6277,737.0641],[-3.437,38.6489,715.7828],[-3.4265,38.6673,705.7886],[-3.4178,38.6673,704.8588]]]]}}