{"type": "Feature","bbox": [-2.253,42.8362,-1.3786,43.3142],"geometry": {"type": "MultiPolygon","coordinates": [[[[-1.8054,42.91,496.772],[-1.7994,42.9205,768.2437],[-1.8141,42.9307,969.7513],[-1.8072,42.9349,819.2927],[-1.8017,42.935,731.3761],[-1.7923,42.9321,673.4731],[-1.7849,42.9331,767.2011],[-1.7708,42.9438,784.7147],[-1.7641,42.9426,749.6588],[-1.7651,42.9414,753.4662],[-1.7584,42.932,656.218],[-1.7587,42.9261,831.495],[-1.7536,42.9266,891.4508],[-1.7515,42.9251,884.7377],[-1.7345,42.9294,865.5629],[-1.7304,42.929,835.6285],[-1.73,42.9309,762.6577],[-1.7236,42.9321,685.9317],[-1.7096,42.9313,630.8986],[-1.7101,42.9271,730.4151],[-1.7042,42.9185,712.4108],[-1.7066,42.9149,651.7679],[-1.7053,42.9076,712.2634],[-1.6973,42.9084,674.8796],[-1.6938,42.9113,692.0046],[-1.6899,42.9118,733.7744],[-1.6902,42.9128,743.4366],[-1.6882,42.9128,744.0223],[-1.6771,42.9211,728.0582],[-1.6647,42.9204,674.2592],[-1.6631,42.9135,796.7418],[-1.6591,42.909,887.9962],[-1.6629,42.9076,888.6254],[-1.658,42.9034,774.4633],[-1.6599,42.9011,898.5374],[-1.6524,42.8955,914.8294],[-1.6563,42.8922,792.6577],[-1.6736,42.8878,590.6749],[-1.6744,42.8859,552.1716],[-1.6803,42.8832,497.2164],[-1.6771,42.8785,525.2355],[-1.6805,42.8767,479.8318],[-1.6795,42.8745,478.237],[-1.6724,42.8719,503.5906],[-1.6697,42.8641,650.209],[-1.6668,42.8624,677.5817],[-1.6678,42.8602,811.5379],[-1.6577,42.85,799.3622],[-1.6395,42.8413,600.6078],[-1.6339,42.8425,535.1263],[-1.6034,42.8362,454.2717],[-1.596,42.8393,508.0095],[-1.5976,42.8546,757.5932],[-1.5872,42.8657,749.9304],[-1.5849,42.8702,806.9814],[-1.5857,42.8728,863.0204],[-1.5843,42.8752,844.7228],[-1.5859,42.8813,736.9131],[-1.5815,42.8878,873.8009],[-1.583,42.8898,910.8656],[-1.5796,42.8967,860.861],[-1.5812,42.9006,779.5863],[-1.5805,42.9116,792.6233],[-1.5733,42.9161,767.3542],[-1.5544,42.9106,732.4622],[-1.5603,42.9227,768.1334],[-1.5541,42.9287,719.8799],[-1.5519,42.9337,741.3601],[-1.558,42.9374,780.7522],[-1.5563,42.9442,779.2946],[-1.5653,42.9505,993.12],[-1.5616,42.956,1072.348],[-1.5618,42.9609,1046.6437],[-1.5654,42.9661,994.5034],[-1.5627,42.9708,922.3624],[-1.5636,42.9735,998.4388],[-1.5665,42.9748,966.7099],[-1.5666,42.9794,1002.2528],[-1.5639,42.9859,1068.0122],[-1.5635,42.993899999999996,1043.944],[-1.5558,42.9991,1219.3986],[-1.5497,43.0005,1145.5984],[-1.5571,43.0089,1106.3741],[-1.5535,43.0138,1021.4802],[-1.5529,43.0206,1032.3882],[-1.5553,43.0269,1257.1121],[-1.5514,43.028,1292.9928],[-1.5508,43.0325,1342.4584],[-1.5551,43.04,1226.4647],[-1.5409,43.0448,884.1722],[-1.5313,43.0438,1092.5216],[-1.5233,43.0476,998.585],[-1.5211,43.0514,915.9907],[-1.522,43.0629,1037.8912],[-1.5187,43.0643,1020.3345],[-1.5019,43.0605,1056.9963],[-1.4944,43.0563,1190.9414],[-1.4965,43.0495,1216.0408],[-1.4937,43.0439,1181.5249],[-1.5078,43.0311,1089.1123],[-1.4921,43.0372,1173.5665],[-1.4867,43.0363,1149.4528],[-1.4838,43.0336,1129.8821],[-1.4769,43.0358,1017.2314],[-1.4703,43.0345,904.1678],[-1.4709,43.0408,777.707],[-1.4687,43.0426,734.379],[-1.4569,43.0413,769.4628],[-1.4502,43.0454,647.0771],[-1.4509,43.0509,589.2491],[-1.4471,43.0531,554.071],[-1.4722,43.0816,930.9114],[-1.4734,43.0866,978.6722],[-1.4713,43.0918,943.8482],[-1.463,43.0984,865.6671],[-1.442,43.1096,726.6281],[-1.4435,43.1117,746.949],[-1.4271,43.1182,973.2891],[-1.4244,43.125,963.3979],[-1.4157,43.1285,902.0],[-1.415,43.1356,942.0856],[-1.411,43.1414,1095.9506],[-1.4145,43.147,1056.3596],[-1.4137,43.1503,1014.3113],[-1.4088,43.1548,924.1163],[-1.4029,43.1561,842.3299],[-1.4047,43.1634,890.0671],[-1.402,43.1668,756.2201],[-1.4019,43.1785,737.3118],[-1.3916,43.1861,790.9229],[-1.3849,43.1883,820.7723],[-1.3846,43.2238,977.0875],[-1.383,43.2262,985.3459],[-1.3787,43.2282,978.6715],[-1.3786,43.2324,915.2728],[-1.3842,43.2532,326.8868],[-1.3988,43.2651,588.5329],[-1.4045,43.2674,605.1122],[-1.4069,43.2709,685.5043],[-1.4132,43.2734,718.7886],[-1.4269,43.2672,621.6876],[-1.4383,43.2667,570.6232],[-1.469,43.2737,281.2696],[-1.4845,43.2818,156.1115],[-1.494,43.2824,97.779],[-1.5018,43.2881,94.2005],[-1.5059,43.2933,69.5334],[-1.5219,43.2934,115.3206],[-1.5617,43.2884,91.4442],[-1.5612,43.285,86.9636],[-1.5562,43.2798,108.3395],[-1.563,43.2695,171.6346],[-1.5669,43.2592,532.4874],[-1.5747,43.2505,532.5049],[-1.5819,43.2528,471.4425],[-1.608,43.2523,438.9199],[-1.6166,43.2573,494.2834],[-1.6216,43.2634,456.6113],[-1.6302,43.2849,237.1578],[-1.6268,43.2918,348.6522],[-1.6239,43.304,689.8821],[-1.634,43.3083,846.0552],[-1.6445,43.3067,650.5934],[-1.6553,43.3125,527.0735],[-1.6694,43.3142,194.4706],[-1.6865,43.3092,336.1714],[-1.6947,43.3118,475.8164],[-1.7064,43.3065,497.3828],[-1.7133,43.3,435.9767],[-1.7226,43.3001,356.8382],[-1.7289,43.2961,120.0724],[-1.7296,43.2939,51.6056],[-1.7435,43.295,91.6736],[-1.7503,43.293,131.64],[-1.7544,43.2895,117.9847],[-1.7554,43.2907,189.096],[-1.7613,43.2897,138.6832],[-1.7614,43.288,146.8304],[-1.7647,43.2864,190.3549],[-1.7732,43.2891,521.7217],[-1.7832,43.2868,724.1248],[-1.7865,43.2797,709.0842],[-1.7939,43.2765,657.8315],[-1.7913,43.2699,495.0596],[-1.7952,43.2642,605.7594],[-1.7929,43.2566,771.6444],[-1.7958,43.2535,710.0245],[-1.7949,43.2469,818.3367],[-1.804,43.2443,741.8079],[-1.8054,43.2401,636.3835],[-1.8075,43.239,590.0016],[-1.8188,43.2389,480.8621],[-1.8213,43.237,405.6731],[-1.8225,43.2314,334.5067],[-1.825,43.2287,263.5597],[-1.8296,43.229,257.3139],[-1.832,43.2274,247.9535],[-1.8347,43.2285,292.7156],[-1.8334,43.2246,259.0794],[-1.8348,43.2242,238.1763],[-1.8355,43.2258,231.693],[-1.84,43.2239,212.2159],[-1.8446,43.225,212.4223],[-1.8463,43.2237,229.2133],[-1.8492,43.2244,203.9552],[-1.849,43.228,197.5704],[-1.8517,43.2267,202.4148],[-1.8503,43.2234,232.351],[-1.8525,43.2213,217.0905],[-1.8524,43.2187,277.7979],[-1.8571,43.2187,199.0606],[-1.8544,43.2177,189.8865],[-1.8542,43.2158,183.4016],[-1.8602,43.2177,183.12],[-1.8603,43.2122,199.1251],[-1.8622,43.2118,196.4324],[-1.864,43.2129,208.1125],[-1.8632,43.2158,175.7383],[-1.8666,43.2181,155.5265],[-1.8645,43.222,159.7874],[-1.8662,43.2243,152.0],[-1.8646,43.2244,163.0261],[-1.867,43.2263,159.4305],[-1.8675,43.2304,152.0],[-1.8725,43.226,152.0],[-1.8766,43.2319,152.0],[-1.8807,43.2281,157.1726],[-1.8778,43.2274,176.5309],[-1.88,43.2252,203.2463],[-1.8774,43.2233,221.3463],[-1.8806,43.2206,154.8157],[-1.8738,43.2203,152.0],[-1.875,43.2183,157.4923],[-1.8808,43.2179,162.5942],[-1.8789,43.2172,152.0],[-1.8793,43.2146,152.0],[-1.877,43.2175,152.0],[-1.8754,43.2159,155.1257],[-1.8777,43.214,152.0],[-1.875,43.2133,152.7037],[-1.8749,43.2108,137.8027],[-1.8813,43.2123,155.4484],[-1.8817,43.2068,134.6743],[-1.8867,43.2144,129.659],[-1.8895,43.2139,124.3597],[-1.8883,43.2116,120.8961],[-1.8899,43.2074,93.0801],[-1.8922,43.2103,104.9612],[-1.9029,43.2112,95.6791],[-1.9082,43.2172,119.575],[-1.9032,43.2184,103.543],[-1.9095,43.2205,67.9739],[-1.9099,43.223,70.2212],[-1.9086,43.2241,82.574],[-1.9108,43.2272,87.3627],[-1.9159,43.223,84.7061],[-1.913,43.2213,82.8741],[-1.9132,43.2093,360.7332],[-1.9109,43.2043,381.1287],[-1.9146,43.1943,487.2886],[-1.922,43.1867,631.4278],[-1.9229,43.179,647.0018],[-1.9209,43.1726,789.5042],[-1.9168,43.1692,864.0276],[-1.9158,43.1647,847.0984],[-1.9203,43.1564,862.8702],[-1.9204,43.1501,952.5772],[-1.9044,43.1438,939.2293],[-1.9022,43.1355,999.1697],[-1.9155,43.1286,982.9611],[-1.9216,43.1221,930.0332],[-1.9206,43.1195,852.9311],[-1.9236,43.1154,677.097],[-1.9312,43.1137,514.9009],[-1.9336,43.1103,479.7516],[-1.9394,43.1084,424.3744],[-1.9379,43.1069,423.2136],[-1.9394,43.1046,460.1162],[-1.9444,43.1032,420.0507],[-1.9488,43.0997,423.1066],[-1.9475,43.0975,429.3028],[-1.9658,43.0952,550.0388],[-1.9733,43.0916,828.5667],[-1.971,43.0863,804.1038],[-1.9731,43.0846,835.9755],[-1.9884,43.0784,329.8785],[-1.9897,43.0795,321.1149],[-2.0123,43.0731,229.7393],[-2.0144,43.071,304.1379],[-2.015,43.066,380.8546],[-2.0228,43.0652,614.4634],[-2.018,43.0534,504.9378],[-2.0208,43.0466,523.8211],[-2.0303,43.0376,727.4439],[-2.0317,43.0317,1052.52],[-2.0414,43.0297,1242.1281],[-2.0386,43.0157,1206.925],[-2.0314,43.0065,1354.9597],[-2.0329,43.0001,1351.1698],[-2.0314,42.9982,1360.7671],[-2.0283,42.9988,1367.787],[-2.0327,42.9872,1240.926],[-2.0364,42.9858,1249.7277],[-2.0383,42.981,1248.3706],[-2.0449,42.9786,1229.9027],[-2.0504,42.9797,1220.4631],[-2.0525,42.9763,1214.0157],[-2.0844,42.9757,880.1638],[-2.0952,42.9725,988.2874],[-2.0986,42.9599,646.1711],[-2.1048,42.9532,849.23],[-2.1037,42.9493,951.4023],[-2.1077,42.9488,851.7449],[-2.1176,42.9422,922.7699],[-2.1295,42.9394,914.1787],[-2.1367,42.9413,927.9158],[-2.138,42.9401,898.7117],[-2.1426,42.9417,877.7468],[-2.157,42.9423,878.4847],[-2.1677,42.9358,866.2395],[-2.1809,42.9351,873.0749],[-2.18,42.938,828.6556],[-2.1923,42.949,867.1321],[-2.1991,42.9512,900.6483],[-2.2037,42.9495,918.4308],[-2.2102,42.9499,963.2863],[-2.2109,42.9453,921.8619],[-2.2162,42.942,860.2059],[-2.2155,42.9369,756.806],[-2.2203,42.9332,701.2274],[-2.2321,42.9318,637.1917],[-2.2355,42.9266,651.5101],[-2.2378,42.9214,772.7919],[-2.2377,42.896,1047.3418],[-2.2399,42.8952,1058.884],[-2.2484,42.8974,1090.6699],[-2.253,42.8928,1070.0566],[-2.2409,42.8856,924.4622],[-2.2421,42.8795,873.3111],[-2.2405,42.865,565.5742],[-2.2359,42.851,1052.2533],[-2.2063,42.8573,1021.4097],[-2.1807,42.8586,924.0722],[-2.1797,42.8601,894.1177],[-2.1817,42.8628,967.4817],[-2.1739,42.8672,1120.9358],[-2.1526,42.8723,1071.507],[-2.1384,42.8729,1063.4875],[-2.1115,42.8708,1018.7498],[-2.0986,42.8767,1105.0305],[-2.0544,42.8703,1064.5698],[-2.0475,42.8662,1063.5283],[-2.0204,42.8613,1058.2195],[-1.9765,42.8627,1143.1565],[-1.943,42.866,1229.6779],[-1.9452,42.8708,1215.7101],[-1.9417,42.8697,1217.2969],[-1.9391,42.8762,1300.051],[-1.9706,42.8839,1356.9843],[-1.9899,42.8899,1368.9415],[-1.9954,42.893,1381.9312],[-1.9792,42.8876,1447.083],[-1.9638,42.8857,1292.9812],[-1.9267,42.887,1246.8356],[-1.9009,42.8899,1144.7594],[-1.8734,42.8867,1052.1707],[-1.8529,42.8812,1022.3683],[-1.8498,42.8852,881.6694],[-1.8456,42.8874,818.9708],[-1.8387,42.888,958.6896],[-1.8238,42.8826,440.4148],[-1.8246,42.8856,426.0029],[-1.8002,42.8832,750.0759],[-1.7941,42.89,615.4872],[-1.7918,42.8902,662.061],[-1.7946,42.8976,548.9043],[-1.7979,42.9008,470.8831],[-1.8113,42.9053,638.9694],[-1.8054,42.91,496.772]]]]}
,"properties": {"GID_3": "ESP.9.1.3_1","GID_0": "ESP","country": "Spain","GID_1": "ESP.9_1","province": "ComunidadForaldeNavarra","NL_NAME_1": "NA","GID_2": "ESP.9.1_1","county": "Navarra","NL_NAME_2": "NA","city": "n.a.(187)","VARNAME_3": "NA","NL_NAME_3": "NA","TYPE_3": "Comarca","ENGTYPE_3": "Comarca","CC_3": "NA","HASC_3": "NA","name": "n.a.(187).city","area_km2": 1894.717,"hist_schema_id": "Elevation0-9000","hist_area_km2": {"25": 1.127,"50": 2.748,"75": 5.667,"100": 9.297,"125": 15.478,"150": 18.878,"175": 23.457,"200": 27.867,"225": 31.535,"250": 33.622,"275": 36.516,"300": 38.357,"325": 41.468,"350": 40.542,"375": 40.53,"400": 40.25,"425": 45.077,"450": 57.333,"475": 64.722,"500": 72.633,"525": 86.92,"550": 92.27,"575": 95.584,"600": 91.756,"625": 91.666,"650": 81.739,"675": 75.878,"700": 69.014,"725": 64.843,"750": 61.296,"775": 57.611,"800": 49.024,"825": 41.037,"850": 38.251,"875": 34.966,"900": 31.075,"925": 26.427,"950": 24.396,"975": 20.524,"1000": 19.72,"1025": 17.178,"1050": 14.451,"1075": 11.103,"1100": 9.056,"1125": 7.537,"1150": 6.963,"1175": 6.296,"1200": 6.561,"1225": 5.242,"1250": 3.397,"1275": 2.094,"1300": 1.458,"1325": 1.055,"1350": 0.543,"1375": 0.357,"1400": 0.248,"1425": 0.062,"1450": 0.016}}}