{"type": "Feature","bbox": [-2.0409,37.0384,-1.63,37.5383],"geometry": {"type": "MultiPolygon","coordinates": [[[[-1.9961,37.0828,533.8042],[-1.9953,37.074,489.3336],[-1.9979,37.069,474.174],[-2.0035,37.0652,426.7291],[-1.9954,37.0446,307.2619],[-1.9909,37.0463,342.3642],[-1.9813,37.0456,406.6651],[-1.9705,37.047,411.9986],[-1.9552,37.0516,461.9838],[-1.9345,37.0533,493.3904],[-1.9155,37.0515,525.1501],[-1.9124,37.0487,464.9295],[-1.9127,37.0464,422.5446],[-1.9089,37.0429,365.964],[-1.9085,37.04,390.0713],[-1.9015,37.0426,345.0948],[-1.9019,37.0405,310.239],[-1.8964,37.0384,347.4937],[-1.8884,37.0391,335.5104],[-1.884,37.0429,333.5336],[-1.8774,37.0449,195.2575],[-1.873,37.0454,165.3874],[-1.8673,37.0432,90.311],[-1.8629,37.0457,5.1194],[-1.8624,37.0518,13.8444],[-1.8582,37.0576,9.4157],[-1.8551,37.0588,17.0241],[-1.8546,37.0629,22.6925],[-1.8521,37.064,0.0],[-1.8493,37.0693,4.7407],[-1.8504,37.0926,9.9293],[-1.8451,37.1085,14.7225],[-1.8421,37.1129,2.0708],[-1.8393,37.1138,3.2828],[-1.8326,37.1207,3.4382],[-1.8324,37.1257,2.0098],[-1.831,37.1263,2.0098],[-1.8307,37.1312,11.7915],[-1.8276,37.1387,1.1889],[-1.8282,37.1421,8.6379],[-1.8257,37.144,0.0],[-1.8243,37.1493,3.8332],[-1.8238,37.164,0.0],[-1.8249,37.1651,5.5775],[-1.8218,37.1796,2.6209],[-1.8188,37.1821,0.2557],[-1.8193,37.1832,0.2557],[-1.8179,37.1826,0.9768],[-1.8179,37.1843,0.2495],[-1.8162,37.1843,0.2495],[-1.8174,37.181,1.6542],[-1.8157,37.1818,0.0],[-1.8151,37.1846,0.0],[-1.8179,37.186,0.2357],[-1.8171,37.1915,2.6916],[-1.8149,37.1935,0.9899],[-1.8101,37.2096,4.1347],[-1.8032,37.2232,1.782],[-1.7938,37.234,5.4473],[-1.791,37.2351,1.6242],[-1.7849,37.2343,1.0433],[-1.7782,37.239,0.5616],[-1.776,37.2382,0.0],[-1.771,37.2482,7.95],[-1.7629,37.2565,3.2869],[-1.7613,37.256,0.0],[-1.7624,37.2582,0.0],[-1.7576,37.2646,14.7072],[-1.7532,37.2654,0.0],[-1.7488,37.2685,5.2412],[-1.7451,37.2749,0.0],[-1.7387,37.2801,17.5831],[-1.7337,37.2818,6.7801],[-1.7312,37.2854,4.8839],[-1.7243,37.2899,0.0],[-1.721,37.2962,2.7641],[-1.7124,37.3001,0.0],[-1.711,37.3029,0.0],[-1.7071,37.3051,2.9793],[-1.7065,37.3104,2.1524],[-1.7035,37.3121,15.3022],[-1.6899,37.3379,2.4358],[-1.6765,37.3537,0.4277],[-1.6715,37.3571,1.4988],[-1.6651,37.3576,6.0988],[-1.6568,37.3565,7.129],[-1.6554,37.3535,0.0],[-1.6537,37.3537,0.0],[-1.6487,37.359,0.0],[-1.6499,37.3593,3.8091],[-1.6496,37.3624,12.0018],[-1.646,37.371,7.9053],[-1.6365,37.3757,7.1943],[-1.6351,37.3757,7.1943],[-1.6337,37.3724,0.0],[-1.6304,37.3729,0.0],[-1.63,37.3753,1.9432],[-1.6659,37.4009,78.3747],[-1.7049,37.4211,301.6372],[-1.737,37.4427,226.8883],[-1.7797,37.447,248.6614],[-1.7962,37.4522,299.7473],[-1.8117,37.4516,355.6517],[-1.8089,37.4335,259.3047],[-1.8452,37.4549,378.1122],[-1.8586,37.4791,414.2375],[-1.8646,37.4866,442.7317],[-1.8708,37.4897,479.972],[-1.9111,37.5383,1225.3619],[-1.9163,37.536,1103.2734],[-1.9476,37.5361,1010.5893],[-1.9878,37.5275,918.7334],[-2.0128,37.5258,972.5527],[-2.0253,37.5135,927.6743],[-2.0309,37.4834,657.3366],[-2.0344,37.4773,620.9423],[-2.032,37.4624,574.9696],[-2.0271,37.4529,535.45],[-2.0289,37.4509,524.9306],[-2.0272,37.4439,497.2262],[-2.0221,37.4414,473.614],[-2.0208,37.4351,467.8205],[-2.0149,37.432,438.5711],[-2.0116,37.4259,432.155],[-2.0059,37.425,407.0887],[-2.0028,37.4224,400.3644],[-2.0004,37.4165,383.5002],[-1.9994,37.3862,301.0516],[-1.9976,37.3816,279.3428],[-2.0017,37.3787,279.7956],[-2.0076,37.3669,239.8231],[-2.0081,37.3557,206.9898],[-2.0009,37.3497,199.8846],[-2.0071,37.3335,248.4408],[-2.0094,37.3114,378.4431],[-2.0116,37.3067,408.7076],[-2.0236,37.2965,442.48],[-2.029,37.2953,448.2069],[-2.0298,37.2929,452.9536],[-2.0329,37.2927,450.7079],[-2.0348,37.2908,489.0305],[-2.0409,37.2896,577.0571],[-2.04,37.2868,560.5048],[-2.032,37.2841,499.7565],[-2.0291,37.279,507.833],[-2.0318,37.276,532.2004],[-2.0297,37.2695,424.6656],[-2.0208,37.2665,371.7995],[-2.0166,37.2596,337.7227],[-2.0089,37.2574,319.4495],[-1.9904,37.2368,304.6702],[-1.9827,37.2252,295.3546],[-1.9843,37.2256,319.7338],[-1.9885,37.215,314.7079],[-1.9934,37.216,326.0496],[-2.0037,37.2058,583.6984],[-2.0081,37.2085,602.9993],[-2.0111,37.199,610.8162],[-2.0192,37.194,609.3036],[-2.0274,37.1748,590.9868],[-2.0313,37.173,487.3959],[-2.031,37.1668,411.17],[-2.0345,37.161,331.8455],[-2.0383,37.1604,374.4011],[-2.029,37.1342,331.6638],[-2.0088,37.1194,167.4284],[-2.0052,37.1074,364.1555],[-2.0015,37.1044,402.8167],[-2.0014,37.0957,510.5937],[-1.9991,37.0936,515.7057],[-2.0002,37.0917,517.2169],[-1.9978,37.0898,572.0031],[-2.0008,37.0867,549.815],[-1.9968,37.0847,571.2526],[-1.9961,37.0828,533.8042]]]]}
,"properties": {"GID_3": "ESP.1.1.7_1","GID_0": "ESP","country": "Spain","GID_1": "ESP.1_1","province": "Andalucía","NL_NAME_1": "NA","GID_2": "ESP.1.1_1","county": "Almería","NL_NAME_2": "NA","city": "n.a.(21)","VARNAME_3": "NA","NL_NAME_3": "NA","TYPE_3": "Comarca","ENGTYPE_3": "Comarca","CC_3": "NA","HASC_3": "NA","name": "n.a.(21).city","area_km2": 1100.8825,"hist_schema_id": "Elevation0-9000","hist_area_km2": {"0": 22.7053,"25": 59.8259,"50": 62.1978,"75": 64.1468,"100": 56.1966,"125": 53.8459,"150": 50.065,"175": 50.7485,"200": 59.8328,"225": 58.512,"250": 52.6434,"275": 51.4449,"300": 57.5529,"325": 51.2635,"350": 44.3212,"375": 32.4017,"400": 27.615,"425": 24.7331,"450": 22.4936,"475": 20.0359,"500": 20.9416,"525": 21.2585,"550": 19.5573,"575": 16.4218,"600": 12.7155,"625": 10.8789,"650": 9.1217,"675": 8.2595,"700": 8.1551,"725": 8.2706,"750": 7.3773,"775": 6.5177,"800": 5.7588,"825": 4.4616,"850": 3.6518,"875": 3.6849,"900": 3.0113,"925": 2.8759,"950": 1.766,"975": 1.2947,"1000": 0.7566,"1025": 0.4708,"1050": 0.3699,"1075": 0.2858,"1100": 0.1177,"1125": 0.1177,"1150": 0.1513,"1175": 0.0168,"1200": 0.0168,"1225": 0.0168}}}