{"type": "Feature","bbox": [2.3238,41.6506,2.9721,42.0589],"geometry": {"type": "MultiPolygon","coordinates": [[[[2.7743,41.7003,63.1621],[2.7699,41.6874,25.167],[2.7579,41.6792,13.6051],[2.7614,41.6693,6.469],[2.7771,41.6506,0.0],[2.7813,41.6554,0.0],[2.7857,41.666,4.0428],[2.7929,41.6738,13.1604],[2.7954,41.6743,8.6177],[2.7979,41.6721,0.0],[2.8035,41.6735,0.0],[2.8038,41.6754,0.0],[2.8082,41.6771,0.0],[2.8079,41.6787,0.0],[2.8154,41.6818,0.0],[2.8188,41.6885,0.0],[2.8293,41.6907,10.4025],[2.8312,41.6937,0.0],[2.8363,41.6946,1.1602],[2.8418,41.6929,0.0],[2.8487,41.6987,0.0],[2.8563,41.6999,0.0],[2.8665,41.6985,0.0],[2.8735,41.701,29.5736],[2.8793,41.701,8.4416],[2.8824,41.704,12.7003],[2.8885,41.7012,4.1728],[2.9004,41.7051,0.0],[2.8993,41.7074,43.1995],[2.9024,41.7101,1.7039],[2.9129,41.7074,1.2808],[2.9199,41.7126,19.6953],[2.9249,41.7121,57.8412],[2.9293,41.7143,17.7396],[2.9349,41.7146,9.0417],[2.9337,41.7193,2.2104],[2.9376,41.7218,0.2987],[2.9407,41.7196,0.0],[2.9404,41.7232,1.6685],[2.9421,41.7251,0.8311],[2.946,41.7254,0.0],[2.949,41.7307,30.3791],[2.954,41.7313,0.0],[2.9546,41.7368,0.0],[2.9582,41.7351,0.0],[2.9599,41.7374,10.461],[2.9585,41.7399,0.0],[2.9657,41.7449,0.7967],[2.9721,41.7532,0.5689],[2.9665,41.7538,58.3105],[2.9605,41.7569,125.7693],[2.9532,41.7673,391.6921],[2.9497,41.7687,414.1267],[2.9406,41.761,480.3582],[2.9282,41.7576,502.3941],[2.9159,41.7682,319.7662],[2.9066,41.7721,357.9669],[2.871,41.7733,274.1413],[2.8539,41.7923,210.3127],[2.8551,41.7971,204.5944],[2.8534,41.8008,173.1948],[2.8594,41.8029,161.1056],[2.8607,41.807,152.6073],[2.8639,41.8086,148.9181],[2.8724,41.809,145.2824],[2.8723,41.8146,140.3857],[2.865,41.8143,137.2242],[2.8659,41.81,142.7252],[2.8518,41.8102,165.4112],[2.8497,41.8195,146.466],[2.8568,41.8291,135.4583],[2.8621,41.8487,109.4022],[2.8542,41.8476,107.9509],[2.849,41.8499,106.4579],[2.8431,41.8535,105.7645],[2.8375,41.8601,106.7053],[2.8302,41.8587,137.6044],[2.8269,41.8552,126.5207],[2.8196,41.8525,106.4955],[2.8185,41.8503,110.229],[2.8163,41.857,105.9215],[2.813,41.8596,111.6131],[2.814,41.8706,100.2202],[2.8129,41.8744,99.7991],[2.8095,41.8777,100.2703],[2.8132,41.881,98.9358],[2.8165,41.889,96.5622],[2.8178,41.9027,92.9806],[2.8165,41.9063,92.0018],[2.8115,41.9088,91.7199],[2.8141,41.91,91.8061],[2.8174,41.9093,95.211],[2.8167,41.9115,94.6254],[2.8037,41.9145,97.5171],[2.8005,41.9121,90.4801],[2.7921,41.9108,114.9413],[2.7799,41.9034,127.5595],[2.7659,41.9094,136.7466],[2.7558,41.9204,161.3947],[2.7467,41.9269,179.1896],[2.7448,41.9245,171.6416],[2.7181,41.9219,165.7516],[2.6977,41.9248,159.2553],[2.7024,41.9311,189.7291],[2.6974,41.9377,260.8655],[2.6874,41.9431,231.4819],[2.6802,41.949,237.8396],[2.6727,41.9485,189.3247],[2.6655,41.9521,174.1261],[2.6599,41.959,138.5048],[2.6664,41.9654,130.0397],[2.6721,41.9654,156.5422],[2.6714,41.9722,134.0911],[2.6732,41.974,138.4599],[2.6697,41.9764,155.6353],[2.6684,41.9853,141.744],[2.6598,41.9949,183.5242],[2.6612,41.9961,181.6126],[2.658,42.0078,247.0096],[2.6627,42.0095,276.2493],[2.6614,42.0166,539.6678],[2.6584,42.0171,564.3605],[2.6583,42.0188,563.8413],[2.6528,42.0193,529.0164],[2.6434,42.0164,397.8201],[2.6369,42.0165,396.8915],[2.6362,42.0137,374.8682],[2.6319,42.0135,355.8028],[2.6255,42.0228,466.3611],[2.6213,42.0252,412.2699],[2.6147,42.0242,476.5746],[2.6044,42.0331,386.5558],[2.6019,42.0383,392.0674],[2.5985,42.0406,427.4507],[2.599,42.0438,442.0878],[2.602,42.0456,422.5788],[2.5959,42.0501,350.129],[2.5886,42.0376,314.761],[2.5817,42.0369,244.4707],[2.5792,42.0348,238.4413],[2.5751,42.0378,228.2778],[2.5657,42.0386,248.4429],[2.563,42.0421,261.1753],[2.5581,42.0444,284.8559],[2.5532,42.0439,283.3897],[2.5468,42.0387,471.761],[2.5454,42.0297,723.1277],[2.5338,42.0276,1026.3604],[2.5152,42.0419,1123.7372],[2.5113,42.0475,1030.3938],[2.5027,42.0514,1125.7964],[2.4963,42.0589,1098.7891],[2.4822,42.0524,1000.4105],[2.4837,42.0465,1020.853],[2.4875,42.0456,1002.4146],[2.4923,42.0379,1140.0411],[2.4966,42.0368,1116.2062],[2.4998,42.0331,1088.1609],[2.5062,42.0323,856.1841],[2.5031,42.0247,937.7216],[2.4979,42.0212,849.607],[2.494,42.0212,883.3968],[2.4959,42.0164,532.5602],[2.4952,42.0117,462.3665],[2.5033,42.0097,481.1951],[2.4999,42.0081,569.942],[2.4989,42.0015,623.971],[2.4932,42.0016,585.7098],[2.4883,41.9991,578.2941],[2.4846,41.9992,591.139],[2.4829,41.9967,513.0024],[2.4795,41.9983,580.9672],[2.4793,42.0014,651.7707],[2.4765,42.0013,658.4971],[2.4766,41.9974,640.1234],[2.4688,41.993899999999996,792.3874],[2.488,41.9847,761.7284],[2.4795,41.9825,910.1628],[2.4802,41.9794,899.3348],[2.4724,41.9753,778.2468],[2.4717,41.9721,790.9507],[2.4743,41.9694,679.3877],[2.4568,41.9661,589.8875],[2.4558,41.9679,478.0179],[2.452,41.9661,432.0309],[2.4492,41.9701,598.7013],[2.4416,41.9682,371.6642],[2.4425,41.9718,341.0131],[2.4381,41.9734,345.7329],[2.4337,41.9725,377.3179],[2.4311,41.9692,380.8735],[2.4291,41.969,400.1662],[2.4294,41.9654,606.7015],[2.4324,41.9658,545.797],[2.4395,41.9632,459.0372],[2.4415,41.9599,595.6351],[2.4421,41.9546,703.4789],[2.438,41.9515,768.3894],[2.437,41.948,657.5474],[2.4402,41.9467,723.3938],[2.44,41.9437,780.7938],[2.4422,41.9414,804.4263],[2.4451,41.9421,853.843],[2.4461,41.944,858.7723],[2.451,41.9437,903.2316],[2.4549,41.9409,763.9196],[2.4592,41.9444,635.2081],[2.4622,41.9413,736.0251],[2.4625,41.9378,861.556],[2.4708,41.9393,655.0538],[2.4801,41.9291,952.2723],[2.4785,41.9204,1155.0275],[2.4812,41.916,1185.5511],[2.4748,41.915,1143.3486],[2.4726,41.9095,1073.0601],[2.468,41.9058,975.4335],[2.4687,41.9047,960.4174],[2.4599,41.9026,1014.8997],[2.459,41.8983,1005.4542],[2.4567,41.8967,968.4969],[2.4463,41.8948,1022.9988],[2.4459,41.8896,946.6364],[2.4433,41.888,960.733],[2.4308,41.8904,908.8007],[2.4312,41.8944,934.7089],[2.4286,41.8944,913.1171],[2.427,41.8961,906.8756],[2.4176,41.8933,755.2769],[2.4153,41.896,698.1212],[2.4071,41.8957,702.4026],[2.4044,41.8863,788.1795],[2.3965,41.886,656.2208],[2.3926,41.8805,738.7204],[2.3937,41.879,780.082],[2.3872,41.8792,633.0425],[2.3872,41.8777,641.0228],[2.3845,41.877,683.9926],[2.3826,41.8715,686.5984],[2.3781,41.8742,809.7323],[2.3772,41.8728,843.2994],[2.3703,41.8805,663.1234],[2.3697,41.8855,624.0986],[2.3679,41.8847,643.5616],[2.3666,41.8802,721.0235],[2.3615,41.8834,599.1079],[2.3553,41.8813,592.2388],[2.3495,41.887,622.3773],[2.3446,41.8862,677.4908],[2.3375,41.8892,769.2636],[2.3342,41.8839,765.4121],[2.3299,41.8822,790.6375],[2.328,41.8831,782.2844],[2.3238,41.8755,752.1243],[2.3245,41.8722,737.0936],[2.3324,41.8635,702.1566],[2.3298,41.8593,708.0135],[2.3302,41.8559,736.7744],[2.326,41.8557,749.1906],[2.333,41.8443,839.7266],[2.3449,41.8374,1129.6694],[2.3473,41.8324,1240.2273],[2.3438,41.8217,1253.5674],[2.3464,41.8174,1267.585],[2.3495,41.8157,1274.2295],[2.3516,41.8097,1358.858],[2.3543,41.8071,1378.3289],[2.3643,41.8067,1421.5242],[2.3705,41.8041,1516.7661],[2.3766,41.805,1554.7427],[2.3827,41.8087,1664.2922],[2.3882,41.8051,1601.1577],[2.3963,41.8057,1583.4607],[2.4038,41.8019,1494.934],[2.4104,41.8016,1381.3177],[2.4118,41.8034,1273.9043],[2.4266,41.8046,1146.7598],[2.437,41.8026,1216.0522],[2.4429,41.799,1345.8406],[2.4438,41.7892,1574.5366],[2.4558,41.7842,1239.8789],[2.4722,41.7896,1081.0635],[2.4692,41.7778,1120.8633],[2.4819,41.7716,1275.7623],[2.4899,41.7655,923.1577],[2.5158,41.7621,529.0757],[2.5187,41.7558,347.5105],[2.5154,41.7535,385.3135],[2.5156,41.7487,314.8229],[2.5236,41.7421,277.5965],[2.5315,41.7386,203.6174],[2.5333,41.7348,187.3362],[2.5307,41.7305,150.311],[2.5336,41.7288,150.1792],[2.5376,41.7218,130.1938],[2.5473,41.7191,96.0158],[2.569,41.7267,84.0461],[2.5773,41.7244,78.7848],[2.59,41.7287,80.0868],[2.6052,41.7277,70.4645],[2.6121,41.7308,71.9717],[2.6292,41.731,66.1996],[2.6375,41.7337,83.4455],[2.6394,41.7429,60.4065],[2.6471,41.744,56.1226],[2.6563,41.7428,51.7223],[2.6576,41.7477,57.94],[2.6637,41.7475,60.9083],[2.6806,41.7396,44.7235],[2.6866,41.7413,47.6015],[2.6855,41.7457,59.8258],[2.6807,41.7444,52.0687],[2.6818,41.7483,106.8337],[2.689,41.7464,53.8516],[2.6898,41.7415,49.2402],[2.7006,41.7429,101.2336],[2.703,41.7448,82.1667],[2.7074,41.741,54.9905],[2.7248,41.7443,165.5567],[2.7448,41.735,123.4339],[2.7769,41.7355,288.0883],[2.7772,41.7311,251.3819],[2.7658,41.7257,274.1659],[2.7743,41.7003,63.1621]]]]}
,"properties": {"GID_3": "ESP.6.2.6_1","GID_0": "ESP","country": "Spain","GID_1": "ESP.6_1","province": "Cataluña","NL_NAME_1": "NA","GID_2": "ESP.6.2_1","county": "Girona","NL_NAME_2": "NA","city": "n.a.(106)","VARNAME_3": "NA","NL_NAME_3": "NA","TYPE_3": "Comarca","ENGTYPE_3": "Comarca","CC_3": "NA","HASC_3": "NA","name": "n.a.(106).city","area_km2": 1031.025,"hist_schema_id": "Elevation0-9000","hist_area_km2": {"0": 6.3496,"25": 10.8911,"50": 16.5211,"75": 60.423,"100": 94.9552,"125": 102.7675,"150": 70.4645,"175": 49.1882,"200": 42.6113,"225": 39.8301,"250": 30.6855,"275": 25.4901,"300": 21.303,"325": 22.1327,"350": 18.9923,"375": 18.0433,"400": 17.1747,"425": 18.2778,"450": 17.458,"475": 16.8107,"500": 17.6317,"525": 15.7996,"550": 15.4676,"575": 14.5984,"600": 15.0403,"625": 15.6548,"650": 14.4242,"675": 15.6069,"700": 14.866,"725": 15.3867,"750": 15.5606,"775": 15.7514,"800": 16.6194,"825": 16.5258,"850": 14.4906,"875": 13.054,"900": 10.8438,"925": 9.7082,"950": 9.2499,"975": 8.2718,"1000": 7.8136,"1025": 6.5033,"1050": 6.5185,"1075": 5.3656,"1100": 3.7404,"1125": 2.3048,"1150": 2.0528,"1175": 1.5956,"1200": 1.1063,"1225": 1.0588,"1250": 0.569,"1275": 0.7744,"1300": 0.6638,"1325": 0.7112,"1350": 0.6795,"1375": 0.6795,"1400": 0.4741,"1425": 0.4899,"1450": 0.3635,"1475": 0.4267,"1500": 0.4267,"1525": 0.4425,"1550": 0.4267,"1575": 0.3635,"1600": 0.2054,"1625": 0.1896,"1650": 0.0948,"1675": 0.0632}}}