{"type":"Feature","properties":{"GID_3":"ESP.2.3.6_1","GID_0":"ESP","country":"Spain","GID_1":"ESP.2_1","province":"Aragón","NL_NAME_1":"NA","GID_2":"ESP.2.3_1","county":"Zaragoza","NL_NAME_2":"NA","city":"n.a.(279)","VARNAME_3":"NA","NL_NAME_3":"NA","TYPE_3":"Comarca","ENGTYPE_3":"Comarca","CC_3":"NA","HASC_3":"NA","name":"n.a.(279).city"},
"geometry":{"type": "MultiPolygon","coordinates": [[[[-1.1658,42.4327,884.9219],[-1.1828,42.4239,917.127],[-1.1804,42.4175,843.2557],[-1.1878,42.4053,721.0468],[-1.1875,42.4029,694.1141],[-1.1844,42.401,762.1753],[-1.1743,42.4038,794.5553],[-1.1715,42.4067,870.1653],[-1.1587,42.4097,869.4606],[-1.1543,42.4145,912.7794],[-1.1529,42.4282,890.0723],[-1.1448,42.4369,908.224],[-1.1449,42.4419,949.3142],[-1.154,42.4415,929.7984],[-1.1629,42.4324,895.6113],[-1.1658,42.4327,884.9219]]],
[[[-1.0883,42.4759,759.194],[-1.0851,42.4834,606.3647],[-1.0916,42.4857,591.3967],[-1.1028,42.4843,596.8289],[-1.102,42.4828,600.7234],[-1.1185,42.4613,923.3646],[-1.1237,42.4581,944.9708],[-1.1293,42.4467,1017.9869],[-1.1157,42.4449,1100.8705],[-1.108,42.4413,1095.1936],[-1.0933,42.4402,1119.6339],[-1.0834,42.4371,1054.2352],[-1.0811,42.4384,1082.9336],[-1.0678,42.4346,1094.0715],[-1.0645,42.436,1036.4984],[-1.0567,42.4341,1010.1501],[-1.0509,42.4419,1053.0349],[-1.0543,42.4488,1068.623],[-1.0561,42.4484,1032.2861],[-1.0649,42.454,933.4355],[-1.0696,42.4665,805.4185],[-1.086,42.4733,756.9594],[-1.0883,42.4759,759.194]]]]}}