{"type": "Feature","bbox": [-6.6942,38.6274,-5.8581,39.1867],"geometry": {"type": "MultiPolygon","coordinates": [[[[-6.1553,38.9841,303.0024],[-6.1517,38.9903,281.1513],[-6.1405,39.0297,344.0718],[-6.1462,39.0424,365.5161],[-6.1526,39.0473,367.2217],[-6.1516,39.0511,368.6167],[-6.1538,39.0536,320.167],[-6.1678,39.0589,363.6434],[-6.203,39.0565,337.2941],[-6.2155,39.0686,350.8292],[-6.225,39.0848,323.1823],[-6.2307,39.0898,336.2742],[-6.2599,39.0924,312.6397],[-6.2686,39.0953,368.2213],[-6.2952,39.0982,341.8154],[-6.2997,39.1042,369.3853],[-6.3118,39.1122,362.8419],[-6.3125,39.1161,371.9167],[-6.3096,39.1229,382.5719],[-6.3122,39.1325,390.3396],[-6.308,39.1403,407.9473],[-6.3074,39.1467,412.7414],[-6.3102,39.1534,440.3671],[-6.3093,39.1559,445.9511],[-6.3154,39.1613,452.5816],[-6.3163,39.1663,436.5642],[-6.3214,39.1717,430.2212],[-6.3193,39.1845,542.0066],[-6.3273,39.1867,513.4984],[-6.3409,39.1839,455.434],[-6.3554,39.1776,407.0417],[-6.3654,39.1669,394.1594],[-6.3712,39.163,366.528],[-6.379,39.1628,348.3151],[-6.3969,39.1667,344.7085],[-6.406,39.165,332.047],[-6.4185,39.1669,326.9685],[-6.4303,39.1738,325.2448],[-6.4386,39.1759,377.5926],[-6.445,39.1734,352.2762],[-6.4692,39.1733,351.2671],[-6.491,39.1679,345.7511],[-6.5402,39.1817,438.6081],[-6.5359,39.176,413.7946],[-6.5359,39.1634,379.5266],[-6.5386,39.1553,407.1406],[-6.5741,39.1584,358.1493],[-6.5772,39.1551,336.9253],[-6.5755,39.1422,316.4954],[-6.5777,39.1268,330.7684],[-6.5803,39.1246,332.9056],[-6.58,39.1195,347.5943],[-6.5682,39.1213,436.32619999999997],[-6.5722,39.1026,292.715],[-6.5846,39.0858,286.2773],[-6.6,39.0742,287.1103],[-6.6175,39.0656,277.5589],[-6.6175,39.0625,276.4785],[-6.6235,39.0596,273.9769],[-6.6271,39.0541,264.7192],[-6.6371,39.0453,246.7394],[-6.6416,39.0336,236.9347],[-6.6453,39.0291,226.6688],[-6.6499,39.0277,229.0385],[-6.6521,39.0238,231.7923],[-6.654,39.0234,234.2171],[-6.6529,39.0186,220.0987],[-6.6553,39.0138,230.4842],[-6.6516,39.0066,213.2801],[-6.6521,38.9979,205.7245],[-6.6569,38.9919,204.4023],[-6.6553,38.9851,217.5399],[-6.6516,38.981,226.6212],[-6.6528,38.9751,214.8583],[-6.6355,38.9582,215.6389],[-6.6376,38.9498,213.223],[-6.6356,38.9472,214.3286],[-6.6343,38.9366,208.9839],[-6.6364,38.9215,202.1581],[-6.6347,38.912,196.8721],[-6.6357,38.91,192.0211],[-6.6434,38.9148,190.2549],[-6.6481,38.8903,187.2544],[-6.6438,38.8905,187.4302],[-6.6524,38.8664,180.8612],[-6.6652,38.8659,183.3054],[-6.6716,38.8683,181.0746],[-6.6942,38.8693,179.2083],[-6.6907,38.8675,181.8914],[-6.6925,38.8652,183.1669],[-6.6915,38.863,183.2858],[-6.6896,38.8625,183.437],[-6.687,38.8643,183.769],[-6.6858,38.8633,184.2061],[-6.6869,38.8599,185.5736],[-6.6914,38.8567,187.397],[-6.6875,38.8494,186.7567],[-6.6648,38.8368,191.3528],[-6.6586,38.8358,194.6356],[-6.6575,38.8333,192.2316],[-6.6501,38.8323,200.4019],[-6.6452,38.8272,194.0884],[-6.6364,38.826,204.7788],[-6.6342,38.8237,195.7711],[-6.6302,38.8233,203.1303],[-6.6294,38.8211,197.0045],[-6.6263,38.8204,198.4488],[-6.6243,38.8163,199.6053],[-6.616,38.8151,202.342],[-6.6135,38.8098,201.6844],[-6.6071,38.8084,202.6196],[-6.6037,38.8103,203.8698],[-6.6002,38.8046,206.1614],[-6.5958,38.8068,207.0339],[-6.5949,38.8047,206.8422],[-6.5901,38.8029,205.8817],[-6.5849,38.8031,208.6106],[-6.5827,38.7995,209.2062],[-6.5726,38.7971,209.1499],[-6.568,38.7978,212.678],[-6.5664,38.7939,211.2474],[-6.5617,38.7933,212.5368],[-6.5551,38.7863,220.8713],[-6.5513,38.7856,214.0729],[-6.5488,38.7825,215.6714],[-6.5456,38.7814,216.1886],[-6.5441,38.777,217.2234],[-6.5398,38.7755,218.8765],[-6.5376,38.7722,219.8472],[-6.5386,38.7662,230.9987],[-6.5341,38.7585,224.6623],[-6.5277,38.7562,222.9813],[-6.5294,38.7479,231.9568],[-6.5264,38.7459,224.9489],[-6.5283,38.7379,227.8374],[-6.5251,38.7373,229.3366],[-6.5251,38.7346,232.8433],[-6.5175,38.7269,244.931],[-6.5035,38.7391,268.6777],[-6.4778,38.7574,290.8714],[-6.471,38.7563,293.1452],[-6.4507,38.7611,302.3337],[-6.4276,38.7642,323.718],[-6.4281,38.7666,321.7688],[-6.4149,38.7701,315.4802],[-6.4115,38.7664,318.6731],[-6.405,38.7657,318.6545],[-6.3923,38.7593,321.1744],[-6.3973,38.7531,322.5879],[-6.3776,38.7538,312.8414],[-6.3744,38.7571,310.5551],[-6.371,38.7658,312.1362],[-6.357,38.7781,311.406],[-6.3569,38.7685,312.8646],[-6.3505,38.7681,319.3225],[-6.3502,38.7702,318.9551],[-6.3488,38.7701,319.1869],[-6.3488,38.7689,319.1869],[-6.336,38.7653,323.3164],[-6.335,38.7628,324.1996],[-6.3301,38.7614,321.3069],[-6.331,38.7594,319.9881],[-6.329,38.7581,317.0281],[-6.3304,38.7572,317.0281],[-6.328,38.755,311.7743],[-6.3359,38.7507,328.377],[-6.3322,38.7426,314.7755],[-6.3251,38.7389,307.0327],[-6.3268,38.7308,313.8207],[-6.3295,38.7282,312.5164],[-6.3182,38.7233,308.7678],[-6.3317,38.7119,331.244],[-6.3397,38.7083,346.088],[-6.3415,38.704,345.4061],[-6.3444,38.7039,353.6935],[-6.3443,38.6985,345.5146],[-6.3411,38.6984,341.4779],[-6.3409,38.6997,336.1803],[-6.3387,38.6979,336.1596],[-6.3411,38.6947,339.4063],[-6.3432,38.678,339.3391],[-6.3566,38.6581,349.7944],[-6.3458,38.6564,365.3133],[-6.3411,38.6532,368.4946],[-6.3388,38.6579,365.107],[-6.3334,38.6561,359.4713],[-6.3321,38.6582,362.7508],[-6.3263,38.6558,351.1594],[-6.3216,38.6591,347.5429],[-6.3132,38.659,362.4695],[-6.2999,38.6619,366.7404],[-6.2854,38.6597,329.5293],[-6.2774,38.6604,350.6631],[-6.2712,38.6631,363.6996],[-6.2609,38.6634,365.869],[-6.2405,38.6705,365.8919],[-6.2271,38.6799,305.7698],[-6.1895,38.691,309.8439],[-6.1856,38.7032,324.8027],[-6.1903,38.7113,326.2998],[-6.1869,38.7212,306.6071],[-6.1887,38.7255,289.829],[-6.1891,38.7444,288.9316],[-6.1801,38.7408,296.735],[-6.1746,38.7402,296.1414],[-6.1665,38.7359,293.5754],[-6.162,38.7371,302.7986],[-6.1561,38.7358,319.4006],[-6.1518,38.7326,294.2401],[-6.1507,38.7296,289.2441],[-6.1279,38.7267,348.1116],[-6.1124,38.7158,326.7805],[-6.1018,38.7127,326.8398],[-6.0905,38.7176,327.9713],[-6.0889,38.7173,336.1556],[-6.0876,38.7126,333.4272],[-6.0831,38.7157,335.943],[-6.0459,38.7062,434.8856],[-6.0208,38.6857,445.8482],[-5.9986,38.6711,460.1429],[-5.9798,38.665,448.9843],[-5.9686,38.6523,462.4797],[-5.9666,38.6459,473.1844],[-5.9512,38.63,525.6007],[-5.9314,38.6274,541.7267],[-5.8787,38.6285,489.1923],[-5.8751,38.6337,485.1947],[-5.8699,38.635,485.5535],[-5.8628,38.6409,476.1227],[-5.8581,38.6421,478.5746],[-5.8623,38.6424,491.6973],[-5.8793,38.664,455.1796],[-5.8872,38.6816,471.6581],[-5.9204,38.7149,684.7473],[-5.9129,38.7234,428.091],[-5.9253,38.7313,421.9262],[-5.9333,38.74,431.7143],[-5.9452,38.7415,446.4895],[-5.9777,38.7508,513.0544],[-5.9922,38.7517,489.1341],[-6.0129,38.7557,515.6965],[-6.0419,38.7499,395.3042],[-6.0728,38.758,390.5508],[-6.0933,38.769,361.4656],[-6.0999,38.7789,334.0235],[-6.1135,38.8147,309.3],[-6.1241,38.831,293.0529],[-6.1285,38.8451,275.2655],[-6.1358,38.8583,266.2317],[-6.1568,38.8716,253.6661],[-6.1733,38.8955,221.315],[-6.1903,38.9109,219.304],[-6.1842,38.9197,219.5969],[-6.1863,38.9239,219.8621],[-6.1828,38.9313,216.5],[-6.1756,38.9349,221.449],[-6.1694,38.9359,220.629],[-6.1607,38.9428,221.6096],[-6.1644,38.9541,243.4141],[-6.1592,38.9699,254.2453],[-6.1547,38.9751,302.9],[-6.1538,38.9791,369.3932],[-6.1553,38.9841,303.0024]]]]}
,"properties": {"GID_3": "ESP.11.1.6_1","GID_0": "ESP","country": "Spain","GID_1": "ESP.11_1","province": "Extremadura","NL_NAME_1": "NA","GID_2": "ESP.11.1_1","county": "Badajoz","NL_NAME_2": "NA","city": "n.a.(44)","VARNAME_3": "NA","NL_NAME_3": "NA","TYPE_3": "Comarca","ENGTYPE_3": "Comarca","CC_3": "NA","HASC_3": "NA","name": "n.a.(44).city","area_km2": 2047.561,"hist_schema_id": "Elevation0-9000","hist_area_km2": {"175": 12.2,"200": 192.166,"225": 284.516,"250": 292.864,"275": 350.157,"300": 290.005,"325": 204.87,"350": 139.879,"375": 64.736,"400": 49.33,"425": 38.426,"450": 32.188,"475": 38.375,"500": 28.826,"525": 14.448,"550": 5.99,"575": 4.102,"600": 2.183,"625": 1.042,"650": 0.695,"675": 0.314,"700": 0.232,"725": 0.017}}}