{"type":"Feature","properties":{"GID_3":"ESP.5.7.4_1","GID_0":"ESP","country":"Spain","GID_1":"ESP.5_1","province":"CastillayLeón","NL_NAME_1":"NA","GID_2":"ESP.5.7_1","county":"Soria","NL_NAME_2":"NA","city":"n.a.(236)","VARNAME_3":"NA","NL_NAME_3":"NA","TYPE_3":"Comarca","ENGTYPE_3":"Comarca","CC_3":"NA","HASC_3":"NA","name":"n.a.(236).city"},
"geometry":{"type": "MultiPolygon","coordinates": [[[[-2.8035,41.2565,1237.1891],[-2.7824,41.2538,1203.9146],[-2.7754,41.2501,1212.3386],[-2.7764,41.2575,1183.6758],[-2.7673,41.2692,1164.6169],[-2.7609,41.274,1147.3818],[-2.7583,41.2793,1144.0508],[-2.7628,41.3126,1062.1864],[-2.7613,41.3119,1087.9325],[-2.7486,41.3189,1053.243],[-2.7411,41.3195,1099.7737],[-2.7204,41.3282,1052.2605],[-2.7024,41.3466,1116.4647],[-2.6942,41.3492,1109.0867],[-2.6931,41.3618,1102.5297],[-2.6952,41.3685,1079.7845],[-2.6927,41.3761,1106.697],[-2.6761,41.3924,1123.1124],[-2.6461,41.3933,1118.7139],[-2.6405,41.3858,1117.9231],[-2.6332,41.3891,1119.1367],[-2.6212,41.3899,1118.1443],[-2.6079,41.3875,1103.3253],[-2.6002,41.3889,1098.6848],[-2.5977,41.3916,1105.3379],[-2.594,41.3866,1108.4573],[-2.5883,41.3852,1046.6404],[-2.5878,41.3787,1064.584],[-2.5713,41.3786,1129.202],[-2.5643,41.376,1130.7258],[-2.5584,41.3779,1131.2986],[-2.5534,41.3748,1089.4138],[-2.5514,41.371,1122.208],[-2.5515,41.3503,1078.9249],[-2.5317,41.3249,1053.521],[-2.521,41.3187,1102.0275],[-2.5246,41.3112,1104.2726],[-2.5175,41.3112,1150.873],[-2.5165,41.3062,1142.4032],[-2.5189,41.3043,1125.9491],[-2.5165,41.3024,1121.4778],[-2.5118,41.3023,1133.9972],[-2.5122,41.3009,1098.1962],[-2.5076,41.3021,1127.2372],[-2.5071,41.3002,1141.3406],[-2.4891,41.3021,1156.8542],[-2.4433,41.2992,1127.2723],[-2.4375,41.2938,1134.9418],[-2.4344,41.294,1122.7007],[-2.427,41.2854,1152.2979],[-2.4251,41.2857,1140.8225],[-2.4264,41.2868,1140.8225],[-2.4228,41.2876,1127.415],[-2.4185,41.3011,1102.3296],[-2.42,41.3061,1084.3792],[-2.4189,41.3092,1088.7078],[-2.4006,41.3187,1067.0099],[-2.3885,41.3226,1049.4788],[-2.3793,41.3291,1031.2278],[-2.3673,41.3327,1150.1575],[-2.3713,41.3438,1106.606],[-2.3809,41.3474,1043.7528],[-2.3857,41.3568,1033.7668],[-2.3735,41.363,1034.0101],[-2.3765,41.3666,1032.5316],[-2.3612,41.3785,1019.1609],[-2.3513,41.3823,1035.6542],[-2.347,41.3744,984.4166],[-2.3396,41.368899999999996,973.5258],[-2.3263,41.367,960.0731],[-2.3264,41.3726,971.0226],[-2.3154,41.3834,967.16],[-2.2885,41.4042,1054.192],[-2.2806,41.4242,961.0322],[-2.2647,41.4432,977.2004],[-2.2551,41.4487,968.2576],[-2.2587,41.4615,1065.5841],[-2.2579,41.4695,1051.309],[-2.2715,41.477,1067.1172],[-2.2728,41.4801,1076.7892],[-2.2806,41.4806,1043.3401],[-2.2919,41.4891,1099.5919],[-2.3026,41.4908,1110.739],[-2.3091,41.5002,1138.0345],[-2.318,41.5002,1154.0244],[-2.316,41.5056,1153.3037],[-2.3046,41.5124,1119.8671],[-2.3011,41.5172,1108.908],[-2.3104,41.5298,1090.7141],[-2.3354,41.5484,1042.3457],[-2.335,41.5565,1046.7086],[-2.3386,41.5593,1033.1287],[-2.3469,41.5594,1009.2849],[-2.3515,41.5569,1007.0386],[-2.3534,41.5611,1010.5353],[-2.3569,41.5603,1016.489],[-2.3577,41.5631,1013.5167],[-2.3674,41.5669,996.5285],[-2.4023,41.5611,1017.0072],[-2.4137,41.5682,1030.9977],[-2.4175,41.5756,1044.8362],[-2.418,41.5833,962.0906],[-2.4227,41.584,961.673],[-2.4278,41.5811,960.0881],[-2.4337,41.5852,960.1433],[-2.4371,41.5815,960.0485],[-2.4434,41.5803,974.0327],[-2.4556,41.5746,979.1312],[-2.4567,41.5822,1028.2842],[-2.459,41.5839,1058.7478],[-2.4678,41.5842,983.139],[-2.4696,41.5806,1009.5892],[-2.4809,41.5733,984.4325],[-2.4948,41.5766,1079.2026],[-2.5021,41.5762,1087.0156],[-2.5181,41.5811,1097.6858],[-2.5306,41.5794,1082.1389],[-2.5323,41.5764,1078.4735],[-2.5636,41.5729,1082.0107],[-2.5712,41.5699,1059.2333],[-2.5927,41.5566,1062.2109],[-2.6195,41.5481,1037.1272],[-2.6381,41.5486,958.4686],[-2.6775,41.5447,1029.6436],[-2.6939,41.5284,1018.4446],[-2.7235,41.5338,958.2545],[-2.7404,41.5239,980.1652],[-2.7477,41.531,988.5594],[-2.7604,41.5259,996.4431],[-2.7724,41.5286,984.3929],[-2.7813,41.5252,988.9539],[-2.7891,41.5271,984.0875],[-2.7934,41.5299,951.9961],[-2.7927,41.5331,944.309],[-2.7957,41.5362,918.5227],[-2.8022,41.5383,906.1082],[-2.8054,41.5314,908.2439],[-2.8192,41.5324,943.0352],[-2.8228,41.53,965.2663],[-2.8279,41.5295,972.8371],[-2.8355,41.5146,898.507],[-2.8394,41.5108,895.4066],[-2.8525,41.5133,899.6016],[-2.8571,41.5174,897.5744],[-2.8626,41.5184,896.4517],[-2.8694,41.5291,956.8959],[-2.8767,41.5246,936.62],[-2.8781,41.5199,904.4831],[-2.8762,41.5105,898.6118],[-2.884,41.5096,900.2835],[-2.8854,41.5044,897.5945],[-2.8935,41.5023,893.0208],[-2.8895,41.4973,892.7115],[-2.8804,41.4919,906.6968],[-2.8798,41.4808,953.1312],[-2.889,41.4727,947.6671],[-2.8887,41.4641,919.6731],[-2.9105,41.4542,1013.1943],[-2.9112,41.4419,1062.5964],[-2.9135,41.4429,1042.2922],[-2.9219,41.4578,978.5795],[-2.9225,41.4625,998.3287],[-2.9151,41.4763,920.3527],[-2.9193,41.4897,888.4576],[-2.9245,41.4838,889.3626],[-2.9331,41.4856,887.6288],[-2.9414,41.4835,891.9495],[-2.9504,41.4867,884.4769],[-2.9567,41.4851,884.3471],[-2.9533,41.4655,929.6233],[-2.9553,41.4472,1004.5269],[-2.9713,41.4393,1070.176],[-2.9675,41.4231,1121.557],[-2.9738,41.417,1138.1298],[-2.9758,41.4112,1158.6052],[-2.9733,41.4093,1168.6746],[-2.9775,41.3868,1210.5187],[-2.9716,41.3882,1219.8129],[-2.9647,41.3812,1269.7468],[-2.9562,41.369,1201.4221],[-2.9547,41.3625,1225.1245],[-2.9309,41.3581,1184.1689],[-2.9152,41.353,1191.3688],[-2.9101,41.3398,1201.3785],[-2.9113,41.336,1214.1511],[-2.9099,41.3316,1201.1582],[-2.9066,41.3276,1202.5461],[-2.8979,41.3248,1172.2834],[-2.8884,41.3252,1194.5376],[-2.8826,41.3218,1177.6434],[-2.8754,41.3214,1168.2731],[-2.8689,41.3171,1173.598],[-2.8668,41.3131,1206.0317],[-2.873,41.2985,1215.3838],[-2.8658,41.2918,1257.637],[-2.864,41.2874,1253.1885],[-2.8636,41.2813,1176.2628],[-2.8668,41.2745,1133.7234],[-2.8324,41.2636,1238.0146],[-2.8217,41.2584,1211.8074],[-2.8222,41.2566,1215.6082],[-2.8035,41.2565,1237.1891]]]]}}