{"type": "Feature","bbox": [-4.3408,40.4053,-3.8016,40.815],"geometry": {"type": "MultiPolygon","coordinates": [[[[-4.2095,40.4515,828.1665],[-4.2066,40.4556,868.2605],[-4.2012,40.4557,884.1879],[-4.1875,40.4458,805.9892],[-4.174,40.4383,732.0465],[-4.1698,40.4375,721.7421],[-4.1735,40.4465,739.5701],[-4.1771,40.4482,754.9955],[-4.1742,40.4542,753.197],[-4.1751,40.4593,760.2281],[-4.171,40.4642,779.8027],[-4.1624,40.4666,815.3923],[-4.1592,40.4776,886.6444],[-4.1525,40.4856,910.4716],[-4.1536,40.4868,915.0709],[-4.1522,40.4933,900.392],[-4.1282,40.5221,894.7394],[-4.1316,40.5265,918.5424],[-4.124,40.5346,909.5317],[-4.1245,40.5387,909.1729],[-4.1191,40.5421,903.5114],[-4.1112,40.5444,900.5964],[-4.1071,40.5434,902.6373],[-4.1033,40.5477,917.8239],[-4.1049,40.548,925.7487],[-4.1026,40.5519,920.4177],[-4.0976,40.5563,893.4991],[-4.0875,40.5589,870.4535],[-4.0862,40.5617,863.1829],[-4.0805,40.5646,834.974],[-4.0785,40.5675,846.7902],[-4.0599,40.5724,858.1981],[-4.0546,40.5698,833.1221],[-4.047,40.5708,821.5],[-4.0446,40.5786,821.5],[-4.0475,40.5828,822.7424],[-4.0312,40.583,895.7795],[-4.026,40.5775,898.7865],[-4.0251,40.5733,899.1478],[-4.0053,40.5616,881.861],[-4.0069,40.5582,882.134],[-3.9999,40.5499,846.0826],[-4.0005,40.5459,835.5865],[-3.9951,40.535,793.1632],[-3.9883,40.5296,783.6048],[-3.9907,40.5274,755.1936],[-3.9889,40.5262,765.2842],[-3.9902,40.5252,731.3416],[-3.9854,40.52,688.7297],[-3.9844,40.5164,675.3866],[-3.9664,40.519,672.9161],[-3.9624,40.5159,658.8801],[-3.9558,40.5144,644.1198],[-3.9507,40.5103,648.5566],[-3.9398,40.5079,615.1515],[-3.9381,40.5119,614.7957],[-3.9406,40.5124,619.1628],[-3.9422,40.5159,628.8807],[-3.9401,40.5182,619.5],[-3.9398,40.5292,630.1238],[-3.9406,40.5316,627.2078],[-3.947,40.5357,633.7529],[-3.9498,40.5396,646.4579],[-3.9454,40.551,699.7782],[-3.9421,40.548,731.0381],[-3.936,40.5487,722.6544],[-3.9344,40.552,726.5333],[-3.9322,40.5505,731.2871],[-3.9324,40.5525,738.1344],[-3.9301,40.5539,706.9769],[-3.9319,40.5599,752.2717],[-3.9293,40.5577,726.9454],[-3.9198,40.5578,774.9086],[-3.909,40.5648,788.845],[-3.9057,40.5632,781.5955],[-3.8952,40.5679,738.2799],[-3.8902,40.5724,731.4381],[-3.8853,40.5745,749.1002],[-3.8836,40.5856,844.5471],[-3.874,40.5913,842.3668],[-3.8681,40.5923,802.5542],[-3.8586,40.5881,706.098],[-3.8416,40.5923,805.1665],[-3.8443,40.6118,835.5215],[-3.8493,40.6107,858.7172],[-3.8504,40.6119,858.7172],[-3.8534,40.6291,938.6097],[-3.8602,40.6418,1045.0302],[-3.8651,40.6458,1146.2207],[-3.8647,40.6477,1104.3134],[-3.8623,40.647,1116.6292],[-3.858,40.6543,985.6284],[-3.8573,40.6612,977.6056],[-3.852,40.6641,978.123],[-3.8375,40.6664,924.5936],[-3.8318,40.6778,851.3549],[-3.8141,40.7049,875.5976],[-3.8103,40.7064,884.796],[-3.8057,40.711,892.6698],[-3.8029,40.7098,886.4103],[-3.8016,40.7118,894.1854],[-3.8023,40.7174,907.8644],[-3.8083,40.7239,895.3712],[-3.8149,40.7402,897.1407],[-3.8186,40.7398,897.9974],[-3.8305,40.793,1355.2422],[-3.8368,40.8018,1547.8293],[-3.8395,40.8138,1967.3423],[-3.8614,40.815,2111.6035],[-3.8792,40.8057,2201.8225],[-3.8848,40.8074,2209.5293],[-3.9164,40.8001,2207.395],[-3.9298,40.8008,2349.2812],[-3.9383,40.796,2350.6987],[-3.959,40.795,2250.1006],[-3.9628,40.7918,2268.0315],[-3.9779,40.7878,2238.1672],[-3.9796,40.7842,2255.8215],[-4.0024,40.7884,1853.1122],[-4.0213,40.7813,1941.2286],[-4.0421,40.7838,2059.6875],[-4.0469,40.7903,1921.7981],[-4.07,40.7938,1981.884],[-4.0754,40.7892,1977.6899],[-4.0788,40.7889,1978.5781],[-4.0785,40.7822,1767.8923],[-4.0805,40.7769,1801.8843],[-4.0965,40.7647,1990.9824],[-4.094,40.7562,1796.5736],[-4.0976,40.7481,1891.7229],[-4.1065,40.7462,1734.7064],[-4.115,40.7423,1689.5215],[-4.1251,40.7297,1636.8783],[-4.126,40.7245,1567.0312],[-4.1348,40.7188,1492.9781],[-4.139,40.7127,1548.2261],[-4.1449,40.6952,1628.8414],[-4.1509,40.6926,1638.3922],[-4.1564,40.6923,1734.1598],[-4.1719,40.6796,1748.4536],[-4.1735,40.6668,1657.0103],[-4.169,40.6638,1594.6244],[-4.1679,40.6477,1483.4617],[-4.168,40.6433,1518.809],[-4.1718,40.638,1585.9434],[-4.1706,40.6342,1615.7366],[-4.173,40.6309,1630.1428],[-4.1687,40.6259,1725.5103],[-4.1629,40.6257,1710.8467],[-4.1612,40.6234,1704.158],[-4.1764,40.6163,1615.8351],[-4.1928,40.6133,1560.8185],[-4.2151,40.6049,1309.4718],[-4.2423,40.6023,1413.6049],[-4.2556,40.6034,1426.251],[-4.262,40.6056,1459.8408],[-4.2708,40.6227,1240.5015],[-4.2723,40.6291,1262.6527],[-4.2794,40.6305,1415.2552],[-4.2899,40.628,1272.105],[-4.2885,40.626,1279.088],[-4.2899,40.6084,1168.4202],[-4.2787,40.6042,1135.7699],[-4.279,40.601,1133.9757],[-4.2832,40.5953,1123.4269],[-4.2815,40.5896,1101.1233],[-4.2855,40.5823,1088.1487],[-4.2896,40.5644,1041.9583],[-4.3084,40.5588,1216.5486],[-4.3229,40.5511,1064.7346],[-4.3247,40.5477,1052.49],[-4.3246,40.541,1023.437],[-4.3285,40.5348,1011.9481],[-4.3213,40.5321,986.8341],[-4.3231,40.5177,911.2368],[-4.3276,40.5075,877.7341],[-4.325,40.5071,869.6396],[-4.3234,40.5016,837.9911],[-4.3233,40.477,747.4547],[-4.3205,40.4706,734.1429],[-4.3175,40.4697,718.6643],[-4.3192,40.4673,728.1647],[-4.3163,40.4654,697.0314],[-4.3205,40.4629,703.9378],[-4.3186,40.4594,685.7696],[-4.3263,40.4602,679.6489],[-4.3268,40.4572,720.5065],[-4.3217,40.4561,672.1825],[-4.3207,40.4515,660.4963],[-4.3232,40.4494,662.0435],[-4.3326,40.4487,678.7325],[-4.331,40.4447,657.0415],[-4.3351,40.4433,672.158],[-4.3322,40.4416,652.5823],[-4.3408,40.438,623.314],[-4.3394,40.4319,619.1997],[-4.3403,40.4291,618.9374],[-4.3355,40.4278,614.0542],[-4.334,40.4254,613.4406],[-4.3294,40.4234,605.5579],[-4.3241,40.4244,619.855],[-4.3241,40.4186,612.806],[-4.3226,40.4207,608.3333],[-4.303,40.4251,717.4942],[-4.2733,40.4291,999.3356],[-4.2623,40.4244,782.1971],[-4.2606,40.4153,743.7234],[-4.2533,40.4053,721.4257],[-4.2522,40.4125,776.6167],[-4.2394,40.4207,855.24],[-4.2376,40.4332,891.7462],[-4.2301,40.4368,871.743],[-4.2268,40.4401,797.0421],[-4.2193,40.4426,781.9495],[-4.2148,40.4483,833.918],[-4.2095,40.4515,828.1665]]],
[[[-4.2565,40.6638,1520.1971],[-4.2632,40.6669,1539.5903],[-4.2698,40.6755,1585.1599],[-4.2855,40.6805,1603.3005],[-4.2903,40.6804,1630.1587],[-4.2942,40.6765,1648.3485],[-4.3173,40.6669,1619.2927],[-4.3185,40.6617,1603.329],[-4.3247,40.6577,1623.1978],[-4.3233,40.6522,1583.1023],[-4.3196,40.6475,1550.8542],[-4.3016,40.6527,1521.3745],[-4.2679,40.6549,1475.9165],[-4.2574,40.6534,1520.0111],[-4.2565,40.6638,1520.1971]]]]}
,"properties": {"GID_3": "ESP.8.1.5_1","GID_0": "ESP","country": "Spain","GID_1": "ESP.8_1","province": "ComunidaddeMadrid","NL_NAME_1": "NA","GID_2": "ESP.8.1_1","county": "Madrid","NL_NAME_2": "NA","city": "n.a.(179)","VARNAME_3": "NA","NL_NAME_3": "NA","TYPE_3": "Comarca","ENGTYPE_3": "Comarca","CC_3": "NA","HASC_3": "NA","name": "n.a.(179).city","area_km2": 971.5038,"hist_schema_id": "Elevation0-9000","hist_area_km2": {"600": 0.2259,"625": 1.4028,"650": 2.5641,"675": 4.6433,"700": 4.9014,"725": 6.4818,"750": 11.2714,"775": 13.7852,"800": 16.1048,"825": 20.4693,"850": 35.0583,"875": 63.0778,"900": 98.5822,"925": 75.5555,"950": 66.4354,"975": 57.6195,"1000": 42.1295,"1025": 34.3684,"1050": 31.8575,"1075": 28.2366,"1100": 25.6758,"1125": 23.4071,"1150": 21.7006,"1175": 21.169,"1200": 18.8028,"1225": 17.7091,"1250": 16.228,"1275": 15.3112,"1300": 14.3927,"1325": 13.1866,"1350": 11.6103,"1375": 10.4515,"1400": 10.2112,"1425": 9.0677,"1450": 10.1608,"1475": 8.7612,"1500": 9.3391,"1525": 10.1914,"1550": 8.792,"1575": 8.6802,"1600": 8.776,"1625": 6.4596,"1650": 5.1411,"1675": 4.2406,"1700": 4.0479,"1725": 3.9194,"1750": 3.1795,"1775": 3.163,"1800": 2.7936,"1825": 2.8578,"1850": 2.5848,"1875": 2.6008,"1900": 2.4402,"1925": 2.408,"1950": 1.8622,"1975": 2.0547,"2000": 1.6534,"2025": 1.5411,"2050": 1.7337,"2075": 1.5732,"2100": 1.493,"2125": 1.2039,"2150": 1.0915,"2175": 1.1236,"2200": 0.626,"2225": 0.626,"2250": 0.2568,"2275": 0.1605,"2300": 0.1284,"2325": 0.0963,"2350": 0.0321,"2375": 0.0161}}}