{"type":"Feature","properties":{"GID_3":"ESP.9.1.9_1","GID_0":"ESP","country":"Spain","GID_1":"ESP.9_1","province":"ComunidadForaldeNavarra","NL_NAME_1":"NA","GID_2":"ESP.9.1_1","county":"Navarra","NL_NAME_2":"NA","city":"n.a.(193)","VARNAME_3":"NA","NL_NAME_3":"NA","TYPE_3":"Comarca","ENGTYPE_3":"Comarca","CC_3":"NA","HASC_3":"NA","name":"n.a.(193).city"},
"geometry":{"type": "MultiPolygon","coordinates": [[[[-1.8334,42.6401,330.3542],[-1.7988,42.6354,404.298],[-1.7884,42.6268,472.0838],[-1.7814,42.6265,496.2734],[-1.7778,42.6243,485.0254],[-1.7709,42.626,502.9689],[-1.7613,42.6245,532.8309],[-1.7486,42.6255,544.9716],[-1.7445,42.6213,552.2728],[-1.7372,42.6202,497.0],[-1.7343,42.6224,528.9771],[-1.7318,42.6221,538.3106],[-1.7222,42.6187,543.9091],[-1.7187,42.6157,502.999],[-1.7129,42.6151,515.9365],[-1.7057,42.6178,557.2815],[-1.7031,42.6172,583.1124],[-1.7016,42.6113,622.9353],[-1.6977,42.6118,623.9416],[-1.6859,42.6239,558.8082],[-1.6913,42.6281,577.937],[-1.6982,42.6386,616.8778],[-1.703,42.6508,537.4199],[-1.7073,42.6556,485.0432],[-1.7072,42.6641,469.96],[-1.6997,42.6662,467.7629],[-1.6934,42.6635,493.3041],[-1.693,42.6602,499.7039],[-1.688,42.6608,520.0984],[-1.6844,42.6561,564.7877],[-1.6833,42.6513,608.1992],[-1.6862,42.6452,644.8997],[-1.6806,42.6292,548.5903],[-1.6715,42.6338,573.6457],[-1.6726,42.64,587.5185],[-1.664,42.6486,661.965],[-1.6575,42.65,659.4194],[-1.6559,42.6554,597.4899],[-1.6585,42.657,591.8569],[-1.6486,42.6593,602.1208],[-1.6432,42.6633,775.9263],[-1.632,42.6677,770.1138],[-1.6194,42.6792,1023.9625],[-1.6162,42.683,1013.3719],[-1.6164,42.6856,1091.5812],[-1.6043,42.6938,1048.3483],[-1.5967,42.6925,1024.4756],[-1.5933,42.6854,958.1265],[-1.5723,42.6926,1108.4717],[-1.5536,42.6937,1100.5984],[-1.5494,42.6952,1090.3058],[-1.5481,42.7042,849.5911],[-1.5434,42.7113,528.0476],[-1.5428,42.7209,502.6294],[-1.5474,42.7236,511.9438],[-1.5554,42.7227,494.8093],[-1.5569,42.7262,482.4416],[-1.5549,42.7282,486.7735],[-1.5365,42.7347,676.9052],[-1.5404,42.7458,801.8593],[-1.5339,42.7514,857.6372],[-1.5282,42.751,816.7182],[-1.522,42.7537,853.0193],[-1.5182,42.7585,877.9224],[-1.516,42.775,785.3029],[-1.5107,42.7813,788.4913],[-1.5122,42.7849,774.9865],[-1.5107,42.7875,822.6612],[-1.5236,42.7946,803.8854],[-1.5218,42.7956,810.2392],[-1.5245,42.7973,776.7462],[-1.5114,42.807,568.2519],[-1.5083,42.8069,559.8772],[-1.5087,42.8116,560.8499],[-1.5122,42.812,566.8514],[-1.5095,42.816,552.0434],[-1.5107,42.8168,552.0434],[-1.5061,42.8174,572.8005],[-1.5005,42.8307,795.8387],[-1.4956,42.8346,823.9369],[-1.492,42.8405,941.4161],[-1.4923,42.847,839.0757],[-1.4978,42.8467,831.7637],[-1.4997,42.8517,872.2415],[-1.5003,42.865,943.8324],[-1.5029,42.8685,965.858],[-1.5259,42.8638,859.8005],[-1.5366,42.8631,827.7034],[-1.5411,42.8605,826.1895],[-1.5484,42.8612,721.8282],[-1.5511,42.8535,676.7091],[-1.5551,42.8537,735.6235],[-1.5558,42.851,761.9839],[-1.5659,42.8469,672.5178],[-1.5719,42.8469,635.5239],[-1.5739,42.8352,467.0129],[-1.5918,42.8362,519.6995],[-1.596,42.8393,508.0095],[-1.6034,42.8362,454.2717],[-1.6389,42.8424,564.859],[-1.6395,42.8413,600.6078],[-1.6323,42.8388,517.257],[-1.6336,42.8354,431.1828],[-1.6357,42.8357,432.9099],[-1.637,42.834,429.5771],[-1.6337,42.8328,428.9422],[-1.6491,42.8298,424.8975],[-1.6523,42.8358,441.6857],[-1.651,42.8429,607.6494],[-1.6525,42.8475,728.577],[-1.6577,42.85,799.3622],[-1.6678,42.8602,811.5379],[-1.6759,42.8634,715.7036],[-1.6763,42.8647,640.2281],[-1.6697,42.8641,650.209],[-1.6724,42.8719,503.5906],[-1.6795,42.8745,478.237],[-1.6805,42.8767,479.8318],[-1.6771,42.8785,525.2355],[-1.6803,42.8832,497.2164],[-1.6744,42.8859,552.1716],[-1.6736,42.8878,590.6749],[-1.6563,42.8922,792.6577],[-1.6524,42.8955,914.8294],[-1.6599,42.9011,898.5374],[-1.658,42.9034,774.4633],[-1.6629,42.9076,888.6254],[-1.6591,42.909,887.9962],[-1.6631,42.9135,796.7418],[-1.6647,42.9204,674.2592],[-1.6771,42.9211,728.0582],[-1.6882,42.9128,744.0223],[-1.6902,42.9128,743.4366],[-1.6899,42.9118,733.7744],[-1.6938,42.9113,692.0046],[-1.6973,42.9084,674.8796],[-1.7053,42.9076,712.2634],[-1.7066,42.9149,651.7679],[-1.7042,42.9185,712.4108],[-1.7101,42.9271,730.4151],[-1.7096,42.9313,630.8986],[-1.7236,42.9321,685.9317],[-1.73,42.9309,762.6577],[-1.7304,42.929,835.6285],[-1.7345,42.9294,865.5629],[-1.7515,42.9251,884.7377],[-1.7536,42.9266,891.4508],[-1.7587,42.9261,831.495],[-1.7584,42.932,656.218],[-1.7651,42.9414,753.4662],[-1.7641,42.9426,749.6588],[-1.7688,42.9438,770.9567],[-1.7708,42.9438,784.7147],[-1.7849,42.9331,767.2011],[-1.7923,42.9321,673.4731],[-1.8017,42.935,731.3761],[-1.8072,42.9349,819.2927],[-1.8141,42.9307,969.7513],[-1.7994,42.9205,768.2437],[-1.8054,42.91,496.772],[-1.8113,42.9053,638.9694],[-1.7979,42.9008,470.8831],[-1.7946,42.8976,548.9043],[-1.7918,42.8902,662.061],[-1.7941,42.89,615.4872],[-1.8002,42.8832,750.0759],[-1.8246,42.8856,426.0029],[-1.8238,42.8826,440.4148],[-1.8387,42.888,958.6896],[-1.8456,42.8874,818.9708],[-1.8498,42.8852,881.6694],[-1.8529,42.8812,1022.3683],[-1.8734,42.8867,1052.1707],[-1.8735,42.8841,967.1018],[-1.8861,42.8861,921.1371],[-1.9097,42.8825,955.4194],[-1.9104,42.8802,952.3331],[-1.8993,42.8717,971.8647],[-1.9171,42.868899999999996,1225.7723],[-1.925,42.8589,1214.6356],[-1.9367,42.8585,1213.665],[-1.939,42.8559,1182.8529],[-1.9385,42.8514,1190.5175],[-1.934,42.8443,1054.2361],[-1.9426,42.8412,1023.9163],[-1.9487,42.8335,1013.6224],[-1.9499,42.8293,997.0986],[-1.9478,42.8246,1014.7045],[-1.9402,42.8221,1086.1501],[-1.9352,42.8177,1126.2729],[-1.9277,42.8152,1002.7861],[-1.9222,42.8107,926.1486],[-1.919,42.8056,881.4739],[-1.9177,42.7985,756.5051],[-1.9024,42.8008,874.6428],[-1.8955,42.7999,1000.786],[-1.8908,42.8053,988.9762],[-1.8837,42.8077,891.3887],[-1.8726,42.8068,894.3862],[-1.8705,42.81,894.3895],[-1.8665,42.8072,896.6593],[-1.8517,42.8065,992.2188],[-1.8471,42.8021,1087.9866],[-1.8366,42.8032,979.8509],[-1.8226,42.8007,865.0936],[-1.8167,42.8023,844.4965],[-1.8118,42.8015,807.489],[-1.8091,42.803,795.1287],[-1.8083,42.7957,494.3564],[-1.8248,42.7984,676.5585],[-1.8431,42.7989,1050.3149],[-1.8482,42.7959,881.7567],[-1.844,42.7889,809.9194],[-1.855,42.7634,828.8739],[-1.8668,42.76,887.567],[-1.8683,42.756,944.0968],[-1.8711,42.7542,997.6008],[-1.8719,42.7499,904.2241],[-1.8818,42.736,711.8829],[-1.8834,42.7372,707.8553],[-1.8872,42.7338,669.4573],[-1.8898,42.7352,649.8579],[-1.8948,42.7317,697.4777],[-1.8924,42.727,710.0012],[-1.8907,42.71,826.139],[-1.8868,42.7094,778.1112],[-1.8839,42.6988,672.5156],[-1.8644,42.6852,659.5108],[-1.8587,42.6846,537.3385],[-1.8557,42.6768,563.0546],[-1.8482,42.6735,504.694],[-1.8427,42.6686,432.9433],[-1.8382,42.6602,336.7743],[-1.843,42.6589,333.1393],[-1.8474,42.6604,334.9737],[-1.8499,42.6588,345.9836],[-1.8426,42.6532,335.2242],[-1.8405,42.6464,331.3937],[-1.8334,42.6401,330.3542]],
[[-1.6664,42.8334,427.5701],[-1.6828,42.836,422.6411],[-1.679,42.839,427.0538],[-1.6747,42.85,508.9308],[-1.6697,42.8553,746.1504],[-1.659,42.8493,799.3622],[-1.662,42.8456,593.6336],[-1.6631,42.8394,437.3069],[-1.666,42.8371,432.9876],[-1.6664,42.8334,427.5701]],
[[-1.6399,42.7419,476.9728],[-1.6356,42.7443,463.1635],[-1.631,42.7421,458.8118],[-1.6284,42.7341,486.1011],[-1.6337,42.72,490.6854],[-1.6398,42.7205,517.4345],[-1.6477,42.7176,535.7932],[-1.6517,42.7195,576.4525],[-1.6495,42.7257,510.5339],[-1.6553,42.7267,525.9601],[-1.6618,42.7335,597.1388],[-1.6475,42.7425,458.2301],[-1.6399,42.7419,476.9728]],
[[-1.7583,42.8964,633.8414],[-1.7555,42.9003,646.8976],[-1.7507,42.9011,665.3164],[-1.7487,42.9007,676.6052],[-1.7467,42.8965,682.4283],[-1.7553,42.8948,633.9456],[-1.7583,42.8964,633.8414]],
[[-1.7347,42.8683,627.1784],[-1.7376,42.87,542.738],[-1.7355,42.872,515.0243],[-1.7327,42.871,523.0997],[-1.7347,42.8683,627.1784]],
[[-1.7271,42.8468,416.1947],[-1.7285,42.8456,411.938],[-1.733,42.8476,423.9133],[-1.7292,42.8473,418.5135],[-1.7271,42.8468,416.1947]]]]}}