{"type": "Feature","bbox": [1.3375,41.156,1.6532,41.4056],"geometry": {"type": "MultiPolygon","coordinates": [[[[1.6085,41.1874,0.0],[1.6063,41.1876,0.0],[1.6057,41.1854,0.0],[1.6088,41.186,0.0],[1.6085,41.1874,0.0]]],
[[[1.6142,41.226,192.6021],[1.6142,41.2296,212.5654],[1.6026,41.2349,144.2343],[1.5936,41.234,103.3652],[1.5817,41.2372,89.7678],[1.5756,41.2497,101.7469],[1.575,41.2562,114.5432],[1.5702,41.2608,135.4145],[1.5851,41.2575,116.4298],[1.5943,41.259,124.3973],[1.5935,41.258,119.1952],[1.5962,41.2567,127.7489],[1.595,41.2555,123.9834],[1.5992,41.2563,132.6038],[1.597,41.2534,133.928],[1.6025,41.2534,150.0412],[1.606,41.2504,172.2338],[1.6114,41.2506,164.3844],[1.6166,41.2525,184.1928],[1.6177,41.2547,178.8429],[1.6197,41.2537,185.5879],[1.622,41.255,197.8377],[1.621,41.2565,188.9636],[1.6239,41.2626,157.2218],[1.6223,41.2639,134.1915],[1.6229,41.2668,125.8676],[1.6275,41.2696,125.7603],[1.6259,41.273,117.2224],[1.6236,41.2738,118.8816],[1.6238,41.2763,121.7898],[1.62,41.2771,128.85],[1.6292,41.2828,154.4757],[1.6278,41.2947,145.6436],[1.6334,41.2945,144.188],[1.6368,41.296,148.5787],[1.6312,41.2989,155.4871],[1.6278,41.296,155.1569],[1.6249,41.2967,157.9336],[1.6164,41.2931,144.8369],[1.6121,41.2852,146.6902],[1.6089,41.2854,149.046],[1.6074,41.2873,148.1946],[1.6028,41.2868,151.3867],[1.6042,41.289,152.0404],[1.599,41.2893,155.0907],[1.5959,41.2923,162.5225],[1.5882,41.294,162.1296],[1.5957,41.3076,206.2541],[1.595,41.3094,207.9894],[1.5924,41.3116,201.42],[1.5783,41.3159,227.9614],[1.5748,41.3152,254.8406],[1.5737,41.3249,290.4296],[1.5686,41.3305,366.2708],[1.5692,41.3326,402.4799],[1.5658,41.3397,463.0236],[1.5587,41.3432,541.3363],[1.5736,41.3554,343.6564],[1.5788,41.3564,312.2453],[1.578,41.3625,364.1467],[1.5741,41.3633,355.4948],[1.5705,41.3614,372.7086],[1.5694,41.3684,392.8593],[1.563,41.3698,408.972],[1.5598,41.368,469.6344],[1.5522,41.3681,461.663],[1.5468,41.3737,502.0743],[1.5457,41.3792,573.2417],[1.5368,41.3854,658.0939],[1.5311,41.3877,642.9173],[1.5189,41.3888,589.2278],[1.5119,41.3944,770.6748],[1.5093,41.3945,749.9821],[1.5052,41.3915,654.3192],[1.4949,41.39,713.5947],[1.4847,41.3824,702.092],[1.4786,41.3819,643.1919],[1.4775,41.383,645.6426],[1.4731,41.3808,561.3582],[1.4679,41.3853,664.0756],[1.4616,41.3846,703.1796],[1.4551,41.379,720.409],[1.449,41.3782,831.8887],[1.4333,41.3835,770.8226],[1.4293,41.3745,647.531],[1.4113,41.3708,485.291],[1.412,41.3747,520.2332],[1.4162,41.3773,557.757],[1.4165,41.3815,588.647],[1.4183,41.3818,594.9713],[1.4198,41.3905,762.5779],[1.4248,41.3927,769.5013],[1.4263,41.3994,817.6838],[1.4236,41.4036,858.2458],[1.4177,41.401,806.2073],[1.4072,41.4056,740.5909],[1.4042,41.3973,794.5925],[1.4056,41.3948,750.8503],[1.3969,41.3954,689.0909],[1.3972,41.3974,744.9295],[1.3924,41.3981,694.6703],[1.3897,41.3965,600.4161],[1.3824,41.3983,594.5521],[1.3799,41.3954,522.5111],[1.3819,41.3902,468.7499],[1.3697,41.3872,375.2405],[1.3681,41.3859,356.1967],[1.3691,41.384,349.6573],[1.3614,41.3818,341.5615],[1.3651,41.3786,349.1099],[1.367,41.3651,320.0169],[1.3656,41.361,318.4213],[1.354,41.3671,393.1962],[1.3492,41.3608,381.3496],[1.3498,41.3505,370.3765],[1.3426,41.3416,348.5084],[1.3375,41.3296,325.911],[1.3525,41.319,267.7267],[1.3579,41.3225,267.9512],[1.3579,41.324,262.36],[1.3613,41.3251,286.3423],[1.3642,41.3295,339.0157],[1.3766,41.3316,367.5623],[1.4026,41.325,403.1391],[1.4041,41.3211,376.9538],[1.4201,41.314,421.9962],[1.4258,41.3085,513.845],[1.424,41.3047,486.5123],[1.4195,41.3036,473.5853],[1.4154,41.299,440.4907],[1.4102,41.2995,417.3702],[1.3988,41.2922,346.5806],[1.4133,41.2878,329.0648],[1.4358,41.2863,357.3023],[1.4331,41.2829,367.0767],[1.4393,41.2723,368.9482],[1.4386,41.2706,366.9186],[1.4531,41.2561,261.1325],[1.456,41.2508,247.2342],[1.4519,41.2474,291.3525],[1.4356,41.2514,232.2728],[1.4268,41.2482,262.9973],[1.4215,41.2487,280.0257],[1.4157,41.2455,282.5896],[1.4133,41.2412,254.3045],[1.4061,41.2377,264.2407],[1.4054,41.226,262.8769],[1.3989,41.2215,243.8593],[1.3906,41.2209,209.0441],[1.3961,41.2059,214.2559],[1.4011,41.2062,190.9456],[1.4045,41.2101,210.1119],[1.4099,41.2125,222.5464],[1.4174,41.2116,308.731],[1.4132,41.2073,252.1993],[1.4108,41.199,183.142],[1.4168,41.1949,136.0235],[1.4173,41.1865,92.1214],[1.4223,41.1778,84.9351],[1.421,41.1717,58.9177],[1.4245,41.1647,50.585],[1.4319,41.1626,16.2549],[1.4397,41.156,1.1793],[1.4463,41.1596,0.7614],[1.4521,41.1593,0.2949],[1.4626,41.1651,0.0],[1.4726,41.166,1.8312],[1.4787,41.1682,2.6042],[1.4815,41.1674,0.0],[1.4824,41.1693,5.1766],[1.4957,41.1738,6.3484],[1.5082,41.1757,1.7812],[1.5213,41.1799,1.2235],[1.5243,41.1799,0.3618],[1.5251,41.176,0.1257],[1.5265,41.176,0.1538],[1.5276,41.1776,0.0],[1.5254,41.1807,6.7239],[1.5321,41.1821,3.9773],[1.6304,41.1921,2.1484],[1.6452,41.1957,1.9817],[1.6408,41.2038,26.8662],[1.6413,41.2118,79.3559],[1.6466,41.2119,58.4628],[1.6463,41.2086,45.5856],[1.6532,41.2074,31.3394],[1.6479,41.2123,77.4264],[1.6476,41.2165,105.7424],[1.644,41.2204,150.9564],[1.6461,41.2288,131.7001],[1.641,41.2354,166.7097],[1.6341,41.231,176.9126],[1.6311,41.2245,124.1512],[1.6214,41.2232,164.2531],[1.6142,41.226,192.6021]]],
[[[1.6354,41.3095,147.7818],[1.6425,41.313,151.14],[1.6333,41.3135,153.3088],[1.629,41.3107,148.6482],[1.6354,41.3095,147.7818]]]]}
,"properties": {"GID_3": "ESP.6.4.2_1","GID_0": "ESP","country": "Spain","GID_1": "ESP.6_1","province": "Cataluña","NL_NAME_1": "NA","GID_2": "ESP.6.4_1","county": "Tarragona","NL_NAME_2": "NA","city": "n.a.(241)","VARNAME_3": "NA","NL_NAME_3": "NA","TYPE_3": "Comarca","ENGTYPE_3": "Comarca","CC_3": "NA","HASC_3": "NA","name": "n.a.(241).city","area_km2": 389.4552,"hist_schema_id": "Elevation0-9000","hist_area_km2": {"0": 10.5795,"25": 17.5991,"50": 18.1382,"75": 21.9772,"100": 21.2081,"125": 25.6342,"150": 27.0005,"175": 19.7953,"200": 19.349,"225": 15.4773,"250": 16.1308,"275": 11.3465,"300": 8.7942,"325": 11.2448,"350": 11.673,"375": 12.9283,"400": 10.3801,"425": 11.4456,"450": 11.3175,"475": 13.5291,"500": 12.8442,"525": 11.6504,"550": 10.17,"575": 9.1987,"600": 7.846,"625": 6.2064,"650": 4.6943,"675": 3.4372,"700": 2.1642,"725": 1.4161,"750": 1.082,"775": 0.9864,"800": 0.9863,"825": 1.0816,"850": 0.1113,"875": 0.0318}}}