{"type": "Feature","id": "5812","bbox": [-6.4379,36.00646,-5.08466,37.04588],"geometry": {"type": "Polygon","coordinates": [[[-5.4367,36.94876,346.4799],[-5.44667,36.95854,259.733],[-5.44776,36.97702,335.729],[-5.42827,37.00802,310.9141],[-5.42618,37.02505,288.1292],[-5.43319,37.03577,233.4195],[-5.44517,37.04268,263.2943],[-5.45898,37.04588,270.0076],[-5.47149,37.0455,296.7951],[-5.48897,37.03965,214.8285],[-5.49452,37.03375,194.6728],[-5.49756,37.02424,190.9858],[-5.49318,36.98812,257.8227],[-5.49534,36.97533,223.271],[-5.50674,36.95478,328.053],[-5.52371,36.93862,155.9621],[-5.54464,36.92702,143.2035],[-5.56574,36.92082,139.5885],[-5.58687,36.92235,187.8122],[-5.64222,36.95847,126.0814],[-5.66907,36.96519,101.3168],[-5.69261,36.9527,134.9233],[-5.71705,36.91963,172.3692],[-5.80639,36.92062,202.3217],[-5.84345,36.91108,145.3523],[-5.86624,36.89699,133.4299],[-5.88027,36.87509,106.4811],[-5.89104,36.84207,186.2973],[-5.94149,36.85202,176.9317],[-5.97305,36.84413,174.3176],[-6.10518,36.8575,2.0522],[-6.15769,36.886,21.4948],[-6.23161,36.90283,1.2286],[-6.30435,36.90721,0.0],[-6.33821,36.88373,0.0],[-6.34374,36.85993,1.0306],[-6.33519,36.81826,0.6959],[-6.34561,36.79499,0.0],[-6.35888,36.78583,2.3363],[-6.39631,36.77509,0.0],[-6.41454,36.76765,0.0],[-6.43334,36.75121,0.0],[-6.4379,36.7333,8.9757],[-6.43155,36.71459,2.7851],[-6.41763,36.69595,7.1536],[-6.40697,36.6767,7.1276],[-6.39468,36.63691,0.0],[-6.37979,36.62425,0.0],[-6.36172,36.62055,12.3653],[-6.29385,36.61685,28.1752],[-6.28319,36.61237,36.4303],[-6.23489,36.57575,0.0],[-6.22602,36.55667,0.0],[-6.23245,36.52619,0.0],[-6.22435,36.51085,0.2518],[-6.20682,36.5089,0.0],[-6.18647,36.51423,0.0],[-6.17935,36.51354,0.0],[-6.20075,36.49384,0.0],[-6.2115,36.48054,1.0485],[-6.21906,36.47496,0.0],[-6.23148,36.47268,0.0],[-6.24665,36.48664,0.0],[-6.2541,36.49628,0.0],[-6.24897,36.50475,0.0],[-6.25752,36.51378,0.0],[-6.28938,36.5373,2.0996],[-6.29768,36.53876,0.0],[-6.31001,36.53413,0.0],[-6.30142,36.52599,0.0],[-6.27961,36.5113,10.6461],[-6.25711,36.47643,0.0],[-6.24205,36.44648,0.9405],[-6.21837,36.40245,2.4507],[-6.18419,36.37071,10.3699],[-6.1752,36.35358,0.0],[-6.16853,36.33531,0.0],[-6.16596,36.31871,0.0],[-6.15945,36.30431,0.0],[-6.10473,36.28071,0.0],[-6.08218,36.25068,0.0],[-6.06249,36.21723,0.0],[-6.03677,36.18952,1.4588],[-5.98355,36.17699,0.0],[-5.93895,36.18382,0.8252],[-5.91719,36.18407,0.0],[-5.8979,36.1739,0.4583],[-5.83275,36.12238,11.3075],[-5.81127,36.09683,34.3783],[-5.79605,36.08552,42.1716],[-5.75365,36.07559,13.7962],[-5.73388,36.06566,0.0],[-5.71312,36.05996,3.1177],[-5.68936,36.06712,0.3902],[-5.6717,36.05598,0.0],[-5.62971,36.03677,0.199],[-5.61177,36.00646,0.0],[-5.581,36.01398,26.0612],[-5.5666,36.02163,58.3145],[-5.4665,36.05073,13.2784],[-5.44551,36.05744,0.0],[-5.43863,36.06281,0.0],[-5.43183,36.06957,0.0],[-5.4287,36.0808,47.5017],[-5.43163,36.08893,0.0],[-5.43716,36.0987,0.0],[-5.43989,36.1142,17.5593],[-5.43489,36.12153,2.1049],[-5.44148,36.13455,2.1128],[-5.44233,36.14879,0.0],[-5.4379,36.16149,0.0],[-5.4287,36.16999,0.0],[-5.42545,36.17975,7.2379],[-5.40608,36.17923,0.0],[-5.38252,36.17231,0.0],[-5.36661,36.16315,0.0],[-5.35839,36.14111,4.3026],[-5.33877,36.14112,0.9012],[-5.33406,36.18781,2.5931],[-5.32934,36.19815,1.8017],[-5.29662,36.24738,6.9132],[-5.28531,36.26081,0.0],[-5.2895,36.26984,6.0248],[-5.2906,36.27741,16.8399],[-5.27412,36.28254,0.0],[-5.26594,36.2871,0.0],[-5.25862,36.29255,0.0],[-5.25365,36.29711,0.0],[-5.27779,36.33691,154.4324],[-5.32,36.32491,6.7782],[-5.33511,36.39526,22.7142],[-5.35536,36.43369,268.0856],[-5.39147,36.46584,97.1219],[-5.41535,36.507,220.0549],[-5.42621,36.51805,403.5015],[-5.4413,36.52365,592.9232],[-5.4771,36.52183,533.5585],[-5.51319,36.51178,373.637],[-5.55015,36.4932,337.6763],[-5.57141,36.49357,468.2958],[-5.58565,36.49896,627.7341],[-5.6001,36.50796,941.4806],[-5.60784,36.51967,1024.3538],[-5.60194,36.53322,754.7897],[-5.5927,36.53864,568.5739],[-5.50922,36.55996,265.7439],[-5.48347,36.57314,514.447],[-5.47279,36.58281,483.3934],[-5.45454,36.61034,508.0282],[-5.44494,36.61817,653.7548],[-5.38374,36.6346,1087.0574],[-5.35562,36.64885,1109.6666],[-5.33928,36.66635,1092.2341],[-5.32097,36.72873,854.8549],[-5.30071,36.75027,851.4478],[-5.2974,36.7707,812.2346],[-5.33269,36.80565,412.4933],[-5.34139,36.82557,455.7474],[-5.33502,36.83967,745.7095],[-5.30491,36.86507,713.5917],[-5.29072,36.87236,511.9698],[-5.26271,36.87388,614.6467],[-5.19408,36.82906,731.4526],[-5.16177,36.83004,878.1565],[-5.13115,36.84378,785.2169],[-5.10549,36.86628,814.9382],[-5.08808,36.89357,747.8407],[-5.08466,36.92538,707.7762],[-5.09703,36.9559,539.89],[-5.14224,37.0037,548.1955],[-5.17662,36.97081,555.2109],[-5.19646,36.95828,583.7985],[-5.21899,36.94964,518.3802],[-5.23645,36.94931,408.1175],[-5.25039,36.95669,456.9139],[-5.29615,37.01288,416.3826],[-5.30635,37.01759,454.8022],[-5.31497,37.01637,430.599],[-5.42415,36.95096,349.3756],[-5.4367,36.94876,346.4799]]]}
,"properties": {"ISO3166-1-Alpha-3": "ESP","country": "Spain","fill": "#F0F","name": "Cádiz","area_km2": 7426.737,"hist_schema_id": "Elevation0-9000","hist_area_km2": {"0": 817.006,"25": 1013.179,"50": 834.382,"75": 725.256,"100": 574.823,"125": 436.379,"150": 346.655,"175": 254.218,"200": 213.617,"225": 193.859,"250": 185.552,"275": 168.202,"300": 155.916,"325": 146.422,"350": 145.238,"375": 127.004,"400": 109.925,"425": 98.888,"450": 89.189,"475": 78.114,"500": 66.217,"525": 57.781,"550": 50.437,"575": 50.764,"600": 45.604,"625": 43.265,"650": 38.711,"675": 32.573,"700": 30.803,"725": 29.861,"750": 30.717,"775": 30.272,"800": 35.265,"825": 27.833,"850": 19.689,"875": 15.667,"900": 13.883,"925": 10.807,"950": 10.161,"975": 8.971,"1000": 7.186,"1025": 7.152,"1050": 5.54,"1075": 5.048,"1100": 4.877,"1125": 4.673,"1150": 3.823,"1175": 3.942,"1200": 3.67,"1225": 3.585,"1250": 2.854,"1275": 2.039,"1300": 1.682,"1325": 2.039,"1350": 1.24,"1375": 0.917,"1400": 0.595,"1425": 0.815,"1450": 0.561,"1475": 0.442,"1500": 0.357,"1525": 0.221,"1550": 0.153,"1575": 0.119,"1600": 0.068}}}