{"type":"Feature","properties":{"id":140902.0,"name":null,"lge_id":null,"pfafstette":415.0,"lke_type":"N","altitude":85,"objectid":88742,"scalerank":12,"featurecla":"Lake","note":"_untitled_88742","funkyname":0,"min_zoom":7.0,"min_label":8.0},
"geometry":{"type": "Polygon","coordinates": [[[-5.7014054027287671,36.653937078900327,95.0],[-5.7014054027287671,36.653937078900327,95.0],[-5.6840714183537671,36.664313055462827,113.3511],[-5.6993302074162671,36.667975164837827,152.2619],[-5.7181290355412671,36.669195867962827,95.0],[-5.7242325511662671,36.676764227337827,95.0],[-5.7327774730412671,36.676764227337827,95.0],[-5.7613419261662671,36.677374578900327,145.5679],[-5.7819718089787671,36.673102117962827,113.1662],[-5.7750138011662671,36.659735418744077,95.0],[-5.7518814769475171,36.657599188275327,95.0],[-5.7287491527287671,36.653692938275327,95.0],[-5.7014054027287671,36.653937078900327,95.0]]]}}