{"type":"Feature","properties":{"GID_3":"ESP.10.1.5_1","GID_0":"ESP","country":"Spain","GID_1":"ESP.10_1","province":"ComunidadValenciana","NL_NAME_1":"NA","GID_2":"ESP.10.1_1","county":"Alicante","NL_NAME_2":"NA","city":"Comtat","VARNAME_3":"NA","NL_NAME_3":"NA","TYPE_3":"Comarca","ENGTYPE_3":"Comarca","CC_3":"NA","HASC_3":"NA","name":"Comtat.city"},
"geometry":{"type": "MultiPolygon","coordinates": [[[[-0.3287,38.652,980.6508],[-0.3261,38.6487,1027.8755],[-0.3275,38.6466,1082.5023],[-0.3255,38.6445,1021.9349],[-0.3184,38.6433,925.9002],[-0.3165,38.6416,841.9375],[-0.3121,38.6413,871.8264],[-0.3093,38.6428,950.6839],[-0.3056,38.6496,1177.6592],[-0.3108,38.6638,1119.7267],[-0.3082,38.6731,1064.5819],[-0.3108,38.6736,999.3282],[-0.3123,38.6771,869.3674],[-0.3022,38.6785,964.3204],[-0.3025,38.6805,1054.356],[-0.3091,38.6828,1039.0551],[-0.3071,38.6998,1148.2113],[-0.2809,38.7125,1202.3816],[-0.2571,38.7185,1269.1509],[-0.2386,38.7143,1281.085],[-0.235,38.716,1231.7517],[-0.2243,38.7126,1095.4341],[-0.2261,38.7145,1081.009],[-0.222,38.7192,890.1021],[-0.2251,38.7235,798.1008],[-0.2215,38.7291,628.1025],[-0.2215,38.7324,687.2563],[-0.2318,38.7434,844.5253],[-0.2347,38.7489,1028.3606],[-0.2379,38.7504,1105.7397],[-0.2317,38.7551,962.0923],[-0.2303,38.7583,677.4134],[-0.2268,38.7583,640.5585],[-0.2096,38.7659,585.1525],[-0.1956,38.77,516.2223],[-0.215,38.775,792.4232],[-0.2205,38.7749,780.1167],[-0.2298,38.7788,784.4981],[-0.2446,38.7755,789.1396],[-0.2555,38.7753,747.947],[-0.2809,38.7643,843.7966],[-0.287,38.7663,815.7589],[-0.2919,38.7722,745.9098],[-0.2835,38.7829,587.3021],[-0.2867,38.7925,693.0824],[-0.2856,38.8057,875.1029],[-0.2982,38.8205,660.6669],[-0.3072,38.8223,696.3448],[-0.3066,38.8246,654.7443],[-0.2849,38.8335,569.5155],[-0.2755,38.8405,547.3464],[-0.2602,38.86,992.2949],[-0.2733,38.8641,527.6006],[-0.2883,38.8723,459.5241],[-0.2992,38.8817,383.2895],[-0.3108,38.8815,502.9839],[-0.3127,38.875,576.8368],[-0.3159,38.8731,585.101],[-0.3184,38.8681,788.1161],[-0.3224,38.8666,805.7068],[-0.3236,38.8635,744.1605],[-0.3346,38.8641,684.073],[-0.3485,38.8614,721.8773],[-0.3533,38.8586,742.4792],[-0.3498,38.8574,746.4923],[-0.3551,38.8498,706.7408],[-0.3694,38.8431,623.0714],[-0.3823,38.8346,634.0406],[-0.4022,38.8398,798.5097],[-0.4043,38.839,827.1436],[-0.404,38.8332,938.0638],[-0.4402,38.8239,930.6106],[-0.4433,38.8191,899.3812],[-0.4442,38.8205,902.537],[-0.4599,38.8151,758.2598],[-0.4618,38.8077,597.5545],[-0.4744,38.8039,691.8743],[-0.4775,38.8053,658.3565],[-0.5158,38.8069,716.3069],[-0.5256,38.8106,682.8537],[-0.5352,38.8104,683.951],[-0.5482,38.8057,649.9798],[-0.5675,38.8017,654.3317],[-0.5802,38.8009,646.6917],[-0.5952,38.7951,471.2464],[-0.5937,38.7916,468.8301],[-0.5962,38.7904,495.0714],[-0.5899,38.7843,538.8723],[-0.5902,38.7778,566.7896],[-0.5842,38.7684,619.5737],[-0.5758,38.7643,661.2205],[-0.5656,38.7555,938.2019],[-0.5598,38.7539,921.6771],[-0.5568,38.7553,926.7434],[-0.5564,38.7575,962.9447],[-0.5418,38.7618,1042.348],[-0.5418,38.7638,1044.3356],[-0.5315,38.7673,1030.7452],[-0.5258,38.7639,1033.4104],[-0.5251,38.7602,982.2743],[-0.5208,38.7567,1052.3492],[-0.5074,38.7553,1132.611],[-0.5071,38.743,1041.8743],[-0.4939,38.7384,1031.364],[-0.4942,38.734,1013.7769],[-0.4743,38.7234,673.9202],[-0.4737,38.7215,636.0599],[-0.4666,38.7181,564.5231],[-0.4648,38.7157,543.6136],[-0.4587,38.7162,516.3522],[-0.4505,38.7139,465.3228],[-0.4478,38.7058,548.3783],[-0.4493,38.7029,629.3731],[-0.4439,38.7016,672.2634],[-0.4363,38.6881,1014.8004],[-0.4294,38.6914,968.1835],[-0.4172,38.6887,675.2025],[-0.4061,38.6907,596.2575],[-0.3917,38.6903,553.493],[-0.3866,38.692,551.0253],[-0.384,38.6956,523.6926],[-0.3805,38.6948,543.3247],[-0.3743,38.7011,554.3477],[-0.3797,38.7068,580.2808],[-0.3779,38.71,539.2029],[-0.371,38.7118,492.3885],[-0.3698,38.7091,481.7071],[-0.3654,38.7087,515.0784],[-0.3594,38.7041,514.5943],[-0.36,38.7021,537.3977],[-0.3571,38.6983,574.4785],[-0.357,38.6911,673.809],[-0.3545,38.6913,677.4202],[-0.3548,38.6855,607.5255],[-0.3493,38.6847,609.6516],[-0.348,38.6859,636.6949],[-0.342,38.6841,644.8691],[-0.3427,38.6819,675.8655],[-0.3449,38.6827,656.2128],[-0.346,38.6803,716.7366],[-0.3434,38.6728,903.3924],[-0.3452,38.6726,925.1385],[-0.347,38.6675,943.0029],[-0.3494,38.6689,919.692],[-0.3512,38.6672,936.4401],[-0.3517,38.663,911.3034],[-0.3543,38.6613,931.5133],[-0.3534,38.6493,1011.6048],[-0.3356,38.654,954.6838],[-0.3287,38.652,980.6508]]]]}}