{"type":"Feature","properties":{"GID_3":"ESP.6.1.9_1","GID_0":"ESP","country":"Spain","GID_1":"ESP.6_1","province":"Cataluña","NL_NAME_1":"NA","GID_2":"ESP.6.1_1","county":"Barcelona","NL_NAME_2":"NA","city":"n.a.(35)","VARNAME_3":"NA","NL_NAME_3":"NA","TYPE_3":"Comarca","ENGTYPE_3":"Comarca","CC_3":"NA","HASC_3":"NA","name":"n.a.(35).city"},
"geometry":{"type": "MultiPolygon","coordinates": [[[[1.8128,41.6034,1145.6904],[1.8206,41.5992,1017.658],[1.8249,41.5937,951.5448],[1.8317,41.5907,847.2407],[1.8369,41.5925,720.9111],[1.8518,41.591,117.7861],[1.8634,41.5924,426.3698],[1.864,41.5981,342.0031],[1.8609,41.6064,297.975],[1.8629,41.6168,186.1136],[1.8646,41.6182,171.8785],[1.8735,41.6125,168.411],[1.8901,41.615,231.0303],[1.9014,41.6261,310.4244],[1.9087,41.6302,356.2455],[1.9157,41.6281,428.792],[1.9202,41.6288,425.3484],[1.9299,41.623,467.5675],[1.9358,41.6253,517.9593],[1.9418,41.6244,556.9482],[1.9444,41.6356,485.511],[1.9556,41.6434,703.2515],[1.9585,41.6416,753.824],[1.9572,41.6465,662.5463],[1.9616,41.6443,699.4114],[1.9716,41.6488,869.0496],[1.9825,41.6483,702.8328],[1.9898,41.6543,865.9004],[2.0053,41.6547,952.266],[2.0105,41.6582,1008.5375],[2.0109,41.6658,995.6235],[2.0046,41.6758,993.6675],[2.0062,41.6781,923.7881],[2.0105,41.6783,790.6194],[2.0131,41.6805,841.043],[2.0095,41.6864,805.8567],[2.0095,41.6924,782.0087],[2.013,41.6921,724.7621],[2.0203,41.6968,747.4135],[2.0221,41.699,693.923],[2.0201,41.7053,653.4633],[2.0222,41.7077,654.3305],[2.0162,41.7165,632.622],[2.0144,41.7275,646.1112],[2.0109,41.7302,643.2938],[2.0039,41.7287,627.9732],[2.0022,41.7435,675.1451],[1.9968,41.7441,621.4435],[1.9895,41.7503,594.4688],[1.9793,41.753,527.658],[1.9655,41.752,505.0806],[1.955,41.7471,432.0664],[1.9322,41.7442,399.5452],[1.9276,41.7451,379.1001],[1.9232,41.7499,296.9205],[1.9239,41.7527,321.7268],[1.9208,41.7539,316.8206],[1.9197,41.7588,281.1734],[1.9162,41.7569,278.162],[1.9152,41.7602,255.1885],[1.918,41.7613,282.3264],[1.9169,41.7706,354.5346],[1.9123,41.771,320.6873],[1.9112,41.7746,301.3452],[1.9037,41.7739,246.5395],[1.9352,41.7809,338.1014],[1.9543,41.7819,409.1081],[1.9793,41.7926,473.0683],[2.0187,41.8016,608.9072],[2.0274,41.8018,632.8885],[2.0383,41.8058,654.7322],[2.0334,41.8133,450.4117],[2.0293,41.8148,428.6384],[2.026,41.8205,485.0114],[2.0218,41.8205,455.8457],[2.0199,41.8231,449.0578],[2.0155,41.8239,434.5587],[2.0113,41.8218,427.7403],[2.0036,41.8302,552.7976],[2.0048,41.832,559.1907],[1.9964,41.8355,466.8784],[1.976,41.8381,374.8541],[1.9768,41.8403,367.3467],[1.9741,41.8415,352.8629],[1.9751,41.848,400.8292],[1.9838,41.8555,419.2604],[1.9874,41.8548,447.3678],[1.9887,41.8568,441.6563],[1.9926,41.8577,428.6508],[2.0055,41.8687,477.7867],[2.0156,41.8731,522.5825],[2.0107,41.8789,458.3458],[2.0013,41.8824,359.3351],[2.0142,41.8851,361.2028],[2.0127,41.8881,436.1897],[2.0146,41.8998,507.1354],[2.0099,41.9062,487.3188],[2.0123,41.9121,564.3529],[2.0113,41.916,521.2908],[2.0058,41.9152,503.7861],[2.0027,41.9167,445.5892],[2.0074,41.9275,511.4839],[2.0035,41.9283,480.944],[1.9932,41.9214,444.9906],[1.9919,41.9233,434.2856],[1.9856,41.9239,521.9984],[1.9836,41.922,478.6415],[1.9841,41.9191,475.3304],[1.9705,41.9199,542.2349],[1.9548,41.9665,717.592],[1.9368,41.9654,656.1619],[1.9265,41.9597,522.3828],[1.9219,41.9546,506.3505],[1.9092,41.9496,484.8233],[1.9,41.9433,408.783],[1.8987,41.9449,390.112],[1.8942,41.9417,386.5187],[1.8984,41.9403,385.929],[1.8972,41.9386,400.5316],[1.8857,41.9377,366.8831],[1.8855,41.9318,365.2651],[1.8826,41.9261,347.0988],[1.8859,41.9207,343.2335],[1.886,41.9166,376.9843],[1.8835,41.9127,354.7443],[1.8862,41.9097,346.8472],[1.8857,41.9062,326.3007],[1.8803,41.9067,323.3431],[1.8708,41.9109,463.7672],[1.8639,41.9168,550.3643],[1.8478,41.9163,437.2701],[1.846,41.9084,414.4166],[1.848,41.9064,403.1989],[1.847,41.9029,395.7939],[1.8495,41.902,393.9483],[1.8449,41.8976,376.272],[1.8451,41.8996,389.9184],[1.8409,41.9001,391.0646],[1.8397,41.9028,414.7018],[1.8418,41.9087,460.2202],[1.8335,41.9107,482.9772],[1.8319,41.9147,479.4727],[1.8268,41.9166,547.5264],[1.8232,41.9208,544.0465],[1.8097,41.9258,617.1779],[1.8,41.9193,612.2133],[1.7874,41.9197,662.819],[1.7665,41.9122,691.1467],[1.7645,41.917,656.2408],[1.7624,41.9181,650.9927],[1.7601,41.9161,574.5925],[1.7549,41.9219,695.991],[1.751,41.917,635.1067],[1.7344,41.9171,547.7217],[1.7304,41.9189,553.1437],[1.7332,41.9253,542.1266],[1.7196,41.9315,434.2112],[1.7199,41.9374,454.7156],[1.7168,41.9435,495.765],[1.7027,41.9393,653.5006],[1.6883,41.9388,648.519],[1.686,41.9373,661.8539],[1.6783,41.9426,480.3159],[1.6786,41.9473,473.5822],[1.6744,41.9474,470.3614],[1.6744,41.9506,532.5186],[1.6704,41.9545,479.1624],[1.6714,41.9575,482.7598],[1.6689,41.9578,492.3077],[1.6647,41.9621,529.965],[1.6589,41.9612,529.2717],[1.6548,41.9579,566.4536],[1.6494,41.9566,529.7341],[1.6474,41.9529,529.3008],[1.6504,41.9448,477.0575],[1.6447,41.9438,569.1214],[1.6427,41.9405,609.4708],[1.653,41.9288,557.6147],[1.65,41.9267,579.1733],[1.6432,41.9291,471.0087],[1.6383,41.9272,477.082],[1.6325,41.9209,502.7778],[1.6223,41.9155,554.2893],[1.6228,41.9134,588.6569],[1.6171,41.91,621.4845],[1.6159,41.906,649.4612],[1.6052,41.9015,685.0138],[1.6005,41.9046,674.1906],[1.5959,41.8972,697.8457],[1.5869,41.8886,700.9119],[1.5835,41.8885,702.2549],[1.5847,41.8908,727.8478],[1.5828,41.8929,745.9595],[1.5764,41.8916,724.3508],[1.569,41.88,674.6263],[1.5834,41.8734,653.7739],[1.6018,41.8843,645.3619],[1.6027,41.8825,649.0187],[1.6059,41.8841,637.1761],[1.611,41.8806,631.5266],[1.6191,41.8816,677.2063],[1.6187,41.8776,674.0787],[1.6227,41.8707,621.9931],[1.6256,41.8691,638.1848],[1.6281,41.8602,606.858],[1.6303,41.8588,586.1474],[1.6265,41.8487,528.0413],[1.6315,41.8447,498.2758],[1.6231,41.8411,504.967],[1.6193,41.8418,508.4717],[1.61,41.8361,521.2156],[1.6155,41.8303,637.7194],[1.6115,41.8178,740.8069],[1.6024,41.8136,724.3051],[1.5933,41.812,739.4317],[1.589,41.804,755.8665],[1.594,41.8019,724.7883],[1.595,41.7965,795.252],[1.5971,41.7965,808.1141],[1.598,41.794,840.1428],[1.5959,41.7942,832.7354],[1.5971,41.7913,896.0228],[1.5998,41.7891,836.9547],[1.5922,41.7808,845.2737],[1.5936,41.778,817.4409],[1.5814,41.7756,715.6276],[1.5842,41.7717,668.7003],[1.5929,41.7694,764.4753],[1.5949,41.7647,669.6141],[1.6075,41.7663,674.4429],[1.6077,41.7706,656.5837],[1.6099,41.7685,640.9391],[1.6209,41.7687,671.6992],[1.6293,41.7661,631.4397],[1.635,41.7582,647.5782],[1.6403,41.7565,652.7892],[1.6465,41.7514,670.9413],[1.6496,41.752,638.2473],[1.6644,41.7432,528.1566],[1.6659,41.7395,436.5443],[1.6643,41.7378,511.103],[1.6738,41.733,379.9722],[1.6732,41.732,416.9774],[1.6698,41.7333,389.115],[1.6648,41.7303,407.1975],[1.6678,41.7202,687.909],[1.6645,41.713,726.521],[1.6651,41.7104,749.5195],[1.6601,41.7106,699.4207],[1.651,41.7144,530.8201],[1.6484,41.7115,551.467],[1.6457,41.7113,477.1981],[1.6449,41.7065,539.1143],[1.6242,41.7065,552.2444],[1.6214,41.7025,680.4745],[1.6154,41.7031,547.406],[1.6156,41.6963,706.2171],[1.6236,41.6912,783.657],[1.6183,41.6864,640.8235],[1.6201,41.6852,674.2078],[1.6182,41.6821,760.3552],[1.6267,41.6791,776.6863],[1.6232,41.674,731.8889],[1.6347,41.6668,810.6545],[1.6339,41.6642,821.1912],[1.6278,41.6624,789.3531],[1.6317,41.6536,566.6948],[1.642,41.6438,633.7661],[1.6422,41.655,601.5934],[1.6507,41.6543,616.8525],[1.6535,41.6585,617.0623],[1.6553,41.6567,580.1876],[1.6618,41.6569,653.9498],[1.6608,41.6531,647.2238],[1.6671,41.6532,670.2339],[1.6649,41.6507,670.1816],[1.669,41.6491,682.3373],[1.6639,41.6444,510.793],[1.6665,41.6362,489.996],[1.6813,41.6197,585.9586],[1.6891,41.6203,476.3163],[1.6907,41.6222,505.8672],[1.6967,41.622,539.4713],[1.7018,41.6188,477.6089],[1.7049,41.6231,487.1652],[1.7082,41.6243,497.11],[1.714,41.6172,529.0946],[1.7289,41.6129,543.1244],[1.7354,41.6055,620.6913],[1.7355,41.5988,619.2117],[1.7403,41.5942,575.0564],[1.7461,41.5935,553.7965],[1.7439,41.5891,624.8933],[1.7453,41.5887,582.5761],[1.7351,41.5856,700.8203],[1.7332,41.5817,719.7429],[1.7362,41.58,739.598],[1.7379,41.5761,738.1944],[1.7426,41.5745,682.9551],[1.7529,41.5766,536.6825],[1.764,41.5765,448.2019],[1.7756,41.5729,436.2601],[1.7769,41.5748,454.2082],[1.7853,41.5758,452.8835],[1.791,41.5739,433.1178],[1.7973,41.5683,397.1323],[1.7975,41.5649,387.1044],[1.8061,41.5719,397.0468],[1.8128,41.6034,1145.6904]],
[[1.72,41.8954,387.4103],[1.7249,41.8931,438.2283],[1.7188,41.8824,347.2243],[1.7156,41.8859,379.13],[1.706,41.8894,395.036],[1.7097,41.8888,364.586],[1.7118,41.8911,358.7773],[1.7089,41.8939,356.5805],[1.7087,41.8969,358.6416],[1.7117,41.8962,361.8146],[1.7153,41.8922,368.7641],[1.7183,41.8929,376.4971],[1.72,41.8954,387.4103]]]]}}