{"type":"Feature","properties":{"ISO3166-1-Alpha-3":"ESP","country":"Spain","fill":"#F00","id":"5844","name":"Sevilla"},
"geometry":{"type": "Polygon","coordinates": [[[-5.71089,38.08868,622.1064],[-5.72205,38.09018,614.4271],[-5.72825,38.0954,662.2317],[-5.73368,38.116459999999996,610.7571],[-5.73466,38.12341,620.0388],[-5.73409,38.12969,562.4758],[-5.7284,38.13431,490.9123],[-5.72089,38.13824,539.2617],[-5.71182,38.14116,576.1053],[-5.69603,38.1485,514.3608],[-5.69171,38.15385,494.3241],[-5.69365,38.15963,462.9156],[-5.69799,38.16591,438.4311],[-5.71378,38.18,451.5164],[-5.72753,38.18832,492.4442],[-5.74039,38.1902,496.4157],[-5.80721,38.18304,540.8953],[-5.83708,38.17426,530.2247],[-5.84628,38.16857,555.4091],[-5.85315,38.16196,557.6938],[-5.8617,38.14945,611.3118],[-5.8671,38.14475,631.145],[-5.87452,38.14008,680.0219],[-5.90059,38.12765,670.7885],[-5.90948,38.12114,642.4673],[-5.9154,38.11408,591.3338],[-5.91989,38.10677,512.095],[-5.92281,38.09979,482.2939],[-5.92276,38.09279,451.8344],[-5.91873,38.08654,422.0084],[-5.91374,38.08034,410.5734],[-5.91067,38.07349,395.9156],[-5.91093,38.06651,404.9207],[-5.91369,38.05959,382.6034],[-5.93077,38.04205,460.9946],[-5.93395,38.03639,353.8914],[-5.93506,38.03153,358.3507],[-5.9372,38.02574,336.9893],[-5.94108,38.01827,335.0],[-5.95211,38.00799,375.3903],[-5.96296,38.00264,335.0],[-5.97599,37.99864,378.9658],[-6.01893,37.99166,659.7402],[-6.03831,37.9905,644.4907],[-6.11409,37.97859,594.806],[-6.13892,37.9683,500.707],[-6.16995,37.94965,436.3097],[-6.18326,37.93898,428.3913],[-6.16704,37.90899,409.374],[-6.15818,37.91179,438.9719],[-6.13557,37.91049,445.6405],[-6.12707,37.90722,444.6631],[-6.14671,37.84848,400.9546],[-6.12441,37.80466,318.0371],[-6.14705,37.79367,330.3419],[-6.18503,37.80341,452.9257],[-6.20287,37.7991,460.7982],[-6.21526,37.78332,406.9149],[-6.21416,37.74378,275.2735],[-6.21643,37.73417,335.1728],[-6.22199,37.72938,240.3354],[-6.22849,37.72888,198.4981],[-6.24183,37.7308,242.1948],[-6.24754,37.73399,204.8816],[-6.25195,37.73962,237.0903],[-6.25359,37.75131,239.7107],[-6.25555,37.75691,325.0764],[-6.26622,37.76426,255.1955],[-6.31107,37.76485,468.0313],[-6.44894,37.73441,399.7109],[-6.46896,37.72469,308.8198],[-6.50333,37.67753,255.043],[-6.52249,37.66396,211.7446],[-6.52773,37.65804,241.6931],[-6.53138,37.63172,193.6273],[-6.50581,37.62166,216.0676],[-6.44319,37.62344,320.0114],[-6.39414,37.60423,266.9092],[-6.40134,37.57541,287.3121],[-6.37526,37.54624,269.1258],[-6.35603,37.49615,113.9104],[-6.31519,37.43823,47.9753],[-6.31355,37.42889,41.0],[-6.31766,37.42028,49.837],[-6.32763,37.41465,56.034],[-6.35027,37.41159,78.9801],[-6.35959,37.40676,82.5216],[-6.36415,37.39817,115.5955],[-6.35729,37.37141,74.9827],[-6.35974,37.35978,104.7589],[-6.37446,37.3475,126.3942],[-6.38037,37.33945,96.1269],[-6.37883,37.32809,99.4041],[-6.34615,37.30385,84.6713],[-6.33924,37.2896,55.3295],[-6.3409,37.27567,47.4874],[-6.35324,37.24739,47.7146],[-6.35529,37.23557,38.919],[-6.34411,37.17673,18.7494],[-6.35404,37.14601,1.2018],[-6.35288,37.11414,1.0066],[-6.35577,37.10709,0.9388],[-6.37543,37.08426,1.0604],[-6.38015,37.07345,0.9771],[-6.38162,37.0615,0.6579],[-6.37995,37.04807,0.6795],[-6.35432,36.98517,0.6972],[-6.37834,36.93404,0.9186],[-6.33907,36.9047,0.9895],[-6.32592,36.91267,0.7877],[-6.28356,36.92593,0.7003],[-6.26504,36.91291,0.6655],[-6.23965,36.9134,0.0],[-6.21402,36.9217,0.5459],[-6.19481,36.93211,1.1186],[-6.22326,36.90233,0.0],[-6.23161,36.90283,1.2286],[-6.15769,36.886,21.4948],[-6.10518,36.8575,2.0522],[-5.97305,36.84413,174.3176],[-5.94149,36.85202,176.9317],[-5.89104,36.84207,186.2973],[-5.88027,36.87509,106.4811],[-5.86624,36.89699,133.4299],[-5.84345,36.91108,145.3523],[-5.80639,36.92062,202.3217],[-5.71705,36.91963,172.3692],[-5.69261,36.9527,134.9233],[-5.66907,36.96519,101.3168],[-5.64222,36.95847,126.0814],[-5.58687,36.92235,187.8122],[-5.56574,36.92082,139.5885],[-5.54464,36.92702,143.2035],[-5.52371,36.93862,155.9621],[-5.50674,36.95478,328.053],[-5.49534,36.97533,223.271],[-5.49318,36.98812,257.8227],[-5.49756,37.02424,190.9858],[-5.49452,37.03375,194.6728],[-5.48897,37.03965,214.8285],[-5.47149,37.0455,296.7951],[-5.45898,37.04588,270.0076],[-5.44517,37.04268,263.2943],[-5.43319,37.03577,233.4195],[-5.42618,37.02505,288.1292],[-5.42827,37.00802,310.9141],[-5.44776,36.97702,335.729],[-5.44667,36.95854,259.733],[-5.4367,36.94876,346.4799],[-5.42415,36.95096,349.3756],[-5.31497,37.01637,430.599],[-5.30635,37.01759,454.8022],[-5.29615,37.01288,416.3826],[-5.25039,36.95669,456.9139],[-5.23645,36.94931,408.1175],[-5.21899,36.94964,518.3802],[-5.19646,36.95828,583.7985],[-5.17662,36.97081,555.2109],[-5.14224,37.0037,548.1955],[-4.91659,37.11304,586.5891],[-4.9021,37.13421,434.0895],[-4.94641,37.15533,416.517],[-4.95693,37.16677,412.4308],[-4.95483,37.17015,402.0082],[-4.95217,37.17281,398.5479],[-4.94536,37.17666,383.728],[-4.93354,37.17958,413.6224],[-4.92084,37.17956,435.9236],[-4.87834,37.16603,577.2422],[-4.87017,37.16684,599.3876],[-4.86159,37.17416,593.1387],[-4.85353,37.18811,497.5979],[-4.84813,37.19266,485.186],[-4.83989,37.19178,487.8674],[-4.79635,37.15852,447.5977],[-4.77727,37.16225,453.4877],[-4.73809,37.18124,477.7354],[-4.72171,37.19565,450.7762],[-4.71843,37.21462,436.8523],[-4.7356,37.24493,427.3085],[-4.71982,37.25971,410.5342],[-4.65323,37.25593,259.0721],[-4.65808,37.27741,283.9838],[-4.67065,37.29906,226.2963],[-4.67725,37.34077,252.5484],[-4.69195,37.35458,216.9051],[-4.71058,37.36161,251.7802],[-4.76345,37.32882,274.5453],[-4.78384,37.33045,284.8816],[-4.82207,37.35819,283.3499],[-4.84986,37.41069,146.3285],[-4.88488,37.43815,135.5198],[-4.88753,37.46259,156.3509],[-4.90827,37.49477,126.9139],[-4.94388,37.52018,120.7963],[-4.93618,37.53783,155.4756],[-4.92802,37.58368,196.2787],[-4.93228,37.60249,251.9725],[-4.93734,37.60794,262.0268],[-4.95021,37.614,230.3897],[-4.95522,37.61837,227.7218],[-4.95796,37.62637,210.3732],[-4.95494,37.64055,206.9111],[-4.95554,37.64802,206.0354],[-4.96654,37.67088,177.3134],[-4.98207,37.69016,168.3799],[-5.00211,37.704,176.1465],[-5.02664,37.71051,172.8511],[-5.05243,37.70828,178.4406],[-5.10502,37.69093,155.4565],[-5.12314,37.66943,174.4376],[-5.12942,37.66555,175.6228],[-5.15255,37.66192,167.4973],[-5.17945,37.66402,104.0214],[-5.19106,37.66959,104.0219],[-5.27677,37.62449,133.2912],[-5.34437,37.60999,130.1453],[-5.38011,37.61177,83.841],[-5.401,37.63104,61.5911],[-5.41402,37.6739,35.1045],[-5.39003,37.69758,41.0303],[-5.31108,37.69792,48.0053],[-5.30971,37.77343,97.5329],[-5.33469,37.78613,125.4802],[-5.34121,37.79229,220.4866],[-5.34652,37.80528,141.285],[-5.34963,37.83059,252.8825],[-5.36011,37.8418,215.5422],[-5.39324,37.85761,198.0736],[-5.40451,37.86682,223.7074],[-5.41337,37.88508,289.9807],[-5.41509,37.92742,370.9829],[-5.42183,37.94068,439.9769],[-5.47859,37.98129,503.4639],[-5.49607,38.04284,434.9227],[-5.58183,38.11555,465.3697],[-5.58105,38.13509,643.5689],[-5.62345,38.1369,392.8196],[-5.64283,38.12682,531.7677],[-5.64952,38.12049,483.2397],[-5.67143,38.10401,659.854],[-5.69357,38.09127,594.4921],[-5.71089,38.08868,622.1064]]]}}