{"type":"Feature","properties":{"featurecla":"River","scalerank":8,"rivernum":723,"dissolve":"723River","name":"Guadalquivir3","name_alt":null,"note":null,"min_zoom":7.0,"strokeweig":0.3,"name_en":"Guadalquivir","min_label":8.0},
"geometry":{"type": "LineString","coordinates": [[-5.7733642578124886,37.62421295780662,53.6188],[-5.7828124999999773,37.62250397343162,48.0061],[-5.792724609375,37.61835358280662,31.3457],[-5.800537109375,37.61298248905662,25.5893],[-5.8038085937499773,37.607440496869117,18.8768],[-5.809375,37.60309479374412,18.5352],[-5.8215820312499886,37.604608465619116,18.1947],[-5.8391601562499886,37.61054108280662,23.4104],[-5.8975585937499773,37.574237371869117,13.7062],[-5.907470703125,37.573016668744117,15.9192],[-5.9058593749999773,37.562762762494117,14.8539],[-5.903564453125,37.558221746869116,14.8756],[-5.9039794921874886,37.554217840619117,8.0],[-5.9104980468749773,37.54535553593162,13.4839],[-5.9183105468749773,37.538592840619117,12.7302],[-5.9273437499999773,37.534442449994117,13.9664],[-5.978125,37.51825592655662,25.3008],[-5.9874023437499773,37.51203034061912,24.1428],[-5.99560546875,37.50067780155662,10.4947],[-6.0166992187499773,37.45355866093162,8.9003],[-6.0133789062499829,37.44000885624412,8.9302],[-6.007080078125,37.42926666874412,6.5773],[-6.0020507812499773,37.41681549686912,10.8733],[-6.0030273437499773,37.39826080936912,1.1638],[-6.00732421875,37.38947174686912,0.5],[-6.0234863281249886,37.37091705936912,0.5],[-6.0238769531249829,37.36066315311912,0.5],[-6.0213378906249773,37.35175202030662,5.2516],[-6.0182617187499829,37.344745184369117,8.001],[-6.0166992187499773,37.33991119999412,4.8754],[-6.02001953125,37.32160065311912,4.1168],[-6.02880859375,37.306024481244116,4.0326],[-6.0545410156249773,37.278436590619116,3.9245],[-6.063232421875,37.26447174686912,11.1026],[-6.0734374999999829,37.23029205936912,3.9182],[-6.08154296875,37.21674225468162,2.612],[-6.1089355468749886,37.18317291874412,2.9237],[-6.1128906249999773,37.17548248905662,1.8742],[-6.1181640625,37.15741608280662,1.8351],[-6.1315185546874886,37.147577215619116,1.5865],[-6.16748046875,37.137567449994116,1.3343],[-6.16748046875,37.130145574994117,3.6736],[-6.1572753906249886,37.125360418744116,1.6289],[-6.1265624999999773,37.10346100468162,1.8389],[-6.1076171874999829,37.116815496869116,1.6505],[-6.099853515625,37.11249420780662,1.2208],[-6.0986328125,37.099383856244117,1.2159],[-6.0992187499999773,37.08637116093162,1.6271],[-6.103515625,37.074237371869117,1.7067],[-6.1133789062499773,37.06110260624412,1.4243],[-6.1333496093749886,37.042010809369117,1.266],[-6.159423828125,37.023211981244117,1.0848],[-6.1700195312499773,37.011590887494116,1.2644],[-6.17431640625,36.99701569218162,1.3095],[-6.177490234375,36.97955963749412,1.026],[-6.1849853515624886,36.96112702030662,1.0691],[-6.19482421875,36.932147528119117,1.1186]]}}