{"type":"Feature","properties":{"GID_3":"ESP.1.4.4_1","GID_0":"ESP","country":"Spain","GID_1":"ESP.1_1","province":"Andalucía","NL_NAME_1":"NA","GID_2":"ESP.1.4_1","county":"Granada","NL_NAME_2":"NA","city":"n.a.(112)","VARNAME_3":"NA","NL_NAME_3":"NA","TYPE_3":"Comarca","ENGTYPE_3":"Comarca","CC_3":"NA","HASC_3":"NA","name":"n.a.(112).city"},
"geometry":{"type": "MultiPolygon","coordinates": [[[[-3.1352,37.0966,2591.5093],[-3.1202,37.092,2754.6985],[-3.1139,37.0947,2759.8994],[-3.1089,37.0949,2661.4478],[-3.1036,37.101,2412.9995],[-3.101,37.1011,2394.6055],[-3.0893,37.0985,2465.7866],[-3.0866,37.0954,2519.6104],[-3.0748,37.091,2722.0793],[-3.0588,37.0938,2530.7036],[-3.0526,37.0931,2529.2703],[-3.0332,37.1072,2186.855],[-3.0263,37.1166,2102.855],[-3.022,37.1134,2126.6948],[-3.0149,37.1133,2214.0281],[-3.0038,37.0972,2482.2368],[-3.0002,37.095,2598.2837],[-2.9964,37.0958,2575.4753],[-2.9841,37.0931,2526.176],[-2.979,37.0933,2485.5535],[-2.97,37.0965,2269.3599],[-2.9489,37.0966,2333.7156],[-2.9499,37.0995,2271.4448],[-2.9482,37.1062,2097.7153],[-2.9457,37.1066,2088.1924],[-2.9428,37.1112,1942.3137],[-2.9436,37.1187,1828.2469],[-2.9469,37.1222,1823.7584],[-2.944,37.1224,1803.788],[-2.9416,37.1247,1754.7278],[-2.9408,37.1307,1730.9298],[-2.9369,37.1347,1819.0771],[-2.9336,37.1353,1837.3052],[-2.9305,37.1398,1746.2814],[-2.9313,37.1434,1687.4561],[-2.9283,37.1525,1452.5952],[-2.9293,37.1561,1482.9111],[-2.9282,37.1573,1445.632],[-2.9146,37.1585,1368.7764],[-2.9112,37.1633,1192.2799],[-2.8952,37.1671,1131.0089],[-2.8896,37.1762,1094.3575],[-2.888,37.183,1058.8481],[-2.8827,37.1879,992.9984],[-2.8809,37.1871,991.1365],[-2.8791,37.1926,1017.5885],[-2.8802,37.204,1089.9408],[-2.8727,37.2199,1206.6592],[-2.8751,37.2245,1241.1884],[-2.8747,37.2318,1294.3718],[-2.8664,37.2431,1507.488],[-2.8693,37.2456,1492.189],[-2.8638,37.2471,1451.0271],[-2.859,37.2505,1362.3219],[-2.8597,37.2538,1448.3872],[-2.8555,37.2644,1550.3328],[-2.8557,37.2683,1568.8171],[-2.851,37.2762,1691.3203],[-2.8453,37.2793,1730.4059],[-2.8346,37.2778,1821.0396],[-2.8303,37.2801,1871.5928],[-2.8335,37.2825,1813.1154],[-2.832,37.2881,1812.6523],[-2.8378,37.2889,1856.1737],[-2.8396,37.2922,1836.2516],[-2.8452,37.2936,1852.7925],[-2.8455,37.295,1856.329],[-2.8487,37.2956,1833.6567],[-2.8523,37.2924,1831.1083],[-2.8548,37.2985,1794.651],[-2.854,37.3012,1774.8656],[-2.86,37.3069,1866.5813],[-2.8599,37.3107,1985.9229],[-2.8619,37.3129,2006.9373],[-2.8559,37.3151,1993.8691],[-2.8508,37.3135,1992.4001],[-2.8322,37.3253,2196.498],[-2.8321,37.3277,2182.0603],[-2.8365,37.3288,2214.718],[-2.8354,37.3348,2106.4282],[-2.8396,37.3427,2147.7205],[-2.8335,37.3509,1880.1357],[-2.8361,37.3636,2148.4639],[-2.8406,37.3638,2108.9463],[-2.8524,37.3687,2081.303],[-2.8624,37.3642,2208.6958],[-2.8727,37.366,2106.0195],[-2.8823,37.3631,2045.8744],[-2.8902,37.3636,2001.3346],[-2.8971,37.3669,2094.2388],[-2.9007,37.3723,1912.5393],[-2.8996,37.3793,1708.4248],[-2.8914,37.3903,1409.505],[-2.8967,37.3944,1365.5952],[-2.9163,37.3991,1285.6929],[-2.9242,37.4118,1235.321],[-2.9302,37.4268,1184.4441],[-2.9385,37.4341,1127.436],[-2.9398,37.4402,1127.2782],[-2.9371,37.4563,1095.5726],[-2.9395,37.4926,988.8342],[-2.9373,37.4996,958.7581],[-2.9393,37.506,874.7575],[-2.9386,37.5128,831.4888],[-2.941,37.5268,740.014],[-2.9493,37.5517,648.092],[-2.9551,37.5612,627.3735],[-2.9549,37.567,746.8356],[-2.9627,37.5812,798.3651],[-2.9747,37.5907,713.2062],[-2.9798,37.6022,816.2025],[-2.9781,37.6028,826.571],[-2.9831,37.6015,797.906],[-2.9897,37.6039,739.5621],[-2.9953,37.6032,690.666],[-3.0017,37.6057,601.4639],[-3.0033,37.6082,556.8551],[-3.0214,37.6101,548.5477],[-3.0218,37.6117,547.8771],[-3.0244,37.6117,565.7769],[-3.0266,37.6158,555.9451],[-3.0286,37.6141,574.6663],[-3.0298,37.6162,559.1685],[-3.0309,37.6155,561.0981],[-3.035,37.6174,563.6999],[-3.035,37.6186,563.6999],[-3.0406,37.6179,572.9359],[-3.0434,37.6159,579.3636],[-3.0479,37.6184,589.551],[-3.0515,37.6182,581.6646],[-3.052,37.6149,600.0717],[-3.0564,37.6128,586.8693],[-3.0552,37.6111,588.8912],[-3.0578,37.6067,596.7146],[-3.0612,37.6067,596.9634],[-3.0611,37.605,618.7851],[-3.0662,37.6053,605.8589],[-3.0661,37.6042,605.8589],[-3.0691,37.6042,607.6793],[-3.0687,37.603,613.657],[-3.0734,37.6034,612.8909],[-3.0764,37.5993,615.5454],[-3.0837,37.5992,634.1084],[-3.086,37.5958,627.1071],[-3.0916,37.5966,635.6821],[-3.0993,37.6022,709.2759],[-3.0996,37.6055,707.3231],[-3.1249,37.6106,761.9636],[-3.1398,37.6202,710.5657],[-3.1539,37.6268,739.9499],[-3.156,37.6241,791.0904],[-3.163,37.6238,800.6835],[-3.1785,37.6265,896.0568],[-3.1814,37.6246,984.1199],[-3.1975,37.6259,972.3929],[-3.2133,37.6207,957.8309],[-3.2168,37.6151,978.1798],[-3.2105,37.6084,846.5555],[-3.2009,37.6077,828.7936],[-3.1875,37.6092,1013.4973],[-3.1772,37.607,1008.6658],[-3.1751,37.6054,1005.9641],[-3.1758,37.6025,1018.9858],[-3.1739,37.5986,1034.6519],[-3.169,37.5949,1007.7381],[-3.1684,37.5922,999.6902],[-3.1591,37.5921,1014.8638],[-3.1595,37.5879,1004.7079],[-3.1567,37.578,893.8736],[-3.1498,37.5684,1002.9512],[-3.1525,37.556,1074.3037],[-3.1448,37.5513,1069.0035],[-3.1304,37.5286,1017.5704],[-3.1379,37.5322,1077.7639],[-3.1496,37.5271,977.7806],[-3.1551,37.5228,985.5211],[-3.1572,37.5138,848.1517],[-3.1705,37.4982,1180.6292],[-3.1718,37.4887,972.1478],[-3.1634,37.4869,882.74],[-3.1739,37.4763,941.433],[-3.1753,37.4729,967.1127],[-3.1819,37.4728,1034.1183],[-3.1976,37.4541,797.5308],[-3.1998,37.4539,803.1116],[-3.1998,37.4551,803.1116],[-3.2026,37.4537,796.9563],[-3.2158,37.4595,902.2794],[-3.2176,37.459,899.9234],[-3.2185,37.4532,830.4398],[-3.2311,37.4525,954.9516],[-3.2345,37.4463,931.7424],[-3.2375,37.4472,930.0562],[-3.2395,37.4388,862.5556],[-3.264,37.4407,969.3303],[-3.2658,37.4357,927.1459],[-3.273,37.4348,974.8049],[-3.2839,37.4368,988.4767],[-3.2878,37.4321,1004.298],[-3.2891,37.4206,995.9454],[-3.2998,37.4217,999.6877],[-3.3127,37.4194,1015.3838],[-3.3069,37.416,1011.782],[-3.3156,37.3974,1172.9377],[-3.322,37.3957,1281.3483],[-3.3245,37.3814,1450.6718],[-3.3355,37.3819,1508.7357],[-3.3391,37.3876,1609.509],[-3.3408,37.3873,1583.8394],[-3.3438,37.384,1551.46],[-3.3498,37.362,1512.9982],[-3.3769,37.3572,1615.3154],[-3.3876,37.3417,1304.9889],[-3.388,37.3318,1472.101],[-3.3916,37.3207,1334.1664],[-3.3958,37.3167,1195.7633],[-3.3941,37.3091,1445.7126],[-3.3836,37.2963,1247.7401],[-3.3823,37.2891,1297.7891],[-3.3837,37.2813,1322.142],[-3.3749,37.2847,1172.4957],[-3.3743,37.2816,1228.1125],[-3.3775,37.275,1319.6774],[-3.3718,37.2616,1340.5778],[-3.3724,37.2555,1312.9978],[-3.3657,37.2424,1384.1973],[-3.3582,37.2369,1271.6266],[-3.3525,37.2401,1363.2188],[-3.3475,37.2405,1452.0511],[-3.3421,37.2381,1472.9615],[-3.3391,37.2304,1354.3105],[-3.333,37.2245,1597.0455],[-3.3211,37.2174,1905.8318],[-3.3219,37.2144,1945.0706],[-3.3111,37.2151,1754.3555],[-3.3046,37.2133,1752.9956],[-3.2938,37.2072,1862.5909],[-3.2901,37.2026,1975.9895],[-3.2856,37.2012,1997.4978],[-3.283,37.198,2027.916],[-3.2802,37.1853,2184.1401],[-3.2828,37.1842,2189.5603],[-3.2819,37.1768,2263.96],[-3.2852,37.1752,2294.0417],[-3.2859,37.1726,2321.1875],[-3.2819,37.1687,2238.1541],[-3.2738,37.1654,2225.2229],[-3.2739,37.163,2230.4751],[-3.2705,37.1585,2225.2805],[-3.2605,37.1533,2261.4822],[-3.2551,37.1453,2531.8069],[-3.2498,37.1418,2663.0439],[-3.253,37.1239,3064.0532],[-3.2576,37.1147,3133.665],[-3.2549,37.1124,3099.3882],[-3.2451,37.1142,2911.6501],[-3.2412,37.1126,2935.2524],[-3.2402,37.11,2914.7598],[-3.2334,37.1047,2828.2278],[-3.2285,37.1041,2790.2285],[-3.2253,37.1016,2854.9883],[-3.223,37.0969,2859.5164],[-3.2047,37.0932,2824.5105],[-3.2003,37.0905,2871.0498],[-3.1675,37.0942,2622.3462],[-3.1595,37.0922,2730.3379],[-3.1542,37.0948,2707.6467],[-3.1352,37.0966,2591.5093]]]]}}