{"type":"Feature","properties":{"GID_3":"ESP.1.4.10_1","GID_0":"ESP","country":"Spain","GID_1":"ESP.1_1","province":"Andalucía","NL_NAME_1":"NA","GID_2":"ESP.1.4_1","county":"Granada","NL_NAME_2":"NA","city":"n.a.(118)","VARNAME_3":"NA","NL_NAME_3":"NA","TYPE_3":"Comarca","ENGTYPE_3":"Comarca","CC_3":"NA","HASC_3":"NA","name":"n.a.(118).city"},
"geometry":{"type": "MultiPolygon","coordinates": [[[[-3.6297,37.3222,688.2617],[-3.6253,37.3238,715.2229],[-3.6284,37.3201,684.0295],[-3.6275,37.3169,758.8915],[-3.6171,37.3183,771.4059],[-3.6128,37.3229,775.8994],[-3.5979,37.3158,813.0466],[-3.5977,37.3118,850.0408],[-3.585,37.3081,894.2379],[-3.5553,37.3148,1181.8403],[-3.5528,37.3134,1333.0634],[-3.5405,37.3126,1674.8926],[-3.5249,37.3198,1711.7129],[-3.5222,37.3229,1788.9363],[-3.5147,37.3266,1923.0837],[-3.5018,37.324,1941.5902],[-3.4744,37.3294,1727.0101],[-3.467,37.335,1995.094],[-3.4554,37.3359,1797.9109],[-3.4526,37.3379,1846.8293],[-3.4273,37.3425,1870.6122],[-3.4095,37.3493,1723.8879],[-3.3955,37.3508,1731.3776],[-3.3769,37.3572,1615.3154],[-3.3498,37.362,1512.9982],[-3.3438,37.384,1551.46],[-3.3408,37.3873,1583.8394],[-3.3391,37.3876,1609.509],[-3.3355,37.3819,1508.7357],[-3.3245,37.3814,1450.6718],[-3.322,37.3957,1281.3483],[-3.3156,37.3974,1172.9377],[-3.3069,37.416,1011.782],[-3.3127,37.4194,1015.3838],[-3.2998,37.4217,999.6877],[-3.2891,37.4206,995.9454],[-3.2878,37.4321,1004.298],[-3.2839,37.4368,988.4767],[-3.273,37.4348,974.8049],[-3.2658,37.4357,927.1459],[-3.264,37.4407,969.3303],[-3.2395,37.4388,862.5556],[-3.2375,37.4472,930.0562],[-3.2345,37.4463,931.7424],[-3.2311,37.4525,954.9516],[-3.2185,37.4532,830.4398],[-3.2176,37.459,899.9234],[-3.2158,37.4595,902.2794],[-3.2026,37.4537,796.9563],[-3.1998,37.4551,803.1116],[-3.1998,37.4539,803.1116],[-3.1976,37.4541,797.5308],[-3.1819,37.4728,1034.1183],[-3.1753,37.4729,967.1127],[-3.1739,37.4763,941.433],[-3.1634,37.4869,882.74],[-3.1718,37.4887,972.1478],[-3.1705,37.4982,1180.6292],[-3.1572,37.5138,848.1517],[-3.1551,37.5228,985.5211],[-3.1496,37.5271,977.7806],[-3.1379,37.5322,1077.7639],[-3.1304,37.5286,1017.5704],[-3.1448,37.5513,1069.0035],[-3.1525,37.556,1074.3037],[-3.1498,37.5684,1002.9512],[-3.1567,37.578,893.8736],[-3.1595,37.5879,1004.7079],[-3.1591,37.5921,1014.8638],[-3.1684,37.5922,999.6902],[-3.169,37.5949,1007.7381],[-3.1739,37.5986,1034.6519],[-3.1758,37.6025,1018.9858],[-3.1751,37.6054,1005.9641],[-3.1772,37.607,1008.6658],[-3.1875,37.6092,1013.4973],[-3.2009,37.6077,828.7936],[-3.2105,37.6084,846.5555],[-3.2168,37.6151,978.1798],[-3.2133,37.6207,957.8309],[-3.1975,37.6259,972.3929],[-3.1814,37.6246,984.1199],[-3.1785,37.6265,896.0568],[-3.163,37.6238,800.6835],[-3.156,37.6241,791.0904],[-3.1539,37.6268,739.9499],[-3.1428,37.6215,713.9246],[-3.172,37.6429,768.3813],[-3.1863,37.6445,797.4279],[-3.2156,37.6442,851.1714],[-3.2334,37.638,924.7837],[-3.2624,37.6392,1016.1108],[-3.2629,37.6357,1013.8654],[-3.261,37.6336,986.7677],[-3.273,37.6184,1009.1552],[-3.2802,37.6145,1012.3563],[-3.2887,37.604,1023.925],[-3.2907,37.5945,963.8492],[-3.2968,37.588,913.2612],[-3.3032,37.5885,941.8564],[-3.3064,37.5863,934.6313],[-3.3171,37.5848,932.2233],[-3.3254,37.5818,932.9076],[-3.3312,37.5819,942.5059],[-3.3447,37.5757,981.6914],[-3.3509,37.5749,950.9403],[-3.3572,37.5764,952.8942],[-3.3665,37.5676,975.4047],[-3.3743,37.5675,986.4823],[-3.3787,37.5642,988.4579],[-3.3855,37.5654,981.1844],[-3.3992,37.5641,991.4958],[-3.4094,37.5674,1028.4321],[-3.4244,37.5696,994.9218],[-3.4337,37.5756,1054.3348],[-3.4368,37.5739,1014.5673],[-3.4487,37.5839,1014.5551],[-3.4529,37.5883,1018.3256],[-3.4531,37.5911,1023.6477],[-3.4611,37.5984,1035.6959],[-3.4794,37.6011,1080.5287],[-3.5064,37.6173,1010.7262],[-3.536,37.5974,1444.1936],[-3.5383,37.5942,1415.2731],[-3.5344,37.5855,1274.1968],[-3.5345,37.5824,1255.1042],[-3.5363,37.5808,1237.8928],[-3.5551,37.5736,1607.3896],[-3.5592,37.5696,1667.4919],[-3.5587,37.5663,1544.6289],[-3.5706,37.5618,1358.3667],[-3.5828,37.5539,1354.8716],[-3.5913,37.5505,1320.0676],[-3.5906,37.5483,1286.1165],[-3.5999,37.5474,1234.8342],[-3.627,37.5286,1076.3137],[-3.6322,37.5292,1061.3376],[-3.6329,37.5279,1055.9727],[-3.6493,37.5249,1039.1055],[-3.659,37.5207,1130.2461],[-3.6651,37.5211,1114.8091],[-3.6719,37.5183,1050.2517],[-3.6843,37.5177,1353.6914],[-3.7118,37.5028,1344.2402],[-3.717,37.4965,1171.7938],[-3.73,37.4876,1368.7422],[-3.7431,37.4872,1050.8909],[-3.7707,37.4799,1104.4806],[-3.7761,37.4765,1039.0586],[-3.7756,37.4879,1163.7317],[-3.7776,37.4901,1190.6476],[-3.7832,37.4919,1362.1334],[-3.7855,37.4909,1396.8074],[-3.7924,37.4825,1211.9298],[-3.7914,37.4789,1160.1294],[-3.7864,37.4783,1098.697],[-3.7914,37.4717,1070.0391],[-3.7916,37.4662,1014.5436],[-3.8019,37.4608,1040.6554],[-3.8082,37.4599,1025.0107],[-3.8082,37.458,1000.5653],[-3.8021,37.4534,941.5386],[-3.81,37.4385,880.7636],[-3.7886,37.4366,972.3348],[-3.7947,37.4297,911.4318],[-3.786,37.4351,947.1869],[-3.7726,37.4087,1022.8926],[-3.7661,37.4048,1057.2174],[-3.7576,37.372,1084.6099],[-3.7569,37.3556,1173.2966],[-3.7531,37.3552,1181.1636],[-3.7534,37.3523,1137.6893],[-3.7514,37.3499,1105.8689],[-3.7454,37.3465,1082.3602],[-3.7302,37.3206,740.7518],[-3.7255,37.3069,742.3698],[-3.7119,37.3029,755.3033],[-3.7051,37.3053,740.4592],[-3.7069,37.3098,699.539],[-3.705,37.318,673.3444],[-3.7027,37.3167,659.2297],[-3.6977,37.3189,698.8021],[-3.6978,37.3203,698.8021],[-3.6876,37.3218,733.1129],[-3.6875,37.3195,720.9084],[-3.6745,37.3208,726.7529],[-3.6779,37.3329,730.2892],[-3.6834,37.3428,802.0851],[-3.6839,37.3482,984.4225],[-3.6785,37.3562,1237.4023],[-3.6707,37.3581,1332.5448],[-3.6728,37.3605,1267.5322],[-3.6727,37.3652,1308.1443],[-3.6623,37.3719,1140.4763],[-3.6637,37.3861,1270.9791],[-3.6569,37.3896,1132.2833],[-3.6475,37.3997,1245.8105],[-3.641,37.4,1160.0959],[-3.6346,37.3921,1061.2688],[-3.6395,37.3911,1012.5569],[-3.6396,37.3802,911.0422],[-3.6357,37.3783,892.8797],[-3.6291,37.3708,842.9578],[-3.6289,37.3674,824.83],[-3.6247,37.3606,805.2325],[-3.6195,37.3576,841.3207],[-3.6209,37.3517,801.8066],[-3.6237,37.3489,788.2874],[-3.6292,37.3361,709.4998],[-3.6273,37.3317,744.314],[-3.6305,37.3237,688.2617],[-3.6297,37.3222,688.2617]]]]}}