{"type":"Feature","properties":{"GID_3":"ESP.1.3.5_1","GID_0":"ESP","country":"Spain","GID_1":"ESP.1_1","province":"Andalucía","NL_NAME_1":"NA","GID_2":"ESP.1.3_1","county":"Córdoba","NL_NAME_2":"NA","city":"n.a.(89)","VARNAME_3":"NA","NL_NAME_3":"NA","TYPE_3":"Comarca","ENGTYPE_3":"Comarca","CC_3":"NA","HASC_3":"NA","name":"n.a.(89).city"},
"geometry":{"type": "MultiPolygon","coordinates": [[[[-5.2989,37.738,113.7893],[-5.3076,37.7369,69.5808],[-5.3047,37.7305,68.3367],[-5.3061,37.7263,73.1699],[-5.304,37.7218,91.2451],[-5.3087,37.7158,76.7888],[-5.3108,37.7086,49.4243],[-5.307,37.7042,50.2059],[-5.3075,37.6993,48.6886],[-5.3101,37.6979,48.0053],[-5.3145,37.7016,48.7496],[-5.3195,37.7012,47.7794],[-5.3219,37.6957,46.2205],[-5.327,37.6916,53.1741],[-5.3321,37.695,37.875],[-5.3334,37.7001,47.8479],[-5.3385,37.7063,43.9746],[-5.3447,37.7054,42.6861],[-5.3615,37.698,39.6281],[-5.3686,37.6901,42.9695],[-5.3703,37.6844,37.1665],[-5.375,37.6779,37.8125],[-5.38,37.6785,38.9258],[-5.384,37.6813,43.5606],[-5.3838,37.6943,39.6635],[-5.3881,37.6978,40.9573],[-5.394,37.6935,36.0848],[-5.4009,37.6938,41.4817],[-5.4054,37.692,35.7324],[-5.4118,37.6835,38.0567],[-5.4141,37.6739,35.1045],[-5.4114,37.669,41.8481],[-5.4124,37.664,40.7253],[-5.4095,37.66,40.6984],[-5.4062,37.6586,40.0494],[-5.3971,37.6624,40.391],[-5.3936,37.6568,42.7875],[-5.3965,37.651,38.9371],[-5.4024,37.6483,47.3143],[-5.4135,37.6476,38.0583],[-5.4143,37.6461,43.1709],[-5.4129,37.6442,54.8485],[-5.4099,37.6453,44.1459],[-5.4114,37.6414,46.5921],[-5.4068,37.6412,49.9337],[-5.4086,37.6399,48.4378],[-5.4078,37.6386,57.6787],[-5.4015,37.6365,54.8722],[-5.401,37.6311,61.5911],[-5.398,37.6274,63.9101],[-5.3916,37.6239,83.2874],[-5.3917,37.6207,73.1636],[-5.3892,37.62,73.645],[-5.3843,37.6144,80.5437],[-5.3819,37.6146,88.2134],[-5.3813,37.6112,83.841],[-5.3595,37.6051,101.1548],[-5.3569,37.5966,119.3113],[-5.3582,37.5856,125.0288],[-5.3517,37.5843,143.3608],[-5.3436,37.5874,132.4856],[-5.3434,37.5937,129.3153],[-5.3365,37.5978,130.0519],[-5.3228,37.6115,76.9196],[-5.3234,37.6141,76.4915],[-5.3117,37.6196,110.3064],[-5.2996,37.6229,127.993],[-5.2744,37.6253,133.844],[-5.2535,37.6361,136.3049],[-5.2352,37.6502,132.6701],[-5.2257999999999996,37.6541,124.4779],[-5.2118,37.6635,66.1887],[-5.1766,37.6806,137.6711],[-5.16,37.6718,136.3972],[-5.1499,37.6609,171.4542],[-5.1372,37.6682,171.688],[-5.1339,37.6685,175.1352],[-5.1257,37.6659,173.6361],[-5.1185,37.6674,175.3296],[-5.1078,37.6626,175.9282],[-5.111,37.6708,174.0727],[-5.1099,37.6741,173.9173],[-5.1125,37.6777,172.9762],[-5.1131,37.6882,157.8475],[-5.1161,37.6919,155.8829],[-5.1296,37.6988,150.1217],[-5.1342,37.6972,133.92],[-5.146,37.7039,139.6203],[-5.1568,37.7062,135.8695],[-5.1746,37.7165,132.8304],[-5.1907,37.7236,116.845],[-5.2025,37.7331,77.5099],[-5.2056,37.7388,67.5057],[-5.2255,37.7304,55.4573],[-5.2284,37.727,52.3049],[-5.2354,37.7249,55.1678],[-5.2428,37.7269,57.1764],[-5.2598,37.726,47.5327],[-5.2679,37.7385,120.9512],[-5.2717,37.7405,163.6495],[-5.2724,37.7444,188.329],[-5.2797,37.7411,160.9315],[-5.285,37.7363,143.2409],[-5.2989,37.738,113.7893]]]]}}