{"type":"Feature","properties":{"GID_2":"ESP.1.8_1","GID_0":"ESP","country":"Spain","GID_1":"ESP.1_1","province":"Andalucía","NL_NAME_1":"NA","county":"Sevilla","VARNAME_2":"NA","NL_NAME_2":"NA","TYPE_2":"Provincia","ENGTYPE_2":"Province","CC_2":"41","HASC_2":"ES.AN.SV","name":"Sevilla.county"},
"geometry":{"type": "MultiPolygon","coordinates": [[[[-6.2085,36.8934,0.5873],[-6.187,36.8936,24.9065],[-6.1835,36.8915,46.6848],[-6.1554,36.8854,20.4973],[-6.1431,36.8762,3.4307],[-6.1218,36.8638,1.9842],[-6.1043,36.8573,2.0522],[-6.0846,36.8545,3.4614],[-6.0504,36.8535,48.3601],[-6.0362,36.8493,65.9242],[-5.973,36.8442,174.3176],[-5.9608,36.8513,168.6382],[-5.9527,36.8531,195.4199],[-5.9412,36.852,176.9317],[-5.9252,36.8531,125.0502],[-5.8909,36.8422,180.6659],[-5.8886,36.8433,176.1639],[-5.8902,36.8444,173.9812],[-5.8887,36.8468,165.5077],[-5.8934,36.8516,96.5568],[-5.8764,36.8947,89.698],[-5.8695,36.8937,102.7053],[-5.8598,36.9,107.7067],[-5.8454,36.9152,170.4388],[-5.8371,36.9144,179.7958],[-5.8316,36.9157,110.3161],[-5.8048,36.9255,185.4779],[-5.774,36.9243,108.7499],[-5.7618,36.9256,151.4463],[-5.7439,36.923,149.2162],[-5.7362,36.9182,157.3668],[-5.7257,36.9216,177.4726],[-5.7169,36.9195,172.3692],[-5.7031,36.9256,151.6457],[-5.696,36.9353,164.0386],[-5.6935,36.9458,130.1325],[-5.6945,36.9568,184.6505],[-5.6678,36.976,196.4273],[-5.666,36.9758,196.4273],[-5.6559,36.9641,189.6644],[-5.6495,36.9543,169.3602],[-5.6323,36.9507,178.3038],[-5.626,36.9545,107.8632],[-5.6184,36.9405,123.0293],[-5.6147,36.9426,137.5439],[-5.61,36.9416,128.4346],[-5.6071,36.9451,138.3895],[-5.6057,36.9509,153.9385],[-5.5954,36.9449,148.3572],[-5.588,36.9469,153.3438],[-5.5856,36.9209,156.9779],[-5.5829,36.9149,130.2947],[-5.5337,36.8935,257.0348],[-5.5389,36.9061,227.6817],[-5.5507,36.9231,139.4402],[-5.5469,36.9259,139.9114],[-5.5456,36.9304,141.6688],[-5.5348,36.9303,150.1705],[-5.5326,36.9359,150.1446],[-5.5244,36.9377,150.0128],[-5.5203,36.9449,154.2792],[-5.5208,36.9476,154.1557],[-5.5151,36.9502,173.0177],[-5.5144,36.9556,215.0914],[-5.5121,36.9577,249.7354],[-5.5022,36.9583,198.523],[-5.4983,36.9662,209.8941],[-5.4933,36.9709,217.091],[-5.4897,36.9729,226.078],[-5.4817,36.9722,232.2654],[-5.4696,36.984,258.5893],[-5.4701,36.9917,296.3076],[-5.4729,36.9953,275.8577],[-5.483,37.0022,231.8751],[-5.487,37.0071,208.1],[-5.4949,37.0113,187.1708],[-5.5108,37.0336,221.7953],[-5.4967,37.0397,219.4877],[-5.4732,37.0429,299.5808],[-5.4647,37.0408,272.1107],[-5.4593,37.0422,241.1565],[-5.4478,37.0502,251.2624],[-5.4417,37.0495,240.2759],[-5.4335,37.0525,240.5831],[-5.4279,37.0452,232.8687],[-5.427,37.0379,255.2222],[-5.4213,37.0245,289.9734],[-5.4209,37.0112,340.7574],[-5.4259,37.0057,316.4812],[-5.4269,36.9997,371.3691],[-5.4353,36.991,340.9853],[-5.4426,36.9896,322.187],[-5.443,36.987,329.2504],[-5.4454,36.9853,319.1638],[-5.4528,36.9824,273.8778],[-5.4568,36.9778,257.807],[-5.4599,36.978,250.0139],[-5.4601,36.9752,277.9724],[-5.457,36.9742,302.3602],[-5.4544,36.9612,212.3861],[-5.4458,36.9567,223.2609],[-5.4478,36.9542,193.8756],[-5.446,36.9524,191.4564],[-5.4461,36.9465,421.2919],[-5.4411,36.944,396.8546],[-5.4388,36.9353,393.9547],[-5.4127,36.9407,506.6234],[-5.4165,36.9443,530.737],[-5.4134,36.9535,495.4867],[-5.4008,36.9628,415.2428],[-5.3932,36.9722,399.9863],[-5.3818,36.9794,373.0832],[-5.3758,36.98,302.5045],[-5.374,36.9824,248.7606],[-5.3652,36.9857,242.793],[-5.3606,36.9852,239.5768],[-5.3595,36.9925,262.6947],[-5.3452,36.9974,291.4671],[-5.3395,37.0046,350.1445],[-5.3378,37.0111,407.7892],[-5.302,37.0374,437.5801],[-5.3016,37.018,477.4546],[-5.3001,37.0138,466.8017],[-5.2936,37.0104,437.8535],[-5.2851,37.0002,355.1339],[-5.2737,36.9902,384.6517],[-5.2679,36.9783,647.7926],[-5.262,36.9754,705.7482],[-5.2566,36.9641,644.305],[-5.2349,36.9412,554.7313],[-5.2257999999999996,36.9419,596.955],[-5.2197,36.9509,561.1411],[-5.2156,36.9519,529.7124],[-5.2059,36.9627,433.9185],[-5.1911,36.9667,470.388],[-5.1892,36.97,502.1489],[-5.1816,36.9717,535.1985],[-5.1742,36.9772,548.3489],[-5.1625,36.9814,604.3484],[-5.1583,36.9893,664.2281],[-5.1479,36.9971,583.8325],[-5.1422,37.0039,548.9639],[-5.1422,37.0059,533.1754],[-5.1326,37.0115,501.1804],[-5.1227,37.0277,397.4807],[-5.1198,37.0285,403.587],[-5.1174,37.0244,409.2587],[-5.1132,37.0243,401.4037],[-5.1121,37.0191,402.2866],[-5.1025,37.0257,422.7689],[-5.0913,37.0275,435.1527],[-5.0828,37.0315,446.7972],[-5.0742,37.0294,473.8618],[-5.0722,37.0318,488.6718],[-5.0552,37.0327,535.418],[-5.053,37.0306,553.4621],[-5.0479,37.0387,588.2528],[-5.0328,37.049,613.9564],[-5.0278,37.0441,600.4686],[-5.0239,37.046,596.6868],[-5.0275,37.0499,586.011],[-5.0258,37.0519,601.7231],[-5.0095,37.0548,598.2322],[-4.9882,37.0646,615.8874],[-4.979,37.07,515.391],[-4.9783,37.073,490.9406],[-4.9721,37.0754,616.8848],[-4.9544,37.0914,518.0505],[-4.9463,37.0966,540.5745],[-4.9356,37.1005,434.8896],[-4.9306,37.0999,455.6548],[-4.9269,37.1035,561.5475],[-4.9225,37.1033,572.6624],[-4.9218,37.1069,612.6846],[-4.917,37.108,625.9636],[-4.9168,37.111,613.2952],[-4.9082,37.1147,540.6475],[-4.9032,37.1388,468.0107],[-4.9119,37.1441,462.2812],[-4.9245,37.1486,456.0667],[-4.9357,37.1562,441.7148],[-4.9425,37.1576,430.7586],[-4.9413,37.1669,444.8877],[-4.9397,37.1678,436.0412],[-4.9395,37.1757,402.7003],[-4.925,37.1707,421.7128],[-4.9218,37.175,443.4972],[-4.9187,37.1739,461.5998],[-4.9077,37.1748,458.0672],[-4.905,37.1819,432.7166],[-4.903,37.1777,448.9786],[-4.9039,37.1753,463.5901],[-4.896,37.1674,519.5749],[-4.8964,37.1633,538.6874],[-4.9002,37.1597,511.4923],[-4.8975,37.1561,516.256],[-4.8897,37.1551,625.2437],[-4.8807,37.1632,628.9294],[-4.8754,37.1582,617.1936],[-4.8566,37.1736,580.0132],[-4.86,37.1756,553.8496],[-4.8558,37.1782,552.1993],[-4.8567,37.1841,520.4863],[-4.8589,37.1841,515.1247],[-4.8588,37.1907,512.8207],[-4.8536,37.1937,505.6799],[-4.8537,37.1986,467.4217],[-4.8469,37.1989,459.0037],[-4.8432,37.2013,458.2234],[-4.8258,37.2007,437.3145],[-4.8191,37.1975,428.0036],[-4.8222,37.1958,434.6596],[-4.8192,37.1921,437.6709],[-4.8273,37.187,473.1908],[-4.8222,37.1799,472.091],[-4.8145,37.1806,421.7113],[-4.8115,37.1751,416.9517],[-4.8063,37.1712,419.4045],[-4.804,37.1735,422.2903],[-4.7991,37.1723,447.6103],[-4.8011,37.1606,436.3209],[-4.7941,37.1535,448.9151],[-4.7918,37.1544,450.5841],[-4.791,37.1602,457.0631],[-4.7855,37.1568,459.4357],[-4.7813,37.1593,442.5839],[-4.7797,37.1667,461.3607],[-4.7615,37.171,473.9867],[-4.7602,37.1771,481.9352],[-4.7318,37.1856,462.4943],[-4.7085,37.1977,450.2977],[-4.7135,37.2017,462.1573],[-4.712,37.2024,472.4763],[-4.7135,37.2035,469.8535],[-4.7111,37.2069,473.8015],[-4.7206,37.2083,435.3707],[-4.7234,37.2122,429.5713],[-4.7271,37.2111,421.4615],[-4.7322,37.2262,408.5657],[-4.7296,37.2304,413.272],[-4.7178,37.2399,433.1074],[-4.7302,37.2422,435.5752],[-4.7356,37.2449,427.3085],[-4.7333,37.2501,423.2281],[-4.7196,37.2597,410.5342],[-4.7139,37.2529,420.5306],[-4.6994,37.2568,404.775],[-4.6909,37.2519,407.6459],[-4.6844,37.2523,407.5201],[-4.685,37.2543,396.1485],[-4.6825,37.2544,402.0163],[-4.6824,37.2564,403.9739],[-4.6758,37.2581,384.349],[-4.6695,37.2528,346.7589],[-4.6696,37.2555,370.5328],[-4.6653,37.2537,337.34],[-4.6623,37.2575,332.4342],[-4.6532,37.2559,259.0721],[-4.655,37.2616,289.0016],[-4.6539,37.2719,316.0828],[-4.6617,37.2831,315.7222],[-4.6662,37.2873,273.2572],[-4.6683,37.2858,247.7992],[-4.68,37.2891,238.9047],[-4.6808,37.2904,254.0428],[-4.6759,37.2909,242.394],[-4.6784,37.2971,255.3747],[-4.6747,37.3018,227.4604],[-4.6641,37.2943,225.7014],[-4.6605,37.2945,223.3831],[-4.6657,37.2987,222.0127],[-4.6585,37.3047,220.5656],[-4.6704,37.3102,222.7595],[-4.6792,37.3088,223.0515],[-4.6839,37.3158,216.9297],[-4.6797,37.3172,217.35],[-4.6813,37.3234,216.6762],[-4.6694,37.319,217.0462],[-4.6679,37.3236,223.7931],[-4.6696,37.3258,219.4557],[-4.6792,37.3296,229.4122],[-4.6783,37.3314,223.7696],[-4.6714,37.3315,266.673],[-4.6718,37.335,215.867],[-4.6802,37.336,217.8368],[-4.682,37.3303,240.9358],[-4.6848,37.33,264.6883],[-4.6866,37.3312,252.5098],[-4.6842,37.3383,218.1506],[-4.6869,37.3414,212.9684],[-4.6915,37.3415,214.6025],[-4.6968,37.3464,213.004],[-4.7034,37.3453,219.0811],[-4.7038,37.3508,213.7795],[-4.7142,37.3532,219.5325],[-4.7171,37.3584,210.1797],[-4.7195,37.3583,211.9185],[-4.725,37.3526,209.5],[-4.7213,37.3494,207.8836],[-4.722,37.3471,212.6443],[-4.7328,37.3428,296.0371],[-4.7259,37.3419,299.4276],[-4.7262,37.3383,304.0709],[-4.73,37.3353,317.976],[-4.7486,37.3309,312.008],[-4.7663,37.3379,244.9593],[-4.773,37.3363,265.3614],[-4.7755,37.3331,273.2106],[-4.7773,37.3352,281.5037],[-4.78,37.3354,283.4432],[-4.7821,37.3285,288.1469],[-4.7961,37.3415,272.7182],[-4.822,37.3582,283.3499],[-4.8235,37.3688,257.3581],[-4.8146,37.3726,299.9443],[-4.8148,37.3778,300.0508],[-4.8259,37.3791,237.1643],[-4.8251,37.3834,236.1295],[-4.8275,37.3823,252.0743],[-4.8294,37.3837,255.8755],[-4.8309,37.3857,263.3893],[-4.8306,37.3899,256.8833],[-4.8371,37.3976,243.2884],[-4.8397,37.3996,222.7728],[-4.8437,37.3996,202.9501],[-4.8408,37.404,220.8775],[-4.8421,37.405,211.322],[-4.8451,37.4036,198.5344],[-4.8497,37.4107,146.3285],[-4.8432,37.4141,152.6583],[-4.8375,37.4233,149.2095],[-4.8397,37.4266,165.8056],[-4.8401,37.4349,183.2024],[-4.8422,37.4369,187.5327],[-4.8542,37.4394,236.0004],[-4.8586,37.438,236.4697],[-4.8846,37.438,135.5198],[-4.8824,37.4401,136.3235],[-4.8825,37.4453,134.2678],[-4.8794,37.4461,137.4595],[-4.8752,37.4505,145.5929],[-4.8834,37.454,136.9429],[-4.8884,37.4609,133.8384],[-4.8942,37.4595,132.2844],[-4.9044,37.4682,130.6229],[-4.91,37.4803,127.042],[-4.9034,37.4878,130.6814],[-4.9048,37.4899,126.9192],[-4.9084,37.4881,126.341],[-4.91,37.489,127.5987],[-4.9143,37.4832,132.0918],[-4.9153,37.4849,128.513],[-4.9143,37.4872,125.9333],[-4.916,37.4927,124.4426],[-4.9132999999999996,37.4953,124.2563],[-4.9076,37.495,126.9139],[-4.9059,37.4999,130.7677],[-4.9081,37.502,136.0308],[-4.9127,37.4991,134.4813],[-4.9245,37.5004,135.2555],[-4.931,37.5056,121.5257],[-4.9307,37.5098,121.7822],[-4.9275,37.5125,122.5161],[-4.9309,37.5136,121.6257],[-4.9331,37.5111,122.5094],[-4.9344,37.5115,123.6292],[-4.9338,37.5199,120.6868],[-4.9475,37.5208,118.8095],[-4.9488,37.522,118.6618],[-4.9401,37.5276,126.4152],[-4.9408,37.5366,133.7407],[-4.9342,37.541,137.6929],[-4.9319,37.5459,139.7407],[-4.9358,37.5512,144.3791],[-4.9323,37.5537,145.6815],[-4.9333,37.5559,147.4721],[-4.9307,37.5596,160.7612],[-4.9321,37.5607,151.3038],[-4.9314,37.5631,152.1563],[-4.9368,37.5671,157.4184],[-4.9354,37.568,167.3128],[-4.9375,37.5719,163.5291],[-4.9325,37.5729,166.0547],[-4.9302,37.5757,172.5395],[-4.9349,37.583,178.4496],[-4.9349,37.5875,183.4466],[-4.9302,37.5899,188.6186],[-4.9348,37.5999,251.4439],[-4.9316,37.6174,240.6079],[-4.94,37.6213,230.9725],[-4.9421,37.618,240.5504],[-4.9477,37.6152,238.0897],[-4.9576,37.6129,225.0268],[-4.9568,37.6114,225.7721],[-4.9593,37.6095,223.2141],[-4.9652,37.6109,218.4805],[-4.9738,37.5999,215.4184],[-4.9747,37.603,213.7795],[-4.9681,37.6124,215.5277],[-4.9653,37.6115,218.4805],[-4.958,37.6217,215.3163],[-4.9536,37.6525,186.7494],[-4.9714,37.6724,167.8814],[-4.9826,37.6763,174.8431],[-4.9868,37.6886,155.3488],[-4.9905,37.6921,168.3539],[-4.9887,37.6935,167.0017],[-4.9916,37.6969,173.8573],[-4.9964,37.6991,173.475],[-4.9997,37.7066,174.5349],[-5.0476,37.7182,162.3867],[-5.0506,37.717,165.8599],[-5.0505,37.7157,165.8599],[-5.0725,37.7077,165.2785],[-5.0743,37.701,177.6776],[-5.0798,37.701,178.6588],[-5.0866,37.6977,176.7334],[-5.0866,37.6957,176.5489],[-5.0889,37.6947,173.5937],[-5.0857,37.6886,176.9455],[-5.0903,37.6836,175.291],[-5.0914,37.68,175.4422],[-5.0901,37.6764,174.7747],[-5.083,37.6701,167.1086],[-5.0797,37.6712,176.2074],[-5.0763,37.6689,175.6455],[-5.0767,37.6647,173.5754],[-5.0739,37.6625,168.3654],[-5.0721,37.6635,169.9368],[-5.0705,37.6607,170.6392],[-5.0815,37.6606,176.4552],[-5.091,37.6679,172.9046],[-5.0978,37.6703,160.3387],[-5.0933,37.675,172.8013],[-5.0998,37.6837,164.7904],[-5.1007999999999996,37.6894,165.0943],[-5.1081,37.7004,154.2419],[-5.1126,37.7026,154.0497],[-5.1296,37.6988,150.1217],[-5.1161,37.6919,155.8829],[-5.1131,37.6882,157.8475],[-5.1125,37.6777,172.9762],[-5.1099,37.6741,173.9173],[-5.111,37.6708,174.0727],[-5.1078,37.6626,175.9282],[-5.1185,37.6674,175.3296],[-5.1257,37.6659,173.6361],[-5.1339,37.6685,175.1352],[-5.1372,37.6682,171.688],[-5.1499,37.6609,171.4542],[-5.16,37.6718,136.3972],[-5.1766,37.6806,137.6711],[-5.2118,37.6635,66.1887],[-5.2257999999999996,37.6541,124.4779],[-5.2352,37.6502,132.6701],[-5.2535,37.6361,136.3049],[-5.2744,37.6253,133.844],[-5.2996,37.6229,127.993],[-5.3117,37.6196,110.3064],[-5.3234,37.6141,76.4915],[-5.3228,37.6115,76.9196],[-5.3365,37.5978,130.0519],[-5.3434,37.5937,129.3153],[-5.3436,37.5874,132.4856],[-5.3517,37.5843,143.3608],[-5.3582,37.5856,125.0288],[-5.3569,37.5966,119.3113],[-5.3595,37.6051,101.1548],[-5.3813,37.6112,83.841],[-5.3819,37.6146,88.2134],[-5.3843,37.6144,80.5437],[-5.3892,37.62,73.645],[-5.3917,37.6207,73.1636],[-5.3916,37.6239,83.2874],[-5.398,37.6274,63.9101],[-5.401,37.6311,61.5911],[-5.4015,37.6365,54.8722],[-5.4078,37.6386,57.6787],[-5.4086,37.6399,48.4378],[-5.4068,37.6412,49.9337],[-5.4114,37.6414,46.5921],[-5.4099,37.6453,44.1459],[-5.4129,37.6442,54.8485],[-5.4143,37.6461,43.1709],[-5.4135,37.6476,38.0583],[-5.4024,37.6483,47.3143],[-5.3965,37.651,38.9371],[-5.3936,37.6568,42.7875],[-5.3971,37.6624,40.391],[-5.4062,37.6586,40.0494],[-5.4095,37.66,40.6984],[-5.4124,37.664,40.7253],[-5.4114,37.669,41.8481],[-5.4141,37.6739,35.1045],[-5.4118,37.6835,38.0567],[-5.4054,37.692,35.7324],[-5.4009,37.6938,41.4817],[-5.394,37.6935,36.0848],[-5.3881,37.6978,40.9573],[-5.3838,37.6943,39.6635],[-5.384,37.6813,43.5606],[-5.38,37.6785,38.9258],[-5.375,37.6779,37.8125],[-5.3703,37.6844,37.1665],[-5.3686,37.6901,42.9695],[-5.3615,37.698,39.6281],[-5.3447,37.7054,42.6861],[-5.3385,37.7063,43.9746],[-5.3334,37.7001,47.8479],[-5.3321,37.695,37.875],[-5.327,37.6916,53.1741],[-5.3219,37.6957,46.2205],[-5.3195,37.7012,47.7794],[-5.3145,37.7016,48.7496],[-5.3101,37.6979,48.0053],[-5.3075,37.6993,48.6886],[-5.307,37.7042,50.2059],[-5.3108,37.7086,49.4243],[-5.3087,37.7158,76.7888],[-5.304,37.7218,91.2451],[-5.3061,37.7263,73.1699],[-5.3047,37.7305,68.3367],[-5.3131,37.7533,92.9954],[-5.3181,37.7572,88.0],[-5.3184,37.7593,146.5489],[-5.3159,37.7598,104.738],[-5.3142,37.7657,109.0273],[-5.3104,37.7661,100.2743],[-5.3099,37.7743,101.3551],[-5.3293,37.7783,137.8395],[-5.3308,37.7857,137.9699],[-5.3439,37.7898,156.6132],[-5.3452,37.7924,124.0776],[-5.3498,37.7943,127.1537],[-5.3473,37.8045,160.7874],[-5.3475,37.8123,172.0853],[-5.3419,37.8238,239.7395],[-5.3448,37.8279,160.5394],[-5.3393,37.8315,155.6794],[-5.3396,37.8336,162.2648],[-5.3452,37.8367,164.6953],[-5.3447,37.8401,171.5012],[-5.3469,37.8398,177.7352],[-5.3504,37.8434,183.0],[-5.3598,37.8442,183.0],[-5.3683,37.8502,183.0],[-5.3791,37.8526,183.0],[-5.3813,37.8516,183.0],[-5.388,37.8577,183.0],[-5.3999,37.8636,195.1807],[-5.4045,37.8623,212.1644],[-5.4115,37.8716,242.1099],[-5.4148,37.8699,243.5992],[-5.4136,37.8746,259.9518],[-5.4145,37.8769,269.5616],[-5.4174,37.8775,256.0204],[-5.4152,37.8791,260.6667],[-5.416,37.8843,273.1248],[-5.4178,37.8875,286.5965],[-5.4219,37.8889,283.0672],[-5.4208,37.893,320.7176],[-5.4144,37.898,304.5302],[-5.4136,37.9015,307.9896],[-5.4134,37.9049,312.2349],[-5.4165,37.9068,312.8773],[-5.4178,37.9166,330.1013],[-5.422,37.9184,325.9181],[-5.4171,37.9212,323.335],[-5.42,37.9249,337.7668],[-5.4165,37.9286,370.9829],[-5.4241,37.927,344.3887],[-5.4231,37.9307,365.0144],[-5.4207,37.9296,358.1272],[-5.4188,37.9315,368.9987],[-5.4187,37.9364,368.4913],[-5.4156,37.9381,379.3366],[-5.4143,37.9411,367.4477],[-5.4155,37.9437,374.2842],[-5.4181,37.9449,374.3465],[-5.4203,37.9487,385.3812],[-5.426,37.9501,387.5789],[-5.432,37.9539,401.3325],[-5.4358,37.9583,402.8549],[-5.4471,37.9615,419.4968],[-5.4521,37.9672,446.0605],[-5.4692,37.971,474.7432],[-5.4699,37.9745,497.7897],[-5.4742,37.9754,489.6305],[-5.4817,37.9898,552.2562],[-5.4851,37.9904,554.7584],[-5.4872,37.9936,574.8221],[-5.4902,37.9928,576.4331],[-5.493,37.9958,654.5574],[-5.4936,38.0001,691.1689],[-5.4904,38.0092,593.2139],[-5.4919,38.0136,529.7363],[-5.4889,38.0281,538.02],[-5.4898,38.0336,502.6039],[-5.4954,38.0424,434.9227],[-5.5103,38.0532,343.4034],[-5.516,38.0621,347.4108],[-5.5227,38.0651,431.9969],[-5.5255,38.0686,488.3931],[-5.5251,38.0733,532.187],[-5.5274,38.0755,499.5565],[-5.532,38.0759,518.7668],[-5.5395,38.0822,539.6046],[-5.5387,38.0938,562.9396],[-5.5507,38.1012,560.8203],[-5.5572,38.108,401.7439],[-5.5816,38.1155,454.5231],[-5.5812,38.129,657.137],[-5.5847,38.1317,642.7988],[-5.6333,38.1381,486.7025],[-5.6441,38.1293,523.8307],[-5.6458,38.1252,528.597],[-5.6669,38.1091,686.854],[-5.6692,38.1018,669.0156],[-5.6935,38.0838,633.7543],[-5.7103,38.0811,570.7909],[-5.7194,38.0851,592.1745],[-5.7328,38.0875,611.4822],[-5.7348,38.0863,621.7225],[-5.7359,38.0945,676.8278],[-5.7339,38.0982,656.0187],[-5.7341,38.1081,627.1866],[-5.735,38.1145,619.2604],[-5.7406,38.1266,612.2557],[-5.7387,38.1328,524.3157],[-5.7307,38.1371,485.2502],[-5.7186,38.1363,549.3073],[-5.7153,38.1338,536.9409],[-5.7088,38.1423,552.0084],[-5.7043,38.1434,530.003],[-5.6946,38.1504,474.976],[-5.7056,38.1641,428.0155],[-5.7057,38.1694,429.357],[-5.7019,38.1673,422.1857],[-5.6949,38.1711,426.6591],[-5.6938,38.1682,476.524],[-5.686,38.1616,510.2525],[-5.6841,38.1571,510.7169],[-5.684,38.1608,522.4189],[-5.6887,38.1712,458.3773],[-5.6874,38.1796,419.7326],[-5.6885,38.1819,406.8925],[-5.6977,38.1797,406.0915],[-5.6988,38.1809,416.9734],[-5.6987,38.1827,416.3361],[-5.6944,38.1835,423.0025],[-5.6946,38.1865,421.3405],[-5.6979,38.185,419.3583],[-5.7018,38.1864,422.0055],[-5.7049,38.1851,425.7531],[-5.7078,38.1883,423.5175],[-5.7141,38.1863,427.0154],[-5.7146,38.189,435.8967],[-5.7231,38.1925,448.7706],[-5.725,38.1958,442.9204],[-5.728,38.1974,441.8679],[-5.7314,38.1952,441.0538],[-5.7419,38.1939,441.739],[-5.7457,38.1895,444.4704],[-5.7485,38.1904,451.7391],[-5.7538,38.1843,455.4745],[-5.7566,38.1853,490.2073],[-5.7574,38.1839,490.2073],[-5.7552,38.1819,458.8614],[-5.7572,38.1806,467.4285],[-5.761,38.1828,462.474],[-5.772,38.1834,464.8182],[-5.7816,38.1859,479.6842],[-5.7917,38.1776,490.0201],[-5.7998,38.1745,485.2746],[-5.803,38.1783,485.1351],[-5.8105,38.1736,509.4817],[-5.8118,38.1748,492.5839],[-5.8106,38.178,491.8124],[-5.8153,38.1763,504.5493],[-5.817,38.1777,530.1444],[-5.8186,38.1751,507.6884],[-5.8222,38.1757,531.2202],[-5.8241,38.1722,515.7716],[-5.823,38.1699,515.9461],[-5.8377,38.1744,530.2247],[-5.8466,38.1714,542.8535],[-5.8514,38.1719,541.675],[-5.8551,38.1695,544.664],[-5.8565,38.1615,553.0906],[-5.8746,38.1584,579.9177],[-5.8774,38.1554,613.1522],[-5.8767,38.1484,624.4146],[-5.8785,38.1466,641.2628],[-5.8768,38.1379,697.2141],[-5.8808,38.1322,840.9527],[-5.8952,38.1305,711.1827],[-5.9072,38.124,629.0586],[-5.9128,38.1227,620.5901],[-5.9141,38.1176,612.6132],[-5.9264,38.1044,476.904],[-5.9276,38.0973,454.7161],[-5.9291,38.0964,450.6619],[-5.9277,38.0912,434.424],[-5.9292,38.0892,434.2041],[-5.9107,38.0782,399.9295],[-5.9079,38.0683,393.282],[-5.9089,38.0629,386.6449],[-5.9116,38.0628,389.4126],[-5.9132,38.0596,382.6034],[-5.9179,38.0562,377.9868],[-5.9192,38.0498,378.6545],[-5.9283,38.0502,387.3873],[-5.9341,38.0469,366.779],[-5.9366,38.0387,349.5477],[-5.9326,38.0315,343.6783],[-5.9368,38.028,338.5668],[-5.9363,38.0244,334.5],[-5.9404,38.0149,335.0],[-5.9448,38.0107,337.0061],[-5.945,38.007,336.4879],[-5.9536,37.9954,335.0],[-5.9557,37.9984,335.0],[-5.9613,37.9997,335.0],[-5.9774,37.9998,373.9639],[-5.9868,37.998,378.9876],[-5.9934,37.9996,381.3143],[-6.0061,37.9914,550.2854],[-6.0129,37.9934,573.6501],[-6.017,37.9911,611.8964],[-6.0241,37.9933,585.6639],[-6.0312,37.9977,622.7192],[-6.0406,37.995,615.3834],[-6.0443,37.997,602.1301],[-6.0522,37.9967,543.8276],[-6.0552,37.9923,511.7351],[-6.0617,37.9915,491.306],[-6.0652,37.9885,508.9665],[-6.0777,37.9846,585.6899],[-6.0827,37.9857,581.2096],[-6.09,37.9845,625.2043],[-6.0943,37.9816,714.8932],[-6.1152,37.9818,582.1697],[-6.1297,37.9731,523.866],[-6.1361,37.9722,497.0779],[-6.1423,37.9658,471.0581],[-6.1492,37.9661,465.7038],[-6.1485,37.9626,460.8239],[-6.1544,37.9576,447.1846],[-6.1677,37.9558,445.2586],[-6.1678,37.9519,442.7686],[-6.1773,37.9461,424.399],[-6.1822,37.9382,422.7372],[-6.184,37.9282,418.8341],[-6.1691,37.9094,409.262],[-6.1665,37.9092,409.374],[-6.164,37.9177,400.3253],[-6.1564,37.9167,416.1329],[-6.1521,37.9192,398.0893],[-6.1505,37.919,400.0002],[-6.1512,37.9161,403.3522],[-6.15,37.916,403.3522],[-6.1464,37.9203,407.2616],[-6.1446,37.9204,391.8143],[-6.1378,37.909,411.5815],[-6.1315,37.9088,451.067],[-6.1249,37.9048,385.5322],[-6.1253,37.9009,384.8159],[-6.1362,37.8957,511.237],[-6.1413,37.885,385.6957],[-6.1453,37.8843,384.2825],[-6.1502,37.877,370.6367],[-6.1591,37.8735,364.9232],[-6.1603,37.8655,367.7141],[-6.1639,37.8628,355.7741],[-6.163,37.8573,356.3494],[-6.1589,37.8541,349.4181],[-6.154,37.8534,351.646],[-6.1462,37.8568,344.2766],[-6.1417,37.8549,360.813],[-6.1381,37.8441,339.7002],[-6.1348,37.8426,342.7537],[-6.1353,37.8349,365.6719],[-6.1295,37.8324,342.0778],[-6.1255,37.8181,330.6398],[-6.1218,37.8171,342.2476],[-6.1216,37.8156,323.2593],[-6.127,37.8115,341.4348],[-6.1242,37.8044,318.0371],[-6.1263,37.7972,307.4448],[-6.1381,37.7951,306.689],[-6.1337,37.79,312.6797],[-6.1339,37.7878,300.9387],[-6.1349,37.7892,312.6797],[-6.1429,37.7873,313.2623],[-6.147,37.7937,330.3419],[-6.1534,37.7949,335.944],[-6.1564,37.7909,349.2944],[-6.159,37.7907,363.6344],[-6.163,37.7942,377.4803],[-6.1673,37.7928,381.2969],[-6.1683,37.7961,382.1448],[-6.1728,37.7963,388.1118],[-6.1719,37.7985,398.8301],[-6.1773,37.7982,405.2908],[-6.1841,37.8095,445.4424],[-6.1875,37.8099,432.3413],[-6.2023,37.8055,467.1365],[-6.2079,37.8007,494.3548],[-6.2072,37.7983,495.8094],[-6.2123,37.7956,479.5728],[-6.2154,37.7913,409.831],[-6.2122,37.7862,433.7225],[-6.2074,37.7713,318.8256],[-6.2088,37.7694,304.4949],[-6.2056,37.766,394.0451],[-6.2198,37.7545,364.0459],[-6.2203,37.7485,266.8732],[-6.2169,37.7437,243.9982],[-6.2219,37.7415,200.8498],[-6.2219,37.7397,181.167],[-6.2268,37.739,174.0135],[-6.2267,37.7415,182.6828],[-6.2347,37.7386,162.1718],[-6.2337,37.744,190.9934],[-6.2362,37.7443,167.9737],[-6.2434,37.7409,160.3714],[-6.2523,37.7428,165.0961],[-6.2552,37.7459,200.4612],[-6.2541,37.7474,176.3754],[-6.2445,37.7478,171.4033],[-6.2483,37.7591,182.6446],[-6.2519,37.7631,175.4801],[-6.2582,37.7606,236.9974],[-6.266,37.7614,267.5326],[-6.2711,37.7588,288.7408],[-6.2784,37.7584,309.6038],[-6.3031,37.7617,440.0573],[-6.3109,37.7649,468.0313],[-6.3198,37.764,469.744],[-6.3291,37.7598,429.1957],[-6.3487,37.7575,438.3971],[-6.3529,37.7553,465.0207],[-6.3601,37.7549,418.6835],[-6.3899,37.7477,490.3055],[-6.4234,37.7341,453.9275],[-6.4307,37.7275,459.4408],[-6.4501,37.7189,351.2621],[-6.4542,37.7214,326.8224],[-6.4606,37.721,325.1147],[-6.4736,37.7253,322.4459],[-6.4811,37.7223,297.6931],[-6.4805,37.7208,307.2727],[-6.4829,37.7208,293.5273],[-6.48,37.7154,307.134],[-6.4758,37.7147,281.928],[-6.4733,37.7091,282.4351],[-6.4745,37.7088,282.4351],[-6.4764,37.712,274.6127],[-6.4793,37.711,273.9972],[-6.4794,37.7053,271.3068],[-6.4847,37.7012,256.5836],[-6.4848,37.6977,252.5839],[-6.4888,37.698,253.1456],[-6.4911,37.6963,256.1769],[-6.4907,37.6949,257.4429],[-6.4939,37.6913,280.1888],[-6.4929,37.689,253.0351],[-6.5013,37.6887,246.3102],[-6.498,37.6823,242.0],[-6.5008,37.6772,242.0],[-6.5004,37.6704,242.0],[-6.5022,37.6668,242.0],[-6.5036,37.666,242.0],[-6.5076,37.6683,242.0],[-6.5117,37.6647,220.0288],[-6.5158,37.6654,229.5338],[-6.5192,37.6622,213.9593],[-6.5215,37.6644,213.749],[-6.5254,37.6641,209.0316],[-6.5299,37.6576,204.0587],[-6.5332,37.6569,203.3185],[-6.536,37.651,217.422],[-6.5335,37.6469,195.9936],[-6.5365,37.6405,191.3246],[-6.5295,37.6368,162.5636],[-6.5304,37.6342,158.9843],[-6.5334,37.633,152.236],[-6.5334,37.6298,186.3908],[-6.5384,37.6267,156.7868],[-6.5364,37.6208,160.4771],[-6.5351,37.6215,160.4771],[-6.5321,37.6201,174.4279],[-6.533,37.6191,164.4398],[-6.5301,37.619,176.2849],[-6.5279,37.6158,174.4032],[-6.5263,37.6182,183.5799],[-6.5219,37.6196,191.65],[-6.5225,37.6219,187.5015],[-6.5204,37.6208,176.6886],[-6.5135,37.6252,189.9459],[-6.5109,37.6226,189.2311],[-6.5085,37.6247,201.6212],[-6.5078,37.6212,194.9534],[-6.5039,37.6244,224.7442],[-6.5005,37.6216,208.6757],[-6.4985,37.6227,217.6149],[-6.4978,37.621,210.0664],[-6.5009,37.62,222.7748],[-6.4995,37.6183,225.1527],[-6.4973,37.6195,231.7565],[-6.4967,37.6172,214.7878],[-6.4899,37.621,229.9256],[-6.489,37.6179,232.2227],[-6.4847,37.6161,246.8765],[-6.4841,37.6203,244.582],[-6.4813,37.6211,253.3039],[-6.4808,37.6197,263.1992],[-6.4764,37.6194,253.7235],[-6.4734,37.6225,269.3185],[-6.4718,37.6202,280.9167],[-6.4698,37.6213,267.2085],[-6.4654,37.6201,275.3674],[-6.4648,37.6215,274.6596],[-6.4612,37.6211,287.2147],[-6.4559,37.623,314.8751],[-6.4545,37.6208,297.7886],[-6.4492,37.6205,304.3331],[-6.4431,37.6234,320.0114],[-6.4385,37.6214,333.2152],[-6.4352,37.6226,343.7729],[-6.4311,37.6203,416.8662],[-6.4239,37.6219,378.0542],[-6.4169,37.6192,331.8569],[-6.4131,37.6195,333.1528],[-6.4095,37.6146,306.4179],[-6.3987,37.6126,290.6946],[-6.3971,37.6105,280.441],[-6.395,37.611,271.5511],[-6.3959,37.6089,272.546],[-6.3941,37.6041,266.9092],[-6.3977,37.6013,248.1843],[-6.3971,37.6002,261.354],[-6.4003,37.601,247.9197],[-6.402,37.5989,246.0547],[-6.3991,37.5983,242.521],[-6.3981,37.5955,253.7815],[-6.4,37.5946,229.9835],[-6.3981,37.594,236.1956],[-6.3994,37.5914,229.4011],[-6.3931,37.5881,235.3761],[-6.3935,37.5854,258.1959],[-6.3952,37.5854,219.9666],[-6.395,37.583,219.4462],[-6.4001,37.584,231.3565],[-6.4023,37.58,209.0814],[-6.3923,37.5541,346.1773],[-6.3889,37.5515,336.3739],[-6.384,37.5509,319.4859],[-6.3766,37.5471,286.4465],[-6.3663,37.5358,241.374],[-6.3696,37.5286,224.8485],[-6.3668,37.5179,180.2973],[-6.3628,37.5147,155.823],[-6.3579,37.5047,135.9201],[-6.3603,37.5044,147.1661],[-6.358,37.5001,125.6811],[-6.3555,37.5,123.5657],[-6.3561,37.4965,113.9104],[-6.3459,37.4929,100.6059],[-6.34,37.4872,90.6867],[-6.3323,37.4697,68.0448],[-6.3324,37.4645,64.3995],[-6.3248,37.4575,60.084],[-6.3249,37.4554,59.4267],[-6.322,37.4542,57.8068],[-6.3211,37.4514,55.6541],[-6.3118,37.4457,50.7327],[-6.3112,37.4417,47.9452],[-6.3065,37.4351,42.7235],[-6.3054,37.4263,39.3601],[-6.3121,37.4218,52.2278],[-6.3125,37.4187,46.8542],[-6.3203,37.4193,50.4118],[-6.3212,37.4205,54.789],[-6.3273,37.4161,53.8856],[-6.3561,37.4122,77.11],[-6.3618,37.4014,92.5254],[-6.3541,37.3973,84.8887],[-6.3555,37.3859,103.2675],[-6.3619,37.3759,77.8574],[-6.3552,37.3739,78.02],[-6.355,37.3708,74.439],[-6.3459,37.3657,69.7683],[-6.349,37.3625,71.6668],[-6.3618,37.3558,131.7636],[-6.3683,37.3495,136.7623],[-6.3738,37.3487,125.2376],[-6.3781,37.3461,117.1987],[-6.3844,37.3375,91.7246],[-6.3713,37.3275,85.3572],[-6.3438,37.3131,70.1211],[-6.3329,37.2991,58.6231],[-6.3364,37.2895,51.6881],[-6.3383,37.2882,47.3982],[-6.3399,37.2831,47.1597],[-6.3427,37.2812,41.863],[-6.3415,37.278,45.6167],[-6.3369,37.2748,48.8382],[-6.3488,37.2661,57.7886],[-6.3542,37.2555,53.453],[-6.3511,37.2496,51.9364],[-6.3554,37.2419,50.32],[-6.3597,37.2381,44.186],[-6.3451,37.2183,23.1999],[-6.3478,37.2093,21.0935],[-6.3505,37.2077,20.0334],[-6.3497,37.2031,19.217],[-6.3532,37.199,20.4044],[-6.3519,37.1982,20.4862],[-6.3529,37.1961,16.6848],[-6.3504,37.1806,25.1613],[-6.336,37.1696,7.4454],[-6.3486,37.1524,1.6837],[-6.3528,37.1504,1.3828],[-6.3528,37.1474,1.2999],[-6.3595,37.1384,1.0161],[-6.3554,37.1345,1.2707],[-6.3485,37.1324,1.3419],[-6.3463,37.1292,0.9313],[-6.343,37.128,1.0642],[-6.3422,37.123,1.0838],[-6.3436,37.1207,1.0355],[-6.3494,37.1211,1.0445],[-6.3535,37.1182,1.0942],[-6.3599,37.1173,1.316],[-6.3562,37.1107,0.6029],[-6.3683,37.1043,0.3795],[-6.3765,37.0976,0.2557],[-6.3854,37.0837,0.467],[-6.3862,37.0744,1.0963],[-6.3806,37.0596,0.6857],[-6.3798,37.0484,0.6795],[-6.3567,37.0002,0.6761],[-6.3539,36.9863,0.6555],[-6.361,36.9719,0.6956],[-6.3596,36.9597,1.075],[-6.3637,36.9458,0.7448],[-6.373,36.9366,0.6803],[-6.3787,36.9347,0.9186],[-6.3709,36.9268,0.7084],[-6.3567,36.9191,1.0278],[-6.3446,36.907,1.0027],[-6.3345,36.9033,0.0],[-6.3309,36.8988,0.0],[-6.2968,36.9052,0.1621],[-6.2781,36.9109,0.0],[-6.2737,36.9089,0.0],[-6.2627,36.8979,0.1841],[-6.2536,36.8939,0.5733],[-6.2429,36.8944,0.0],[-6.2308,36.8981,0.0],[-6.2294,36.8961,0.0],[-6.2085,36.8934,0.5873]],
[[-5.0299,37.6322,189.8001],[-5.0294,37.628,191.0645],[-5.0336,37.6244,191.0485],[-5.0335,37.6208,191.881],[-5.0294,37.613,194.1703],[-5.0245,37.5949,194.69],[-5.0171,37.5936,193.157],[-5.018,37.5921,193.2238],[-5.0251,37.594,194.69],[-5.0269,37.5962,193.4273],[-5.0309,37.6106,194.5991],[-5.0478,37.6082,177.6262],[-5.04,37.6259,190.1075],[-5.0452,37.6299,187.4518],[-5.0848,37.6438,177.2528],[-5.084,37.6481,177.0129],[-5.0537,37.6424,178.1772],[-5.0485,37.6369,181.2081],[-5.0467,37.632,185.9249],[-5.0341,37.6385,189.7338],[-5.0334,37.642,190.4088],[-5.0311,37.6415,189.912],[-5.0264,37.6352,190.308],[-5.0299,37.6322,189.8001]]]]}}