{"type":"Feature","properties":{"GID_3":"ESP.11.2.4_1","GID_0":"ESP","country":"Spain","GID_1":"ESP.11_1","province":"Extremadura","NL_NAME_1":"NA","GID_2":"ESP.11.2_1","county":"Cáceres","NL_NAME_2":"NA","city":"n.a.(72)","VARNAME_3":"NA","NL_NAME_3":"NA","TYPE_3":"Comarca","ENGTYPE_3":"Comarca","CC_3":"NA","HASC_3":"NA","name":"n.a.(72).city"},
"geometry":{"type": "MultiPolygon","coordinates": [[[[-6.0049,39.8406,231.6168],[-5.9918,39.8369,215.9962],[-5.9876,39.8487,214.5],[-5.9822,39.8516,215.0],[-5.9725,39.8483,217.6902],[-5.966,39.8428,215.5],[-5.9635,39.8431,215.625],[-5.9616,39.8464,216.0],[-5.962,39.8542,217.8302],[-5.9601,39.8578,216.5],[-5.954,39.8602,218.329],[-5.9464,39.8659,218.7583],[-5.9282,39.8663,217.0],[-5.9242,39.8716,219.1822],[-5.9255,39.8819,221.6062],[-5.9208,39.8955,221.758],[-5.9172,39.8992,221.3139],[-5.9015,39.9031,225.6239],[-5.8945,39.9082,228.3627],[-5.8946,39.9125,240.1514],[-5.8919,39.9164,255.6205],[-5.8871,39.9188,264.3109],[-5.8856,39.9244,252.5884],[-5.8929,39.9323,234.9285],[-5.8949,39.939,229.994],[-5.8842,39.9441,226.2503],[-5.8581,39.9503,230.8503],[-5.8379,39.9624,227.8994],[-5.8354,39.9653,226.7652],[-5.8347,39.9736,231.704],[-5.831,39.9764,228.3967],[-5.8095,39.9821,234.2831],[-5.8091,39.9836,234.2831],[-5.7821,39.9877,245.8295],[-5.7844,39.9909,270.2203],[-5.7835,39.9951,301.5537],[-5.7864,39.9986,318.819],[-5.7861,40.0028,354.269],[-5.7837,40.0045,357.273],[-5.7853,40.0097,382.2899],[-5.7751,40.0145,390.9432],[-5.7665,40.0167,358.7852],[-5.7674,40.0204,377.0366],[-5.7579,40.0278,405.1791],[-5.7575,40.0296,418.9892],[-5.7645,40.0385,474.1843],[-5.7683,40.0495,549.839],[-5.7739,40.0561,674.7485],[-5.7796,40.0575,667.0123],[-5.7848,40.0612,741.0426],[-5.8026,40.0634,901.9549],[-5.8054,40.0693,823.3414],[-5.8257,40.0777,1096.4713],[-5.8297,40.0827,1133.8827],[-5.8232,40.0961,1332.5259],[-5.8163,40.1003,1321.4431],[-5.8147,40.1045,1368.5811],[-5.8159,40.1098,1323.7865],[-5.8192,40.113,1352.1804],[-5.8109,40.1241,1229.1031],[-5.8058,40.1261,1188.9683],[-5.7939,40.1371,1275.3088],[-5.7849,40.1561,1526.9214],[-5.7568,40.1703,1712.9834],[-5.7492,40.1702,1752.7539],[-5.7383,40.173,1773.1636],[-5.7339,40.1706,1797.8022],[-5.722,40.1744,1683.0806],[-5.7072,40.1739,1529.2976],[-5.6947,40.1714,1519.5098],[-5.6807,40.1761,1657.7876],[-5.6635,40.1929,2033.3916],[-5.656,40.1959,2071.5869],[-5.6529,40.1994,2122.0862],[-5.6531,40.2033,2126.0791],[-5.6469,40.2087,2171.7449],[-5.6307,40.2109,2026.0635],[-5.6193,40.207,2239.325],[-5.6129,40.2099,2185.2075],[-5.6099,40.2155,2283.7666],[-5.6188,40.2239,2271.8462],[-5.6136,40.2333,2109.3628],[-5.6143,40.2359,2119.9387],[-5.6163,40.2363,2127.8047],[-5.621,40.2414,1994.5005],[-5.6219,40.2459,1990.469],[-5.6261,40.2477,1998.5369],[-5.6491,40.2497,1697.6421],[-5.6597,40.2574,1497.5326],[-5.6565,40.2702,1301.1453],[-5.6826,40.2839,1655.7152],[-5.6925,40.2921,2012.6008],[-5.7002,40.2889,2055.5125],[-5.7051,40.2912,2016.6061],[-5.7341,40.2925,2359.4141],[-5.7374,40.2941,2346.8882],[-5.7443,40.2889,2359.5093],[-5.7578,40.2825,2183.7227],[-5.7649,40.2808,2153.6216],[-5.7633,40.2751,2042.5366],[-5.7672,40.266,1872.8209],[-5.7726,40.2607,1874.4612],[-5.7787,40.2584,1830.662],[-5.7806,40.2521,1754.1675],[-5.8002,40.2487,1666.1327],[-5.8112,40.2494,1799.6804],[-5.8159,40.2473,1764.3137],[-5.8202,40.2488,1745.8521],[-5.8316,40.2373,1790.7303],[-5.8447,40.2348,1746.6724],[-5.8547,40.2272,1594.2697],[-5.864,40.228,1597.5278],[-5.87,40.226,1542.4272],[-5.8717,40.2217,1421.8905],[-5.8798,40.2126,1580.53],[-5.8886,40.212,1721.1094],[-5.8932,40.2049,1686.427],[-5.9015,40.1982,1808.0342],[-5.9121,40.1793,1580.5166],[-5.9273,40.1795,1465.428],[-5.9344,40.175,1427.4507],[-5.9507,40.1682,1474.6416],[-5.9578,40.1771,1227.061],[-6.0106,40.2058,385.0465],[-6.0731,40.1717,371.6411],[-6.0814,40.1686,386.1487],[-6.0974,40.1681,386.4048],[-6.1567,40.1311,421.2514],[-6.1735,40.1169,404.4044],[-6.1781,40.1102,403.1291],[-6.1787,40.1063,399.2623],[-6.1984,40.108,405.2574],[-6.2066,40.1127,413.6015],[-6.2145,40.114,387.7728],[-6.2229,40.1183,357.4706],[-6.2271,40.1233,305.5],[-6.2208,40.1223,305.5],[-6.2188,40.1234,316.7695],[-6.2153,40.1314,311.6795],[-6.206,40.1382,306.0],[-6.2058,40.1439,306.0],[-6.204,40.1459,306.0],[-6.2136,40.1549,369.5983],[-6.2076,40.1579,390.9656],[-6.2133,40.1623,376.8513],[-6.2078,40.1714,335.2756],[-6.2097,40.1734,351.1927],[-6.2078,40.177,350.2874],[-6.21,40.1808,357.5355],[-6.214,40.182,362.9716],[-6.2143,40.1842,369.0641],[-6.2172,40.1855,375.0755],[-6.2181,40.1906,416.7975],[-6.2263,40.1953,392.8246],[-6.2413,40.1999,428.2359],[-6.2474,40.1992,425.113],[-6.2595,40.2022,452.0977],[-6.2683,40.2015,468.6748],[-6.2739,40.2037,452.1236],[-6.2788,40.2021,427.1816],[-6.2823,40.1984,398.9172],[-6.2861,40.1994,402.2063],[-6.2889,40.206,406.7762],[-6.2765,40.2144,420.3741],[-6.2791,40.2168,429.8015],[-6.2794,40.2219,443.3076],[-6.2831,40.2236,448.0175],[-6.2817,40.23,435.5931],[-6.2866,40.2311,438.595],[-6.307,40.2275,425.3479],[-6.3094,40.2382,479.6107],[-6.3168,40.2457,502.4487],[-6.3162,40.2493,498.9918],[-6.3234,40.2529,576.0501],[-6.328,40.258,538.4807],[-6.3282,40.264,523.6942],[-6.3325,40.275,559.9772],[-6.3359,40.2766,650.7169],[-6.3361,40.2789,636.4507],[-6.3467,40.2825,774.87],[-6.3517,40.2815,772.1038],[-6.3582,40.2751,717.4761],[-6.3651,40.2739,718.8093],[-6.3689,40.2704,709.0274],[-6.369,40.2662,743.3503],[-6.3648,40.2642,688.075],[-6.3627,40.2598,624.1439],[-6.3625,40.2514,571.399],[-6.3645,40.2417,501.1276],[-6.3679,40.2352,487.0494],[-6.3687,40.222,553.6913],[-6.3759,40.2127,548.6522],[-6.3795,40.2111,597.6868],[-6.3805,40.206,676.7646],[-6.3745,40.1963,634.4571],[-6.3759,40.1801,579.0133],[-6.3856,40.1698,602.387],[-6.3695,40.1656,565.6986],[-6.3562,40.16,478.5524],[-6.3593,40.1555,474.9955],[-6.3563,40.1427,473.4224],[-6.3458,40.1143,450.5843],[-6.3498,40.1113,441.3201],[-6.3574,40.1127,460.2216],[-6.364,40.1105,476.0861],[-6.3833,40.1106,435.9201],[-6.3845,40.0998,417.8801],[-6.3823,40.0874,432.8589],[-6.3837,40.0783,405.9534],[-6.3861,40.0744,409.2994],[-6.3854,40.071,405.1717],[-6.3669,40.0349,315.2595],[-6.3521,40.0203,319.3555],[-6.3515,40.0135,332.6866],[-6.359,40.0013,322.3113],[-6.3558,39.9998,327.2084],[-6.3606,39.9808,299.6468],[-6.3768,39.9428,237.6215],[-6.3787,39.9416,234.3433],[-6.3757,39.9409,232.8524],[-6.3579,39.9433,234.5506],[-6.3478,39.9485,235.2298],[-6.3464,39.9523,241.6984],[-6.3401,39.9533,241.4515],[-6.3319,39.9511,236.4662],[-6.3152,39.9515,239.6579],[-6.3092,39.9492,238.3422],[-6.2984,39.9505,236.7939],[-6.2948,39.9451,270.2488],[-6.2931,39.9352,320.7111],[-6.2851,39.931399999999996,336.6147],[-6.2864,39.9283,298.4473],[-6.2732,39.9255,359.3652],[-6.2695,39.9224,310.3907],[-6.271,39.9171,282.9886],[-6.2763,39.9121,321.7293],[-6.2798,39.8978,403.5021],[-6.2843,39.8923,411.356],[-6.2924,39.8855,413.5987],[-6.3052,39.8786,426.6043],[-6.3028,39.8746,416.6255],[-6.2967,39.8715,357.5779],[-6.2958,39.8635,392.0881],[-6.2979,39.8616,403.9372],[-6.2929,39.8545,433.0496],[-6.2879,39.8506,463.892],[-6.2844,39.8505,481.1616],[-6.2825,39.8476,510.7729],[-6.2778,39.8465,504.9093],[-6.2669,39.8352,442.7208],[-6.2672,39.8313,424.3801],[-6.2471,39.8315,601.7928],[-6.1971,39.8389,674.96],[-6.1911,39.8367,584.7198],[-6.1892,39.8285,419.1199],[-6.1768,39.816,371.2109],[-6.1737,39.8108,358.7355],[-6.1702,39.7899,319.8904],[-6.1641,39.7819,198.5],[-6.1698,39.7777,198.5],[-6.1774,39.7774,201.8056],[-6.1892,39.7735,198.5],[-6.1977,39.7686,198.5],[-6.2281,39.7626,216.1033],[-6.2331,39.7581,198.5],[-6.2305,39.7557,205.3183],[-6.2264,39.7557,224.033],[-6.2231,39.7519,244.1288],[-6.2228,39.7456,264.3377],[-6.2181,39.7441,286.9044],[-6.2151,39.7385,318.2222],[-6.2173,39.7374,317.2927],[-6.2152,39.735,332.9961],[-6.216,39.7336,339.958],[-6.2003,39.717,447.6093],[-6.1979,39.72,434.3513],[-6.1949,39.7154,444.1717],[-6.1911,39.7161,434.5996],[-6.1864,39.714,441.8799],[-6.1758,39.715,403.5301],[-6.1665,39.7204,379.8231],[-6.1615,39.728,360.8759],[-6.1416,39.7437,403.0376],[-6.1357,39.7448,431.5086],[-6.1329,39.7473,411.4734],[-6.1228,39.7488,372.0469],[-6.1253,39.7297,383.9431],[-6.1233,39.7184,361.8993],[-6.1259,39.7146,365.245],[-6.1267,39.708,383.9323],[-6.1239,39.6977,383.7272],[-6.1261,39.6853,391.7405],[-6.1225,39.6779,411.4619],[-6.1238,39.6689,431.2648],[-6.1169,39.6617,413.9557],[-6.1074,39.6643,428.2126],[-6.1013,39.6682,439.3564],[-6.0877,39.6716,426.9794],[-6.0735,39.6787,419.6062],[-6.0719,39.682,416.6742],[-6.0519,39.6969,385.4177],[-6.0429,39.7065,383.978],[-6.0401,39.7117,362.7862],[-6.0259,39.7035,415.2732],[-6.0199,39.698,432.3536],[-6.0137,39.6859,416.7294],[-6.0133,39.6762,371.1335],[-6.0055,39.6632,312.1833],[-6.0034,39.664,308.9688],[-5.9823,39.6612,308.1455],[-5.9764,39.664,320.4564],[-5.9645,39.6662,323.2683],[-5.9583,39.6626,324.0013],[-5.9479,39.6648,330.6712],[-5.9406,39.6643,324.9371],[-5.9428,39.6686,351.8862],[-5.9424,39.6707,367.0339],[-5.9394,39.6723,374.8162],[-5.9377,39.6806,435.2417],[-5.9394,39.6843,453.5941],[-5.9461,39.6902,449.2298],[-5.9506,39.6999,469.0683],[-5.9579,39.7053,463.16],[-5.9522,39.7103,418.1156],[-5.9312,39.7136,384.1538],[-5.9246,39.7172,370.9104],[-5.9255,39.7222,371.0043],[-5.9217,39.7261,357.8379],[-5.9186,39.7224,359.8367],[-5.8883,39.7135,379.8924],[-5.8839,39.7313,452.8191],[-5.8801,39.736,471.7859],[-5.8793,39.7436,452.6917],[-5.8747,39.754,417.9967],[-5.8701,39.7742,520.7953],[-5.8604,39.7796,357.8867],[-5.8566,39.7847,415.2464],[-5.858,39.7928,239.5],[-5.8616,39.789,250.4899],[-5.8651,39.7885,252.7547],[-5.8822,39.7958,239.5],[-5.8861,39.7962,239.5],[-5.8949,39.7898,239.5],[-5.906,39.7947,239.5],[-5.9202,39.8053,239.5],[-5.916,39.8186,239.0],[-5.9191,39.8225,239.0],[-5.9252,39.8234,239.0],[-5.9313,39.8183,242.1959],[-5.9389,39.8171,239.0],[-5.9424,39.8185,243.7312],[-5.9477,39.8265,240.4015],[-5.9502,39.8272,239.0],[-5.9561,39.8256,239.0],[-5.9797,39.8291,239.0],[-5.9893,39.8349,200.0],[-6.0227,39.8383,198.5],[-6.0208,39.8412,202.6823],[-6.0146,39.8404,213.3409],[-6.0104,39.8458,248.7463],[-6.0081,39.8456,234.8653],[-6.0049,39.8406,231.6168]]]]}}