{"type":"Feature","properties":{"GID_3":"ESP.4.2.5_1","GID_0":"ESP","country":"Spain","GID_1":"ESP.4_1","province":"Castilla-LaMancha","NL_NAME_1":"NA","GID_2":"ESP.4.2_1","county":"CiudadReal","NL_NAME_2":"NA","city":"n.a.(83)","VARNAME_3":"NA","NL_NAME_3":"NA","TYPE_3":"Comarca","ENGTYPE_3":"Comarca","CC_3":"NA","HASC_3":"NA","name":"n.a.(83).city"},
"geometry":{"type": "MultiPolygon","coordinates": [[[[-4.8769,38.6861,529.9299],[-4.8688,38.681,425.7178],[-4.8707,38.6749,404.7222],[-4.867,38.6598,431.4352],[-4.8513,38.6576,444.6893],[-4.8411,38.6515,478.8271],[-4.8061,38.6382,531.4776],[-4.7774,38.633,582.9897],[-4.7482,38.638,730.3227],[-4.7519,38.6646,492.9235],[-4.7557,38.6732,478.5273],[-4.7589,38.6935,464.4692],[-4.7551,38.7054,410.8268],[-4.7513,38.7085,413.6313],[-4.7424,38.7061,427.1864],[-4.7381,38.7179,513.0782],[-4.7288,38.7217,750.7759],[-4.7076,38.7235,752.2646],[-4.6979,38.7182,712.144],[-4.6877,38.722,724.7889],[-4.6862,38.7238,682.2977],[-4.6762,38.7202,533.0776],[-4.6715,38.7167,541.8199],[-4.6563,38.7116,668.7003],[-4.6507,38.7245,462.9911],[-4.6573,38.7243,462.538],[-4.6566,38.7266,481.8647],[-4.6529,38.7286,514.8779],[-4.6524,38.7339,535.2034],[-4.6489,38.7348,576.6699],[-4.6463,38.738,620.6585],[-4.6478,38.7426,606.1267],[-4.6442,38.7472,600.1279],[-4.6404,38.7497,654.3581],[-4.617,38.7507,658.6834],[-4.6104,38.7557,601.5801],[-4.6061,38.757,570.5058],[-4.6068,38.7696,580.9919],[-4.6044,38.7742,621.9702],[-4.6067,38.7839,762.5032],[-4.6016,38.7965,762.3209],[-4.6032,38.8003,742.1493],[-4.5993,38.8046,793.8853],[-4.6018,38.8235,804.832],[-4.609,38.8341,759.7897],[-4.6,38.8384,762.7015],[-4.6027,38.8723,807.2054],[-4.5952,38.8857,726.1658],[-4.594,38.898,839.1196],[-4.5862,38.9027,871.6204],[-4.5672,38.909,827.2134],[-4.5618,38.9083,864.1742],[-4.5584,38.9141,849.3969],[-4.5551,38.9139,824.4041],[-4.5519,38.9173,820.6396],[-4.5523,38.9197,803.393],[-4.534,38.9281,764.8234],[-4.5297,38.9313,749.88],[-4.5284,38.9349,690.8074],[-4.5217,38.9368,692.8174],[-4.5154,38.9417,757.4454],[-4.5109,38.942,763.8806],[-4.5042,38.9491,773.0587],[-4.4796,38.9486,683.6364],[-4.4795,38.9551,662.845],[-4.4761,38.9609,645.3489],[-4.475,38.9681,603.9055],[-4.4963,38.9937,606.9146],[-4.4977,38.9977,585.3035],[-4.5209,39.0154,616.3323],[-4.5524,39.0336,840.828],[-4.5748,39.0374,750.9914],[-4.5908,39.0489,702.9664],[-4.5957,39.0484,788.3898],[-4.6072,39.0549,767.9165],[-4.6453,39.0582,578.3662],[-4.657,39.0629,645.1288],[-4.6757,39.0639,653.4622],[-4.6808,39.0658,652.0789],[-4.6811,39.0637,735.447],[-4.7017,39.061,717.3314],[-4.7004,39.0679,746.7113],[-4.705,39.0785,777.9209],[-4.7103,39.0802,759.8589],[-4.7301,39.0782,789.2786],[-4.7326,39.0823,802.6508],[-4.7401,39.0842,800.9788],[-4.7488,39.0795,715.4912],[-4.758,39.0697,810.1819],[-4.7634,39.0709,795.1207],[-4.7666,39.066,806.0569],[-4.7763,39.0589,811.3719],[-4.7833,39.058,792.3083],[-4.7916,39.0589,773.6426],[-4.8069,39.0703,768.8539],[-4.8176,39.0735,792.8132],[-4.8322,39.0515,618.363],[-4.8327,39.0462,723.3513],[-4.8386,39.0448,777.5352],[-4.8424,39.0476,782.5669],[-4.8491,39.0455,758.0378],[-4.8525,39.0388,712.9161],[-4.8609,39.0318,729.6464],[-4.8685,39.034,783.8264],[-4.875,39.032,781.5611],[-4.8822,39.0329,762.4484],[-4.9027,39.041,775.1266],[-4.9145,39.0486,817.4161],[-4.9361,39.0568,656.8403],[-4.9485,39.0563,628.8998],[-4.9624,39.0587,454.4454],[-4.9618,39.0524,462.0471],[-4.9512,39.0307,512.3639],[-4.9452,39.0088,485.6775],[-4.9371,38.9972,544.9173],[-4.9368,38.9857,537.2263],[-4.9336,38.9756,533.5707],[-4.9181,38.9571,537.4548],[-4.9132999999999996,38.9607,554.6295],[-4.905,38.9633,563.6401],[-4.8935,38.96,620.8818],[-4.8903,38.9569,710.4501],[-4.8916,38.9529,841.6348],[-4.8765,38.9478,749.6797],[-4.8728,38.9488,733.7083],[-4.8518,38.9473,752.7647],[-4.8429,38.9451,791.2946],[-4.8437,38.9402,715.9353],[-4.8329,38.9393,573.5359],[-4.831,38.9356,532.3656],[-4.837,38.9297,516.2701],[-4.841,38.9202,454.9799],[-4.8458,38.8997,497.2768],[-4.8425,38.8953,521.9063],[-4.8477,38.8821,746.3939],[-4.8652,38.887,757.9939],[-4.8896,38.8866,738.4586],[-4.8997,38.8891,641.6731],[-4.9148,38.8875,411.4504],[-4.9191,38.8802,400.7231],[-4.9241,38.8768,388.1854],[-4.9279,38.87,428.1198],[-4.9345,38.8649,427.5282],[-4.9434,38.8544,488.0951],[-4.9444,38.8472,440.9728],[-4.9535,38.83,630.509],[-4.9586,38.8104,531.2726],[-4.9576,38.8036,526.1344],[-4.9608,38.7966,523.025],[-4.9607,38.7898,491.7539],[-4.9681,38.776,765.485],[-4.9727,38.7609,513.2044],[-4.9832,38.7515,452.0837],[-4.9899,38.7398,436.9146],[-5.0039,38.733,352.7668],[-5.0096,38.7352,346.0],[-5.0165,38.7355,346.0],[-5.0387,38.7333,400.8137],[-5.0468,38.7291,424.583],[-5.0326,38.7254,436.4064],[-5.0246,38.7265,454.8872],[-5.0171,38.7189,465.5253],[-5.0079,38.7152,492.045],[-5.0019,38.7082,502.43],[-5.0003,38.7012,508.6627],[-5.0008,38.6968,490.9149],[-5.0045,38.6951,480.1661],[-4.9648,38.6856,417.84],[-4.9361,38.6814,429.0422],[-4.923,38.6823,402.2063],[-4.9187,38.6861,410.5868],[-4.9045,38.6868,374.8538],[-4.8921,38.6851,478.6348],[-4.8845,38.6878,558.2314],[-4.8769,38.6861,529.9299]]]]}}