{"type":"Feature","properties":{"GID_3":"ESP.5.1.3_1","GID_0":"ESP","country":"Spain","GID_1":"ESP.5_1","province":"CastillayLeón","NL_NAME_1":"NA","GID_2":"ESP.5.1_1","county":"Ávila","NL_NAME_2":"NA","city":"n.a.(25)","VARNAME_3":"NA","NL_NAME_3":"NA","TYPE_3":"Comarca","ENGTYPE_3":"Comarca","CC_3":"NA","HASC_3":"NA","name":"n.a.(25).city"},
"geometry":{"type": "MultiPolygon","coordinates": [[[[-5.4522,40.2272,2240.7749],[-5.4397,40.2336,2209.7896],[-5.4297,40.2523,2173.9487],[-5.4125,40.2552,2226.6138],[-5.3949,40.2505,2220.1216],[-5.3786,40.2579,1994.5103],[-5.3641,40.257,2116.3213],[-5.3577,40.263,2133.5254],[-5.3488,40.2652,2139.842],[-5.339,40.2624,2139.1663],[-5.3232,40.2607,2282.439],[-5.3156,40.264,2216.0898],[-5.3188,40.2749,2308.3438],[-5.3256,40.2816,2236.4312],[-5.3228,40.289,2113.3823],[-5.3248,40.2915,2094.8508],[-5.3273,40.3054,1842.1666],[-5.3264,40.3099,1813.4724],[-5.3301,40.3149,1756.099],[-5.3383,40.3219,1589.7216],[-5.3512,40.3227,1419.2581],[-5.3572,40.3251,1372.8025],[-5.371,40.3384,1285.6387],[-5.3619,40.3391,1263.8225],[-5.3518,40.3427,1306.0498],[-5.344,40.3504,1499.8336],[-5.3484,40.3538,1518.8395],[-5.3477,40.3584,1564.4028],[-5.345,40.3603,1547.853],[-5.3256,40.3641,1665.3005],[-5.3268,40.3654,1670.7356],[-5.3163,40.3955,1797.7734],[-5.3188,40.4046,1845.9275],[-5.3067,40.4091,1878.2871],[-5.2948,40.4164,1873.9987],[-5.2938,40.42,1878.7054],[-5.2815,40.4279,1940.5996],[-5.2781,40.4354,1950.7131],[-5.2689,40.4372,1949.0619],[-5.2609,40.4351,1920.6649],[-5.2522,40.4358,1923.0537],[-5.2312,40.4392,1860.4216],[-5.2079,40.4547,1867.4517],[-5.1981,40.4563,1896.1539],[-5.1924,40.4616,1913.8806],[-5.1863,40.4594,1911.1746],[-5.1817,40.4552,1872.7546],[-5.1487,40.4579,1709.0565],[-5.1448,40.4619,1772.4697],[-5.1419,40.4623,1778.3094],[-5.1342,40.4759,1912.7988],[-5.1188,40.4748,1918.4895],[-5.1089,40.4766,1912.5784],[-5.0932,40.4711,1968.0471],[-5.0745,40.4773,2032.692],[-5.07,40.4904,2174.8269],[-5.0785,40.4993,2274.5986],[-5.0996,40.5012,2135.5686],[-5.1066,40.5097,2097.9138],[-5.1088,40.5163,1966.0825],[-5.1161,40.5206,1959.525],[-5.1372,40.5236,1770.0219],[-5.1627,40.5185,1620.4727],[-5.1673,40.5226,1569.3672],[-5.1596,40.5344,1474.658],[-5.1652,40.5486,1540.5951],[-5.1706,40.5526,1508.3342],[-5.1861,40.551,1515.3219],[-5.19,40.5545,1521.7257],[-5.1989,40.5553,1492.0042],[-5.2171,40.5603,1491.8184],[-5.2177,40.5674,1475.7366],[-5.243,40.5785,1481.4995],[-5.2456,40.5815,1523.3979],[-5.2456,40.5878,1474.7671],[-5.2321,40.5973,1395.2966],[-5.233,40.6033,1344.1902],[-5.2382,40.6143,1272.0717],[-5.238,40.6172,1250.2964],[-5.2323,40.6187,1239.9447],[-5.2323,40.6226,1240.2534],[-5.2461,40.6208,1234.9691],[-5.2609,40.6259,1190.8884],[-5.2721,40.6241,1147.2197],[-5.276,40.6193,1183.2141],[-5.2739,40.614,1211.9758],[-5.276,40.603,1290.8008],[-5.2877,40.5953,1251.0457],[-5.2944,40.5826,1281.3583],[-5.2961,40.5749,1290.5776],[-5.2998,40.5711,1305.91],[-5.3095,40.568,1331.29],[-5.3175,40.5675,1309.6597],[-5.328,40.5753,1297.793],[-5.3393,40.5713,1239.4147],[-5.3355,40.5659,1240.413],[-5.3552,40.5606,1237.3611],[-5.3598,40.5613,1220.6283],[-5.3765,40.576,1149.064],[-5.379,40.5765,1135.48],[-5.3943,40.5888,1160.774],[-5.3994,40.5981,1111.7561],[-5.4139,40.5942,1130.6727],[-5.4138,40.5902,1122.1584],[-5.4117,40.5894,1130.6484],[-5.4105,40.5854,1144.8782],[-5.4124,40.5829,1149.7709],[-5.4186,40.5804,1202.5693],[-5.4244,40.5726,1247.1562],[-5.4322,40.5684,1224.0001],[-5.4254,40.5566,1153.0258],[-5.4297,40.552,1138.7017],[-5.4331,40.5342,1142.1414],[-5.4363,40.5294,1136.0541],[-5.4421,40.5264,1073.8323],[-5.4469,40.52,1041.3583],[-5.4502,40.4975,1008.9951],[-5.4523,40.4941,1003.8976],[-5.4618,40.4912,1009.2541],[-5.4603,40.474,970.2512],[-5.4676,40.4671,963.8309],[-5.4654,40.4659,953.4423],[-5.4693,40.4622,949.5895],[-5.4779,40.46,945.187],[-5.4824,40.4567,944.4944],[-5.4862,40.4583,944.2154],[-5.5003,40.4589,942.5117],[-5.5097,40.4637,942.3854],[-5.5093,40.4591,943.675],[-5.5184,40.452,944.6879],[-5.5201,40.4479,947.9026],[-5.5113,40.4435,956.1151],[-5.5096,40.4385,956.8998],[-5.511,40.428,957.0891],[-5.5135,40.4238,971.0959],[-5.527,40.4224,978.1987],[-5.5397,40.4244,984.2944],[-5.5446,40.4231,985.6615],[-5.5546,40.4339,1009.5651],[-5.5639,40.4406,1057.7878],[-5.5745,40.4443,1100.1382],[-5.5706,40.4565,1121.9227],[-5.5665,40.4572,1143.175],[-5.561,40.4615,1312.1082],[-5.56,40.4668,1134.1003],[-5.564,40.4728,1044.958],[-5.5608,40.4771,1029.8333],[-5.575,40.4764,1009.9181],[-5.5897,40.4673,1026.3217],[-5.6097,40.4681,935.4376],[-5.6227,40.4658,995.3987],[-5.6263,40.4627,989.9919],[-5.6341,40.4604,1000.7414],[-5.6436,40.4463,1026.7119],[-5.6564,40.4368,1126.8308],[-5.6707,40.432,1225.4169],[-5.6748,40.4272,1189.4362],[-5.6911,40.422,1293.9167],[-5.6918,40.4195,1320.3352],[-5.6875,40.4157,1237.4153],[-5.6849,40.3954,1401.066],[-5.6783,40.3867,1684.0598],[-5.6867,40.3764,1780.3552],[-5.687,40.3612,1928.1925],[-5.685,40.3579,1937.618],[-5.6862,40.3554,1961.7009],[-5.6729,40.3485,2093.4229],[-5.6859,40.3438,2224.8118],[-5.69,40.3377,2353.6318],[-5.7077,40.3302,2309.5161],[-5.7142,40.3253,2347.0679],[-5.729,40.3104,2312.0129],[-5.7287,40.3039,2409.9788],[-5.7374,40.2941,2346.8882],[-5.7341,40.2925,2359.4141],[-5.7051,40.2912,2016.6061],[-5.7002,40.2889,2055.5125],[-5.6925,40.2921,2012.6008],[-5.6826,40.2839,1655.7152],[-5.6565,40.2702,1301.1453],[-5.6597,40.2574,1497.5326],[-5.6491,40.2497,1697.6421],[-5.6261,40.2477,1998.5369],[-5.6219,40.2459,1990.469],[-5.621,40.2414,1994.5005],[-5.6163,40.2363,2127.8047],[-5.6143,40.2359,2119.9387],[-5.6136,40.2333,2109.3628],[-5.6188,40.2239,2271.8462],[-5.6099,40.2155,2283.7666],[-5.5983,40.2168,2355.6489],[-5.5909,40.2153,2098.9668],[-5.5681,40.2064,2041.3506],[-5.5635,40.2026,1995.2322],[-5.5517,40.2006,2017.4741],[-5.548,40.1972,2021.1323],[-5.5364,40.1966,2021.1692],[-5.5309,40.1947,2070.4082],[-5.5186,40.1969,2196.1167],[-5.5096,40.2019,2126.8755],[-5.4999,40.2008,2223.4155],[-5.499,40.1989,2238.0684],[-5.488,40.2047,2095.8787],[-5.4708,40.2079,2112.3108],[-5.468,40.2242,2215.1433],[-5.4522,40.2272,2240.7749]]]]}}