{"type": "Feature","bbox": [-3.7796,37.4765,-3.1477,37.9317],"geometry": {"type": "MultiPolygon","coordinates": [[[[-3.627,37.5286,1076.3137],[-3.5999,37.5474,1234.8342],[-3.5906,37.5483,1286.1165],[-3.5913,37.5505,1320.0676],[-3.5828,37.5539,1354.8716],[-3.5706,37.5618,1358.3667],[-3.5587,37.5663,1544.6289],[-3.5592,37.5696,1667.4919],[-3.5551,37.5736,1607.3896],[-3.5363,37.5808,1237.8928],[-3.5345,37.5824,1255.1042],[-3.5344,37.5855,1274.1968],[-3.5383,37.5942,1415.2731],[-3.536,37.5974,1444.1936],[-3.5064,37.6173,1010.7262],[-3.4794,37.6011,1080.5287],[-3.4611,37.5984,1035.6959],[-3.4531,37.5911,1023.6477],[-3.4529,37.5883,1018.3256],[-3.4487,37.5839,1014.5551],[-3.4368,37.5739,1014.5673],[-3.4337,37.5756,1054.3348],[-3.4244,37.5696,994.9218],[-3.4094,37.5674,1028.4321],[-3.3992,37.5641,991.4958],[-3.3855,37.5654,981.1844],[-3.3787,37.5642,988.4579],[-3.3743,37.5675,986.4823],[-3.3665,37.5676,975.4047],[-3.3572,37.5764,952.8942],[-3.3509,37.5749,950.9403],[-3.3447,37.5757,981.6914],[-3.3312,37.5819,942.5059],[-3.3254,37.5818,932.9076],[-3.3171,37.5848,932.2233],[-3.3064,37.5863,934.6313],[-3.3032,37.5885,941.8564],[-3.2968,37.588,913.2612],[-3.2907,37.5945,963.8492],[-3.2887,37.604,1023.925],[-3.2802,37.6145,1012.3563],[-3.273,37.6184,1009.1552],[-3.261,37.6336,986.7677],[-3.2629,37.6357,1013.8654],[-3.2624,37.6392,1016.1108],[-3.2334,37.638,924.7837],[-3.2156,37.6442,851.1714],[-3.1863,37.6445,797.4279],[-3.172,37.6429,768.3813],[-3.1504,37.6264,724.1096],[-3.1477,37.626,729.4431],[-3.1493,37.6313,739.432],[-3.1573,37.6415,837.4308],[-3.1585,37.6525,909.9895],[-3.1656,37.6619,948.4753],[-3.1602,37.6811,936.3456],[-3.166,37.6933,906.5537],[-3.1817,37.7165,849.8159],[-3.1889,37.72,839.2625],[-3.197,37.7264,840.7426],[-3.1862,37.7304,764.1687],[-3.1701,37.7471,628.8113],[-3.1661,37.7487,598.0462],[-3.1631,37.755,573.7007],[-3.1489,37.769,511.1273],[-3.1644,37.78,563.5099],[-3.1664,37.785,554.6537],[-3.183,37.8014,636.0917],[-3.2228,37.8104,609.5222],[-3.2235,37.8169,546.5106],[-3.2202,37.8216,522.2399],[-3.2264,37.8304,461.8257],[-3.2256,37.8317,433.9108],[-3.2275,37.8314,433.9108],[-3.2292,37.8273,449.883],[-3.2325,37.8256,463.6781],[-3.2735,37.8197,545.9966],[-3.2758,37.8367,499.6501],[-3.2812,37.8452,522.7724],[-3.281,37.8647,556.1527],[-3.288,37.8691,563.0019],[-3.2934,37.8757,472.5773],[-3.2978,37.8869,418.2459],[-3.3107,37.8948,398.9152],[-3.3227,37.9054,425.4752],[-3.3304,37.9085,418.9801],[-3.3398,37.9091,402.4524],[-3.3552,37.9135,355.3058],[-3.3558,37.9177,323.5894],[-3.3578,37.9184,323.0035],[-3.361,37.9177,323.0588],[-3.3624,37.9144,322.3542],[-3.369,37.9108,321.6158],[-3.3779,37.913,321.5136],[-3.381,37.912,320.7169],[-3.3791,37.9076,320.1545],[-3.3825,37.9055,320.2437],[-3.3896,37.9072,321.6736],[-3.3968,37.9045,323.4641],[-3.4041,37.908,319.9122],[-3.4091,37.9063,319.7982],[-3.4197,37.9155,303.9849],[-3.4189,37.9181,301.3445],[-3.4203,37.9193,301.1653],[-3.429,37.9166,302.2775],[-3.4349,37.9258,299.2569],[-3.4351,37.9317,296.7936],[-3.4395,37.9316,295.2997],[-3.4378,37.9266,303.7071],[-3.4485,37.9254,304.8875],[-3.4526,37.9273,297.2952],[-3.4547,37.9262,302.2401],[-3.4543,37.9195,309.8344],[-3.4563,37.919,316.4417],[-3.4515,37.9171,327.7525],[-3.4507,37.8997,385.7792],[-3.4524,37.8909,472.4414],[-3.4557,37.8897,450.5841],[-3.4697,37.8916,402.9447],[-3.4853,37.8886,464.8382],[-3.4938,37.8894,466.9924],[-3.5026,37.8844,511.9767],[-3.5069,37.8784,548.5164],[-3.5107,37.8685,531.9001],[-3.5193,37.8622,571.6924],[-3.5297,37.866,498.1569],[-3.5451,37.8625,533.7161],[-3.5609,37.8627,552.3251],[-3.5738,37.8597,563.4136],[-3.5801,37.8533,551.7245],[-3.5756,37.8486,547.6621],[-3.5749,37.8454,558.2883],[-3.5775,37.8394,571.8693],[-3.5767,37.836,581.1119],[-3.5705,37.8291,605.3405],[-3.5818,37.813,680.7417],[-3.5803,37.8065,723.3129],[-3.5855,37.8014,772.5402],[-3.5904,37.7898,816.0325],[-3.5908,37.7778,840.8918],[-3.5863,37.7743,886.5638],[-3.5856,37.77,1041.014],[-3.5831,37.7678,1083.9071],[-3.578,37.7673,1158.4854],[-3.5747,37.7606,1285.0359],[-3.5684,37.7543,1483.7114],[-3.5743,37.7555,1399.5071],[-3.5868,37.7539,1299.1202],[-3.6044,37.7592,1298.7781],[-3.6075,37.7572,1339.7931],[-3.6138,37.7592,1160.0515],[-3.6199,37.7637,1127.4955],[-3.6352,37.7561,1110.9163],[-3.6402,37.7564,1000.2026],[-3.6418,37.759,793.4972],[-3.647,37.7598,732.0901],[-3.651,37.7572,703.7181],[-3.654,37.7579,707.5781],[-3.6566,37.7527,763.95],[-3.6676,37.7433,909.8983],[-3.6803,37.7264,483.0646],[-3.701,37.7175,596.4738],[-3.7062,37.7049,713.9725],[-3.7049,37.6971,752.2086],[-3.6899,37.6838,995.7568],[-3.689,37.681399999999996,1047.6128],[-3.6786,37.6742,1507.6354],[-3.6886,37.6679,1608.3732],[-3.6935,37.6668,1569.5223],[-3.7005,37.6576,1218.0422],[-3.7012,37.6456,1170.6622],[-3.7072,37.6405,1182.9432],[-3.7078,37.6379,1255.0386],[-3.7147,37.6362,1246.7532],[-3.7214,37.6372,1199.9154],[-3.7276,37.6317,776.0],[-3.7262,37.6288,776.0],[-3.7151,37.6247,776.0],[-3.7034,37.6259,789.9023],[-3.7003,37.6232,784.8615],[-3.696,37.6229,783.3815],[-3.6964,37.62,795.2648],[-3.6923,37.6202,854.4968],[-3.6932,37.6136,831.3038],[-3.6917,37.6133,847.8173],[-3.697,37.6036,880.0362],[-3.6966,37.5977,834.5775],[-3.6986,37.5939,855.914],[-3.703,37.5928,929.3788],[-3.7016,37.592,910.8369],[-3.705,37.5878,937.5359],[-3.7059,37.5821,911.1244],[-3.708,37.5808,927.1946],[-3.709,37.5729,954.5145],[-3.7074,37.5717,958.3251],[-3.7173,37.5566,1142.6552],[-3.7177,37.5495,1256.13],[-3.7216,37.5457,1415.7025],[-3.7267,37.5451,1495.162],[-3.7263,37.5417,1483.9276],[-3.731,37.535,1584.5028],[-3.7407,37.5342,1629.533],[-3.7434,37.5237,1585.1693],[-3.7411,37.5204,1495.8451],[-3.7438,37.5145,1525.2905],[-3.752,37.5103,1142.3131],[-3.762,37.5014,1412.8705],[-3.7703,37.5014,1450.4474],[-3.7796,37.4965,1274.0439],[-3.7756,37.4911,1243.1406],[-3.7776,37.4901,1190.6476],[-3.7756,37.4879,1163.7317],[-3.7761,37.4765,1039.0586],[-3.7707,37.4799,1104.4806],[-3.7431,37.4872,1050.8909],[-3.73,37.4876,1368.7422],[-3.717,37.4965,1171.7938],[-3.7118,37.5028,1344.2402],[-3.6843,37.5177,1353.6914],[-3.6719,37.5183,1050.2517],[-3.6651,37.5211,1114.8091],[-3.659,37.5207,1130.2461],[-3.6493,37.5249,1039.1055],[-3.6329,37.5279,1055.9727],[-3.6322,37.5292,1061.3376],[-3.627,37.5286,1076.3137]]]]}
,"properties": {"GID_3": "ESP.1.6.7_1","GID_0": "ESP","country": "Spain","GID_1": "ESP.1_1","province": "Andalucía","NL_NAME_1": "NA","GID_2": "ESP.1.6_1","county": "Jaén","NL_NAME_2": "NA","city": "SierraMagina","VARNAME_3": "NA","NL_NAME_3": "NA","TYPE_3": "Comarca","ENGTYPE_3": "Comarca","CC_3": "NA","HASC_3": "NA","name": "Sierra_Magina.city","area_km2": 1389.48,"hist_schema_id": "Elevation0-9000","hist_area_km2": {"300": 0.987,"325": 6.206,"350": 4.935,"375": 6.676,"400": 8.584,"425": 11.948,"450": 14.861,"475": 16.353,"500": 19.404,"525": 24.481,"550": 29.86,"575": 34.27,"600": 37.39,"625": 36.458,"650": 32.174,"675": 30.635,"700": 30.07,"725": 29.288,"750": 30.55,"775": 29.833,"800": 33.675,"825": 37.386,"850": 39.72,"875": 41.587,"900": 43.27,"925": 43.039,"950": 44.166,"975": 48.786,"1000": 54.764,"1025": 64.178,"1050": 58.487,"1075": 53.131,"1100": 46.935,"1125": 39.413,"1150": 36.14,"1175": 30.415,"1200": 28.117,"1225": 23.921,"1250": 20.849,"1275": 17.506,"1300": 16.887,"1325": 15.494,"1350": 13.295,"1375": 9.97,"1400": 9.464,"1425": 8.894,"1450": 7.383,"1475": 6.393,"1500": 6.947,"1525": 5.637,"1550": 4.513,"1575": 4.362,"1600": 3.741,"1625": 3.573,"1650": 3.388,"1675": 2.683,"1700": 2.7,"1725": 2.281,"1750": 2.583,"1775": 2.415,"1800": 2.348,"1825": 2.012,"1850": 2.029,"1875": 1.694,"1900": 1.358,"1925": 1.442,"1950": 1.409,"1975": 1.157,"2000": 0.855,"2025": 0.637,"2050": 0.402,"2075": 0.285,"2100": 0.285,"2125": 0.402,"2150": 0.117}}}