{"type":"Feature","properties":{"GID_3":"ESP.17.1.8_1","GID_0":"ESP","country":"Spain","GID_1":"ESP.17_1","province":"PrincipadodeAsturias","NL_NAME_1":"NA","GID_2":"ESP.17.1_1","county":"Asturias","NL_NAME_2":"NA","city":"Oviedo","VARNAME_3":"NA","NL_NAME_3":"NA","TYPE_3":"Comarca","ENGTYPE_3":"Comarca","CC_3":"NA","HASC_3":"NA","name":"Oviedo.city"},
"geometry":{"type": "MultiPolygon","coordinates": [[[[-6.1625,43.033,1945.9985],[-6.1592,43.0355,1870.5579],[-6.1483,43.0332,1980.021],[-6.1365,43.021,1998.4795],[-6.1203,43.0242,2120.5327],[-6.1124,43.0294,2006.2687],[-6.106,43.0293,1946.5189],[-6.1013,43.0319,1970.04],[-6.0968,43.0306,2041.1427],[-6.0953,43.0339,1910.8176],[-6.0897,43.0381,1875.2756],[-6.0903,43.0439,1912.6062],[-6.0949,43.0488,1783.5062],[-6.0902,43.0598,1770.5066],[-6.0917,43.0669,1997.821],[-6.0848,43.0691,1808.7002],[-6.0818,43.0757,1901.0934],[-6.0672,43.0657,1800.4675],[-6.0622,43.0647,1828.8573],[-6.0521,43.068,1766.1683],[-6.0498,43.0656,1702.7107],[-6.0375,43.0632,1933.0271],[-6.0201,43.0548,1736.8303],[-5.9963,43.0597,1740.4587],[-5.9891,43.0678,1912.3051],[-5.9804,43.0642,2006.4895],[-5.974,43.0649,2006.4441],[-5.9713,43.0572,2038.5487],[-5.9698,43.0564,2025.6885],[-5.967,43.0583,2082.292],[-5.9706,43.0506,1944.7036],[-5.9677,43.0449,2076.0017],[-5.9701,43.0413,2178.4126],[-5.961,43.0291,2239.4956],[-5.9377,43.0347,2097.7861],[-5.9355,43.0407,2114.0244],[-5.9273,43.0413,1853.9792],[-5.9226,43.046,1744.3378],[-5.9073,43.0418,2059.2566],[-5.9047,43.0476,1787.532],[-5.8983,43.0509,1814.957],[-5.8941,43.0559,1493.5403],[-5.8879,43.0558,1464.4492],[-5.8801,43.0599,1446.0782],[-5.8845,43.0674,1373.8639],[-5.882,43.0719,1302.6667],[-5.882,43.0765,1362.6587],[-5.8859,43.0785,1313.8976],[-5.8813,43.0879,1305.2014],[-5.8855,43.0924,1277.3645],[-5.8863,43.1002,1279.8661],[-5.883,43.1041,1312.8971],[-5.8843,43.1109,1432.5541],[-5.8872,43.1143,1307.5564],[-5.8892,43.1244,1155.8208],[-5.8941,43.1281,1137.6348],[-5.9017,43.1415,1154.2848],[-5.9052,43.1432,1159.7898],[-5.9032,43.145,1115.855],[-5.9022,43.1585,1125.4255],[-5.8885,43.1673,1043.7113],[-5.8828,43.167,1110.0876],[-5.8768,43.1775,976.8772],[-5.8672,43.1885,832.0869],[-5.8675,43.1919,848.1302],[-5.8588,43.1981,830.5311],[-5.846,43.1981,830.0472],[-5.8473,43.2201,814.2478],[-5.8457,43.2277,847.9807],[-5.8433,43.2298,796.2922],[-5.8443,43.2351,884.8511],[-5.8426,43.2378,952.79],[-5.8431,43.2404,897.6755],[-5.8398,43.2471,797.1598],[-5.8463,43.2527,727.5415],[-5.8472,43.2579,704.7711],[-5.85,43.26,794.2911],[-5.8498,43.2661,669.4817],[-5.8542,43.2684,683.9293],[-5.8551,43.2707,567.2921],[-5.8529,43.2777,247.7686],[-5.8458,43.2842,601.646],[-5.8128,43.2887,376.0392],[-5.8061,43.287,435.857],[-5.8006,43.2825,492.2117],[-5.7921,43.2797,612.5421],[-5.7834,43.2791,621.0758],[-5.7708,43.2882,548.8252],[-5.7736,43.3018,656.2863],[-5.7671,43.3062,632.5947],[-5.7627,43.3072,563.5399],[-5.758,43.3147,544.366],[-5.7561,43.3185,509.9541],[-5.7577,43.3288,430.0324],[-5.7548,43.3308,285.3148],[-5.755,43.3334,180.0074],[-5.7505,43.3387,251.877],[-5.7442,43.3337,444.5498],[-5.7375,43.3357,557.21],[-5.7344,43.3348,555.3265],[-5.7325,43.3373,521.5565],[-5.7214,43.3406,470.1049],[-5.7204,43.3431,465.3314],[-5.7158,43.3432,458.7513],[-5.7105,43.3459,474.8041],[-5.7048,43.3439,378.4069],[-5.7022,43.3352,396.8737],[-5.6827,43.3312,409.4629],[-5.6639,43.341,345.4146],[-5.6572,43.341,431.9835],[-5.646,43.3317,319.5733],[-5.618,43.3246,632.4718],[-5.6153,43.322,665.932],[-5.6066,43.3293,565.391],[-5.6042,43.3257,495.6574],[-5.5999,43.3246,415.359],[-5.5971,43.321,375.2168],[-5.5881,43.318,511.0762],[-5.5876,43.3117,677.2361],[-5.5836,43.3094,673.7875],[-5.5786,43.2988,694.0774],[-5.5615,43.2962,667.4246],[-5.5587,43.2929,738.6967],[-5.5457,43.2941,779.3168],[-5.5386,43.2967,818.9023],[-5.5317,43.2937,881.6132],[-5.5276,43.2942,916.7057],[-5.5291,43.2998,842.9772],[-5.5244,43.3008,738.3671],[-5.5229,43.2993,761.4692],[-5.5098,43.303,1050.1411],[-5.5074,43.3016,1066.5784],[-5.5092,43.2994,1087.5447],[-5.5013,43.2765,1245.8175],[-5.4978,43.2796,1218.2583],[-5.4931,43.2785,1198.4325],[-5.4916,43.2764,1183.537],[-5.4814,43.2761,1087.0309],[-5.4832,43.284,883.4022],[-5.481,43.2898,818.0703],[-5.4733,43.2915,620.2401],[-5.4742,43.294,470.7389],[-5.4667,43.2989,692.4257],[-5.4699,43.3032,734.002],[-5.4638,43.3113,911.6831],[-5.4629,43.3177,874.567],[-5.4568,43.3232,731.7157],[-5.4417,43.3285,554.3873],[-5.4302,43.3361,667.151],[-5.4264,43.3361,730.8005],[-5.4201,43.3406,686.0066],[-5.4189,43.343,578.8642],[-5.4211,43.354,283.4637],[-5.4279,43.3627,258.6321],[-5.4256,43.3638,236.8508],[-5.4295,43.3839,433.0871],[-5.383,43.3856,513.7856],[-5.3715,43.3925,285.4969],[-5.3661,43.4069,455.7747],[-5.3699,43.4091,469.0646],[-5.3728,43.4166,394.4004],[-5.3758,43.4178,380.5197],[-5.3765,43.4208,426.3604],[-5.3919,43.4227,475.803],[-5.3966,43.425,450.1768],[-5.4003,43.431,436.1299],[-5.4096,43.4347,504.1099],[-5.412,43.4375,472.4878],[-5.4235,43.4379,407.8575],[-5.4351,43.4351,168.3443],[-5.4333,43.4347,216.4478],[-5.4328,43.4315,182.8703],[-5.4369,43.4249,220.8978],[-5.4368,43.4195,258.8609],[-5.4428,43.4168,387.4242],[-5.4477,43.4114,418.7753],[-5.4557,43.4132,494.3712],[-5.4696,43.4133,520.3655],[-5.4752,43.4155,553.2173],[-5.4964,43.4159,555.8647],[-5.4996,43.4137,442.717],[-5.5116,43.4219,394.8518],[-5.5385,43.4225,557.5881],[-5.5558,43.4283,608.167],[-5.5647,43.4263,614.3853],[-5.5797,43.4341,570.9734],[-5.5854,43.4432,651.1518],[-5.6052,43.4418,370.7783],[-5.6122,43.4434,237.133],[-5.624,43.443,415.2469],[-5.6349,43.45,545.7402],[-5.6401,43.4504,459.7095],[-5.6452,43.4549,450.9496],[-5.6505,43.4536,429.6138],[-5.6547,43.4558,447.1619],[-5.6612,43.4548,497.0963],[-5.663,43.4562,495.2981],[-5.6732,43.4563,418.5961],[-5.6824,43.454,292.7923],[-5.6978,43.466,283.2621],[-5.7049,43.4587,133.7044],[-5.7175,43.4511,83.1848],[-5.7204,43.4563,77.9691],[-5.7257,43.4574,68.6697],[-5.7297,43.4537,83.1295],[-5.7301,43.4499,86.2041],[-5.7335,43.4485,123.3738],[-5.7411,43.4495,120.777],[-5.7475,43.4478,131.0903],[-5.7564,43.4515,250.4743],[-5.7586,43.4559,225.2294],[-5.7658,43.4613,154.2343],[-5.7796,43.4633,110.4147],[-5.7876,43.4721,85.8293],[-5.787,43.476,66.633],[-5.7902,43.4751,74.8661],[-5.7975,43.4802,123.9074],[-5.8012,43.48,154.9708],[-5.8036,43.4826,159.2058],[-5.8035,43.4851,157.652],[-5.8111,43.4858,122.9519],[-5.811,43.4903,110.7715],[-5.8182,43.491,189.2073],[-5.8263,43.4803,240.5558],[-5.8293,43.48,174.2426],[-5.8363,43.4846,129.958],[-5.8403,43.4851,116.0665],[-5.8443,43.4828,176.0165],[-5.8498,43.4821,133.7312],[-5.8534,43.4782,137.2118],[-5.8868,43.4922,188.1946],[-5.8992,43.4934,226.9374],[-5.9045,43.501,194.9451],[-5.9164,43.498,221.6812],[-5.9364,43.4888,454.7156],[-5.9407,43.4922,571.3871],[-5.9536,43.4864,515.3499],[-5.9566,43.4796,436.6714],[-5.9602,43.4769,466.1047],[-5.9681,43.4747,499.8731],[-5.9676,43.4723,507.1714],[-5.973,43.4715,510.2564],[-5.9777,43.4748,463.6053],[-5.9883,43.4734,570.1062],[-6.0029,43.4551,590.2576],[-6.0118,43.4469,492.7358],[-6.0148,43.4403,461.6623],[-6.0148,43.4326,490.4786],[-6.0208,43.4246,349.4728],[-6.025,43.4224,309.2983],[-6.0337,43.4086,134.0944],[-6.0355,43.4028,47.4403],[-6.0643,43.4022,33.8072],[-6.0715,43.4109,346.0538],[-6.082,43.4123,407.4338],[-6.0891,43.4069,242.2281],[-6.0921,43.4018,194.452],[-6.0975,43.4063,242.1306],[-6.102,43.4055,332.3082],[-6.1077,43.4074,407.45119999999997],[-6.1097,43.41,444.3317],[-6.1152,43.4107,448.2027],[-6.1105,43.429,399.1768],[-6.1186,43.4349,228.1492],[-6.1212,43.444,284.8762],[-6.1371,43.4392,25.5838],[-6.1422,43.4339,41.0786],[-6.1412,43.4269,104.7889],[-6.1452,43.4203,48.8294],[-6.1515,43.4202,36.3471],[-6.1549,43.4169,42.084],[-6.1631,43.4248,205.9926],[-6.1616,43.4316,360.6572],[-6.171,43.4378,418.1523],[-6.1758,43.4377,403.323],[-6.1792,43.4422,541.0386],[-6.1814,43.443,589.3787],[-6.1855,43.4412,637.3746],[-6.1911,43.4497,356.5383],[-6.2015,43.4526,317.9275],[-6.2241,43.4543,397.6561],[-6.2303,43.459,261.4066],[-6.2305,43.4607,213.8987],[-6.2249,43.4617,213.0983],[-6.2175,43.4675,146.6096],[-6.2221,43.4761,158.2502],[-6.2281,43.4804,248.2761],[-6.2276,43.4819,193.002],[-6.2298,43.4816,191.1069],[-6.2307,43.4877,457.1682],[-6.2275,43.4882,471.8124],[-6.2335,43.4914,556.9427],[-6.2353,43.4957,643.1605],[-6.2543,43.4951,709.87],[-6.2583,43.4916,723.6832],[-6.266,43.4938,687.1349],[-6.2697,43.4976,774.7996],[-6.2877,43.4998,667.079],[-6.2893,43.4951,673.681],[-6.2951,43.492,673.6923],[-6.2971,43.4856,751.3827],[-6.3061,43.4808,834.267],[-6.3159,43.4801,848.046],[-6.3271,43.4834,804.272],[-6.3435,43.4733,681.7072],[-6.339,43.4711,533.2211],[-6.3366,43.4674,363.077],[-6.3492,43.4516,262.642],[-6.3514,43.446,253.4502],[-6.3557,43.4435,306.0829],[-6.3528,43.4401,256.0818],[-6.3605,43.4374,393.2654],[-6.3625,43.4318,305.9377],[-6.3598,43.4277,285.8526],[-6.3613,43.4265,278.5334],[-6.3534,43.4217,353.3317],[-6.354,43.4182,374.0909],[-6.3507999999999996,43.4137,398.5639],[-6.3487,43.4138,404.8666],[-6.3448,43.4051,400.2755],[-6.3472,43.4001,439.0886],[-6.3513,43.3992,442.185],[-6.3481,43.3943,583.2347],[-6.3341,43.3866,654.3449],[-6.3263,43.3769,671.3682],[-6.3348,43.3641,666.4354],[-6.3221,43.3583,521.3791],[-6.3098,43.3559,423.842],[-6.3018,43.3507,291.8099],[-6.3002,43.3515,291.8099],[-6.299,43.3496,380.8561],[-6.3067,43.3445,700.6422],[-6.315,43.3304,718.518],[-6.3105,43.3288,676.7817],[-6.3077,43.324,376.8246],[-6.3031,43.3218,187.6674],[-6.3091,43.3122,198.0],[-6.3178,43.3065,198.0],[-6.3169,43.3023,227.0096],[-6.3203,43.3022,232.9176],[-6.3331,43.2942,517.8077],[-6.3321,43.2866,638.0032],[-6.33,43.2846,644.6129],[-6.3313,43.2739,696.8461],[-6.3275,43.2696,713.4578],[-6.3325,43.2692,674.8632],[-6.3416,43.2643,942.5557],[-6.3413,43.2554,825.7178],[-6.3394,43.2496,833.4567],[-6.3244,43.2418,982.8069],[-6.3153,43.2341,1335.8706],[-6.3151,43.2319,1211.1523],[-6.3221,43.2303,1229.9132],[-6.3306,43.2245,708.1901],[-6.3305,43.2153,1123.0537],[-6.3368,43.2125,1339.2332],[-6.3325,43.2055,1391.9502],[-6.3388,43.1986,1377.0571],[-6.3438,43.1818,1268.9188],[-6.3488,43.18,1303.4786],[-6.3518,43.1748,1239.8409],[-6.3541,43.1627,1499.1927],[-6.3585,43.161,1413.637],[-6.3595,43.159,1326.8557],[-6.3557,43.1508,1520.5631],[-6.3649,43.1502,1353.1133],[-6.3725,43.1475,1606.8394],[-6.3772,43.1357,1633.8268],[-6.3747,43.1313,1587.8704],[-6.3765,43.1277,1592.1942],[-6.3722,43.1181,1600.123],[-6.3739,43.1158,1586.1648],[-6.3733,43.1083,1513.9692],[-6.3653,43.1027,1509.0156],[-6.3628,43.1025,1510.2712],[-6.3668,43.0904,1593.6724],[-6.3635,43.0825,1751.829],[-6.3661,43.0771,1857.963],[-6.362,43.0743,1773.2688],[-6.3583,43.0683,1845.5619],[-6.3599,43.0634,1777.7865],[-6.3578,43.0566,1854.8677],[-6.3507999999999996,43.0531,1888.0956],[-6.348,43.0497,1918.8783],[-6.3406,43.0491,1943.1399],[-6.3381,43.0459,2046.6868],[-6.333,43.0465,2001.9889],[-6.3296,43.0425,1849.9021],[-6.3264,43.0313,2010.1213],[-6.3135,43.0313,2012.9891],[-6.3112,43.0288,1990.4825],[-6.295,43.0269,1923.6527],[-6.2902,43.0344,1839.4169],[-6.2851,43.0363,1871.8743],[-6.2735,43.0262,1832.6404],[-6.2697,43.025,1806.7446],[-6.2689,43.0214,1744.1157],[-6.2647,43.0171,1736.5399],[-6.2596,43.0155,1827.5287],[-6.2426,43.0135,1549.3529],[-6.2383,43.0143,1508.6549],[-6.2267,43.0089,1387.9392],[-6.2138,43.0466,1926.7186],[-6.1942,43.0428,1844.5786],[-6.186,43.0495,1963.1649],[-6.1783,43.0478,2000.8655],[-6.171,43.043,1999.2284],[-6.1673,43.0424,1853.0619],[-6.1625,43.033,1945.9985]]]]}}