{"type":"Feature","properties":{"GID_3":"ESP.6.1.1_1","GID_0":"ESP","country":"Spain","GID_1":"ESP.6_1","province":"Cataluña","NL_NAME_1":"NA","GID_2":"ESP.6.1_1","county":"Barcelona","NL_NAME_2":"NA","city":"n.a.(162)","VARNAME_3":"NA","NL_NAME_3":"NA","TYPE_3":"Comarca","ENGTYPE_3":"Comarca","CC_3":"NA","HASC_3":"NA","name":"n.a.(162).city"},
"geometry":{"type": "MultiPolygon","coordinates": [[[[1.7192,42.284,2441.9807],[1.7156,42.2881,2440.6416],[1.7024,42.2849,2436.5803],[1.6751,42.2859,2354.0081],[1.6703,42.2817,2544.9949],[1.6842,42.2763,2108.1299],[1.7184,42.28,2372.4709],[1.7192,42.284,2441.9807]]]]}}