{"type":"Feature","properties":{"GID_3":"ESP.11.2.5_1","GID_0":"ESP","country":"Spain","GID_1":"ESP.11_1","province":"Extremadura","NL_NAME_1":"NA","GID_2":"ESP.11.2_1","county":"Cáceres","NL_NAME_2":"NA","city":"n.a.(73)","VARNAME_3":"NA","NL_NAME_3":"NA","TYPE_3":"Comarca","ENGTYPE_3":"Comarca","CC_3":"NA","HASC_3":"NA","name":"n.a.(73).city"},
"geometry":{"type": "MultiPolygon","coordinates": [[[[-6.381,39.819,476.4767],[-6.3814,39.8319,419.4355],[-6.3871,39.8346,401.259],[-6.3913,39.8446,376.2891],[-6.3762,39.8617,338.3921],[-6.3772,39.8662,348.2219],[-6.3754,39.8686,340.7967],[-6.3638,39.8678,324.5148],[-6.3553,39.8638,403.3006],[-6.3393,39.8514,453.6144],[-6.3272,39.8591,464.5753],[-6.3196,39.8675,473.1929],[-6.3092,39.8738,475.238],[-6.3079,39.8781,431.428],[-6.2924,39.8855,413.5987],[-6.2843,39.8923,411.356],[-6.2798,39.8978,403.5021],[-6.2763,39.9121,321.7293],[-6.271,39.9171,282.9886],[-6.2695,39.9224,310.3907],[-6.2732,39.9255,359.3652],[-6.2864,39.9283,298.4473],[-6.2851,39.931399999999996,336.6147],[-6.2931,39.9352,320.7111],[-6.2948,39.9451,270.2488],[-6.2984,39.9505,236.7939],[-6.3092,39.9492,238.3422],[-6.3152,39.9515,239.6579],[-6.3319,39.9511,236.4662],[-6.3401,39.9533,241.4515],[-6.3464,39.9523,241.6984],[-6.3478,39.9485,235.2298],[-6.3579,39.9433,234.5506],[-6.3757,39.9409,232.8524],[-6.3787,39.9416,234.3433],[-6.3768,39.9428,237.6215],[-6.3606,39.9808,299.6468],[-6.3558,39.9998,327.2084],[-6.359,40.0013,322.3113],[-6.3515,40.0135,332.6866],[-6.3521,40.0203,319.3555],[-6.3669,40.0349,315.2595],[-6.3854,40.071,405.1717],[-6.3861,40.0744,409.2994],[-6.3837,40.0783,405.9534],[-6.3823,40.0874,432.8589],[-6.3845,40.0998,417.8801],[-6.3833,40.1106,435.9201],[-6.364,40.1105,476.0861],[-6.3574,40.1127,460.2216],[-6.3498,40.1113,441.3201],[-6.3458,40.1143,450.5843],[-6.3563,40.1427,473.4224],[-6.3593,40.1555,474.9955],[-6.3562,40.16,478.5524],[-6.3695,40.1656,565.6986],[-6.3856,40.1698,602.387],[-6.3759,40.1801,579.0133],[-6.3745,40.1963,634.4571],[-6.3805,40.206,676.7646],[-6.3795,40.2111,597.6868],[-6.3759,40.2127,548.6522],[-6.3687,40.222,553.6913],[-6.3679,40.2352,487.0494],[-6.3645,40.2417,501.1276],[-6.3625,40.2514,571.399],[-6.3627,40.2598,624.1439],[-6.3648,40.2642,688.075],[-6.369,40.2662,743.3503],[-6.3689,40.2704,709.0274],[-6.3651,40.2739,718.8093],[-6.3582,40.2751,717.4761],[-6.3517,40.2815,772.1038],[-6.3538,40.281,741.0743],[-6.3608,40.2844,571.9042],[-6.3632,40.2869,543.5853],[-6.3639,40.2913,602.7938],[-6.38,40.2909,675.7527],[-6.396,40.2827,686.7104],[-6.4022,40.2817,587.1214],[-6.4084,40.2784,682.4731],[-6.416,40.2782,783.7947],[-6.4232,40.273,823.4698],[-6.433,40.2723,940.651],[-6.4359,40.2708,960.3698],[-6.4525,40.2725,959.1357],[-6.4557,40.2713,942.5658],[-6.468,40.2573,967.4933],[-6.4704,40.2523,1006.5277],[-6.4816,40.2507,1047.1515],[-6.4853,40.2531,990.9224],[-6.4838,40.255,986.6001],[-6.4859,40.2611,966.9479],[-6.4748,40.2771,877.2708],[-6.4688,40.2813,935.6022],[-6.4641,40.2885,928.6695],[-6.4623,40.2972,967.2507],[-6.4567,40.3006,1002.1108],[-6.4562,40.3043,1008.337],[-6.4594,40.3169,988.8928],[-6.4538,40.3282,1001.3076],[-6.449,40.3306,1064.5349],[-6.4433,40.3489,1259.8947],[-6.4327,40.3563,1505.908],[-6.4382,40.3728,1375.5413],[-6.4501,40.3709,1185.0585],[-6.462,40.3727,1138.0063],[-6.4746,40.3701,1179.4016],[-6.4857,40.3632,1204.614],[-6.4933,40.362,1146.0803],[-6.5362,40.3473,914.4028],[-6.5603,40.3291,825.6669],[-6.5646,40.3146,1070.4757],[-6.5566,40.306399999999996,1071.0144],[-6.5559,40.3042,1053.0759],[-6.5595,40.2958,1169.8588],[-6.5561,40.2908,1190.7825],[-6.5687,40.2828,1132.8174],[-6.5709,40.2795,1131.2112],[-6.5835,40.2745,1267.0332],[-6.5869,40.2707,1343.803],[-6.5973,40.2716,1199.9559],[-6.6147,40.2661,1167.4003],[-6.6251,40.2666,1184.1255],[-6.6345,40.2647,1180.6937],[-6.6398,40.2689,1056.8477],[-6.6716,40.2632,956.0201],[-6.6776,40.258,924.4957],[-6.6777,40.251,972.9438],[-6.6883,40.2466,912.4423],[-6.69,40.2427,945.5339],[-6.7031,40.2511,883.118],[-6.7097,40.2605,910.7923],[-6.7114,40.2669,946.8875],[-6.7181,40.2692,1009.2582],[-6.7266,40.265,1002.3896],[-6.7351,40.2572,985.7369],[-6.7413,40.2562,996.0143],[-6.7517,40.2499,1197.7085],[-6.7554,40.2463,1305.1406],[-6.7555,40.2389,1447.6509],[-6.778,40.2455,1028.8977],[-6.7814,40.2491,1086.9563],[-6.802,40.2496,1082.2961],[-6.8,40.2421,1233.021],[-6.8066,40.2415,1227.3645],[-6.8105,40.2444,1210.546],[-6.8211,40.2447,1214.9886],[-6.8232,40.2458,1248.4219],[-6.8226,40.2482,1278.1215],[-6.8344,40.2476,1233.7224],[-6.8371,40.2486,1224.4827],[-6.8398,40.2556,1228.7217],[-6.8467,40.2544,1200.2509],[-6.8648,40.2705,1217.3945],[-6.868,40.2643,1145.8876],[-6.8762,40.26,1121.8126],[-6.884,40.2579,1042.5193],[-6.8899,40.2605,1090.4222],[-6.9044,40.2572,991.8879],[-6.9073,40.2539,973.9926],[-6.9167,40.2561,968.6436],[-6.9193,40.2554,974.8177],[-6.9261,40.2583,968.301],[-6.9337,40.2571,984.0598],[-6.9381,40.2587,984.3237],[-6.9442,40.2565,995.2633],[-6.9514,40.2576,1011.3077],[-6.9551,40.2518,972.2233],[-6.9544,40.2492,1004.7967],[-6.9615,40.243,920.5277],[-6.9633,40.2382,899.4196],[-6.9719,40.2365,922.7574],[-6.9764,40.2406,874.9169],[-6.9791,40.2406,870.3241],[-6.9889,40.2364,803.8544],[-6.9983,40.2353,822.1411],[-7.0127,40.2254,820.4326],[-7.0107,40.2229,807.2614],[-7.0189,40.2057,809.387],[-7.0189,40.1973,851.3856],[-7.025,40.1943,807.1679],[-7.0283,40.1909,627.1599],[-7.03,40.1864,536.389],[-7.0285,40.1827,519.2035],[-7.0255,40.1808,498.0776],[-7.0213,40.1805,496.6943],[-7.0165,40.1765,468.3193],[-7.0182,40.1755,481.5574],[-7.0178,40.1701,451.9548],[-7.022,40.1674,426.3643],[-7.0144,40.1582,406.4195],[-7.016,40.1539,407.4526],[-7.0143,40.1493,391.1844],[-7.0178,40.1481,395.3158],[-7.0212,40.144,382.9646],[-7.0171,40.1426,390.0675],[-7.0156,40.1381,371.7152],[-7.0137,40.1376,385.1717],[-7.0152,40.1357,371.3808],[-7.0126,40.1341,367.4781],[-7.0146,40.1318,368.6196],[-7.0119,40.1322,366.3232],[-7.009,40.1301,370.7138],[-7.0129,40.1261,351.9969],[-7.0072,40.1251,351.4404],[-7.0073,40.1228,344.1915],[-7.0036,40.124,351.4601],[-7.0029,40.1213,339.0023],[-6.9993,40.1213,347.5573],[-6.9998,40.1191,346.6406],[-6.9933,40.1193,333.5023],[-6.993,40.1125,324.8866],[-6.9904,40.1135,338.5355],[-6.9898,40.1177,328.0324],[-6.9866,40.1191,325.1891],[-6.9821,40.117,344.2736],[-6.9786,40.119,334.8048],[-6.9761,40.1164,323.4478],[-6.9692,40.1149,321.7692],[-6.9623,40.117,314.146],[-6.9608,40.1155,314.146],[-6.9621,40.1129,315.0096],[-6.9608,40.1111,313.2967],[-6.958,40.1117,318.6171],[-6.9542,40.1156,327.6921],[-6.9483,40.11,324.2602],[-6.9409,40.1125,316.9828],[-6.941,40.1069,311.5947],[-6.9434,40.1059,303.7175],[-6.943,40.104,302.4523],[-6.9338,40.1035,310.4424],[-6.9317,40.0959,310.4425],[-6.9208,40.0871,307.3862],[-6.9188,40.0827,304.6637],[-6.9173,40.0661,287.6701],[-6.9094,40.0672,285.2122],[-6.9076,40.0632,296.1659],[-6.9037,40.0614,277.8404],[-6.8923,40.0602,286.4713],[-6.8972,40.0521,293.3304],[-6.8866,40.0467,301.9423],[-6.8809,40.0417,273.1716],[-6.8825,40.0334,289.0765],[-6.8743,40.0238,263.297],[-6.8771,40.0179,263.6041],[-6.8653,40.0144,261.6282],[-6.8638,40.012,260.2499],[-6.8664,40.0089,260.0179],[-6.8597,40.0077,279.8575],[-6.8573,40.0044,332.0869],[-6.8521,40.0029,343.882],[-6.8472,39.9949,295.274],[-6.8431,39.9923,337.0304],[-6.8382,39.9824,478.577],[-6.8172,39.9624,598.1886],[-6.7978,39.9543,556.2363],[-6.7906,39.955,518.2311],[-6.778,39.9529,389.9356],[-6.7704,39.9559,452.1985],[-6.76,39.9409,387.8528],[-6.7589,39.9354,417.6838],[-6.7495,39.9292,432.7906],[-6.7473,39.9227,411.5837],[-6.7101,39.8924,425.0406],[-6.6881,39.8776,305.4336],[-6.6584,39.8625,304.1175],[-6.6397,39.8494,328.5335],[-6.6209,39.8452,299.7631],[-6.6177,39.8432,294.0859],[-6.6125,39.8432,286.0215],[-6.5962,39.8369,332.7651],[-6.5816,39.8258,333.9557],[-6.5826,39.8136,321.2275],[-6.5811,39.8094,310.7519],[-6.5614,39.8001,317.1013],[-6.5592,39.7952,329.9472],[-6.5516,39.7955,328.0976],[-6.5538,39.7868,290.2457],[-6.5761,39.7828,266.4243],[-6.581,39.7797,244.5527],[-6.583,39.7803,244.2924],[-6.5819,39.7772,245.3941],[-6.5868,39.7763,231.4093],[-6.5874,39.7739,233.5365],[-6.5852,39.7724,234.3096],[-6.5877,39.7727,218.5197],[-6.588,39.7701,209.7568],[-6.5896,39.7713,231.4464],[-6.59,39.7687,207.5],[-6.5924,39.7686,213.358],[-6.5913,39.768,207.5],[-6.5936,39.7665,207.5],[-6.5941,39.7632,207.5],[-6.5978,39.7625,207.5],[-6.6147,39.7758,208.0],[-6.6245,39.7611,305.0369],[-6.6274,39.7593,316.7165],[-6.6356,39.7598,288.0679],[-6.6418,39.7632,251.7962],[-6.6472,39.7619,211.1292],[-6.646,39.7592,215.5802],[-6.6397,39.7547,289.8015],[-6.64,39.7506,298.3948],[-6.6341,39.7478,311.8941],[-6.6296,39.7433,327.3975],[-6.6294,39.7369,338.563],[-6.6272,39.7346,342.1924],[-6.6142,39.7327,334.9347],[-6.6086,39.7296,309.4409],[-6.6068,39.7272,289.7591],[-6.6085,39.7234,288.048],[-6.6042,39.7212,292.0872],[-6.5954,39.7279,330.2622],[-6.5931,39.7334,312.3017],[-6.5868,39.7309,332.5531],[-6.5828,39.7266,337.3806],[-6.5641,39.7343,245.136],[-6.5621,39.7355,228.996],[-6.5617,39.739,221.238],[-6.5558,39.7394,199.625],[-6.5565,39.7427,199.875],[-6.5458,39.7409,197.5],[-6.5447,39.7429,204.3879],[-6.5478,39.746,209.5472],[-6.5475,39.7498,227.6344],[-6.5439,39.7501,246.6078],[-6.5452,39.7549,271.8003],[-6.5226,39.7612,355.5262],[-6.5061,39.7624,367.0768],[-6.4898,39.7579,283.4088],[-6.452,39.7649,296.2211],[-6.4436,39.7705,338.0291],[-6.4399,39.7855,386.4447],[-6.4539,39.8051,478.54],[-6.4339,39.8093,544.7372],[-6.4073,39.8057,763.6639],[-6.4003,39.8096,630.1174],[-6.3895,39.8103,556.8074],[-6.381,39.819,476.4767]]]]}}