{"type": "Feature","bbox": [-0.5523,39.3008,-0.3301,39.4369],"geometry": {"type": "MultiPolygon","coordinates": [[[[-0.4507,39.4028,30.9757],[-0.4756,39.3983,59.2129],[-0.5096,39.3986,136.673],[-0.5365,39.3869,169.3542],[-0.5386,39.3614,144.8213],[-0.5523,39.3325,252.4088],[-0.5387,39.324,244.9837],[-0.519,39.3196,220.4339],[-0.5039,39.311,177.5549],[-0.4959,39.3043,180.0366],[-0.4871,39.3023,142.3956],[-0.443,39.3008,24.4426],[-0.4295,39.302,18.807],[-0.4216,39.3097,19.7535],[-0.4261,39.3304,24.5932],[-0.4056,39.3257,4.5928],[-0.3955,39.3263,-1.3256],[-0.3988,39.3319,-0.8586],[-0.3963,39.3321,-1.1576],[-0.3977,39.3338,-1.0927],[-0.3967,39.3355,-0.8958],[-0.3928,39.3348,-1.4642],[-0.3946,39.3362,-1.2634],[-0.3931,39.3381,-1.3354],[-0.388,39.3406,-1.1503],[-0.3852,39.3532,-0.8055],[-0.3782,39.3576,-1.1179],[-0.3719,39.3592,-1.2184],[-0.3702,39.3623,-1.3289],[-0.3636,39.3597,-1.5452],[-0.3606,39.3622,-1.3499],[-0.361,39.3638,-1.3352],[-0.3557,39.3649,-1.4073],[-0.3472,39.3699,-0.9818],[-0.3441,39.3658,-0.9556],[-0.3411,39.3668,-1.6967],[-0.3431,39.3709,-1.0459],[-0.337,39.3731,-1.3454],[-0.3301,39.3649,-0.5446],[-0.3343,39.3793,0.0662],[-0.3504,39.4011,-0.472],[-0.3499,39.4222,0.6385],[-0.3567,39.4196,0.4704],[-0.3625,39.4196,1.739],[-0.3714,39.4238,2.9329],[-0.3714,39.4259,4.0335],[-0.3783,39.4278,7.4945],[-0.3882,39.4331,13.1203],[-0.391,39.427,15.4857],[-0.3965,39.4288,14.254],[-0.4019,39.428,15.5922],[-0.4028,39.4369,17.2332],[-0.4208,39.4351,24.9301],[-0.4197,39.4315,23.6362],[-0.426,39.4306,29.3931],[-0.4255,39.426,24.7134],[-0.4208,39.4241,27.8063],[-0.421,39.4195,21.3018],[-0.4263,39.4181,21.2208],[-0.4507,39.4028,30.9757]],
[[-0.3929,39.4172,11.4329],[-0.4036,39.419,15.1414],[-0.4019,39.4269,16.6656],[-0.3945,39.4261,20.1468],[-0.3922,39.4232,16.8875],[-0.3929,39.4172,11.4329]]]]}
,"properties": {"GID_3": "ESP.10.3.10_1","GID_0": "ESP","country": "Spain","GID_1": "ESP.10_1","province": "ComunidadValenciana","NL_NAME_1": "NA","GID_2": "ESP.10.3_1","county": "Valencia","NL_NAME_2": "NA","city": "HortaSud","VARNAME_3": "NA","NL_NAME_3": "NA","TYPE_3": "Comarca","ENGTYPE_3": "Comarca","CC_3": "NA","HASC_3": "NA","name": "Horta_Sud.city","area_km2": 164.7548,"hist_schema_id": "Elevation0-9000","hist_area_km2": {"0": 48.3287,"25": 40.6961,"50": 19.0681,"75": 19.5926,"100": 14.0168,"125": 8.6064,"150": 7.3619,"175": 2.8696,"200": 1.6235,"225": 1.4105,"250": 0.8856,"275": 0.2788,"300": 0.0164}}}