{"type": "Feature","bbox": [0.9622,41.4668,1.5135,41.9272],"geometry": {"type": "MultiPolygon","coordinates": [[[[1.217,41.5625,544.7631],[1.2162,41.5672,639.5372],[1.2199,41.5696,649.3425],[1.232,41.5693,666.5226],[1.2345,41.5712,676.2191],[1.2437,41.5683,676.6005],[1.2465,41.5706,676.4423],[1.2516,41.5713,667.9747],[1.2512,41.5724,681.5029],[1.257,41.5718,698.4357],[1.2592,41.5675,701.8066],[1.2728,41.5722,737.5985],[1.2942,41.5667,776.6788],[1.3047,41.5717,772.891],[1.3126,41.569,775.0091],[1.3464,41.568,717.4662],[1.3717,41.5654,715.9749],[1.3805,41.5613,775.6887],[1.3846,41.5565,815.2573],[1.4035,41.5582,765.4936],[1.4023,41.5644,795.4816],[1.3955,41.5673,781.9869],[1.3927,41.5798,739.1609],[1.3956,41.5848,716.7753],[1.4018,41.5861,728.9519],[1.4071,41.5906,687.5127],[1.4067,41.6005,785.989],[1.3934,41.5995,765.8002],[1.3744,41.6076,640.7421],[1.3741,41.6117,645.4189],[1.3697,41.613,635.1446],[1.3686,41.6104,632.0912],[1.3596,41.6136,583.4708],[1.3689,41.6173,643.3816],[1.3693,41.6213,654.7198],[1.3863,41.626,683.7571],[1.3874,41.631,672.4854],[1.3917,41.6341,635.86],[1.4217,41.6348,733.6775],[1.4239,41.6318,722.183],[1.4303,41.6298,733.2807],[1.4312,41.634,748.2846],[1.4401,41.6356,755.4358],[1.4435,41.6345,744.9185],[1.4483,41.6361,659.9455],[1.4502,41.6466,600.43],[1.4449,41.6458,642.8705],[1.4331,41.6514,704.2832],[1.4257,41.6609,717.8212],[1.4254,41.6696,698.1718],[1.4151,41.6746,657.2649],[1.419,41.6765,664.6454],[1.4234,41.6841,666.3982],[1.4043,41.6862,621.0491],[1.4042,41.6949,675.843],[1.3959,41.6961,666.0746],[1.4004,41.7044,647.2506],[1.3979,41.7056,681.8259],[1.382,41.7058,653.564],[1.4008,41.7196,699.4844],[1.4157,41.7281,680.4404],[1.4199,41.7328,699.7012],[1.4249,41.7328,708.4941],[1.4253,41.7347,707.6674],[1.422,41.7354,700.5902],[1.416,41.7405,678.7161],[1.4113,41.7408,670.4752],[1.403,41.7453,657.7219],[1.4037,41.7489,656.8966],[1.4074,41.7527,666.1667],[1.4115,41.7663,600.3246],[1.4109,41.775,580.7811],[1.4156,41.776,620.7084],[1.4185,41.788,481.002],[1.4216,41.7932,451.3411],[1.4196,41.792,449.2301],[1.417,41.7947,445.5615],[1.4263,41.8019,544.7347],[1.4441,41.8004,596.9426],[1.4512,41.7978,640.3257],[1.4655,41.7984,597.5302],[1.5021,41.8188,702.3075],[1.5135,41.8228,741.0709],[1.5133,41.8245,695.5833],[1.4957,41.819,614.4003],[1.4924,41.8241,728.0286],[1.4735,41.8342,609.9398],[1.4751,41.8359,626.1602],[1.4837,41.8371,634.7426],[1.4948,41.843,657.6296],[1.5048,41.8577,679.4382],[1.4984,41.87,579.1525],[1.5038,41.8715,595.0094],[1.5006,41.875,614.367],[1.4998,41.8792,647.8914],[1.5032,41.8867,722.2111],[1.4998,41.9029,834.2701],[1.4842,41.9061,722.8231],[1.462,41.8871,829.4022],[1.4465,41.8891,780.8568],[1.4441,41.8903,751.7653],[1.4395,41.8991,723.8049],[1.4261,41.8954,815.614],[1.4303,41.9008,814.3464],[1.4285,41.9059,799.4545],[1.4086,41.916,630.1892],[1.401,41.9131,634.1895],[1.3997,41.9171,739.4215],[1.3934,41.92,784.7134],[1.386,41.9271,691.3763],[1.3796,41.9272,660.562],[1.3778,41.9257,654.8515],[1.3619,41.9226,596.9335],[1.3591,41.9197,582.8789],[1.354,41.9178,564.2722],[1.3542,41.9122,556.744],[1.3505,41.9079,529.8636],[1.3538,41.9073,553.6286],[1.3518,41.905,539.0505],[1.3475,41.9039,515.6931],[1.3431,41.9051,506.3121],[1.3412,41.9073,490.2732],[1.3376999999999999,41.9052,471.2001],[1.3329,41.8957,447.1324],[1.3261,41.8923,428.0536],[1.3239,41.8891,420.0714],[1.3184,41.8935,449.2977],[1.3204,41.8976,481.1232],[1.3176,41.9104,529.8401],[1.3126,41.9179,570.9404],[1.3047,41.9234,587.853],[1.2954,41.9215,633.8536],[1.2974,41.9178,621.1448],[1.291,41.9098,620.8674],[1.2923,41.8977,609.5657],[1.2894,41.8869,508.9387],[1.2835,41.8823,538.6913],[1.2826,41.8763,426.209],[1.2595,41.8563,476.9605],[1.2574,41.8577,472.3712],[1.2432,41.8474,461.3331],[1.2427,41.8456,456.2948],[1.24,41.845,464.5821],[1.2369,41.8403,471.6775],[1.2376,41.836,471.2751],[1.2273,41.8253,535.6907],[1.2253,41.82,541.2939],[1.2118,41.8114,519.1473],[1.203,41.8149,498.407],[1.1956,41.8099,462.9211],[1.1871,41.7987,412.8309],[1.1555,41.7755,393.8594],[1.1429,41.7704,350.1122],[1.1369,41.762,392.2925],[1.1307,41.7645,362.5529],[1.1168,41.7608,409.2762],[1.1106,41.7448,378.161],[1.1069,41.7435,363.4719],[1.1032,41.7376,329.3268],[1.1089,41.7382,328.4114],[1.1153,41.7413,360.1642],[1.1284,41.7373,364.0147],[1.1243,41.7245,331.9128],[1.1254,41.7232,323.6267],[1.1327,41.7226,332.2585],[1.1359,41.7197,356.3821],[1.1392,41.7103,342.9511],[1.149,41.7147,347.6534],[1.167,41.7121,365.802],[1.1712,41.7078,374.2829],[1.1734,41.7079,377.8813],[1.1935,41.72,400.411],[1.1972,41.7209,407.0818],[1.2046,41.7178,419.241],[1.2041,41.7165,412.8678],[1.2074,41.7169,412.9746],[1.1988,41.7075,418.6141],[1.1942,41.6904,406.8947],[1.1893,41.6857,428.6893],[1.1857,41.6856,445.3278],[1.1884,41.6789,420.0081],[1.1849,41.6761,422.7698],[1.1896,41.6741,451.6316],[1.1909,41.661,458.1445],[1.1884,41.6605,452.1071],[1.1906,41.657,440.9295],[1.1902,41.6528,417.739],[1.1847,41.6491,399.3406],[1.19,41.634,483.8239],[1.1869,41.6201,497.6238],[1.1775,41.6181,495.4349],[1.1748,41.6152,484.6339],[1.1675,41.6138,475.8737],[1.1655,41.6102,466.5737],[1.1604,41.6157,453.2936],[1.1572,41.6159,460.6022],[1.1478,41.6241,434.1078],[1.1383,41.6249,399.3269],[1.1173,41.6177,397.6363],[1.1086,41.613,382.4683],[1.0963,41.6097,365.9912],[1.0896,41.6113,351.8624],[1.0801,41.611,329.4169],[1.0774,41.6049,348.1552],[1.0777,41.5989,354.3978],[1.085,41.5894,380.1454],[1.0833,41.5784,388.0575],[1.0708,41.5847,362.6667],[1.0694,41.5837,366.3739],[1.0512,41.5844,345.6588],[1.043,41.5908,320.587],[1.0165,41.5868,337.952],[1.0116,41.583,339.7532],[0.9984,41.5894,324.1228],[1.004,41.5984,322.1617],[1.0002,41.5993,319.3434],[0.9956,41.5904,326.8945],[0.9886,41.5927,319.6138],[0.9802,41.5845,318.6363],[0.9763,41.5838,315.2519],[0.9761,41.5879,315.4277],[0.9732,41.5891,313.7265],[0.9645,41.5794,309.7057],[0.9687,41.5778,312.6302],[0.9622,41.5678,306.7042],[0.969,41.565,313.3659],[0.972,41.5589,337.454],[0.9793,41.5567,350.6478],[0.9863,41.5503,361.5495],[0.9876,41.5467,368.3195],[0.9836,41.5463,356.7604],[0.9882,41.5366,406.4378],[0.9808,41.5281,384.163],[0.9786,41.5178,422.0277],[0.9971,41.5132,471.8515],[1.0108,41.5123,492.721],[1.0216,41.5033,533.7618],[1.0316,41.5063,552.027],[1.0379,41.505,547.4097],[1.0373,41.4983,483.2626],[1.0398,41.5011,472.4535],[1.0429,41.5001,528.1089],[1.0565,41.4936,531.4005],[1.065,41.4873,615.0514],[1.0784,41.4836,672.0749],[1.0825,41.4792,679.8165],[1.0913,41.4761,722.0332],[1.094,41.4775,736.6714],[1.1055,41.4741,769.7976],[1.1082,41.4668,741.0645],[1.1122,41.467,727.4149],[1.1138,41.4689,787.3909],[1.1197,41.4695,761.6136],[1.1298,41.4739,737.5983],[1.1306,41.4769,779.3167],[1.155,41.4808,759.2042],[1.1725,41.487,739.8176],[1.1758,41.4863,742.3734],[1.181,41.4881,758.3383],[1.1772,41.4945,710.4569],[1.1757,41.5016,688.8395],[1.1676,41.5048,665.0903],[1.1647,41.5087,646.375],[1.1662,41.5182,715.2206],[1.1702,41.5189,700.4069],[1.1714,41.5213,693.4298],[1.1732,41.5315,587.0012],[1.17,41.531,582.2776],[1.1647,41.5345,579.5082],[1.172,41.5327,622.2742],[1.1763,41.5338,666.9431],[1.1668,41.537,658.0728],[1.1679,41.5405,655.1635],[1.1807,41.5435,663.8542],[1.1967,41.5434,666.887],[1.2108,41.5486,688.1602],[1.2133,41.5529,682.4615],[1.214,41.5604,613.9504],[1.217,41.5625,544.7631]]]]}
,"properties": {"GID_3": "ESP.6.3.9_1","GID_0": "ESP","country": "Spain","GID_1": "ESP.6_1","province": "Cataluña","NL_NAME_1": "NA","GID_2": "ESP.6.3_1","county": "Lleida","NL_NAME_2": "NA","city": "n.a.(167)","VARNAME_3": "NA","NL_NAME_3": "NA","TYPE_3": "Comarca","ENGTYPE_3": "Comarca","CC_3": "NA","HASC_3": "NA","name": "n.a.(167).city","area_km2": 964.1152,"hist_schema_id": "Elevation0-9000","hist_area_km2": {"300": 0.7455,"325": 11.2599,"350": 20.9374,"375": 42.2446,"400": 50.3861,"425": 61.4709,"450": 75.4642,"475": 82.3105,"500": 81.9441,"525": 75.8373,"550": 75.5601,"575": 69.6388,"600": 65.4165,"625": 60.6559,"650": 55.4694,"675": 44.0251,"700": 30.3779,"725": 23.3602,"750": 18.9084,"775": 11.0815,"800": 5.7099,"825": 1.2162,"850": 0.0947}}}