{"type": "Feature","bbox": [-0.3072,38.6251,0.2349,38.8874],"geometry": {"type": "MultiPolygon","coordinates": [[[[0.0843,38.6582,0.0],[0.0893,38.6626,4.7433],[0.0899,38.6657,8.3875],[0.0921,38.666,2.1282],[0.0946,38.6696,0.0],[0.0985,38.6707,0.0],[0.0999,38.6729,12.3019],[0.1104,38.6749,15.5731],[0.1151,38.6732,0.0],[0.1224,38.6829,11.778],[0.1296,38.686,0.0],[0.139,38.6849,0.0],[0.1462,38.6876,6.7555],[0.1474,38.6871,31.7954],[0.1471,38.6813,0.0],[0.1496,38.6799,0.0],[0.1557,38.6871,0.0],[0.1571,38.699,111.5817],[0.1585,38.6987,0.0],[0.1654,38.7046,0.0],[0.1674,38.7104,4.0881],[0.1771,38.7135,0.0],[0.1804,38.7163,0.0],[0.1826,38.7212,73.98],[0.1851,38.7201,0.0],[0.1862,38.7221,151.782],[0.1921,38.7246,80.5921],[0.199,38.7249,0.0],[0.1999,38.7257,0.0],[0.1974,38.7287,18.7063],[0.2063,38.7324,62.5174],[0.2129,38.7324,92.6448],[0.214,38.7276,0.0],[0.2188,38.726,4.4597],[0.2171,38.7293,0.0],[0.2188,38.731,48.9273],[0.2229,38.7304,0.0],[0.2265,38.7332,69.284],[0.2315,38.7321,0.0],[0.2326,38.7363,7.9634],[0.2349,38.7371,0.0],[0.2338,38.7393,0.0],[0.2349,38.7407,0.0],[0.2321,38.7407,0.0],[0.2335,38.7463,12.3636],[0.2287,38.7457,0.0],[0.2246,38.7493,17.387],[0.2243,38.7526,10.9229],[0.2271,38.7543,0.0],[0.2218,38.7579,9.2802],[0.2251,38.7607,0.0],[0.2235,38.7621,0.0],[0.2254,38.7643,0.0],[0.2204,38.764,0.0],[0.2204,38.7607,3.7971],[0.2154,38.7624,0.0],[0.2101,38.7607,0.0],[0.1957,38.7718,4.5332],[0.1943,38.7746,0.0],[0.1924,38.7715,1.5359],[0.1893,38.7732,3.3854],[0.1899,38.7746,2.4562],[0.1921,38.7743,0.0],[0.1921,38.7757,0.0],[0.184,38.7854,5.8344],[0.1826,38.7951,0.0],[0.1871,38.7965,0.1226],[0.1879,38.7949,0.0],[0.1899,38.7999,29.6619],[0.1976,38.8004,1.3831],[0.1999,38.8024,0.0],[0.1993,38.8035,0.0],[0.1949,38.8049,111.8711],[0.1901,38.8093,37.1332],[0.1649,38.8187,33.2159],[0.1601,38.8224,0.0],[0.1604,38.8238,0.0],[0.1571,38.8249,6.187],[0.1557,38.8276,0.0],[0.151,38.8276,3.3772],[0.1488,38.8318,0.0],[0.1401,38.8326,0.9224],[0.1332,38.8357,0.0],[0.1299,38.8324,2.1915],[0.1243,38.8332,6.9051],[0.1221,38.8354,3.1322],[0.1215,38.8426,0.0],[0.1182,38.8418,0.0],[0.1204,38.839,0.9007],[0.1193,38.8385,0.0],[0.1126,38.8429,0.0],[0.1124,38.846,1.1682],[0.1179,38.8421,0.5032],[0.1188,38.8446,0.0],[0.1215,38.844,0.0],[0.1257,38.8488,0.0],[0.1204,38.8454,0.0],[0.1149,38.846,0.314],[0.1126,38.8493,0.0],[0.109,38.8474,0.3439],[0.1029,38.8482,1.1744],[0.0996,38.8515,1.4334],[0.0924,38.8543,0.6396],[0.0793,38.856,0.7811],[0.0546,38.8635,1.0979],[0.0482,38.8635,0.0],[0.0471,38.8607,0.8186],[0.0346,38.8599,2.5187],[0.021,38.8654,1.6836],[0.0151,38.864,0.9146],[0.0071,38.8671,0.0],[-0.0149,38.8713,1.9664],[-0.019,38.8751,0.0],[-0.0374,38.8857,0.0],[-0.0376,38.8857,0.0],[-0.0371,38.8806,0.8016],[-0.0333,38.8793,2.0193],[-0.0293,38.874,1.4247],[-0.0247,38.8724,1.1102],[-0.0276,38.8703,2.2118],[-0.0284,38.8673,1.245],[-0.0271,38.8621,0.5335],[-0.0341,38.8571,0.1356],[-0.0421,38.8565,0.4172],[-0.0458,38.8646,0.3907],[-0.0569,38.8691,-0.2258],[-0.0641,38.8744,0.1982],[-0.0679,38.8836,-0.1283],[-0.0706,38.8858,-0.0558],[-0.0786,38.8842,1.075],[-0.0781,38.8807,3.5124],[-0.0896,38.8793,23.2977],[-0.092,38.8716,2.8981],[-0.0949,38.8747,2.308],[-0.102,38.8751,47.6684],[-0.148,38.8585,238.8276],[-0.155,38.8605,270.7619],[-0.1537,38.8719,131.7142],[-0.1608,38.8874,455.1277],[-0.1623,38.8829,367.7743],[-0.1675,38.8799,367.0263],[-0.18,38.8788,340.8918],[-0.1976,38.8664,503.0149],[-0.1963,38.8595,520.8013],[-0.2305,38.8535,551.5738],[-0.2392,38.8576,720.2746],[-0.242,38.8606,796.3936],[-0.2452,38.8589,902.312],[-0.2602,38.86,992.2949],[-0.2755,38.8405,547.3464],[-0.2849,38.8335,569.5155],[-0.3066,38.8246,654.7443],[-0.3072,38.8223,696.3448],[-0.2982,38.8205,660.6669],[-0.2856,38.8057,875.1029],[-0.2867,38.7925,693.0824],[-0.2835,38.7829,587.3021],[-0.2919,38.7722,745.9098],[-0.287,38.7663,815.7589],[-0.2809,38.7643,843.7966],[-0.2555,38.7753,747.947],[-0.2446,38.7755,789.1396],[-0.2298,38.7788,784.4981],[-0.2205,38.7749,780.1167],[-0.215,38.775,792.4232],[-0.1956,38.77,516.2223],[-0.2096,38.7659,585.1525],[-0.2268,38.7583,640.5585],[-0.2303,38.7583,677.4134],[-0.2317,38.7551,962.0923],[-0.2379,38.7504,1105.7397],[-0.2347,38.7489,1028.3606],[-0.2318,38.7434,844.5253],[-0.2215,38.7324,687.2563],[-0.2215,38.7291,628.1025],[-0.2251,38.7235,798.1008],[-0.222,38.7192,890.1021],[-0.2261,38.7145,1081.009],[-0.2243,38.7126,1095.4341],[-0.235,38.716,1231.7517],[-0.2405,38.7138,1303.0901],[-0.2409,38.7104,1017.3236],[-0.2385,38.7037,947.475],[-0.2401,38.7023,998.8662],[-0.2393,38.6952,502.2819],[-0.2452,38.6888,567.7578],[-0.2478,38.6831,744.6367],[-0.2399,38.6813,721.386],[-0.2311,38.6824,584.3087],[-0.2278,38.6786,571.8568],[-0.2227,38.6762,566.954],[-0.2185,38.6767,532.2294],[-0.2194,38.6781,531.6677],[-0.2163,38.6779,494.9593],[-0.2162,38.6802,459.5582],[-0.2101,38.6875,392.7691],[-0.208,38.6859,363.5685],[-0.1985,38.6843,360.0],[-0.1937,38.6894,468.3349],[-0.1879,38.6911,579.7667],[-0.1701,38.6925,1054.4471],[-0.1691,38.6966,1074.8142],[-0.1646,38.6999,954.3881],[-0.154,38.6986,831.413],[-0.1534,38.7007,771.3983],[-0.1489,38.7007,827.1195],[-0.1492,38.7234,845.1454],[-0.1444,38.729,918.3338],[-0.1432,38.7376,870.3559],[-0.1381,38.727,841.3851],[-0.1271,38.7282,881.4011],[-0.1207,38.7239,892.2093],[-0.0976,38.7305,902.7005],[-0.0952,38.7266,945.33],[-0.0898,38.7235,918.4489],[-0.0658,38.7232,673.7506],[-0.0574,38.7253,609.632],[-0.0495,38.7155,695.3787],[-0.0562,38.7057,777.1658],[-0.06,38.6955,803.0204],[-0.0646,38.6759,410.7444],[-0.06,38.6647,967.3007],[-0.0558,38.6596,761.8561],[-0.0465,38.6587,696.7985],[-0.0443,38.661,870.6572],[0.0073,38.6377,176.7905],[0.007,38.6348,73.2639],[0.0106,38.6315,0.0],[0.0274,38.6279,128.9814],[0.0282,38.6251,0.0],[0.031,38.6251,0.0],[0.0301,38.629,31.8752],[0.0318,38.6296,31.8752],[0.0307,38.631,31.612],[0.0362,38.634,0.0],[0.0357,38.6362,5.5438],[0.0396,38.6362,0.0],[0.041,38.6387,0.0],[0.0482,38.6415,7.6556],[0.0676,38.6404,0.0],[0.0688,38.6365,0.0],[0.0671,38.6354,0.0],[0.0713,38.6349,25.3368],[0.0721,38.6324,1.4892],[0.0776,38.6329,71.501],[0.0832,38.6312,-0.444],[0.0812,38.6354,0.0],[0.0785,38.6354,60.2856],[0.0762,38.6374,25.9362],[0.0771,38.6407,1.9086],[0.0735,38.6413,2.6322],[0.0729,38.644,3.2428],[0.0746,38.6479,3.9276],[0.079,38.6504,0.0],[0.0787,38.6535,0.0],[0.0843,38.6582,0.0]]],
[[[0.2315,38.7538,0.0],[0.2318,38.7574,0.0],[0.2287,38.7571,0.0],[0.2282,38.7532,0.0],[0.2315,38.7538,0.0]]]]}
,"properties": {"GID_3": "ESP.10.1.6_1","GID_0": "ESP","country": "Spain","GID_1": "ESP.10_1","province": "ComunidadValenciana","NL_NAME_1": "NA","GID_2": "ESP.10.1_1","county": "Alicante","NL_NAME_2": "NA","city": "MarinaAlta","VARNAME_3": "NA","NL_NAME_3": "NA","TYPE_3": "Comarca","ENGTYPE_3": "Comarca","CC_3": "NA","HASC_3": "NA","name": "Marina_Alta.city","area_km2": 776.2275,"hist_schema_id": "Elevation0-9000","hist_area_km2": {"0": 52.1125,"25": 48.6145,"50": 49.8188,"75": 51.8383,"100": 42.0377,"125": 34.3714,"150": 33.33,"175": 34.8032,"200": 34.178,"225": 31.961,"250": 26.1566,"275": 21.806,"300": 18.7466,"325": 16.3496,"350": 14.5479,"375": 13.7704,"400": 13.5556,"425": 13.4734,"450": 14.3996,"475": 14.8135,"500": 15.5562,"525": 15.8046,"550": 16.4475,"575": 16.8927,"600": 17.1581,"625": 16.0179,"650": 14.1499,"675": 11.4557,"700": 10.9768,"725": 10.4494,"750": 10.3012,"775": 9.0109,"800": 8.1677,"825": 5.738,"850": 3.9526,"875": 2.8773,"900": 2.2326,"925": 1.9516,"950": 1.5052,"975": 1.3894,"1000": 0.9595,"1025": 0.6452,"1050": 0.5791,"1075": 0.4799,"1100": 0.3144,"1125": 0.1655,"1150": 0.0331,"1175": 0.1158,"1200": 0.0496,"1225": 0.0993,"1275": 0.0496,"1300": 0.0165}}}