{"type": "Feature","bbox": [-4.6261,39.7255,-4.0423,40.3183],"geometry": {"type": "MultiPolygon","coordinates": [[[[-4.3818,39.7604,558.1783],[-4.3455,39.7514,531.9863],[-4.3466,39.7458,541.8729],[-4.3446,39.7387,574.4314],[-4.3459,39.7363,582.1124],[-4.3409,39.7315,614.3374],[-4.3276,39.7255,659.4326],[-4.3189,39.733,654.9813],[-4.3157,39.7382,642.4645],[-4.3145,39.7471,605.6533],[-4.3172,39.7631,637.1547],[-4.3309,39.77,622.5563],[-4.337,39.7688,582.6729],[-4.346,39.771,554.2092],[-4.3489,39.7789,505.0652],[-4.3554,39.7865,491.3362],[-4.3642,39.805,455.9564],[-4.3619,39.8136,406.2341],[-4.3491,39.8124,407.9554],[-4.3367,39.8199,407.4235],[-4.3331,39.8167,405.4661],[-4.3327,39.8121,406.9539],[-4.3258,39.8086,407.2871],[-4.3214,39.8034,407.2351],[-4.3186,39.8015,409.1689],[-4.3128,39.8035,407.7272],[-4.3093,39.8086,407.7004],[-4.3129,39.8144,408.6846],[-4.3109,39.8213,415.0764],[-4.3026,39.8266,412.8108],[-4.284,39.8288,410.8982],[-4.2888,39.8325,413.8975],[-4.2983,39.8355,423.0],[-4.3016,39.8418,423.0],[-4.2888,39.8458,423.0],[-4.2877,39.848,423.0],[-4.2907,39.8545,423.0],[-4.2897,39.8668,423.0],[-4.2877,39.8686,423.0],[-4.2843,39.8691,455.8665],[-4.2762,39.8641,423.9764],[-4.2725,39.8506,423.0],[-4.2655,39.8496,423.0],[-4.2624,39.846,436.051],[-4.2641,39.8425,423.9382],[-4.2689,39.8388,424.5155],[-4.2686,39.836,424.1643],[-4.2576,39.8329,426.6961],[-4.2577,39.8406,426.8038],[-4.2506,39.8424,426.0],[-4.248,39.8579,423.5],[-4.2494,39.8648,424.649],[-4.2476,39.8666,425.018],[-4.2425,39.8658,424.7513],[-4.2389,39.8587,429.6027],[-4.2314,39.8537,435.341],[-4.2214,39.8536,438.752],[-4.2185,39.8585,426.8],[-4.2247,39.8638,426.1322],[-4.2245,39.8668,427.5255],[-4.2215,39.8705,428.3213],[-4.2106,39.8721,431.3136],[-4.206,39.8689,426.7988],[-4.2072,39.8642,429.3457],[-4.2054,39.8621,427.1998],[-4.1985,39.8625,428.072],[-4.1904,39.8716,428.5641],[-4.1838,39.8729,428.3323],[-4.1789,39.877,428.8864],[-4.1824,39.8817,428.8347],[-4.1822,39.8856,433.1879],[-4.174,39.8853,431.1498],[-4.1688,39.8826,431.7909],[-4.1668,39.8857,432.9962],[-4.1698,39.8905,455.4851],[-4.1721,39.8908,435.1414],[-4.1675,39.8936,462.6972],[-4.168,39.8974,483.3422],[-4.1632,39.8999,466.7498],[-4.1625,39.9044,503.9692],[-4.1753,39.9044,448.5335],[-4.1788,39.9082,438.5452],[-4.176,39.912,439.3567],[-4.1664,39.9109,441.2611],[-4.1595,39.9129,442.4951],[-4.1648,39.9346,481.8461],[-4.1701,39.9394,493.8845],[-4.1609,39.9477,496.0698],[-4.161,39.9495,498.0978],[-4.153,39.9471,495.0582],[-4.1523,39.9497,502.3998],[-4.1552,39.9524,507.5018],[-4.1558,39.9575,501.6818],[-4.1535,39.9576,499.3498],[-4.1493,39.9541,501.3311],[-4.137,39.9534,481.8777],[-4.1169,39.9457,454.028],[-4.1161,39.9487,454.6258],[-4.1043,39.9535,458.4937],[-4.0964,39.9505,458.4954],[-4.0887,39.9501,459.8806],[-4.0917,39.9597,488.7673],[-4.0868,39.9753,512.5578],[-4.0884,39.9754,510.7975],[-4.0895,39.9798,510.1622],[-4.0711,39.9799,477.111],[-4.0503,39.9859,495.8411],[-4.0576,39.9897,511.1937],[-4.0521,40.0014,514.507],[-4.0605,40.0139,532.5576],[-4.0627,40.028,535.7687],[-4.0687,40.0299,538.8145],[-4.0588,40.0356,510.6059],[-4.0632,40.0387,520.7346],[-4.0613,40.0421,538.9319],[-4.0635,40.0433,537.1917],[-4.0501,40.0459,533.4909],[-4.0423,40.0512,531.0662],[-4.0435,40.0535,531.6927],[-4.0452,40.0532,532.3715],[-4.0458,40.0559,531.9141],[-4.0519,40.0562,534.6489],[-4.053,40.0669,542.4366],[-4.0562,40.0666,543.8494],[-4.0577,40.0689,545.262],[-4.0567,40.0763,544.8591],[-4.0642,40.0794,556.256],[-4.0617,40.0819,559.2007],[-4.0597,40.081,558.1023],[-4.0654,40.089,572.3338],[-4.0604,40.0906,560.097],[-4.0583,40.093,559.1471],[-4.0619,40.0957,568.6245],[-4.0607,40.0982,565.8228],[-4.0671,40.104,578.1108],[-4.064,40.1059,572.8083],[-4.0674,40.1059,581.253],[-4.0671,40.1073,577.7687],[-4.0704,40.1093,589.6812],[-4.0725,40.1202,569.2644],[-4.0792,40.1294,580.8846],[-4.0806,40.1436,591.2247],[-4.0908,40.1329,602.5779],[-4.1023,40.1363,615.6082],[-4.1101,40.1499,627.4243],[-4.1188,40.1512,638.7749],[-4.1294,40.1484,643.8036],[-4.1354,40.1521,647.0671],[-4.1539,40.144,624.3544],[-4.1783,40.1269,627.5496],[-4.1809,40.1362,633.6028],[-4.1809,40.1431,635.548],[-4.1837,40.1464,641.3625],[-4.186,40.146,643.9033],[-4.1844,40.1472,638.6005],[-4.1856,40.1484,638.7702],[-4.179,40.151,630.5995],[-4.1768,40.1561,626.7631],[-4.1731,40.158,632.8764],[-4.1747,40.16,629.5624],[-4.1714,40.1601,632.2355],[-4.1673,40.1745,643.2811],[-4.1537,40.1832,651.1107],[-4.1411,40.182,646.3456],[-4.1383,40.1866,654.3031],[-4.1326,40.1868,652.6403],[-4.1316,40.1885,654.5632],[-4.1253,40.1872,651.6299],[-4.1249,40.1958,643.1023],[-4.1209,40.1991,649.9684],[-4.1224,40.2014,651.5783],[-4.1196,40.2035,651.8336],[-4.1238,40.2092,653.8114],[-4.1207,40.2129,651.2373],[-4.1265,40.2154,634.9391],[-4.1263,40.219,635.4241],[-4.1302,40.2212,630.5046],[-4.1304,40.2281,614.7644],[-4.1345,40.2319,613.1511],[-4.135,40.2362,610.9534],[-4.1432,40.2426,596.2476],[-4.1436,40.245,596.033],[-4.1486,40.2468,592.8817],[-4.1505,40.2494,585.3959],[-4.1447,40.259,579.5188],[-4.144,40.2643,598.8057],[-4.1582,40.2707,581.3873],[-4.1636,40.2699,575.9346],[-4.1669,40.2728,569.498],[-4.173,40.2845,558.7985],[-4.1725,40.2874,566.4557],[-4.1702,40.2883,563.787],[-4.1746,40.2887,562.3569],[-4.1795,40.2934,564.564],[-4.1913,40.297,560.2935],[-4.1973,40.2938,521.3602],[-4.1989,40.2903,521.5272],[-4.2029,40.2885,500.684],[-4.205,40.2832,515.777],[-4.2031,40.2752,537.9645],[-4.2037,40.269,561.0784],[-4.2087,40.2681,555.5442],[-4.2135,40.2692,551.7258],[-4.2182,40.2728,539.4529],[-4.2264,40.2699,538.331],[-4.2291,40.2759,489.0523],[-4.2316,40.2768,456.0984],[-4.2342,40.2747,448.8323],[-4.2457,40.2737,447.4684],[-4.2576,40.2596,442.8944],[-4.2619,40.2479,441.7304],[-4.2671,40.2422,441.8983],[-4.2684,40.236,440.3797],[-4.2711,40.2332,442.6156],[-4.2856,40.2286,437.6472],[-4.29,40.2224,438.7832],[-4.2958,40.2191,438.3625],[-4.3062,40.2217,451.0646],[-4.3089,40.2277,460.4789],[-4.3058,40.2311,457.3464],[-4.3066,40.2329,459.0617],[-4.3108,40.2341,472.8873],[-4.3215,40.2251,463.4495],[-4.3268,40.2336,486.7676],[-4.3353,40.2388,514.4609],[-4.3413,40.24,523.7653],[-4.3481,40.2366,505.3958],[-4.3478,40.2455,576.6234],[-4.3451,40.2533,594.803],[-4.3574,40.2708,680.1678],[-4.3586,40.2765,721.5222],[-4.3574,40.2846,685.6897],[-4.3591,40.2944,725.9706],[-4.3568,40.3097,843.9611],[-4.363,40.3116,831.1852],[-4.3647,40.3141,808.1967],[-4.3752,40.3151,803.6949],[-4.3775,40.3176,774.3604],[-4.3811,40.3183,775.7776],[-4.3801,40.3141,774.9009],[-4.388,40.3013,700.6953],[-4.3837,40.2996,669.0327],[-4.3855,40.2926,643.755],[-4.384,40.2892,637.7683],[-4.3989,40.2838,707.481],[-4.4084,40.2743,680.6529],[-4.4196,40.2654,659.4778],[-4.4261,40.2624,620.5719],[-4.4274,40.2578,610.2298],[-4.4356,40.2593,663.5868],[-4.4343,40.2457,633.7381],[-4.4373,40.2377,616.1688],[-4.4474,40.2332,643.3267],[-4.4798,40.2302,679.2845],[-4.4813,40.2281,668.9128],[-4.4969,40.2214,654.4506],[-4.5055,40.2207,682.812],[-4.5143,40.2172,730.5707],[-4.5172,40.2137,779.254],[-4.5166,40.2057,880.6176],[-4.522,40.2024,949.4452],[-4.5358,40.1996,913.8512],[-4.5504,40.2019,762.8632],[-4.557,40.1948,677.2138],[-4.5582,40.1914,668.7269],[-4.5569,40.1901,653.2594],[-4.5579,40.185,635.3291],[-4.5502,40.1805,633.3465],[-4.5519,40.171,598.953],[-4.5603,40.1596,639.0291],[-4.5677,40.1426,571.0045],[-4.5695,40.1432,568.5676],[-4.5787,40.1376,468.5592],[-4.5796,40.1351,469.9369],[-4.577,40.1321,448.3292],[-4.591,40.1299,488.1701],[-4.5918,40.1285,479.2291],[-4.5882,40.1235,450.0499],[-4.5838,40.111,440.5139],[-4.5847,40.1076,431.7986],[-4.5904,40.1032,412.1199],[-4.5851,40.1042,412.7536],[-4.5846,40.1031,421.4276],[-4.5911,40.0906,435.6484],[-4.5981,40.0895,403.0689],[-4.6016,40.0835,403.3846],[-4.6052,40.0823,399.0913],[-4.6056,40.0728,392.4208],[-4.6031,40.0699,390.1329],[-4.609,40.0598,391.6304],[-4.6173,40.0569,395.6598],[-4.6261,40.056,395.4828],[-4.6227,40.0494,393.7467],[-4.6182,40.0454,402.6547],[-4.6215,40.0422,416.456],[-4.6192,40.0392,419.9025],[-4.6157,40.0382,426.4581],[-4.6155,40.0364,418.086],[-4.609,40.0334,434.0696],[-4.6104,40.0314,420.6631],[-4.6071,40.0313,443.4447],[-4.6044,40.0259,447.9726],[-4.602,40.0246,425.9522],[-4.5998,40.0146,452.4571],[-4.5917,40.0051,452.5921],[-4.5939,40.0015,435.207],[-4.5961,40.0037,433.2517],[-4.5985,40.002,447.088],[-4.5984,39.9997,454.5919],[-4.6009,39.9987,462.9789],[-4.5989,39.9948,469.4711],[-4.601,39.993899999999996,472.6991],[-4.5977,39.9895,458.8289],[-4.597,39.9816,472.8676],[-4.5945,39.9796,474.2966],[-4.5944,39.9765,475.0355],[-4.5896,39.9748,477.1685],[-4.5893,39.9728,474.4164],[-4.5852,39.9705,469.3187],[-4.5914,39.97,464.7359],[-4.59,39.9655,451.3896],[-4.592,39.9646,442.7314],[-4.587,39.9605,454.2127],[-4.5825,39.9624,462.3315],[-4.5724,39.9624,489.6713],[-4.5718,39.961,486.0564],[-4.5694,39.9631,489.3438],[-4.5654,39.963,491.9843],[-4.5613,39.9603,491.8854],[-4.5473,39.9618,506.5466],[-4.5481,39.9586,497.7184],[-4.5451,39.9598,508.546],[-4.5416,39.9593,505.3901],[-4.541,39.9577,494.9552],[-4.5381,39.9608,512.8745],[-4.5335,39.9607,522.6912],[-4.5166,39.9438,544.9041],[-4.5098,39.9417,548.6083],[-4.51,39.9388,550.9705],[-4.5264,39.9238,493.3785],[-4.5303,39.9137,429.2137],[-4.5328,39.9118,423.0134],[-4.5284,39.905,396.3394],[-4.5248,39.9048,400.5106],[-4.5247,39.901,391.9116],[-4.5209,39.8985,390.5981],[-4.5113,39.902,390.3978],[-4.5048,39.902,390.0136],[-4.5027,39.8999,388.6447],[-4.5046,39.8883,391.5464],[-4.5018,39.8843,387.7343],[-4.4971,39.8817,389.1764],[-4.5089,39.8634,417.6499],[-4.5174,39.8613,424.3465],[-4.5215,39.8637,447.32],[-4.5303,39.8648,446.7512],[-4.5409,39.8688,441.5464],[-4.5526,39.8562,444.9454],[-4.5692,39.8596,465.0342],[-4.5815,39.8387,490.6328],[-4.5742,39.8363,503.823],[-4.5588,39.8196,508.6621],[-4.5557,39.8143,517.3743],[-4.5583,39.8108,520.4055],[-4.5501,39.8077,597.3888],[-4.5449,39.8076,610.567],[-4.5404,39.803,629.681],[-4.5306,39.8021,629.8642],[-4.5311,39.7965,632.9299],[-4.5057,39.7804,654.3655],[-4.5048,39.7777,662.7361],[-4.4995,39.7738,673.3536],[-4.4841,39.7728,669.7023],[-4.4513,39.7811,531.65],[-4.4255,39.7758,470.9256],[-4.4214,39.7724,445.626],[-4.4183,39.7756,430.3436],[-4.4018,39.771,492.0898],[-4.3818,39.7604,558.1783]]]]}
,"properties": {"GID_3": "ESP.4.5.4_1","GID_0": "ESP","country": "Spain","GID_1": "ESP.4_1","province": "Castilla-LaMancha","NL_NAME_1": "NA","GID_2": "ESP.4.5_1","county": "Toledo","NL_NAME_2": "NA","city": "n.a.(257)","VARNAME_3": "NA","NL_NAME_3": "NA","TYPE_3": "Comarca","ENGTYPE_3": "Comarca","CC_3": "NA","HASC_3": "NA","name": "n.a.(257).city","area_km2": 1881.413,"hist_schema_id": "Elevation0-9000","hist_area_km2": {"375": 0.277,"400": 54.647,"425": 137.924,"450": 206.338,"475": 251.629,"500": 263.493,"525": 249.34,"550": 286.669,"575": 201.924,"600": 111.865,"625": 58.618,"650": 25.196,"675": 10.411,"700": 5.406,"725": 4.111,"750": 3.059,"775": 2.832,"800": 1.975,"825": 1.392,"850": 0.923,"875": 0.632,"900": 0.826,"925": 0.551,"950": 0.583,"975": 0.308,"1000": 0.178,"1025": 0.227,"1050": 0.081}}}