{"type": "Feature","bbox": [-5.7736,43.0774,-5.1881,43.3459],"geometry": {"type": "MultiPolygon","coordinates": [[[[-5.2201,43.0836,1507.9503],[-5.2096,43.0868,1570.2983],[-5.199,43.112,1532.967],[-5.1957,43.1149,1520.3962],[-5.1912,43.1151,1502.0643],[-5.1881,43.1172,1568.7177],[-5.1956,43.1283,1451.4888],[-5.196,43.1315,1675.8087],[-5.2075,43.1353,1747.1699],[-5.2153,43.1441,1597.5112],[-5.2166,43.1542,1468.9657],[-5.2151,43.1579,1457.8472],[-5.2173,43.1657,1519.1411],[-5.2145,43.1728,1869.8806],[-5.2417,43.1791,1538.8535],[-5.2522,43.1853,1700.3689],[-5.251,43.1887,1739.0033],[-5.2587,43.1978,1668.3197],[-5.249,43.2076,1637.9789],[-5.2487,43.2111,1720.0977],[-5.2701,43.2179,950.9744],[-5.2889,43.2266,1485.3196],[-5.2856,43.2404,1396.175],[-5.2922,43.2503,839.5336],[-5.3092,43.2562,630.8198],[-5.3147,43.2566,607.8414],[-5.3283,43.2538,911.1508],[-5.3333,43.2518,924.3121],[-5.3369,43.2482,1118.5916],[-5.3486,43.2537,818.7068],[-5.356,43.2536,725.3978],[-5.3638,43.2564,858.5485],[-5.3708,43.2536,1056.5679],[-5.3727,43.2573,1180.4692],[-5.3769,43.258,1156.2899],[-5.3782,43.262,1149.6936],[-5.3816,43.2639,1039.3152],[-5.3808,43.2662,948.1969],[-5.3872,43.2769,831.9698],[-5.3959,43.2725,620.4414],[-5.4063,43.2699,498.6086],[-5.4197,43.2697,366.2028],[-5.4158,43.2639,398.5757],[-5.4161,43.2594,475.942],[-5.4184,43.2606,463.7863],[-5.4303,43.2533,685.6257],[-5.4658,43.2589,1055.37],[-5.4665,43.2614,1113.2969],[-5.4635,43.2659,1004.6914],[-5.4662,43.2695,1048.8169],[-5.4755,43.2723,974.1906],[-5.4814,43.2761,1087.0309],[-5.4916,43.2764,1183.537],[-5.4931,43.2785,1198.4325],[-5.4978,43.2796,1218.2583],[-5.5013,43.2765,1245.8175],[-5.5092,43.2994,1087.5447],[-5.5074,43.3016,1066.5784],[-5.5098,43.303,1050.1411],[-5.5229,43.2993,761.4692],[-5.5244,43.3008,738.3671],[-5.5291,43.2998,842.9772],[-5.5276,43.2942,916.7057],[-5.5317,43.2937,881.6132],[-5.5386,43.2967,818.9023],[-5.5457,43.2941,779.3168],[-5.5587,43.2929,738.6967],[-5.5615,43.2962,667.4246],[-5.5786,43.2988,694.0774],[-5.5836,43.3094,673.7875],[-5.5876,43.3117,677.2361],[-5.5881,43.318,511.0762],[-5.5971,43.321,375.2168],[-5.5999,43.3246,415.359],[-5.6042,43.3257,495.6574],[-5.6066,43.3293,565.391],[-5.6153,43.322,665.932],[-5.618,43.3246,632.4718],[-5.646,43.3317,319.5733],[-5.6572,43.341,431.9835],[-5.6639,43.341,345.4146],[-5.6827,43.3312,409.4629],[-5.7022,43.3352,396.8737],[-5.7048,43.3439,378.4069],[-5.7105,43.3459,474.8041],[-5.7158,43.3432,458.7513],[-5.7204,43.3431,465.3314],[-5.7214,43.3406,470.1049],[-5.7325,43.3373,521.5565],[-5.7344,43.3348,555.3265],[-5.7375,43.3357,557.21],[-5.7442,43.3337,444.5498],[-5.7505,43.3387,251.877],[-5.755,43.3334,180.0074],[-5.7548,43.3308,285.3148],[-5.7577,43.3288,430.0324],[-5.7561,43.3185,509.9541],[-5.758,43.3147,544.366],[-5.7627,43.3072,563.5399],[-5.7671,43.3062,632.5947],[-5.7736,43.3018,656.2863],[-5.7708,43.2882,548.8252],[-5.7577,43.2865,375.1692],[-5.7501,43.2891,444.0802],[-5.7415,43.2788,606.5995],[-5.7349,43.2776,578.2538],[-5.7314,43.2748,642.6884],[-5.7222,43.2772,596.5599],[-5.7139,43.2772,519.4222],[-5.7016,43.2721,649.3909],[-5.6919,43.2651,687.6351],[-5.6925,43.2619,636.8929],[-5.6887,43.2549,702.2292],[-5.6885,43.2433,855.0256],[-5.6899,43.2405,882.5518],[-5.6948,43.2397,987.7062],[-5.6953,43.234,982.2448],[-5.6932,43.2316,965.1376],[-5.6796,43.2287,891.4369],[-5.6659,43.2309,824.4134],[-5.6513,43.2282,880.3214],[-5.647,43.2244,850.8226],[-5.6288,43.2207,1034.203],[-5.6254,43.2072,1057.1744],[-5.6268,43.1976,1072.6216],[-5.6314,43.1929,1124.8885],[-5.6269,43.191,1028.7695],[-5.6274,43.1875,1007.8839],[-5.6255,43.1856,974.244],[-5.606,43.1796,923.1583],[-5.5995,43.1793,976.8773],[-5.5899,43.1749,1129.8685],[-5.5813,43.167,1168.0762],[-5.5654,43.1745,1330.6511],[-5.5611,43.1752,1517.5581],[-5.5583,43.1703,1445.4805],[-5.5531,43.168,1480.1414],[-5.5371,43.1667,1258.7919],[-5.5358,43.1642,1239.769],[-5.5228,43.1635,1373.0156],[-5.5192,43.161,1508.3953],[-5.5202,43.1578,1479.7756],[-5.5162,43.1496,1507.3928],[-5.5023,43.1431,1479.7759],[-5.5012,43.136,1460.549],[-5.4976,43.1335,1545.2222],[-5.4866,43.1323,1422.0868],[-5.4785,43.1288,1293.5048],[-5.4636,43.1341,1817.1642],[-5.4599,43.129,1663.4944],[-5.447,43.1216,1672.4136],[-5.4405,43.1207,1640.8866],[-5.4383,43.109,1579.7583],[-5.4271,43.1043,1661.4247],[-5.4216,43.1003,1734.4033],[-5.4204,43.0949,1718.8823],[-5.409,43.0858,1750.8276],[-5.4088,43.0786,1983.6473],[-5.404,43.0792,1857.3501],[-5.4009,43.0814,1846.6304],[-5.3947,43.0802,1830.9932],[-5.383,43.0872,1878.7844],[-5.3777,43.0883,1804.5878],[-5.369,43.0945,1781.8557],[-5.3447,43.0942,1861.6667],[-5.3389,43.0915,1953.557],[-5.3413,43.0837,1972.217],[-5.3204,43.0793,1792.7302],[-5.3171,43.0827,1826.9421],[-5.3114,43.0841,1847.8242],[-5.2969,43.0792,1749.3276],[-5.282,43.0774,1783.4185],[-5.2781,43.0833,1729.2128],[-5.2684,43.0875,1832.4281],[-5.2402,43.0885,1828.1948],[-5.2287,43.0842,1710.8512],[-5.2259,43.0855,1627.8309],[-5.2201,43.0836,1507.9503]]]]}
,"properties": {"GID_3": "ESP.17.1.6_1","GID_0": "ESP","country": "Spain","GID_1": "ESP.17_1","province": "PrincipadodeAsturias","NL_NAME_1": "NA","GID_2": "ESP.17.1_1","county": "Asturias","NL_NAME_2": "NA","city": "n.a.(195)","VARNAME_3": "NA","NL_NAME_3": "NA","TYPE_3": "Comarca","ENGTYPE_3": "Comarca","CC_3": "NA","HASC_3": "NA","name": "n.a.(195).city","area_km2": 645.1824,"hist_schema_id": "Elevation0-9000","hist_area_km2": {"175": 0.8946,"200": 4.4274,"225": 5.0607,"250": 6.4342,"275": 7.8701,"300": 9.9232,"325": 11.961,"350": 12.1307,"375": 13.7993,"400": 13.3063,"425": 13.493,"450": 13.0161,"475": 14.6076,"500": 13.8678,"525": 13.5132,"550": 14.0702,"575": 14.0716,"600": 14.7207,"625": 15.4635,"650": 15.7741,"675": 15.9144,"700": 15.1428,"725": 14.9739,"750": 15.4217,"775": 15.9794,"800": 14.805,"825": 16.3509,"850": 15.687,"875": 15.0384,"900": 14.3126,"925": 14.1128,"950": 12.846,"975": 12.4447,"1000": 12.0742,"1025": 11.7965,"1050": 11.6269,"1075": 11.0087,"1100": 10.5765,"1125": 10.0979,"1150": 10.3766,"1175": 9.6348,"1200": 9.2799,"1225": 9.5735,"1250": 9.2805,"1275": 8.1366,"1300": 7.5955,"1325": 7.3015,"1350": 7.998,"1375": 7.859,"1400": 6.8537,"1425": 6.5911,"1450": 6.1275,"1475": 6.0506,"1500": 5.1375,"1525": 4.9984,"1550": 4.9368,"1575": 4.6272,"1600": 3.7454,"1625": 3.5597,"1650": 3.3275,"1675": 3.1265,"1700": 2.1671,"1725": 2.2756,"1750": 1.548,"1775": 1.6255,"1800": 0.898,"1825": 0.9443,"1850": 0.449,"1875": 0.2477,"1900": 0.1548,"1925": 0.0619,"1950": 0.0465,"1975": 0.0155,"2000": 0.0155}}}