{"type":"Feature","properties":{"GID_3":"ESP.2.1.8_1","GID_0":"ESP","country":"Spain","GID_1":"ESP.2_1","province":"Aragón","NL_NAME_1":"NA","GID_2":"ESP.2.1_1","county":"Huesca","NL_NAME_2":"NA","city":"n.a.(132)","VARNAME_3":"NA","NL_NAME_3":"NA","TYPE_3":"Comarca","ENGTYPE_3":"Comarca","CC_3":"NA","HASC_3":"NA","name":"n.a.(132).city"},
"geometry":{"type": "MultiPolygon","coordinates": [[[[-0.1847,42.5345,1205.7778],[-0.197,42.5409,1333.8137],[-0.2066,42.5366,1387.7428],[-0.2134,42.5372,1450.3333],[-0.2461,42.5464,1591.4517],[-0.2444,42.5499,1408.0631],[-0.2388,42.5525,1268.5714],[-0.237,42.5587,1468.2816],[-0.2317,42.5587,1522.7916],[-0.2299,42.5613,1544.5472],[-0.2248,42.5602,1555.6976],[-0.2227,42.562,1488.2043],[-0.226,42.5676,1487.4951],[-0.2233,42.5692,1557.3381],[-0.2181,42.5692,1530.5199],[-0.2264,42.5721,1701.423],[-0.2294,42.5782,1774.0012],[-0.2291,42.5864,1826.9802],[-0.2312,42.5892,1940.3551],[-0.2303,42.5985,1981.1742],[-0.2272,42.6014,1937.1276],[-0.2135,42.6019,1781.3518],[-0.2065,42.6005,1885.7281],[-0.205,42.6041,1722.5199],[-0.2076,42.6128,1602.3467],[-0.2054,42.6168,1586.9036],[-0.2068,42.623,1637.0022],[-0.2009,42.6327,1783.3376],[-0.1972,42.6468,2029.0459],[-0.194,42.652,2222.1389],[-0.2005,42.6702,2192.4775],[-0.1996,42.675,2361.7253],[-0.2013,42.6779,2633.8032],[-0.1912,42.6891,2376.1899],[-0.188,42.6906,2348.3257],[-0.193,42.6964,2509.1775],[-0.1903,42.7002,2553.4197],[-0.1908,42.7099,2485.8237],[-0.1885,42.7183,2541.5383],[-0.192,42.7252,2478.915],[-0.1977,42.7285,2570.0796],[-0.2032,42.7287,2630.25],[-0.2059,42.7375,2624.6777],[-0.2003,42.7406,2677.801],[-0.1971,42.7527,2682.4961],[-0.2032,42.7555,2600.9702],[-0.2019,42.7581,2557.4702],[-0.204,42.762,2625.0659],[-0.2,42.7693,2828.8245],[-0.1956,42.7684,2772.8389],[-0.193,42.7728,2792.249],[-0.1875,42.7751,2785.3267],[-0.1843,42.7792,2643.0425],[-0.1797,42.7801,2785.1921],[-0.1779,42.7853,2706.3091],[-0.1845,42.7876,2745.8318],[-0.1896,42.7871,2703.9148],[-0.1903,42.7906,2722.9634],[-0.1983,42.7948,2668.3286],[-0.2104,42.7968,2602.2107],[-0.2145,42.7959,2576.0015],[-0.2173,42.7993,2613.8533],[-0.2374,42.8077,2817.8164],[-0.2389,42.8099,2827.8291],[-0.2378,42.8133,2643.959],[-0.2388,42.8178,2810.5881],[-0.2429,42.8208,2837.8833],[-0.2433,42.8231,2902.5364],[-0.2454,42.8224,2864.0994],[-0.2452,42.8212,2811.7922],[-0.2533,42.8192,2719.0825],[-0.2729,42.8273,2831.4392],[-0.2785,42.8358,2706.0374],[-0.3064,42.8413,2559.3738],[-0.313,42.8475,2724.9722],[-0.3196,42.842,2462.6689],[-0.3212,42.8361,2431.2112],[-0.323,42.8364,2505.9229],[-0.3249,42.8342,2490.6838],[-0.3301,42.8341,2663.4377],[-0.3353,42.8372,2615.6597],[-0.3419,42.8351,2386.6504],[-0.3474,42.8354,2490.813],[-0.3508,42.8334,2382.6807],[-0.365,42.8163,2586.2695],[-0.3842,42.8039,2235.9927],[-0.3848,42.8013,2205.9441],[-0.3925,42.8001,2005.1305],[-0.3946,42.8021,1929.4297],[-0.4081,42.8059,2023.4386],[-0.4146,42.8054,1857.1952],[-0.4303,42.7989,2070.8843],[-0.4396,42.7971,2144.8708],[-0.4405,42.7955,2208.1875],[-0.4449,42.796,2195.1702],[-0.4493,42.8001,2229.6328],[-0.4786,42.8097,2222.856],[-0.4815,42.8132,2152.9624],[-0.4929,42.8167,2167.667],[-0.4985,42.8205,2245.2073],[-0.5025,42.8275,2239.0271],[-0.5101,42.8249,2188.0205],[-0.5139,42.8184,2195.6416],[-0.5241,42.8113,2093.5024],[-0.5254,42.8025,1879.6182],[-0.5231,42.7987,1671.3611],[-0.5297,42.7915,1675.8982],[-0.5373,42.7922,1694.2942],[-0.5444,42.7906,1670.853],[-0.5491,42.7849,1652.302],[-0.551,42.7777,1843.5669],[-0.5529,42.7802,1820.1359],[-0.5537,42.7791,1820.1359],[-0.5677,42.7809,1737.1755],[-0.5702,42.7844,1613.9116],[-0.5704,42.7908,1615.0162],[-0.5657,42.798,1602.3816],[-0.5676,42.8044,1677.7161],[-0.5736,42.8074,1623.4271],[-0.5919,42.8023,1757.4874],[-0.6004,42.8025,1874.3806],[-0.602,42.8256,2007.0144],[-0.6042,42.8281,2105.2642],[-0.6023,42.8301,2129.6958],[-0.6199,42.8379,2070.5205],[-0.6355,42.8526,2084.6748],[-0.6487,42.8551,1991.5955],[-0.6562,42.8588,1958.4569],[-0.662,42.8646,1983.0013],[-0.663,42.871,2054.2673],[-0.6794,42.8829,2050.7612],[-0.6984,42.879,2066.6646],[-0.7121,42.8851,1989.0723],[-0.7175,42.8858,2009.9351],[-0.7236,42.8895,1998.6853],[-0.7251,42.8924,1904.6938],[-0.7278,42.8925,1904.4092],[-0.7277,42.8943,1949.8464],[-0.733,42.898,2095.3474],[-0.732,42.901,2231.3687],[-0.735,42.9117,2180.5652],[-0.7275,42.9193,2385.2422],[-0.7441,42.9192,2274.8237],[-0.7458,42.9219,2245.4558],[-0.7534,42.9245,2136.0295],[-0.7832,42.9217,1688.8188],[-0.7898,42.9186,1689.3248],[-0.789,42.9171,1734.3398],[-0.8011,42.9078,1636.4993],[-0.8191,42.9007,1868.5963],[-0.8204,42.8933,1502.5339],[-0.8192,42.8892,1562.3124],[-0.8136,42.8882,1501.1288],[-0.8162,42.8848,1498.9977],[-0.8163,42.8786,1319.3335],[-0.8147,42.8769,1307.5392],[-0.82,42.8726,1422.2842],[-0.8185,42.8694,1404.5983],[-0.821,42.8675,1376.3619],[-0.8269,42.8671,1272.5074],[-0.8373,42.8615,1609.4043],[-0.8413,42.8529,2027.163],[-0.8568,42.8469,1684.7878],[-0.8572,42.8334,1514.1462],[-0.8547,42.8289,1584.233],[-0.8514,42.8076,1661.8827],[-0.8604,42.8023,1650.1848],[-0.86,42.7986,1572.9347],[-0.8499,42.7922,1477.4155],[-0.8475,42.7859,1472.5864],[-0.8595,42.7688,1140.5966],[-0.8627,42.7691,1162.8031],[-0.8648,42.7634,1190.0994],[-0.8733,42.759,1312.7914],[-0.8892,42.7626,1344.8217],[-0.8947,42.7627,1307.8927],[-0.9005,42.7605,1195.9268],[-0.9011,42.7527,1099.2333],[-0.8994,42.7469,1094.0132],[-0.9009,42.7378,1185.1902],[-0.8968,42.7357,1162.2047],[-0.9068,42.7266,975.824],[-0.9043,42.7122,960.7166],[-0.9108,42.7097,990.9664],[-0.9155,42.7048,872.1283],[-0.9225,42.7008,713.4193],[-0.9015,42.7019,933.9446],[-0.8896,42.6947,738.4221],[-0.8801,42.694,853.8066],[-0.8818,42.6912,902.468],[-0.8799,42.6881,836.8862],[-0.8827,42.6857,885.5084],[-0.8823,42.6832,901.2346],[-0.8842,42.6825,867.6958],[-0.8877,42.6676,793.2205],[-0.8928,42.6668,669.1696],[-0.8931,42.6623,671.1271],[-0.8978,42.6618,768.8711],[-0.9021,42.6569,663.1752],[-0.9276,42.6562,790.7917],[-0.9233,42.647,703.3322],[-0.9105,42.6319,594.6853],[-0.9046,42.6129,540.5765],[-0.9055,42.61,543.369],[-0.9086,42.6097,542.3357],[-0.9108,42.6041,528.8927],[-0.9146,42.6023,525.3746],[-0.9048,42.6008,532.2584],[-0.9086,42.5871,590.144],[-0.9248,42.588,608.1142],[-0.9341,42.5727,750.7037],[-0.9306,42.5704,679.6672],[-0.9216,42.5712,803.8511],[-0.9232,42.5641,802.2823],[-0.9197,42.5632,786.7969],[-0.9186,42.5553,704.3936],[-0.9082,42.5592,684.026],[-0.8993,42.56,818.7483],[-0.8951,42.5509,770.535],[-0.8966,42.5399,878.1522],[-0.9164,42.5373,921.0751],[-0.9287,42.5206,985.4415],[-0.9295,42.5131,925.965],[-0.9332,42.5103,936.8062],[-0.9334,42.5059,915.5759],[-0.9266,42.5028,1006.0823],[-0.9132,42.5038,1221.7767],[-0.9115,42.5081,1206.0981],[-0.8991,42.5121,1032.6492],[-0.893,42.5099,1162.613],[-0.8914,42.5049,1208.3535],[-0.8939,42.5005,1207.9504],[-0.893,42.4938,1071.0322],[-0.8903,42.4904,1024.9834],[-0.897,42.4791,1158.9741],[-0.8901,42.4764,1053.8616],[-0.8796,42.4697,913.2439],[-0.8772,42.4666,887.973],[-0.8777,42.4617,851.496],[-0.8819,42.4571,984.1432],[-0.8616,42.4468,873.6006],[-0.8496,42.4434,803.5475],[-0.8513,42.4347,916.0998],[-0.8482,42.4341,886.8728],[-0.8421,42.4285,916.9099],[-0.8399,42.4282,953.0824],[-0.8393,42.4263,963.1302],[-0.8345,42.426,936.4273],[-0.8283,42.4316,685.8113],[-0.8278,42.4353,751.4508],[-0.8228,42.4413,865.7168],[-0.8124,42.4342,818.9132],[-0.8044,42.432,788.443],[-0.8006,42.4339,682.7206],[-0.7858,42.4302,681.9376],[-0.785,42.4333,722.4304],[-0.7812,42.4358,736.0928],[-0.7833,42.4397,740.5397],[-0.7898,42.4427,686.0703],[-0.8212,42.447,771.0509],[-0.826,42.4513,787.6046],[-0.8216,42.4584,895.6371],[-0.8164,42.456,865.2836],[-0.8031,42.455,832.1251],[-0.7962,42.4527,691.6392],[-0.779,42.4624,881.5087],[-0.7525,42.4532,721.2723],[-0.7428,42.4518,762.9808],[-0.7316,42.4542,890.8716],[-0.7174,42.4705,886.1728],[-0.7139,42.4723,905.2887],[-0.7143,42.4785,948.7422],[-0.7187,42.4837,931.6714],[-0.7151,42.4889,952.4447],[-0.7077,42.4888,988.7753],[-0.7023,42.5067,1353.6786],[-0.6919,42.507,1345.1504],[-0.6834,42.5051,1277.6501],[-0.6814,42.4968,989.5495],[-0.691,42.4964,995.6523],[-0.6932,42.4933,952.9692],[-0.6918,42.4911,931.2122],[-0.7016,42.4895,951.9156],[-0.6986,42.4854,910.3218],[-0.6944,42.4836,892.5507],[-0.689,42.4851,892.8368],[-0.6841,42.4828,904.3334],[-0.6817,42.4693,828.698],[-0.6707,42.4671,899.3063],[-0.6733,42.4584,892.9128],[-0.66,42.4476,764.4093],[-0.6566,42.435,650.0805],[-0.6477,42.4268,676.9363],[-0.6543,42.4164,769.3907],[-0.6577,42.4148,874.58],[-0.6565,42.4093,797.9654],[-0.6634,42.4083,798.8453],[-0.6759,42.3988,690.5466],[-0.6689,42.3951,562.1794],[-0.6684,42.3932,580.6331],[-0.6529,42.386,928.0009],[-0.6438,42.3875,1029.3118],[-0.6406,42.3859,1029.3373],[-0.6105,42.3824,1069.6849],[-0.5988,42.387,973.8394],[-0.5822,42.3899,854.9402],[-0.5802,42.3914,888.7357],[-0.5684,42.3907,821.8764],[-0.5661,42.3843,1022.5597],[-0.5538,42.3803,1193.167],[-0.5208,42.3547,1419.2393],[-0.5116,42.3502,1378.6383],[-0.49,42.3465,1405.9489],[-0.471,42.3362,1538.7355],[-0.4685,42.3393,1499.9968],[-0.4628,42.34,1477.9344],[-0.4481,42.3392,1472.0474],[-0.4438,42.3408,1457.5909],[-0.4378,42.3392,1467.5415],[-0.4192,42.3413,1446.2513],[-0.4174,42.3378,1429.7604],[-0.398,42.3385,1344.8162],[-0.3965,42.337,1247.3682],[-0.3985,42.3283,1293.1523],[-0.3951,42.327,1311.1694],[-0.3721,42.3285,1049.0909],[-0.3698,42.327,1032.3865],[-0.3699,42.3384,1370.6166],[-0.3636,42.3473,1432.8035],[-0.3557,42.3485,1427.5181],[-0.345,42.3477,1428.7484],[-0.3356,42.3499,1400.0815],[-0.3249,42.3475,1389.7664],[-0.3231,42.3439,1432.4799],[-0.3198,42.3449,1405.0305],[-0.3171,42.3433,1366.7886],[-0.3059,42.3436,1391.4254],[-0.301,42.3372,1381.7386],[-0.3041,42.3292,1328.7839],[-0.2949,42.3241,1322.0415],[-0.2847,42.3286,1210.7419],[-0.2813,42.3239,1295.3245],[-0.2764,42.3231,1301.0728],[-0.2762,42.3251,1311.2795],[-0.2718,42.3273,1308.4026],[-0.2741,42.3324,1300.3306],[-0.2717,42.3335,1250.9336],[-0.2743,42.3339,1313.0967],[-0.2705,42.3411,1339.4551],[-0.2631,42.3427,1339.0565],[-0.2597,42.3422,1326.6151],[-0.257,42.339,1217.5945],[-0.25,42.3405,1110.3386],[-0.2442,42.3385,1190.0674],[-0.2365,42.3385,1297.7261],[-0.2295,42.3323,1289.8291],[-0.231,42.3314,1260.4774],[-0.23,42.3283,1102.2163],[-0.232,42.3236,1026.3646],[-0.2349,42.3223,1029.6656],[-0.2217,42.3134,1215.4553],[-0.2205,42.3093,1122.1335],[-0.2226,42.3057,1084.0406],[-0.2142,42.3036,1336.2119],[-0.2022,42.3031,1407.1426],[-0.1937,42.305,1423.1932],[-0.1923,42.299,1503.3103],[-0.1759,42.2978,1677.6884],[-0.1685,42.2987,1684.613],[-0.1658,42.3136,1376.0179],[-0.1761,42.3309,1168.4177],[-0.1706,42.3324,1185.0312],[-0.172,42.3355,1254.574],[-0.1589,42.3396,1170.9907],[-0.1535,42.3461,1145.9778],[-0.1413,42.3438,1277.714],[-0.1521,42.3418,1075.1013],[-0.1491,42.3366,1023.4427],[-0.1496,42.3341,1009.3964],[-0.1643,42.3116,1421.4556],[-0.1675,42.2938,1670.9332],[-0.1612,42.294,1669.3097],[-0.1576,42.2986,1644.343],[-0.1368,42.3076,1281.8812],[-0.1311,42.3155,917.4784],[-0.1218,42.3187,1022.5542],[-0.0992,42.3333,1169.4443],[-0.0933,42.3355,1190.0679],[-0.0878,42.3317,1222.3855],[-0.0834,42.333,1206.6292],[-0.0791,42.3397,1111.329],[-0.0986,42.3417,1085.3721],[-0.122,42.3542,1045.5741],[-0.1234,42.3563,1050.3231],[-0.1255,42.3562,1064.5836],[-0.1268,42.3588,1074.2069],[-0.1135,42.3654,1096.1062],[-0.1142,42.3691,1152.1117],[-0.13,42.372,1314.2869],[-0.1292,42.3737,1326.3185],[-0.1246,42.3746,1360.5392],[-0.1139,42.375,1361.4415],[-0.1147,42.3763,1323.8706],[-0.1095,42.3778,1280.6676],[-0.1004,42.3848,1142.3811],[-0.0977,42.389,1148.9839],[-0.1066,42.3905,1222.0767],[-0.1048,42.3989,1196.6709],[-0.1025,42.4008,1199.0667],[-0.0974,42.4,1207.0959],[-0.0883,42.4037,1186.2423],[-0.089,42.4048,1215.8022],[-0.0785,42.4058,1209.4501],[-0.0709,42.4131,1425.4338],[-0.0658,42.422,1630.7168],[-0.0714,42.4254,1628.1359],[-0.0721,42.4274,1573.8301],[-0.0859,42.4286,1741.6787],[-0.1234,42.4369,1724.8708],[-0.1288,42.443,1650.6689],[-0.1286,42.4491,1550.0267],[-0.1327,42.4565,1559.2068],[-0.1313,42.4611,1716.9683],[-0.1341,42.4651,1865.0306],[-0.1392,42.4657,1852.4963],[-0.1537,42.4715,1886.3134],[-0.1608,42.4679,1844.9131],[-0.1639,42.4679,1808.6019],[-0.174,42.4727,1618.3743],[-0.179,42.4687,1464.9872],[-0.1762,42.4735,1547.3958],[-0.1769,42.4765,1589.1997],[-0.1824,42.4773,1555.6461],[-0.1795,42.4844,1563.0565],[-0.1829,42.4916,1431.3335],[-0.1754,42.4935,1307.4305],[-0.1747,42.5028,1626.4883],[-0.1798,42.5053,1617.6528],[-0.1821,42.5142,1304.0109],[-0.1875,42.5184,1208.3452],[-0.1899,42.5231,1121.2239],[-0.1884,42.5306,1354.2737],[-0.1847,42.5345,1205.7778]]]]}}