{"type": "Feature","bbox": [-7.1588,38.008,-6.3535,38.5753],"geometry": {"type": "MultiPolygon","coordinates": [[[[-6.4475,38.0437,603.0715],[-6.4436,38.0476,643.6638],[-6.4523,38.056,635.5152],[-6.4431,38.0592,830.2115],[-6.4357,38.0575,840.2869],[-6.4138,38.0586,905.6774],[-6.4022,38.0525,919.6653],[-6.3883,38.0481,1000.3171],[-6.3671,38.0489,999.534],[-6.3671,38.0461,1035.3918],[-6.3629,38.0431,1029.5082],[-6.3614,38.0372,906.6299],[-6.3614,38.0454,1035.0308],[-6.3633,38.0498,938.7414],[-6.3606,38.0559,879.3642],[-6.3633,38.0644,784.5387],[-6.3603,38.0697,698.687],[-6.3617,38.0741,702.828],[-6.3585,38.0758,678.8882],[-6.3625,38.0805,648.7178],[-6.3596,38.0804,634.648],[-6.3589,38.0832,643.7562],[-6.3616,38.0837,642.5583],[-6.3554,38.0863,600.1511],[-6.3556,38.0883,596.7128],[-6.3535,38.0894,592.0953],[-6.3554,38.0931,588.1077],[-6.3552,38.1021,590.3018],[-6.3602,38.1054,579.0405],[-6.3692,38.1059,551.1995],[-6.3683,38.1083,533.6864],[-6.378,38.1169,529.9869],[-6.3784,38.1193,501.9824],[-6.3752,38.1215,533.8618],[-6.3679,38.1335,651.3055],[-6.363,38.1384,646.6476],[-6.3614,38.1432,637.8673],[-6.369,38.1571,584.2605],[-6.374,38.1714,579.0586],[-6.3727,38.1866,572.8822],[-6.3904,38.2026,550.5345],[-6.3949,38.2022,532.2849],[-6.3996,38.1991,522.0898],[-6.4082,38.2039,505.412],[-6.413,38.2156,500.9916],[-6.4164,38.2136,495.123],[-6.4181,38.1986,464.0859],[-6.4251,38.1779,440.4806],[-6.4286,38.1803,436.6525],[-6.4295,38.1832,444.7027],[-6.4269,38.1929,431.9159],[-6.427,38.1998,434.253],[-6.4377,38.2048,419.1724],[-6.4419,38.2023,408.6966],[-6.4462,38.2039,409.301],[-6.4471,38.2094,420.15],[-6.4499,38.2117,406.8341],[-6.4562,38.2112,417.43],[-6.4609,38.2147,399.767],[-6.4641,38.2124,396.4749],[-6.4665,38.2148,394.851],[-6.471,38.2141,388.9036],[-6.4768,38.2193,386.7694],[-6.477,38.224,386.6238],[-6.4718,38.2294,382.8106],[-6.4754,38.2391,378.3635],[-6.4739,38.2426,374.6311],[-6.476,38.2452,371.5583],[-6.4864,38.2504,366.9504],[-6.5017,38.2531,370.913],[-6.5063,38.2595,358.0677],[-6.5107,38.2591,356.4018],[-6.5132,38.2549,353.5724],[-6.5176,38.2552,349.6524],[-6.5237,38.2653,345.8378],[-6.5301,38.2667,339.1669],[-6.5271,38.277,341.2441],[-6.5359,38.2827,329.5373],[-6.549,38.2794,318.7585],[-6.5526,38.28,317.9502],[-6.5552,38.282,334.3505],[-6.5542,38.2875,315.0467],[-6.5616,38.293,319.8557],[-6.5646,38.2996,309.827],[-6.5778,38.3065,306.0496],[-6.5722,38.3083,312.0858],[-6.5629,38.3065,320.0927],[-6.5604,38.3093,330.6303],[-6.563,38.3152,315.7443],[-6.555,38.3131,325.7759],[-6.5481,38.3157,325.4434],[-6.5424,38.3123,340.2612],[-6.5391,38.308,328.2097],[-6.5363,38.3079,349.7423],[-6.5358,38.31,350.1785],[-6.539,38.3115,335.1484],[-6.5385,38.3142,339.8967],[-6.5352,38.316,343.4697],[-6.5282,38.3142,340.3527],[-6.5237,38.3202,345.9747],[-6.5179,38.3186,355.267],[-6.5126,38.3203,350.5829],[-6.5121,38.3162,362.1786],[-6.5099,38.3146,355.6824],[-6.5049,38.3161,360.7674],[-6.5019,38.3147,358.8259],[-6.4969,38.3154,364.8444],[-6.5029,38.3285,445.7464],[-6.5124,38.3346,384.1021],[-6.5087,38.342,410.0293],[-6.51,38.3465,420.2825],[-6.5084,38.3528,431.8105],[-6.5118,38.3544,462.0794],[-6.5102,38.3651,466.8012],[-6.5034,38.3707,510.657],[-6.4911,38.3758,565.1495],[-6.4934,38.3881,641.1618],[-6.4909,38.3937,638.1635],[-6.4916,38.396,678.5648],[-6.4965,38.3992,699.9109],[-6.4982,38.4023,711.761],[-6.4969,38.4032,690.8984],[-6.5001,38.408,646.6688],[-6.4999,38.4095,650.7395],[-6.4949,38.4123,654.3456],[-6.4959,38.4174,719.4214],[-6.5155,38.4374,689.2413],[-6.5221,38.4353,688.4777],[-6.5281,38.4422,700.8727],[-6.5332,38.4416,687.5418],[-6.5395,38.4459,669.0128],[-6.546,38.4457,646.5927],[-6.5528,38.4399,563.6937],[-6.5563,38.4422,555.7162],[-6.5657,38.439,582.205],[-6.5663,38.4371,586.1985],[-6.5726,38.4384,625.6868],[-6.5735,38.4361,601.914],[-6.5757,38.436,605.7872],[-6.5763,38.4379,612.3534],[-6.5813,38.4388,621.7366],[-6.5973,38.4466,624.354],[-6.6023,38.4529,644.1263],[-6.6121,38.4554,632.0288],[-6.6181,38.4593,655.4903],[-6.6291,38.455,669.9343],[-6.6328,38.4552,683.744],[-6.6403,38.4497,748.5234],[-6.644,38.4489,778.6058],[-6.6478,38.4509,785.2797],[-6.6684,38.449,736.016],[-6.6826,38.4532,675.5435],[-6.7273,38.4557,546.5594],[-6.7249,38.4684,583.4215],[-6.7259,38.4736,605.1588],[-6.7199,38.4883,668.664],[-6.7186,38.5022,739.8854],[-6.7368,38.5226,585.9745],[-6.7384,38.5299,492.5717],[-6.7548,38.5415,409.8801],[-6.7577,38.5406,414.2774],[-6.7613,38.543,419.0473],[-6.7692,38.5502,480.4613],[-6.771,38.5542,554.0817],[-6.7893,38.5575,573.0088],[-6.7908,38.556399999999996,494.8516],[-6.793,38.5617,501.8024],[-6.8011,38.5684,461.5505],[-6.8188,38.5753,464.0941],[-6.8272,38.5539,619.0143],[-6.8483,38.5448,434.8967],[-6.8565,38.546,431.6254],[-6.8662,38.5565,417.2337],[-6.8694,38.5552,417.2878],[-6.872,38.5574,411.3573],[-6.8819,38.5569,404.2457],[-6.8913,38.5549,399.1945],[-6.8945,38.5555,381.4732],[-6.8961,38.5583,381.1931],[-6.9013,38.5604,375.8686],[-6.9055,38.5595,365.6332],[-6.9099,38.5615,357.3418],[-6.9168,38.5591,347.3611],[-6.9173,38.5614,343.5575],[-6.9219,38.564,342.0106],[-6.931,38.5617,335.8356],[-6.9415,38.5656,321.6391],[-6.9449,38.5706,320.4152],[-6.949,38.5696,312.3713],[-6.9508,38.5675,310.4515],[-6.9565,38.568,305.678],[-6.9526,38.5593,374.9549],[-6.9563,38.5445,364.9304],[-6.9558,38.5408,393.4469],[-6.9619,38.5186,416.4979],[-6.9649,38.5143,428.2435],[-6.9647,38.5056,400.4848],[-6.9694,38.5002,389.3942],[-6.9734,38.4879,361.0983],[-6.9724,38.4792,352.0986],[-6.9664,38.4659,326.2677],[-6.9588,38.4672,331.0823],[-6.955,38.4625,327.4863],[-6.9438,38.4587,340.7631],[-6.9379,38.4441,450.7984],[-6.9403,38.4406,434.0144],[-6.9398,38.4294,360.2684],[-6.9466,38.4268,352.3417],[-6.9543,38.4187,342.2291],[-6.957,38.4138,341.3187],[-6.9573,38.4087,339.9084],[-6.9605,38.4077,327.5239],[-6.9616,38.3984,326.0086],[-6.9643,38.3935,329.0994],[-6.9663,38.3937,317.6837],[-6.9694,38.3868,314.16],[-6.9682,38.3856,320.3024],[-6.9727,38.3838,312.8603],[-6.9767,38.3762,299.506],[-6.9881,38.3752,286.4537],[-6.9909,38.3704,293.8144],[-6.996,38.3713,286.6528],[-6.9982,38.3683,278.7166],[-6.9976,38.3639,278.3073],[-7.0015,38.3642,279.0907],[-7.0025,38.3672,275.4391],[-7.0067,38.364,270.7613],[-7.0058,38.3606,271.3395],[-7.0085,38.3583,268.929],[-7.0048,38.357,268.8724],[-7.0052,38.355,274.4297],[-7.0072,38.3536,268.9068],[-7.0073,38.3511,271.3403],[-7.0121,38.3515,275.0294],[-7.0113,38.3488,263.6047],[-7.0148,38.3459,256.8433],[-7.0112,38.3397,259.0148],[-7.0136,38.3356,252.6119],[-7.0204,38.3322,251.972],[-7.0287,38.3245,248.8234],[-7.0283,38.317,242.4207],[-7.0343,38.3157,239.9736],[-7.0379,38.313,238.6051],[-7.0391,38.3094,237.8863],[-7.046,38.3095,236.9536],[-7.0465,38.3078,233.9193],[-7.0432,38.3052,232.9042],[-7.0431,38.3027,234.7634],[-7.0451,38.3009,237.0463],[-7.0422,38.2978,247.3561],[-7.0492,38.2967,235.4769],[-7.0466,38.2931,232.7767],[-7.0551,38.2906,225.375],[-7.0592,38.294,234.2747],[-7.0608,38.2927,228.4445],[-7.0661,38.2948,223.4493],[-7.0666,38.2963,220.1238],[-7.0634,38.2967,220.2505],[-7.0649,38.2981,222.9388],[-7.068,38.2966,218.509],[-7.0725,38.2907,215.8225],[-7.0762,38.2927,218.1333],[-7.076,38.2893,211.8235],[-7.0785,38.2879,213.8906],[-7.0858,38.2946,208.983],[-7.0816,38.2951,217.7585],[-7.0816,38.2981,214.3645],[-7.087,38.2972,207.7034],[-7.0907,38.2934,215.1352],[-7.0929,38.2931,211.4052],[-7.0941,38.2981,203.674],[-7.0984,38.2969,204.7952],[-7.1065,38.2993,208.2138],[-7.1085,38.2974,201.0846],[-7.111,38.298,208.3217],[-7.1116,38.3036,196.0266],[-7.1193,38.2964,213.5356],[-7.1177,38.3024,208.8253],[-7.1201,38.3033,195.9285],[-7.1255,38.2967,192.0584],[-7.1248,38.2944,197.808],[-7.1291,38.2964,188.0981],[-7.1315,38.2958,195.8798],[-7.144,38.284,202.9879],[-7.1499,38.2816,216.1005],[-7.153,38.2837,201.635],[-7.1556,38.2827,189.0617],[-7.1584,38.284,205.2791],[-7.1588,38.2795,174.1424],[-7.1555,38.2788,227.0082],[-7.1557,38.276,186.889],[-7.1506,38.2758,197.5784],[-7.1534,38.2736,189.3736],[-7.1518,38.2723,189.3736],[-7.1535,38.2706,194.4321],[-7.1527,38.2679,181.931],[-7.15,38.2685,194.1363],[-7.1499,38.2701,216.935],[-7.1475,38.27,210.6238],[-7.147,38.2689,210.6238],[-7.1487,38.2685,196.0632],[-7.1459,38.2653,200.8385],[-7.1472,38.2627,200.8934],[-7.145,38.2636,208.7508],[-7.143,38.2617,207.5693],[-7.1452,38.2583,210.0726],[-7.1427,38.2556,218.5281],[-7.1448,38.2509,213.9547],[-7.1432,38.2489,218.576],[-7.1429,38.2406,224.577],[-7.1384,38.2332,249.6141],[-7.1344,38.2271,265.5463],[-7.1238,38.217,257.4818],[-7.122,38.2127,239.4707],[-7.1178,38.2114,227.0611],[-7.1158,38.2064,212.2364],[-7.1127,38.2063,203.0803],[-7.1136,38.2034,189.1031],[-7.1106,38.199,182.519],[-7.1099,38.1936,186.2757],[-7.1071,38.1926,168.8274],[-7.1078,38.1878,146.7229],[-7.1027,38.1868,148.0816],[-7.1002,38.1814,146.6291],[-7.0972,38.179,145.2055],[-7.0892,38.1786,151.6515],[-7.0851,38.1692,148.1717],[-7.0752,38.1765,164.4782],[-7.0662,38.179,168.2082],[-7.0652,38.1828,166.2216],[-7.0663,38.1865,154.232],[-7.058,38.1866,158.0263],[-7.056,38.1853,157.8447],[-7.0552,38.1831,158.4129],[-7.0599,38.1797,160.1112],[-7.0594,38.1777,162.312],[-7.0561,38.1802,159.7578],[-7.0519,38.1795,162.6154],[-7.0479,38.1809,159.6037],[-7.0435,38.1873,164.9681],[-7.0373,38.1864,164.5148],[-7.0286,38.1825,170.0607],[-7.0212,38.1867,173.7782],[-7.0171,38.1918,230.6286],[-7.0167,38.1972,174.8795],[-7.0104,38.1958,172.6849],[-7.0093,38.1984,184.1787],[-7.0118,38.2029,191.2897],[-7.0112,38.2045,173.0606],[-6.9952,38.2038,177.4691],[-6.9805,38.2113,186.7568],[-6.9781,38.2068,191.0818],[-6.972,38.2021,178.7521],[-6.9566,38.217,188.2665],[-6.9477,38.2177,204.2844],[-6.9496,38.2128,188.7147],[-6.9465,38.2117,215.3551],[-6.9423,38.2181,189.6409],[-6.9367,38.2207,197.658],[-6.9357,38.2193,189.2237],[-6.9383,38.2122,191.124],[-6.9378,38.2069,207.1048],[-6.932,38.2085,192.7621],[-6.9268,38.2044,196.6213],[-6.9246,38.2053,202.1063],[-6.925,38.2019,224.1095],[-6.9223,38.2003,267.7706],[-6.9014,38.2013,268.0352],[-6.8979,38.1985,313.3292],[-6.8941,38.198,306.4382],[-6.8923,38.1954,329.7775],[-6.8828,38.1933,439.5763],[-6.858,38.1799,506.9176],[-6.8222,38.1738,535.4152],[-6.8056,38.1787,483.2438],[-6.795,38.1785,511.2678],[-6.7927,38.173,527.9089],[-6.7928,38.1666,543.1768],[-6.7943,38.1596,512.0295],[-6.7988,38.1552,503.8661],[-6.7994,38.1438,454.369],[-6.8101,38.1327,432.7388],[-6.8157,38.1201,299.3158],[-6.8082,38.1112,305.3397],[-6.7998,38.1148,312.7251],[-6.7977,38.1139,329.9942],[-6.7972,38.1107,309.8933],[-6.789,38.1092,318.9848],[-6.7847,38.1116,324.5603],[-6.7822,38.1118,326.3334],[-6.7799,38.109,326.8892],[-6.7753,38.1125,351.2434],[-6.7696,38.112,328.1364],[-6.7735,38.1047,355.3935],[-6.7716,38.1032,350.1887],[-6.7648,38.106,345.0411],[-6.7644,38.1024,348.0635],[-6.7699,38.0997,344.715],[-6.7609,38.0979,350.3801],[-6.7581,38.0927,353.2339],[-6.7544,38.095,361.328],[-6.7472,38.0914,368.5336],[-6.7421,38.0933,365.6096],[-6.7319,38.0901,374.5321],[-6.7303,38.0924,373.1555],[-6.735,38.0935,387.2269],[-6.7284,38.1,386.8429],[-6.7265,38.0973,384.4555],[-6.7236,38.0971,384.4797],[-6.7196,38.1006,403.1516],[-6.7168,38.0999,391.4069],[-6.7153,38.0926,399.9966],[-6.7068,38.0965,405.7301],[-6.6917,38.095,422.7366],[-6.6898,38.1,415.9017],[-6.682,38.0968,435.4359],[-6.6799,38.0974,440.4906],[-6.6761,38.0953,458.9095],[-6.6609,38.0925,448.2944],[-6.6592,38.0926,448.4308],[-6.6586,38.0953,458.9878],[-6.6536,38.0965,463.2279],[-6.65,38.0953,461.6547],[-6.6513,38.0931,459.5531],[-6.6492,38.09,475.4662],[-6.646,38.0913,466.5022],[-6.6416,38.0976,481.1055],[-6.6372,38.0962,480.0225],[-6.6271,38.0983,490.2544],[-6.6223,38.0972,504.5787],[-6.6123,38.0859,553.2062],[-6.6073,38.0834,562.1466],[-6.604,38.0773,592.7985],[-6.5994,38.075,599.2308],[-6.5942,38.0669,602.2157],[-6.5804,38.0528,713.4008],[-6.5843,38.0442,740.9225],[-6.5837,38.0343,692.1091],[-6.587,38.0268,726.2172],[-6.5846,38.0266,707.507],[-6.586,38.0237,732.3811],[-6.5822,38.0209,722.3455],[-6.5787,38.0221,667.4398],[-6.572,38.0202,658.0872],[-6.5695,38.0227,632.3917],[-6.5714,38.0241,656.29],[-6.5651,38.027,668.9355],[-6.5456,38.0281,768.2253],[-6.5247,38.0215,691.0699],[-6.4949,38.0191,509.3337],[-6.4927,38.0164,435.3081],[-6.4955,38.0152,442.7677],[-6.4916,38.0121,423.0296],[-6.4916,38.0095,422.0585],[-6.4842,38.008,468.341],[-6.4799,38.0096,507.4937],[-6.4785,38.0081,493.1932],[-6.4704,38.01,505.5656],[-6.4692,38.0121,530.9015],[-6.4653,38.011,529.3533],[-6.4646,38.0138,651.0005],[-6.4721,38.0158,612.5049],[-6.4737,38.0244,804.7114],[-6.4695,38.0311,645.1815],[-6.4657,38.0322,589.251],[-6.4657,38.0353,563.429],[-6.461,38.0357,555.2654],[-6.4522,38.0429,585.1572],[-6.4475,38.0437,603.0715]]]]}
,"properties": {"GID_3": "ESP.11.1.9_1","GID_0": "ESP","country": "Spain","GID_1": "ESP.11_1","province": "Extremadura","NL_NAME_1": "NA","GID_2": "ESP.11.1_1","county": "Badajoz","NL_NAME_2": "NA","city": "n.a.(47)","VARNAME_3": "NA","NL_NAME_3": "NA","TYPE_3": "Comarca","ENGTYPE_3": "Comarca","CC_3": "NA","HASC_3": "NA","name": "n.a.(47).city","area_km2": 2141.84,"hist_schema_id": "Elevation0-9000","hist_area_km2": {"150": 1.017,"175": 4.666,"200": 14.459,"225": 30.594,"250": 60.259,"275": 97.952,"300": 108.547,"325": 89.014,"350": 99.848,"375": 126.351,"400": 150.857,"425": 152.222,"450": 138.643,"475": 118.818,"500": 122.99,"525": 123.405,"550": 130.385,"575": 133.484,"600": 126.896,"625": 100.566,"650": 62.724,"675": 39.706,"700": 32.584,"725": 25.622,"750": 18.258,"775": 9.424,"800": 5.824,"825": 4.44,"850": 3.355,"875": 2.721,"900": 2.354,"925": 1.719,"950": 0.935,"975": 0.551,"1000": 0.451,"1025": 0.117,"1050": 0.083}}}