{"type":"Feature","properties":{"GID_3":"ESP.2.3.7_1","GID_0":"ESP","country":"Spain","GID_1":"ESP.2_1","province":"Aragón","NL_NAME_1":"NA","GID_2":"ESP.2.3_1","county":"Zaragoza","NL_NAME_2":"NA","city":"n.a.(280)","VARNAME_3":"NA","NL_NAME_3":"NA","TYPE_3":"Comarca","ENGTYPE_3":"Comarca","CC_3":"NA","HASC_3":"NA","name":"n.a.(280).city"},
"geometry":{"type": "MultiPolygon","coordinates": [[[[-1.7143,41.7177,1382.3347],[-1.7067,41.7157,1374.7737],[-1.7027,41.7082,1294.9432],[-1.6981,41.7042,1337.562],[-1.6896,41.703,1462.5493],[-1.6842,41.7043,1469.9177],[-1.6746,41.6926,1209.8545],[-1.6637,41.6955,1226.0054],[-1.6613,41.6941,1189.2437],[-1.6407,41.6936,1013.6277],[-1.6326,41.6915,921.5066],[-1.6238,41.6967,878.6393],[-1.6187,41.6958,895.1787],[-1.6165,41.6986,902.6661],[-1.6215,41.7129,876.749],[-1.6198,41.7173,877.562],[-1.614,41.7197,899.1151],[-1.614,41.7226,855.5987],[-1.6078,41.717,842.6405],[-1.5989,41.7151,845.6288],[-1.5925,41.7173,765.799],[-1.5731,41.7285,664.903],[-1.5637,41.7377,662.7817],[-1.5626,41.7327,732.5157],[-1.5518,41.7279,787.7733],[-1.5396,41.7301,685.811],[-1.5314,41.7272,608.3358],[-1.5253,41.7294,585.9572],[-1.5082,41.7106,714.3019],[-1.4985,41.7071,629.5118],[-1.4893,41.6947,795.3],[-1.4789,41.6873,709.8323],[-1.4601,41.6851,592.5421],[-1.4534,41.6891,564.7902],[-1.4436,41.6889,540.4152],[-1.4324,41.6959,513.4375],[-1.4251,41.6977,484.208],[-1.4207,41.7042,474.1707],[-1.4105,41.7062,462.093],[-1.404,41.7103,440.5311],[-1.397,41.7114,429.0779],[-1.3896,41.7169,412.4996],[-1.3799,41.7292,399.2503],[-1.3351,41.7355,347.0217],[-1.3349,41.7407,346.0873],[-1.3388,41.7495,343.5544],[-1.3424,41.7665,341.8153],[-1.3478,41.7672,333.9456],[-1.3464,41.774,336.5222],[-1.3396,41.7761,330.0356],[-1.3212,41.8027,281.5],[-1.3173,41.8043,281.5],[-1.325,41.8167,281.5],[-1.3222,41.8178,281.5],[-1.318,41.8276,260.3987],[-1.3042,41.8366,250.2889],[-1.3045,41.84,248.6763],[-1.3009,41.846,243.4505],[-1.2981,41.8455,241.8912],[-1.2868,41.85,234.7121],[-1.2877,41.8532,229.5088],[-1.2814,41.8526,225.2964],[-1.2667,41.8591,222.921],[-1.2713,41.8656,221.5],[-1.2696,41.8713,224.8303],[-1.2714,41.8763,225.8076],[-1.2751999999999999,41.8781,230.4437],[-1.2791,41.8777,226.313],[-1.2842,41.8728,224.1105],[-1.2874,41.8741,226.8549],[-1.2984,41.8855,233.5635],[-1.3083,41.8839,231.324],[-1.3136,41.8887,230.4641],[-1.3211,41.8848,228.0762],[-1.3283,41.8901,228.6267],[-1.3294,41.8936,227.0401],[-1.3254,41.9017,228.1761],[-1.3372,41.9153,228.9689],[-1.3505,41.9185,228.7566],[-1.352,41.9216,237.8488],[-1.362,41.9286,234.7966],[-1.3617,41.9332,235.8963],[-1.3664,41.9427,244.4431],[-1.3731,41.9455,242.999],[-1.377,41.9515,244.3321],[-1.38,41.9504,238.3627],[-1.3822,41.9433,234.8879],[-1.3969,41.9389,238.6053],[-1.4035,41.9351,241.534],[-1.4022,41.9338,240.9273],[-1.4072,41.9278,247.3532],[-1.4073,41.9241,248.1144],[-1.4107,41.919,252.6824],[-1.4157,41.9169,256.8913],[-1.4182,41.9136,259.9762],[-1.4362,41.9145,264.6405],[-1.4407,41.9164,270.1837],[-1.4532,41.9157,283.3395],[-1.4739,41.9246,284.9911],[-1.5017,41.9243,321.8021],[-1.5061,41.9159,338.0152],[-1.5128,41.9149,342.6847],[-1.5233,41.9099,358.2815],[-1.5583,41.9138,415.8087],[-1.5962,41.9271,384.517],[-1.609,41.9449,391.1905],[-1.6168,41.9515,415.2617],[-1.6439,41.9591,403.4563],[-1.6541,41.9654,412.7883],[-1.6595,41.9622,410.4867],[-1.6581,41.9604,405.7086],[-1.6636,41.96,406.0953],[-1.6645,41.9624,393.5002],[-1.676,41.9665,386.0025],[-1.6769,41.9628,387.3964],[-1.6822,41.9573,392.6638],[-1.6815,41.956,394.98],[-1.6862,41.9535,399.9733],[-1.6932,41.9558,419.2847],[-1.7007,41.9539,422.128],[-1.7044,41.9572,421.2079],[-1.7152,41.957,440.094],[-1.7343,41.9639,456.2987],[-1.7668,41.9958,504.598],[-1.774,41.9955,523.8914],[-1.7853,41.9908,609.9408],[-1.7923,41.9897,630.2713],[-1.8103,41.998,685.8737],[-1.8336,41.9951,735.2466],[-1.8403,42.0042,637.2568],[-1.8471,42.008,559.6203],[-1.847,42.0025,601.6929],[-1.8513,41.9981,698.4196],[-1.844,41.9873,749.1977],[-1.8651,41.9776,604.4016],[-1.8565,41.9664,620.9856],[-1.8547,41.9592,635.0795],[-1.8565,41.946,665.1118],[-1.8549,41.9368,710.528],[-1.8585,41.9325,697.6784],[-1.8572,41.9095,722.8967],[-1.8387,41.889,745.347],[-1.8399,41.8753,694.8225],[-1.8321,41.8633,829.9583],[-1.8225,41.8654,790.5591],[-1.8202,41.8624,739.0758],[-1.8175,41.8534,814.5151],[-1.8203,41.8506,859.9607],[-1.8208,41.847,898.2296],[-1.8185,41.83,983.3869],[-1.8254,41.819,1079.8599],[-1.8338,41.8148,1177.2272],[-1.8437,41.806,1382.1313],[-1.8529,41.7896,1937.9131],[-1.8395,41.7871,2280.3779],[-1.8253,41.7784,2229.6313],[-1.8249,41.7736,2137.3247],[-1.8211,41.7661,2222.0793],[-1.8026,41.7512,1901.7893],[-1.8092,41.7367,1823.0994],[-1.7979,41.7326,1659.7954],[-1.7877,41.7341,1665.7582],[-1.7843,41.7285,1609.842],[-1.761,41.7183,1577.7803],[-1.744,41.7252,1457.3832],[-1.732,41.7231,1496.455],[-1.7306,41.7251,1512.592],[-1.7273,41.7252,1517.3966],[-1.7143,41.7177,1382.3347]]]]}}