{"type": "Feature","id": "5835","bbox": [-2.96692,35.26787,-2.91291,35.32977],"geometry": {"type": "Polygon","coordinates": [[[-2.91291,35.27692,0.6238],[-2.91291,35.27692,0.6238],[-2.9132,35.27725,0.0],[-2.92203,35.28799,0.0],[-2.94782,35.32977,0.0],[-2.96692,35.31387,138.1917],[-2.96377,35.28622,42.7935],[-2.94305,35.26787,14.7543],[-2.91291,35.27692,0.6238]]]}
,"properties": {"ISO3166-1-Alpha-3": "ESP","country": "Spain","fill": "#F0F","name": "Melilla","area_km2": 18.04903,"hist_schema_id": "Elevation0-9000","hist_area_km2": {"0": 8.82574,"25": 3.85935,"50": 1.90356,"75": 1.03818,"100": 1.43606,"125": 0.83044,"150": 0.1557}}}