{"type":"Feature","properties":{"GID_3":"ESP.12.3.3_1","GID_0":"ESP","country":"Spain","GID_1":"ESP.12_1","province":"Galicia","NL_NAME_1":"NA","GID_2":"ESP.12.3_1","county":"Ourense","NL_NAME_2":"NA","city":"n.a.(199)","VARNAME_3":"NA","NL_NAME_3":"NA","TYPE_3":"Comarca","ENGTYPE_3":"Comarca","CC_3":"NA","HASC_3":"NA","name":"n.a.(199).city"},
"geometry":{"type": "MultiPolygon","coordinates": [[[[-7.1183,41.9861,1128.2458],[-7.0875,41.9735,1116.9059],[-7.0846,41.964,1065.8881],[-7.0807,41.9574,854.2008],[-7.0769,41.9519,746.647],[-7.0734,41.95,781.6624],[-7.0654,41.9489,748.9957],[-7.0622,41.9505,754.2435],[-7.0537,41.9491,739.1119],[-7.049,41.9507,736.744],[-7.0461,41.9546,742.7148],[-7.043,41.955,744.3184],[-7.0364,41.9511,873.1997],[-7.0108,41.9494,982.6075],[-7.0062,41.9506,973.9866],[-6.9999,41.9618,987.3273],[-6.9834,41.9729,979.7968],[-6.9904,41.9826,971.0684],[-6.9915,41.9859,957.0869],[-6.9902,41.9897,976.9229],[-6.9863,41.9948,993.632],[-6.9869,41.997,1000.4512],[-6.9794,42.0002,1013.5721],[-6.9762,42.009,1052.5121],[-6.9695,42.0153,1142.9873],[-6.9663,42.0238,1373.1157],[-6.961,42.0272,1457.9175],[-6.9645,42.0337,1240.1316],[-6.973,42.0391,1343.3248],[-6.9746,42.0551,1635.1083],[-6.9945,42.0514,1306.5232],[-7.0125,42.0527,1105.5365],[-7.0219,42.0609,1353.9661],[-7.0309,42.0633,1456.5173],[-7.0339,42.0715,1413.2279],[-7.0334,42.0742,1391.1766],[-7.0199,42.0831,960.8871],[-7.0168,42.0812,981.1778],[-7.0123,42.0851,976.9111],[-7.0031,42.0839,984.5519],[-7.003,42.0877,984.0842],[-7.0002,42.0897,992.6849],[-7.002,42.091,1009.11],[-7.0027,42.0963,1006.3821],[-6.9978,42.1008,1015.8009],[-6.995,42.1016,1006.5812],[-6.9945,42.0997,1008.0562],[-6.9913,42.0995,1017.2858],[-6.9899,42.1025,1034.5],[-6.9921,42.1047,1047.0032],[-6.9917,42.1066,1067.5883],[-6.9893,42.1077,1034.5],[-6.9887,42.1119,1034.5],[-6.9908,42.1151,1034.5],[-6.989,42.1165,1048.8247],[-6.9897,42.1213,1041.3353],[-6.9863,42.1242,1042.5421],[-6.9814,42.1233,1216.0723],[-6.9732,42.1247,1325.0146],[-6.9652,42.1285,1425.8987],[-6.9563,42.1294,1405.2377],[-6.9444,42.1417,1330.9109],[-6.9465,42.1456,1215.1709],[-6.9409,42.1668,1487.2026],[-6.9434,42.1722,1520.9575],[-6.9382,42.1774,1486.8943],[-6.9146,42.1894,1601.2982],[-6.9109,42.1884,1642.772],[-6.9009,42.1896,1685.9089],[-6.8887,42.2018,1673.7828],[-6.8931,42.2072,1745.8828],[-6.8867,42.2143,1738.4387],[-6.8697,42.2237,1637.0892],[-6.8678,42.2231,1637.0892],[-6.8566,42.2271,1721.45],[-6.8435,42.2283,1625.6562],[-6.8296,42.2261,1683.8307],[-6.8158,42.2208,1761.8771],[-6.8022,42.2184,1795.7256],[-6.7966,42.209,1894.5441],[-6.7946,42.2122,1936.5544],[-6.787,42.2157,1936.5812],[-6.7908,42.2183,1889.6243],[-6.7949,42.2245,1951.6108],[-6.7949,42.2277,2007.1577],[-6.8017,42.2345,2007.4873],[-6.803,42.2387,2031.4871],[-6.8013,42.2408,2023.7168],[-6.7957,42.2423,2097.449],[-6.7928,42.2466,2064.2571],[-6.794,42.2494,2091.6934],[-6.7874,42.2542,1985.8877],[-6.7758,42.2555,2050.9526],[-6.774,42.2542,2078.9165],[-6.7669,42.2574,1938.6517],[-6.7646,42.2679,1878.0],[-6.7658,42.271,1860.0214],[-6.7552,42.2828,1791.1627],[-6.7524,42.2887,1688.3135],[-6.741,42.2986,1828.1794],[-6.743,42.3033,1782.7615],[-6.736,42.311,1811.4801],[-6.7363,42.3186,1781.9999],[-6.7396,42.3212,1781.6033],[-6.7339,42.318,1804.5729],[-6.7369,42.325,1810.7551],[-6.7406,42.3284,1844.6165],[-6.7381,42.3401,1797.9454],[-6.7389,42.3448,1775.821],[-6.7338,42.3591,1870.8273],[-6.7494,42.3628,1749.2657],[-6.7577,42.3675,1692.8053],[-6.7664,42.365,1454.1603],[-6.7688,42.373,1418.9977],[-6.774,42.3788,1441.7465],[-6.7878,42.3826,1270.2457],[-6.7958,42.382,1315.2988],[-6.8017,42.3837,1266.7361],[-6.8021,42.3863,1111.4404],[-6.8094,42.3846,1165.2904],[-6.8207,42.3856,901.6794],[-6.8233,42.3919,833.3298],[-6.8334,42.3954,516.8658],[-6.8434,42.4058,360.826],[-6.8379,42.4091,367.2704],[-6.8311,42.4083,421.0047],[-6.8288,42.4168,362.1684],[-6.8208,42.4214,420.7645],[-6.8247,42.4259,377.9111],[-6.8145,42.4269,390.3417],[-6.8216,42.4333,369.9298],[-6.8201,42.4377,372.4368],[-6.8222,42.4539,386.9343],[-6.8113,42.4612,394.4912],[-6.8085,42.4694,403.9097],[-6.8146,42.4739,610.2737],[-6.8191,42.4823,837.0959],[-6.8253,42.4857,687.856],[-6.8226,42.4908,736.3608],[-6.8266,42.4929,631.4163],[-6.8329,42.4922,481.826],[-6.8372,42.4956,512.3343],[-6.8409,42.4889,781.9115],[-6.8487,42.487,876.1375],[-6.8599,42.4887,847.1024],[-6.8766,42.4992,804.645],[-6.8971,42.5039,1020.8228],[-6.9062,42.5078,1062.7977],[-6.9131,42.5071,963.7187],[-6.9164,42.5084,973.0397],[-6.9146,42.5101,879.3885],[-6.9249,42.5194,840.0114],[-6.9321,42.5205,993.7687],[-6.9348,42.5192,1028.4612],[-6.9599,42.5177,1072.3972],[-6.9654,42.5127,1089.7563],[-6.9734,42.494,1463.8384],[-6.9789,42.4932,1501.6588],[-6.9972,42.4995,1490.2354],[-7.0006,42.502,1521.1732],[-7.0008,42.5057,1597.8171],[-7.0195,42.5015,1463.2201],[-7.0285,42.4978,1363.3859],[-7.0325,42.5043,1351.9183],[-7.0456,42.5078,1282.2769],[-7.0517,42.5086,1298.6704],[-7.0597,42.5066,1240.5942],[-7.0737,42.5067,1429.8335],[-7.0769,42.5082,1503.3953],[-7.0762,42.4965,1220.3943],[-7.0826,42.4917,1202.0824],[-7.0874,42.4851,1196.8418],[-7.0932,42.4724,1228.0283],[-7.1001,42.4678,1119.189],[-7.0999,42.4586,1011.5986],[-7.1122,42.4573,975.8995],[-7.121,42.4518,1124.979],[-7.123,42.449,1175.882],[-7.1297,42.4466,1236.2717],[-7.1307,42.441,1209.9894],[-7.1361,42.4419,1198.5005],[-7.1479,42.4371,1163.0048],[-7.1516,42.4324,1100.9106],[-7.1515,42.4264,1062.4045],[-7.147,42.4216,998.7562],[-7.1584,42.4128,831.7968],[-7.1584,42.411,831.1543],[-7.162,42.4095,804.1802],[-7.1661,42.4044,700.4103],[-7.1642,42.4019,652.0415],[-7.165,42.3959,435.841],[-7.1676,42.3925,297.3739],[-7.1717,42.3792,633.7613],[-7.1772,42.3763,679.4932],[-7.182,42.376,678.3724],[-7.1856,42.3713,676.5156],[-7.1822,42.3656,660.9357],[-7.1904,42.364,720.0422],[-7.1956,42.3526,846.0597],[-7.1938,42.3446,774.6749],[-7.1979,42.3329,323.4495],[-7.2025,42.3257,322.3183],[-7.2175,42.3369,354.0311],[-7.2308,42.3591,375.0388],[-7.2268,42.3717,342.3445],[-7.2297,42.376,300.4202],[-7.2232,42.3836,320.9467],[-7.2177,42.3847,289.9873],[-7.2199,42.3872,437.2664],[-7.2329,42.3917,664.9114],[-7.2477,42.3899,923.8087],[-7.2535,42.3952,1003.2278],[-7.2557,42.3999,1057.6984],[-7.2597,42.4031,1095.3179],[-7.2601,42.4057,1098.9235],[-7.2647,42.4075,1133.8483],[-7.2693,42.4149,1216.1632],[-7.2753,42.4119,1137.7537],[-7.2907,42.4146,1032.6475],[-7.2966,42.4234,1076.5811],[-7.3018,42.4277,1107.3643],[-7.3068,42.4294,1052.5378],[-7.3175,42.4263,976.8565],[-7.3441,42.4296,1028.2183],[-7.3481,42.429,1022.0575],[-7.3459,42.4262,1013.9765],[-7.3585,42.4266,999.3741],[-7.3697,42.4213,993.4639],[-7.382,42.4307,690.8295],[-7.3991,42.4355,327.83],[-7.4032,42.431,226.0],[-7.4017,42.4297,226.0],[-7.403,42.4288,257.6292],[-7.4352,42.4162,229.8823],[-7.4474,42.407,243.2824],[-7.4657,42.4071,276.8237],[-7.4708,42.4034,226.0],[-7.4795,42.4012,229.3498],[-7.501,42.3887,226.0],[-7.5283,42.3838,237.6122],[-7.5408,42.3844,226.0],[-7.5494,42.387,226.0],[-7.5655,42.401,226.0],[-7.5746,42.4048,226.0],[-7.595,42.3968,236.5109],[-7.6012,42.3898,226.0],[-7.6165,42.3842,255.7083],[-7.6202,42.3773,603.21],[-7.6187,42.3754,709.5109],[-7.6226,42.3695,948.512],[-7.6264,42.3675,886.1138],[-7.6268,42.3581,968.9428],[-7.6334,42.3545,1148.3365],[-7.6106,42.3502,1306.4863],[-7.6126,42.3484,1279.0547],[-7.611,42.3403,1210.735],[-7.6138,42.3372,1185.2644],[-7.6101,42.3335,1171.6184],[-7.609,42.3184,1035.0557],[-7.6053,42.3172,1024.4248],[-7.6057,42.307,962.9423],[-7.5938,42.3165,965.8101],[-7.5896,42.3113,946.493],[-7.5729,42.3126,917.2457],[-7.5809,42.2967,966.7134],[-7.574,42.2814,965.244],[-7.5735,42.2724,973.2025],[-7.5589,42.272,983.0675],[-7.5565,42.268,981.3527],[-7.5562,42.2583,913.6023],[-7.5302,42.2457,1119.8013],[-7.5293,42.2404,1080.9806],[-7.51,42.2366,1282.4081],[-7.5081,42.2225,1380.0887],[-7.4995,42.2113,1587.165],[-7.4841,42.2031,1536.2455],[-7.4842,42.1966,1515.5507],[-7.4785,42.1927,1515.4637],[-7.4643,42.1899,1477.4491],[-7.457,42.204,1272.9998],[-7.447,42.1958,1193.302],[-7.4458,42.1924,1161.0275],[-7.4196,42.1798,1056.9871],[-7.4142,42.1843,1140.8279],[-7.4048,42.1858,1233.7405],[-7.3883,42.1924,1506.3225],[-7.3773,42.173,1534.8745],[-7.382,42.1689,1469.0044],[-7.3858,42.161,1478.4098],[-7.3795,42.1536,1535.1572],[-7.375,42.1425,1392.4401],[-7.3766,42.1317,1373.4761],[-7.3699,42.1246,1387.0852],[-7.3687,42.1167,1335.7756],[-7.3534,42.1091,1316.335],[-7.3507,42.1087,1305.9087],[-7.3464,42.1111,1214.9515],[-7.3365,42.1106,1184.4139],[-7.3332,42.1118,1163.8239],[-7.3165,42.1045,1055.8175],[-7.2954,42.1027,1085.4961],[-7.2959,42.0916,878.33],[-7.2938,42.0873,898.2796],[-7.2891,42.0861,946.3635],[-7.283,42.0807,951.575],[-7.2755,42.0703,1147.521],[-7.2679,42.067,1097.0114],[-7.2677,42.0544,874.3639],[-7.2744,42.0377,1099.1573],[-7.2715,42.0292,1094.3123],[-7.2672,42.0262,1122.5573],[-7.2641,42.0188,1095.7128],[-7.2525,42.0118,880.9994],[-7.2404,42.0102,701.9272],[-7.2357,42.007,804.7163],[-7.2363,42.005,793.1123],[-7.2313,42.0002,757.5447],[-7.2318,41.9943,755.881],[-7.2295,41.9934,750.8666],[-7.2289,41.9903,762.2983],[-7.2349,41.9856,719.4335],[-7.2345,41.9805,665.0481],[-7.2228,41.9785,832.2246],[-7.2152,41.9833,826.541],[-7.2102,41.9828,770.5178],[-7.2051,41.9853,644.5538],[-7.1965,41.9814,611.7314],[-7.1966,41.979,604.2784],[-7.1947,41.9798,612.3229],[-7.1926,41.9756,597.4282],[-7.1848,41.9725,586.7473],[-7.1797,41.9792,646.8285],[-7.1774,41.9802,669.5458],[-7.1649,41.9796,648.3251],[-7.1584,41.9762,656.1356],[-7.1544,41.98,840.1616],[-7.1519,41.9866,892.0062],[-7.1414,41.9907,975.4486],[-7.1331,41.988,1042.9312],[-7.1183,41.9861,1128.2458]]]]}}