{"type":"Feature","properties":{"GID_3":"ESP.8.1.4_1","GID_0":"ESP","country":"Spain","GID_1":"ESP.8_1","province":"ComunidaddeMadrid","NL_NAME_1":"NA","GID_2":"ESP.8.1_1","county":"Madrid","NL_NAME_2":"NA","city":"n.a.(178)","VARNAME_3":"NA","NL_NAME_3":"NA","TYPE_3":"Comarca","ENGTYPE_3":"Comarca","CC_3":"NA","HASC_3":"NA","name":"n.a.(178).city"},
"geometry":{"type": "MultiPolygon","coordinates": [[[[-3.8527,40.1697,633.9913],[-3.841,40.1625,625.5037],[-3.835,40.1613,626.5306],[-3.8173,40.1714,605.0983],[-3.8102,40.1691,602.7887],[-3.806,40.1775,620.853],[-3.8001,40.1757,608.6429],[-3.7842,40.1627,596.1046],[-3.7789,40.1558,586.3063],[-3.7781,40.1476,585.2499],[-3.7723,40.1421,575.5593],[-3.7718,40.1396,569.5214],[-3.745,40.1327,686.5609],[-3.7206,40.148,665.5204],[-3.7122,40.1428,651.3415],[-3.7128,40.1419,649.1315],[-3.691,40.1328,671.5949],[-3.6836,40.1325,664.4745],[-3.6783,40.1391,670.1189],[-3.6669,40.1435,631.7415],[-3.6599,40.1441,632.5513],[-3.6523,40.1563,614.2151],[-3.6389,40.1656,598.1799],[-3.6358,40.1662,592.9717],[-3.6355,40.1705,579.7955],[-3.6399,40.1701,590.3954],[-3.6465,40.1764,595.3271],[-3.6366,40.1784,567.1126],[-3.6321,40.1772,545.7263],[-3.6079,40.1606,517.7026],[-3.6033,40.1618,516.4888],[-3.5915,40.1964,530.9917],[-3.5943,40.2027,546.7692],[-3.6042,40.2041,585.173],[-3.6138,40.2093,600.4677],[-3.6226,40.2188,629.4647],[-3.6305,40.2232,643.6259],[-3.6346,40.2237,630.5945],[-3.6442,40.2297,603.0323],[-3.6639,40.2209,631.0228],[-3.6766,40.2202,629.9723],[-3.6925,40.2116,642.2917],[-3.6998,40.1991,636.2328],[-3.7139,40.2056,627.5254],[-3.7332,40.2112,615.1082],[-3.739,40.2164,620.9015],[-3.7376,40.2214,614.9789],[-3.7393,40.2304,619.0165],[-3.736,40.2531,621.3479],[-3.7472,40.2549,646.6481],[-3.7414,40.2715,612.8085],[-3.7545,40.2779,618.4866],[-3.7614,40.2943,661.3865],[-3.7665,40.295,655.4194],[-3.7744,40.2931,638.7719],[-3.778,40.2957,651.4995],[-3.8032,40.2987,680.0991],[-3.8089,40.3016,689.8538],[-3.8119,40.3037,690.4698],[-3.8121,40.3124,687.6796],[-3.8177,40.3277,704.6301],[-3.8468,40.3242,667.2808],[-3.8542,40.3305,678.3527],[-3.8591,40.3434,677.955],[-3.8668,40.3469,683.7296],[-3.8677,40.3535,697.4979],[-3.8816,40.3541,694.6206],[-3.8967,40.3489,659.0715],[-3.8988,40.3496,656.0872],[-3.9063,40.3442,650.3748],[-3.9133,40.3428,652.3239],[-3.9178,40.3388,655.7722],[-3.9224,40.3397,656.4183],[-3.9342,40.3375,629.3405],[-3.9323,40.3335,644.7469],[-3.9346,40.3303,629.0789],[-3.9453,40.3231,568.2882],[-3.9426,40.3184,565.751],[-3.9452,40.3097,561.5045],[-3.942,40.3062,561.0803],[-3.9415,40.3007,561.0676],[-3.9499,40.3015,580.8995],[-3.957,40.3052,604.4561],[-3.9666,40.3141,623.5621],[-3.9707,40.3209,627.0315],[-4.0015,40.3335,650.0165],[-4.006,40.3392,637.1089],[-3.9986,40.3433,630.4274],[-4.0003,40.3512,641.7104],[-4.0039,40.3538,652.4485],[-4.0027,40.3577,650.4561],[-4.0051,40.3591,650.3137],[-4.007,40.3637,648.2451],[-4.0111,40.3645,657.1491],[-4.0223,40.3724,632.9178],[-4.0272,40.3734,628.9589],[-4.0286,40.3767,632.825],[-4.0344,40.3778,608.3855],[-4.041,40.3853,599.134],[-4.0466,40.3883,577.4811],[-4.0532,40.3896,571.3494],[-4.0571,40.3887,580.1638],[-4.0738,40.3985,551.4755],[-4.0821,40.3985,549.0662],[-4.0844,40.401,542.4959],[-4.087,40.4,541.7086],[-4.0893,40.4021,545.9149],[-4.0929,40.4015,532.2115],[-4.0957,40.4031,533.6942],[-4.111,40.4028,554.5305],[-4.1117,40.4056,559.8949],[-4.1043,40.4121,560.3671],[-4.0977,40.4139,531.0861],[-4.0964,40.4167,530.9062],[-4.0807,40.4191,538.4993],[-4.0787,40.4216,542.0338],[-4.071,40.4239,549.7096],[-4.0784,40.4412,623.889],[-4.0692,40.4457,672.7384],[-4.0566,40.4468,611.0203],[-4.0494,40.4456,588.6808],[-4.0417,40.4486,617.8179],[-4.0434,40.4536,594.803],[-4.0402,40.4588,618.8507],[-4.0284,40.4594,622.123],[-4.0263,40.4627,628.2399],[-4.0148,40.4707,660.8205],[-3.9929,40.4727,611.6637],[-3.9918,40.4746,621.6171],[-3.9991,40.4806,619.0894],[-4.0008,40.4857,617.2861],[-3.9984,40.4928,640.9244],[-3.9965,40.4937,654.5344],[-3.9952,40.5013,669.4141],[-3.9876,40.5095,685.8288],[-3.9844,40.5164,675.3866],[-3.9854,40.52,688.7297],[-3.9902,40.5252,731.3416],[-3.9889,40.5262,765.2842],[-3.9907,40.5274,755.1936],[-3.9883,40.5296,783.6048],[-3.9951,40.535,793.1632],[-4.0005,40.5459,835.5865],[-3.9999,40.5499,846.0826],[-4.0069,40.5582,882.134],[-4.0053,40.5616,881.861],[-4.0251,40.5733,899.1478],[-4.026,40.5775,898.7865],[-4.0312,40.583,895.7795],[-4.0475,40.5828,822.7424],[-4.0446,40.5786,821.5],[-4.047,40.5708,821.5],[-4.0546,40.5698,833.1221],[-4.0599,40.5724,858.1981],[-4.0785,40.5675,846.7902],[-4.0805,40.5646,834.974],[-4.0862,40.5617,863.1829],[-4.0875,40.5589,870.4535],[-4.0976,40.5563,893.4991],[-4.1026,40.5519,920.4177],[-4.1049,40.548,925.7487],[-4.1033,40.5477,917.8239],[-4.1071,40.5434,902.6373],[-4.1112,40.5444,900.5964],[-4.1191,40.5421,903.5114],[-4.1245,40.5387,909.1729],[-4.124,40.5346,909.5317],[-4.1316,40.5265,918.5424],[-4.1282,40.5221,894.7394],[-4.1522,40.4933,900.392],[-4.1536,40.4868,915.0709],[-4.1525,40.4856,910.4716],[-4.1592,40.4776,886.6444],[-4.1624,40.4666,815.3923],[-4.171,40.4642,779.8027],[-4.1751,40.4593,760.2281],[-4.1742,40.4542,753.197],[-4.1771,40.4482,754.9955],[-4.1735,40.4465,739.5701],[-4.1698,40.4375,721.7421],[-4.174,40.4383,732.0465],[-4.1875,40.4458,805.9892],[-4.2012,40.4557,884.1879],[-4.2066,40.4556,868.2605],[-4.2193,40.4426,781.9495],[-4.2268,40.4401,797.0421],[-4.2301,40.4368,871.743],[-4.2376,40.4332,891.7462],[-4.2394,40.4207,855.24],[-4.2522,40.4125,776.6167],[-4.2533,40.4053,721.4257],[-4.2606,40.4153,743.7234],[-4.2623,40.4244,782.1971],[-4.2733,40.4291,999.3356],[-4.303,40.4251,717.4942],[-4.3226,40.4207,608.3333],[-4.3263,40.4136,600.9068],[-4.3208,40.4107,602.8544],[-4.3287,40.4107,698.5087],[-4.334,40.4089,857.2347],[-4.352,40.4134,1010.7552],[-4.361,40.4117,914.0457],[-4.3656,40.4079,674.0052],[-4.3768,40.4074,576.3809],[-4.4006,40.4114,570.5],[-4.4138,40.4106,575.3147],[-4.4173,40.4065,571.0],[-4.4218,40.4064,573.2542],[-4.4233,40.4024,580.4312],[-4.432,40.3978,597.0127],[-4.4369,40.3932,596.9719],[-4.4368,40.39,611.2836],[-4.441,40.3886,610.9091],[-4.4425,40.3857,615.3677],[-4.4395,40.3799,652.0739],[-4.4405,40.3638,644.5452],[-4.4384,40.3544,651.1738],[-4.4396,40.3503,652.6147],[-4.4496,40.3459,660.6405],[-4.4572,40.3447,661.1095],[-4.4605,40.3403,667.2566],[-4.4536,40.333,728.424],[-4.4554,40.3199,804.6909],[-4.4647,40.3187,861.5443],[-4.4854,40.3211,705.2834],[-4.4908,40.3205,693.1694],[-4.4977,40.3167,704.136],[-4.5043,40.3151,710.4857],[-4.5129,40.3206,830.3951],[-4.5154,40.3288,861.8411],[-4.5209,40.3358,1023.0911],[-4.5267,40.3382,1129.2185],[-4.5263,40.3449,1289.574],[-4.5382,40.3407,1444.6407],[-4.5464,40.3421,1662.4941],[-4.5477,40.3394,1592.6575],[-4.5434,40.3335,1341.2188],[-4.5428,40.3308,1279.5613],[-4.5442,40.3302,1262.3024],[-4.5398,40.3278,1169.7166],[-4.5376,40.3113,769.8688],[-4.529,40.2928,1006.0826],[-4.5338,40.2888,925.7631],[-4.5421,40.2866,867.2211],[-4.5467,40.2801,784.0431],[-4.5554,40.2771,726.8123],[-4.554,40.2764,734.8928],[-4.5563,40.2645,651.9418],[-4.5691,40.2572,639.4922],[-4.5658,40.2397,780.3856],[-4.5601,40.2364,769.2422],[-4.5589,40.234,790.1335],[-4.5606,40.2228,984.7745],[-4.5655,40.218,1003.0691],[-4.5744,40.2197,1025.1088],[-4.5789,40.2174,1009.3795],[-4.5725,40.213,947.0231],[-4.5751,40.2071,933.0973],[-4.5358,40.1996,913.8512],[-4.522,40.2024,949.4452],[-4.5166,40.2057,880.6176],[-4.5172,40.2137,779.254],[-4.5143,40.2172,730.5707],[-4.5055,40.2207,682.812],[-4.4969,40.2214,654.4506],[-4.4813,40.2281,668.9128],[-4.4798,40.2302,679.2845],[-4.4474,40.2332,643.3267],[-4.4373,40.2377,616.1688],[-4.4343,40.2457,633.7381],[-4.4356,40.2593,663.5868],[-4.4274,40.2578,610.2298],[-4.4261,40.2624,620.5719],[-4.4196,40.2654,659.4778],[-4.4084,40.2743,680.6529],[-4.3989,40.2838,707.481],[-4.384,40.2892,637.7683],[-4.3855,40.2926,643.755],[-4.3837,40.2996,669.0327],[-4.388,40.3013,700.6953],[-4.3801,40.3141,774.9009],[-4.3811,40.3183,775.7776],[-4.3775,40.3176,774.3604],[-4.3752,40.3151,803.6949],[-4.3647,40.3141,808.1967],[-4.363,40.3116,831.1852],[-4.3568,40.3097,843.9611],[-4.3591,40.2944,725.9706],[-4.3574,40.2846,685.6897],[-4.3586,40.2765,721.5222],[-4.3574,40.2708,680.1678],[-4.3451,40.2533,594.803],[-4.3478,40.2455,576.6234],[-4.3481,40.2366,505.3958],[-4.3413,40.24,523.7653],[-4.3353,40.2388,514.4609],[-4.3268,40.2336,486.7676],[-4.3215,40.2251,463.4495],[-4.3108,40.2341,472.8873],[-4.3066,40.2329,459.0617],[-4.3058,40.2311,457.3464],[-4.3089,40.2277,460.4789],[-4.3062,40.2217,451.0646],[-4.2958,40.2191,438.3625],[-4.29,40.2224,438.7832],[-4.2856,40.2286,437.6472],[-4.2711,40.2332,442.6156],[-4.2684,40.236,440.3797],[-4.2671,40.2422,441.8983],[-4.2619,40.2479,441.7304],[-4.2576,40.2596,442.8944],[-4.2457,40.2737,447.4684],[-4.2342,40.2747,448.8323],[-4.2316,40.2768,456.0984],[-4.2291,40.2759,489.0523],[-4.2264,40.2699,538.331],[-4.2182,40.2728,539.4529],[-4.2135,40.2692,551.7258],[-4.2087,40.2681,555.5442],[-4.2037,40.269,561.0784],[-4.2031,40.2752,537.9645],[-4.205,40.2832,515.777],[-4.2029,40.2885,500.684],[-4.1989,40.2903,521.5272],[-4.1973,40.2938,521.3602],[-4.1913,40.297,560.2935],[-4.1795,40.2934,564.564],[-4.1746,40.2887,562.3569],[-4.1702,40.2883,563.787],[-4.1725,40.2874,566.4557],[-4.173,40.2845,558.7985],[-4.1669,40.2728,569.498],[-4.1636,40.2699,575.9346],[-4.1582,40.2707,581.3873],[-4.144,40.2643,598.8057],[-4.1447,40.259,579.5188],[-4.1505,40.2494,585.3959],[-4.1486,40.2468,592.8817],[-4.1436,40.245,596.033],[-4.1311,40.2488,600.3304],[-4.1207,40.2437,615.1866],[-4.1118,40.2441,631.8281],[-4.1041,40.2418,638.0947],[-4.1008,40.2459,632.183],[-4.0877,40.2532,598.7084],[-4.0804,40.2665,619.2424],[-4.0711,40.2648,635.7592],[-4.0644,40.2604,640.0903],[-4.0623,40.2571,648.2996],[-4.0515,40.2511,660.0914],[-4.0236,40.2491,617.495],[-4.0262,40.245,619.9175],[-4.0259,40.2362,620.0829],[-4.0211,40.2345,617.6782],[-4.0205,40.2308,619.8422],[-4.0092,40.2206,604.3624],[-3.9988,40.2163,581.6827],[-3.9923,40.2097,604.9431],[-3.9771,40.2124,588.8326],[-3.9529,40.2123,544.3026],[-3.9561,40.1986,541.3994],[-3.9508,40.1967,535.6727],[-3.9512,40.1903,537.2159],[-3.9492,40.1891,547.0327],[-3.9411,40.198,612.3732],[-3.9383,40.2034,632.2991],[-3.9309,40.204,626.8175],[-3.9158,40.1915,615.4755],[-3.9102,40.1898,622.7671],[-3.8994,40.1905,638.6421],[-3.8943,40.1887,654.0021],[-3.8777,40.1882,670.1884],[-3.8762,40.1911,666.9693],[-3.8649,40.1872,668.3615],[-3.8511,40.1778,644.7039],[-3.8527,40.1697,633.9913]]]]}}