{"type": "Feature","bbox": [-6.4735,35.9996,-5.0866,37.0525],"geometry": {"type": "MultiPolygon","coordinates": [[[[-5.8412,36.1282,3.1629],[-5.8301,36.114,6.1501],[-5.8251,36.1057,1.7109],[-5.8246,36.1021,0.0],[-5.8157,36.1001,13.3302],[-5.8121,36.0929,0.0],[-5.8126,36.0887,0.0],[-5.8046,36.0893,7.4654],[-5.8021,36.0824,0.0],[-5.7968,36.0774,1.6743],[-5.7885,36.0802,0.0],[-5.7843,36.0854,0.6851],[-5.784,36.0882,6.8717],[-5.7774,36.0887,0.0],[-5.7682,36.0857,4.7933],[-5.7512,36.0715,0.0],[-5.7315,36.066,13.4012],[-5.7226,36.061,3.2108],[-5.7157,36.0607,11.3021],[-5.7093,36.0582,0.0],[-5.701,36.0621,12.0592],[-5.6957,36.0671,15.7529],[-5.6893,36.069,1.1723],[-5.6671,36.0563,1.6969],[-5.6587,36.0554,0.0],[-5.6451,36.0499,2.5558],[-5.6346,36.0412,0.4574],[-5.6238,36.0354,0.1821],[-5.6201,36.0313,1.5068],[-5.6151,36.0204,0.1819],[-5.6085,36.0112,0.7665],[-5.6085,36.0068,0.4024],[-5.6137,36.0035,2.5783],[-5.6112,35.9996,0.0],[-5.609,35.9996,0.0],[-5.606,36.0037,0.0],[-5.6079,36.0065,0.0],[-5.6043,36.0076,0.4158],[-5.6043,36.0099,0.0],[-5.6015,36.009,0.0],[-5.6037,36.0065,0.0],[-5.6029,36.0057,0.0],[-5.601,36.0071,0.0],[-5.601,36.011,5.5904],[-5.5813,36.0126,0.0],[-5.5671,36.0171,0.3716],[-5.5454,36.0282,4.5464],[-5.541,36.029,6.0062],[-5.5385,36.0315,4.0039],[-5.5168,36.0368,0.0],[-5.5132,36.0404,0.0],[-5.5029,36.0432,0.0],[-5.4996,36.0482,2.5042],[-5.4863,36.054,11.0588],[-5.4643,36.0499,0.0],[-5.4588,36.0537,2.5928],[-5.4507,36.0554,0.0],[-5.4468,36.0579,0.0],[-5.4482,36.0604,19.1641],[-5.4443,36.0615,0.0],[-5.4429,36.0649,0.0],[-5.4307,36.0704,0.0],[-5.4276,36.076,22.62],[-5.4246,36.0765,0.0],[-5.4254,36.0829,1.954],[-5.4351,36.0863,0.3917],[-5.4401,36.086,11.9869],[-5.4418,36.089,0.0],[-5.4435,36.089,0.0],[-5.4446,36.0938,2.3251],[-5.4399,36.1029,19.6649],[-5.4351,36.1057,8.1208],[-5.4307,36.1049,0.0],[-5.4315,36.1093,3.0912],[-5.4365,36.111,0.8796],[-5.4365,36.1154,0.0],[-5.4415,36.1168,11.2654],[-5.4429,36.1204,1.6346],[-5.4404,36.1199,0.0],[-5.436,36.1224,1.712],[-5.4363,36.1188,0.0],[-5.434,36.1207,2.1049],[-5.4299,36.1312,1.8722],[-5.4299,36.1407,0.0],[-5.4307,36.1415,0.0],[-5.4318,36.1285,2.3041],[-5.439,36.1271,0.0],[-5.4401,36.1282,1.1334],[-5.4368,36.1296,0.0],[-5.4376,36.1338,4.7945],[-5.4351,36.1362,0.0],[-5.4365,36.1387,1.2015],[-5.4351,36.1393,0.0],[-5.4343,36.1437,0.0],[-5.436,36.1479,1.4177],[-5.4412,36.1463,1.4387],[-5.4432,36.1315,0.7991],[-5.4471,36.1418,0.0],[-5.4451,36.1476,0.0],[-5.4462,36.1526,12.4618],[-5.4429,36.159,1.5588],[-5.4357,36.1688,1.5836],[-5.426,36.1768,1.4891],[-5.4229,36.1751,0.0],[-5.4204,36.1771,2.1231],[-5.4204,36.1732,0.0],[-5.419,36.1724,0.0],[-5.4157,36.174,0.0],[-5.4143,36.1804,0.3583],[-5.4115,36.1815,1.085],[-5.3987,36.1801,0.0],[-5.3985,36.1779,0.0],[-5.4001,36.1763,0.0],[-5.3943,36.1771,0.0],[-5.3976,36.179,0.0],[-5.3974,36.1807,4.7426],[-5.386,36.1804,0.4786],[-5.3804,36.1765,0.0],[-5.3832,36.1749,0.0],[-5.3821,36.1724,0.0],[-5.3832,36.1696,0.0],[-5.369,36.1682,2.0159],[-5.359,36.1637,2.6818],[-5.3585,36.1607,0.2209],[-5.3554,36.1599,0.3941],[-5.3535,36.1572,0.1108],[-5.3387,36.1549,0.0],[-5.336,36.1776,3.3632],[-5.3204,36.2229,2.0542],[-5.3149,36.2337,1.5999],[-5.3068,36.244,11.1104],[-5.2993,36.2432,0.0],[-5.2971,36.2451,0.0],[-5.2885,36.2643,2.0125],[-5.2787,36.2801,0.0],[-5.2824,36.2846,0.7415],[-5.2901,36.2896,6.1971],[-5.2907,36.294,2.4211],[-5.294,36.2965,3.0737],[-5.2907,36.2957,2.9312],[-5.2871,36.2879,1.0494],[-5.2762,36.2829,0.0],[-5.274,36.289,0.7268],[-5.2724,36.2882,0.0],[-5.2721,36.2896,0.0],[-5.2696,36.2896,0.1174],[-5.2696,36.2921,0.0],[-5.2721,36.2924,0.3221],[-5.2721,36.2951,0.9346],[-5.2696,36.2993,6.45],[-5.2649,36.3007,3.8783],[-5.2632,36.3046,3.291],[-5.259,36.3079,9.0489],[-5.2587,36.311,8.9753],[-5.2521,36.311,14.8794],[-5.2594,36.3224,173.7904],[-5.2677,36.3242,176.1651],[-5.2775,36.3371,165.3148],[-5.2897,36.3371,145.9522],[-5.3199,36.3251,6.7782],[-5.3229,36.3322,7.5181],[-5.3154,36.3409,7.7198],[-5.315,36.3434,8.0939],[-5.3205,36.3461,10.5501],[-5.3259,36.3576,40.7149],[-5.3347,36.37,70.7319],[-5.3339,36.3789,134.151],[-5.3363,36.3829,129.4095],[-5.3348,36.3949,22.7142],[-5.3381,36.3978,25.3251],[-5.347,36.4187,199.0618],[-5.3571,36.4239,196.1197],[-5.3579,36.4319,219.6674],[-5.3553,36.4338,265.3386],[-5.3741,36.4536,149.2029],[-5.3952,36.4693,173.8347],[-5.3989,36.4844,71.0117],[-5.4032,36.4903,52.5902],[-5.404,36.4946,69.8113],[-5.4097,36.4966,72.9221],[-5.4088,36.5002,88.5923],[-5.4112,36.5043,96.216],[-5.4144,36.5182,154.7753],[-5.4133,36.5207,162.8773],[-5.425,36.5246,251.1383],[-5.4276,36.5309,334.9675],[-5.4322,36.5343,407.3108],[-5.453,36.5378,630.3023],[-5.4615,36.5372,644.3681],[-5.4651,36.5279,766.0372],[-5.4684,36.5302,778.484],[-5.471,36.5355,795.984],[-5.474,36.5366,784.9014],[-5.4928,36.5361,634.722],[-5.5081,36.518,465.8709],[-5.5075,36.5157,483.8726],[-5.5142,36.5104,320.7516],[-5.5162,36.5009,157.3611],[-5.5241,36.4977,247.0819],[-5.5341,36.5028,369.3497],[-5.5599,36.5035,612.5995],[-5.5719,36.5126,687.3829],[-5.5829,36.5139,823.0067],[-5.5982,36.5085,941.4806],[-5.6081,36.5123,1078.1191],[-5.6061,36.5253,957.0288],[-5.6103,36.5341,809.2888],[-5.6093,36.5369,789.8134],[-5.6116,36.5416,738.9929],[-5.6101,36.5446,693.3536],[-5.5996,36.5507,524.6694],[-5.595,36.5509,444.4106],[-5.5793,36.5475,359.5723],[-5.5741,36.5483,348.145],[-5.5711,36.5474,381.5752],[-5.5669,36.5425,335.8479],[-5.5434,36.5384,241.5989],[-5.5399,36.5365,241.6589],[-5.5369,36.5272,203.2216],[-5.522,36.5318,267.5936],[-5.5126,36.5424,397.825],[-5.5019,36.5476,435.9384],[-5.4936,36.5601,472.5813],[-5.4894,36.5705,548.471],[-5.4768,36.5741,518.7357],[-5.4627,36.589,430.1312],[-5.4607,36.5888,430.994],[-5.457,36.6021,474.8056],[-5.4582,36.614,558.7328],[-5.4557,36.6168,562.1558],[-5.4558,36.6196,581.7169],[-5.4384,36.6142,753.9958],[-5.4341,36.618,750.9698],[-5.4132,36.6212,630.9191],[-5.409,36.6232,696.562],[-5.4065,36.6266,734.9883],[-5.3789,36.6326,1314.7944],[-5.3639,36.6457,1094.6494],[-5.3529,36.6526,1133.7295],[-5.3511,36.6561,1106.3901],[-5.3437,36.6596,1098.9799],[-5.3337,36.6724,1012.1686],[-5.3239,36.6734,972.5588],[-5.3302,36.6789,1193.6624],[-5.3295,36.6819,1225.8807],[-5.3195,36.6882,1142.4768],[-5.3187,36.6901,1056.2615],[-5.3188,36.6928,1075.8872],[-5.3214,36.6945,1110.6571],[-5.3273,36.6946,942.3142],[-5.3279,36.7005,941.6769],[-5.323,36.7188,1000.7194],[-5.3245,36.724,880.0179],[-5.3124,36.7345,988.3638],[-5.3075,36.751,884.4699],[-5.2951,36.7644,913.9169],[-5.2908,36.7752,775.635],[-5.3071,36.7804,606.0364],[-5.3197,36.7868,604.0427],[-5.3264,36.8053,382.9021],[-5.3331,36.8118,355.8061],[-5.3349,36.8169,350.0],[-5.3406,36.8194,350.0],[-5.3349,36.8276,507.6534],[-5.3324,36.8386,955.4094],[-5.3139,36.8563,741.0057],[-5.3076,36.8566,727.5835],[-5.3056,36.8582,752.3794],[-5.3014,36.8697,764.5272],[-5.2772,36.8787,638.905],[-5.2696,36.8842,647.4528],[-5.2666,36.8758,658.5621],[-5.2439,36.8628,498.012],[-5.231,36.8612,552.0095],[-5.225,36.8563,594.7911],[-5.222,36.8502,667.5211],[-5.2219,36.8428,772.9092],[-5.2001,36.8378,635.2449],[-5.1918,36.8334,715.5615],[-5.1865,36.828,814.3546],[-5.1792,36.8287,850.0511],[-5.1755,36.8253,858.3066],[-5.1703,36.8236,884.7576],[-5.1551,36.8318,871.1749],[-5.1339,36.8386,791.3541],[-5.1204,36.8589,791.156],[-5.1165,36.8712,800.2399],[-5.1123,36.8739,798.2267],[-5.1097,36.8894,774.0604],[-5.1024,36.8918,769.3933],[-5.1024,36.8956,780.8564],[-5.1049,36.898,776.4738],[-5.0995,36.9009,769.1323],[-5.0935,36.9008,819.6694],[-5.0866,36.9051,796.8326],[-5.0928,36.9117,814.5552],[-5.0916,36.9211,819.8275],[-5.0992,36.9317,663.3379],[-5.1049,36.9531,648.488],[-5.11,36.9594,833.1324],[-5.104,36.9643,645.626],[-5.1007999999999996,36.964,603.8154],[-5.0954,36.9683,502.7923],[-5.0981,36.9719,493.7966],[-5.1123,36.9765,458.1344],[-5.1122,36.9811,446.2327],[-5.1103,36.9821,453.3366],[-5.1123,36.9835,444.777],[-5.1106,36.984,441.8503],[-5.115,36.989,445.9014],[-5.1182,36.9885,451.1409],[-5.1238,36.991,468.7364],[-5.1278,36.9959,486.0229],[-5.1422,37.0039,548.9639],[-5.1479,36.9971,583.8325],[-5.1583,36.9893,664.2281],[-5.1625,36.9814,604.3484],[-5.1742,36.9772,548.3489],[-5.1816,36.9717,535.1985],[-5.1892,36.97,502.1489],[-5.1911,36.9667,470.388],[-5.2059,36.9627,433.9185],[-5.2156,36.9519,529.7124],[-5.2197,36.9509,561.1411],[-5.2257999999999996,36.9419,596.955],[-5.2349,36.9412,554.7313],[-5.2566,36.9641,644.305],[-5.262,36.9754,705.7482],[-5.2679,36.9783,647.7926],[-5.2737,36.9902,384.6517],[-5.2851,37.0002,355.1339],[-5.2936,37.0104,437.8535],[-5.3001,37.0138,466.8017],[-5.3016,37.018,477.4546],[-5.302,37.0374,437.5801],[-5.3378,37.0111,407.7892],[-5.3395,37.0046,350.1445],[-5.3452,36.9974,291.4671],[-5.3595,36.9925,262.6947],[-5.3606,36.9852,239.5768],[-5.3652,36.9857,242.793],[-5.374,36.9824,248.7606],[-5.3758,36.98,302.5045],[-5.3818,36.9794,373.0832],[-5.3932,36.9722,399.9863],[-5.4008,36.9628,415.2428],[-5.4134,36.9535,495.4867],[-5.4165,36.9443,530.737],[-5.4127,36.9407,506.6234],[-5.4388,36.9353,393.9547],[-5.4411,36.944,396.8546],[-5.4461,36.9465,421.2919],[-5.446,36.9524,191.4564],[-5.4478,36.9542,193.8756],[-5.4458,36.9567,223.2609],[-5.4544,36.9612,212.3861],[-5.457,36.9742,302.3602],[-5.4601,36.9752,277.9724],[-5.4599,36.978,250.0139],[-5.4568,36.9778,257.807],[-5.4528,36.9824,273.8778],[-5.4454,36.9853,319.1638],[-5.443,36.987,329.2504],[-5.4426,36.9896,322.187],[-5.4353,36.991,340.9853],[-5.4269,36.9997,371.3691],[-5.4259,37.0057,316.4812],[-5.4209,37.0112,340.7574],[-5.4213,37.0245,289.9734],[-5.427,37.0379,255.2222],[-5.4279,37.0452,232.8687],[-5.4335,37.0525,240.5831],[-5.4417,37.0495,240.2759],[-5.4478,37.0502,251.2624],[-5.4593,37.0422,241.1565],[-5.4647,37.0408,272.1107],[-5.4732,37.0429,299.5808],[-5.4967,37.0397,219.4877],[-5.5108,37.0336,221.7953],[-5.4949,37.0113,187.1708],[-5.487,37.0071,208.1],[-5.483,37.0022,231.8751],[-5.4729,36.9953,275.8577],[-5.4701,36.9917,296.3076],[-5.4696,36.984,258.5893],[-5.4817,36.9722,232.2654],[-5.4897,36.9729,226.078],[-5.4933,36.9709,217.091],[-5.4983,36.9662,209.8941],[-5.5022,36.9583,198.523],[-5.5121,36.9577,249.7354],[-5.5144,36.9556,215.0914],[-5.5151,36.9502,173.0177],[-5.5208,36.9476,154.1557],[-5.5203,36.9449,154.2792],[-5.5244,36.9377,150.0128],[-5.5326,36.9359,150.1446],[-5.5348,36.9303,150.1705],[-5.5456,36.9304,141.6688],[-5.5469,36.9259,139.9114],[-5.5507,36.9231,139.4402],[-5.5389,36.9061,227.6817],[-5.5337,36.8935,257.0348],[-5.5829,36.9149,130.2947],[-5.5856,36.9209,156.9779],[-5.588,36.9469,153.3438],[-5.5954,36.9449,148.3572],[-5.6057,36.9509,153.9385],[-5.6071,36.9451,138.3895],[-5.61,36.9416,128.4346],[-5.6147,36.9426,137.5439],[-5.6184,36.9405,123.0293],[-5.626,36.9545,107.8632],[-5.6323,36.9507,178.3038],[-5.6495,36.9543,169.3602],[-5.6559,36.9641,189.6644],[-5.666,36.9758,196.4273],[-5.6678,36.976,196.4273],[-5.6945,36.9568,184.6505],[-5.6935,36.9458,130.1325],[-5.696,36.9353,164.0386],[-5.7031,36.9256,151.6457],[-5.7169,36.9195,172.3692],[-5.7257,36.9216,177.4726],[-5.7362,36.9182,157.3668],[-5.7439,36.923,149.2162],[-5.7618,36.9256,151.4463],[-5.774,36.9243,108.7499],[-5.8048,36.9255,185.4779],[-5.8316,36.9157,110.3161],[-5.8371,36.9144,179.7958],[-5.8454,36.9152,170.4388],[-5.8598,36.9,107.7067],[-5.8695,36.8937,102.7053],[-5.8764,36.8947,89.698],[-5.8934,36.8516,96.5568],[-5.8887,36.8468,165.5077],[-5.8902,36.8444,173.9812],[-5.8886,36.8433,176.1639],[-5.8909,36.8422,180.6659],[-5.9252,36.8531,125.0502],[-5.9412,36.852,176.9317],[-5.9527,36.8531,195.4199],[-5.9608,36.8513,168.6382],[-5.973,36.8442,174.3176],[-6.0362,36.8493,65.9242],[-6.0504,36.8535,48.3601],[-6.0846,36.8545,3.4614],[-6.1043,36.8573,2.0522],[-6.1218,36.8638,1.9842],[-6.1431,36.8762,3.4307],[-6.1554,36.8854,20.4973],[-6.1835,36.8915,46.6848],[-6.187,36.8936,24.9065],[-6.2085,36.8934,0.5873],[-6.2294,36.8961,0.0],[-6.2308,36.8981,0.0],[-6.2429,36.8944,0.0],[-6.2536,36.8939,0.5733],[-6.2627,36.8979,0.1841],[-6.2737,36.9089,0.0],[-6.2781,36.9109,0.0],[-6.2968,36.9052,0.1621],[-6.3309,36.8988,0.0],[-6.338,36.8962,0.2803],[-6.3451,36.8891,0.0],[-6.3531,36.855,0.0],[-6.3538,36.8383,0.0],[-6.3517,36.8253,0.0],[-6.3447,36.8159,0.0],[-6.3422,36.8031,0.0],[-6.3444,36.7993,0.0],[-6.3488,36.7967,0.0],[-6.3465,36.7912,2.8994],[-6.3574,36.7871,0.0],[-6.3637,36.7826,0.0],[-6.3665,36.7788,2.4568],[-6.3738,36.7771,0.4507],[-6.3826,36.7696,5.5801],[-6.3979,36.7615,3.7634],[-6.409,36.7613,0.0],[-6.4129,36.7521,7.8347],[-6.4196,36.7457,1.8589],[-6.4254,36.7443,2.0162],[-6.4285,36.7496,0.0],[-6.4318,36.7468,0.5379],[-6.4321,36.7433,6.2933],[-6.439,36.7412,4.1886],[-6.4426,36.7382,1.7505],[-6.4399,36.7326,0.4117],[-6.4393,36.7201,4.2314],[-6.4313,36.7051,0.0],[-6.4207,36.691,5.8181],[-6.4104,36.671,2.8009],[-6.4035,36.6615,0.0],[-6.3982,36.6585,3.3737],[-6.3976,36.6543,1.7962],[-6.3929,36.6457,4.9141],[-6.3937,36.634,5.858],[-6.3854,36.6276,5.1364],[-6.3659,36.6207,8.0269],[-6.3584,36.6157,10.2835],[-6.3515,36.6157,0.2754],[-6.3535,36.6196,0.4527],[-6.3565,36.6196,2.017],[-6.3562,36.6213,2.8607],[-6.3424,36.6265,4.2013],[-6.3354,36.6255,7.4841],[-6.3365,36.621,3.4562],[-6.331,36.6146,0.4374],[-6.3296,36.6165,0.0],[-6.3312,36.6179,0.7942],[-6.3301,36.6207,0.8479],[-6.3315,36.6224,0.0],[-6.3296,36.6232,2.9106],[-6.3299,36.6251,1.5826],[-6.3254,36.6249,1.982],[-6.3207,36.6221,0.6088],[-6.3157,36.6221,2.56],[-6.309,36.616,0.8968],[-6.3063,36.6182,3.5367],[-6.2976,36.6168,13.0232],[-6.2935,36.6129,0.0],[-6.2876,36.6113,2.6215],[-6.2768,36.6007,23.4056],[-6.2701,36.5893,7.0719],[-6.2696,36.5829,0.0],[-6.2651,36.5793,0.0],[-6.2621,36.5804,1.3175],[-6.2543,36.5774,0.3535],[-6.2499,36.5799,0.0],[-6.2493,36.584,14.0819],[-6.2413,36.5865,3.0004],[-6.2368,36.586,3.4381],[-6.236,36.5846,0.8789],[-6.2304,36.5876,0.0],[-6.2385,36.579,0.0],[-6.2274,36.5812,2.985],[-6.2232,36.5682,1.4047],[-6.2246,36.5635,0.0],[-6.2235,36.5621,1.5636],[-6.2243,36.5524,1.323],[-6.2265,36.5515,0.0],[-6.2257,36.5479,0.9082],[-6.2318,36.5337,0.8158],[-6.2312,36.5282,0.176],[-6.2293,36.5265,0.0],[-6.2218,36.5274,0.3274],[-6.2176,36.5299,0.0],[-6.2093,36.549,0.2937],[-6.2068,36.5607,0.0],[-6.2138,36.5679,1.1286],[-6.2143,36.5713,0.7573],[-6.2057,36.5638,0.8512],[-6.2051,36.5568,3.4979],[-6.2079,36.546,1.6066],[-6.2187,36.5265,2.9877],[-6.2337,36.5243,3.3754],[-6.2418,36.5285,2.7442],[-6.256,36.5293,1.4596],[-6.2549,36.5251,4.5265],[-6.2574,36.5243,0.9026],[-6.2565,36.5207,2.5709],[-6.2474,36.5187,0.5802],[-6.2496,36.5168,0.4066],[-6.2496,36.5137,0.0],[-6.2457,36.5085,0.0],[-6.249,36.5049,0.0],[-6.2438,36.5079,0.0],[-6.2329,36.5035,0.0],[-6.2143,36.511,0.0],[-6.2087,36.5088,0.0],[-6.2024,36.5179,0.0],[-6.1965,36.5221,0.0],[-6.2001,36.524,0.0],[-6.1985,36.5251,0.0],[-6.1993,36.5276,0.5038],[-6.1921,36.5249,0.4653],[-6.1832,36.5249,0.6235],[-6.1749,36.5224,7.3159],[-6.1718,36.5129,0.0],[-6.1732,36.5096,0.0],[-6.1815,36.5079,0.0],[-6.1824,36.5054,0.1213],[-6.1882,36.5018,0.0],[-6.179,36.4918,0.0],[-6.1796,36.4874,0.3364],[-6.189,36.4985,1.0571],[-6.1996,36.5004,0.0],[-6.1946,36.4954,0.0],[-6.1943,36.4907,0.0],[-6.1965,36.4863,0.0],[-6.2018,36.4854,2.1865],[-6.2063,36.4807,0.4256],[-6.2129,36.481,1.0485],[-6.2126,36.4699,1.3391],[-6.2199,36.466,0.3608],[-6.2279,36.4668,0.0],[-6.2287,36.4629,0.3786],[-6.2471,36.4657,0.3475],[-6.2549,36.4696,3.4638],[-6.2596,36.4754,3.3957],[-6.266,36.4899,1.3186],[-6.2621,36.4918,0.0],[-6.2621,36.4965,0.4841],[-6.2546,36.5007,0.0],[-6.2565,36.5024,0.0],[-6.2576,36.4999,2.3078],[-6.2607,36.5004,4.709],[-6.2624,36.5015,0.9103],[-6.2612,36.5046,0.0],[-6.2629,36.5071,2.0866],[-6.2661,36.5085,3.1442],[-6.2685,36.5068,5.3058],[-6.2685,36.5096,0.4375],[-6.2718,36.5135,3.8561],[-6.2762,36.5243,4.2731],[-6.2779,36.5238,2.1226],[-6.2801,36.526,0.0],[-6.2737,36.5285,0.0],[-6.2762,36.5307,2.4884],[-6.2735,36.5321,2.408],[-6.2721,36.5371,0.0],[-6.2762,36.536,0.0],[-6.2757,36.5332,0.6295],[-6.2796,36.5304,3.1667],[-6.2815,36.5307,1.3677],[-6.2818,36.5329,0.0],[-6.2851,36.5304,4.6398],[-6.2849,36.5332,2.602],[-6.2824,36.5332,0.0],[-6.2843,36.5346,1.5246],[-6.289,36.5315,2.1609],[-6.2913,36.5321,0.0],[-6.2913,36.5337,0.0],[-6.2851,36.5393,0.0],[-6.279,36.5421,0.0],[-6.2862,36.5432,1.6582],[-6.2921,36.5371,0.0],[-6.3021,36.5377,0.0],[-6.3079,36.5351,8.3494],[-6.3088,36.5324,0.0],[-6.3055,36.5309,11.743],[-6.3062,36.5276,1.1035],[-6.2968,36.5288,15.4189],[-6.2921,36.5268,2.7511],[-6.2865,36.5213,11.835],[-6.286,36.5168,0.4121],[-6.2693,36.4927,3.5506],[-6.2582,36.4721,3.4923],[-6.2571,36.4682,0.836],[-6.2582,36.4663,0.0],[-6.2515,36.4565,1.855],[-6.2524,36.4549,1.6602],[-6.2485,36.4441,0.0],[-6.2474,36.4435,0.0],[-6.2482,36.4479,0.0],[-6.246,36.4479,1.574],[-6.2332,36.4362,2.0046],[-6.2312,36.4274,0.0],[-6.2237,36.4176,1.7926],[-6.219,36.406,1.9809],[-6.2196,36.4038,0.0],[-6.2176,36.4004,1.2985],[-6.2185,36.394,1.2727],[-6.2171,36.3924,1.7947],[-6.2126,36.3921,1.611],[-6.211,36.399,0.0],[-6.2168,36.414,0.0],[-6.2151,36.4249,0.0],[-6.2118,36.4304,0.0],[-6.2118,36.4338,0.0],[-6.206,36.439,0.3031],[-6.2063,36.4424,0.5536],[-6.1965,36.4429,0.0626],[-6.1879,36.4349,0.0],[-6.1857,36.4351,0.0],[-6.1849,36.4412,0.4421],[-6.1838,36.4412,0.2007],[-6.1818,36.4371,0.1352],[-6.1849,36.4338,0.0],[-6.1932,36.4354,0.6759],[-6.1996,36.4393,0.0226],[-6.2023,36.4388,0.0],[-6.2099,36.426,0.283],[-6.2121,36.4162,0.0],[-6.2107,36.4113,0.0593],[-6.2065,36.4071,0.0723],[-6.2085,36.4043,0.0],[-6.204,36.4065,0.0],[-6.1985,36.4065,0.0],[-6.1951,36.404,0.0],[-6.1962,36.4029,0.0],[-6.2043,36.4038,0.0],[-6.206,36.3974,0.0],[-6.2085,36.3974,0.0],[-6.2093,36.3957,0.0],[-6.2076,36.3876,1.278],[-6.2099,36.3851,0.0],[-6.2074,36.3846,-0.0774],[-6.1985,36.3768,0.3289],[-6.1838,36.3704,1.5893],[-6.179,36.3654,0.0],[-6.1674,36.3463,15.3492],[-6.154,36.3118,0.0],[-6.1437,36.2968,0.0],[-6.1374,36.2924,0.0],[-6.1346,36.2929,0.3614],[-6.1382,36.2962,1.4421],[-6.1346,36.2949,0.0],[-6.1329,36.2971,13.3751],[-6.1188,36.2935,0.0],[-6.1149,36.2943,11.0492],[-6.0871,36.2707,1.3746],[-6.081,36.2554,2.0215],[-6.079,36.2449,1.6294],[-6.0757,36.2385,0.0],[-6.0662,36.2262,4.3531],[-6.0579,36.2101,0.0],[-6.0538,36.2062,0.0],[-6.054,36.2029,0.0],[-6.0507,36.1999,0.4125],[-6.0468,36.1993,2.316],[-6.0379,36.1904,1.4588],[-6.0354,36.186,2.3259],[-6.0362,36.1824,9.7405],[-6.0349,36.1807,0.0],[-6.029,36.181,0.0],[-6.0271,36.1862,2.3566],[-6.021,36.1862,1.5733],[-6.0157,36.1843,0.0],[-6.0099,36.1849,0.0],[-6.0062,36.1824,2.2921],[-5.9854,36.1768,0.0],[-5.9771,36.1765,0.0],[-5.9554,36.1815,0.0],[-5.9454,36.1871,11.498],[-5.9393,36.1865,5.6791],[-5.9376,36.1835,0.0],[-5.9329,36.1815,0.0],[-5.9315,36.1862,3.9145],[-5.9276,36.1857,2.4978],[-5.9262,36.1821,0.7358],[-5.926,36.186,3.315],[-5.9196,36.1865,2.452],[-5.9093,36.1829,0.1938],[-5.9076,36.1801,0.0517],[-5.8985,36.1754,0.4583],[-5.8879,36.1662,0.0],[-5.8765,36.1604,0.541],[-5.8613,36.146,0.3708],[-5.854,36.1418,1.2687],[-5.8482,36.1349,1.6467],[-5.8424,36.1312,5.802],[-5.8412,36.1282,3.1629]]],
[[[-6.2196,36.3793,0.139],[-6.2193,36.381,0.0],[-6.221,36.3812,0.0],[-6.2215,36.3774,0.0],[-6.2199,36.3768,0.0],[-6.2196,36.3793,0.139]]],
[[[-6.3157,36.5287,1.6646],[-6.3179,36.5293,-0.1956],[-6.3171,36.5265,-0.2049],[-6.3132,36.5271,0.9003],[-6.3135,36.5282,0.9003],[-6.3157,36.5287,1.6646]]],
[[[-6.3201,36.6124,0.0],[-6.3226,36.6132,0.0],[-6.3224,36.6124,0.0],[-6.319,36.6121,0.0],[-6.319,36.6127,0.0],[-6.3201,36.6124,0.0]]],
[[[-6.3174,36.6135,0.0],[-6.3157,36.6143,0.0],[-6.3157,36.6149,0.0],[-6.3188,36.6126,0.0],[-6.3174,36.6135,0.0]]],
[[[-6.4715,36.7371,0.0],[-6.4735,36.7376,-0.0941],[-6.4735,36.7351,-0.3445],[-6.471,36.7337,0.0],[-6.4704,36.7357,0.0],[-6.4715,36.7371,0.0]]]]}
,"properties": {"GID_2": "ESP.1.2_1","GID_0": "ESP","country": "Spain","GID_1": "ESP.1_1","province": "Andalucía","NL_NAME_1": "NA","county": "Cádiz","VARNAME_2": "NA","NL_NAME_2": "NA","TYPE_2": "Provincia","ENGTYPE_2": "Province","CC_2": "11","HASC_2": "ES.AN.CD","name": "Cádiz.county","area_km2": 7424.727,"hist_schema_id": "Elevation0-9000","hist_area_km2": {"0": 777.475,"25": 1018.948,"50": 835.494,"75": 726.939,"100": 577.978,"125": 437.704,"150": 346.706,"175": 256.151,"200": 214.837,"225": 195.69,"250": 185.643,"275": 168.022,"300": 155.906,"325": 146.87,"350": 146.635,"375": 128.588,"400": 111.593,"425": 101.302,"450": 91.703,"475": 80.763,"500": 68.426,"525": 59.108,"550": 51.102,"575": 51.022,"600": 46.169,"625": 43.049,"650": 37.917,"675": 32.577,"700": 31.911,"725": 30.782,"750": 31.504,"775": 29.546,"800": 32.231,"825": 27.7,"850": 19.86,"875": 16.21,"900": 14.274,"925": 11.198,"950": 10.348,"975": 9.379,"1000": 7.39,"1025": 7.543,"1050": 5.829,"1075": 5.15,"1100": 5.013,"1125": 4.826,"1150": 4.061,"1175": 4.061,"1200": 3.755,"1225": 3.619,"1250": 2.888,"1275": 2.056,"1300": 1.716,"1325": 2.039,"1350": 1.24,"1375": 0.917,"1400": 0.595,"1425": 0.815,"1450": 0.561,"1475": 0.442,"1500": 0.357,"1525": 0.221,"1550": 0.153,"1575": 0.119,"1600": 0.068}}}