{"type": "Feature","bbox": [-5.8297,39.9671,-5.3359,40.2652],"geometry": {"type": "MultiPolygon","coordinates": [[[[-5.7146,39.972,236.8667],[-5.7088,39.9746,239.2713],[-5.7051,39.9792,237.5846],[-5.6994,39.9824,236.102],[-5.6917,39.9838,238.6384],[-5.6762,39.9922,241.0735],[-5.6657,40.0036,243.0778],[-5.647,40.0112,243.5151],[-5.6443,40.0198,241.3513],[-5.6407,40.0223,242.4178],[-5.6292,40.0237,240.2527],[-5.6021,40.0231,244.5205],[-5.5938,40.0353,247.2326],[-5.5822,40.041,246.1057],[-5.5755,40.041,244.0885],[-5.5648,40.0473,245.1963],[-5.5511,40.0506,247.9627],[-5.5407,40.0476,250.5498],[-5.5301,40.0484,251.5639],[-5.5135,40.0537,256.0588],[-5.5102,40.066,264.1703],[-5.508,40.0672,255.895],[-5.5042,40.0681,255.1831],[-5.4966,40.0664,252.7001],[-5.4801,40.0712,262.2289],[-5.4703,40.0682,260.6095],[-5.4559,40.0715,262.0948],[-5.4466,40.0782,262.7627],[-5.4479,40.0838,279.8624],[-5.4464,40.0857,273.4593],[-5.4332,40.0844,267.0848],[-5.4309,40.086,267.9405],[-5.4251,40.0856,266.7529],[-5.413,40.0885,267.604],[-5.4051,40.0947,272.8055],[-5.3917,40.1002,273.5315],[-5.3818,40.0988,278.4507],[-5.3767,40.1004,276.7103],[-5.3689,40.1001,283.6496],[-5.3593,40.1084,283.2726],[-5.3466,40.1111,287.7945],[-5.3386,40.1158,291.3041],[-5.3359,40.1158,290.695],[-5.3369,40.1242,301.2853],[-5.3419,40.126,308.276],[-5.3458,40.1297,315.4946],[-5.3458,40.1335,322.4163],[-5.3567,40.1484,362.0838],[-5.3571,40.1528,381.3691],[-5.3601,40.1543,384.855],[-5.3601,40.1569,384.9306],[-5.3669,40.1604,394.0762],[-5.3679,40.1641,416.58],[-5.3647,40.1745,444.7339],[-5.3646,40.1819,471.2744],[-5.3664,40.1835,489.8943],[-5.3664,40.196,554.4363],[-5.3681,40.1991,582.5571],[-5.364,40.2033,627.4705],[-5.3694,40.211,719.7184],[-5.3696,40.2183,774.3176],[-5.3626,40.223,838.9404],[-5.3582,40.2283,932.551],[-5.3583,40.232,973.8221],[-5.3431,40.2641,2115.8425],[-5.3488,40.2652,2139.842],[-5.3577,40.263,2133.5254],[-5.3641,40.257,2116.3213],[-5.3786,40.2579,1994.5103],[-5.3949,40.2505,2220.1216],[-5.4125,40.2552,2226.6138],[-5.4297,40.2523,2173.9487],[-5.4397,40.2336,2209.7896],[-5.4522,40.2272,2240.7749],[-5.468,40.2242,2215.1433],[-5.4708,40.2079,2112.3108],[-5.488,40.2047,2095.8787],[-5.499,40.1989,2238.0684],[-5.4999,40.2008,2223.4155],[-5.5096,40.2019,2126.8755],[-5.5186,40.1969,2196.1167],[-5.5309,40.1947,2070.4082],[-5.5364,40.1966,2021.1692],[-5.541,40.1959,2028.1941],[-5.548,40.1972,2021.1323],[-5.5517,40.2006,2017.4741],[-5.5635,40.2026,1995.2322],[-5.5681,40.2064,2041.3506],[-5.5909,40.2153,2098.9668],[-5.5983,40.2168,2355.6489],[-5.6099,40.2155,2283.7666],[-5.6129,40.2099,2185.2075],[-5.6193,40.207,2239.325],[-5.6307,40.2109,2026.0635],[-5.6469,40.2087,2171.7449],[-5.6531,40.2033,2126.0791],[-5.6529,40.1994,2122.0862],[-5.656,40.1959,2071.5869],[-5.6635,40.1929,2033.3916],[-5.6807,40.1761,1657.7876],[-5.6947,40.1714,1519.5098],[-5.7072,40.1739,1529.2976],[-5.722,40.1744,1683.0806],[-5.7339,40.1706,1797.8022],[-5.7383,40.173,1773.1636],[-5.7492,40.1702,1752.7539],[-5.7568,40.1703,1712.9834],[-5.7849,40.1561,1526.9214],[-5.7939,40.1371,1275.3088],[-5.8058,40.1261,1188.9683],[-5.8109,40.1241,1229.1031],[-5.8192,40.113,1352.1804],[-5.8159,40.1098,1323.7865],[-5.8147,40.1045,1368.5811],[-5.8163,40.1003,1321.4431],[-5.8232,40.0961,1332.5259],[-5.8297,40.0827,1133.8827],[-5.8257,40.0777,1096.4713],[-5.8054,40.0693,823.3414],[-5.8026,40.0634,901.9549],[-5.7848,40.0612,741.0426],[-5.7796,40.0575,667.0123],[-5.7739,40.0561,674.7485],[-5.7683,40.0495,549.839],[-5.7645,40.0385,474.1843],[-5.7575,40.0296,418.9892],[-5.7579,40.0278,405.1791],[-5.7674,40.0204,377.0366],[-5.7665,40.0167,358.7852],[-5.7751,40.0145,390.9432],[-5.7853,40.0097,382.2899],[-5.7837,40.0045,357.273],[-5.7861,40.0028,354.269],[-5.7864,39.9986,318.819],[-5.7835,39.9951,301.5537],[-5.7844,39.9909,270.2203],[-5.7821,39.9877,245.8295],[-5.8091,39.9836,234.2831],[-5.8095,39.9821,234.2831],[-5.7937,39.9778,231.2807],[-5.7833,39.9722,232.8927],[-5.7747,39.9713,234.402],[-5.7679,39.9671,235.9293],[-5.762,39.9673,233.8132],[-5.7431,39.9797,234.7913],[-5.7379,39.9791,237.424],[-5.7191,39.972,238.1749],[-5.7146,39.972,236.8667]]]]}
,"properties": {"GID_3": "ESP.11.2.3_1","GID_0": "ESP","country": "Spain","GID_1": "ESP.11_1","province": "Extremadura","NL_NAME_1": "NA","GID_2": "ESP.11.2_1","county": "Cáceres","NL_NAME_2": "NA","city": "n.a.(71)","VARNAME_3": "NA","NL_NAME_3": "NA","TYPE_3": "Comarca","ENGTYPE_3": "Comarca","CC_3": "NA","HASC_3": "NA","name": "n.a.(71).city","area_km2": 703.7058,"hist_schema_id": "Elevation0-9000","hist_area_km2": {"225": 5.459,"250": 36.5839,"275": 37.0656,"300": 26.5415,"325": 21.821,"350": 23.5908,"375": 24.2228,"400": 28.0008,"425": 31.0973,"450": 35.1823,"475": 31.4491,"500": 25.9481,"525": 17.448,"550": 13.4254,"575": 11.4952,"600": 10.3276,"625": 10.1811,"650": 9.7272,"675": 8.4136,"700": 8.3972,"725": 8.1861,"750": 7.7156,"775": 8.0236,"800": 7.0994,"825": 7.3745,"850": 7.3259,"875": 6.9527,"900": 7.1472,"925": 7.0662,"950": 6.5961,"975": 7.6493,"1000": 7.0819,"1025": 6.7581,"1050": 7.471,"1075": 6.3364,"1100": 6.7572,"1125": 6.5952,"1150": 6.2867,"1175": 6.643,"1200": 6.0436,"1225": 5.9784,"1250": 5.5246,"1275": 5.9457,"1300": 5.9295,"1325": 5.8482,"1350": 5.4754,"1375": 5.864,"1400": 5.0865,"1425": 5.1188,"1450": 5.4588,"1475": 5.1185,"1500": 4.8105,"1525": 4.6646,"1550": 4.4703,"1575": 4.1786,"1600": 3.9841,"1625": 3.725,"1650": 3.7897,"1675": 3.8706,"1700": 3.9354,"1725": 3.6765,"1750": 3.4008,"1775": 3.4495,"1800": 2.9149,"1825": 2.6069,"1850": 2.3803,"1875": 2.2344,"1900": 2.4126,"1925": 2.4287,"1950": 2.1697,"1975": 2.3801,"2000": 2.3801,"2025": 2.121,"2050": 1.36,"2075": 1.797,"2100": 1.6998,"2125": 1.5217,"2150": 1.5378,"2175": 1.3434,"2200": 1.4892,"2225": 1.3273,"2250": 0.5827,"2275": 0.0486,"2300": 0.081,"2325": 0.0486,"2350": 0.0324,"2375": 0.0162}}}