{"type": "Feature","bbox": [-5.7374,40.0829,-4.1602,41.1642],"geometry": {"type": "MultiPolygon","coordinates": [[[[-5.488,40.2047,2095.8787],[-5.4708,40.2079,2112.3108],[-5.468,40.2242,2215.1433],[-5.4522,40.2272,2240.7749],[-5.4397,40.2336,2209.7896],[-5.4297,40.2523,2173.9487],[-5.4125,40.2552,2226.6138],[-5.3949,40.2505,2220.1216],[-5.3786,40.2579,1994.5103],[-5.3641,40.257,2116.3213],[-5.3577,40.263,2133.5254],[-5.3488,40.2652,2139.842],[-5.3431,40.2641,2115.8425],[-5.3583,40.232,973.8221],[-5.3582,40.2283,932.551],[-5.3626,40.223,838.9404],[-5.3696,40.2183,774.3176],[-5.3694,40.211,719.7184],[-5.364,40.2033,627.4705],[-5.3681,40.1991,582.5571],[-5.3664,40.196,554.4363],[-5.3664,40.1835,489.8943],[-5.3646,40.1819,471.2744],[-5.3647,40.1745,444.7339],[-5.3679,40.1641,416.58],[-5.3669,40.1604,394.0762],[-5.3601,40.1569,384.9306],[-5.3601,40.1543,384.855],[-5.3571,40.1528,381.3691],[-5.3567,40.1484,362.0838],[-5.3458,40.1335,322.4163],[-5.3458,40.1297,315.4946],[-5.3419,40.126,308.276],[-5.3369,40.1242,301.2853],[-5.3359,40.1158,290.695],[-5.3157,40.107,307.5],[-5.3015,40.1074,307.5],[-5.2967,40.1101,307.5],[-5.2706,40.1097,313.6854],[-5.2671,40.1111,307.5],[-5.2606,40.1079,307.5],[-5.2492,40.1087,307.5],[-5.2128,40.1069,313.7055],[-5.2103,40.1053,311.3091],[-5.2116,40.0927,325.298],[-5.2076,40.0896,317.3439],[-5.2066,40.0856,325.2264],[-5.202,40.0829,321.9391],[-5.1922,40.0835,325.741],[-5.185,40.088,324.2478],[-5.1715,40.0848,333.8376],[-5.1539,40.0929,330.8449],[-5.1491,40.0908,337.1038],[-5.142,40.0915,348.2863],[-5.1401,40.093,344.2776],[-5.1402,40.0967,341.4073],[-5.1247,40.1041,341.0697],[-5.1053,40.1187,413.8791],[-5.1013,40.127,353.2737],[-5.0945,40.1274,381.7995],[-5.0908,40.1236,362.7875],[-5.0889,40.1236,371.3617],[-5.0859,40.1261,360.8552],[-5.085,40.1355,367.0266],[-5.0776,40.1362,369.3875],[-5.0782,40.1412,364.5967],[-5.0737,40.1438,364.6863],[-5.07,40.1488,363.1803],[-5.0627,40.1516,370.2703],[-5.0569,40.1492,369.7554],[-5.0518,40.1515,384.2664],[-5.042,40.1511,373.4741],[-5.0338,40.1567,375.9181],[-5.0184,40.1591,371.06],[-5.0169,40.1458,412.9014],[-5.0137,40.1437,426.8014],[-5.0069,40.1312,446.6508],[-5.0076,40.1217,489.1692],[-5.0132,40.1111,536.2381],[-5.0061,40.1097,550.926],[-4.9891,40.1159,641.4287],[-4.9823,40.1154,630.057],[-4.9708,40.1198,644.3651],[-4.9544,40.1211,550.5721],[-4.9588,40.1261,551.0174],[-4.9553,40.1262,581.1602],[-4.9592,40.1305,584.1101],[-4.9562,40.1334,579.7317],[-4.9457,40.1326,572.9732],[-4.9253,40.136,569.1322],[-4.918,40.1553,471.9279],[-4.9236,40.165,402.2973],[-4.9246,40.17,384.5534],[-4.9102,40.1755,385.0239],[-4.8965,40.1851,385.3577],[-4.8844,40.191,387.0834],[-4.8782,40.1903,391.4957],[-4.8752,40.1978,388.9087],[-4.862,40.2052,393.3821],[-4.8596,40.2035,394.6713],[-4.8493,40.209,399.8922],[-4.8402,40.21,403.0257],[-4.8353,40.2125,398.205],[-4.8208,40.2234,399.6731],[-4.8224,40.2295,402.1813],[-4.8076,40.2353,408.1489],[-4.8101,40.2409,414.4316],[-4.8119,40.2406,414.4316],[-4.811,40.2438,419.5708],[-4.8132,40.2495,425.8702],[-4.8181,40.2548,435.2008],[-4.8099,40.2594,458.384],[-4.8112,40.264,498.6974],[-4.807,40.2678,521.9163],[-4.8076,40.271,578.2311],[-4.8041,40.2751,608.0235],[-4.7888,40.2721,547.3048],[-4.7832,40.2702,483.1627],[-4.7816,40.2674,470.9876],[-4.778,40.2656,440.5177],[-4.7611,40.2609,434.8151],[-4.7532,40.2641,439.1325],[-4.7425,40.2753,472.1677],[-4.7285,40.2705,480.9382],[-4.7274,40.2735,505.4187],[-4.712,40.276,552.4508],[-4.7136,40.2808,490.4745],[-4.698,40.2822,499.9484],[-4.694,40.2664,541.8998],[-4.7025,40.2636,527.2697],[-4.7017,40.2572,536.2023],[-4.6928,40.2539,552.0248],[-4.6871,40.2496,559.2303],[-4.6936,40.2411,599.6085],[-4.6865,40.2358,644.9614],[-4.6895,40.2293,827.2674],[-4.6861,40.2185,602.0098],[-4.6866,40.211,570.8683],[-4.6792,40.207,539.7463],[-4.6737,40.2097,539.5968],[-4.6627,40.2061,584.3825],[-4.6577,40.1997,604.233],[-4.6539,40.1982,633.0088],[-4.64,40.1973,715.9659],[-4.6357,40.2005,730.8668],[-4.6298,40.2018,791.7498],[-4.6168,40.2002,953.7574],[-4.6068,40.205,1002.0261],[-4.6042,40.2082,1031.4891],[-4.6002,40.2082,1028.5498],[-4.5925,40.2114,1010.3834],[-4.5866,40.2163,1031.8726],[-4.5789,40.2174,1009.3795],[-4.5744,40.2197,1025.1088],[-4.5655,40.218,1003.0691],[-4.5606,40.2228,984.7745],[-4.5589,40.234,790.1335],[-4.5601,40.2364,769.2422],[-4.5658,40.2397,780.3856],[-4.5691,40.2572,639.4922],[-4.5563,40.2645,651.9418],[-4.554,40.2764,734.8928],[-4.5554,40.2771,726.8123],[-4.5467,40.2801,784.0431],[-4.5421,40.2866,867.2211],[-4.5338,40.2888,925.7631],[-4.529,40.2928,1006.0826],[-4.5376,40.3113,769.8688],[-4.5398,40.3278,1169.7166],[-4.5442,40.3302,1262.3024],[-4.5428,40.3308,1279.5613],[-4.5434,40.3335,1341.2188],[-4.5477,40.3394,1592.6575],[-4.5464,40.3421,1662.4941],[-4.5382,40.3407,1444.6407],[-4.5263,40.3449,1289.574],[-4.5267,40.3382,1129.2185],[-4.5209,40.3358,1023.0911],[-4.5154,40.3288,861.8411],[-4.5129,40.3206,830.3951],[-4.5043,40.3151,710.4857],[-4.4977,40.3167,704.136],[-4.4908,40.3205,693.1694],[-4.4854,40.3211,705.2834],[-4.4647,40.3187,861.5443],[-4.4554,40.3199,804.6909],[-4.4536,40.333,728.424],[-4.4605,40.3403,667.2566],[-4.4572,40.3447,661.1095],[-4.4496,40.3459,660.6405],[-4.4396,40.3503,652.6147],[-4.4384,40.3544,651.1738],[-4.4405,40.3638,644.5452],[-4.4395,40.3799,652.0739],[-4.4425,40.3857,615.3677],[-4.441,40.3886,610.9091],[-4.4368,40.39,611.2836],[-4.4369,40.3932,596.9719],[-4.432,40.3978,597.0127],[-4.4233,40.4024,580.4312],[-4.4218,40.4064,573.2542],[-4.4173,40.4065,571.0],[-4.4138,40.4106,575.3147],[-4.4006,40.4114,570.5],[-4.3768,40.4074,576.3809],[-4.3656,40.4079,674.0052],[-4.361,40.4117,914.0457],[-4.352,40.4134,1010.7552],[-4.334,40.4089,857.2347],[-4.3287,40.4107,698.5087],[-4.3208,40.4107,602.8544],[-4.3263,40.4136,600.9068],[-4.3241,40.4186,612.806],[-4.3241,40.4244,619.855],[-4.3294,40.4234,605.5579],[-4.334,40.4254,613.4406],[-4.3355,40.4278,614.0542],[-4.3403,40.4291,618.9374],[-4.3394,40.4319,619.1997],[-4.3408,40.438,623.314],[-4.3322,40.4416,652.5823],[-4.3351,40.4433,672.158],[-4.331,40.4447,657.0415],[-4.3326,40.4487,678.7325],[-4.3232,40.4494,662.0435],[-4.3207,40.4515,660.4963],[-4.3217,40.4561,672.1825],[-4.3268,40.4572,720.5065],[-4.3263,40.4602,679.6489],[-4.3186,40.4594,685.7696],[-4.3205,40.4629,703.9378],[-4.3163,40.4654,697.0314],[-4.3192,40.4673,728.1647],[-4.3175,40.4697,718.6643],[-4.3205,40.4706,734.1429],[-4.3233,40.477,747.4547],[-4.3234,40.5016,837.9911],[-4.325,40.5071,869.6396],[-4.3276,40.5075,877.7341],[-4.3231,40.5177,911.2368],[-4.3213,40.5321,986.8341],[-4.3285,40.5348,1011.9481],[-4.3246,40.541,1023.437],[-4.3247,40.5477,1052.49],[-4.3229,40.5511,1064.7346],[-4.3084,40.5588,1216.5486],[-4.2896,40.5644,1041.9583],[-4.2855,40.5823,1088.1487],[-4.2815,40.5896,1101.1233],[-4.2832,40.5953,1123.4269],[-4.279,40.601,1133.9757],[-4.2787,40.6042,1135.7699],[-4.2899,40.6084,1168.4202],[-4.2885,40.626,1279.088],[-4.2899,40.628,1272.105],[-4.2794,40.6305,1415.2552],[-4.2723,40.6291,1262.6527],[-4.2708,40.6227,1240.5015],[-4.262,40.6056,1459.8408],[-4.2556,40.6034,1426.251],[-4.2423,40.6023,1413.6049],[-4.2151,40.6049,1309.4718],[-4.1928,40.6133,1560.8185],[-4.1764,40.6163,1615.8351],[-4.1612,40.6234,1704.158],[-4.1629,40.6257,1710.8467],[-4.1687,40.6259,1725.5103],[-4.173,40.6309,1630.1428],[-4.1706,40.6342,1615.7366],[-4.1718,40.638,1585.9434],[-4.168,40.6433,1518.809],[-4.1679,40.6477,1483.4617],[-4.169,40.6638,1594.6244],[-4.1735,40.6668,1657.0103],[-4.1735,40.6737,1680.9913],[-4.1719,40.6796,1748.4536],[-4.1602,40.6898,1797.3284],[-4.165,40.6932,1649.3514],[-4.1722,40.6925,1451.6223],[-4.1836,40.698,1539.0825],[-4.1875,40.6959,1624.1602],[-4.2154,40.693,1714.3413],[-4.2322,40.6883,1700.043],[-4.2453,40.6899,1734.7773],[-4.2513,40.6884,1712.1339],[-4.2528,40.6895,1687.7139],[-4.2584,40.6859,1647.5885],[-4.2655,40.6851,1590.4771],[-4.2733,40.6813,1548.405],[-4.275,40.6763,1565.0254],[-4.2698,40.6755,1585.1599],[-4.2632,40.6669,1539.5903],[-4.2565,40.6638,1520.1971],[-4.2574,40.6534,1520.0111],[-4.2679,40.6549,1475.9165],[-4.3016,40.6527,1521.3745],[-4.3196,40.6475,1550.8542],[-4.328,40.6473,1477.1997],[-4.3349,40.6395,1478.4614],[-4.3325,40.6371,1447.1591],[-4.3646,40.6375,1587.6633],[-4.3939,40.6332,1584.365],[-4.4072,40.6344,1519.4019],[-4.4195,40.6334,1482.7085],[-4.4192,40.655,1392.4196],[-4.422,40.6753,1252.9637],[-4.4318,40.7041,1360.2435],[-4.4346,40.7062,1397.2357],[-4.4356,40.7159,1473.0649],[-4.4322,40.7172,1485.0237],[-4.4301,40.7282,1294.6891],[-4.4268,40.7296,1295.6992],[-4.4304,40.7362,1199.0831],[-4.431,40.7424,1174.6218],[-4.4386,40.7498,1138.2888],[-4.4544,40.7545,1143.9048],[-4.4598,40.7588,1155.9951],[-4.467,40.7691,1102.337],[-4.4737,40.7747,1114.1442],[-4.4724,40.7821,1121.6827],[-4.4805,40.7862,1111.7852],[-4.4813,40.7916,1088.3792],[-4.4805,40.7945,1089.8682],[-4.4731,40.8,1099.7092],[-4.4767,40.8033,1083.4525],[-4.4768,40.8076,1098.3335],[-4.486,40.8143,1085.2694],[-4.4867,40.8202,1073.5519],[-4.4937,40.8335,1043.9735],[-4.4986,40.8335,1060.2421],[-4.5015,40.8302,1063.7488],[-4.5065,40.8312,1071.168],[-4.5083,40.8301,1080.2758],[-4.5087,40.8313,1078.3188],[-4.5245,40.8258,1074.4987],[-4.5338,40.8287,1025.7432],[-4.5463,40.8256,1006.3734],[-4.5588,40.8396,950.8461],[-4.5498,40.8534,961.4564],[-4.5396,40.8556,995.1793],[-4.5358,40.855,1033.9667],[-4.5315,40.8586,1039.0271],[-4.5335,40.8641,1027.2637],[-4.5355,40.8655,1032.2229],[-4.5352,40.8724,1037.8485],[-4.5508,40.8795,923.8094],[-4.5518,40.8821,921.0001],[-4.5595,40.8859,909.2834],[-4.5551,40.895,907.2419],[-4.5564,40.9029,903.5775],[-4.5524,40.9075,902.5258],[-4.5592,40.9132,923.791],[-4.5583,40.9401,919.0531],[-4.5618,40.9405,920.8268],[-4.5667,40.9454,925.5929],[-4.5678,40.9508,925.1841],[-4.565,40.9524,918.8582],[-4.5663,40.9562,903.3987],[-4.5719,40.9558,930.3175],[-4.5749,40.9603,929.7595],[-4.5959,40.9658,935.8953],[-4.6066,40.9708,911.8119],[-4.6181,40.9974,896.2651],[-4.6171,41.0037,889.0022],[-4.6235,41.0069,891.28],[-4.6227,41.0094,890.1028],[-4.6394,41.0301,869.5048],[-4.6382,41.0313,870.0837],[-4.6459,41.0315,865.4307],[-4.6527,41.0342,863.4905],[-4.6595,41.0415,861.2263],[-4.6656,41.0453,852.3334],[-4.6812,41.0512,837.2618],[-4.7002,41.0519,827.3911],[-4.7053,41.0542,808.7419],[-4.7131,41.0629,815.9465],[-4.7164,41.0716,810.0522],[-4.7134,41.083,817.7408],[-4.709,41.0854,824.1794],[-4.7071,41.0888,827.1279],[-4.7178,41.09,791.0607],[-4.7132,41.0917,812.6265],[-4.7099,41.0993,808.7211],[-4.716,41.1042,810.488],[-4.715,41.1106,812.4856],[-4.7213,41.1165,811.6915],[-4.7246,41.1234,805.859],[-4.7237,41.1286,806.3135],[-4.7166,41.1326,802.3242],[-4.7199,41.1349,804.3112],[-4.722,41.1493,798.9316],[-4.7289,41.1508,797.6669],[-4.7373,41.1504,796.051],[-4.7391,41.149,798.7938],[-4.7488,41.1497,791.2758],[-4.767,41.1424,790.8469],[-4.7787,41.145,799.2669],[-4.7861,41.1436,802.5433],[-4.7889,41.1399,809.5046],[-4.796,41.1358,809.4992],[-4.8057,41.1352,795.1616],[-4.8134,41.1294,794.4535],[-4.8122,41.1264,799.7748],[-4.8169,41.1168,845.8332],[-4.8188,41.1079,842.0176],[-4.8149,41.1034,859.5851],[-4.8279,41.0992,805.5306],[-4.8555,41.1007,785.5479],[-4.8636,41.094,788.9821],[-4.872,41.0979,781.7178],[-4.8726,41.0992,779.8512],[-4.8701,41.1003,780.5623],[-4.8745,41.1035,777.547],[-4.8788,41.1053,777.8331],[-4.8808,41.1045,777.9019],[-4.894,41.1131,773.1783],[-4.9018,41.1145,775.2271],[-4.9049,41.1187,772.0819],[-4.9089,41.1188,776.2946],[-4.9237,41.1241,779.1136],[-4.9309,41.1293,771.8414],[-4.9392,41.1319,776.0001],[-4.9507,41.1407,772.1069],[-4.9579,41.139,774.6801],[-4.9629,41.1401,773.7003],[-4.9646,41.1497,769.3858],[-4.9675,41.1523,765.5004],[-4.9772,41.1512,768.7018],[-4.9844,41.1522,769.1544],[-4.9825,41.1549,768.1903],[-4.9876,41.156,766.5851],[-4.9896,41.1608,767.3471],[-5.0043,41.1589,775.8982],[-5.0074,41.1619,768.2518],[-5.0108,41.162,766.3427],[-5.0138,41.1642,775.8782],[-5.0138,41.1622,768.627],[-5.0238,41.1568,774.3616],[-5.0217,41.1535,774.119],[-5.0598,41.1386,778.905],[-5.0759,41.1394,782.4749],[-5.1,41.1471,776.973],[-5.1022,41.1427,782.0757],[-5.1113,41.135,777.1417],[-5.1129,41.1364,777.0608],[-5.1239,41.1356,780.3115],[-5.1291,41.1054,791.2346],[-5.1394,41.0998,791.2825],[-5.1403,41.0968,790.9324],[-5.1433,41.0971,794.5248],[-5.1485,41.0921,800.0293],[-5.1513,41.0853,797.1526],[-5.15,41.0838,797.1526],[-5.1522,41.0819,801.0608],[-5.1502,41.0793,806.7111],[-5.1529,41.0637,809.2256],[-5.1491,41.0593,807.4952],[-5.1492,41.0553,808.5257],[-5.1469,41.0542,809.4667],[-5.1482,41.048,811.7077],[-5.1452,41.0467,813.2239],[-5.1464,41.0436,818.0782],[-5.1413,41.0405,816.7239],[-5.1407,41.0372,817.5751],[-5.1378,41.0394,817.5991],[-5.1312,41.0362,816.9379],[-5.1065,41.0295,825.1025],[-5.1078,41.0269,828.0878],[-5.1036,41.0265,828.3096],[-5.1052,41.0232,830.7641],[-5.1019,41.0218,832.3501],[-5.1026,41.0168,834.7527],[-5.1,41.0169,835.9609],[-5.1009,41.0143,836.8925],[-5.0919,41.0069,842.8492],[-5.0919,40.9985,844.0546],[-5.0897,40.9966,843.8904],[-5.0995,40.9896,854.9334],[-5.0963,40.9847,857.0994],[-5.0964,40.9785,863.7544],[-5.1063,40.9634,880.2158],[-5.1047,40.9603,870.5214],[-5.1086,40.9604,876.5842],[-5.1086,40.9584,879.8712],[-5.1166,40.9543,880.7021],[-5.1211,40.9562,881.9445],[-5.1275,40.9541,898.5368],[-5.1281,40.9486,909.1388],[-5.1232,40.9485,901.1366],[-5.123,40.9454,898.2087],[-5.1248,40.9436,901.2522],[-5.1181,40.933,897.077],[-5.1215,40.9315,902.7651],[-5.1208,40.9302,903.5854],[-5.116,40.9308,899.1267],[-5.1147,40.9293,898.6492],[-5.1173,40.9276,899.3621],[-5.1146,40.9264,903.4447],[-5.1169,40.9242,908.6245],[-5.112,40.9187,903.8168],[-5.1132,40.9176,904.6586],[-5.1111,40.9149,916.1962],[-5.1145,40.9136,918.9504],[-5.1125,40.9123,918.9504],[-5.1169,40.9046,936.5806],[-5.1154,40.9023,938.5936],[-5.1214,40.901,929.3469],[-5.1231,40.9024,927.3085],[-5.127,40.9002,913.5955],[-5.1299,40.9003,914.5829],[-5.1349,40.8965,926.0348],[-5.1339,40.8953,923.9589],[-5.1387,40.8937,928.0829],[-5.1395,40.892,927.9711],[-5.1368,40.8911,922.0548],[-5.1401,40.8876,926.7346],[-5.1493,40.8816,942.9479],[-5.1489,40.8773,947.1991],[-5.1519,40.8762,949.4642],[-5.1524,40.874,952.7267],[-5.1571,40.8701,958.9899],[-5.1637,40.8684,946.3763],[-5.1614,40.8622,931.079],[-5.1641,40.8568,914.0926],[-5.163,40.8541,901.0131],[-5.1655,40.8432,900.7599],[-5.1688,40.84,917.4807],[-5.1681,40.8365,925.2983],[-5.1663,40.8342,925.725],[-5.1638,40.8344,930.7307],[-5.1638,40.831,937.5519],[-5.161,40.8296,937.4631],[-5.1618,40.8281,931.8096],[-5.1574,40.8241,949.423],[-5.1586,40.8203,953.4174],[-5.1616,40.8179,947.3115],[-5.1614,40.814,930.3967],[-5.1658,40.8135,913.7679],[-5.1667,40.8112,910.1384],[-5.1775,40.8053,935.8387],[-5.1805,40.7975,958.3325],[-5.1782,40.7964,957.5466],[-5.1843,40.7887,981.161],[-5.2084,40.7791,930.0772],[-5.2189,40.773,924.3939],[-5.2169,40.7707,912.4746],[-5.2143,40.7578,956.554],[-5.2275,40.7532,961.3856],[-5.2321,40.7486,917.8689],[-5.2498,40.7429,986.9764],[-5.2549,40.7395,970.4],[-5.2537,40.7343,1005.4229],[-5.2571,40.7363,994.7384],[-5.2594,40.7327,979.0612],[-5.2656,40.7285,964.3014],[-5.277,40.7238,956.2258],[-5.2792,40.7202,949.1581],[-5.2896,40.7143,989.8063],[-5.2927,40.7103,1025.0315],[-5.313,40.7036,941.3895],[-5.3217,40.7031,964.3507],[-5.322,40.7055,957.752],[-5.3286,40.7054,979.7196],[-5.3302,40.7014,988.1485],[-5.337,40.6995,979.6962],[-5.3329,40.6977,990.1962],[-5.332,40.6946,995.6616],[-5.3371,40.6893,980.5581],[-5.3416,40.6869,959.3889],[-5.3491,40.6871,951.559],[-5.3647,40.6794,1007.0613],[-5.3684,40.681,997.2156],[-5.3776,40.6778,1003.4254],[-5.3805,40.6716,981.6217],[-5.3853,40.6715,961.7691],[-5.3869,40.6693,953.823],[-5.3857,40.6633,1014.063],[-5.3658,40.6488,1077.7427],[-5.3783,40.6455,1046.028],[-5.3731,40.6388,1064.2756],[-5.3816,40.6307,1089.2837],[-5.3791,40.6272,1102.1624],[-5.3828,40.6208,1112.0352],[-5.3844,40.622,1106.9491],[-5.3865,40.6198,1092.8069],[-5.3923,40.618899999999996,1069.0715],[-5.402,40.6095,1059.6785],[-5.4085,40.6089,1084.583],[-5.412,40.6104,1071.9067],[-5.4226,40.6053,1021.7875],[-5.4241,40.5975,1067.8334],[-5.4293,40.5958,1056.1976],[-5.4335,40.5909,1086.3151],[-5.4387,40.5889,1088.119],[-5.4408,40.59,1073.9189],[-5.4428,40.5869,1104.151],[-5.4461,40.5858,1089.9333],[-5.4475,40.5796,1131.762],[-5.4643,40.5776,1099.9152],[-5.4642,40.5797,1096.7328],[-5.4667,40.5804,1063.6973],[-5.4856,40.5816,1039.8337],[-5.4877,40.5833,1030.354],[-5.4995,40.5816,988.8997],[-5.4988,40.5899,1034.3135],[-5.5008,40.5974,1009.3112],[-5.5058,40.59,1023.572],[-5.51,40.5904,1003.9326],[-5.5161,40.5854,953.8452],[-5.5175,40.5733,1003.6661],[-5.5159,40.5705,1000.9911],[-5.5182,40.5638,1018.4974],[-5.5286,40.5541,1119.8768],[-5.529,40.5506,1205.6125],[-5.526,40.5487,1161.9958],[-5.5264,40.5416,1077.6422],[-5.5246,40.5407,1076.6255],[-5.5174,40.5456,1214.4554],[-5.4815,40.5567,1310.683],[-5.465,40.5602,1238.7725],[-5.4605,40.5593,1239.1127],[-5.4534,40.5606,1195.2719],[-5.4379,40.5663,1221.4503],[-5.431,40.5672,1233.2527],[-5.4254,40.5566,1153.0258],[-5.4297,40.552,1138.7017],[-5.4331,40.5342,1142.1414],[-5.4363,40.5294,1136.0541],[-5.4421,40.5264,1073.8323],[-5.4469,40.52,1041.3583],[-5.4502,40.4975,1008.9951],[-5.4523,40.4941,1003.8976],[-5.4618,40.4912,1009.2541],[-5.4603,40.474,970.2512],[-5.4676,40.4671,963.8309],[-5.4654,40.4659,953.4423],[-5.4693,40.4622,949.5895],[-5.4779,40.46,945.187],[-5.4824,40.4567,944.4944],[-5.4862,40.4583,944.2154],[-5.5003,40.4589,942.5117],[-5.5097,40.4637,942.3854],[-5.5093,40.4591,943.675],[-5.5184,40.452,944.6879],[-5.5196,40.4465,951.0731],[-5.5113,40.4435,956.1151],[-5.5096,40.4385,956.8998],[-5.511,40.428,957.0891],[-5.5135,40.4238,971.0959],[-5.527,40.4224,978.1987],[-5.5397,40.4244,984.2944],[-5.5446,40.4231,985.6615],[-5.5546,40.4339,1009.5651],[-5.5639,40.4406,1057.7878],[-5.5745,40.4443,1100.1382],[-5.5706,40.4565,1121.9227],[-5.5665,40.4572,1143.175],[-5.561,40.4615,1312.1082],[-5.56,40.4668,1134.1003],[-5.564,40.4728,1044.958],[-5.5608,40.4771,1029.8333],[-5.575,40.4764,1009.9181],[-5.5897,40.4673,1026.3217],[-5.6097,40.4681,935.4376],[-5.6227,40.4658,995.3987],[-5.6263,40.4627,989.9919],[-5.6341,40.4604,1000.7414],[-5.6436,40.4463,1026.7119],[-5.6564,40.4368,1126.8308],[-5.6707,40.432,1225.4169],[-5.6748,40.4272,1189.4362],[-5.6911,40.422,1293.9167],[-5.6918,40.4195,1320.3352],[-5.6875,40.4157,1237.4153],[-5.6849,40.3954,1401.066],[-5.6783,40.3867,1684.0598],[-5.6867,40.3764,1780.3552],[-5.687,40.3612,1928.1925],[-5.685,40.3579,1937.618],[-5.6862,40.3554,1961.7009],[-5.6729,40.3485,2093.4229],[-5.6859,40.3438,2224.8118],[-5.69,40.3377,2353.6318],[-5.7077,40.3302,2309.5161],[-5.7142,40.3253,2347.0679],[-5.729,40.3104,2312.0129],[-5.7287,40.3039,2409.9788],[-5.7374,40.2941,2346.8882],[-5.7341,40.2925,2359.4141],[-5.7051,40.2912,2016.6061],[-5.7002,40.2889,2055.5125],[-5.6925,40.2921,2012.6008],[-5.6826,40.2839,1655.7152],[-5.6565,40.2702,1301.1453],[-5.6597,40.2574,1497.5326],[-5.6491,40.2497,1697.6421],[-5.6261,40.2477,1998.5369],[-5.6219,40.2459,1990.469],[-5.621,40.2414,1994.5005],[-5.6163,40.2363,2127.8047],[-5.6143,40.2359,2119.9387],[-5.6136,40.2333,2109.3628],[-5.6188,40.2239,2271.8462],[-5.6099,40.2155,2283.7666],[-5.5983,40.2168,2355.6489],[-5.5909,40.2153,2098.9668],[-5.5681,40.2064,2041.3506],[-5.5635,40.2026,1995.2322],[-5.5517,40.2006,2017.4741],[-5.548,40.1972,2021.1323],[-5.5364,40.1966,2021.1692],[-5.5309,40.1947,2070.4082],[-5.5186,40.1969,2196.1167],[-5.5096,40.2019,2126.8755],[-5.4999,40.2008,2223.4155],[-5.499,40.1989,2238.0684],[-5.488,40.2047,2095.8787]]]]}
,"properties": {"GID_2": "ESP.5.1_1","GID_0": "ESP","country": "Spain","GID_1": "ESP.5_1","province": "CastillayLeón","NL_NAME_1": "NA","county": "Ávila","VARNAME_2": "NA","NL_NAME_2": "NA","TYPE_2": "Provincia","ENGTYPE_2": "Province","CC_2": "05","HASC_2": "ES.CL.AV","name": "Ávila.county","area_km2": 8040.109,"hist_schema_id": "Elevation0-9000","hist_area_km2": {"300": 6.453,"325": 37.386,"350": 28.986,"375": 47.665,"400": 73.844,"425": 41.081,"450": 26.628,"475": 21.297,"500": 25.244,"525": 24.027,"550": 27.422,"575": 38.37,"600": 47.484,"625": 53.446,"650": 51.539,"675": 48.044,"700": 44.981,"725": 52.864,"750": 48.243,"775": 120.708,"800": 232.123,"825": 208.255,"850": 258.469,"875": 377.967,"900": 305.038,"925": 255.622,"950": 216.408,"975": 197.928,"1000": 235.194,"1025": 222.973,"1050": 218.292,"1075": 262.951,"1100": 306.726,"1125": 305.439,"1150": 289.439,"1175": 232.765,"1200": 206.399,"1225": 189.217,"1250": 181.96,"1275": 168.09,"1300": 157.979,"1325": 146.458,"1350": 140.034,"1375": 133.74,"1400": 122.468,"1425": 125.024,"1450": 129.689,"1475": 117.519,"1500": 106.12,"1525": 98.239,"1550": 91.28,"1575": 81.053,"1600": 78.812,"1625": 75.153,"1650": 69.043,"1675": 65.041,"1700": 57.826,"1725": 56.007,"1750": 50.102,"1775": 46.293,"1800": 39.412,"1825": 37.54,"1850": 37.118,"1875": 33.501,"1900": 29.209,"1925": 25.352,"1950": 19.847,"1975": 16.795,"2000": 15.536,"2025": 14.68,"2050": 11.95,"2075": 11.498,"2100": 10.948,"2125": 10.415,"2150": 7.764,"2175": 6.923,"2200": 5.921,"2225": 5.128,"2250": 4.189,"2275": 3.057,"2300": 2.103,"2325": 1.957,"2350": 1.65,"2375": 1.1,"2400": 0.615,"2425": 0.372,"2450": 0.34,"2475": 0.227,"2500": 0.065}}}