{"type": "Feature","bbox": [-0.0098,40.2032,0.5154,40.7332],"geometry": {"type": "MultiPolygon","coordinates": [[[[0.1747,40.584,777.3157],[0.1459,40.5746,953.7334],[0.1282,40.5806,1003.2798],[0.122,40.5851,1035.1193],[0.1163,40.5866,1077.9132],[0.1029,40.5841,1133.5417],[0.0787,40.5721,1170.3765],[0.0777,40.5662,1132.9362],[0.085,40.5563,978.2902],[0.0832,40.5486,996.4846],[0.0864,40.5494,1003.1409],[0.0951,40.5474,965.33989999999994],[0.0984,40.5412,924.9977],[0.0988,40.5373,851.387],[0.0958,40.5362,847.6204],[0.0925,40.5289,680.7058],[0.0938,40.5256,575.8968],[0.0921,40.5249,586.9551],[0.0911,40.5196,518.1886],[0.0858,40.5149,640.1044],[0.0797,40.5028,665.2718],[0.0819,40.5016,623.1171],[0.0938,40.4785,703.3351],[0.0914,40.4724,623.4086],[0.092,40.4632,532.63],[0.0936,40.4613,527.873],[0.0923,40.4597,512.7777],[0.0963,40.4588,537.4214],[0.0976,40.4534,474.748],[0.0998,40.4522,464.6636],[0.1126,40.4501,408.0708],[0.1153,40.4481,398.2194],[0.113,40.4444,394.9225],[0.1144,40.443,407.7703],[0.1084,40.4392,438.8972],[0.108,40.429,545.4776],[0.1024,40.4285,616.3065],[0.1033,40.4237,574.9147],[0.0973,40.4219,588.0736],[0.1005,40.4183,583.6304],[0.1067,40.4162,558.801],[0.1138,40.4085,459.0989],[0.1133,40.4049,415.614],[0.1209,40.397,329.4044],[0.1204,40.3943,320.2156],[0.1253,40.3919,303.9658],[0.1291,40.392,299.5418],[0.1359,40.3823,271.7715],[0.1459,40.3807,255.9889],[0.1472,40.3823,277.4868],[0.151,40.3822,286.6087],[0.169,40.3731,531.4485],[0.1676,40.3706,505.9036],[0.1694,40.3678,490.0877],[0.1646,40.3598,513.6376],[0.1805,40.3434,503.8336],[0.1656,40.3279,365.4105],[0.1736,40.3108,198.7039],[0.1799,40.3034,308.1532],[0.1797,40.2942,297.3055],[0.1738,40.2904,320.6347],[0.1719,40.2869,263.9603],[0.1754,40.2774,172.0688],[0.1765,40.2653,197.6183],[0.1742,40.2569,168.0515],[0.1601,40.2315,113.8075],[0.1539,40.2235,137.7555],[0.1658,40.2197,181.0491],[0.1706,40.2217,189.6448],[0.179,40.2315,174.6432],[0.195,40.2359,110.5577],[0.2064,40.2342,74.0319],[0.2302,40.2235,26.4061],[0.2482,40.2128,8.4757],[0.2535,40.2089,5.3108],[0.2562,40.2032,0.0],[0.2657,40.2096,0.0],[0.2693,40.2212,2.2911],[0.2735,40.2282,0.0],[0.2729,40.2349,0.0],[0.2765,40.2376,0.9133],[0.2746,40.239,4.4165],[0.2796,40.2446,0.546],[0.2888,40.2485,0.0],[0.2899,40.2504,0.0],[0.2868,40.2515,13.0208],[0.2868,40.2532,11.8365],[0.2913,40.254,0.0],[0.296,40.2582,0.0],[0.3043,40.2593,0.9965],[0.309,40.2668,1.0665],[0.3257,40.2754,0.0],[0.3326,40.2818,0.0],[0.3343,40.2893,2.3355],[0.3371,40.2929,1.7046],[0.3474,40.296,0.7242],[0.3504,40.2993,1.09],[0.3537,40.311,1.2237],[0.3632,40.3193,0.0],[0.3657,40.3246,0.0],[0.3868,40.3401,0.0],[0.3929,40.351,0.0],[0.3987,40.3537,0.0],[0.3993,40.3576,4.6477],[0.4026,40.3582,1.824],[0.4029,40.3557,0.0],[0.4054,40.3563,0.0],[0.4024,40.3546,0.0],[0.4024,40.3529,0.0],[0.4071,40.3557,0.5942],[0.409,40.3585,6.9201],[0.4043,40.3599,2.9944],[0.4035,40.3654,0.0],[0.4104,40.3854,2.3449],[0.4179,40.4012,4.0648],[0.4251,40.4076,0.5855],[0.4293,40.4093,0.0],[0.4337,40.4154,0.0],[0.436,40.4154,0.2535],[0.4349,40.409,0.0],[0.436,40.4093,0.0],[0.4399,40.4263,0.0],[0.449,40.4396,3.2687],[0.4535,40.4412,1.3605],[0.4574,40.4476,2.8188],[0.4596,40.4487,0.0],[0.4665,40.4607,4.1388],[0.4707,40.4629,1.7033],[0.4746,40.4613,0.601],[0.4726,40.4637,0.0],[0.476,40.4651,0.0],[0.4785,40.4621,0.0],[0.4763,40.4571,0.0],[0.4779,40.4582,0.0],[0.479,40.4635,0.0],[0.4768,40.4668,0.428],[0.4774,40.4685,3.011],[0.4857,40.4765,0.0],[0.4854,40.4799,1.6634],[0.4888,40.4837,0.0],[0.4879,40.4846,6.1341],[0.4915,40.4888,7.0003],[0.4951,40.4896,0.0],[0.4946,40.4915,8.5348],[0.504,40.5024,2.2318],[0.5057,40.5082,4.7387],[0.5135,40.5157,0.0],[0.5129,40.5176,5.2189],[0.5146,40.5182,0.574],[0.5154,40.5229,4.7437],[0.4988,40.5279,20.7437],[0.4871,40.5292,34.6423],[0.4822,40.5319,40.4121],[0.477,40.532,46.9807],[0.4604,40.5376,64.1723],[0.4565,40.5403,68.1428],[0.449,40.5413,76.3448],[0.4463,40.545,79.5156],[0.438,40.5471,82.5076],[0.4359,40.5499,94.3324],[0.4362,40.5588,96.5547],[0.4335,40.5654,103.0344],[0.4384,40.5702,121.3552],[0.4366,40.5727,128.4769],[0.444,40.5782,122.4203],[0.4307,40.5797,135.0425],[0.4046,40.5949,165.5884],[0.4064,40.5973,169.4358],[0.402,40.6024,177.5804],[0.3962,40.6025,182.8524],[0.3892,40.6066,193.2253],[0.3748,40.6064,212.809],[0.3711,40.6051,219.1929],[0.3508,40.6082,243.8828],[0.3453,40.6076,247.9971],[0.3185,40.615,280.9163],[0.3153,40.6143,284.1018],[0.3008,40.6226,300.7657],[0.2985,40.626,314.6042],[0.2923,40.6233,310.5928],[0.2789,40.6301,319.7288],[0.2759,40.6369,329.1896],[0.271,40.6383,334.8867],[0.2662,40.6442,342.9105],[0.2662,40.6462,354.0631],[0.2692,40.6479,369.2992],[0.2683,40.6596,390.8795],[0.2753,40.6705,710.582],[0.2822,40.6729,758.1711],[0.2857,40.6792,796.8482],[0.2924,40.6852,893.1769],[0.2919,40.6886,886.7307],[0.2769,40.6944,1006.3401],[0.2695,40.7034,1057.7583],[0.2619,40.706,1094.8433],[0.2508,40.7046,1096.4733],[0.2419,40.7004,937.9428],[0.236,40.7021,704.516],[0.2348,40.7063,571.7003],[0.2275,40.715,904.8785],[0.2242,40.7257,1114.4562],[0.2262,40.7332,1252.7903],[0.2171,40.7326,1264.063],[0.1973,40.7242,1330.9272],[0.1911,40.7312,1288.0024],[0.1834,40.7282,1182.7103],[0.1708,40.7329,1337.5345],[0.1684,40.7295,1313.3733],[0.1647,40.7278,1321.0217],[0.1639,40.7236,1309.967],[0.1414,40.7185,1246.5487],[0.1238,40.7208,1333.5088],[0.1166,40.7251,1344.6177],[0.1119,40.7247,1277.797],[0.1125,40.7272,1280.0425],[0.0727,40.7143,1181.4738],[0.0422,40.691,1052.4026],[0.0372,40.6933,1174.7825],[0.0265,40.695,1225.9901],[0.021,40.6936,1213.4387],[0.0135,40.696,1067.4529],[0.0068,40.696,940.0094],[0.0037,40.6945,914.3235],[-0.0059,40.6956,867.6481],[-0.0087,40.6944,838.3523],[-0.0098,40.6897,911.3612],[0.0007,40.6811,1040.832],[-0.0044,40.6776,899.4777],[0.0053,40.6753,980.8281],[0.0051,40.6686,1045.5516],[0.0079,40.6646,1021.8015],[0.0182,40.6588,1070.297],[0.0213,40.652,1103.4406],[0.0141,40.6486,1231.9257],[0.0388,40.65,1167.0796],[0.0439,40.6496,1189.1466],[0.0496,40.6457,1160.4282],[0.0609,40.6444,1121.9248],[0.0641,40.6472,1145.1956],[0.0897,40.6503,1185.2614],[0.1191,40.6345,1106.3368],[0.1395,40.6368,1027.5645],[0.1471,40.6297,901.6378],[0.1543,40.6277,936.8674],[0.1576,40.6137,838.4677],[0.1627,40.6149,932.0299],[0.1745,40.6104,850.7693],[0.1767,40.6042,692.1926],[0.1841,40.5994,513.4844],[0.1859,40.5956,468.0037],[0.1836,40.5928,565.6316],[0.1774,40.5899,629.2779],[0.1747,40.584,777.3157]]]]}
,"properties": {"GID_3": "ESP.10.2.5_1","GID_0": "ESP","country": "Spain","GID_1": "ESP.10_1","province": "ComunidadValenciana","NL_NAME_1": "NA","GID_2": "ESP.10.2_1","county": "Castellón","NL_NAME_2": "NA","city": "BaixMaestrat","VARNAME_3": "NA","NL_NAME_3": "NA","TYPE_3": "Comarca","ENGTYPE_3": "Comarca","CC_3": "NA","HASC_3": "NA","name": "Baix_Maestrat.city","area_km2": 1220.884,"hist_schema_id": "Elevation0-9000","hist_area_km2": {"0": 25.876,"25": 61.2989,"50": 45.5848,"75": 41.95,"100": 47.0471,"125": 53.2929,"150": 61.6194,"175": 58.0527,"200": 45.8353,"225": 42.879,"250": 40.3472,"275": 49.7263,"300": 62.1302,"325": 69.3336,"350": 57.4136,"375": 48.4251,"400": 38.241,"425": 28.8826,"450": 25.2232,"475": 23.1211,"500": 19.0551,"525": 16.9881,"550": 15.3563,"575": 14.2898,"600": 10.6305,"625": 10.3374,"650": 10.7529,"675": 9.3995,"700": 10.2691,"725": 9.5919,"750": 9.0437,"775": 8.4313,"800": 7.5949,"825": 7.1429,"850": 7.4964,"875": 6.9329,"900": 6.6594,"925": 7.1581,"950": 7.1742,"975": 6.6915,"1000": 6.2075,"1025": 6.7058,"1050": 6.9782,"1075": 8.2487,"1100": 10.4195,"1125": 10.6125,"1150": 11.2072,"1175": 9.8881,"1200": 8.2472,"1225": 6.4462,"1250": 3.9381,"1275": 2.5555,"1300": 1.2697,"1325": 0.7553,"1350": 0.1286}}}