{"type": "Feature","bbox": [-3.9026,35.1746,-2.419,35.3227],"geometry": {"type": "MultiPolygon","coordinates": [[[[-2.4229,35.1849,0.0],[-2.4249,35.184,1.998],[-2.4243,35.1799,0.4085],[-2.4196,35.1779,1.3451],[-2.419,35.1804,9.1453],[-2.4235,35.1818,0.997],[-2.4229,35.1849,0.0]]],
[[[-2.4299,35.184,0.0],[-2.4324,35.1832,0.0],[-2.4296,35.179,0.0],[-2.4276,35.1799,0.0],[-2.4271,35.1829,0.0],[-2.4299,35.184,0.0]]],
[[[-2.4401,35.1832,0.0],[-2.4418,35.1832,0.0],[-2.4429,35.1787,21.9395],[-2.4451,35.1785,1.8282],[-2.439,35.1746,0.0],[-2.4379,35.1771,1.993],[-2.4401,35.1832,0.0]]],
[[[-3.8993,35.2176,0.8824],[-3.9021,35.2179,2.1403],[-3.9026,35.2168,1.3931],[-3.899,35.2165,0.0],[-3.8993,35.2176,0.8824]]],
[[[-2.9517,35.2828,36.782],[-2.9368,35.2804,3.1052],[-2.9368,35.2874,1.5576],[-2.9324,35.2879,0.0],[-2.934,35.2899,0.0],[-2.9326,35.2918,3.43],[-2.9293,35.2924,2.787],[-2.9276,35.2907,1.3776],[-2.9257,35.2921,2.0414],[-2.9229,35.2901,0.0],[-2.9257,35.2935,2.0414],[-2.9318,35.2938,15.9254],[-2.9387,35.3021,2.0878],[-2.9462,35.3063,63.73],[-2.9474,35.3101,0.0],[-2.9443,35.3135,0.0],[-2.9449,35.316,0.0],[-2.9493,35.316,8.541],[-2.954,35.3227,7.8979],[-2.9604,35.3112,109.5043],[-2.9626,35.3,51.8954],[-2.9595,35.2942,14.6995],[-2.9598,35.2894,28.1739],[-2.9517,35.2828,36.782]]]]}
,"properties": {"GID_2": "ESP.7.2_1","GID_0": "ESP","country": "Spain","GID_1": "ESP.7_1","province": "CeutayMelilla","NL_NAME_1": "NA","county": "Melilla","VARNAME_2": "NA","NL_NAME_2": "NA","TYPE_2": "CiudadAutónoma","ENGTYPE_2": "AutonomousCity","CC_2": "52","HASC_2": "ES.ML.ME","name": "Melilla.county","area_km2": 8.220545,"hist_schema_id": "Elevation0-9000","hist_area_km2": {"0": 2.198374,"25": 2.28465,"50": 1.245952,"75": 0.830604,"100": 1.24574,"125": 0.415225}}}