{"type":"Feature","properties":{"GID_3":"ESP.11.1.7_1","GID_0":"ESP","country":"Spain","GID_1":"ESP.11_1","province":"Extremadura","NL_NAME_1":"NA","GID_2":"ESP.11.1_1","county":"Badajoz","NL_NAME_2":"NA","city":"n.a.(45)","VARNAME_3":"NA","NL_NAME_3":"NA","TYPE_3":"Comarca","ENGTYPE_3":"Comarca","CC_3":"NA","HASC_3":"NA","name":"n.a.(45).city"},
"geometry":{"type": "MultiPolygon","coordinates": [[[[-6.3192,38.3901,549.953],[-6.3203,38.4171,573.7195],[-6.3048,38.4307,545.2789],[-6.2986,38.4336,542.3596],[-6.286,38.4438,516.7619],[-6.2616,38.4487,514.3949],[-6.2442,38.4553,495.4886],[-6.2357,38.4529,492.4166],[-6.2287,38.4537,480.0553],[-6.2273,38.4554,468.6558],[-6.2239,38.4495,469.8448],[-6.2234,38.4439,473.2318],[-6.2129,38.4328,509.8129],[-6.1861,38.4382,529.6355],[-6.1842,38.4421,477.3406],[-6.1764,38.4456,463.5733],[-6.1706,38.459,407.3798],[-6.1663,38.4617,398.1607],[-6.1564,38.4606,404.0924],[-6.1505,38.4575,387.1304],[-6.1415,38.4574,384.5677],[-6.1306,38.4608,377.577],[-6.1282,38.4655,374.9291],[-6.1183,38.4658,374.3095],[-6.111,38.4638,378.7798],[-6.1097,38.4556,386.3855],[-6.107,38.4539,392.7663],[-6.1098,38.4485,388.4825],[-6.11,38.4431,391.2824],[-6.1159,38.4402,393.142],[-6.1114,38.4382,394.9386],[-6.1112,38.4335,396.9317],[-6.1085,38.4306,396.7126],[-6.098,38.4276,400.5412],[-6.0961,38.4248,408.0131],[-6.0931,38.4255,404.0038],[-6.0907,38.4192,409.4428],[-6.0849,38.419,405.6724],[-6.0827,38.4151,416.1908],[-6.0704,38.4183,412.9443],[-6.0682,38.4173,414.9673],[-6.0676,38.4148,420.7598],[-6.064,38.4131,418.4177],[-6.0586,38.4137,420.3994],[-6.0558,38.412,438.4034],[-6.0445,38.4187,486.8181],[-6.0351,38.4217,510.9195],[-6.0235,38.4339,512.5299],[-6.0201,38.443,518.9059],[-6.0251,38.4488,498.8394],[-6.0313,38.4615,476.13],[-6.0299,38.4681,400.5873],[-6.031,38.475,392.3273],[-6.0265,38.4781,375.429],[-6.0236,38.4755,367.896],[-6.0196,38.4789,378.7576],[-6.0105,38.4809,387.3731],[-6.0089,38.4843,397.3024],[-6.0024,38.4867,405.0021],[-6.0005,38.492,416.5613],[-5.9977,38.4939,438.2385],[-5.9953,38.4934,436.0507],[-5.993,38.5014,449.4123],[-5.9943,38.5039,461.6173],[-5.991,38.505,479.588],[-5.9818,38.517,521.6112],[-5.9681,38.5297,528.0504],[-5.9542,38.5273,571.3579],[-5.9338,38.5562,560.8162],[-5.9181,38.5703,588.1315],[-5.9028,38.5714,526.8672],[-5.9044,38.5722,530.3901],[-5.9005,38.5797,555.0988],[-5.905,38.5852,552.996],[-5.905,38.5886,548.1783],[-5.9115,38.5951,639.8424],[-5.9282,38.6029,538.188],[-5.9279,38.6118,587.6675],[-5.9399,38.6216,606.8383],[-5.9425,38.6282,572.5471],[-5.9512,38.63,525.6007],[-5.9666,38.6459,473.1844],[-5.9686,38.6523,462.4797],[-5.9798,38.665,448.9843],[-5.9986,38.6711,460.1429],[-6.0208,38.6857,445.8482],[-6.0459,38.7062,434.8856],[-6.0831,38.7157,335.943],[-6.0876,38.7126,333.4272],[-6.0889,38.7173,336.1556],[-6.0905,38.7176,327.9713],[-6.1018,38.7127,326.8398],[-6.1124,38.7158,326.7805],[-6.1279,38.7267,348.1116],[-6.1507,38.7296,289.2441],[-6.1518,38.7326,294.2401],[-6.1561,38.7358,319.4006],[-6.162,38.7371,302.7986],[-6.1665,38.7359,293.5754],[-6.1746,38.7402,296.1414],[-6.1801,38.7408,296.735],[-6.1891,38.7444,288.9316],[-6.1887,38.7255,289.829],[-6.1869,38.7212,306.6071],[-6.1903,38.7113,326.2998],[-6.1856,38.7032,324.8027],[-6.1895,38.691,309.8439],[-6.2271,38.6799,305.7698],[-6.2405,38.6705,365.8919],[-6.2609,38.6634,365.869],[-6.2712,38.6631,363.6996],[-6.2774,38.6604,350.6631],[-6.2854,38.6597,329.5293],[-6.2999,38.6619,366.7404],[-6.3132,38.659,362.4695],[-6.3216,38.6591,347.5429],[-6.3263,38.6558,351.1594],[-6.3321,38.6582,362.7508],[-6.3334,38.6561,359.4713],[-6.3388,38.6579,365.107],[-6.3411,38.6532,368.4946],[-6.3458,38.6564,365.3133],[-6.3566,38.6581,349.7944],[-6.3432,38.678,339.3391],[-6.3411,38.6947,339.4063],[-6.3387,38.6979,336.1596],[-6.3409,38.6997,336.1803],[-6.3411,38.6984,341.4779],[-6.3443,38.6985,345.5146],[-6.3444,38.7039,353.6935],[-6.3415,38.704,345.4061],[-6.3397,38.7083,346.088],[-6.3317,38.7119,331.244],[-6.3182,38.7233,308.7678],[-6.3295,38.7282,312.5164],[-6.3268,38.7308,313.8207],[-6.3251,38.7389,307.0327],[-6.3322,38.7426,314.7755],[-6.3359,38.7507,328.377],[-6.328,38.755,311.7743],[-6.3304,38.7572,317.0281],[-6.329,38.7581,317.0281],[-6.331,38.7594,319.9881],[-6.3301,38.7614,321.3069],[-6.335,38.7628,324.1996],[-6.336,38.7653,323.3164],[-6.3488,38.7689,319.1869],[-6.3488,38.7701,319.1869],[-6.3502,38.7702,318.9551],[-6.3505,38.7681,319.3225],[-6.3569,38.7685,312.8646],[-6.357,38.7781,311.406],[-6.371,38.7658,312.1362],[-6.3744,38.7571,310.5551],[-6.3776,38.7538,312.8414],[-6.3973,38.7531,322.5879],[-6.3923,38.7593,321.1744],[-6.405,38.7657,318.6545],[-6.4115,38.7664,318.6731],[-6.4149,38.7701,315.4802],[-6.4281,38.7666,321.7688],[-6.4276,38.7642,323.718],[-6.4507,38.7611,302.3337],[-6.471,38.7563,293.1452],[-6.4778,38.7574,290.8714],[-6.5035,38.7391,268.6777],[-6.5175,38.7269,244.931],[-6.5251,38.7346,232.8433],[-6.5251,38.7373,229.3366],[-6.5283,38.7379,227.8374],[-6.5264,38.7459,224.9489],[-6.5294,38.7479,231.9568],[-6.5277,38.7562,222.9813],[-6.5341,38.7585,224.6623],[-6.5386,38.7662,230.9987],[-6.5376,38.7722,219.8472],[-6.5398,38.7755,218.8765],[-6.5441,38.777,217.2234],[-6.5456,38.7814,216.1886],[-6.5488,38.7825,215.6714],[-6.5513,38.7856,214.0729],[-6.5551,38.7863,220.8713],[-6.5594,38.7905,212.1354],[-6.5625,38.7785,237.2449],[-6.5691,38.773,249.1165],[-6.5831,38.766,274.5395],[-6.5936,38.7671,253.5628],[-6.5928,38.7579,257.9355],[-6.5945,38.753,262.6463],[-6.5969,38.7557,263.9825],[-6.6131,38.7613,270.1367],[-6.6173,38.7655,267.4685],[-6.6261,38.7655,269.4223],[-6.6267,38.7548,284.9438],[-6.6118,38.7389,290.6322],[-6.621,38.7382,279.2015],[-6.6383,38.7402,258.8231],[-6.6354,38.735,262.4581],[-6.621,38.7303,268.4544],[-6.6078,38.7201,277.6579],[-6.5984,38.7148,285.5771],[-6.6139,38.7044,280.4507],[-6.6301,38.702,287.5646],[-6.6471,38.7015,265.583],[-6.6614,38.7147,247.4264],[-6.6669,38.7127,249.0564],[-6.6649,38.7042,256.4995],[-6.6687,38.6998,254.162],[-6.6678,38.6983,259.4234],[-6.6909,38.6932,282.5515],[-6.6915,38.6912,286.0204],[-6.7002,38.6881,268.5995],[-6.6992,38.6586,292.8929],[-6.6947,38.6307,316.8182],[-6.7008,38.623,317.8057],[-6.7098,38.6156,332.2895],[-6.7109,38.6093,339.0256],[-6.7088,38.6038,344.3849],[-6.7118,38.5985,316.9774],[-6.7105,38.5967,320.7518],[-6.713,38.5917,347.9861],[-6.7265,38.5768,492.6047],[-6.7153,38.5696,538.0774],[-6.6983,38.5538,614.3416],[-6.6947,38.5535,661.9912],[-6.6921,38.5486,680.3347],[-6.6825,38.543,663.6979],[-6.6871,38.5358,519.2132],[-6.6947,38.5311,407.2808],[-6.7015,38.5351,395.7189],[-6.7045,38.5416,384.9713],[-6.7101,38.5435,380.9056],[-6.7127,38.5479,370.3281],[-6.7211,38.5526,366.5555],[-6.7238,38.552,366.6757],[-6.7264,38.5561,363.0],[-6.7302,38.556399999999996,363.0],[-6.7351,38.5522,363.0],[-6.7341,38.5513,363.0],[-6.7392,38.5493,364.5019],[-6.7412,38.5455,370.6888],[-6.7332,38.5369,434.2549],[-6.7384,38.5299,492.5717],[-6.7368,38.5226,585.9745],[-6.7186,38.5022,739.8854],[-6.7199,38.4883,668.664],[-6.7259,38.4736,605.1588],[-6.7249,38.4684,583.4215],[-6.7273,38.4557,546.5594],[-6.6826,38.4532,675.5435],[-6.6684,38.449,736.016],[-6.6478,38.4509,785.2797],[-6.644,38.4489,778.6058],[-6.6403,38.4497,748.5234],[-6.6328,38.4552,683.744],[-6.6291,38.455,669.9343],[-6.6181,38.4593,655.4903],[-6.6121,38.4554,632.0288],[-6.6023,38.4529,644.1263],[-6.5973,38.4466,624.354],[-6.5813,38.4388,621.7366],[-6.5763,38.4379,612.3534],[-6.5757,38.436,605.7872],[-6.5735,38.4361,601.914],[-6.5726,38.4384,625.6868],[-6.5663,38.4371,586.1985],[-6.5657,38.439,582.205],[-6.5563,38.4422,555.7162],[-6.5528,38.4399,563.6937],[-6.546,38.4457,646.5927],[-6.5395,38.4459,669.0128],[-6.5332,38.4416,687.5418],[-6.5281,38.4422,700.8727],[-6.5221,38.4353,688.4777],[-6.5155,38.4374,689.2413],[-6.4959,38.4174,719.4214],[-6.4949,38.4123,654.3456],[-6.4999,38.4095,650.7395],[-6.5001,38.408,646.6688],[-6.4969,38.4032,690.8984],[-6.4982,38.4023,711.761],[-6.4965,38.3992,699.9109],[-6.4916,38.396,678.5648],[-6.4909,38.3937,638.1635],[-6.4934,38.3881,641.1618],[-6.4911,38.3758,565.1495],[-6.4823,38.365,627.4171],[-6.4778,38.3641,607.8675],[-6.472,38.3561,590.9664],[-6.4665,38.359,569.4522],[-6.4556,38.3576,539.9202],[-6.4427,38.3683,541.6932],[-6.4429,38.3712,537.0851],[-6.4368,38.3736,527.0715],[-6.4298,38.379,540.5345],[-6.4166,38.3716,541.5955],[-6.4035,38.3703,539.9502],[-6.3931,38.366,534.9878],[-6.379,38.3683,533.7289],[-6.3631,38.3667,538.1992],[-6.3429,38.3609,516.351],[-6.3124,38.3617,547.1412],[-6.3192,38.3901,549.953]]]]}}