{"type": "Feature","id": "5827","bbox": [-9.29198,42.53071,-7.66832,43.79344],"geometry": {"type": "Polygon","coordinates": [[[-7.69616,43.73151,38.5681],[-7.69563,43.74592,201.7962],[-7.6726,43.76667,0.0],[-7.66832,43.77253,17.1158],[-7.67129,43.78286,28.2164],[-7.67833,43.79047,0.0],[-7.68554,43.79344,0.0],[-7.68883,43.78998,0.0],[-7.69571,43.77489,0.0],[-7.71276,43.76069,137.3004],[-7.73404,43.75007,0.0],[-7.77379,43.74258,0.0],[-7.79385,43.73412,5.7144],[-7.812,43.72309,12.1395],[-7.82604,43.71174,90.719],[-7.82396,43.70808,59.4163],[-7.8214,43.70075,7.3944],[-7.81916,43.69746,0.0],[-7.84386,43.7038,0.0],[-7.85603,43.70344,2.4648],[-7.86758,43.69746,31.4559],[-7.84923,43.6756,0.0],[-7.85839,43.6682,13.3779],[-7.90856,43.67015,11.2262],[-7.90856,43.67699,51.4924],[-7.90388,43.67829,37.4155],[-7.90123,43.67975,30.0004],[-7.89489,43.68448,11.9928],[-7.88732,43.67967,8.7666],[-7.8841,43.67862,9.9329],[-7.87377,43.68448,0.0],[-7.87979,43.69196,0.0],[-7.87926,43.70051,21.6848],[-7.87462,43.70942,66.5041],[-7.86758,43.71796,58.2608],[-7.86229,43.71625,72.5393],[-7.85228,43.71418,7.0321],[-7.84651,43.71174,0.0],[-7.84651,43.71796,0.0],[-7.86148,43.73119,0.0],[-7.86905,43.74885,160.7583],[-7.88085,43.76325,145.7213],[-7.90856,43.76634,0.0],[-7.92813,43.74677,0.0],[-7.95295,43.73013,0.0],[-7.98119,43.71784,0.0],[-8.01098,43.71174,0.0],[-8.0445,43.7121,0.0],[-8.05932,43.70942,0.0],[-8.06554,43.70087,0.0],[-8.06916,43.68928,0.0],[-8.07396,43.67853,0.0],[-8.07116,43.66787,101.8204],[-8.05187,43.65648,5.9446],[-8.05647,43.65424,0.0],[-8.06127,43.65095,0.0],[-8.06554,43.64907,34.7495],[-8.06554,43.64281,0.0],[-8.06241,43.64232,61.1769],[-8.05187,43.64281,59.3408],[-8.06355,43.63886,0.0],[-8.07462,43.63963,22.8664],[-8.083,43.64545,0.0],[-8.08666,43.65648,0.0],[-8.23225,43.57551,0.0],[-8.26098,43.56452,0.0],[-8.28466,43.56712,0.0],[-8.29133,43.56485,0.0],[-8.30871,43.56712,47.2724],[-8.31265,43.56712,77.128],[-8.31322,43.55634,79.1903],[-8.30822,43.54633,27.4194],[-8.30016,43.53823,0.0],[-8.2921,43.53295,5.8322],[-8.30517,43.51935,5.0763],[-8.31664,43.52289,66.3581],[-8.32169,43.50788,52.9257],[-8.32535,43.48676,1.2544],[-8.33312,43.4715,109.1086],[-8.28897,43.47297,157.845],[-8.2692,43.47895,154.9388],[-8.25731,43.49201,27.1051],[-8.24755,43.48774,0.0],[-8.24372,43.48517,54.841],[-8.25088,43.48286,0.5579],[-8.25365,43.48127,0.0],[-8.25731,43.47773,0.0],[-8.19652,43.48517,16.0049],[-8.17345,43.49274,0.0],[-8.16857,43.49201,0.0],[-8.16698,43.48456,7.8949],[-8.17146,43.47797,4.7013],[-8.17878,43.47329,4.1864],[-8.18562,43.4715,0.0],[-8.28649,43.46198,0.0],[-8.30517,43.45108,74.4555],[-8.28873,43.44623,151.9934],[-8.26476,43.42731,44.0049],[-8.24714,43.42308,19.1521],[-8.21329,43.42495,45.3214],[-8.19506,43.42324,0.0],[-8.1754,43.41633,0.0],[-8.19396,43.40681,114.0526],[-8.20482,43.39973,84.108],[-8.20962,43.39069,71.1582],[-8.21019,43.37531,28.9495],[-8.20295,43.34467,72.9964],[-8.20246,43.32925,48.4559],[-8.21019,43.31322,5.0506],[-8.21727,43.32831,49.9501],[-8.22753,43.33812,16.8673],[-8.25056,43.35489,0.0],[-8.25707,43.36567,51.6913],[-8.26081,43.37702,0.0],[-8.2672,43.38593,0.0],[-8.28156,43.38959,0.0],[-8.31062,43.40314,15.7195],[-8.33072,43.40567,0.0],[-8.33991,43.39273,72.0133],[-8.33727,43.36905,24.0872],[-8.34081,43.35993,47.7612],[-8.35359,43.34862,0.0],[-8.37572,43.36298,0.0],[-8.38467,43.37271,0.0],[-8.3883,43.38589,0.0],[-8.44302,43.37531,52.5496],[-8.44896,43.37198,58.5252],[-8.45141,43.36738,146.0519],[-8.45572,43.36335,88.6669],[-8.47598,43.35969,0.0],[-8.48607,43.35432,0.0],[-8.49425,43.34663,21.2375],[-8.49755,43.3378,57.094],[-8.50597,43.33153,0.0],[-8.55842,43.31322,0.0],[-8.59252,43.3242,0.0],[-8.63003,43.31586,0.0],[-8.66539,43.30117,0.0],[-8.6931,43.2934,2.2605],[-8.71174,43.29556,0.0],[-8.75048,43.30492,0.0],[-8.76854,43.30707,0.0],[-8.78555,43.31245,0.0],[-8.81701,43.33584,0.0],[-8.82999,43.34121,3.0566],[-8.84118,43.33893,41.2514],[-8.84911,43.33405,7.1026],[-8.8566,43.32689,0.0],[-8.88801,43.32075,0.0],[-8.93049,43.29975,0.0],[-8.97086,43.28657,41.8724],[-8.98078,43.28596,0.0],[-8.98803,43.28303,0.0],[-8.97981,43.27692,137.508],[-8.96752,43.27196,89.0095],[-8.96312,43.27228,111.3331],[-8.94815,43.24995,68.5941],[-8.93639,43.24409,47.0595],[-8.91527,43.24502,1.9146],[-8.93253,43.2353,34.2232],[-8.95897,43.22748,19.6073],[-8.98575,43.22687,3.1903],[-9.00406,43.23876,0.0],[-9.01155,43.23876,0.0],[-9.01675,43.22386,0.0],[-9.02697,43.21015,97.3392],[-9.03978,43.20454,0.0],[-9.0524,43.19636,0.0],[-9.06517,43.19233,0.0],[-9.08316,43.18976,0.0],[-9.10041,43.18952,0.0],[-9.13793,43.20152,0.0],[-9.17007,43.18875,0.0],[-9.2176,43.15534,0.0],[-9.20836,43.13788,0.0],[-9.1942,43.13654,40.2626],[-9.16226,43.1485,6.8059],[-9.16332,43.13976,76.6646],[-9.14708,43.1387,48.2111],[-9.12466,43.14252,55.7973],[-9.10774,43.1485,115.2119],[-9.10774,43.14114,17.8957],[-9.1258,43.13959,40.9015],[-9.13313,43.13797,15.7957],[-9.14122,43.13487,21.4814],[-9.1503,43.12958,0.0],[-9.1542,43.1247,26.3618],[-9.15689,43.11974,69.1529],[-9.16226,43.11445,8.3594],[-9.17683,43.10558,0.0],[-9.18981,43.10232,0.0],[-9.20295,43.10505,0.0],[-9.2176,43.11445,0.0],[-9.22232,43.10273,0.0],[-9.23396,43.0965,0.0],[-9.24572,43.088,26.3031],[-9.25109,43.06977,0.0],[-9.25792,43.0609,0.0],[-9.27111,43.06049,0.0],[-9.27953,43.055,0.0],[-9.27212,43.03128,200.0285],[-9.25731,43.02326,144.2666],[-9.25097,43.01679,168.4687],[-9.25479,43.008,52.9369],[-9.25866,43.00239,0.0],[-9.26183,42.99449,0.0],[-9.26399,42.98652,0.0],[-9.26476,42.98033,0.0],[-9.28539,42.93834,150.3373],[-9.29198,42.92878,4.4139],[-9.29198,42.92263,147.3974],[-9.28295,42.91661,0.0],[-9.27306,42.89334,229.1063],[-9.26842,42.8913,113.9917],[-9.26171,42.90017,0.0],[-9.2517,42.92023,0.0],[-9.24425,42.92878,63.1842],[-9.23559,42.93488,33.2742],[-9.22423,42.94021,0.0],[-9.21434,42.93903,40.2761],[-9.21007,42.92573,0.0],[-9.20519,42.92475,45.2565],[-9.19579,42.92658,153.6805],[-9.19001,42.9324,96.9102],[-9.19587,42.94314,64.6665],[-9.19587,42.94933,86.2376],[-9.18346,42.94526,0.0],[-9.16788,42.92683,0.0],[-9.1586,42.92263,87.1375],[-9.14143,42.92141,246.7605],[-9.13451,42.91755,112.5308],[-9.1337,42.9112,13.6644],[-9.135,42.90217,0.0],[-9.13752,42.89606,6.681],[-9.14664,42.88837,0.0],[-9.14867,42.88447,0.0],[-9.14753,42.87861,0.0],[-9.14232,42.8653,17.8069],[-9.14122,42.85745,12.3837],[-9.12222,42.85175,16.5003],[-9.10839,42.84483,0.0],[-9.10025,42.83328,1.007],[-9.10619,42.82331,0.0],[-9.11319,42.81635,0.0],[-9.12255,42.81261,0.0],[-9.135,42.81277,0.0],[-9.12548,42.79499,168.9846],[-9.12011,42.779,105.3424],[-9.11343,42.76606,18.5266],[-9.10025,42.75751,14.3381],[-9.08129,42.75483,21.7235],[-9.06867,42.75971,3.243],[-9.04564,42.77802,0.0],[-9.04894,42.79475,238.1678],[-9.02819,42.79788,2.2944],[-8.97737,42.7923,10.2046],[-8.95104,42.79511,60.4012],[-8.92809,42.80252,10.2093],[-8.91259,42.8166,131.7724],[-8.90844,42.83946,8.8262],[-8.88768,42.83112,168.8561],[-8.88492,42.81501,5.1154],[-8.89135,42.79934,24.5741],[-8.89826,42.7923,2.5713],[-8.92223,42.78811,0.0],[-8.93737,42.77778,2.3355],[-8.96312,42.75129,0.0],[-8.99201,42.73908,0.0],[-8.9945,42.73701,0.0],[-9.00626,42.73383,0.0],[-9.01403,42.72683,0.0],[-9.01879,42.71975,0.0],[-9.03014,42.70771,0.0],[-9.03628,42.68793,0.0],[-9.03946,42.67304,0.0],[-9.03881,42.66108,21.3756],[-9.05142,42.64594,0.0],[-9.06574,42.62031,0.0],[-9.07087,42.59614,22.2179],[-9.05582,42.58539,34.8383],[-9.03336,42.57811,0.9174],[-9.02855,42.56147,1.592],[-9.02636,42.54312,1.9113],[-9.01155,42.53071,5.5072],[-8.99706,42.5434,95.1777],[-8.98917,42.5489,25.2688],[-8.98078,42.55121,0.0],[-8.97277,42.57392,19.1023],[-8.96988,42.57917,34.748],[-8.93399,42.58682,13.9757],[-8.92223,42.5937,24.7834],[-8.93639,42.60643,0.3492],[-8.90343,42.62547,0.0],[-8.88948,42.6306,0.0],[-8.89485,42.6201,0.0],[-8.88052,42.6118,0.0],[-8.86876,42.6175,48.8361],[-8.84699,42.64057,0.0],[-8.857,42.64912,2.6235],[-8.8546,42.66157,30.0564],[-8.83951,42.68244,8.1683],[-8.82624,42.67414,60.5525],[-8.81599,42.65851,9.5876],[-8.80382,42.64594,33.4178],[-8.78498,42.64057,24.8068],[-8.76732,42.64517,0.0],[-8.7539,42.65689,78.5333],[-8.74405,42.67243,58.916],[-8.73717,42.68842,44.6469],[-8.73095,42.68842,1.1252],[-8.71634,42.70646,0.0],[-8.64543,42.72552,49.8731],[-8.60875,42.7178,174.3795],[-8.60347,42.71942,246.4831],[-8.60202,42.72217,211.0859],[-8.60165,42.7263,212.4416],[-8.59966,42.73209,227.2569],[-8.59413,42.73844,77.8477],[-8.57805,42.74587,70.2066],[-8.50233,42.75607,60.2108],[-8.47234,42.74325,46.8513],[-8.45829,42.74202,109.227],[-8.44537,42.74429,74.0538],[-8.42164,42.75676,102.9002],[-8.39203,42.78949,62.7136],[-8.35333,42.78015,66.8278],[-8.34222,42.78399,76.406],[-8.33591,42.79142,138.1525],[-8.33343,42.80142,99.4838],[-8.33385,42.81296,92.8451],[-8.33932,42.83167,101.2436],[-8.33962,42.83694,129.9505],[-8.33596,42.84267,123.6907],[-8.32932,42.84572,128.6936],[-8.32175,42.84611,214.3079],[-8.31531,42.84394,113.4866],[-8.30895,42.83679,152.929],[-8.30436,42.82829,183.6813],[-8.29884,42.82164,110.2396],[-8.28966,42.82003,153.3728],[-8.26229,42.83376,167.2167],[-8.25207,42.8363,152.492],[-8.22071,42.82904,269.4259],[-8.20994,42.8307,250.8441],[-8.20463,42.83429,280.8451],[-8.19219,42.84762,336.5742],[-8.17445,42.85301,306.5535],[-8.04921,42.83453,319.4707],[-8.03283,42.83646,338.6906],[-7.99981,42.84886,327.7765],[-7.97527,42.88305,430.6792],[-7.96598,42.88905,441.6337],[-7.94484,42.89731,568.8301],[-7.93563,42.90343,694.5674],[-7.91178,42.93673,737.9999],[-7.9066,42.96191,698.5658],[-7.90641,42.98764,732.8953],[-7.93485,43.05184,755.4348],[-7.93539,43.06516,697.0032],[-7.93173,43.07633,656.5845],[-7.92702,43.08414,670.7824],[-7.92468,43.09217,670.1949],[-7.96136,43.18995,488.5217],[-7.9284,43.25517,688.1589],[-7.92755,43.26449,661.6126],[-7.93041,43.27104,643.0959],[-7.93461,43.27713,617.6755],[-7.93777,43.28505,614.8292],[-7.93676,43.2932,629.0441],[-7.93166,43.29993,663.6997],[-7.8965,43.33011,581.4966],[-7.88931,43.34145,687.7728],[-7.88209,43.40753,342.9945],[-7.83613,43.40191,469.5166],[-7.82461,43.40659,482.2026],[-7.81721,43.41503,455.8287],[-7.80728,43.4374,566.3336],[-7.78017,43.44905,472.1973],[-7.74601,43.5213,511.6368],[-7.74481,43.52632,407.5761],[-7.74666,43.53058,393.4939],[-7.75834,43.54553,357.6828],[-7.75843,43.55475,333.6517],[-7.75379,43.56341,405.8445],[-7.72997,43.58151,264.2445],[-7.72659,43.58648,390.936],[-7.72534,43.59758,321.7664],[-7.72892,43.61571,243.8133],[-7.72363,43.6258,321.5085],[-7.69095,43.65393,127.0893],[-7.70947,43.67418,111.1007],[-7.69616,43.73151,38.5681]]]}
,"properties": {"ISO3166-1-Alpha-3": "ESP","country": "Spain","fill": "#F0F","name": "La Coruña","area_km2": 7921.399,"hist_schema_id": "Elevation0-9000","hist_area_km2": {"0": 247.991,"25": 267.265,"50": 307.661,"75": 325.958,"100": 318.625,"125": 328.437,"150": 324.291,"175": 331.097,"200": 337.266,"225": 346.672,"250": 368.136,"275": 429.49,"300": 477.556,"325": 499.603,"350": 509.242,"375": 492.375,"400": 424.891,"425": 335.62,"450": 274.012,"475": 247.906,"500": 208.731,"525": 163.295,"550": 104.58,"575": 72.066,"600": 47.324,"625": 40.169,"650": 30.144,"675": 24.274,"700": 18.861,"725": 11.564,"750": 5.195,"775": 1.008,"800": 0.093}}}