{"type": "Feature","bbox": [-5.5855,37.6972,-4.1612,38.2834],"geometry": {"type": "MultiPolygon","coordinates": [[[[-5.4969,38.1553,510.1976],[-5.5001,38.1537,432.7111],[-5.5256,38.1626,401.2903],[-5.5388,38.1617,343.7561],[-5.5413,38.1601,347.5047],[-5.5495,38.1611,351.6437],[-5.5535,38.1537,392.8019],[-5.5556,38.1534,401.1258],[-5.5566,38.1502,417.8944],[-5.56,38.1486,427.8273],[-5.5618,38.1508,440.5005],[-5.5672,38.148,483.4329],[-5.5739,38.1507,543.0009],[-5.5855,38.1404,629.5135],[-5.5847,38.1317,642.7988],[-5.5812,38.129,657.137],[-5.5816,38.1155,454.5231],[-5.5572,38.108,401.7439],[-5.5507,38.1012,560.8203],[-5.5387,38.0938,562.9396],[-5.5395,38.0822,539.6046],[-5.532,38.0759,518.7668],[-5.5274,38.0755,499.5565],[-5.5251,38.0733,532.187],[-5.5255,38.0686,488.3931],[-5.5227,38.0651,431.9969],[-5.516,38.0621,347.4108],[-5.5103,38.0532,343.4034],[-5.4954,38.0424,434.9227],[-5.4898,38.0336,502.6039],[-5.4889,38.0281,538.02],[-5.4919,38.0136,529.7363],[-5.4904,38.0092,593.2139],[-5.4936,38.0001,691.1689],[-5.493,37.9958,654.5574],[-5.4902,37.9928,576.4331],[-5.4872,37.9936,574.8221],[-5.4851,37.9904,554.7584],[-5.4817,37.9898,552.2562],[-5.4742,37.9754,489.6305],[-5.4699,37.9745,497.7897],[-5.4692,37.971,474.7432],[-5.4521,37.9672,446.0605],[-5.4471,37.9615,419.4968],[-5.4358,37.9583,402.8549],[-5.432,37.9539,401.3325],[-5.426,37.9501,387.5789],[-5.4203,37.9487,385.3812],[-5.4181,37.9449,374.3465],[-5.4155,37.9437,374.2842],[-5.4143,37.9411,367.4477],[-5.4156,37.9381,379.3366],[-5.4187,37.9364,368.4913],[-5.4188,37.9315,368.9987],[-5.4207,37.9296,358.1272],[-5.4231,37.9307,365.0144],[-5.4241,37.927,344.3887],[-5.4165,37.9286,370.9829],[-5.42,37.9249,337.7668],[-5.4171,37.9212,323.335],[-5.422,37.9184,325.9181],[-5.4178,37.9166,330.1013],[-5.4165,37.9068,312.8773],[-5.4134,37.9049,312.2349],[-5.4136,37.9015,307.9896],[-5.4144,37.898,304.5302],[-5.4208,37.893,320.7176],[-5.4219,37.8889,283.0672],[-5.4178,37.8875,286.5965],[-5.416,37.8843,273.1248],[-5.4152,37.8791,260.6667],[-5.4174,37.8775,256.0204],[-5.4145,37.8769,269.5616],[-5.4136,37.8746,259.9518],[-5.4148,37.8699,243.5992],[-5.4115,37.8716,242.1099],[-5.4045,37.8623,212.1644],[-5.3999,37.8636,195.1807],[-5.388,37.8577,183.0],[-5.3813,37.8516,183.0],[-5.3791,37.8526,183.0],[-5.3683,37.8502,183.0],[-5.3598,37.8442,183.0],[-5.3504,37.8434,183.0],[-5.3469,37.8398,177.7352],[-5.3447,37.8401,171.5012],[-5.3452,37.8367,164.6953],[-5.3396,37.8336,162.2648],[-5.3393,37.8315,155.6794],[-5.3448,37.8279,160.5394],[-5.3419,37.8238,239.7395],[-5.3475,37.8123,172.0853],[-5.3473,37.8045,160.7874],[-5.3498,37.7943,127.1537],[-5.3452,37.7924,124.0776],[-5.3439,37.7898,156.6132],[-5.3308,37.7857,137.9699],[-5.3293,37.7783,137.8395],[-5.3099,37.7743,101.3551],[-5.3104,37.7661,100.2743],[-5.3142,37.7657,109.0273],[-5.3159,37.7598,104.738],[-5.3184,37.7593,146.5489],[-5.3181,37.7572,88.0],[-5.3131,37.7533,92.9954],[-5.3076,37.7369,69.5808],[-5.2989,37.738,113.7893],[-5.285,37.7363,143.2409],[-5.2797,37.7411,160.9315],[-5.2724,37.7444,188.329],[-5.2717,37.7405,163.6495],[-5.2679,37.7385,120.9512],[-5.2598,37.726,47.5327],[-5.2428,37.7269,57.1764],[-5.2354,37.7249,55.1678],[-5.2284,37.727,52.3049],[-5.2255,37.7304,55.4573],[-5.2056,37.7388,67.5057],[-5.2025,37.7331,77.5099],[-5.1907,37.7236,116.845],[-5.1746,37.7165,132.8304],[-5.1568,37.7062,135.8695],[-5.146,37.7039,139.6203],[-5.1342,37.6972,133.92],[-5.1147,37.702,126.0234],[-5.1127,37.7079,153.2576],[-5.1305,37.7196,132.7867],[-5.1427,37.7232,122.2587],[-5.1441,37.7264,127.6648],[-5.1424,37.7448,122.0828],[-5.1386,37.7488,123.153],[-5.1332,37.7597,116.2825],[-5.1331,37.7673,75.9725],[-5.1369,37.7674,73.6954],[-5.1365,37.7706,64.1118],[-5.1414,37.7748,62.227],[-5.1443,37.7743,62.1862],[-5.1481,37.7765,61.7988],[-5.1548,37.7749,60.8241],[-5.1589,37.7717,60.352],[-5.1652,37.7736,61.6368],[-5.1845,37.7882,84.6509],[-5.1884,37.7982,109.7724],[-5.1852,37.8014,112.388],[-5.1898,37.8061,110.9505],[-5.1772,37.8198,150.0414],[-5.1768,37.8275,269.0159],[-5.1712,37.8331,269.8329],[-5.1732,37.8364,254.8312],[-5.1715,37.8403,249.7915],[-5.1736,37.8641,257.9373],[-5.1794,37.8748,238.5186],[-5.1733,37.8926,268.0851],[-5.1543,37.9045,393.3617],[-5.1426,37.9082,284.4092],[-5.1379,37.9079,312.0205],[-5.1118,37.9206,413.4876],[-5.1042,37.9211,485.1756],[-5.088,37.9328,497.339],[-5.0535,37.9272,452.8711],[-5.0319,37.9259,305.3825],[-5.0247,37.9271,294.7741],[-5.0067,37.9135,406.6841],[-4.9985,37.9099,398.1494],[-4.996,37.9182,282.3111],[-4.9903,37.9221,171.0],[-4.9903,37.9276,328.2083],[-4.9852,37.9391,224.4749],[-4.9777,37.9466,171.0],[-4.9722,37.9462,176.8326],[-4.9642,37.9502,232.7854],[-4.9557,37.958,212.0256],[-4.9524,37.9571,188.7753],[-4.9441,37.9593,197.8494],[-4.9237,37.9681,326.2166],[-4.915,37.9666,497.246],[-4.9005,37.9671,561.8721],[-4.8855,37.9701,437.0252],[-4.8514,37.9885,337.2117],[-4.847,37.9865,341.8385],[-4.8391,37.9895,358.5584],[-4.8337,37.9888,385.6617],[-4.8313,37.9864,398.4869],[-4.8223,37.9857,417.8918],[-4.8151,37.9892,428.9434],[-4.8173,38.0013,449.9814],[-4.8093,38.0046,448.1879],[-4.8034,38.0024,457.1814],[-4.8015,38.0045,468.2583],[-4.7989,38.0043,472.291],[-4.8004,38.0066,483.4581],[-4.7981,38.0076,472.9336],[-4.8024,38.0107,477.9633],[-4.8024,38.0118,477.9633],[-4.7995,38.0115,488.7564],[-4.7987,38.0144,492.5089],[-4.7986,38.0205,514.2228],[-4.8005,38.0213,531.861],[-4.7944,38.0224,510.5],[-4.7866,38.0187,502.4598],[-4.7805,38.0107,491.9979],[-4.7788,38.0126,493.2549],[-4.776,38.0114,495.8839],[-4.7718,38.005,524.0663],[-4.7683,38.0032,519.1611],[-4.7433,37.9996,369.9368],[-4.724,37.9945,309.2572],[-4.7065,37.9843,373.5569],[-4.678,37.9788,356.8726],[-4.6686,37.9745,401.7806],[-4.6654,37.975,360.8245],[-4.6627,37.9786,215.1285],[-4.6554,37.9822,153.5],[-4.6519,37.9869,153.5],[-4.6569,37.9932,153.5],[-4.6668,37.9926,157.8191],[-4.6765,37.9859,153.5],[-4.6793,37.9884,153.5],[-4.6755,37.9932,153.5],[-4.6713,37.9944,153.5],[-4.6719,38.0043,157.9011],[-4.6763,38.0117,205.1613],[-4.6763,38.0143,195.717],[-4.6671,38.0236,167.6004],[-4.668,38.0257,165.2196],[-4.6714,38.0269,167.1768],[-4.6597,38.0315,421.9108],[-4.6546,38.0312,504.0126],[-4.6512,38.0244,521.3224],[-4.6482,38.0223,519.0051],[-4.6437,38.0246,481.1382],[-4.6404,38.023,475.7308],[-4.6337,38.0237,449.1214],[-4.6288,38.0225,450.2481],[-4.6062,38.0081,207.0872],[-4.6072,38.0075,253.7328],[-4.6027,38.0029,265.5467],[-4.5947,38.0002,229.9493],[-4.5933,38.0023,241.3882],[-4.5828,38.0062,372.6668],[-4.5761,38.0027,361.4935],[-4.5719,37.9981,378.5169],[-4.5683,37.9974,359.6056],[-4.5522,37.9877,346.8817],[-4.5485,37.9904,346.7346],[-4.5433,37.989,330.9521],[-4.5402,37.9901,338.9565],[-4.5393,37.9886,337.4064],[-4.5248,37.9858,315.4338],[-4.5209,37.9896,190.4005],[-4.5132,37.9891,144.3923],[-4.5063,37.9837,137.0],[-4.502,37.9859,140.3614],[-4.4967,37.9842,138.003],[-4.4897,37.9915,142.6942],[-4.4822,37.9901,145.2533],[-4.4647,37.9943,140.7503],[-4.4544,37.9846,141.4725],[-4.456,37.9837,154.6228],[-4.4492,37.9762,167.1141],[-4.4375,37.984,143.106],[-4.419,37.9712,196.1999],[-4.4133,37.9553,169.9912],[-4.4042,37.9568,178.9666],[-4.4015,37.9556,189.3809],[-4.3889,37.9439,198.0858],[-4.3781,37.9392,221.382],[-4.3664,37.9482,303.7596],[-4.3599,37.9413,314.8794],[-4.3506,37.9454,293.304],[-4.345,37.9574,252.0043],[-4.3395,37.9587,307.3592],[-4.3359,37.9575,295.2004],[-4.3285,37.9677,252.7953],[-4.3315,37.9802,206.5016],[-4.3148,37.9824,177.2749],[-4.324,38.0131,166.6247],[-4.3027,38.0055,173.7472],[-4.2997,37.9963,161.6454],[-4.2947,37.9972,160.6887],[-4.2843,38.0039,177.2307],[-4.2821,38.0228,194.0699],[-4.2763,38.024,219.5334],[-4.2598,38.0223,159.5315],[-4.2613,38.0298,160.8297],[-4.2688,38.0398,185.6022],[-4.2649,38.041,170.7532],[-4.2591,38.0388,166.9698],[-4.2501,38.0391,164.0373],[-4.2405,38.0464,175.1738],[-4.2385,38.0514,177.8517],[-4.2417,38.0535,175.7262],[-4.2504,38.048,176.264],[-4.2522,38.0621,193.1661],[-4.25,38.0672,245.0],[-4.2468,38.0698,245.0],[-4.2404,38.0677,245.0],[-4.2391,38.0631,245.0],[-4.237,38.0623,245.0],[-4.2348,38.0638,245.0],[-4.2358,38.0702,245.0],[-4.234,38.0745,245.0],[-4.2267,38.0799,250.6433],[-4.2325,38.083,245.0],[-4.2309,38.0849,245.0],[-4.2253,38.0819,269.4568],[-4.2218,38.083,245.0],[-4.2272,38.0862,245.0],[-4.2288,38.09,245.0],[-4.2278,38.0914,245.0],[-4.2174,38.0874,245.0],[-4.2143,38.0892,245.0],[-4.214,38.0945,245.0],[-4.222,38.103,295.3898],[-4.2181,38.1105,252.6161],[-4.2036,38.108,245.0],[-4.2032,38.1127,285.6623],[-4.1988,38.1158,256.8899],[-4.1989,38.1227,245.0],[-4.1935,38.1274,245.5],[-4.1877,38.1283,254.4193],[-4.1838,38.1308,246.6147],[-4.1746,38.1319,257.9267],[-4.1743,38.1336,252.3827],[-4.1686,38.1366,248.0654],[-4.1666,38.1427,257.0825],[-4.1612,38.1446,258.1306],[-4.1657,38.1493,282.3875],[-4.1634,38.1609,275.5278],[-4.1687,38.1663,271.3041],[-4.1664,38.1698,264.7632],[-4.1686,38.182,303.6138],[-4.1794,38.1901,294.3006],[-4.181,38.1928,285.0341],[-4.1867,38.1956,298.0191],[-4.1893,38.1989,294.1949],[-4.1897,38.2059,312.2854],[-4.1956,38.2118,320.1543],[-4.2006,38.2131,303.3962],[-4.2079,38.2075,356.0346],[-4.2088,38.2029,392.088],[-4.2177,38.2015,457.9212],[-4.2327,38.1831,712.8591],[-4.2401,38.1851,734.3203],[-4.2399,38.1829,715.8503],[-4.2428,38.18,662.4634],[-4.2499,38.1769,615.0808],[-4.2558,38.1779,691.9752],[-4.267,38.1764,711.9833],[-4.2738,38.1788,735.747],[-4.2783,38.1863,738.3547],[-4.2829,38.1829,723.7415],[-4.2859,38.1826,721.7739],[-4.2917,38.1898,743.0952],[-4.2981,38.1928,734.4898],[-4.3035,38.1978,642.5965],[-4.3096,38.1925,622.0515],[-4.3012,38.1843,598.806],[-4.3,38.1719,536.3777],[-4.2976,38.1701,505.1534],[-4.2973,38.166,487.018],[-4.3096,38.1718,650.7727],[-4.3193,38.1787,668.2314],[-4.3313,38.1826,565.799],[-4.3377,38.1832,527.3029],[-4.3431,38.1818,499.313],[-4.3474,38.1839,459.7038],[-4.3522,38.179,429.4395],[-4.3552,38.1727,399.9239],[-4.3548,38.1659,390.1794],[-4.3604,38.1577,381.8521],[-4.3711,38.1636,524.7273],[-4.3723,38.1595,609.5566],[-4.3797,38.1633,613.2941],[-4.383,38.177,642.0156],[-4.3872,38.1742,623.7721],[-4.388,38.1717,596.4579],[-4.3958,38.1685,593.1931],[-4.4027,38.1597,616.8787],[-4.4135,38.1604,407.7507],[-4.4064,38.1697,332.8375],[-4.4051,38.179,322.9452],[-4.4028,38.1808,353.8539],[-4.4145,38.1883,377.2311],[-4.4134,38.1911,427.5816],[-4.4147,38.1929,431.2087],[-4.4234,38.196,487.5376],[-4.4253,38.2034,585.5911],[-4.4283,38.2042,616.424],[-4.4321,38.2096,628.3824],[-4.4298,38.2096,635.9966],[-4.4264,38.2136,641.3925],[-4.4273,38.2151,638.5356],[-4.4322,38.2186,642.2705],[-4.434,38.2189,651.9246],[-4.4354,38.2169,666.5806],[-4.4372,38.2192,660.1338],[-4.4421,38.2192,654.2893],[-4.4478,38.227,666.5181],[-4.4471,38.2293,683.1026],[-4.4531,38.2331,674.1928],[-4.4555,38.2328,679.1041],[-4.467,38.2415,703.0964],[-4.4816,38.2369,740.3685],[-4.4868,38.2418,752.0254],[-4.4966,38.2426,761.0996],[-4.5072,38.248,737.7695],[-4.5118,38.2535,701.1309],[-4.5199,38.2459,664.4017],[-4.5219,38.2466,661.1966],[-4.5224,38.2437,671.658],[-4.5307,38.245,610.9473],[-4.5318,38.2393,607.5327],[-4.5356,38.2393,602.8356],[-4.5366,38.2341,596.2255],[-4.5437,38.229,584.7662],[-4.5441,38.2319,582.5613],[-4.5537,38.2401,611.21],[-4.567,38.2199,684.9783],[-4.5944,38.2103,699.7357],[-4.6033,38.2101,666.828],[-4.6072,38.2074,721.0837],[-4.6119,38.2077,711.3888],[-4.619,38.2116,726.772],[-4.633,38.1991,638.9108],[-4.6402,38.1973,636.1141],[-4.642,38.1983,645.2533],[-4.6376,38.1916,641.0457],[-4.6304,38.1891,626.8854],[-4.6254,38.1855,638.2905],[-4.6256,38.1838,641.6404],[-4.6375,38.1749,610.629],[-4.6337,38.1669,592.4374],[-4.6362,38.1626,543.5537],[-4.6319,38.145,598.5674],[-4.6324,38.1396,633.4062],[-4.6362,38.1336,675.1389],[-4.6354,38.1209,539.6471],[-4.6387,38.1201,531.2952],[-4.6377,38.1182,537.915],[-4.6442,38.115,541.2187],[-4.6534,38.1146,528.0868],[-4.6601,38.1039,564.6949],[-4.6584,38.101,528.6253],[-4.6629,38.1007,507.0103],[-4.6668,38.0929,377.1791],[-4.6722,38.0892,374.6364],[-4.68,38.0886,417.3944],[-4.6872,38.0932,295.0735],[-4.6974,38.0949,208.3039],[-4.6981,38.0961,208.3576],[-4.694,38.1015,228.8144],[-4.6983,38.1101,220.7191],[-4.6953,38.1115,223.4959],[-4.6969,38.1194,242.1453],[-4.7104,38.1203,248.9455],[-4.7146,38.1236,258.4116],[-4.7219,38.1205,260.008],[-4.727,38.1252,260.548],[-4.7297,38.1312,309.1991],[-4.7354,38.1379,279.6244],[-4.7423,38.1357,283.9759],[-4.7492,38.1417,296.6862],[-4.7525,38.1419,304.766],[-4.755,38.1487,305.1421],[-4.7584,38.1505,304.8689],[-4.764,38.1506,316.1605],[-4.7647,38.1551,397.7153],[-4.7713,38.1537,360.4221],[-4.7736,38.1557,310.0114],[-4.7922,38.1586,518.1469],[-4.8145,38.1589,645.1756],[-4.8183,38.158,613.3767],[-4.8224,38.1536,530.1115],[-4.8291,38.1522,502.6059],[-4.8299,38.1473,465.4838],[-4.8433,38.1491,409.0704],[-4.8458,38.1476,467.9235],[-4.8459,38.1432,401.2789],[-4.8542,38.1398,421.3914],[-4.8548,38.1353,420.9872],[-4.8585,38.1359,379.744],[-4.855,38.1321,395.5591],[-4.8519,38.1343,437.9164],[-4.8511,38.1375,410.0268],[-4.8488,38.1341,369.1807],[-4.8459,38.133,369.711],[-4.8429,38.1345,421.5434],[-4.8459,38.1278,397.2931],[-4.8421,38.1284,360.8928],[-4.842,38.1253,367.8277],[-4.8302,38.1202,342.9448],[-4.8332,38.1176,353.5767],[-4.8337,38.1149,342.4375],[-4.8375,38.1147,346.3755],[-4.8429,38.11,342.6558],[-4.852,38.1125,372.0368],[-4.8605,38.1124,397.7413],[-4.8717,38.1209,473.7829],[-4.8821,38.124,547.8378],[-4.8777,38.1278,643.7495],[-4.8817,38.1477,609.8138],[-4.8951,38.1572,601.5908],[-4.9035,38.1596,660.0739],[-4.9055,38.1585,685.9292],[-4.9086,38.1631,680.9041],[-4.9271,38.1779,565.3702],[-4.9366,38.1919,589.1021],[-4.9368,38.1977,613.5848],[-4.9389,38.2005,608.7517],[-4.9744,38.2227,621.6341],[-4.9823,38.2357,681.0737],[-4.982,38.2394,724.4562],[-4.9855,38.2407,678.3207],[-4.9886,38.2525,738.2231],[-4.9863,38.2589,757.524],[-4.9986,38.2709,905.2101],[-5.0169,38.2736,837.9476],[-5.0253,38.2781,833.5223],[-5.0357,38.2811,835.3694],[-5.0519,38.2834,829.4034],[-5.0885,38.2525,725.2493],[-5.0984,38.25,714.6723],[-5.1036,38.2425,552.6489],[-5.1227,38.2365,494.8748],[-5.1354,38.2287,474.8077],[-5.1792,38.2184,557.4109],[-5.1868,38.2158,531.5304],[-5.1973,38.2092,569.8964],[-5.2216,38.2032,558.3021],[-5.2319,38.1975,669.6152],[-5.2383,38.1917,662.0775],[-5.2523,38.186,712.7699],[-5.2675,38.1876,708.6995],[-5.2697,38.1715,662.1368],[-5.2736,38.1621,642.2112],[-5.2745,38.1506,621.3367],[-5.2704,38.1351,582.804],[-5.276,38.1308,489.4929],[-5.2769,38.128,455.1771],[-5.2752,38.124,421.3541],[-5.2783,38.1186,388.6439],[-5.2837,38.1206,407.337],[-5.2859,38.1246,404.1159],[-5.2931,38.1301,411.4409],[-5.2996,38.1295,421.4744],[-5.3033,38.1315,429.8488],[-5.3182,38.1249,576.1826],[-5.3346,38.1323,580.9327],[-5.3415,38.1319,567.9001],[-5.3471,38.1268,561.3102],[-5.3557,38.1255,571.2491],[-5.3819,38.1307,544.2993],[-5.3853,38.1336,487.5642],[-5.4079,38.1352,388.165],[-5.4243,38.1502,523.7721],[-5.4294,38.152,507.2075],[-5.4512,38.1458,386.4176],[-5.4696,38.1449,488.9209],[-5.4778,38.1496,465.664],[-5.4781,38.1512,474.3279],[-5.4845,38.1535,457.6361],[-5.4907,38.1523,495.9714],[-5.4969,38.1553,510.1976]]]]}
,"properties": {"GID_3": "ESP.1.3.3_1","GID_0": "ESP","country": "Spain","GID_1": "ESP.1_1","province": "Andalucía","NL_NAME_1": "NA","GID_2": "ESP.1.3_1","county": "Córdoba","NL_NAME_2": "NA","city": "n.a.(87)","VARNAME_3": "NA","NL_NAME_3": "NA","TYPE_3": "Comarca","ENGTYPE_3": "Comarca","CC_3": "NA","HASC_3": "NA","name": "n.a.(87).city","area_km2": 3177.499,"hist_schema_id": "Elevation0-9000","hist_area_km2": {"50": 17.198,"75": 39.957,"100": 41.125,"125": 31.409,"150": 36.194,"175": 62.343,"200": 97.436,"225": 100.253,"250": 113.881,"275": 129.201,"300": 148.063,"325": 152.252,"350": 151.229,"375": 149.802,"400": 147.881,"425": 135.05,"450": 176.248,"475": 169.393,"500": 166.673,"525": 161.122,"550": 156.693,"575": 148.701,"600": 133.718,"625": 111.053,"650": 93.443,"675": 86.259,"700": 78.625,"725": 59.33,"750": 39.508,"775": 21.205,"800": 12.039,"825": 5.635,"850": 2.916,"875": 1.216,"900": 0.316,"925": 0.133}}}