{"type": "Feature","bbox": [-7.9612,43.0677,-7.1488,43.5561],"geometry": {"type": "MultiPolygon","coordinates": [[[[-7.33,43.1094,649.5139],[-7.3287,43.1112,650.8804],[-7.3196,43.1125,609.1156],[-7.3093,43.1102,753.1935],[-7.2929,43.0881,936.0256],[-7.2786,43.1117,620.5002],[-7.273,43.1124,631.6106],[-7.2597,43.1243,776.9769],[-7.2597,43.1299,651.9674],[-7.2532,43.1371,766.7117],[-7.2602,43.1482,822.5547],[-7.2503,43.1495,602.7651],[-7.2439,43.1521,560.7841],[-7.2343,43.1591,423.9688],[-7.2313,43.1542,594.4418],[-7.2331,43.1475,602.2904],[-7.2225,43.1453,327.8883],[-7.218,43.1324,518.0837],[-7.1987,43.1328,824.679],[-7.1975,43.136,812.3708],[-7.1842,43.1408,661.8513],[-7.1667,43.1382,761.8533],[-7.1587,43.1392,849.8068],[-7.1526,43.1381,789.4454],[-7.1552,43.146,749.6556],[-7.1616,43.149,630.5913],[-7.1601,43.15,630.5913],[-7.162,43.1529,587.1052],[-7.1628,43.1623,516.9485],[-7.164,43.1664,499.4342],[-7.1662,43.1678,507.7607],[-7.1631,43.1695,385.895],[-7.1634,43.1722,360.8635],[-7.158,43.1702,516.2877],[-7.1513,43.1702,690.1532],[-7.1494,43.1716,651.116],[-7.1491,43.1758,394.0869],[-7.1556,43.1773,357.5988],[-7.16,43.1812,312.0941],[-7.1532,43.1868,365.9297],[-7.1496,43.1871,377.3205],[-7.1488,43.1895,342.8932],[-7.1521,43.1962,473.3674],[-7.1558,43.1983,539.7185],[-7.171,43.2354,860.55],[-7.1736,43.2379,812.6873],[-7.1706,43.2409,779.313],[-7.1724,43.2432,749.1828],[-7.1659,43.2462,833.8575],[-7.1652,43.2509,774.9357],[-7.1638,43.2512,792.6449],[-7.1667,43.2543,761.9801],[-7.1602,43.2614,670.1542],[-7.1598,43.2647,660.1899],[-7.1817,43.259,751.133],[-7.2041,43.2561,195.9592],[-7.2044,43.2577,179.0767],[-7.2096,43.2574,240.2475],[-7.2081,43.2546,212.0072],[-7.2178,43.2522,244.0653],[-7.2239,43.252,342.9561],[-7.229,43.2546,299.444],[-7.2375,43.2519,348.3115],[-7.2505,43.2525,641.0891],[-7.2584,43.2638,592.9047],[-7.2597,43.2683,440.5327],[-7.2693,43.2671,546.8392],[-7.2729,43.2683,570.4075],[-7.2746,43.2736,555.0203],[-7.2733,43.2827,502.564],[-7.2765,43.2908,435.6667],[-7.2897,43.2937,537.8351],[-7.293,43.2967,525.5302],[-7.2943,43.2938,512.9955],[-7.2976,43.2971,492.6743],[-7.3019,43.2954,475.7017],[-7.3079,43.2971,476.8849],[-7.3071,43.3055,459.2844],[-7.3046,43.3077,463.238],[-7.3047,43.3138,467.6043],[-7.2913,43.3177,583.8944],[-7.2914,43.3232,603.3064],[-7.2969,43.3308,526.9105],[-7.2963,43.334,525.1094],[-7.2988,43.3372,538.3631],[-7.2969,43.3401,529.1537],[-7.2972,43.3476,569.0725],[-7.3004,43.3519,594.45],[-7.2999,43.3567,557.6841],[-7.305,43.3597,606.1487],[-7.3061,43.3625,644.7094],[-7.3128,43.3649,762.1434],[-7.3196,43.3758,794.5361],[-7.3241,43.3688,785.6283],[-7.3341,43.3715,568.405],[-7.3359,43.3732,588.8956],[-7.3349,43.3774,579.9382],[-7.3367,43.3803,541.7719],[-7.3457,43.3815,515.0235],[-7.3534,43.3791,602.0445],[-7.3667,43.3855,628.6868],[-7.3775,43.3802,699.8539],[-7.3774,43.3824,689.5096],[-7.389,43.3877,409.435],[-7.3908,43.3914,284.0848],[-7.4054,43.3868,325.1876],[-7.4134,43.3818,391.7599],[-7.4195,43.3818,434.8438],[-7.4248,43.3859,578.6854],[-7.4284,43.3836,539.579],[-7.4324,43.3934,662.6829],[-7.4307,43.3976,607.2717],[-7.4321,43.3997,581.6133],[-7.4366,43.4011,545.0825],[-7.4239,43.4128,628.3542],[-7.4286,43.4169,692.827],[-7.4492,43.4205,539.8581],[-7.4525,43.4272,669.3021],[-7.4521,43.4411,680.6635],[-7.4484,43.4488,615.1567],[-7.4482,43.4575,571.5591],[-7.476,43.4528,697.51],[-7.5209,43.4512,709.8682],[-7.5352,43.4573,739.6871],[-7.5373,43.4594,743.808],[-7.5365,43.464,763.8561],[-7.5397,43.4665,780.1865],[-7.5445,43.4627,861.6519],[-7.5525,43.4608,834.1702],[-7.5721,43.4642,1014.803],[-7.569,43.4676,966.5397],[-7.5717,43.4805,835.3696],[-7.5631,43.4919,895.9518],[-7.5506,43.4997,1000.9777],[-7.5492,43.5079,985.5497],[-7.5439,43.52,914.2656],[-7.5588,43.5247,699.8777],[-7.5685,43.5344,633.8595],[-7.572,43.5359,567.0668],[-7.5839,43.5371,320.3289],[-7.5893,43.5404,283.5402],[-7.5915,43.5399,279.7565],[-7.5926,43.5366,273.7256],[-7.5967,43.534,321.9026],[-7.5959,43.5315,330.0823],[-7.6022,43.5229,449.1068],[-7.6193,43.5253,618.3952],[-7.6228,43.517,645.3424],[-7.6295,43.5093,636.1929],[-7.6259,43.5043,648.7014],[-7.6275,43.4974,628.3999],[-7.6468,43.4877,787.923],[-7.6544,43.4941,788.905],[-7.652,43.5013,725.1283],[-7.6555,43.5104,747.2059],[-7.6496,43.5196,535.8744],[-7.6511,43.5215,473.0444],[-7.6589,43.5233,494.4244],[-7.6625,43.5223,504.0855],[-7.6658,43.5271,576.8494],[-7.6704,43.522,554.2112],[-7.6798,43.5223,712.5753],[-7.682,43.519,710.3612],[-7.6898,43.5172,632.4816],[-7.6918,43.5134,597.8254],[-7.6974,43.5099,493.0279],[-7.7014,43.5095,492.3646],[-7.6999,43.5229,461.7054],[-7.7018,43.5297,430.8815],[-7.706,43.532,453.8508],[-7.7045,43.5325,426.8564],[-7.708,43.5331,420.4646],[-7.7094,43.5359,429.0919],[-7.7071,43.5384,405.2589],[-7.7089,43.5374,400.5032],[-7.712,43.5387,423.6372],[-7.7134,43.5372,423.6372],[-7.717,43.537,385.2126],[-7.7162,43.5341,382.797],[-7.7207,43.5347,372.1675],[-7.7216,43.5386,371.9645],[-7.7274,43.5403,373.7998],[-7.7294,43.5387,368.3074],[-7.7307,43.5415,361.9648],[-7.7289,43.5421,334.7762],[-7.7313,43.5425,361.6644],[-7.7289,43.5441,354.2477],[-7.7345,43.5447,352.0069],[-7.7339,43.5463,358.6102],[-7.7366,43.5461,319.673],[-7.737,43.5481,352.4013],[-7.7389,43.5457,325.5715],[-7.7472,43.5483,370.6121],[-7.748,43.5561,294.2303],[-7.7549,43.5554,297.9936],[-7.7521,43.5527,321.9975],[-7.7568,43.5518,328.6987],[-7.7527,43.55,326.9033],[-7.76,43.5482,304.9286],[-7.7572,43.5482,312.4335],[-7.7537,43.5448,348.6095],[-7.7519,43.5458,362.6716],[-7.7478,43.5419,353.6016],[-7.7549,43.532,365.4882],[-7.749,43.5318,384.8537],[-7.748,43.533,385.1951],[-7.7442,43.5299,411.5032],[-7.7462,43.5293,380.0108],[-7.7441,43.5286,430.5111],[-7.7435,43.5262,451.4485],[-7.749,43.5236,414.9342],[-7.746,43.521,511.6368],[-7.7494,43.5196,427.6949],[-7.7465,43.5174,422.8852],[-7.749,43.5162,415.7984],[-7.7474,43.5155,443.5572],[-7.7485,43.5134,446.0628],[-7.7445,43.5136,443.7401],[-7.7443,43.512,481.1049],[-7.7463,43.5088,465.9896],[-7.7514,43.5076,442.444],[-7.7539,43.5095,449.5357],[-7.7581,43.5091,454.3411],[-7.7617,43.5023,526.184],[-7.757,43.4981,525.4099],[-7.7681,43.4876,563.0268],[-7.7662,43.485,475.5829],[-7.7708,43.4756,438.6724],[-7.7695,43.4727,428.2729],[-7.7727,43.4709,442.3203],[-7.7729,43.4681,431.4079],[-7.7752,43.4666,420.0746],[-7.7752,43.4598,434.2022],[-7.7799,43.4489,472.1973],[-7.7838,43.4461,499.3566],[-7.7934,43.4445,571.7599],[-7.7942,43.446,566.0526],[-7.8071,43.4373,566.3336],[-7.8098,43.4312,463.5126],[-7.808,43.4299,455.3533],[-7.8102,43.4283,429.0555],[-7.8052,43.4266,439.3586],[-7.8112,43.4157,465.6458],[-7.8229,43.4007,459.2132],[-7.8367,43.4017,469.5166],[-7.8457,43.3994,477.0152],[-7.8575,43.4052,505.5504],[-7.8695,43.4082,487.5044],[-7.8714,43.4061,466.1874],[-7.8798,43.4073,370.8907],[-7.8908,43.3984,329.3833],[-7.894,43.3925,356.7805],[-7.898,43.3897,364.1183],[-7.8969,43.3861,322.6321],[-7.8922,43.3855,430.4656],[-7.8854,43.3754,596.6387],[-7.8862,43.3693,592.2786],[-7.8814,43.3524,642.9693],[-7.8876,43.3363,667.3617],[-7.8925,43.33,593.8718],[-7.8994,43.3274,608.1212],[-7.9053,43.3226,669.1456],[-7.9094,43.3154,661.2373],[-7.9172,43.3092,676.5098],[-7.931,43.3017,671.6477],[-7.942,43.2889,635.1899],[-7.9469,43.286,637.0286],[-7.9397,43.2776,620.3965],[-7.9257,43.2751,639.3198],[-7.9217,43.2694,662.224],[-7.9322,43.2424,689.0338],[-7.9426,43.2251,710.8544],[-7.9446,43.2162,721.0042],[-7.9612,43.1898,488.5217],[-7.958,43.183,511.3087],[-7.9501,43.1772,543.2867],[-7.9506,43.1643,575.0881],[-7.9369,43.1118,612.4512],[-7.9278,43.0998,644.8375],[-7.918,43.0924,760.199],[-7.8983,43.0999,752.5244],[-7.8881,43.109,670.9944],[-7.8889,43.1124,636.7153],[-7.8801,43.1271,472.7934],[-7.8591,43.1302,465.8736],[-7.8504,43.1351,444.5395],[-7.8492,43.1328,445.3746],[-7.841,43.1304,433.0212],[-7.8399,43.1313,436.0824],[-7.8403,43.1239,434.9138],[-7.8306,43.124,460.881],[-7.8022,43.1323,472.4238],[-7.7924,43.1327,502.3945],[-7.7869,43.1237,521.5171],[-7.7687,43.1139,592.5827],[-7.7675,43.1027,614.8419],[-7.7627,43.0992,617.3253],[-7.7264,43.093,567.9845],[-7.719,43.0984,536.7104],[-7.7202,43.105,514.2667],[-7.7188,43.1079,525.275],[-7.7077,43.1122,523.2167],[-7.7003,43.1122,523.8112],[-7.6905,43.1236,456.6453],[-7.6806,43.1283,436.1257],[-7.6833,43.1309,433.3879],[-7.6664,43.1287,403.9521],[-7.6631,43.1301,400.9066],[-7.6566,43.1196,397.4666],[-7.6567,43.1118,394.5866],[-7.6491,43.1078,413.1106],[-7.6463,43.1035,392.8485],[-7.6385,43.1072,422.2496],[-7.635,43.1123,422.1955],[-7.6388,43.1211,410.9155],[-7.6377,43.1257,408.9717],[-7.6199,43.1373,411.7667],[-7.6138,43.139,401.505],[-7.6055,43.1365,393.2524],[-7.6024,43.1449,399.5775],[-7.6014,43.1584,399.616],[-7.5973,43.1659,392.4306],[-7.5925,43.1657,388.3813],[-7.5904,43.1549,394.3492],[-7.5784,43.1533,390.6793],[-7.5712,43.159,388.6691],[-7.5698,43.1639,391.9537],[-7.561,43.1649,391.677],[-7.5585,43.1549,403.9341],[-7.5436,43.1491,391.1433],[-7.5424,43.141,412.7283],[-7.5332,43.1335,425.9112],[-7.527,43.138,401.9655],[-7.5263,43.141,400.1495],[-7.5222,43.143,400.1293],[-7.5155,43.1389,395.8749],[-7.5118,43.1393,396.7032],[-7.5049,43.1359,400.4835],[-7.5021,43.1332,405.8621],[-7.5001,43.1215,428.1447],[-7.5055,43.111,433.2924],[-7.4906,43.0985,443.3593],[-7.4826,43.0959,455.4797],[-7.4747,43.098,466.0245],[-7.4605,43.0946,499.4565],[-7.4547,43.0873,519.9075],[-7.4549,43.0826,527.1528],[-7.4532,43.0809,520.2842],[-7.4405,43.08,538.9764],[-7.4308,43.0677,554.9023],[-7.4281,43.0711,600.0803],[-7.398,43.0766,614.257],[-7.385,43.0769,622.6317],[-7.3589,43.0724,808.4021],[-7.361,43.0873,724.3682],[-7.3571,43.0944,687.9076],[-7.3584,43.0957,684.8141],[-7.3559,43.1006,597.1218],[-7.3568,43.1063,660.8626],[-7.3514,43.1129,620.8331],[-7.3433,43.1116,566.4737],[-7.3396,43.1143,607.9433],[-7.339,43.111,617.5941],[-7.3368,43.1105,578.2216],[-7.3355,43.1125,561.8278],[-7.33,43.1094,649.5139]]]]}
,"properties": {"GID_3": "ESP.12.2.3_1","GID_0": "ESP","country": "Spain","GID_1": "ESP.12_1","province": "Galicia","NL_NAME_1": "NA","GID_2": "ESP.12.2_1","county": "Lugo","NL_NAME_2": "NA","city": "n.a.(171)","VARNAME_3": "NA","NL_NAME_3": "NA","TYPE_3": "Comarca","ENGTYPE_3": "Comarca","CC_3": "NA","HASC_3": "NA","name": "n.a.(171).city","area_km2": 2064.392,"hist_schema_id": "Elevation0-9000","hist_area_km2": {"175": 0.077,"200": 0.633,"225": 1.607,"250": 2.782,"275": 3.569,"300": 4.233,"325": 4.278,"350": 4.246,"375": 5.388,"400": 183.841,"425": 243.91,"450": 249.231,"475": 250.635,"500": 213.819,"525": 171.644,"550": 138.943,"575": 108.099,"600": 90.794,"625": 75.706,"650": 62.879,"675": 53.066,"700": 43.674,"725": 35.419,"750": 30.023,"775": 24.029,"800": 17.569,"825": 13.56,"850": 10.214,"875": 7.869,"900": 5.327,"925": 3.418,"950": 2.093,"975": 1.062,"1000": 0.585,"1025": 0.169}}}