{"type": "Feature","bbox": [1.9012,41.6859,2.5062,42.1452],"geometry": {"type": "MultiPolygon","coordinates": [[[[2.2407,41.7296,598.1939],[2.2414,41.7274,598.9304],[2.2438,41.7266,590.907],[2.2388,41.7219,677.6066],[2.2421,41.7077,631.5225],[2.2404,41.7054,727.3496],[2.2417,41.7007,739.5919],[2.2485,41.6965,581.0482],[2.2479,41.693,531.0222],[2.252,41.6886,466.4359],[2.2523,41.6859,457.2454],[2.2598,41.6967,543.0497],[2.2613,41.7033,394.4014],[2.269,41.7134,299.5955],[2.2758,41.7161,426.8421],[2.2787,41.7157,460.8306],[2.2819,41.7119,390.3906],[2.2863,41.7117,364.2017],[2.2845,41.7167,548.9709],[2.2917,41.7189,606.7748],[2.3103,41.7086,763.2028],[2.3142,41.7103,823.923],[2.3125,41.7126,883.511],[2.3146,41.7177,899.2405],[2.3327,41.7221,766.6937],[2.3449,41.7396,985.2869],[2.3522,41.7457,1211.9049],[2.3457,41.7488,1302.0298],[2.346,41.7526,1286.9635],[2.3409,41.7552,1267.3364],[2.3341,41.7639,1263.8938],[2.3445,41.7631,1306.6384],[2.3562,41.7657,1143.1526],[2.3658,41.7703,789.5596],[2.3641,41.7784,632.8486],[2.3659,41.7788,683.6869],[2.3676,41.7832,755.8091],[2.3625,41.7899,821.4001],[2.3635,41.7916,852.6876],[2.3715,41.7945,1092.5233],[2.3721,41.7971,1301.6869],[2.3827,41.8087,1664.2922],[2.3766,41.805,1554.7427],[2.3705,41.8041,1516.7661],[2.3643,41.8067,1421.5242],[2.3543,41.8071,1378.3289],[2.3516,41.8097,1358.858],[2.3495,41.8157,1274.2295],[2.3464,41.8174,1267.585],[2.3438,41.8217,1253.5674],[2.3473,41.8324,1240.2273],[2.3449,41.8374,1129.6694],[2.333,41.8443,839.7266],[2.326,41.8557,749.1906],[2.3302,41.8559,736.7744],[2.3298,41.8593,708.0135],[2.3324,41.8635,702.1566],[2.3245,41.8722,737.0936],[2.3238,41.8755,752.1243],[2.328,41.8831,782.2844],[2.3299,41.8822,790.6375],[2.3342,41.8839,765.4121],[2.3375,41.8892,769.2636],[2.3446,41.8862,677.4908],[2.3495,41.887,622.3773],[2.3553,41.8813,592.2388],[2.3615,41.8834,599.1079],[2.3666,41.8802,721.0235],[2.3679,41.8847,643.5616],[2.3697,41.8855,624.0986],[2.3703,41.8805,663.1234],[2.3772,41.8728,843.2994],[2.3781,41.8742,809.7323],[2.3826,41.8715,686.5984],[2.3845,41.877,683.9926],[2.3872,41.8777,641.0228],[2.3872,41.8792,633.0425],[2.3937,41.879,780.082],[2.3926,41.8805,738.7204],[2.3965,41.886,656.2208],[2.4044,41.8863,788.1795],[2.4071,41.8957,702.4026],[2.4153,41.896,698.1212],[2.4176,41.8933,755.2769],[2.427,41.8961,906.8756],[2.4286,41.8944,913.1171],[2.4312,41.8944,934.7089],[2.4308,41.8904,908.8007],[2.4433,41.888,960.733],[2.4459,41.8896,946.6364],[2.4463,41.8948,1022.9988],[2.4567,41.8967,968.4969],[2.459,41.8983,1005.4542],[2.4599,41.9026,1014.8997],[2.4687,41.9047,960.4174],[2.468,41.9058,975.4335],[2.4726,41.9095,1073.0601],[2.4748,41.915,1143.3486],[2.4812,41.916,1185.5511],[2.4785,41.9204,1155.0275],[2.4801,41.9291,952.2723],[2.4708,41.9393,655.0538],[2.4625,41.9378,861.556],[2.4622,41.9413,736.0251],[2.4592,41.9444,635.2081],[2.4549,41.9409,763.9196],[2.451,41.9437,903.2316],[2.4461,41.944,858.7723],[2.4451,41.9421,853.843],[2.4422,41.9414,804.4263],[2.44,41.9437,780.7938],[2.4402,41.9467,723.3938],[2.437,41.948,657.5474],[2.438,41.9515,768.3894],[2.4421,41.9546,703.4789],[2.4415,41.9599,595.6351],[2.4395,41.9632,459.0372],[2.4324,41.9658,545.797],[2.4294,41.9654,606.7015],[2.4291,41.969,400.1662],[2.4311,41.9692,380.8735],[2.4337,41.9725,377.3179],[2.4381,41.9734,345.7329],[2.4425,41.9718,341.0131],[2.4416,41.9682,371.6642],[2.4492,41.9701,598.7013],[2.452,41.9661,432.0309],[2.4558,41.9679,478.0179],[2.4568,41.9661,589.8875],[2.4614,41.9679,634.4578],[2.4652,41.9668,525.4883],[2.4743,41.9694,679.3877],[2.4717,41.9721,790.9507],[2.4724,41.9753,778.2468],[2.4802,41.9794,899.3348],[2.4795,41.9825,910.1628],[2.488,41.9847,761.7284],[2.4688,41.993899999999996,792.3874],[2.4766,41.9974,640.1234],[2.4765,42.0013,658.4971],[2.4793,42.0014,651.7707],[2.4795,41.9983,580.9672],[2.4829,41.9967,513.0024],[2.4846,41.9992,591.139],[2.4883,41.9991,578.2941],[2.4932,42.0016,585.7098],[2.4989,42.0015,623.971],[2.4999,42.0081,569.942],[2.5033,42.0097,481.1951],[2.4952,42.0117,462.3665],[2.4959,42.0164,532.5602],[2.494,42.0212,883.3968],[2.4979,42.0212,849.607],[2.5031,42.0247,937.7216],[2.5062,42.0323,856.1841],[2.4998,42.0331,1088.1609],[2.4966,42.0368,1116.2062],[2.4923,42.0379,1140.0411],[2.4875,42.0456,1002.4146],[2.4837,42.0465,1020.853],[2.4822,42.0493,994.463],[2.4822,42.0524,1000.4105],[2.4963,42.0589,1098.7891],[2.4904,42.0673,1023.6703],[2.4811,42.069,985.9418],[2.4773,42.0674,1002.8275],[2.4741,42.0637,1051.1907],[2.4719,42.0645,1034.8137],[2.4667,42.0738,916.5645],[2.4637,42.076,925.8222],[2.4582,42.0752,929.2948],[2.4546,42.078,859.3129],[2.4535,42.0767,883.8594],[2.4496,42.0774,864.1749],[2.4481,42.074,872.2267],[2.4435,42.0732,902.126],[2.4254,42.0625,1275.7725],[2.4206,42.0654,1282.9039],[2.4172,42.0649,1238.441],[2.4146,42.0689,1215.3203],[2.411,42.0686,1173.6844],[2.4058,42.0788,1235.1829],[2.395,42.0868,1026.7943],[2.3973,42.088,1090.8142],[2.3949,42.0912,1021.1779],[2.395,42.0952,930.0349],[2.4001,42.1022,1165.7892],[2.3948,42.1043,1177.34],[2.3799,42.1037,1234.2344],[2.3768,42.1059,1169.5371],[2.374,42.1168,1324.4487],[2.3693,42.1162,1259.0603],[2.366,42.1214,1150.3777],[2.356,42.1192,1057.6415],[2.3475,42.1213,1000.6865],[2.342,42.1202,955.4407],[2.3368,42.1165,982.3621],[2.3199,42.1159,888.0643],[2.3187,42.1136,879.3894],[2.3162,42.1142,850.1631],[2.3183,42.1133,879.3894],[2.317,42.1109,824.9739],[2.3097,42.1097,971.3921],[2.2949,42.1027,1159.6118],[2.294,42.1058,1106.8965],[2.3034,42.1125,1075.5873],[2.2983,42.1171,979.3563],[2.3016,42.119,999.2884],[2.3001,42.122,1016.1191],[2.3021,42.1225,1119.1005],[2.3012,42.1261,1112.3618],[2.3029,42.1273,1185.1035],[2.3009,42.1279,1163.3127],[2.2996,42.1342,1036.0646],[2.2936,42.1319,950.2272],[2.2916,42.1293,936.1899],[2.2867,42.1337,1039.3711],[2.2795,42.1339,1091.0181],[2.2764,42.1379,997.2997],[2.2809,42.1407,1168.123],[2.2727,42.1394,1097.1958],[2.2731,42.1425,1150.588],[2.2711,42.1428,1143.6514],[2.27,42.1452,1090.7507],[2.2688,42.1431,1119.3589],[2.2606,42.1413,1072.3313],[2.2579,42.1388,936.7596],[2.2487,42.1394,959.9069],[2.243,42.1379,946.5891],[2.2403,42.1431,785.2956],[2.2377,42.1441,729.8597],[2.2151,42.1421,714.3884],[2.2152,42.139,645.6628],[2.2101,42.1397,624.3268],[2.2106,42.137,626.0356],[2.2056,42.1335,630.0825],[2.2129,42.1293,607.9563],[2.2119,42.1277,619.5128],[2.2097,42.1277,603.8167],[2.2038,42.1319,604.8141],[2.2024,42.1283,599.243],[2.2049,42.1259,605.2459],[2.2011,42.1243,676.4449],[2.1892,42.1248,801.7716],[2.1865,42.1286,829.9623],[2.1884,42.1315,837.5217],[2.1876,42.134,924.4653],[2.1814,42.1353,968.8219],[2.1641,42.1353,980.8256],[2.1447,42.1314,932.9824],[2.1406,42.1278,899.3025],[2.1377,42.1216,839.501],[2.1259,42.1131,727.4034],[2.1238,42.1154,749.0615],[2.1134,42.1174,791.9668],[2.1051,42.1228,845.1003],[2.1011,42.1238,865.9603],[2.1003,42.1298,939.6902],[2.0976,42.1303,1006.1345],[2.101,42.1402,1156.9979],[2.0951,42.1405,1168.8812],[2.0955,42.1421,1146.515],[2.0923,42.1443,1154.2135],[2.0903,42.1423,1126.4275],[2.0858,42.1417,1084.1396],[2.0708,42.1419,970.1187],[2.0699,42.1388,974.5947],[2.0656,42.1387,962.2622],[2.061,42.1357,938.9851],[2.0675,42.1342,955.7405],[2.07,42.1322,936.0117],[2.0682,42.1225,882.5004],[2.0497,42.1218,825.4562],[2.0547,42.1079,830.3227],[2.0457,42.1044,828.366],[2.0625,42.0987,745.5954],[2.0577,42.0875,810.7387],[2.0539,42.0904,793.4839],[2.0531,42.0948,832.8625],[2.0424,42.0925,839.9924],[2.0397,42.0881,812.4066],[2.0402,42.0848,772.055],[2.0426,42.0817,737.8351],[2.0451,42.0811,725.4362],[2.0345,42.0774,785.8967],[2.0264,42.0931,741.0289],[2.0282,42.0953,712.0983],[2.026,42.0964,719.4542],[2.014,42.0942,675.8153],[2.008,42.085,636.9469],[2.0097,42.083,637.9772],[2.0077,42.0737,619.0339],[2.009,42.0716,616.491],[2.0067,42.0536,589.2933],[1.9997,42.0523,678.4279],[1.9971,42.0484,650.2887],[1.9998,42.0393,576.6416],[1.9879,42.0433,633.2861],[1.9734,42.0368,663.6003],[1.9779,42.0313,671.7478],[1.9742,42.0219,641.2193],[1.963,42.0186,555.1125],[1.9533,42.0041,519.5731],[1.9468,42.0085,571.0443],[1.9406,42.0067,615.7513],[1.9317,41.9986,565.5412],[1.9305,41.9896,469.8976],[1.9258,41.9872,474.0486],[1.9162,41.9776,454.6252],[1.9172,41.9761,450.5742],[1.9144,41.973,451.4471],[1.9123,41.9737,448.7965],[1.9129,41.9697,445.921],[1.9073,41.9675,437.3135],[1.9153,41.9642,454.5063],[1.9061,41.9582,416.3918],[1.9055,41.9504,429.5585],[1.9012,41.9486,407.2775],[1.9042,41.9467,410.1597],[1.9015,41.9445,397.9016],[1.9092,41.9496,484.8233],[1.9219,41.9546,506.3505],[1.9265,41.9597,522.3828],[1.9368,41.9654,656.1619],[1.9493,41.9656,732.6739],[1.9517,41.9673,756.4053],[1.9548,41.9665,717.592],[1.9705,41.9199,542.2349],[1.9841,41.9191,475.3304],[1.9836,41.922,478.6415],[1.9856,41.9239,521.9984],[1.9919,41.9233,434.2856],[1.9932,41.9214,444.9906],[2.0035,41.9283,480.944],[2.0074,41.9275,511.4839],[2.0027,41.9167,445.5892],[2.0058,41.9152,503.7861],[2.0113,41.916,521.2908],[2.0123,41.9121,564.3529],[2.0216,41.9112,496.3694],[2.0336,41.9019,443.8132],[2.0408,41.903,468.978],[2.0468,41.8977,519.6927],[2.0537,41.8998,549.9034],[2.0609,41.8997,452.5767],[2.0645,41.9019,456.8661],[2.0738,41.9002,617.2478],[2.0827,41.9064,607.2903],[2.0914,41.9091,649.0657],[2.0917,41.9046,746.4946],[2.1069,41.9037,732.1443],[2.1146,41.9069,754.3688],[2.131,41.9104,835.8834],[2.1352,41.9146,877.0772],[2.1438,41.9014,899.708],[2.1399,41.9,904.0021],[2.1394,41.8885,904.3011],[2.1339,41.8857,815.954],[2.1231,41.8853,811.7714],[2.1237,41.8807,863.4952],[2.131,41.8788,811.6816],[2.1322,41.8756,803.6903],[2.1284,41.8687,851.6694],[2.1362,41.8584,952.7652],[2.1417,41.8589,814.4563],[2.1413,41.8557,898.5928],[2.1463,41.8526,989.0922],[2.154,41.8534,823.5144],[2.1575,41.8567,789.2944],[2.1685,41.8554,882.0127],[2.1773,41.8521,952.9515],[2.1842,41.8555,915.1511],[2.1862,41.8598,895.736],[2.19,41.8494,783.2277],[2.1887,41.844,910.7827],[2.192,41.8379,863.4795],[2.1934,41.8387,825.2776],[2.1964,41.8362,761.0424],[2.1917,41.8209,943.2583],[2.1875,41.816,893.1561],[2.1872,41.81,859.7069],[2.1753,41.7978,797.5402],[2.1833,41.7933,899.2108],[2.1888,41.7752,790.6899],[2.1898,41.7519,828.2932],[2.1848,41.7425,841.0894],[2.1895,41.7325,693.6367],[2.1942,41.7301,583.3785],[2.2063,41.7289,632.3915],[2.2133,41.7265,685.6321],[2.2231,41.7296,783.7059],[2.2298,41.7293,903.2036],[2.2363,41.7322,801.4679],[2.2407,41.7296,598.1939]]]]}
,"properties": {"GID_3": "ESP.6.1.7_1","GID_0": "ESP","country": "Spain","GID_1": "ESP.6_1","province": "Cataluña","NL_NAME_1": "NA","GID_2": "ESP.6.1_1","county": "Barcelona","NL_NAME_2": "NA","city": "n.a.(33)","VARNAME_3": "NA","NL_NAME_3": "NA","TYPE_3": "Comarca","ENGTYPE_3": "Comarca","CC_3": "NA","HASC_3": "NA","name": "n.a.(33).city","area_km2": 1283.3195,"hist_schema_id": "Elevation0-9000","hist_area_km2": {"300": 0.1108,"325": 0.4589,"350": 0.9644,"375": 1.4072,"400": 6.4686,"425": 8.0647,"450": 24.6318,"475": 51.974,"500": 72.0836,"525": 70.8475,"550": 75.2961,"575": 82.6609,"600": 83.4954,"625": 76.7255,"650": 72.8398,"675": 74.3149,"700": 71.9279,"725": 66.8648,"750": 63.1742,"775": 54.4887,"800": 51.5995,"825": 43.3528,"850": 36.659,"875": 30.4136,"900": 26.7738,"925": 22.5512,"950": 20.7082,"975": 17.8856,"1000": 14.1025,"1025": 11.0457,"1050": 9.5498,"1075": 7.6441,"1100": 6.417,"1125": 5.6625,"1150": 4.7173,"1175": 3.9604,"1200": 3.3471,"1225": 2.5259,"1250": 2.3994,"1275": 1.2305,"1300": 0.7099,"1325": 0.3474,"1350": 0.2054,"1375": 0.1422,"1400": 0.079,"1425": 0.1422,"1450": 0.0474,"1475": 0.079,"1500": 0.0632,"1525": 0.0632,"1550": 0.0474,"1575": 0.0158,"1600": 0.0158,"1650": 0.0158}}}