{"type":"Feature","properties":{"GID_3":"ESP.2.3.5_1","GID_0":"ESP","country":"Spain","GID_1":"ESP.2_1","province":"Aragón","NL_NAME_1":"NA","GID_2":"ESP.2.3_1","county":"Zaragoza","NL_NAME_2":"NA","city":"n.a.(278)","VARNAME_3":"NA","NL_NAME_3":"NA","TYPE_3":"Comarca","ENGTYPE_3":"Comarca","CC_3":"NA","HASC_3":"NA","name":"n.a.(278).city"},
"geometry":{"type": "MultiPolygon","coordinates": [[[[-1.8254,41.0949,1069.9231],[-1.8164,41.0953,1056.6227],[-1.814,41.093,1073.4688],[-1.8025,41.0892,1024.674],[-1.796,41.0801,1054.8604],[-1.7907,41.0759,1091.3578],[-1.7711,41.0666,1058.4584],[-1.7577,41.0551,1011.1666],[-1.7423,41.0674,954.6345],[-1.7352,41.0764,945.1194],[-1.7339,41.082,989.6528],[-1.7466,41.1043,981.172],[-1.7428,41.1206,1013.4391],[-1.7471,41.1323,959.566],[-1.7429,41.136,964.6775],[-1.743,41.1402,979.866],[-1.7318,41.1504,977.1838],[-1.7255,41.1605,1001.831],[-1.6928,41.1761,992.3289],[-1.6851,41.178,1056.0107],[-1.6836,41.18,1054.9001],[-1.6786,41.1773,1135.6666],[-1.6737,41.1706,1145.7494],[-1.662,41.1705,1105.7361],[-1.6557,41.1663,1077.3326],[-1.6393,41.1604,929.0205],[-1.6321,41.163,934.1271],[-1.6324,41.1724,945.0166],[-1.6297,41.1746,941.2957],[-1.6248,41.1745,931.0576],[-1.6145,41.1842,872.9987],[-1.6,41.1864,789.5737],[-1.5941,41.191,765.7826],[-1.5858,41.2012,748.8563],[-1.5816,41.1973,832.1249],[-1.5625,41.1896,956.8511],[-1.5601,41.1831,966.2019],[-1.552,41.1822,957.1632],[-1.5437,41.187,881.3983],[-1.5391,41.1815,879.6216],[-1.5311,41.1849,817.244],[-1.5267,41.1938,773.7366],[-1.5099,41.2025,692.6067],[-1.5069,41.2027,718.0952],[-1.4982,41.2091,950.9585],[-1.489,41.2028,923.4327],[-1.4762,41.2047,948.8326],[-1.4743,41.2018,950.0727],[-1.4533,41.193,947.4828],[-1.4502,41.1872,932.116],[-1.4482,41.1953,946.9893],[-1.4499,41.2053,938.1067],[-1.4377,41.2185,928.7881],[-1.421,41.2413,908.5493],[-1.4169,41.2442,914.1632],[-1.4036,41.2482,1013.3932],[-1.3991,41.2458,1048.705],[-1.3963,41.2466,1041.8844],[-1.3927,41.2505,1083.694],[-1.393,41.2535,1082.9215],[-1.3859,41.257,979.6086],[-1.4022,41.2694,850.7043],[-1.4052,41.2696,869.0928],[-1.4265,41.2815,1228.0702],[-1.4245,41.2843,1227.3838],[-1.4248,41.2881,1248.949],[-1.4319,41.3063,1152.7551],[-1.4352,41.3082,1184.0709],[-1.4351,41.3114,1140.0291],[-1.4298,41.3132,1145.0237],[-1.4306,41.3162,1169.5488],[-1.4244,41.3183,1168.8809],[-1.4234,41.3213,1111.5736],[-1.4277,41.3321,1114.9456],[-1.4338,41.3356,1118.9912],[-1.4369,41.3394,1129.7224],[-1.435,41.3412,1043.9158],[-1.4373,41.3425,985.0997],[-1.4429,41.3519,1045.4385],[-1.4435,41.3565,884.63],[-1.456,41.3631,980.6497],[-1.4356,41.3886,607.2244],[-1.4396,41.3961,524.129],[-1.4474,41.399,592.4195],[-1.4564,41.407,714.9958],[-1.4681,41.4142,766.6613],[-1.4675,41.4155,743.1779],[-1.474,41.4197,790.6945],[-1.4754,41.4253,748.0192],[-1.4783,41.4289,764.4937],[-1.481,41.4286,814.2747],[-1.4813,41.4302,790.8879],[-1.4851,41.4311,739.545],[-1.4929,41.4411,743.8978],[-1.4953,41.4412,750.0815],[-1.4987,41.4491,759.2631],[-1.5089,41.4554,884.0814],[-1.5097,41.4591,872.3013],[-1.525,41.4582,700.644],[-1.5287,41.4596,774.6924],[-1.5309,41.4653,700.7166],[-1.5266,41.4725,508.5389],[-1.527,41.4825,431.7009],[-1.5319,41.4908,667.6976],[-1.5384,41.4892,532.879],[-1.544,41.4898,487.748],[-1.5562,41.4941,651.95],[-1.5675,41.496,736.7376],[-1.5707,41.4995,712.8039],[-1.5692,41.5047,730.0529],[-1.5742,41.5099,710.8724],[-1.5755,41.5172,766.7292],[-1.5667,41.5209,700.7556],[-1.5643,41.5267,589.2485],[-1.5657,41.5305,530.4537],[-1.5719,41.5323,695.2045],[-1.5787,41.5397,718.28],[-1.5888,41.544,800.9076],[-1.597,41.5455,889.1395],[-1.5933,41.5584,690.6096],[-1.591,41.5603,707.3074],[-1.591,41.5655,681.5945],[-1.6006,41.5716,685.9614],[-1.6087,41.573,734.4697],[-1.6207,41.5673,715.9827],[-1.6273,41.5675,721.9906],[-1.6326,41.5736,765.8553],[-1.63,41.5768,749.8874],[-1.6311,41.5791,763.4686],[-1.6371,41.582,764.9697],[-1.6386,41.5864,810.9178],[-1.6445,41.5869,827.2357],[-1.648,41.589,801.3868],[-1.6487,41.5949,785.307],[-1.6666,41.6041,977.7273],[-1.6822,41.6078,954.0417],[-1.6836,41.6127,911.0665],[-1.6888,41.6157,981.9556],[-1.6889,41.6216,972.0468],[-1.6923,41.6246,972.2546],[-1.6913,41.629,1045.5342],[-1.6964,41.6254,1031.5492],[-1.7046,41.6242,1017.4103],[-1.7098,41.6262,1053.7285],[-1.7115,41.6236,1022.6413],[-1.7207,41.6195,990.3137],[-1.7232,41.6164,1040.0646],[-1.7299,41.6141,1056.3488],[-1.7402,41.6181,1179.7185],[-1.7434,41.6223,1064.364],[-1.7499,41.6249,1115.5823],[-1.7567,41.634,1216.738],[-1.7664,41.6419,1187.4509],[-1.7791,41.6423,1273.8669],[-1.7819,41.6465,1304.5923],[-1.7931,41.6523,1333.7714],[-1.8053,41.6515,1414.1852],[-1.8107,41.6557,1396.8621],[-1.8131,41.6606,1481.1987],[-1.8291,41.6626,1391.3092],[-1.8345,41.6607,1371.1953],[-1.8589,41.6615,1217.3699],[-1.8739,41.638,1298.829],[-1.8788,41.6411,1274.5815],[-1.8978,41.6324,1202.3125],[-1.9003,41.6264,1192.3754],[-1.9135,41.6163,1171.2605],[-1.9141,41.6087,1097.3992],[-1.9183,41.6066,1077.1189],[-1.923,41.5983,1103.9771],[-1.958,41.6049,1001.5886],[-1.9692,41.6056,1095.6069],[-1.9759,41.6029,1262.1462],[-1.9844,41.6071,1179.2844],[-1.9933,41.6001,1113.5942],[-1.9919,41.5904,1092.699],[-1.995,41.5817,1066.4443],[-1.9936,41.5771,1073.2205],[-1.9806,41.5647,1089.0996],[-1.9818,41.562,1097.618],[-1.9767,41.5574,1116.2413],[-1.9735,41.558,1120.7408],[-1.9686,41.5508,1125.3668],[-1.9704,41.5487,1118.5013],[-1.9673,41.5461,1124.8118],[-1.973,41.5342,1020.776],[-1.9719,41.5328,1003.1986],[-1.9781,41.5267,938.5848],[-1.9749,41.5161,937.5419],[-1.9787,41.5041,978.3538],[-1.9766,41.4967,992.5067],[-1.981,41.4864,968.8804],[-1.9699,41.4815,955.3693],[-1.9532,41.4625,937.5728],[-1.9514,41.456,928.3732],[-1.9523,41.4455,922.1766],[-1.9487,41.4358,919.3429],[-1.9487,41.4296,924.6696],[-1.9536,41.4243,933.1343],[-1.9422,41.4199,899.0414],[-1.9365,41.4199,904.6124],[-1.9399,41.417,882.3732],[-1.9391,41.4127,881.6837],[-1.9372,41.4116,916.9222],[-1.9378,41.4074,865.4326],[-1.9527,41.4075,919.0889],[-1.9536,41.4086,919.0889],[-1.9625,41.4034,947.9486],[-1.9705,41.401,962.117],[-1.9818,41.4023,966.2296],[-1.9873,41.3959,982.0122],[-1.9918,41.3956,878.99],[-1.9934,41.3972,799.5842],[-1.9936,41.3954,798.0062],[-2.0019,41.3938,822.7295],[-2.0096,41.3858,907.6901],[-2.0166,41.385,895.943],[-2.0164,41.3836,891.2225],[-2.0292,41.3842,926.6348],[-2.0382,41.3893,997.1202],[-2.0423,41.389,1005.2268],[-2.0435,41.3972,989.0057],[-2.0347,41.4044,926.7917],[-2.0356,41.4269,956.0831],[-2.047,41.4343,962.4974],[-2.1015,41.4458,913.2411],[-2.1036,41.4396,897.4112],[-2.1117,41.4342,888.7065],[-2.1167,41.425,913.9521],[-2.116,41.4087,914.2447],[-2.1182,41.3962,892.654],[-2.1205,41.3943,880.2216],[-2.1194,41.3903,901.1814],[-2.1206,41.39,893.0811],[-2.1194,41.3843,932.8584],[-2.116,41.3821,938.976],[-2.1201,41.3797,938.6738],[-2.1257,41.3696,896.0618],[-2.1316,41.3684,868.3303],[-2.1498,41.3559,790.313],[-2.156,41.3569,774.4669],[-2.1631,41.3554,769.1426],[-2.1624,41.3479,770.6995],[-2.1566,41.3374,758.0631],[-2.1579,41.3316,785.7618],[-2.1643,41.3287,788.9845],[-2.1704,41.3188,828.3761],[-2.1673,41.3112,807.7866],[-2.169,41.3011,770.5094],[-2.1729,41.2958,811.8961],[-2.1736,41.2881,779.9474],[-2.1634,41.2832,819.2241],[-2.1586,41.2649,831.978],[-2.1548,41.2404,856.9147],[-2.1489,41.2188,910.8855],[-2.1462,41.1844,924.8831],[-2.1067,41.1752,965.5002],[-2.0798,41.171,1113.6803],[-2.0773,41.1631,1091.5464],[-2.0516,41.1469,1098.5841],[-2.0476,41.1527,1122.1615],[-2.0383,41.1551,1144.4507],[-2.0084,41.1564,1063.9758],[-1.9877,41.1612,995.3223],[-1.9827,41.1651,985.8748],[-1.959,41.1725,947.6259],[-1.9483,41.1669,937.0395],[-1.9477,41.1615,972.017],[-1.9391,41.1525,961.1116],[-1.9391,41.1474,961.9556],[-1.9324,41.1386,979.569],[-1.9216,41.1343,1024.6244],[-1.9057,41.1341,1029.0773],[-1.9009,41.1355,982.4689],[-1.8905,41.1333,990.9912],[-1.879,41.1238,1006.0588],[-1.8692,41.1079,1097.4878],[-1.8556,41.1025,1135.8726],[-1.8352,41.0992,1074.8198],[-1.8254,41.0949,1069.9231]]]]}}