{"type":"Feature","properties":{"GID_2":"ESP.4.3_1","GID_0":"ESP","country":"Spain","GID_1":"ESP.4_1","province":"Castilla-LaMancha","NL_NAME_1":"NA","county":"Cuenca","VARNAME_2":"NA","NL_NAME_2":"NA","TYPE_2":"Provincia","ENGTYPE_2":"Province","CC_2":"16","HASC_2":"ES.CM.CU","name":"Cuenca.county"},
"geometry":{"type": "MultiPolygon","coordinates": [[[[-2.1786,39.2783,732.7559],[-2.1684,39.2811,735.9371],[-2.1521,39.2758,744.8431],[-2.1214,39.2746,740.0055],[-2.0749,39.2661,727.087],[-2.0509,39.2667,663.0407],[-2.0587,39.2724,663.082],[-2.0575,39.2776,663.3154],[-2.0594,39.2855,667.2661],[-2.065,39.2864,675.1791],[-2.0674,39.2892,668.26],[-2.0668,39.2981,667.9592],[-2.0698,39.2989,666.659],[-2.071,39.3023,668.7914],[-2.077,39.3077,667.6],[-2.0771,39.3127,668.7033],[-2.0732,39.3168,668.8512],[-2.0736,39.3211,670.6509],[-2.0773,39.3259,670.5554],[-2.0782,39.3321,676.4722],[-2.0824,39.3335,672.7504],[-2.0878,39.3394,680.1617],[-2.0884,39.344,679.4712],[-2.0862,39.3472,678.5656],[-2.0912,39.3493,677.6572],[-2.0905,39.3516,679.6143],[-2.0962,39.3589,679.9562],[-2.0811,39.3586,745.4692],[-2.0666,39.3555,758.7169],[-2.0545,39.3565,761.9088],[-2.0443,39.3592,759.0623],[-2.0203,39.3519,758.975],[-2.0289,39.3381,746.4728],[-2.0191,39.3258,739.0908],[-1.9947,39.3094,739.8128],[-1.9897,39.2937,735.449],[-1.9665,39.3001,724.1876],[-1.9368,39.304,734.2048],[-1.887,39.3048,735.5037],[-1.8711,39.295,713.9503],[-1.8451,39.2861,711.2776],[-1.8124,39.2863,724.6662],[-1.7698,39.2805,716.6411],[-1.7626,39.302,734.7836],[-1.7392,39.3212,750.4526],[-1.7165,39.325,739.4464],[-1.6965,39.3375,730.64],[-1.6268,39.361,748.4117],[-1.6128,39.3682,735.3042],[-1.5983,39.3786,744.1021],[-1.5814,39.3853,700.6146],[-1.5556,39.4019,681.8293],[-1.5347,39.4075,646.4238],[-1.5151,39.4164,572.0262],[-1.5051,39.418,482.695],[-1.5014,39.4257,544.2831],[-1.4963,39.4289,521.622],[-1.5063,39.4294,493.8557],[-1.5082,39.433,497.2859],[-1.5115,39.4351,499.1584],[-1.5132,39.4343,499.1584],[-1.5141,39.4288,509.4887],[-1.5208,39.4315,518.3719],[-1.5212,39.435,498.6636],[-1.5152,39.4378,532.3712],[-1.5155,39.4391,554.9375],[-1.5208,39.4403,517.5637],[-1.5245,39.4431,502.8583],[-1.5191,39.4469,538.218],[-1.5184,39.449,539.1136],[-1.528,39.4522,555.4478],[-1.5288,39.4553,537.7004],[-1.5269,39.4573,547.7004],[-1.5237,39.4579,534.8351],[-1.5191,39.4558,540.6275],[-1.5138,39.458,552.4829],[-1.513,39.4708,566.9384],[-1.509,39.4777,580.2903],[-1.5035,39.4786,582.1621],[-1.5034,39.4801,583.4781],[-1.5106,39.4812,573.5104],[-1.5125,39.4833,551.665],[-1.505,39.4882,561.3395],[-1.5109,39.4904,554.394],[-1.5124,39.4963,578.3545],[-1.5036,39.4915,565.0504],[-1.4991,39.5005,541.7303],[-1.5071,39.5079,547.137],[-1.5071,39.5129,548.1659],[-1.5011,39.5159,617.4901],[-1.5069,39.5207,561.546],[-1.5041,39.5248,564.3239],[-1.5059,39.5315,566.2304],[-1.5009,39.5345,592.9194],[-1.506,39.5401,586.021],[-1.5026,39.5445,644.0],[-1.5032,39.5472,644.0],[-1.5104,39.5455,648.4752],[-1.5157,39.5487,644.0],[-1.5208,39.5489,644.0],[-1.5177,39.5514,644.0],[-1.5031,39.5521,644.0],[-1.5031,39.5562,644.0],[-1.5007,39.5571,644.0],[-1.5043,39.5639,644.0],[-1.4834,39.5692,835.3831],[-1.4767,39.5691,836.7925],[-1.462,39.5766,806.2653],[-1.4549,39.5876,875.684],[-1.4456,39.6112,935.4604],[-1.4365,39.6288,899.6437],[-1.4179,39.655,927.5016],[-1.4039,39.666,1020.6219],[-1.3685,39.6896,1020.7596],[-1.3426,39.6816,938.1609],[-1.3257,39.6731,890.6108],[-1.3128,39.6705,876.9763],[-1.2919,39.6726,886.2288],[-1.2795,39.6779,864.5092],[-1.2619,39.6989,870.8918],[-1.271,39.7131,931.0171],[-1.2722,39.7185,913.2814],[-1.2709,39.7312,1022.2974],[-1.2754,39.737,998.1168],[-1.2491,39.7725,863.6016],[-1.234,39.7829,869.3191],[-1.2211,39.8032,914.639],[-1.2149,39.8088,1057.2393],[-1.2168,39.8144,1137.5278],[-1.2117,39.8203,1144.3615],[-1.2108,39.8382,1075.8247],[-1.1999,39.8595,846.6652],[-1.2007,39.8709,994.1963],[-1.1976,39.873,1033.9065],[-1.2,39.8738,1045.3766],[-1.2,39.8885,899.4663],[-1.1981,39.9088,847.6451],[-1.1958,39.914,623.6195],[-1.1986,39.916,634.5147],[-1.1972,39.9184,623.5293],[-1.1999,39.92,625.9197],[-1.2005,39.9229,648.3082],[-1.2089,39.9282,642.0873],[-1.2069,39.9322,620.5257],[-1.2097,39.9341,647.3195],[-1.2068,39.9407,679.266],[-1.2084,39.9414,647.0264],[-1.2081,39.9438,752.4745],[-1.2039,39.9494,850.1281],[-1.1539,39.9639,956.0966],[-1.1423,39.9719,869.287],[-1.1473,39.9886,1152.833],[-1.1634,40.0002,1181.3278],[-1.1651,40.0101,1463.921],[-1.1729,40.0109,1461.3418],[-1.1917,40.0016,1364.6959],[-1.1995,40.0035,1265.8676],[-1.2166,40.0016,1260.8926],[-1.248,39.9951,981.3426],[-1.2649,39.9988,929.3895],[-1.2863,40.0082,959.6835],[-1.3283,40.0134,1133.6067],[-1.3357,40.0167,1137.766],[-1.3643,40.0122,1151.2155],[-1.3768,40.0165,1268.8569],[-1.3812,40.0272,1272.0259],[-1.3831,40.039,1211.2981],[-1.3937,40.0531,1246.509],[-1.4007,40.0671,1216.3884],[-1.4131,40.0812,1226.4319],[-1.4135,40.0861,1232.9888],[-1.4202,40.0935,1402.144],[-1.4075,40.1014,1434.5338],[-1.4101,40.1045,1298.4628],[-1.4293,40.1136,1398.7922],[-1.4427,40.1181,1505.7876],[-1.4562,40.131,1503.7473],[-1.4572,40.1351,1514.8175],[-1.4488,40.1454,1548.2666],[-1.4423,40.1576,1482.8534],[-1.4391,40.197,1475.5431],[-1.4744,40.1851,1599.9209],[-1.5108,40.2037,1409.8373],[-1.5211,40.2022,1377.8333],[-1.5305,40.1936,1381.2832],[-1.5404,40.1908,1261.5128],[-1.5702,40.2136,1393.6025],[-1.5925,40.2363,1504.3079],[-1.6037,40.243,1507.2737],[-1.6086,40.2428,1502.766],[-1.6178,40.2486,1532.0809],[-1.6323,40.2617,1586.0516],[-1.6391,40.2659,1588.6541],[-1.647,40.2743,1688.5598],[-1.6591,40.2824,1686.1091],[-1.6655,40.2946,1729.3569],[-1.6798,40.3008,1682.7976],[-1.6903,40.3097,1679.8575],[-1.7003,40.3071,1661.9115],[-1.7105,40.2921,1694.5465],[-1.71,40.2807,1650.9519],[-1.7142,40.2768,1540.9359],[-1.7192,40.2771,1531.8262],[-1.7269,40.2883,1675.6179],[-1.7292,40.3032,1694.2524],[-1.7231,40.3119,1724.5613],[-1.7205,40.3133,1723.5839],[-1.7201,40.3185,1697.8578],[-1.7068,40.3136,1658.854],[-1.6972,40.3166,1597.5146],[-1.6976,40.3213,1574.6252],[-1.7075,40.3267,1565.2496],[-1.7203,40.3409,1576.6724],[-1.7347,40.3469,1545.332],[-1.7361,40.3491,1546.197],[-1.7412,40.3496,1536.7759],[-1.7422,40.3528,1534.1587],[-1.7506,40.3612,1534.6573],[-1.7532,40.3609,1529.4419],[-1.7535,40.364,1530.611],[-1.7598,40.3725,1525.884],[-1.7644,40.3755,1527.7838],[-1.7672,40.3824,1523.7832],[-1.7739,40.3882,1524.0555],[-1.7754,40.3875,1521.8346],[-1.7784,40.3921,1536.3314],[-1.7897,40.3921,1530.4294],[-1.7894,40.3974,1527.2368],[-1.8063,40.3983,1509.7502],[-1.8116,40.4,1511.6405],[-1.8142,40.4045,1503.9652],[-1.8229,40.4103,1491.0173],[-1.8327,40.42,1496.6346],[-1.8363,40.4274,1584.0564],[-1.8396,40.4255,1501.8043],[-1.8443,40.419,1480.374],[-1.853,40.4235,1501.8921],[-1.8507,40.4263,1560.7638],[-1.8564,40.4288,1456.6968],[-1.8573,40.4414,1527.843],[-1.8623,40.4441,1472.8455],[-1.8599,40.4473,1570.0106],[-1.865,40.4547,1433.2605],[-1.8599,40.4609,1526.3118],[-1.8616,40.4626,1428.8273],[-1.8608,40.4648,1546.0447],[-1.8728,40.473,1406.9784],[-1.8732,40.477,1419.1467],[-1.8711,40.4765,1418.6158],[-1.8755,40.4787,1461.6636],[-1.8774,40.4871,1505.2111],[-1.8808,40.4895,1420.3326],[-1.8779,40.4914,1451.1161],[-1.8802,40.4921,1384.266],[-1.8794,40.494,1477.2764],[-1.8877,40.5057,1377.994],[-1.8838,40.51,1340.8336],[-1.8837,40.5146,1291.5865],[-1.8814,40.5175,1289.9022],[-1.889,40.5295,1254.269],[-1.8989,40.5343,1257.8888],[-1.8994,40.5408,1294.3668],[-1.909,40.5413,1244.5906],[-1.9093,40.5429,1238.4554],[-1.9044,40.5465,1364.0837],[-1.9081,40.5495,1232.2573],[-1.9081,40.5531,1240.6523],[-1.91,40.5539,1217.6261],[-1.9098,40.5616,1230.6179],[-1.9149,40.5682,1219.2346],[-1.9164,40.5828,1170.0372],[-1.9205,40.5857,1186.4814],[-1.9236,40.592,1156.0071],[-1.9384,40.5971,1202.0267],[-1.9418,40.6001,1156.3789],[-1.9535,40.6,1151.4686],[-1.9617,40.6116,1123.7468],[-1.9649,40.6114,1133.6826],[-1.9681,40.6086,1141.4945],[-1.9638,40.5992,1441.4104],[-1.9658,40.592,1358.95],[-1.9855,40.5854,1517.5314],[-1.9923,40.5894,1466.4832],[-2.0062,40.5917,1440.001],[-2.0205,40.5978,1426.5427],[-2.0345,40.601,1432.1586],[-2.0474,40.6092,1370.2107],[-2.0574,40.6183,1353.4121],[-2.0575,40.6241,1352.3594],[-2.0634,40.6275,1388.0879],[-2.0709,40.6285,1385.53],[-2.0841,40.6353,1383.1001],[-2.0917,40.6433,1363.9102],[-2.0911,40.6464,1417.5278],[-2.11,40.6514,1366.6421],[-2.1207,40.651,1372.735],[-2.1337,40.6559,1369.4373],[-2.1569,40.6587,1377.8894],[-2.1627,40.6508,1386.4794],[-2.1668,40.6324,1354.6265],[-2.1703,40.6299,1351.6476],[-2.1849,40.629,1333.9999],[-2.1897,40.6303,1316.9885],[-2.2137,40.6192,1243.3608],[-2.2256,40.6194,1266.0212],[-2.2354,40.627,1248.3206],[-2.2532,40.6316,1224.3112],[-2.2745,40.6448,1223.5747],[-2.2766,40.6378,1297.1428],[-2.2799,40.6338,1252.5961],[-2.2903,40.6303,1204.6781],[-2.2947,40.6229,1251.2419],[-2.2941,40.6117,1216.4022],[-2.2869,40.5976,1215.5787],[-2.286,40.5922,1210.6663],[-2.2919,40.5796,1248.0924],[-2.2976,40.5729,1239.6155],[-2.3082,40.574,1230.2051],[-2.3181,40.5702,1001.2712],[-2.3259,40.57,907.1127],[-2.3314,40.5672,1043.5276],[-2.3434,40.5694,1055.6184],[-2.3455,40.5726,1099.2004],[-2.3528,40.5752,1213.1063],[-2.3598,40.5807,1170.228],[-2.354,40.5892,1196.3877],[-2.3543,40.5927,1205.0605],[-2.359,40.5969,1178.8728],[-2.3671,40.6013,1067.8513],[-2.3725,40.6072,1146.5581],[-2.3807,40.6073,1112.2958],[-2.3987,40.6138,1138.9662],[-2.4124,40.6021,1119.5847],[-2.4162,40.5884,1134.7136],[-2.4163,40.5806,1132.8302],[-2.4072,40.574,1137.5382],[-2.4005,40.5659,1125.7239],[-2.3939,40.5643,1015.7523],[-2.3896,40.5563,1006.9172],[-2.3831,40.5536,982.503],[-2.3799,40.5436,948.7612],[-2.3966,40.5335,850.8317],[-2.4075,40.5293,959.6874],[-2.4117,40.5256,984.8615],[-2.417,40.5303,986.0518],[-2.4214,40.5383,1105.6241],[-2.4262,40.5407,1136.6996],[-2.4353,40.5345,1136.394],[-2.4372,40.5309,1135.9575],[-2.4486,40.5245,1109.1542],[-2.4626,40.5233,924.191],[-2.4731,40.5194,899.5592],[-2.4871,40.5112,829.9021],[-2.4959,40.5088,850.3712],[-2.5135,40.5158,793.5437],[-2.518,40.528,775.7994],[-2.5215,40.5314,815.3882],[-2.5272,40.5443,1059.1406],[-2.5391,40.5332,835.8023],[-2.5462,40.519,799.6726],[-2.5399,40.507,770.3251],[-2.5287,40.4984,743.6529],[-2.5366,40.4923,733.9602],[-2.5364,40.4861,729.8608],[-2.5444,40.4746,716.5881],[-2.5286,40.4699,745.9973],[-2.5219,40.4663,771.7596],[-2.5161,40.4601,783.6916],[-2.511,40.4584,781.2168],[-2.5045,40.4487,828.6131],[-2.5104,40.4289,741.9816],[-2.5154,40.4243,720.1467],[-2.5252,40.4238,698.7672],[-2.5337,40.4275,696.8124],[-2.5416,40.4253,712.52],[-2.5444,40.4264,711.6923],[-2.548,40.431,694.0],[-2.5463,40.4347,694.0],[-2.5563,40.4348,696.989],[-2.5609,40.4393,694.0],[-2.5658,40.4381,696.9932],[-2.5678,40.4389,694.0],[-2.568,40.4426,694.0],[-2.5759,40.4457,694.0],[-2.5795,40.4448,694.0],[-2.5854,40.4501,694.0],[-2.5916,40.4498,694.0],[-2.5933,40.4451,694.0],[-2.5986,40.4435,694.0],[-2.6059,40.4468,694.0],[-2.6143,40.4472,694.0],[-2.6196,40.4455,694.0],[-2.6264,40.4495,701.0916],[-2.6335,40.4439,694.0],[-2.642,40.4487,694.0],[-2.6512,40.44,694.0],[-2.6609,40.4394,702.3499],[-2.6633,40.4361,694.0],[-2.6675,40.4385,694.0],[-2.6706,40.4427,695.7493],[-2.6707,40.4478,694.0],[-2.6758,40.448,694.0],[-2.6803,40.4434,694.0],[-2.6851,40.4433,700.5104],[-2.6846,40.4415,697.1116],[-2.6763,40.4358,694.0],[-2.6844,40.4283,694.0],[-2.6912,40.4271,694.0],[-2.6961,40.4299,694.0],[-2.7017,40.4296,721.1645],[-2.7039,40.4226,694.0],[-2.6807,40.4027,781.1144],[-2.6862,40.3971,771.3467],[-2.6906,40.3952,753.2177],[-2.7044,40.4154,726.1664],[-2.7174,40.4198,694.0],[-2.7188,40.4181,694.0],[-2.7119,40.4139,694.0],[-2.7168,40.4075,694.0],[-2.7196,40.4073,694.0],[-2.7252,40.4115,694.0],[-2.7279,40.4114,694.0],[-2.7196,40.4016,694.0],[-2.7228,40.3971,694.0],[-2.737,40.4004,702.0685],[-2.7501,40.4085,713.5702],[-2.7599,40.4124,694.0],[-2.7698,40.4214,1027.6309],[-2.7618,40.4342,1018.4165],[-2.7599,40.4417,1033.3729],[-2.7624,40.4431,1030.7203],[-2.769,40.4429,863.1035],[-2.7768,40.4466,642.978],[-2.7809,40.4442,643.7814],[-2.7844,40.435,645.1654],[-2.79,40.4317,638.0],[-2.7858,40.4279,638.0],[-2.7866,40.4268,659.8134],[-2.7996,40.4233,669.6077],[-2.7975,40.4202,638.0],[-2.798,40.4172,638.0],[-2.8026,40.4105,644.1188],[-2.8072,40.4073,639.4525],[-2.8044,40.3987,638.0],[-2.8102,40.3933,698.7522],[-2.8058,40.391,641.5205],[-2.8111,40.3869,648.3568],[-2.8121,40.3723,669.3718],[-2.8168,40.3638,646.6608],[-2.8153,40.3592,638.0],[-2.8178,40.348,638.0],[-2.8151,40.3456,669.0216],[-2.8148,40.3418,641.5439],[-2.8116,40.3444,641.0872],[-2.8103,40.3432,641.3978],[-2.8105,40.3401,654.7896],[-2.8166,40.3347,704.5665],[-2.8084,40.3269,703.1575],[-2.8091,40.3119,942.9841],[-2.8046,40.288,1063.499],[-2.8048,40.2814,1074.741],[-2.8065,40.2794,1082.549],[-2.8052,40.2667,1095.7183],[-2.8025,40.264,1096.1404],[-2.8083,40.2454,1109.5444],[-2.8074,40.2425,1112.9181],[-2.8145,40.2243,1089.251],[-2.8203,40.2197,1036.8374],[-2.8189,40.2169,1029.4],[-2.8227,40.2092,1050.558],[-2.8214,40.2052,1058.9202],[-2.8259,40.2023,1060.7076],[-2.8483,40.2026,918.8599],[-2.863,40.2001,892.515],[-2.875,40.1758,860.6262],[-2.8737,40.1736,846.0485],[-2.8798,40.1709,836.1246],[-2.8875,40.1646,803.1597],[-2.9048,40.1579,896.608],[-2.913,40.1572,817.907],[-2.9347,40.1633,795.5565],[-2.9469,40.1696,733.1981],[-2.9594,40.183,763.5414],[-2.966,40.1852,671.2505],[-2.981,40.194,610.0437],[-2.9887,40.2011,595.6874],[-2.9881,40.2027,586.4312],[-2.9981,40.2091,565.6806],[-3.0061,40.2085,563.6135],[-3.0075,40.201,566.3461],[-3.0103,40.1977,566.0984],[-3.0164,40.193,563.7173],[-3.0197,40.1932,563.714],[-3.0211,40.1844,619.2605],[-3.018,40.1762,607.2971],[-3.0124,40.1742,651.2345],[-3.0123,40.1707,627.2846],[-3.0157,40.165,657.5446],[-3.0144,40.1553,632.1495],[-3.0164,40.1525,657.9542],[-3.0208,40.1558,651.763],[-3.0309,40.157,640.326],[-3.0379,40.1609,641.1609],[-3.0637,40.1683,558.2048],[-3.0675,40.1613,556.3549],[-3.0677,40.1575,557.2344],[-3.0786,40.1567,556.8297],[-3.0829,40.1583,562.8646],[-3.0841,40.162,555.5697],[-3.0881,40.1628,551.5908],[-3.0978,40.1535,550.1793],[-3.0941,40.1505,551.2303],[-3.0968,40.1425,550.6699],[-3.0948,40.1421,557.9915],[-3.0939,40.1388,561.8835],[-3.0905,40.1411,557.3356],[-3.0882,40.1393,560.2733],[-3.0899,40.139,561.1057],[-3.0854,40.1385,562.35],[-3.0823,40.1351,567.5485],[-3.0776,40.135,572.1711],[-3.0777,40.1326,581.5137],[-3.0726,40.1306,576.6134],[-3.0749,40.1289,582.9062],[-3.0719,40.1263,581.2751],[-3.0732,40.1252,590.7361],[-3.0704,40.1226,583.6835],[-3.0658,40.1226,593.1943],[-3.0678,40.1185,592.1282],[-3.0624,40.1151,593.028],[-3.0618,40.1131,604.6257],[-3.0579,40.1142,602.7077],[-3.0564,40.1132,596.118],[-3.0587,40.1113,598.0686],[-3.054,40.1065,614.1893],[-3.0571,40.1049,622.8452],[-3.0532,40.0991,609.9186],[-3.0607,40.0904,657.1926],[-3.0886,40.0705,680.9301],[-3.1066,40.0662,685.7214],[-3.1178,40.0617,692.6695],[-3.1393,40.0632,645.1155],[-3.1486,40.0662,618.2087],[-3.1613,40.0651,652.1467],[-3.1613,40.0619,650.2186],[-3.1663,40.052,684.14],[-3.1701,40.0482,683.9272],[-3.1653,40.0393,722.1944],[-3.1654,40.0282,753.8353],[-3.1607,40.0263,747.8115],[-3.1504,40.0108,767.7565],[-3.1425,39.985,789.2263],[-3.1318,39.9841,794.0371],[-3.11,39.9876,813.0039],[-3.0965,39.987,807.5861],[-3.0985,39.9752,799.1536],[-3.0948,39.9717,800.1118],[-3.0974,39.9695,796.6193],[-3.0961,39.9661,801.3694],[-3.0973,39.9594,791.5639],[-3.0947,39.956,793.7135],[-3.0988,39.9526,789.0477],[-3.0966,39.9472,790.494],[-3.0982,39.9436,781.7958],[-3.097,39.9335,775.0348],[-3.1003,39.9217,766.3575],[-3.1068,39.9164,771.5657],[-3.1068,39.9032,761.2478],[-3.1132,39.8995,759.0111],[-3.1128,39.8943,757.0088],[-3.1221,39.886,758.1411],[-3.1271,39.8747,749.8554],[-3.122,39.8761,766.2811],[-3.1185,39.8745,763.7747],[-3.112,39.875,760.3626],[-3.1068,39.8711,756.2754],[-3.0962,39.8691,753.2509],[-3.0822,39.8579,752.1923],[-3.0762,39.8557,752.5071],[-3.0596,39.8375,735.286],[-3.0556,39.8292,742.7775],[-3.0556,39.8237,737.2944],[-3.0517,39.8126,726.7379],[-3.0376,39.7902,758.687],[-3.0404,39.7876,757.4585],[-3.0296,39.7771,762.3954],[-3.0208,39.7711,757.7971],[-3.0154,39.7648,762.8674],[-2.9977,39.7189,728.7437],[-2.9934,39.7141,732.1935],[-2.9766,39.7029,747.0848],[-2.9774,39.6967,744.7999],[-2.9725,39.6937,749.5804],[-2.9698,39.6897,739.0341],[-2.9541,39.6864,734.6425],[-2.9495,39.6765,750.5084],[-2.9381,39.6668,766.7004],[-2.9184,39.6457,818.7347],[-2.9081,39.6424,807.5471],[-2.9148,39.632,828.293],[-2.9154,39.6253,829.4252],[-2.9178,39.6231,832.7864],[-2.9137,39.6138,845.7576],[-2.9232,39.6024,818.3091],[-2.9254,39.6018,817.6257],[-2.9205,39.5823,787.6058],[-2.9227,39.5702,767.228],[-2.9206,39.5592,753.2931],[-2.9247,39.5557,738.056],[-2.9274,39.5496,726.6138],[-2.929,39.5299,714.4805],[-2.935,39.5256,704.6435],[-2.9312,39.5186,706.0184],[-2.9358,39.5113,708.2256],[-2.9338,39.5048,715.0222],[-2.9345,39.4822,690.3174],[-2.9313,39.4715,675.1328],[-2.9293,39.4697,673.847],[-2.9276,39.4708,675.4067],[-2.931,39.4628,673.5903],[-2.9292,39.4575,684.6421],[-2.9321,39.4554,675.0423],[-2.9317,39.4528,678.8395],[-2.9263,39.4542,681.6034],[-2.9269,39.4507,678.6252],[-2.9253,39.4524,680.1558],[-2.9219,39.452,684.887],[-2.9213,39.4503,682.7115],[-2.9142,39.447,685.8558],[-2.9124,39.4377,683.0131],[-2.9034,39.4262,680.5277],[-2.9013,39.4272,683.2659],[-2.9038,39.4284,681.9962],[-2.9042,39.4342,683.5434],[-2.9018,39.4325,684.6007],[-2.9026,39.4297,684.5451],[-2.8973,39.4301,686.4353],[-2.9,39.425,681.4098],[-2.8932,39.4214,685.3098],[-2.8896,39.4219,683.458],[-2.8858,39.4056,677.4426],[-2.8794,39.3996,671.4901],[-2.8773,39.3954,663.5883],[-2.874,39.3948,664.7243],[-2.8701,39.3911,663.9993],[-2.8705,39.3844,674.0355],[-2.8845,39.3854,671.8801],[-2.8864,39.3843,672.7072],[-2.8873,39.3785,673.8909],[-2.8965,39.3668,671.125],[-2.893,39.3587,670.7855],[-2.8887,39.3574,671.8892],[-2.8862,39.3533,668.528],[-2.8827,39.3525,668.5433],[-2.8823,39.3509,669.9877],[-2.8646,39.3569,672.4958],[-2.8599,39.3486,666.5518],[-2.8608,39.3472,666.5518],[-2.8532,39.3502,665.3833],[-2.8456,39.3493,669.3241],[-2.8281,39.3569,666.6064],[-2.8167,39.3684,668.8331],[-2.8132,39.3755,671.194],[-2.813,39.3824,672.5816],[-2.8101,39.3829,672.2995],[-2.8087,39.3874,673.348],[-2.8018,39.3887,673.8841],[-2.7981,39.3928,675.0336],[-2.7941,39.3943,676.0478],[-2.793,39.3978,676.6589],[-2.7759,39.3948,677.6367],[-2.7763,39.3863,674.0793],[-2.772,39.3696,679.6351],[-2.7625,39.3585,676.7041],[-2.7562,39.3382,675.9565],[-2.7465,39.3224,679.3958],[-2.7422,39.3182,678.4364],[-2.7301,39.3209,678.0935],[-2.7021,39.3218,681.2407],[-2.6917,39.3179,689.2781],[-2.6837,39.3222,682.0406],[-2.6777,39.3207,684.9633],[-2.6651,39.323,683.6613],[-2.6623,39.322,685.7998],[-2.6529,39.3262,685.6102],[-2.6487,39.3252,687.574],[-2.6349,39.3268,692.9742],[-2.6287,39.3342,693.991],[-2.6192,39.3402,691.0424],[-2.5926,39.3392,702.1662],[-2.5851,39.3369,703.0568],[-2.5708,39.3283,709.1128],[-2.5508,39.3235,697.895],[-2.5324,39.3289,707.5316],[-2.5294,39.3276,706.3896],[-2.511,39.3422,706.0427],[-2.4825,39.3147,711.0206],[-2.4673,39.3065,711.6714],[-2.4538,39.2919,711.5552],[-2.4316,39.2771,712.1178],[-2.4184,39.2638,714.9634],[-2.3876,39.2453,713.2952],[-2.374,39.2328,714.1708],[-2.3692,39.2371,713.3989],[-2.3641,39.2452,714.9419],[-2.361,39.2466,713.0344],[-2.3596,39.2514,713.7241],[-2.3612,39.2561,714.6225],[-2.3501,39.2782,722.8809],[-2.3441,39.2822,724.0574],[-2.3291,39.2861,728.5372],[-2.3211,39.2838,728.8118],[-2.3198,39.2782,725.8135],[-2.315,39.2771,725.817],[-2.3018,39.2636,725.2823],[-2.3002,39.2591,724.2256],[-2.3025,39.2519,717.8245],[-2.2974,39.2412,717.0962],[-2.2917,39.2351,713.6802],[-2.2886,39.2267,714.4214],[-2.2453,39.2449,718.4092],[-2.2188,39.2615,731.6671],[-2.208,39.2617,729.9399],[-2.2059,39.2664,728.502],[-2.1818,39.2693,734.9041],[-2.1819,39.2735,735.1351],[-2.1786,39.2783,732.7559]]]]}}