{"type":"Feature","properties":{"GID_3":"ESP.5.1.5_1","GID_0":"ESP","country":"Spain","GID_1":"ESP.5_1","province":"CastillayLeón","NL_NAME_1":"NA","GID_2":"ESP.5.1_1","county":"Ávila","NL_NAME_2":"NA","city":"n.a.(27)","VARNAME_3":"NA","NL_NAME_3":"NA","TYPE_3":"Comarca","ENGTYPE_3":"Comarca","CC_3":"NA","HASC_3":"NA","name":"n.a.(27).city"},
"geometry":{"type": "MultiPolygon","coordinates": [[[[-4.8076,40.4282,918.4927],[-4.8139,40.4265,925.1227],[-4.8178,40.4207,1041.2195],[-4.8286,40.4191,1173.3921],[-4.8269,40.4134,1029.0911],[-4.8168,40.412,1013.975],[-4.8131,40.4042,915.4199],[-4.8096,40.3908,940.3237],[-4.8004,40.3784,904.0124],[-4.8003,40.3729,964.5649],[-4.7971,40.3674,985.8114],[-4.7976,40.3639,1036.343],[-4.8011,40.3606,1060.2567],[-4.7996,40.3574,1107.1375],[-4.7998,40.3475,1264.1926],[-4.8098,40.3374,1402.2275],[-4.8125,40.3317,1571.9124],[-4.8074,40.3303,1778.5994],[-4.804,40.3274,1884.838],[-4.7998,40.3299,1885.4866],[-4.789,40.3324,1785.3757],[-4.7862,40.3368,1802.6582],[-4.7807,40.3407,1780.7925],[-4.7637,40.349,1849.1907],[-4.7534,40.3485,1902.4751],[-4.7337,40.3509,1952.0862],[-4.7275,40.3574,1912.912],[-4.7224,40.3602,1983.282],[-4.7193,40.3591,1943.8344],[-4.712,40.3605,1912.6708],[-4.7087,40.3589,1932.5717],[-4.6957,40.3582,1800.8298],[-4.65,40.3662,1830.574],[-4.6415,40.3651,1848.2102],[-4.6308,40.3666,1926.2703],[-4.6241,40.3648,1932.7706],[-4.6106,40.3546,1740.8579],[-4.6032,40.3527,1708.3915],[-4.5858,40.343,1627.4821],[-4.5778,40.3444,1491.2781],[-4.5735,40.3431,1466.3042],[-4.5499,40.3442,1738.41],[-4.5464,40.3421,1662.4941],[-4.5382,40.3407,1444.6407],[-4.5148,40.3477,1246.3687],[-4.5014,40.3549,1199.2794],[-4.4985,40.3612,1238.6874],[-4.4906,40.3676,1317.6987],[-4.4804,40.3711,1247.1857],[-4.4735,40.3691,1184.0315],[-4.474,40.3624,928.9701],[-4.4717,40.3585,813.2194],[-4.4738,40.3482,750.3172],[-4.4707,40.3428,697.4939],[-4.4663,40.3402,668.5271],[-4.4605,40.3403,667.2566],[-4.4572,40.3447,661.1095],[-4.4496,40.3459,660.6405],[-4.4396,40.3503,652.6147],[-4.4384,40.3544,651.1738],[-4.4405,40.3638,644.5452],[-4.4395,40.3799,652.0739],[-4.4425,40.3857,615.3677],[-4.441,40.3886,610.9091],[-4.4368,40.39,611.2836],[-4.4369,40.3932,596.9719],[-4.432,40.3978,597.0127],[-4.4233,40.4024,580.4312],[-4.4218,40.4064,573.2542],[-4.4173,40.4065,571.0],[-4.4138,40.4106,575.3147],[-4.4006,40.4114,570.5],[-4.3768,40.4074,576.3809],[-4.3656,40.4079,674.0052],[-4.361,40.4117,914.0457],[-4.352,40.4134,1010.7552],[-4.334,40.4089,857.2347],[-4.3287,40.4107,698.5087],[-4.3208,40.4107,602.8544],[-4.3263,40.4136,600.9068],[-4.3241,40.4186,612.806],[-4.3241,40.4244,619.855],[-4.3294,40.4234,605.5579],[-4.334,40.4254,613.4406],[-4.3355,40.4278,614.0542],[-4.3403,40.4291,618.9374],[-4.3394,40.4319,619.1997],[-4.3408,40.438,623.314],[-4.3322,40.4416,652.5823],[-4.3351,40.4433,672.158],[-4.331,40.4447,657.0415],[-4.3326,40.4487,678.7325],[-4.3232,40.4494,662.0435],[-4.3207,40.4515,660.4963],[-4.3217,40.4561,672.1825],[-4.3268,40.4572,720.5065],[-4.3263,40.4602,679.6489],[-4.3186,40.4594,685.7696],[-4.3205,40.4629,703.9378],[-4.3163,40.4654,697.0314],[-4.3192,40.4673,728.1647],[-4.3175,40.4697,718.6643],[-4.3205,40.4706,734.1429],[-4.3233,40.477,747.4547],[-4.3234,40.5016,837.9911],[-4.325,40.5071,869.6396],[-4.3276,40.5075,877.7341],[-4.3231,40.5177,911.2368],[-4.3213,40.5321,986.8341],[-4.3285,40.5348,1011.9481],[-4.3246,40.541,1023.437],[-4.3247,40.5477,1052.49],[-4.3229,40.5511,1064.7346],[-4.3084,40.5588,1216.5486],[-4.2896,40.5644,1041.9583],[-4.2855,40.5823,1088.1487],[-4.2815,40.5896,1101.1233],[-4.2832,40.5953,1123.4269],[-4.279,40.601,1133.9757],[-4.2787,40.6042,1135.7699],[-4.2899,40.6084,1168.4202],[-4.2885,40.626,1279.088],[-4.2899,40.628,1272.105],[-4.2794,40.6305,1415.2552],[-4.2723,40.6291,1262.6527],[-4.2708,40.6227,1240.5015],[-4.262,40.6056,1459.8408],[-4.2556,40.6034,1426.251],[-4.2423,40.6023,1413.6049],[-4.2151,40.6049,1309.4718],[-4.1928,40.6133,1560.8185],[-4.1764,40.6163,1615.8351],[-4.1612,40.6234,1704.158],[-4.1629,40.6257,1710.8467],[-4.1687,40.6259,1725.5103],[-4.173,40.6309,1630.1428],[-4.1706,40.6342,1615.7366],[-4.1718,40.638,1585.9434],[-4.168,40.6433,1518.809],[-4.1679,40.6477,1483.4617],[-4.169,40.6638,1594.6244],[-4.1735,40.6668,1657.0103],[-4.1735,40.6737,1680.9913],[-4.1719,40.6796,1748.4536],[-4.1602,40.6898,1797.3284],[-4.165,40.6932,1649.3514],[-4.1722,40.6925,1451.6223],[-4.1836,40.698,1539.0825],[-4.1875,40.6959,1624.1602],[-4.2154,40.693,1714.3413],[-4.2322,40.6883,1700.043],[-4.2453,40.6899,1734.7773],[-4.2513,40.6884,1712.1339],[-4.2528,40.6895,1687.7139],[-4.2584,40.6859,1647.5885],[-4.2655,40.6851,1590.4771],[-4.2733,40.6813,1548.405],[-4.275,40.6763,1565.0254],[-4.2698,40.6755,1585.1599],[-4.2632,40.6669,1539.5903],[-4.2565,40.6638,1520.1971],[-4.2574,40.6534,1520.0111],[-4.2679,40.6549,1475.9165],[-4.3016,40.6527,1521.3745],[-4.3196,40.6475,1550.8542],[-4.328,40.6473,1477.1997],[-4.3349,40.6395,1478.4614],[-4.3325,40.6371,1447.1591],[-4.3646,40.6375,1587.6633],[-4.3939,40.6332,1584.365],[-4.4072,40.6344,1519.4019],[-4.4484,40.6302,1468.6708],[-4.457,40.6342,1503.5299],[-4.4696,40.6344,1490.5162],[-4.4789,40.6197,1458.2012],[-4.491,40.6193,1476.0292],[-4.5095,40.6215,1457.1536],[-4.5124,40.6231,1469.2471],[-4.5147,40.6223,1463.5851],[-4.5239,40.6117,1395.9514],[-4.5442,40.6081,1367.0215],[-4.5592,40.6105,1312.9862],[-4.5702,40.6091,1319.6787],[-4.5791,40.6024,1345.1312],[-4.5783,40.5974,1348.5994],[-4.5803,40.5929,1379.1749],[-4.5822,40.5931,1384.5696],[-4.5885,40.5879,1378.1907],[-4.6005,40.5828,1369.4373],[-4.6028,40.5739,1327.8547],[-4.6016,40.568,1400.0972],[-4.6164,40.5622,1397.0919],[-4.6292,40.55,1429.9639],[-4.6676,40.5458,1370.6277],[-4.6801,40.5399,1446.7217],[-4.6833,40.5334,1464.3928],[-4.6975,40.5266,1454.0967],[-4.7046,40.5255,1446.6893],[-4.71,40.5361,1357.8456],[-4.7148,40.5362,1423.3848],[-4.7149,40.5388,1387.4386],[-4.718,40.5403,1350.3141],[-4.7227,40.5397,1365.7201],[-4.7243,40.5376,1376.5902],[-4.7217,40.5379,1380.2809],[-4.7206,40.5361,1395.384],[-4.7225,40.5266,1434.1484],[-4.7212,40.5189,1451.5002],[-4.7101,40.5161,1512.7776],[-4.7196,40.5001,1515.0251],[-4.7264,40.4976,1518.4962],[-4.7365,40.4976,1513.8091],[-4.7746,40.4881,1595.9324],[-4.7839,40.4807,1707.3586],[-4.7895,40.4751,1718.8667],[-4.7871,40.4735,1629.0229],[-4.787,40.4692,1409.7245],[-4.7898,40.4686,1403.0321],[-4.7865,40.4639,1211.6199],[-4.7871,40.4561,1090.6844],[-4.7904,40.4519,1055.3392],[-4.79,40.4418,1013.7269],[-4.7848,40.4362,953.6439],[-4.7858,40.4342,944.444],[-4.7824,40.4322,940.7447],[-4.7907,40.4336,910.7152],[-4.7925,40.4316,903.2369],[-4.7962,40.434,940.111],[-4.8078,40.4347,967.6911],[-4.8076,40.4282,918.4927]]]]}}