{"type":"Feature","properties":{"featurecla":"Island group","name":"Balearic Is.","namealt":null,"region":"Europe","subregion":"Mediterranean Sea","min_label":4.0,"max_label":6.0,"scalerank":3},
"geometry":{"type": "Polygon","coordinates": [[[1.7321883472712329,38.483404852337827,0.0],[2.0748397144587329,38.6384341492128,0.0],[2.41126549570879,38.820868231244049,0.0],[2.7545272144587329,38.968573309369134,0.0],[2.8770858082087609,38.996771551556606,0.0],[3.13453209727129,39.040961004681634,0.0],[3.25135338633379,39.081305242962884,0.0],[3.3379012378962609,39.128729559369077,0.0],[3.5070906910212609,39.234320379681577,0.0],[3.597544792583705,39.282477117962827,0.0],[3.7963973316462329,39.3525454773378,0.0],[4.2015486988337614,39.432440496869134,0.0],[4.4004012378962614,39.487372137494134,0.0],[4.5128279957087614,39.5526187195253,0.0],[4.57618248789629,39.643683172650384,0.0],[4.5998641285212054,39.756415106244134,0.0],[4.5922957691462614,39.886664129681606,0.0],[4.5712996753962614,39.985296942181634,0.0],[4.53345787852129,40.088263250775356,0.0],[4.4769393238337329,40.1804263367128,0.0],[4.39966881602129,40.246771551556606,0.0],[4.2782088550837329,40.282171942181634,0.0],[4.1317244800837329,40.287665106244106,0.0],[3.4223738941462329,40.255682684369049,0.0],[3.2105819019587329,40.231634832806549,0.0],[3.000743034771205,40.193304754681549,0.0],[2.5817977222712329,40.084540106244106,0.0],[2.3722029957087329,40.007635809369077,0.0],[2.1883651050837609,39.911810614056577,0.0],[1.8796492847712609,39.672735907025356,0.0],[1.76771080820879,39.599615789837856,0.0],[1.3186141285212609,39.356634832806634,0.0],[1.1245223316462609,39.194464422650327,0.0],[1.0184432300837329,38.984747625775327,0.0],[1.0153914722712329,38.967657782025327,0.0],[1.01087487070879,38.774542547650327,0.0],[1.06409752695879,38.597357489056577,0.0],[1.1816512378962609,38.467962957806606,0.0],[1.3703719410212329,38.417792059369077,0.0],[1.7321883472712329,38.483404852337827,0.0]],
[[4.1307479175837054,40.072272039837884,0.0],[4.1532088550837614,40.058478094525327,33.4816],[4.15113365977129,40.055609442181577,32.1001],[4.14893639414629,40.048285223431577,22.7502],[4.1495467457087329,40.040838934369077,20.433],[4.1562606128962614,40.037420965619106,27.6361],[4.1626082691462329,40.040411688275384,7.7505],[4.1700545582087329,40.047186590619134,0.0],[4.17994225352129,40.058478094525327,0.0],[4.1778670582087329,40.073187567181606,0.0],[4.1845809253962614,40.077215887494106,0.0],[4.1906844410212614,40.071783758587884,0.0],[4.1866561207087329,40.058478094525327,0.0],[4.1926375660212054,40.0513980164003,0.0],[4.2208358082087614,40.037420965619106,0.0],[4.2264510425837614,40.029791571087856,0.0],[4.23096764414629,40.025213934369106,0.0],[4.2413436207087614,40.017523504681634,0.0],[4.2468367847712329,40.015265203900327,0.0],[4.2616072925837329,40.012945867962884,0.0],[4.2686873707087614,40.010077215619106,0.0],[4.2790633472712329,39.998968817181577,0.0],[4.2874861988337614,39.982489324994106,0.0],[4.2863875660212054,39.967901922650356,0.0],[4.2686873707087614,39.962286688275356,0.0],[4.2841903003962054,39.956305242962884,0.0],[4.2999373707087329,39.957220770306606,0.0],[4.3121444019587329,39.954535223431577,0.0],[4.3170272144587329,39.938055731244106,0.0],[4.3214217457087329,39.923102117962856,0.0],[4.3429061207087614,39.896002508587856,0.0],[4.3512069019587614,39.879706121869106,0.0],[4.3443709644587054,39.879706121869106,0.0],[4.34034264414629,39.885992742962856,0.0],[4.3337508472712614,39.891791082806577,0.0],[4.32593834727129,39.896795965619134,0.0],[4.3170272144587329,39.900213934369106,0.0],[4.31421959727129,39.834357000775327,0.0],[4.2620955738337329,39.829107977337827,50.9428],[4.19129479258379,39.855902410931549,77.0169],[4.0291854175837054,39.938299871869049,100.3186],[3.99549401133379,39.948614813275327,89.9382],[3.9553328785212609,39.949286199994077,57.7384],[3.88343346445879,39.938055731244106,10.9382],[3.844737175396205,39.948614813275327,13.1252],[3.8488875660212609,39.960577703900356,16.1853],[3.84986412852129,39.974982000775356,17.0136],[3.8532820972712609,39.9881655945253,25.206],[3.8645125660212329,39.996405340619077,36.1381],[3.8563338550837609,40.001959539837856,27.0734],[3.8361922535212329,40.007696844525384,23.3154],[3.8270369800837329,40.013800360150384,27.0475],[3.8173934253962329,40.025702215619106,46.0042],[3.8171492847712609,40.030707098431549,43.0154],[3.82117760508379,40.035834051556634,53.7701],[3.8236190113337609,40.047919012494106,30.1339],[3.83594811289629,40.060248114056634,0.0],[3.9055281910212609,40.072149969525356,0.0],[3.9295760425837609,40.064520574994106,0.0],[4.02601158945879,40.072149969525356,0.0],[4.06617272227129,40.070807196087856,0.0],[4.0774031910212614,40.072149969525356,0.0],[4.0916854175837614,40.076849676556634,2.3523],[4.10840905039629,40.087347723431549,0.0],[4.1191512378962614,40.091986395306606,0.0],[4.1218367847712614,40.0802066101503,0.0],[4.1307479175837054,40.072272039837884,0.0]],
[[3.1793319019588751,39.9759585632753,0.0],[3.1930037769588182,39.962286688275356,0.0],[3.1982528003962329,39.966437078900412,0.0],[3.20118248789629,39.967718817181606,0.0],[3.213999870708903,39.962286688275356,0.0],[3.2035018238338182,39.9563052429628,187.1859],[3.1683455738337609,39.943609930462969,75.2233],[3.15540612070879,39.941168524212912,65.9966],[3.14063561289629,39.935370184369077,40.5154],[3.1273299488337609,39.923895574994049,28.1565],[3.11536705820879,39.915961004681719,142.4899],[3.104136589458903,39.920660711712912,77.6641],[3.0966903003963182,39.920660711712912,178.0677],[3.0946151050838471,39.888434149212912,0.0],[3.130137566021205,39.88361237186902,0.0],[3.2065535816463182,39.90021393436902,0.0],[3.2065535816463182,39.893988348431606,0.0],[3.1966658863338471,39.888434149212912,59.882],[3.1954451832087609,39.8817202820253,0.0],[3.1962996753963471,39.874335028119077,0.0],[3.1930037769588182,39.866705633587827,0.0],[3.1870223316462329,39.861517645306549,54.7217],[3.1814070972713471,39.858526922650356,94.3839],[3.16504967539629,39.85309479374402,203.7195],[3.1334334644587609,39.846747137494162,7.375],[3.12623131602129,39.8389956726503,3.7339],[3.1247664722713471,39.818304754681719,0.0],[3.1363631519588182,39.795965887494106,0.0],[3.1624861988338182,39.776312567181606,0.0],[3.1945906910213751,39.762152410931549,0.0],[3.2237654957088471,39.756842352337827,0.0],[3.2922469410213751,39.756842352337827,0.0],[3.30970299570879,39.762274481243992,0.0],[3.3400985035213471,39.786139227337856,39.3523],[3.354380730083903,39.791571356244106,0.0],[3.383067253521205,39.785101629681606,0.0],[3.43970787852129,39.759100653119049,0.0],[3.47413170664629,39.756842352337827,0.0],[3.4682723316463471,39.746466375775356,0.0],[3.4692488941463751,39.738226629681662,0.0],[3.4725447925837329,39.730780340619162,0.0],[3.47413170664629,39.722723699994106,0.0],[3.4704695972712609,39.717474676556606,34.5829],[3.464244011333903,39.713568426556606,15.4582],[3.4613143238337609,39.707220770306549,4.1235],[3.4674178394587609,39.694769598431606,0.0],[3.4537459644588182,39.666815496869077,74.8245],[3.443125847271205,39.652899481244106,0.0],[3.42969811289629,39.646979071087827,112.8237],[3.4128524097712329,39.642218328900356,44.358],[3.401744011333705,39.630377508587827,0.0],[3.3985701832088471,39.61487457890027,0.0],[3.4058944019588471,39.599188543744162,0.0],[3.3652449878963182,39.570257879681549,6.3336],[3.3231307300838471,39.531073309369134,32.9102],[3.291514519146205,39.482977606244106,0.0],[3.282359245708705,39.427252508587827,0.0],[3.2725936207088471,39.431891180462884,15.3865],[3.2686873707087609,39.434698797650356,25.2616],[3.2524520191462609,39.393377996869162,0.0],[3.2209578785212329,39.367071844525242,22.7582],[3.1291610035213471,39.322943426556606,39.8943],[3.0908309253963751,39.297247625775412,55.2329],[3.0831404957088182,39.287298895306719,42.9547],[3.0789901050838471,39.284002996869077,56.2556],[3.0698348316463471,39.278876043744106,56.6428],[3.0606795582088471,39.276190496869077,32.6235],[3.05640709727129,39.2801577820253,20.1494],[3.0291854175838182,39.311835028119162,14.2924],[3.0227156910213471,39.315375067181662,11.0614],[3.0070906910213471,39.320929266400356,1.1039],[3.0012313160212329,39.324835516400356,2.3166],[2.9965926441463471,39.334173895306577,10.9405],[2.9943953785212609,39.345160223431606,5.5989],[2.991221550396403,39.354498602337856,8.3312],[2.98414147227129,39.358343817181549,11.008],[2.9743758472713471,39.360602117962856,14.2264],[2.95875084727129,39.3703677429628,10.4163],[2.9499617847713471,39.372626043744106,15.6914],[2.9379988941463182,39.371527410931549,15.4223],[2.92212975352129,39.366888739056492,7.6954],[2.9124861988338471,39.365790106244049,8.6354],[2.8252059253962609,39.370794989056577,50.1112],[2.7865096363337609,39.38312409061902,107.2246],[2.7616072925838471,39.407416082806577,112.4127],[2.7509871753962329,39.461981512494106,93.9863],[2.736460808208705,39.469305731243992,84.0174],[2.7393904957088471,39.485419012494077,19.3171],[2.754771355083705,39.50977203983777,10.1368],[2.74341881602129,39.530585028119049,1.4785],[2.7149764332088471,39.550665594525356,1.6275],[2.6814070972713471,39.565863348431549,7.5841],[2.6551619800838471,39.571844793744106,32.878],[2.6333113941462329,39.566351629681634,0.0],[2.5688582691462609,39.538641668744077,42.2398],[2.55555260508379,39.527167059369049,0.0],[2.54468834727129,39.500189520306662,0.0],[2.5200301441462609,39.480047918744049,54.4445],[2.4925643238337609,39.477362371869049,137.98],[2.473643425396205,39.502997137494106,58.6314],[2.4715682300837329,39.505072332806577,46.4381],[2.4688826832087329,39.513006903119106,4.6292],[2.4719344410212329,39.519354559369162,10.7961],[2.4804793628963751,39.52350494999402,59.8362],[2.4537459644588471,39.544562078900356,41.6782],[2.44568932383379,39.536017157025469,27.5854],[2.4379988941462329,39.532416082806662,12.1782],[2.4310408863338182,39.534918524212742,62.4384],[2.4257918628962329,39.544562078900356,26.5422],[2.39820397227129,39.532171942181606,162.2216],[2.391612175396205,39.53095123905652,53.8546],[2.38196862070879,39.536383367962856,125.9761],[2.3735457691462609,39.554388739056606,164.261],[2.35547936289629,39.565863348431549,114.4996],[2.350596550396205,39.5836245789003,15.8854],[2.351573112896205,39.603888250775356,0.0],[2.35755455820879,39.619024969525412,0.0],[2.4292098316462329,39.6538150085878,0.0],[2.4502059253962329,39.657538153119162,0.0],[2.4681502613337609,39.666510321087912,0.0],[2.5174666675838471,39.707281805462856,0.0],[2.5322371753962609,39.713568426556606,0.0],[2.5521346363338182,39.715887762494134,0.0],[2.5695906910212329,39.720282293744134,0.0],[2.58643639414629,39.73102448124402,0.0],[2.6175643238338182,39.756842352337827,0.0],[2.62183678477129,39.761603094525327,0.0],[2.6289168628962329,39.773993231244162,0.0],[2.6312361988337609,39.777289129681719,0.0],[2.635752800396205,39.77814362186902,0.0],[2.6472274097712329,39.776434637494049,0.0],[2.6517440113338471,39.777289129681719,0.0],[2.67591393320879,39.796210028119162,4.2258],[2.6790877613337329,39.80121491093152,0.0],[2.6834822925837329,39.8033511414003,0.0],[2.70374596445879,39.821356512494219,0.0],[2.710459831646403,39.825751043744134,0.0],[2.717784050396205,39.827276922650384,0.0],[2.747325066021205,39.838751532025412,0.0],[2.7616072925838471,39.847723699993992,0.0],[2.773081901958705,39.856756903119049,0.0],[2.7846785816463471,39.863836981244077,0.0],[2.7994490894587329,39.866705633587827,0.0],[2.8029891285213471,39.868719793744106,0.0],[2.8094588550838182,39.877752996869162,0.0],[2.8131209644588751,39.879706121869106,0.0],[2.8338729175838182,39.878363348431606,0.0],[2.8435164722712609,39.879706121869106,0.0],[2.8728133472713471,39.890692449994049,0.0],[2.9329940113337609,39.921698309369134,0.0],[2.9638778003962609,39.928168035931719,0.0],[3.0201522144588471,39.932318426556577,0.0],[3.0755721363338751,39.943304754681606,0.0],[3.1793319019588751,39.9759585632753,0.0]],
[[1.5860701832087329,39.119391180462827,0.0],[1.5974227222712329,39.117254949994134,0.0],[1.60560143320879,39.112555242962856,0.0],[1.6136580738337609,39.105719305462884,0.0],[1.6084090503962329,39.096869207806549,0.0],[1.6146346363337609,39.076849676556577,0.0],[1.6306258472712329,39.043646551556549,0.0],[1.6141463550837609,39.042792059369049,0.0],[1.6009627613337329,39.034735418744106,31.4],[1.5922957691462609,39.021857000775356,19.9167],[1.5891219410212329,39.006415106244106,0.0],[1.5838729175837329,39.0002505554628,0.0],[1.54883873789629,38.982245184369077,0.0],[1.5173445972712609,38.944647528119134,0.0],[1.50489342539629,38.936285711712827,53.8604],[1.4771834644587329,38.924689032025356,101.0586],[1.4661971363337329,38.914557196087827,31.9613],[1.462657097271205,38.918524481244049,15.3686],[1.45606530039629,38.923285223431634,26.5676],[1.4526473316462329,38.927618719525327,9.6953],[1.4362899097712609,38.911078192181634,0.0],[1.4226180347712329,38.892645574994106,0.0],[1.4118758472712609,38.8712222351503,0.0],[1.4040633472712609,38.845709539837856,0.0],[1.38672936289629,38.852301336712856,-2.1913],[1.36841881602129,38.866339422650384,1.2954],[1.3512069019587609,38.876776434369077,15.5567],[1.33655846445879,38.872381903119077,99.5723],[1.3297225269587329,38.872381903119077,24.4202],[1.3263045582087329,38.873602606244049,26.5144],[1.325327995708705,38.8742739929628,32.3089],[1.3154403003962329,38.872381903119077,16.6178],[1.307871941021205,38.884894110150327,42.5731],[1.2910262378962329,38.889044500775384,101.7241],[1.274302605083705,38.884833074994106,112.9554],[1.2675887378962609,38.872381903119077,0.0],[1.2357283863337609,38.889105535931606,86.6141],[1.2242537769587329,38.8995425476503,62.3676],[1.2198592457087329,38.917669989056549,7.9734],[1.23194420664629,38.941839910931606,7.5079],[1.2351180347712329,38.956488348431549,68.3314],[1.2260848316462609,38.968573309369134,3.3414],[1.2343856128962609,38.974615789837827,0.0],[1.2443953785212609,38.979620672650356,0.0],[1.25586998789629,38.980841375775327,0.0],[1.2675887378962609,38.975409246869106,0.0],[1.2747908863337329,38.980536199994077,0.0],[1.2845565113337609,38.9824282898378,0.0],[1.3084822925837609,38.982245184369077,2.9825],[1.2998153003962609,39.0242984070253,143.6688],[1.30042565195879,39.047674871869077,0.0],[1.3120223316462609,39.057928778119106,0.0],[1.32520592539629,39.062079168744077,0.0],[1.34009850352129,39.071722723431577,0.0],[1.36451256602129,39.092108465619077,0.0],[1.37061608164629,39.092108465619077,0.0],[1.3798934253962329,39.085882879681634,0.0],[1.3996688160212609,39.097784735150356,0.0],[1.4108992847712329,39.092108465619077,0.0],[1.4309188160212329,39.104986883587827,0.0],[1.458262566021205,39.116278387494106,0.0],[1.4863387378962329,39.122137762494049,0.0],[1.5072127613337329,39.119391180462827,0.0],[1.5163680347712329,39.128851629681577,0.0],[1.5304061207087609,39.133307196087827,0.0],[1.5448104175837609,39.132513739056634,0.0],[1.5612899097712329,39.122137762494049,0.0],[1.5680037769587609,39.120306707806634,0.0],[1.5860701832087329,39.119391180462827,0.0]]]}}