{"type":"Feature","properties":{"featurecla":"Island","name":"Menorca","namealt":null,"region":"Europe","subregion":null,"min_label":5.4,"max_label":10.0,"scalerank":5},
"geometry":{"type": "Polygon","coordinates": [[[4.1307479175837054,40.072272039837884,0.0],[4.1218367847712614,40.0802066101503,0.0],[4.1191512378962614,40.091986395306606,0.0],[4.10840905039629,40.087347723431549,0.0],[4.0916854175837614,40.076849676556634,2.3523],[4.0774031910212614,40.072149969525356,0.0],[4.06617272227129,40.070807196087856,0.0],[4.02601158945879,40.072149969525356,0.0],[3.9295760425837609,40.064520574994106,0.0],[3.9055281910212609,40.072149969525356,0.0],[3.83594811289629,40.060248114056634,0.0],[3.8236190113337609,40.047919012494106,30.1339],[3.82117760508379,40.035834051556634,53.7701],[3.8171492847712609,40.030707098431549,43.0154],[3.8173934253962329,40.025702215619106,46.0042],[3.8270369800837329,40.013800360150384,27.0475],[3.8361922535212329,40.007696844525384,23.3154],[3.8563338550837609,40.001959539837856,27.0734],[3.8645125660212329,39.996405340619077,36.1381],[3.8532820972712609,39.9881655945253,25.206],[3.84986412852129,39.974982000775356,17.0136],[3.8488875660212609,39.960577703900356,16.1853],[3.844737175396205,39.948614813275327,13.1252],[3.88343346445879,39.938055731244106,10.9382],[3.9553328785212609,39.949286199994077,57.7384],[3.99549401133379,39.948614813275327,89.9382],[4.0291854175837054,39.938299871869049,100.3186],[4.19129479258379,39.855902410931549,77.0169],[4.2620955738337329,39.829107977337827,50.9428],[4.31421959727129,39.834357000775327,0.0],[4.3170272144587329,39.900213934369106,0.0],[4.32593834727129,39.896795965619134,0.0],[4.3337508472712614,39.891791082806577,0.0],[4.34034264414629,39.885992742962856,0.0],[4.3443709644587054,39.879706121869106,0.0],[4.3512069019587614,39.879706121869106,0.0],[4.3429061207087614,39.896002508587856,0.0],[4.3214217457087329,39.923102117962856,0.0],[4.3170272144587329,39.938055731244106,0.0],[4.3121444019587329,39.954535223431577,0.0],[4.2999373707087329,39.957220770306606,0.0],[4.2841903003962054,39.956305242962884,0.0],[4.2686873707087614,39.962286688275356,0.0],[4.2863875660212054,39.967901922650356,0.0],[4.2874861988337614,39.982489324994106,0.0],[4.2790633472712329,39.998968817181577,0.0],[4.2686873707087614,40.010077215619106,0.0],[4.2616072925837329,40.012945867962884,0.0],[4.2468367847712329,40.015265203900327,0.0],[4.2413436207087614,40.017523504681634,0.0],[4.23096764414629,40.025213934369106,0.0],[4.2264510425837614,40.029791571087856,0.0],[4.2208358082087614,40.037420965619106,0.0],[4.1926375660212054,40.0513980164003,0.0],[4.1866561207087329,40.058478094525327,0.0],[4.1906844410212614,40.071783758587884,0.0],[4.1845809253962614,40.077215887494106,0.0],[4.1778670582087329,40.073187567181606,0.0],[4.17994225352129,40.058478094525327,0.0],[4.1700545582087329,40.047186590619134,0.0],[4.1626082691462329,40.040411688275384,7.7505],[4.1562606128962614,40.037420965619106,27.6361],[4.1495467457087329,40.040838934369077,20.433],[4.14893639414629,40.048285223431577,22.7502],[4.15113365977129,40.055609442181577,32.1001],[4.1532088550837614,40.058478094525327,33.4816],[4.1307479175837054,40.072272039837884,0.0]]]}}