{"type":"Feature","properties":{"GID_3":"ESP.1.3.7_1","GID_0":"ESP","country":"Spain","GID_1":"ESP.1_1","province":"Andalucía","NL_NAME_1":"NA","GID_2":"ESP.1.3_1","county":"Córdoba","NL_NAME_2":"NA","city":"n.a.(91)","VARNAME_3":"NA","NL_NAME_3":"NA","TYPE_3":"Comarca","ENGTYPE_3":"Comarca","CC_3":"NA","HASC_3":"NA","name":"n.a.(91).city"},
"geometry":{"type": "MultiPolygon","coordinates": [[[[-4.6048,37.2381,369.4586],[-4.5964,37.2257,391.8505],[-4.5961,37.2215,396.204],[-4.6015,37.219,420.3056],[-4.6041,37.2151,421.7424],[-4.6022,37.2093,435.6602],[-4.5848,37.2112,459.6298],[-4.5761,37.2092,441.2849],[-4.5701,37.2111,446.345],[-4.5703,37.2161,470.5885],[-4.561,37.2193,494.3595],[-4.553,37.217,486.8494],[-4.5446,37.2174,490.3824],[-4.5396,37.2152,482.1311],[-4.5393,37.2113,468.9349],[-4.5336,37.2121,483.405],[-4.5088,37.2219,428.2348],[-4.4992,37.2304,375.076],[-4.4993,37.2235,436.7967],[-4.4916,37.2276,363.7367],[-4.4893,37.2311,322.6962],[-4.491,37.2386,306.9499],[-4.4856,37.237,311.3323],[-4.4807,37.2383,309.1478],[-4.48,37.2433,305.7395],[-4.4773,37.2457,306.3663],[-4.4831,37.2483,348.7071],[-4.4856,37.252,349.7813],[-4.4769,37.2574,334.1082],[-4.4716,37.2516,312.7318],[-4.4668,37.2511,308.2576],[-4.4615,37.2548,316.597],[-4.4656,37.2545,319.0484],[-4.4677,37.2579,355.1693],[-4.4607,37.2594,316.4368],[-4.458,37.258,341.8829],[-4.456,37.2593,342.9804],[-4.4566,37.2619,313.9515],[-4.4509,37.2708,321.6873],[-4.4469,37.2735,320.3139],[-4.4467,37.2764,317.8503],[-4.4396,37.2783,319.9569],[-4.435,37.2768,335.015],[-4.4334,37.274,317.0925],[-4.4266,37.2762,317.6466],[-4.4246,37.2794,321.9395],[-4.4178,37.2824,333.0867],[-4.4148,37.2875,409.1359],[-4.4205,37.2979,575.5874],[-4.417,37.3196,416.8907],[-4.4173,37.3288,404.882],[-4.4208,37.3544,506.817],[-4.4282,37.374,661.3239],[-4.4211,37.3874,690.1282],[-4.4187,37.4071,607.2502],[-4.4217,37.4113,596.9231],[-4.4165,37.4149,637.9613],[-4.4073,37.4169,719.1947],[-4.3924,37.4164,744.4109],[-4.3707,37.4075,733.0833],[-4.3654,37.41,814.4896],[-4.3409,37.4112,766.8707],[-4.3477,37.4209,820.1771],[-4.353,37.4457,908.3481],[-4.3536,37.4577,1012.1979],[-4.351,37.4646,764.0181],[-4.3543,37.4834,1106.3657],[-4.3496,37.4912,1064.9813],[-4.3546,37.4915,1086.3947],[-4.3632,37.5032,1064.0332],[-4.3772,37.5147,1100.9293],[-4.3807,37.5213,1137.8115],[-4.3681,37.5292,1113.1975],[-4.3584,37.5323,1057.8523],[-4.3534,37.537,958.7274],[-4.3504,37.5502,681.482],[-4.3458,37.5546,753.7385],[-4.3493,37.5624,742.7691],[-4.3427,37.5668,661.5272],[-4.3103,37.574,470.6099],[-4.2995,37.5816,475.1271],[-4.2972,37.5878,436.9179],[-4.2932,37.5924,471.3561],[-4.2639,37.6045,588.2165],[-4.2573,37.6054,592.7511],[-4.2508,37.6095,576.1448],[-4.2482,37.6157,503.0293],[-4.2356,37.6196,479.1805],[-4.2244,37.6264,387.311],[-4.2181,37.6266,356.0],[-4.2206,37.63,356.0],[-4.2239,37.631,356.0],[-4.2255,37.6381,356.0],[-4.228,37.6396,316.9367],[-4.2147,37.6468,416.2534],[-4.1875,37.6701,438.7731],[-4.1753,37.6774,430.811],[-4.1642,37.6815,435.6315],[-4.1795,37.6987,424.3509],[-4.1834,37.7071,487.882],[-4.1889,37.7065,488.4023],[-4.1935,37.7089,478.7184],[-4.1977,37.7083,496.7633],[-4.2293,37.7185,341.7146],[-4.2384,37.7198,291.4262],[-4.2395,37.7265,284.1564],[-4.2244,37.7618,357.2098],[-4.219,37.7641,368.3275],[-4.2179,37.7668,369.2374],[-4.2078,37.7697,414.7292],[-4.2065,37.7788,319.1534],[-4.2115,37.7828,289.6315],[-4.2444,37.7896,263.4791],[-4.2589,37.7887,263.2036],[-4.2866,37.7966,378.1381],[-4.2875,37.8015,390.0067],[-4.284,37.8122,359.0045],[-4.2859,37.8141,349.582],[-4.2844,37.8185,284.2538],[-4.3011,37.8201,274.8111],[-4.3185,37.8114,292.7245],[-4.3369,37.7968,330.0498],[-4.346,37.7916,305.0451],[-4.351,37.7849,319.696],[-4.3587,37.7856,339.283],[-4.3593,37.782,345.8019],[-4.3642,37.7785,358.1776],[-4.374,37.766,435.9667],[-4.3834,37.7661,539.3782],[-4.383,37.7614,547.8037],[-4.3769,37.7578,530.363],[-4.3762,37.7453,455.9382],[-4.3834,37.7327,321.4906],[-4.3873,37.7297,264.2497],[-4.3887,37.7183,377.9328],[-4.3925,37.7115,444.3522],[-4.3945,37.7123,426.8959],[-4.3977,37.706,396.4869],[-4.3956,37.7046,379.7245],[-4.3975,37.6993,408.9406],[-4.3961,37.6949,368.7546],[-4.39,37.6953,330.0115],[-4.3928,37.6894,303.6987],[-4.3973,37.6896,333.2449],[-4.4117,37.6696,249.243],[-4.4217,37.6595,304.3549],[-4.4447,37.6452,448.7744],[-4.4528,37.6327,506.2194],[-4.472,37.6197,517.0822],[-4.4831,37.6159,487.5521],[-4.5081,37.5977,460.1919],[-4.5111,37.5925,482.6913],[-4.5129,37.5827,645.5808],[-4.502,37.5727,748.0266],[-4.503,37.5692,791.9584],[-4.5076,37.5649,684.8186],[-4.5083,37.5594,628.9827],[-4.5183,37.5465,494.1887],[-4.5261,37.5465,485.417],[-4.5297,37.5537,577.8051],[-4.5342,37.5501,538.7849],[-4.5375,37.5414,468.2076],[-4.546,37.5301,403.5464],[-4.5571,37.5203,365.4698],[-4.5601,37.5118,372.0854],[-4.5593,37.5001,359.0597],[-4.5638,37.4821,332.4437],[-4.5623,37.4738,312.9022],[-4.5684,37.4716,309.6163],[-4.5609,37.472,317.0867],[-4.5568,37.4665,319.9812],[-4.5516,37.4661,322.3409],[-4.5482,37.4639,335.9262],[-4.5497,37.4562,378.0407],[-4.5561,37.4441,418.6491],[-4.5673,37.4418,459.9362],[-4.5928,37.4325,366.8145],[-4.6055,37.4335,367.0942],[-4.6133,37.4299,392.9627],[-4.6243,37.4169,342.9358],[-4.6374,37.3869,299.5686],[-4.6423,37.3573,228.4542],[-4.66,37.3297,282.048],[-4.6639,37.3254,241.1385],[-4.6679,37.3236,223.7931],[-4.6694,37.319,217.0462],[-4.6813,37.3234,216.6762],[-4.6797,37.3172,217.35],[-4.6839,37.3158,216.9297],[-4.6792,37.3088,223.0515],[-4.6704,37.3102,222.7595],[-4.6585,37.3047,220.5656],[-4.6657,37.2987,222.0127],[-4.6605,37.2945,223.3831],[-4.6641,37.2943,225.7014],[-4.6747,37.3018,227.4604],[-4.6784,37.2971,255.3747],[-4.6759,37.2909,242.394],[-4.6808,37.2904,254.0428],[-4.68,37.2891,238.9047],[-4.6683,37.2858,247.7992],[-4.6662,37.2873,273.2572],[-4.6617,37.2831,315.7222],[-4.6539,37.2719,316.0828],[-4.655,37.2616,289.0016],[-4.6532,37.2559,259.0721],[-4.6452,37.2469,276.4532],[-4.6301,37.2545,268.2654],[-4.6218,37.254,259.3523],[-4.6169,37.2562,252.91],[-4.6136,37.2551,325.9116],[-4.6142,37.2432,370.394],[-4.61,37.2394,363.6958],[-4.6048,37.2381,369.4586]]]]}}