{"type": "Feature","bbox": [-1.0671,39.4687,-0.3672,39.796],"geometry": {"type": "MultiPolygon","coordinates": [[[[-0.5962,39.5,153.659],[-0.5887,39.4889,118.4616],[-0.5912,39.4784,116.4163],[-0.5835,39.4724,111.7047],[-0.5616,39.4687,96.0952],[-0.5615,39.4707,98.4058],[-0.5292,39.4708,80.9088],[-0.5262,39.4809,78.6341],[-0.5295,39.5072,104.9562],[-0.525,39.5137,114.347],[-0.515,39.5227,64.2759],[-0.5152,39.525,59.7307],[-0.5184,39.5266,60.8282],[-0.5167,39.5397,92.8514],[-0.5015,39.5608,117.0138],[-0.5124,39.5627,115.202],[-0.5097,39.569,117.947],[-0.5215,39.5761,106.2512],[-0.5167,39.5851,118.1517],[-0.5099,39.5856,127.8547],[-0.5076,39.5786,156.1703],[-0.5003,39.5727,127.4188],[-0.4957,39.5747,124.3428],[-0.4899,39.5698,120.9372],[-0.4865,39.5693,129.7947],[-0.482,39.571,129.3892],[-0.4808,39.5701,137.3041],[-0.4819,39.5651,127.1757],[-0.4755,39.5606,136.1049],[-0.4685,39.5589,130.3155],[-0.4622,39.5527,126.7073],[-0.4499,39.5457,124.1516],[-0.4387,39.557,84.1506],[-0.4395,39.5597,83.7645],[-0.4269,39.5623,81.9152],[-0.4209,39.5602,83.0871],[-0.4139,39.5671,65.7889],[-0.4021,39.586,59.629],[-0.3957,39.5925,66.1835],[-0.3798,39.5994,64.9354],[-0.3678,39.6001,81.550299999999993],[-0.3672,39.605,60.2353],[-0.3691,39.6055,63.162],[-0.3907,39.6427,190.5639],[-0.3931,39.6649,394.5641],[-0.399,39.6741,373.4495],[-0.3892,39.6908,542.5424],[-0.3994,39.7023,465.5711],[-0.4083,39.7186,302.8733],[-0.4269,39.717,424.7963],[-0.445,39.7189,647.4457],[-0.4483,39.7164,683.3882],[-0.4561,39.7147,754.0795],[-0.4609,39.7154,809.3195],[-0.4636,39.7206,729.2119],[-0.4751,39.7319,648.7911],[-0.4826,39.7342,792.1074],[-0.4899,39.7418,758.2273],[-0.4982,39.7476,837.4398],[-0.5058,39.7595,805.9311],[-0.5085,39.7708,749.9575],[-0.5132,39.7755,762.834],[-0.5137,39.7789,826.2666],[-0.5208,39.7845,703.225],[-0.5305,39.796,724.6956],[-0.5483,39.7958,811.184],[-0.5585,39.7906,728.1759],[-0.577,39.7732,787.161],[-0.5771,39.768,793.6954],[-0.5882,39.7417,434.4796],[-0.631,39.7464,477.0498],[-0.6523,39.7541,595.1793],[-0.6694,39.7626,673.2348],[-0.6985,39.7717,758.5414],[-0.7003,39.7752,752.7515],[-0.733,39.7821,821.4858],[-0.7414,39.7804,762.2977],[-0.7681,39.7613,573.3355],[-0.7871,39.7423,578.367],[-0.7945,39.7393,505.1271],[-0.7962,39.7289,481.7938],[-0.7932,39.7204,449.434],[-0.7893,39.6982,421.494],[-0.7876,39.6606,364.915],[-0.7529,39.6588,346.7903],[-0.7294,39.6555,265.7791],[-0.7295,39.6534,248.7274],[-0.7247,39.6547,262.2344],[-0.7062,39.652,324.7551],[-0.6828,39.6289,217.5381],[-0.6775,39.6219,157.0381],[-0.6835,39.6207,162.6499],[-0.6861,39.6165,170.7225],[-0.6856,39.6067,129.7059],[-0.691,39.6068,127.1784],[-0.6905,39.6022,131.931],[-0.6931,39.6019,140.8055],[-0.6948,39.5998,164.0337],[-0.6974,39.5863,205.4391],[-0.6999,39.5817,196.7239],[-0.7059,39.5748,206.8216],[-0.7182,39.5656,228.9712],[-0.7178,39.5603,226.3126],[-0.7212,39.5528,240.7727],[-0.718,39.5454,272.1067],[-0.6915,39.5338,246.4827],[-0.6592,39.5259,228.7181],[-0.6379,39.5248,192.9634],[-0.6063,39.5178,209.3123],[-0.6066,39.5132,158.3096],[-0.5962,39.5,153.659]]],
[[[-1.0175,39.6378,1032.0206],[-1.0237,39.6403,1017.376],[-1.0298,39.6466,1011.675],[-1.0406,39.6506,983.7412],[-1.0487,39.6393,912.7115],[-1.0516,39.6391,906.6757],[-1.0628,39.6308,876.3077],[-1.0635,39.6284,855.3412],[-1.0609,39.6225,839.6444],[-1.0671,39.6135,925.6382],[-1.0569,39.6095,859.247],[-1.0335,39.5936,981.6234],[-1.0175,39.5867,1118.5529],[-1.0143,39.5837,1149.6375],[-1.0046,39.6023,1052.3684],[-0.9916,39.6158,1117.2444],[-0.989,39.6208,1066.0349],[-0.9639,39.6301,696.4951],[-0.9469,39.641,649.1564],[-0.9148,39.6489,463.6945],[-0.9116,39.6745,393.4704],[-0.9042,39.6834,374.6588],[-0.8906,39.6955,452.3381],[-0.8948,39.6953,436.8709],[-0.9029,39.6988,399.811],[-0.9239,39.6985,359.8499],[-0.9278,39.695,330.5923],[-0.9406,39.6921,490.028],[-0.9459,39.6887,526.7458],[-0.953,39.6877,720.1918],[-0.9571,39.6808,720.7203],[-0.9627,39.6758,774.2708],[-0.9777,39.6705,721.1865],[-0.9829,39.6669,678.3135],[-1.0022,39.6444,854.4466],[-1.0057,39.6369,1050.3492],[-1.0103,39.632,1048.1028],[-1.0175,39.6378,1032.0206]]]]}
,"properties": {"GID_3": "ESP.10.3.2_1","GID_0": "ESP","country": "Spain","GID_1": "ESP.10_1","province": "ComunidadValenciana","NL_NAME_1": "NA","GID_2": "ESP.10.3_1","county": "Valencia","NL_NAME_2": "NA","city": "CampdeTúria","VARNAME_3": "NA","NL_NAME_3": "NA","TYPE_3": "Comarca","ENGTYPE_3": "Comarca","CC_3": "NA","HASC_3": "NA","name": "Campde_Túria.city","area_km2": 817.2997,"hist_schema_id": "Elevation0-9000","hist_area_km2": {"50": 1.8466,"75": 32.6903,"100": 76.5576,"125": 81.9457,"150": 62.7989,"175": 67.2318,"200": 59.1999,"225": 43.052,"250": 31.5469,"275": 29.8271,"300": 25.9407,"325": 23.8834,"350": 21.0758,"375": 19.9981,"400": 21.155,"425": 21.6435,"450": 19.115,"475": 17.4016,"500": 14.987,"525": 14.2361,"550": 13.1108,"575": 12.7845,"600": 10.7134,"625": 9.8167,"650": 10.485,"675": 8.6256,"700": 8.4458,"725": 7.9889,"750": 7.3703,"775": 6.1149,"800": 3.0822,"825": 1.9254,"850": 1.551,"875": 1.5676,"900": 2.7929,"925": 3.1357,"950": 2.8906,"975": 3.005,"1000": 3.4786,"1025": 3.3643,"1050": 4.0014,"1075": 3.2665,"1100": 1.421,"1125": 0.196,"1150": 0.0163,"1175": 0.0163}}}