{"type":"Feature","properties":{"ISO3166-1-Alpha-3":"ESP","country":"Spain","fill":"#F00","id":"5853","name":"Zaragoza"},
"geometry":{"type": "Polygon","coordinates": [[[-0.90475,42.24962,626.5569],[-0.91598,42.25415,732.6547],[-0.92286,42.26231,625.0344],[-0.92248,42.27164,590.317],[-0.83891,42.36871,794.0958],[-0.83469,42.38068,882.9016],[-0.83498,42.38793,970.9189],[-0.84227,42.40748,1318.1827],[-0.89819,42.43261,1312.1064],[-0.90129,42.43598,1260.0029],[-0.901,42.43999,1142.4529],[-0.88985,42.45842,1001.4266],[-0.88838,42.46504,970.426],[-0.88883,42.47183,988.123],[-0.89676,42.49427,992.1663],[-0.90483,42.6131,540.5765],[-0.92467,42.64644,703.3322],[-0.92469,42.65145,739.7887],[-0.92216,42.6558,735.0836],[-0.91696,42.65954,774.3242],[-0.89452,42.66465,685.3853],[-0.88455,42.6691,757.2609],[-0.87982,42.67912,897.0074],[-0.88299,42.68883,849.7495],[-0.9092,42.70685,877.473],[-0.91131,42.71527,909.2634],[-0.90436,42.74256,1238.0686],[-0.92498,42.73558,956.7183],[-0.95175,42.7167,1016.36],[-0.96451,42.71029,1046.3333],[-0.97712,42.70571,997.3436],[-1.02463,42.69613,934.0181],[-1.03166,42.69011,1124.7739],[-1.03438,42.68308,880.0529],[-1.0337,42.67626,683.9892],[-1.035,42.66918,809.3468],[-1.04027,42.65585,966.8383],[-1.04445,42.64996,1112.2361],[-1.05549,42.64536,1102.678],[-1.07567,42.64536,1262.2296],[-1.08523,42.64701,1281.6472],[-1.14502,42.64138,885.4058],[-1.15166,42.63592,705.4299],[-1.15429,42.62934,618.9901],[-1.15452,42.6236,569.1024],[-1.15553,42.61864,504.5605],[-1.16553,42.61505,480.0],[-1.17233,42.61347,480.0],[-1.16892,42.61109,499.9057],[-1.15328,42.60544,480.0],[-1.15478,42.60179,630.3817],[-1.16054,42.59608,838.2288],[-1.18496,42.58456,513.0828],[-1.19576,42.57533,507.3333],[-1.20305,42.5666,483.8919],[-1.20535,42.5581,459.0282],[-1.21201,42.55389,449.1198],[-1.21966,42.55063,448.9141],[-1.22803,42.54939,451.4817],[-1.24604,42.55337,420.959],[-1.25741,42.55322,423.6394],[-1.26501,42.54846,435.7391],[-1.27149,42.54154,430.9243],[-1.27816,42.53203,460.4538],[-1.28219,42.52417,473.978],[-1.28452,42.51658,547.3217],[-1.28304,42.51012,634.2294],[-1.28033,42.50477,724.9812],[-1.27576,42.49849,936.5232],[-1.27369,42.49477,971.1115],[-1.27268,42.48764,827.6104],[-1.27948,42.47699,739.8582],[-1.29441,42.45984,604.3824],[-1.32066,42.44092,518.2135],[-1.34195,42.41483,435.4004],[-1.34805,42.39739,410.1768],[-1.35038,42.38679,409.2503],[-1.34911,42.37917,399.4306],[-1.34549,42.37294,398.4344],[-1.33883,42.36961,406.34],[-1.3334,42.36413,409.9129],[-1.33102,42.35798,405.1252],[-1.33449,42.34987,398.6959],[-1.36412,42.32315,371.4404],[-1.38402,42.30042,405.6755],[-1.39089,42.28729,430.2968],[-1.395,42.27716,400.845],[-1.39585,42.26977,450.5483],[-1.40087,42.25391,420.4955],[-1.4049,42.24427,396.1709],[-1.41254,42.23019,420.5704],[-1.41642,42.22058,441.2564],[-1.41704,42.21195,445.2592],[-1.41544,42.20489,427.521],[-1.41115,42.19758,395.7547],[-1.40541,42.19153,366.0373],[-1.40043,42.18515,349.1396],[-1.39663,42.17797,359.7039],[-1.39534,42.16942,363.6388],[-1.39477,42.14962,381.8122],[-1.39371,42.14161,450.573],[-1.39422,42.12758,479.7752],[-1.39247,42.12079,474.3742],[-1.38717,42.11474,427.4223],[-1.37342,42.10469,502.9918],[-1.36852,42.09877,545.6495],[-1.36436,42.09224,536.5253],[-1.36175,42.08534,528.6237],[-1.35671,42.07867,524.3527],[-1.35066,42.07273,597.8895],[-1.34242,42.06922,640.3331],[-1.33335,42.06746,635.5947],[-1.32392,42.06725,633.1381],[-1.31645,42.06276,632.2004],[-1.31245,42.05428,609.0258],[-1.31596,42.03715,619.7027],[-1.32237,42.02777,523.5274],[-1.34299,42.00697,374.8153],[-1.36118,41.98377,315.1174],[-1.37451,41.96046,284.7722],[-1.38066,41.95312,237.9847],[-1.38314,41.94369,234.8879],[-1.39399,41.93274,240.0767],[-1.40342,41.92545,246.0208],[-1.40903,41.91574,251.1796],[-1.41466,41.91083,256.3749],[-1.41929,41.90886,261.2048],[-1.42639,41.91098,264.0038],[-1.44474,41.91439,277.0728],[-1.4544,41.91519,287.6805],[-1.48329,41.92217,296.4154],[-1.4907,41.92266,302.7462],[-1.49789,41.92163,313.1934],[-1.503,41.92,324.6971],[-1.51833,41.91341,354.2945],[-1.53714,41.91088,389.8522],[-1.54664,41.91067,403.7159],[-1.55595,41.9116,421.7691],[-1.57375,41.91674,402.5537],[-1.58943,41.92519,393.2888],[-1.59636,41.93015,399.3327],[-1.60729,41.94188,391.7211],[-1.61421,41.947,399.4904],[-1.62194,41.95124,421.7265],[-1.6394,41.95759,403.826],[-1.65715,41.96217,421.7824],[-1.66643,41.96033,401.7614],[-1.68493,41.95398,403.0122],[-1.69465,41.95331,417.9328],[-1.70418,41.95506,424.5959],[-1.72361,41.96059,458.7741],[-1.73203,41.96467,452.7235],[-1.7396,41.9693,465.6744],[-1.75214,41.98142,466.6653],[-1.7595,41.987,491.9813],[-1.76772,41.99062,495.7303],[-1.77658,41.99299,547.3778],[-1.81484,41.99527,702.6423],[-1.82389,41.99465,706.3652],[-1.83461,41.99891,704.0374],[-1.83639,42.00028,704.0374],[-1.83867,42.00085,679.5788],[-1.84128,42.00188,647.5762],[-1.85241,42.00121,609.5885],[-1.84453,41.98204,705.2798],[-1.84818,41.97819,663.3499],[-1.85774,41.9548,661.8994],[-1.85159,41.90615,755.7895],[-1.83688,41.87409,687.5159],[-1.81603,41.85168,843.0131],[-1.81583,41.84422,862.325],[-1.81776,41.83605,942.1909],[-1.82156,41.82783,997.2863],[-1.8259,41.82057,1065.3763],[-1.83182,41.8143,1177.47],[-1.84267,41.79957,1646.6353],[-1.84585,41.79073,1990.3467],[-1.84247,41.78313,2160.158],[-1.83546,41.77704,2158.8462],[-1.8189,41.75781,1932.6448],[-1.81079,41.74492,1752.8516],[-1.80854,41.7375,1804.8948],[-1.80265,41.73182,1699.5554],[-1.79596,41.72875,1607.4435],[-1.78554,41.71929,1524.7006],[-1.78818,41.70575,1425.8185],[-1.7927,41.69689,1135.4092],[-1.79942,41.68717,1426.8286],[-1.80733,41.67043,1357.2561],[-1.81588,41.66167,1476.9796],[-1.82497,41.65803,1267.5122],[-1.8343,41.65823,1277.645],[-1.84435,41.65686,1221.3253],[-1.8543,41.6526,1142.4312],[-1.86564,41.64304,1243.2709],[-1.87479,41.63694,1277.7664],[-1.89396,41.62945,1169.0122],[-1.91094,41.61415,1166.009],[-1.91704,41.60741,1108.2241],[-1.92352,41.60299,1080.3403],[-1.93212,41.60113,1097.1958],[-1.95052,41.60581,1074.7043],[-1.95858,41.60873,1042.5249],[-1.96455,41.60868,1011.0833],[-1.96946,41.60772,1071.7788],[-1.97515,41.60521,1190.5153],[-1.9807,41.60191,1206.594],[-1.98827,41.5955,1095.2532],[-1.99078,41.58855,1090.0348],[-1.99023,41.58175,1052.0336],[-1.98791,41.57519,1073.4886],[-1.98194,41.5708,1060.8921],[-1.97592,41.54266,1100.324],[-1.97871,41.50762,981.2964],[-1.97527,41.49114,985.5148],[-1.96912,41.47979,957.2422],[-1.96192,41.47375,951.9612],[-1.95618,41.46682,938.9178],[-1.95285,41.45783,934.1763],[-1.94595,41.41553,918.215],[-1.95179,41.41166,923.6624],[-1.96013,41.40879,943.192],[-1.97013,41.40729,944.9928],[-1.97985,41.40494,964.5399],[-1.99605,41.39799,829.9028],[-2.01406,41.38807,912.4099],[-2.0222,41.38538,899.4016],[-2.03062,41.38543,942.5013],[-2.03742,41.38877,992.4867],[-2.04083,41.39473,988.9816],[-2.04057,41.40187,956.4683],[-2.03912,41.41011,875.0104],[-2.03935,41.41768,907.6924],[-2.04098,41.42489,936.0466],[-2.04522,41.43075,975.6498],[-2.05212,41.43499,948.0462],[-2.06951,41.43936,936.8486],[-2.09971,41.44261,920.5654],[-2.11095,41.43788,893.2277],[-2.11627,41.43137,869.4103],[-2.11958,41.42367,885.1214],[-2.12077,41.416,865.7143],[-2.12098,41.40827,874.6813],[-2.12237,41.39933,869.0815],[-2.12795,41.37675,886.8293],[-2.13395,41.3691,868.8273],[-2.14015,41.3627,823.3945],[-2.14707,41.3589,809.3747],[-2.15392,41.35704,777.943],[-2.15984,41.35319,769.5903],[-2.16624,41.34595,779.3326],[-2.17188,41.32776,806.2917],[-2.17335,41.29459,779.324],[-2.16542,41.28094,799.1224],[-2.16146,41.27565,819.4468],[-2.15922,41.26921,802.9803],[-2.15134,41.23128,885.5821],[-2.14914,41.19395,902.7654],[-2.14506,41.18658,924.3386],[-2.13824,41.18147,978.2888],[-2.12966,41.17917,951.8055],[-2.11129,41.17687,966.7084],[-2.10175,41.17697,1003.3123],[-2.09235,41.17483,1062.249],[-2.08374,41.17188,1075.2086],[-2.06181,41.15862,1109.2673],[-2.05323,41.15036,1097.8544],[-1.97186,41.16994,965.3742],[-1.94486,41.16441,980.2924],[-1.93866,41.15723,953.8397],[-1.92887,41.15015,974.0391],[-1.91623,41.14302,989.8062],[-1.89117,41.13516,978.1735],[-1.85042,41.11113,1055.2689],[-1.81691,41.09698,1057.8741],[-1.76733,41.06499,1076.2439],[-1.7611,41.05855,1087.2324],[-1.7564,41.05227,1012.662],[-1.75307,41.04551,1079.4453],[-1.7473,41.03881,1170.2531],[-1.73281,41.02602,1147.1938],[-1.67927,40.99075,1068.0614],[-1.67307,40.9845,1084.196],[-1.66261,40.97641,1092.111],[-1.65635,40.97011,1113.8663],[-1.62189,40.94675,1127.1196],[-1.55594,40.94379,1034.5266],[-1.52677,40.95318,1002.2952],[-1.49435,40.95528,992.9581],[-1.47512,40.94902,992.2631],[-1.46438,40.95128,992.4369],[-1.45517,40.95926,1002.4667],[-1.44922,40.97019,1051.7793],[-1.44828,40.98134,1136.5228],[-1.45665,41.00294,1139.6534],[-1.45821,41.0139,1098.8995],[-1.45242,41.02208,1133.6565],[-1.42945,41.02858,1021.1023],[-1.42267,41.03248,1066.0581],[-1.41697,41.03972,979.1293],[-1.40912,41.05659,865.3276],[-1.40333,41.06405,846.4675],[-1.39335,41.07026,816.4887],[-1.38173,41.07326,791.2719],[-1.36975,41.07325,855.001],[-1.35864,41.07038,970.0419],[-1.32921,41.05465,958.0233],[-1.27019,41.05418,1038.3528],[-1.25835,41.06092,1023.0682],[-1.25402,41.07139,1002.2327],[-1.25744,41.08126,1004.3491],[-1.26359,41.09096,980.5392],[-1.26743,41.10095,965.1234],[-1.26651,41.1079,963.282],[-1.25472,41.12817,941.385],[-1.24688,41.13387,929.6243],[-1.23598,41.13673,938.4159],[-1.21439,41.13715,1026.9364],[-1.16814,41.12189,1187.5187],[-1.15869,41.12229,1076.334],[-1.12246,41.13642,985.6549],[-1.11035,41.15558,1175.8586],[-1.10609,41.15907,1183.3262],[-1.10082,41.16112,1087.7217],[-1.0865,41.15925,965.8207],[-1.00056,41.11484,915.9951],[-0.99869,41.10386,896.3029],[-0.99522,41.09689,909.0803],[-0.98902,41.09217,888.204],[-0.95429,41.079,865.98],[-0.94569,41.07937,896.0254],[-0.93827,41.08243,932.6771],[-0.88354,41.13027,808.4538],[-0.82365,41.09292,728.2269],[-0.81393,41.09064,762.2966],[-0.80122,41.09361,742.069],[-0.79237,41.10214,823.1462],[-0.77252,41.15186,797.4761],[-0.76219,41.16126,716.9351],[-0.75118,41.1626,674.8881],[-0.74027,41.15631,781.8934],[-0.69401,41.11257,907.3364],[-0.61005,41.1917,410.6098],[-0.64263,41.23837,400.6329],[-0.6255,41.24833,365.5424],[-0.63107,41.30993,367.0533],[-0.62893,41.3204,303.9008],[-0.61981,41.32599,277.7889],[-0.61021,41.3248,290.1664],[-0.60146,41.31962,304.1204],[-0.53257,41.23249,299.8698],[-0.52468,41.22719,302.2634],[-0.51672,41.22797,298.6264],[-0.51021,41.23731,277.9093],[-0.50874,41.24402,277.6772],[-0.5093,41.24996,294.0687],[-0.52177,41.27653,294.1544],[-0.55938,41.32466,298.3488],[-0.56438,41.33628,263.0826],[-0.56255,41.34646,219.6593],[-0.55051,41.35298,220.5531],[-0.493,41.35435,203.5443],[-0.48559,41.35183,188.7733],[-0.4799,41.3454,169.6025],[-0.47413,41.32741,253.0],[-0.47085,41.32223,272.1568],[-0.46513,41.31857,280.2081],[-0.44604,41.31762,212.0974],[-0.44024,41.31426,199.1775],[-0.43033,41.29726,180.4174],[-0.40586,41.27235,279.7631],[-0.33723,41.241459999999996,165.9833],[-0.3132,41.25553,168.0912],[-0.2686,41.21503,253.8008],[-0.0362,41.13407,239.0437],[-0.01693,41.12172,226.0865],[0.02103,41.05423,402.08],[0.03965,41.04864,484.8103],[0.04474,41.05191,489.6318],[0.05454,41.0675,510.2818],[0.05832,41.07125,487.7561],[0.06254,41.07395,436.6675],[0.07245,41.07705,434.7236],[0.11919,41.0764,308.0163],[0.14347,41.06715,382.6221],[0.16696,41.06506,427.7034],[0.2165,41.07062,272.7643],[0.21247,41.08416,250.5572],[0.20813,41.08943,243.2491],[0.20534,41.09687,286.3124],[0.20519,41.10426,233.0965],[0.20658,41.11178,228.5861],[0.20891,41.11961,237.6411],[0.21371,41.12576,222.3429],[0.22441,41.13018,231.3803],[0.23371,41.13033,268.283],[0.24239,41.13204,296.4133],[0.24849,41.1362,310.0937],[0.25221,41.14152,329.7137],[0.25841,41.14643,313.5751],[0.27624,41.15,259.2381],[0.28508,41.15317,333.323],[0.29314,41.15826,314.7046],[0.29965,41.16488,308.5512],[0.30652,41.18353,310.9599],[0.30699,41.19201,280.2567],[0.30885,41.19929,287.9127],[0.31335,41.20689,266.1549],[0.3211,41.21392,232.7063],[0.33644,41.22157,80.4815],[0.34792,41.22575,84.5348],[0.35784,41.23053,110.9036],[0.36037,41.23283,96.8358],[0.35427,41.25629,68.5],[0.35236,41.27921,211.0589],[0.37727,41.32141,209.5152],[0.37401,41.33892,153.1848],[0.36507,41.35257,202.5341],[0.35174,41.36254,184.444],[0.3352,41.368899999999996,240.9603],[0.3273,41.37011,157.4068],[0.3242,41.39016,116.1468],[0.33831,41.4059,77.0673],[0.24065,41.42848,299.6591],[0.21903,41.40344,115.0],[0.18269,41.39452,115.5],[0.16379,41.40653,115.5],[0.12912,41.38766,115.5],[0.10613,41.35093,115.5],[0.01911,41.36031,279.0501],[0.01223,41.36356,326.6988],[-4E-05,41.37545,319.7784],[-0.01473,41.3834,312.977],[-0.03309,41.38278,343.7546],[-0.06991,41.37289,327.1313],[-0.10326,41.47542,319.186],[-0.11711,41.49737,310.53],[-0.15235,41.52823,358.6914],[-0.1671,41.56902,404.5354],[-0.17491,41.58198,399.6732],[-0.18551,41.59104,393.3085],[-0.19736,41.59544,405.2216],[-0.20977,41.59457,418.1577],[-0.23923,41.57676,514.3291],[-0.2459,41.57548,537.7835],[-0.2583,41.57818,472.7237],[-0.31377,41.62275,564.7476],[-0.34419,41.63118,605.2777],[-0.35095,41.63721,591.1106],[-0.37333,41.67834,716.1913],[-0.38067,41.68468,686.6367],[-0.48877,41.73555,710.4006],[-0.49768,41.74448,712.4402],[-0.50308,41.75491,651.7523],[-0.5249,41.83983,596.7101],[-0.53743,41.85571,607.8252],[-0.55372,41.86761,599.9509],[-0.60712,41.88815,536.28],[-0.65206,41.94582,392.6318],[-0.66799,41.9553,440.0919],[-0.77821,41.95731,312.3353],[-0.85369,41.99671,513.8563],[-0.86406,42.01144,522.6642],[-0.86607,42.02716,485.7231],[-0.8564,42.05968,405.8102],[-0.84812,42.07272,417.6155],[-0.84223,42.07755,396.3455],[-0.83514,42.08104,408.5029],[-0.82744,42.08255,403.5998],[-0.8192,42.0821,395.532],[-0.81129,42.07983,379.9144],[-0.80462,42.07591,371.726],[-0.78921,42.05857,377.4222],[-0.78171,42.05658,365.2905],[-0.76752,42.06125,350.6473],[-0.75579,42.07227,370.3832],[-0.74787,42.08654,389.1185],[-0.74511,42.10094,395.4841],[-0.75739,42.25845,439.3799],[-0.74957,42.27331,456.119],[-0.73443,42.29071,582.4438],[-0.73155,42.29781,521.2192],[-0.73144,42.30857,583.002],[-0.74057,42.34087,465.9086],[-0.74005,42.37529,553.0957],[-0.74547,42.38531,650.8445],[-0.75054,42.38973,592.9269],[-0.75539,42.39174,620.5566],[-0.7802,42.39185,1138.2166],[-0.78255,42.38904,1031.6172],[-0.78229,42.38252,968.9539],[-0.77271,42.3541,758.3217],[-0.77268,42.34495,673.26],[-0.80408,42.28373,703.6688],[-0.80832,42.2792,599.4316],[-0.81417,42.27567,613.2017],[-0.8225,42.27385,692.83],[-0.82904,42.27551,688.6971],[-0.84272,42.28214,817.9417],[-0.85162,42.28349,761.0336],[-0.86154,42.28257,749.5933],[-0.87079,42.27927,685.2779],[-0.87769,42.27351,688.6172],[-0.88432,42.2558,623.1656],[-0.89294,42.24984,580.2723],[-0.90475,42.24962,626.5569]],
[[-1.16393,42.44087,843.7253],[-1.15814,42.43674,898.1947],[-1.15814,42.42599,834.3073],[-1.16558,42.41193,783.5416],[-1.17633,42.40367,794.0704],[-1.19039,42.40284,690.5029],[-1.197,42.41193,749.9073],[-1.19452,42.42434,866.1964],[-1.18625,42.43095,766.565],[-1.17302,42.43591,776.2463],[-1.16393,42.44087,843.7253]],
[[-1.07546,42.4326,977.3095],[-1.08703,42.43343,987.6736],[-1.10853,42.43674,1017.3817],[-1.12341,42.44005,996.6887],[-1.13416,42.44666,971.4199],[-1.13334,42.45658,916.1927],[-1.12838,42.4665,881.6436],[-1.12424,42.47312,848.8309],[-1.11267,42.48221,745.6279],[-1.10605,42.48304,638.7619],[-1.09861,42.48221,650.3144],[-1.0953,42.47477,676.0701],[-1.09448,42.4632,786.8319],[-1.08538,42.45906,836.0389],[-1.07463,42.45079,811.3083],[-1.06719,42.44583,851.4584],[-1.06719,42.43674,1030.1614],[-1.07546,42.4326,977.3095]]]}}