{"type":"Feature","properties":{"GID_3":"ESP.5.4.5_1","GID_0":"ESP","country":"Spain","GID_1":"ESP.5_1","province":"CastillayLeón","NL_NAME_1":"NA","GID_2":"ESP.5.4_1","county":"Palencia","NL_NAME_2":"NA","city":"n.a.(204)","VARNAME_3":"NA","NL_NAME_3":"NA","TYPE_3":"Comarca","ENGTYPE_3":"Comarca","CC_3":"NA","HASC_3":"NA","name":"n.a.(204).city"},
"geometry":{"type": "MultiPolygon","coordinates": [[[[-4.8905,42.6928,1088.7303],[-4.9003,42.6692,1061.8069],[-4.8961,42.6557,1094.1998],[-4.862,42.6554,1078.9312],[-4.8602,42.6635,1072.5046],[-4.839,42.6639,1055.6226],[-4.8272,42.6665,1036.3446],[-4.8113,42.6659,1024.9955],[-4.7977,42.6716,1090.2144],[-4.7856,42.6726,1092.8833],[-4.7691,42.6819,1093.8743],[-4.7717,42.6909,1102.5609],[-4.7627,42.7049,1117.6121],[-4.7527,42.7102,1116.7489],[-4.7454,42.7086,1085.7646],[-4.7409,42.7051,1081.2847],[-4.7282,42.7057,1107.0719],[-4.7234,42.7235,1109.0466],[-4.7131,42.7328,1118.5519],[-4.6979,42.7417,1085.271],[-4.6953,42.7375,1074.781],[-4.6885,42.7323,1057.1526],[-4.6819,42.7315,1107.2491],[-4.6785,42.7215,1087.7451],[-4.674,42.7204,1086.4091],[-4.6621,42.7058,1085.8241],[-4.649,42.7202,1003.3465],[-4.6439,42.7223,973.634],[-4.6413,42.7216,972.5436],[-4.6399,42.7229,977.9203],[-4.6412,42.7253,980.1035],[-4.6257,42.7329,1050.5682],[-4.6184,42.74,1089.1129],[-4.6065,42.7421,1095.9642],[-4.5944,42.7415,1076.9716],[-4.5946,42.7448,1070.8652],[-4.6123,42.7449,1117.5109],[-4.6204,42.7524,1143.1868],[-4.6405,42.7543,1031.0278],[-4.6402,42.7563,1024.4297],[-4.6511,42.7654,1032.4725],[-4.6527,42.7664,1017.1241],[-4.6563,42.765,1019.9136],[-4.6692,42.7738,1055.0133],[-4.6692,42.7915,1114.9908],[-4.6681,42.793,1112.2421],[-4.6602,42.7944,1131.5952],[-4.6628,42.802,1137.7391],[-4.6598,42.8017,1143.0881],[-4.6538,42.7971,1132.292],[-4.6539,42.8022,1116.0364],[-4.6506,42.8084,1122.4277],[-4.6542,42.8192,1157.9432],[-4.6482,42.8208,1175.2762],[-4.6485,42.8228,1175.9436],[-4.6451,42.825,1161.6958],[-4.6468,42.8335,1192.7271],[-4.6455,42.8373,1225.506],[-4.6488,42.8402,1229.5172],[-4.6452,42.8558,1708.7478],[-4.6491,42.8653,1678.9351],[-4.6541,42.8578,1774.5148],[-4.6756,42.8627,1634.9178],[-4.6898,42.8638,1755.1877],[-4.693,42.8661,1843.7096],[-4.6993,42.8746,1548.1423],[-4.6991,42.877,1539.1812],[-4.6958,42.8796,1460.6149],[-4.6962,42.8819,1429.0691],[-4.6918,42.8833,1395.474],[-4.6895,42.8863,1338.8821],[-4.6896,42.8971,1329.2953],[-4.6857,42.8995,1351.5817],[-4.6894,42.9032,1317.2535],[-4.6895,42.9091,1284.5],[-4.6926,42.9096,1284.5],[-4.6965,42.9138,1381.9456],[-4.6985,42.9172,1412.5127],[-4.6983,42.9226,1466.5797],[-4.703,42.9262,1530.5906],[-4.7218,42.9305,1812.8651],[-4.7372,42.9396,1914.6135],[-4.7293,42.9476,1867.7236],[-4.7275,42.9517,1961.568],[-4.7332,42.9568,1972.067],[-4.7293,42.9664,2124.4683],[-4.7329,42.968,2160.8008],[-4.7289,42.9728,2154.604],[-4.7196,42.9758,2182.2017],[-4.7178,42.9787,2243.781],[-4.7147,42.9787,2296.4077],[-4.7155,42.9815,2235.8604],[-4.7129,42.986,2139.562],[-4.7147,42.9881,2123.1812],[-4.715,42.998,2156.8203],[-4.7375,43.0154,2344.0552],[-4.7369,43.021,2426.144],[-4.7388,43.0184,2378.7847],[-4.7569,43.0155,2368.7563],[-4.7668,43.0015,2207.4771],[-4.781,42.9979,2117.1003],[-4.7828,42.9935,2211.6387],[-4.7882,42.9925,2231.5601],[-4.7947,42.9866,2119.9961],[-4.7956,42.9738,2183.0149],[-4.8072,42.9677,2036.3987],[-4.8051,42.9618,1985.0239],[-4.8064,42.9565,1970.2742],[-4.8026,42.9495,2035.8458],[-4.8051,42.9418,1955.6277],[-4.8108,42.936,1801.0079],[-4.8091,42.9303,1626.359],[-4.813,42.9274,1584.4546],[-4.8137,42.924,1573.4038],[-4.8196,42.9223,1523.8582],[-4.8283,42.917,1473.9127],[-4.8304,42.9119,1515.844],[-4.8378,42.9067,1626.1843],[-4.836,42.8993,1818.1312],[-4.8383,42.8953,1938.0469],[-4.8459,42.8975,1902.3374],[-4.8554,42.8917,1904.4465],[-4.8594,42.8837,1585.0791],[-4.8583,42.8781,1503.4309],[-4.8605,42.871,1257.671],[-4.8655,42.8605,1750.4515],[-4.8684,42.8628,1769.9562],[-4.8804,42.8659,1741.8021],[-4.8983,42.8631,1694.6493],[-4.901,42.8574,1651.8728],[-4.9007,42.8516,1636.7513],[-4.8885,42.8411,1562.3885],[-4.8919,42.8322,1534.9329],[-4.8958,42.827,1518.2502],[-4.8969,42.8173,1342.7781],[-4.9028,42.8093,1233.8469],[-4.8988,42.8052,1199.0194],[-4.8989,42.8022,1195.4423],[-4.8965,42.7997,1156.7151],[-4.8958,42.7851,1194.207],[-4.9015,42.783,1177.6724],[-4.9027,42.7844,1193.7098],[-4.909,42.7794,1108.5535],[-4.9095,42.7742,1176.4259],[-4.9205,42.7574,1127.6707],[-4.925,42.7593,1059.5287],[-4.9285,42.7554,1062.5271],[-4.9355,42.7564,1099.3364],[-4.9334,42.7533,1079.7048],[-4.9363,42.7444,1094.0552],[-4.9282,42.7369,1129.4757],[-4.9184,42.7342,1136.3164],[-4.9158,42.7205,1091.4503],[-4.9109,42.7188,1128.8026],[-4.8972,42.7243,1152.0811],[-4.8912,42.7234,1145.0532],[-4.8848,42.7181,1146.9425],[-4.8837,42.7126,1137.1912],[-4.8716,42.708,1130.429],[-4.8799,42.704,1116.7921],[-4.886,42.6954,1112.0957],[-4.8905,42.6928,1088.7303]]]]}}