{"type": "Feature","bbox": [-8.3662,42.065,-7.6053,42.5785],"geometry": {"type": "MultiPolygon","coordinates": [[[[-8.1214,42.0828,1187.8617],[-8.1037,42.0751,1248.3223],[-8.0973,42.0809,1218.0742],[-8.0926,42.0892,1172.4958],[-8.0939,42.0907,1170.9924],[-8.0805,42.1015,853.0166],[-8.0749,42.112,619.5277],[-8.0608,42.1193,810.4991],[-8.0414,42.1153,818.0766],[-8.03,42.1228,787.0585],[-8.0134,42.119,788.099],[-8.0058,42.1216,714.948],[-8.0055,42.1239,728.2703],[-8.0111,42.1398,679.5753],[-7.995,42.1462,716.4186],[-7.9897,42.1353,763.756],[-7.9876,42.1262,806.5633],[-7.9816,42.1226,818.3302],[-7.9803,42.118,847.8845],[-7.9751,42.1179,855.4302],[-7.9492,42.1293,648.7745],[-7.9346,42.1226,553.7663],[-7.9329,42.1193,539.895],[-7.9209,42.1139,708.5693],[-7.9141,42.1069,775.2111],[-7.911,42.1102,789.4506],[-7.8908,42.1124,836.7673],[-7.8768,42.1229,808.7874],[-7.8756,42.1274,802.0096],[-7.8612,42.1452,854.1332],[-7.857,42.1532,899.7957],[-7.8511,42.1516,847.5734],[-7.821,42.1542,862.9747],[-7.8133,42.1524,876.3687],[-7.8138,42.1432,863.8987],[-7.809,42.138,835.7688],[-7.8042,42.1411,872.7218],[-7.7966,42.1361,819.6276],[-7.7875,42.1237,855.0812],[-7.7782,42.1218,771.2624],[-7.7695,42.1251,726.4343],[-7.7662,42.136,644.7762],[-7.771,42.1439,680.3857],[-7.7702,42.1588,735.6901],[-7.766,42.1683,719.9399],[-7.7544,42.1728,751.2173],[-7.744,42.2056,457.2788],[-7.7454,42.2068,464.0773],[-7.7495,42.2061,461.2141],[-7.7588,42.2117,590.0388],[-7.758,42.2151,595.3873],[-7.7613,42.2181,593.8225],[-7.7656,42.2209,594.6847],[-7.769,42.2208,591.1312],[-7.7677,42.2237,599.6589],[-7.7735,42.2379,649.0784],[-7.7632,42.2424,559.9191],[-7.7575,42.2523,436.4929],[-7.7476,42.2482,491.5852],[-7.7417,42.2486,552.194],[-7.7245,42.262,668.8089],[-7.7044,42.2648,692.8758],[-7.7046,42.2691,674.5239],[-7.7013,42.2746,673.2137],[-7.7057,42.2748,668.2792],[-7.7049,42.2768,669.6819],[-7.6949,42.2825,696.7592],[-7.6912,42.2917,742.0359],[-7.6963,42.293,741.5897],[-7.6994,42.2984,748.1113],[-7.7067,42.3004,753.976],[-7.6917,42.3067,759.9805],[-7.6833,42.3075,704.678],[-7.6744,42.3136,714.684],[-7.6702,42.3136,727.6711],[-7.6616,42.298,619.2349],[-7.6531,42.2911,602.3666],[-7.634,42.2929,559.0159],[-7.6311,42.2915,555.7297],[-7.6196,42.2963,595.2035],[-7.6057,42.307,962.9423],[-7.6053,42.3172,1024.4248],[-7.609,42.3184,1035.0557],[-7.6101,42.3335,1171.6184],[-7.6138,42.3372,1185.2644],[-7.611,42.3403,1210.735],[-7.6126,42.3484,1279.0547],[-7.6106,42.3502,1306.4863],[-7.6334,42.3545,1148.3365],[-7.6268,42.3581,968.9428],[-7.6264,42.3675,886.1138],[-7.6226,42.3695,948.512],[-7.6187,42.3754,709.5109],[-7.6202,42.3773,603.21],[-7.6165,42.3842,255.7083],[-7.62,42.3854,227.9261],[-7.6244,42.393,226.0],[-7.6274,42.3947,226.0],[-7.6307,42.4066,226.0],[-7.639,42.409,226.0],[-7.6473,42.4139,242.6588],[-7.6568,42.4152,156.4932],[-7.662,42.423,165.3883],[-7.6715,42.4217,188.4167],[-7.6818,42.4225,147.1469],[-7.6942,42.4279,159.0364],[-7.7013,42.4326,177.295],[-7.7048,42.444,136.5289],[-7.713,42.4524,145.3582],[-7.7305,42.4538,112.2284],[-7.739,42.4566,183.7959],[-7.7526,42.451,445.2285],[-7.7618,42.4547,503.6127],[-7.764,42.4582,575.1458],[-7.7656,42.4568,588.5963],[-7.7759,42.4606,654.4293],[-7.7811,42.4681,661.7637],[-7.7835,42.4686,662.9001],[-7.7887,42.466,626.4473],[-7.7881,42.468,635.7133],[-7.7908,42.4709,668.7021],[-7.7882,42.4735,670.7125],[-7.7815,42.4721,682.5193],[-7.7734,42.4769,681.103],[-7.7633,42.4789,621.4199],[-7.7597,42.4764,564.2595],[-7.7528,42.476,501.0926],[-7.7508,42.4791,463.1586],[-7.7481,42.48,377.5157],[-7.7528,42.487,396.2777],[-7.757,42.4867,447.8992],[-7.7613,42.4888,434.5281],[-7.7644,42.4937,477.4139],[-7.7733,42.4946,536.3009],[-7.7795,42.492,584.3795],[-7.7847,42.4861,652.8653],[-7.7996,42.48,712.9009],[-7.8067,42.4811,691.0157],[-7.8105,42.4878,704.1129],[-7.8194,42.4918,699.699],[-7.8238,42.4906,697.5281],[-7.8281,42.4934,681.3282],[-7.8419,42.4905,675.9452],[-7.8427,42.4967,673.5479],[-7.845,42.4983,695.8979],[-7.8477,42.4982,688.6146],[-7.8613,42.5041,700.8159],[-7.8777,42.5026,620.2612],[-7.8794,42.5063,620.4925],[-7.8753,42.5109,600.226],[-7.8885,42.511,680.4943],[-7.8967,42.5056,676.6031],[-7.913,42.5084,757.8126],[-7.9106,42.5125,847.8568],[-7.9025,42.5145,791.6747],[-7.9014,42.5213,730.8881],[-7.9238,42.525,993.1115],[-7.9118,42.5273,775.4321],[-7.9073,42.5309,725.7775],[-7.9026,42.529,757.2239],[-7.9001,42.5316,772.1807],[-7.9019,42.535,730.795],[-7.9009,42.5362,708.4027],[-7.894,42.5393,685.3287],[-7.8886,42.5381,680.7587],[-7.8899,42.5502,763.7095],[-7.9114,42.5561,962.7158],[-7.9173,42.5617,955.1806],[-7.9278,42.5785,1008.6751],[-7.9647,42.5666,817.1266],[-7.9731,42.5664,793.8892],[-7.992,42.5725,837.4475],[-8.0005,42.5665,792.5858],[-8.0023,42.5586,754.9169],[-8.0117,42.5519,735.8833],[-8.0132,42.5448,696.1957],[-8.0162,42.5427,701.338],[-8.0274,42.544,775.713],[-8.0313,42.5456,790.8088],[-8.0342,42.5503,801.7145],[-8.0385,42.5517,789.3031],[-8.0412,42.5509,765.1325],[-8.0483,42.5549,844.0065],[-8.0525,42.551,842.2832],[-8.0592,42.5487,826.8254],[-8.0647,42.5523,773.9922],[-8.0774,42.5533,785.4459],[-8.0893,42.5577,761.2232],[-8.0953,42.5537,742.9564],[-8.1113,42.5558,761.0496],[-8.1301,42.5524,760.3489],[-8.1365,42.5541,773.3536],[-8.1467,42.5487,809.8345],[-8.1613,42.5573,756.252],[-8.1675,42.5672,731.3478],[-8.1737,42.572,711.6571],[-8.1802,42.5672,617.6978],[-8.1863,42.5651,735.5289],[-8.1882,42.5621,788.1577],[-8.1841,42.5569,860.7776],[-8.1992,42.5518,803.4702],[-8.2174,42.5338,936.9687],[-8.2254,42.5382,759.2443],[-8.2393,42.5382,624.3095],[-8.2504,42.5309,762.2147],[-8.2636,42.5257,886.6901],[-8.2668,42.521,917.767],[-8.2712,42.5207,864.304],[-8.2724,42.5152,782.2197],[-8.2745,42.5137,738.8021],[-8.2746,42.5084,750.5175],[-8.2844,42.5061,831.4003],[-8.2884,42.5031,857.2037],[-8.2912,42.496,822.3133],[-8.3026,42.4902,691.1661],[-8.3121,42.4954,829.7217],[-8.3227,42.4949,857.6769],[-8.3341,42.4912,775.098],[-8.3403,42.4924,782.3121],[-8.3419,42.4844,796.8602],[-8.3525,42.4807,755.1924],[-8.3662,42.4873,937.0934],[-8.3478,42.4688,748.7567],[-8.342,42.4659,765.3304],[-8.3389,42.4574,796.578],[-8.3393,42.4529,831.4153],[-8.3357,42.448,865.1464],[-8.339,42.4414,891.6736],[-8.3381,42.4334,896.0915],[-8.3301,42.4206,915.7651],[-8.317,42.3828,997.3164],[-8.3145,42.381,975.3329],[-8.3171,42.3753,932.9768],[-8.3243,42.3692,935.3623],[-8.3173,42.3563,963.9315],[-8.3204,42.3524,977.925],[-8.3249,42.352,1017.4354],[-8.3245,42.345,993.7095],[-8.311,42.3438,885.5475],[-8.3051,42.34,911.4689],[-8.3028,42.3349,913.4766],[-8.2913,42.327,782.914],[-8.2886,42.3221,747.6538],[-8.2849,42.3203,761.1829],[-8.2846,42.3176,761.9468],[-8.2819,42.3165,773.4045],[-8.2783,42.3176,802.0026],[-8.2727,42.3144,949.7273],[-8.2618,42.315,1035.611],[-8.2621,42.3066,1109.6653],[-8.2666,42.2997,1107.3301],[-8.2674,42.286,1044.3647],[-8.2727,42.2824,1046.0466],[-8.2678,42.2719,1015.0131],[-8.2684,42.2635,967.0056],[-8.2644,42.2528,957.9863],[-8.2602,42.2523,908.2902],[-8.2503,42.2453,926.8171],[-8.2415,42.245,740.5173],[-8.2391,42.2398,686.2847],[-8.2329,42.2336,609.1941],[-8.2228,42.2332,660.3865],[-8.212,42.2358,719.6755],[-8.2033,42.2445,701.8716],[-8.1835,42.2434,437.4967],[-8.1649,42.246,145.8137],[-8.1617,42.2441,67.1187],[-8.1717,42.2376,67.7335],[-8.1726,42.2328,74.4139],[-8.1622,42.2273,70.8585],[-8.1639,42.2221,73.6045],[-8.1667,42.2201,69.8528],[-8.1736,42.22,94.977],[-8.1829,42.2169,90.5578],[-8.1896,42.2133,83.1681],[-8.1921,42.2091,63.0],[-8.1893,42.2075,63.0],[-8.1859,42.2098,62.5],[-8.1795,42.2099,69.515],[-8.1792,42.2076,62.5],[-8.1746,42.2038,80.4683],[-8.1771,42.1961,80.486],[-8.1759,42.1857,133.5406],[-8.1744,42.1838,104.6039],[-8.1614,42.1809,61.5],[-8.161,42.1791,61.0],[-8.1662,42.1727,69.956],[-8.1741,42.1711,68.9399],[-8.1752,42.1657,60.5],[-8.1806,42.1584,60.5],[-8.1995,42.1541,52.1357],[-8.1964,42.1527,62.9521],[-8.1954,42.1482,130.1408],[-8.1915,42.1428,142.9496],[-8.188,42.1436,190.2928],[-8.1908,42.1402,196.0298],[-8.1876,42.1375,183.4293],[-8.1896,42.1352,212.3197],[-8.1886,42.1337,250.7309],[-8.1935,42.1291,275.9288],[-8.1911,42.1182,329.8566],[-8.1918,42.1145,345.7327],[-8.1888,42.1112,352.4178],[-8.1859,42.0982,444.5894],[-8.1879,42.0924,489.5848],[-8.1849,42.0838,591.1818],[-8.1865,42.0814,610.1564],[-8.1854,42.0764,709.8976],[-8.1881,42.0739,759.8417],[-8.182,42.065,908.5679],[-8.1755,42.0653,1037.5428],[-8.1704,42.0673,1071.2726],[-8.1596,42.0758,1187.0128],[-8.1496,42.0793,1186.5142],[-8.1379,42.0758,1121.5308],[-8.1214,42.0828,1187.8617]]]]}
,"properties": {"GID_3": "ESP.12.3.1_1","GID_0": "ESP","country": "Spain","GID_1": "ESP.12_1","province": "Galicia","NL_NAME_1": "NA","GID_2": "ESP.12.3_1","county": "Ourense","NL_NAME_2": "NA","city": "n.a.(197)","VARNAME_3": "NA","NL_NAME_3": "NA","TYPE_3": "Comarca","ENGTYPE_3": "Comarca","CC_3": "NA","HASC_3": "NA","name": "n.a.(197).city","area_km2": 2147.56,"hist_schema_id": "Elevation0-9000","hist_area_km2": {"50": 0.723,"75": 18.003,"100": 26.747,"125": 33.126,"150": 31.948,"175": 29.8,"200": 28.609,"225": 30.569,"250": 34.895,"275": 41.545,"300": 53.744,"325": 77.829,"350": 108.158,"375": 124.84,"400": 154.454,"425": 142.708,"450": 121.182,"475": 105.058,"500": 94.417,"525": 89.8,"550": 84.766,"575": 82.357,"600": 71.189,"625": 66.638,"650": 61.039,"675": 58.382,"700": 54.295,"725": 50.693,"750": 48.164,"775": 43.652,"800": 39.827,"825": 30.935,"850": 23.793,"875": 19.233,"900": 14.897,"925": 10.902,"950": 7.85,"975": 6.945,"1000": 4.955,"1025": 3.671,"1050": 2.543,"1075": 2.527,"1100": 2.355,"1125": 2.103,"1150": 1.696,"1175": 1.793,"1200": 1.447,"1225": 0.503,"1250": 0.173,"1275": 0.047,"1300": 0.031}}}