{"type": "Feature","id": "5828","bbox": [-3.12097,41.91845,-1.68578,42.64412],"geometry": {"type": "Polygon","coordinates": [[[-2.82993,42.61381,529.5178],[-2.83602,42.62146,633.0099],[-2.83747,42.63445,511.5746],[-2.83731,42.64412,637.3127],[-2.90672,42.62626,802.0833],[-2.93338,42.63019,828.0231],[-2.94865,42.63515,873.3073],[-3.01415,42.64089,678.6786],[-3.05689,42.63729,913.5789],[-3.07211,42.63208,924.645],[-3.0758,42.62567,950.7637],[-3.06448,42.61352,722.5173],[-3.06115,42.60652,682.3219],[-3.06053,42.59942,670.3537],[-3.06676,42.59146,690.5162],[-3.0735,42.58567,715.1075],[-3.07963,42.57942,776.3109],[-3.08366,42.57322,787.4418],[-3.11389,42.54841,754.9155],[-3.11515,42.54076,740.4792],[-3.11071,42.53681,750.8259],[-3.1026,42.53616,764.5488],[-3.09461,42.53895,746.3363],[-3.0858,42.54007,701.8857],[-3.07784,42.53976,676.8391],[-3.07239,42.53523,666.0089],[-3.07001,42.52914,641.2177],[-3.07071,42.52097,639.9235],[-3.07373,42.51208,614.7796],[-3.08056,42.49973,653.6699],[-3.08319,42.491459999999996,615.938],[-3.08048,42.48467,680.0756],[-3.06562,42.47689,674.4888],[-3.06007,42.47146,734.6706],[-3.0573,42.46495,672.4349],[-3.05208,42.45906,760.9048],[-3.04921,42.45234,698.1041],[-3.0496,42.4463,709.4249],[-3.05823,42.42586,775.4787],[-3.05929,42.40361,951.7625],[-3.05828,42.39535,1078.9076],[-3.05609,42.38806,1126.9458],[-3.05604,42.38028,1166.0784],[-3.07195,42.35938,1181.2344],[-3.07839,42.3555,1274.4249],[-3.09782,42.35261,1110.2461],[-3.10787,42.34897,1133.3623],[-3.10942,42.34346,1111.5045],[-3.10546,42.337649999999996,1220.1614],[-3.09957,42.33251,1274.0986],[-3.09787,42.32512,1263.5167],[-3.0981,42.30775,1316.6521],[-3.09616,42.2998,1372.0804],[-3.09347,42.29194,1267.0742],[-3.09017,42.28476,1439.9889],[-3.08857,42.27739,1679.1846],[-3.08789,42.26995,1765.6479],[-3.08877,42.26044,1548.7766],[-3.09084,42.24908,1902.2897],[-3.10221,42.21784,1843.7273],[-3.10869,42.20947,1761.8289],[-3.12097,42.20156,1675.9985],[-3.12045,42.19629,1491.7699],[-3.08714,42.15856,1383.2061],[-3.08451,42.15092,1314.2993],[-3.07777,42.13769,1301.7822],[-3.07071,42.13319,1322.274],[-3.05523,42.12526,1310.8534],[-3.04449,42.11327,1484.6659],[-3.03986,42.10655,1575.6683],[-3.03648,42.09955,1640.3911],[-3.02632,42.08797,1797.2659],[-3.01084,42.08213,1639.2717],[-2.99772,42.08151,1543.2986],[-2.99002,42.08239,1257.5321],[-2.97503,42.08208,1213.0294],[-2.96015,42.08332,1533.0286],[-2.95131,42.08508,1610.6306],[-2.94222,42.08487,1472.2271],[-2.93416,42.0827,1661.5652],[-2.92873,42.07702,1752.9937],[-2.92423,42.0702,1942.7047],[-2.92181,42.0633,1803.5198],[-2.91762,42.05717,1646.5671],[-2.91018,42.02343,1951.272],[-2.87093,42.01475,2040.0569],[-2.84011,42.0255,1682.5146],[-2.81285,42.03805,1827.5139],[-2.80163,42.0473,1842.7102],[-2.79628,42.05601,1733.8436],[-2.79644,42.06369,1737.0541],[-2.79856,42.07077,1657.5039],[-2.79752,42.07779,1596.9313],[-2.79504,42.08495,1615.4414],[-2.78969,42.0927,1638.2755],[-2.7859,42.1011,1557.1475],[-2.77393,42.11247,1636.7185],[-2.76223,42.1181,1458.4875],[-2.73536,42.12012,1395.8728],[-2.7252,42.11777,1231.571],[-2.71719,42.1142,1250.4983],[-2.7142,42.10813,1204.6444],[-2.71257,42.10125,1142.4568],[-2.71234,42.09397,1327.7869],[-2.71575,42.07991,1662.537],[-2.72109,42.07371,1657.611],[-2.73417,42.06407,1778.7533],[-2.73779,42.05787,1800.4446],[-2.74047,42.05072,1803.0365],[-2.74435,42.04343,1838.8389],[-2.74745,42.03604,1804.8738],[-2.74848,42.02878,1907.9053],[-2.7436,42.02253,1746.6483],[-2.72903,42.01694,1910.9922],[-2.7137,42.01679,1872.9137],[-2.70133,42.01493,1959.4478],[-2.69061,42.0116,1837.9385],[-2.67185,42.00046,2049.3062],[-2.66415,41.99956,2009.7518],[-2.66043,41.99956,2009.5276],[-2.65562,42.00069,1985.3307],[-2.61955,42.00232,1822.566],[-2.59087,41.99953,1830.1117],[-2.57294,42.00015,1754.811],[-2.57227,42.0017,1727.5923],[-2.57035,42.00477,1647.4128],[-2.56795,42.0101,1696.9071],[-2.55682,42.02276,1734.5421],[-2.54617,42.03857,1843.7058],[-2.54211,42.04643,1639.613],[-2.53692,42.05258,1675.0222],[-2.53041,42.05697,1729.7236],[-2.52498,42.05997,1728.0157],[-2.51974,42.06343,1721.8975],[-2.51565,42.0688,1761.728],[-2.51361,42.0825,1611.2778],[-2.51274,42.09795,1576.1978],[-2.51157,42.10513,1549.2314],[-2.50839,42.11035,1561.4126],[-2.50245,42.1111,1658.3904],[-2.48152,42.10823,1508.7887],[-2.47263,42.11141,1576.7111],[-2.44995,42.12311,1726.1465],[-2.43744,42.1319,1586.2318],[-2.41047,42.13857,1668.1523],[-2.34745,42.14221,1443.9907],[-2.29613,42.13779,1044.2856],[-2.28665,42.13412,833.0037],[-2.28122,42.12994,1038.8987],[-2.27854,42.12368,1134.317],[-2.27632,42.11665,1219.9756],[-2.27567,42.10934,1275.1617],[-2.27223,42.10193,1348.132],[-2.26614,42.09516,1433.5884],[-2.25629,42.08942,1529.0129],[-2.24552,42.08952,1452.4196],[-2.18968,42.10407,1235.4417],[-2.1718,42.10549,1127.9375],[-2.15338,42.10456,1047.996],[-2.13787,42.10156,1003.6387],[-2.1278,42.09666,989.4036],[-2.12268,42.09071,812.9529],[-2.12322,42.08368,840.6518],[-2.1278,42.0779,987.9483],[-2.13506,42.07294,1099.6636],[-2.14289,42.06973,1135.3253],[-2.14898,42.06477,1177.3723],[-2.15054,42.05816,1217.457],[-2.14945,42.05077,1082.8008],[-2.14619,42.04322,1143.1483],[-2.14051,42.03687,1008.5023],[-2.11664,42.02203,1111.5807],[-2.10666,42.00922,1252.6748],[-2.10418,42.00384,1340.144],[-2.10405,42.00131,1394.1449],[-2.10459,42.00007,1362.2847],[-2.10656,41.99883,1421.7114],[-2.11049,41.99589,1472.543],[-2.1154,41.99139,1346.1833],[-2.1172,41.98493,1298.3291],[-2.11612,41.97811,1166.4594],[-2.11064,41.96341,1125.4055],[-2.10537,41.95708,983.0292],[-2.09522,41.95274,991.969],[-2.04013,41.94204,767.3686],[-2.02336,41.94132,966.3517],[-1.99827,41.93351,1129.3337],[-1.98822,41.92773,1038.0758],[-1.97794,41.92054,1003.9363],[-1.96788,41.91845,917.3119],[-1.94386,41.92046,875.7076],[-1.93251,41.92256,830.6649],[-1.92246,41.92574,673.6049],[-1.90471,41.934,694.4381],[-1.89652,41.93878,771.9476],[-1.85774,41.9548,661.8994],[-1.84818,41.97819,663.3499],[-1.84453,41.98204,705.2798],[-1.85241,42.00121,609.5885],[-1.8906,42.02532,566.2487],[-1.89732,42.0356,505.6948],[-1.90133,42.0456,468.5808],[-1.9021,42.05438,443.9082],[-1.90148,42.06193,544.7589],[-1.89993,42.06937,566.9415],[-1.89605,42.07614,613.2854],[-1.85639,42.11154,424.9182],[-1.84182,42.12203,394.1962],[-1.83577,42.12787,380.1052],[-1.83198,42.13443,370.2663],[-1.82911,42.14079,355.0671],[-1.82342,42.14562,337.8474],[-1.81459,42.14694,330.803],[-1.8043,42.1459,320.2648],[-1.79231,42.14112,317.8768],[-1.78273,42.13929,320.6967],[-1.77423,42.13996,320.6302],[-1.75407,42.14639,317.6982],[-1.74459,42.14663,324.3823],[-1.73467,42.14422,363.4551],[-1.71309,42.13614,328.0401],[-1.70317,42.13634,335.7867],[-1.69413,42.13846,329.0332],[-1.68819,42.14306,325.3316],[-1.68578,42.14903,320.3052],[-1.68999,42.15639,310.9904],[-1.69227,42.16678,279.3714],[-1.69178,42.17153,279.5758],[-1.6901,42.1744,273.3525],[-1.68912,42.17681,273.0952],[-1.6886,42.18076,262.5078],[-1.69165,42.18704,263.1825],[-1.69775,42.19453,264.7345],[-1.69707,42.21582,267.0607],[-1.72694,42.23148,269.6868],[-1.74741,42.236,272.3427],[-1.79578,42.25649,324.175],[-1.82001,42.27287,390.6007],[-1.82931,42.27757,381.6438],[-1.8358,42.27814,336.2075],[-1.85125,42.27618,303.363],[-1.85727,42.27757,308.6158],[-1.86192,42.28419,297.5015],[-1.86215,42.29199,394.8132],[-1.86141,42.29943,376.7537],[-1.86347,42.30491,375.9117],[-1.90133,42.32538,368.7542],[-1.97675,42.39305,400.6711],[-2.0324,42.39297,389.7472],[-2.05561,42.39907,325.4405],[-2.06956,42.41478,315.7574],[-2.0648,42.41731,334.2752],[-2.06015,42.42356,368.7834],[-2.05527,42.42842,401.659],[-2.07651,42.44258,368.2136],[-2.10496,42.44516,438.7407],[-2.17195,42.44144,357.8431],[-2.19139,42.44294,357.7863],[-2.20601,42.4464,343.3037],[-2.21823,42.45343,367.1846],[-2.2303,42.46568,390.5823],[-2.23872,42.47198,414.1476],[-2.26789,42.48692,445.8708],[-2.27838,42.48986,421.1937],[-2.34326,42.48304,395.9852],[-2.38447,42.49467,395.2903],[-2.40607,42.4971,423.2623],[-2.42713,42.49937,432.3849],[-2.46204,42.50725,444.4902],[-2.49165,42.52009,453.6039],[-2.50152,42.53766,482.5203],[-2.51062,42.53523,424.4734],[-2.51806,42.53105,413.5933],[-2.52403,42.5251,423.4834],[-2.52883,42.51717,415.232],[-2.52651,42.51513,404.7906],[-2.52532,42.5143,403.1148],[-2.52418,42.51322,397.1532],[-2.52204,42.51035,398.1849],[-2.54165,42.51237,432.2805],[-2.55775,42.51084,514.3355],[-2.57134,42.50562,440.0871],[-2.58345,42.49668,476.5509],[-2.58513,42.51198,517.2319],[-2.59506,42.51751,502.2872],[-2.60617,42.51686,485.1298],[-2.61139,42.51376,472.8497],[-2.61787,42.50772,454.2771],[-2.63208,42.51252,492.0712],[-2.66745,42.53317,459.1778],[-2.67676,42.53689,478.1025],[-2.68466,42.53777,465.7864],[-2.68774,42.55342,530.8773],[-2.68725,42.56792,588.4321],[-2.68518,42.57471,619.4014],[-2.68564,42.58179,727.9992],[-2.68913,42.58949,946.5329],[-2.69944,42.59771,1116.1313],[-2.73399,42.61572,893.7906],[-2.7474,42.61869,888.5615],[-2.76184,42.61451,954.7505],[-2.76967,42.60882,805.4471],[-2.77339,42.60156,599.6058],[-2.77998,42.58562,506.7518],[-2.79349,42.58691,520.8497],[-2.80597,42.58236,498.5202],[-2.813,42.58081,487.7283],[-2.82104,42.58427,490.4978],[-2.82682,42.59019,454.4007],[-2.82677,42.596,476.9232],[-2.81478,42.60588,482.0481],[-2.81267,42.61109,549.2649],[-2.81623,42.62022,766.3584],[-2.82993,42.61381,529.5178]]]}
,"properties": {"ISO3166-1-Alpha-3": "ESP","country": "Spain","fill": "#F0F","name": "La Rioja","area_km2": 5323.566,"hist_schema_id": "Elevation0-9000","hist_area_km2": {"250": 0.518,"275": 75.054,"300": 118.041,"325": 106.663,"350": 111.776,"375": 120.921,"400": 133.142,"425": 144.451,"450": 154.143,"475": 169.234,"500": 185.425,"525": 179.764,"550": 178.11,"575": 177.211,"600": 184.053,"625": 155.787,"650": 136.894,"675": 118.137,"700": 109.009,"725": 104.151,"750": 95.318,"775": 86.213,"800": 83.179,"825": 83.364,"850": 80.773,"875": 81.712,"900": 80.869,"925": 84.987,"950": 85.473,"975": 88.312,"1000": 90.124,"1025": 92.512,"1050": 93.139,"1075": 91.602,"1100": 90.048,"1125": 88.76,"1150": 85.563,"1175": 81.345,"1200": 78.393,"1225": 76.766,"1250": 72.622,"1275": 70.071,"1300": 67.55,"1325": 62.501,"1350": 57.996,"1375": 52.8,"1400": 50.428,"1425": 46.611,"1450": 41.775,"1475": 39.766,"1500": 35.384,"1525": 32.826,"1550": 32.388,"1575": 29.875,"1600": 28.759,"1625": 28.114,"1650": 25.679,"1675": 23.038,"1700": 20.853,"1725": 19.518,"1750": 17.395,"1775": 15.209,"1800": 13.1,"1825": 11.764,"1850": 9.373,"1875": 7.861,"1900": 6.069,"1925": 4.968,"1950": 4.339,"1975": 3.522,"2000": 2.5,"2025": 2.076,"2050": 1.463,"2075": 1.432,"2100": 1.023,"2125": 0.945,"2150": 0.771,"2175": 0.11,"2225": 0.047,"2250": 0.078}}}