{"type":"Feature","properties":{"GID_1":"ESP.15_1","GID_0":"ESP","country":"Spain","province":"LaRioja","VARNAME_1":"Rioja","NL_NAME_1":"NA","TYPE_1":"ComunidadAutónoma","ENGTYPE_1":"AutonomousCommunity","CC_1":"17","HASC_1":"ES.LO","ISO_1":"ES-RI","name":"La_Rioja.province"},
"geometry":{"type": "MultiPolygon","coordinates": [[[[-2.0862,41.9544,1043.5131],[-2.0801,41.9544,1007.0166],[-2.0783,41.9513,1009.1425],[-2.0762,41.9509,989.6074],[-2.0622,41.9544,863.5889],[-2.0452,41.9501,840.5664],[-2.0443,41.9462,885.9956],[-2.0363,41.9394,714.6724],[-2.0359,41.9437,704.8438],[-2.0336,41.9436,731.2402],[-2.0343,41.9464,690.8944],[-2.0306,41.9481,681.8243],[-2.0298,41.9531,663.7927],[-2.0281,41.9531,663.7927],[-2.0214,41.9484,980.1497],[-2.0195,41.9445,1022.0647],[-2.016,41.9448,1025.0013],[-2.013,41.9408,1030.4711],[-2.0013,41.9385,1139.272],[-1.9983,41.9307,1127.9641],[-1.982,41.9193,1028.6439],[-1.9613,41.9203,952.1523],[-1.9548,41.9274,891.5251],[-1.9415,41.9254,885.7494],[-1.9353,41.927,880.8824],[-1.9326,41.9304,860.7151],[-1.9295,41.9295,824.6875],[-1.9214,41.9343,726.3139],[-1.9151,41.9323,664.1416],[-1.9111,41.9406,653.8044],[-1.905,41.943,636.739],[-1.9066,41.9456,673.7069],[-1.8906,41.9478,719.6673],[-1.8775,41.9524,757.9736],[-1.8565,41.9664,620.9856],[-1.8651,41.9776,604.4016],[-1.844,41.9873,749.1977],[-1.8513,41.9981,698.4196],[-1.847,42.0025,601.6929],[-1.8471,42.008,559.6203],[-1.849,42.0053,559.0622],[-1.8552,42.0026,572.8672],[-1.8608,42.0068,600.5024],[-1.8604,42.0097,634.069],[-1.8624,42.0102,642.1858],[-1.8648,42.0151,663.8439],[-1.872,42.0127,667.3929],[-1.8832,42.0243,632.5572],[-1.8829,42.0263,664.4428],[-1.8866,42.0275,652.8926],[-1.8962,42.0268,564.8064],[-1.8977,42.0288,520.3791],[-1.9015,42.0297,500.3366],[-1.905,42.0495,467.227],[-1.9032,42.0545,447.0804],[-1.907,42.0561,453.727],[-1.9092,42.0591,465.262],[-1.9062,42.0604,503.3224],[-1.9057,42.0671,561.6298],[-1.8927,42.085,562.186],[-1.8724,42.101,462.3201],[-1.8713,42.1035,476.645],[-1.8642,42.1072,451.3852],[-1.8594,42.115,422.4213],[-1.8402,42.1281,382.359],[-1.8374,42.1341,370.7775],[-1.8381,42.142,358.5044],[-1.8324,42.1482,348.9707],[-1.8216,42.1536,339.9273],[-1.8045,42.1477,320.4438],[-1.8003,42.1453,319.6654],[-1.7992,42.1417,319.0368],[-1.7819,42.1377,322.2093],[-1.779,42.1377,323.1471],[-1.7804,42.1413,320.2755],[-1.7702,42.1452,320.092],[-1.7647,42.1504,316.4388],[-1.7397,42.1497,361.767],[-1.7255,42.1418,329.9674],[-1.7198,42.1334,336.8043],[-1.7045,42.1393,325.697],[-1.6902,42.1484,323.9346],[-1.6796,42.1517,320.0502],[-1.6868,42.1564,310.0172],[-1.6933,42.158,309.3685],[-1.6994,42.1669,281.6061],[-1.7008,42.1731,276.1287],[-1.6969,42.1804,272.5125],[-1.679,42.1883,265.0746],[-1.6814,42.1924,266.0463],[-1.6857,42.194,262.929],[-1.688,42.1927,262.2568],[-1.6989,42.1936,264.1917],[-1.7001,42.1912,264.1375],[-1.7042,42.192,266.182],[-1.703,42.1958,265.3683],[-1.7067,42.2022,266.3398],[-1.7057,42.207,267.9348],[-1.7085,42.2097,267.131],[-1.7253,42.2145,268.5749],[-1.7272,42.2124,268.4648],[-1.7364,42.2153,269.5749],[-1.7407,42.2123,268.8156],[-1.7661,42.2217,270.8162],[-1.767,42.2157,271.2594],[-1.7694,42.2144,274.4589],[-1.773,42.215,274.999],[-1.7799,42.2243,272.4907],[-1.7875,42.2253,277.6272],[-1.7902,42.2229,274.5538],[-1.7999,42.2228,274.8982],[-1.8063,42.2279,275.188],[-1.8168,42.2295,280.0458],[-1.8197,42.2329,278.2701],[-1.8182,42.2461,277.4071],[-1.8205,42.2492,281.2437],[-1.8239,42.2484,277.8151],[-1.8249,42.2455,278.2408],[-1.8278,42.244,277.8836],[-1.8304,42.2445,280.2401],[-1.8489,42.2589,283.2067],[-1.8532,42.258,282.6006],[-1.8531,42.2521,282.57],[-1.8557,42.2497,282.033],[-1.8726,42.253,282.9364],[-1.8762,42.259,282.7086],[-1.868,42.2685,283.1729],[-1.8663,42.276,284.2391],[-1.8697,42.2813,285.9336],[-1.8706,42.289,293.356],[-1.8728,42.29,286.7029],[-1.8796,42.2871,286.5067],[-1.8843,42.2878,286.3716],[-1.8963,42.2915,296.8653],[-1.9146,42.3009,290.631],[-1.9076,42.3058,292.0424],[-1.907,42.3085,293.5219],[-1.9093,42.3111,291.1938],[-1.9162,42.3134,292.1369],[-1.9193,42.317,288.4496],[-1.9164,42.3243,292.306],[-1.9185,42.327,290.0689],[-1.9224,42.3271,292.417],[-1.932,42.3223,291.4614],[-1.9427,42.3353,293.728],[-1.9569,42.3356,293.7222],[-1.964,42.3337,295.8651],[-1.9688,42.3387,295.719],[-1.9646,42.3427,295.3157],[-1.97,42.3476,296.6382],[-1.9682,42.3505,303.4344],[-1.9695,42.3525,314.5097],[-1.9721,42.3537,297.3218],[-1.9786,42.3499,297.5973],[-1.9829,42.3568,298.7662],[-1.9912,42.3598,298.3217],[-1.9955,42.3636,304.9945],[-2.0066,42.361,300.9181],[-2.0114,42.3679,302.2395],[-2.0148,42.3693,301.6408],[-2.0195,42.3685,302.5866],[-2.0289,42.3626,306.1187],[-2.0455,42.359,304.6154],[-2.0458,42.3562,321.3759],[-2.0517,42.3512,336.0375],[-2.0617,42.3476,362.8971],[-2.0699,42.3425,407.5358],[-2.0899,42.347,411.8138],[-2.09,42.3555,379.0049],[-2.0873,42.3599,380.7961],[-2.0789,42.3665,347.3443],[-2.0789,42.3688,343.3884],[-2.0928,42.3758,365.4765],[-2.0875,42.3836,365.5935],[-2.1099,42.3935,432.5764],[-2.1156,42.3995,412.2888],[-2.105,42.4159,339.3886],[-2.1112,42.4196,336.5843],[-2.127,42.4203,402.6746],[-2.1278,42.419,402.6746],[-2.1329,42.4212,411.032],[-2.1396,42.4206,418.4654],[-2.1479,42.4161,323.4538],[-2.1517,42.4186,327.174],[-2.1552,42.4174,322.514],[-2.1584,42.4102,325.1422],[-2.1628,42.4085,336.1382],[-2.1764,42.4081,359.3299],[-2.1821,42.4164,327.5962],[-2.1867,42.4188,328.893],[-2.1989,42.4192,327.9318],[-2.2049,42.4154,327.999],[-2.2162,42.4156,329.2612],[-2.2113,42.4196,329.0745],[-2.2116,42.4225,329.9174],[-2.2142,42.4242,328.6484],[-2.2192,42.4257,329.8569],[-2.2325,42.4255,333.0155],[-2.2411,42.4301,349.201],[-2.2361,42.4374,331.8746],[-2.2379,42.4404,335.0121],[-2.2645,42.4499,337.3495],[-2.2693,42.4449,338.263],[-2.2737,42.4452,340.0596],[-2.277,42.4478,339.3407],[-2.2789,42.4558,345.0151],[-2.2876,42.4604,348.9303],[-2.288,42.4674,350.0901],[-2.2968,42.4681,345.4147],[-2.2969,42.4649,344.6847],[-2.2932,42.46,340.6886],[-2.2974,42.4575,341.6593],[-2.3087,42.4619,344.8591],[-2.3168,42.4621,351.3261],[-2.3258,42.4682,345.17],[-2.3319,42.4681,347.0148],[-2.3364,42.4642,346.7661],[-2.3314,42.4574,348.5725],[-2.3318,42.454,350.365],[-2.3458,42.4514,353.5458],[-2.3476,42.4527,349.4922],[-2.3522,42.4656,355.0997],[-2.3581,42.467,362.8058],[-2.363,42.4617,356.34],[-2.3709,42.4644,357.6478],[-2.3714,42.4707,360.2938],[-2.3767,42.4736,360.8607],[-2.384,42.4704,360.0127],[-2.39,42.4706,363.3717],[-2.3958,42.4735,364.2273],[-2.4001,42.4718,361.0923],[-2.4156,42.4906,393.9057],[-2.4207,42.4893,395.2175],[-2.4385,42.4894,408.2662],[-2.4491,42.4969,441.7432],[-2.4725,42.4925,428.7206],[-2.477,42.4868,373.9032],[-2.5147,42.4901,394.0158],[-2.5191,42.4957,377.3271],[-2.518,42.4996,373.8458],[-2.5101,42.505,380.1324],[-2.5053,42.5135,379.9454],[-2.5072,42.5187,381.1522],[-2.5097,42.5201,377.892],[-2.5139,42.5183,378.3008],[-2.5195,42.508,394.9181],[-2.5378,42.494,381.4915],[-2.5377,42.4901,384.7007],[-2.5293,42.4854,380.5],[-2.5298,42.4839,380.5],[-2.5568,42.4851,399.7921],[-2.5675,42.4941,397.4507],[-2.5745,42.491,397.1298],[-2.578,42.483,388.5555],[-2.5914,42.4826,403.306],[-2.5921,42.4803,391.8681],[-2.5872,42.4741,398.4338],[-2.5929,42.4722,394.7226],[-2.5969,42.4729,392.0389],[-2.6005,42.4755,392.9156],[-2.6024,42.4795,402.4019],[-2.5982,42.4883,412.525],[-2.5937,42.4897,402.2863],[-2.5922,42.4918,397.6435],[-2.6054,42.5035,402.3187],[-2.6101,42.4959,403.3027],[-2.6285,42.4956,423.5186],[-2.6309,42.4902,404.0417],[-2.6395,42.4845,406.0809],[-2.6477,42.4833,415.3635],[-2.6498,42.4855,404.158],[-2.6565,42.504,418.5842],[-2.6657,42.5098,425.6919],[-2.6757,42.509,420.6226],[-2.6773,42.5101,413.0389],[-2.6757,42.5257,480.5817],[-2.6815,42.5237,429.078],[-2.6853,42.5202,438.2952],[-2.7054,42.5168,422.4241],[-2.6914,42.5428,496.2688],[-2.687,42.5597,580.152],[-2.686,42.5831,785.7596],[-2.6805,42.5945,1096.3911],[-2.7063,42.5998,1157.3651],[-2.7189,42.6062,1143.3174],[-2.7281,42.6136,971.7886],[-2.7305,42.6176,943.9869],[-2.7368,42.6195,993.8282],[-2.7407,42.6225,967.6008],[-2.7494,42.6237,1167.6555],[-2.7566,42.619,1195.9972],[-2.7637,42.6228,1198.5784],[-2.7737,42.6071,704.0192],[-2.7718,42.5963,563.8893],[-2.7788,42.5848,498.3153],[-2.7776,42.5818,515.4261],[-2.7804,42.5796,508.6148],[-2.7893,42.5782,518.212],[-2.7983,42.5738,486.8405],[-2.8002,42.5665,440.3578],[-2.8034,42.5646,437.1177],[-2.813,42.5696,435.931],[-2.8158,42.5678,436.489],[-2.8174,42.5577,436.8411],[-2.82,42.555,447.8863],[-2.8249,42.5549,440.8033],[-2.8284,42.5637,437.663],[-2.8376,42.5711,437.8641],[-2.8407,42.5816,441.189],[-2.8223,42.589,442.3389],[-2.8194,42.5921,440.1229],[-2.8189,42.5996,441.2864],[-2.8236,42.6014,441.5006],[-2.8194,42.6091,523.2213],[-2.8198,42.6145,628.4763],[-2.8343,42.6092,513.7886],[-2.8417,42.6086,458.3996],[-2.8444,42.6143,446.449],[-2.848,42.6172,446.5063],[-2.843,42.6234,451.4475],[-2.8428,42.6296,452.0995],[-2.858,42.6382,449.4298],[-2.864,42.6332,485.5875],[-2.8762,42.631,516.0133],[-2.8835,42.6244,731.3414],[-2.8821,42.6207,762.1083],[-2.8939,42.6213,721.1281],[-2.8904,42.6257,666.6235],[-2.8927,42.6277,644.9118],[-2.9044,42.6265,813.2582],[-2.9044,42.6202,795.7711],[-2.916,42.6195,839.8167],[-2.9241,42.6217,839.1718],[-2.9334,42.6345,762.0209],[-2.9464,42.6393,838.5242],[-2.9526,42.6386,829.9005],[-2.9703,42.6411,633.8911],[-2.9758,42.6391,659.1761],[-2.98,42.6353,704.2764],[-2.9859,42.6363,877.7427],[-2.9899,42.6423,667.2931],[-2.9951,42.6419,661.3395],[-3.0047,42.6443,671.8878],[-3.0087,42.6408,704.8193],[-3.0144,42.6404,693.4518],[-3.018,42.6322,660.1016],[-3.0294,42.6382,673.2245],[-3.0407,42.64,766.8885],[-3.0693,42.6388,845.556],[-3.0841,42.6407,820.2519],[-3.0847,42.6353,949.0745],[-3.081,42.6313,890.5387],[-3.0863,42.6277,967.5623],[-3.0795,42.6261,989.6027],[-3.0781,42.6237,916.775],[-3.0704,42.6214,854.2138],[-3.0652,42.6065,688.6669],[-3.0604,42.6026,672.7826],[-3.0603,42.6006,666.4055],[-3.0646,42.5983,682.8532],[-3.0649,42.5935,689.0687],[-3.0598,42.5892,684.3403],[-3.068,42.5889,694.252],[-3.0793,42.5837,750.8157],[-3.0861,42.5822,788.0087],[-3.0823,42.574,776.9696],[-3.0882,42.5671,764.7432],[-3.1024,42.5594,689.6267],[-3.1042,42.5568,676.376],[-3.1037,42.5531,679.6189],[-3.1054,42.5539,669.3427],[-3.1149,42.5513,722.6579],[-3.1263,42.5438,772.6734],[-3.1342,42.542,791.9277],[-3.1253,42.5331,778.6979],[-3.1173,42.5323,773.9539],[-3.1074,42.5288,770.8455],[-3.0999,42.5362,764.3668],[-3.0967,42.5346,711.7939],[-3.0892,42.5383,647.1971],[-3.0826,42.5337,638.1492],[-3.084,42.5322,639.9181],[-3.0812,42.5312,637.4644],[-3.0764,42.5322,649.5476],[-3.0717,42.5277,626.5059],[-3.076,42.5202,618.9977],[-3.0739,42.5157,616.114],[-3.0753,42.5065,636.5959],[-3.0792,42.4991,634.0759],[-3.0932,42.4915,621.3647],[-3.0946,42.4881,634.0016],[-3.0939,42.4863,654.4518],[-3.0914,42.4863,653.0728],[-3.0904,42.4779,652.3542],[-3.0892,42.4789,654.2322],[-3.0822,42.4745,757.6902],[-3.0733,42.4765,737.236],[-3.0641,42.4709,685.3615],[-3.0609,42.462,695.7269],[-3.0459,42.4451,738.139],[-3.0576,42.4339,778.9443],[-3.0632,42.4249,818.2076],[-3.0573,42.4171,844.1848],[-3.0589,42.4099,892.172],[-3.064,42.4043,972.6297],[-3.0559,42.3851,1169.7574],[-3.0531,42.3734,1215.595],[-3.0576,42.3701,1220.6552],[-3.0644,42.3733,1191.2841],[-3.0678,42.38,1164.6436],[-3.0735,42.3856,1145.103],[-3.075,42.3916,1128.8699],[-3.0786,42.3914,1097.5115],[-3.0826,42.3974,1061.7211],[-3.0785,42.4075,920.6714],[-3.0781,42.4157,815.3568],[-3.0903,42.4224,851.41],[-3.0905,42.4199,827.8474],[-3.0963,42.4169,849.864],[-3.1013,42.4168,814.0975],[-3.0988,42.4085,873.3993],[-3.0957,42.4052,850.0343],[-3.0969,42.3986,873.5208],[-3.1034,42.3903,924.8675],[-3.1043,42.3854,942.2651],[-3.0948,42.3837,1116.739],[-3.0848,42.3854,955.2751],[-3.0632,42.3628,1114.3461],[-3.0636,42.3561,1159.2974],[-3.0875,42.3522,1203.0641],[-3.1092,42.3519,1072.629],[-3.1106,42.3386,1135.1962],[-3.1002,42.3284,1201.7059],[-3.0958,42.3269,1238.7322],[-3.098,42.3223,1306.6604],[-3.1033,42.3208,1308.1382],[-3.1066,42.3126,1260.0808],[-3.1026,42.3089,1323.3066],[-3.1035,42.3059,1398.0828],[-3.0958,42.2874,1458.2112],[-3.0961,42.279,1711.2941],[-3.0896,42.273,1862.8713],[-3.0977,42.2631,1827.7],[-3.0885,42.2457,1981.1057],[-3.0923,42.2447,2010.4358],[-3.1024,42.2322,2016.3381],[-3.0996,42.2272,1977.79],[-3.1014,42.2171,1865.0369],[-3.1059,42.2118,1808.5365],[-3.1133,42.2095,1718.4746],[-3.1187,42.2045,1725.9696],[-3.1288,42.2009,1694.1605],[-3.1293,42.1995,1672.7461],[-3.1251,42.1932,1465.8798],[-3.1153,42.1883,1540.63],[-3.1149,42.1788,1455.5793],[-3.1124,42.1758,1404.9413],[-3.109,42.1763,1370.8933],[-3.1017,42.1718,1298.9595],[-3.1019,42.17,1320.6445],[-3.0965,42.1694,1299.4041],[-3.0997,42.1674,1308.4176],[-3.0898,42.1593,1368.7668],[-3.0906,42.1486,1201.7528],[-3.0861,42.1355,1271.3512],[-3.0837,42.1334,1367.897],[-3.0736,42.1358,1308.6592],[-3.0661,42.1333,1304.9614],[-3.0589,42.127,1307.5256],[-3.0343,42.086,1802.7195],[-3.0234,42.0893,1846.5004],[-3.0146,42.0884,1794.7668],[-3.0038,42.0833,1688.3242],[-2.9931,42.0875,1466.6984],[-2.9794,42.0841,1190.4915],[-2.9605,42.0844,1585.2218],[-2.9586,42.0859,1588.9114],[-2.9353,42.0894,1788.2473],[-2.9311,42.0868,1690.4562],[-2.9324,42.0809,1748.5217],[-2.9279,42.0741,1847.3069],[-2.9269,42.0665,1960.9944],[-2.9229,42.0612,1835.1453],[-2.9204,42.0492,1792.1887],[-2.9152,42.039,1710.4269],[-2.9136,42.0228,2033.8048],[-2.8911,42.017,2084.1108],[-2.8894,42.0104,2142.1238],[-2.8838,42.0095,2129.7227],[-2.8695,42.015,2066.3428],[-2.8678,42.0178,2087.0356],[-2.8623,42.0192,2007.1068],[-2.8582,42.0227,1997.0386],[-2.8567,42.0288,1910.601],[-2.8446,42.0345,1879.0464],[-2.8402,42.0345,1879.5354],[-2.8236,42.041,1821.6313],[-2.8126,42.0366,1871.8862],[-2.8041,42.0463,1848.7902],[-2.7979,42.0468,1879.986],[-2.7983,42.0593,1804.9565],[-2.7949,42.0635,1753.5881],[-2.7968,42.0725,1672.0054],[-2.7984,42.0754,1661.4349],[-2.8032,42.0781,1664.7531],[-2.8033,42.0805,1640.1921],[-2.7901,42.0942,1607.1532],[-2.7901,42.0976,1589.1987],[-2.7932,42.101,1667.6899],[-2.7915,42.1087,1638.7621],[-2.7821,42.1141,1648.5479],[-2.7748,42.1235,1618.2345],[-2.7654,42.1248,1609.9724],[-2.7511,42.1178,1501.8441],[-2.7463,42.1239,1384.2521],[-2.7384,42.1248,1347.165],[-2.7284,42.1229,1299.2278],[-2.7222,42.1157,1215.6328],[-2.7067,42.1057,1158.0845],[-2.706,42.1025,1111.002],[-2.7088,42.1014,1135.4133],[-2.7104,42.0964,1270.821],[-2.7075,42.0905,1462.144],[-2.7084,42.0863,1650.6631],[-2.7225,42.0725,1723.6099],[-2.7255,42.0713,1802.2483],[-2.7273,42.0656,1844.4482],[-2.7345,42.06,1829.0668],[-2.7384,42.0497,1853.3761],[-2.7575,42.0326,1978.2627],[-2.755,42.03,1970.0735],[-2.7557,42.0239,1935.1968],[-2.7487,42.0151,2019.7026],[-2.7461,42.0087,2028.6918],[-2.7271,42.015,1926.1423],[-2.7202,42.0158,1910.5129],[-2.7102,42.0137,1974.3567],[-2.7057,42.0151,2026.7167],[-2.6962,42.0107,1992.0511],[-2.6871,42.0014,2063.3789],[-2.6735,41.9981,2126.1216],[-2.6618,42.0029,2122.1956],[-2.6597,42.0054,2120.3572],[-2.65,42.0038,2067.7109],[-2.6266,42.0065,1925.3472],[-2.6244,42.0049,1896.9299],[-2.615,42.0058,1842.4252],[-2.6096,42.0029,1818.6868],[-2.5965,42.0019,1843.2356],[-2.5798,41.9963,1827.5514],[-2.5752,42.0067,1735.3812],[-2.5652,42.014,1745.0502],[-2.556,42.0348,1780.0981],[-2.5512,42.0389,1905.0028],[-2.552,42.0456,1827.7096],[-2.549,42.0515,1915.1995],[-2.5395,42.055,1707.3058],[-2.5324,42.0552,1717.1238],[-2.5148,42.0689,1768.7416],[-2.5147,42.0742,1757.0255],[-2.5193,42.081,1718.1139],[-2.5226,42.0829,1736.0432],[-2.5215,42.0875,1684.113],[-2.5182,42.0908,1687.2224],[-2.5193,42.098,1647.28],[-2.5162,42.1027,1621.3721],[-2.5164,42.1108,1632.6764],[-2.5146,42.1145,1646.3796],[-2.5085,42.1154,1642.662],[-2.501,42.1124,1610.3413],[-2.4958,42.1129,1555.3068],[-2.4903,42.111,1498.2883],[-2.4843,42.1063,1550.3838],[-2.4744,42.1111,1576.7111],[-2.4717,42.1143,1582.0977],[-2.4586,42.1153,1683.6455],[-2.4535,42.1213,1702.5615],[-2.4485,42.1241,1749.0177],[-2.4464,42.1322,1732.2301],[-2.4384,42.1373,1726.8719],[-2.4269,42.1358,1744.8149],[-2.4176,42.139,1695.1685],[-2.4013,42.1396,1647.7433],[-2.3972,42.1369,1647.0713],[-2.3878,42.1425,1503.5342],[-2.3761,42.1414,1482.4491],[-2.3706,42.1434,1540.9155],[-2.351,42.1449,1496.7676],[-2.3481,42.1467,1511.0281],[-2.3439,42.1455,1467.1101],[-2.3321,42.146,1509.1023],[-2.3268,42.1437,1449.1547],[-2.3191,42.1452,1357.9059],[-2.2821,42.1317,1017.1353],[-2.2789,42.1224,1134.317],[-2.2825,42.1188,1228.4375],[-2.2806,42.1143,1299.5339],[-2.2817,42.1084,1397.3124],[-2.2695,42.0886,1638.3776],[-2.2588,42.0873,1581.2506],[-2.2378,42.1022,1328.5872],[-2.2307,42.1015,1319.4734],[-2.224,42.0982,1331.8567],[-2.2166,42.1001,1325.4734],[-2.2088,42.1047,1261.8625],[-2.1985,42.1025,1256.6055],[-2.1756,42.1048,1179.1636],[-2.1481,42.1045,1032.9059],[-2.1367,42.1031,1010.8214],[-2.1273,42.0972,990.1959],[-2.1284,42.0896,888.6052],[-2.1268,42.0881,825.2659],[-2.127,42.0809,914.2374],[-2.1353,42.0746,1134.2771],[-2.1421,42.0742,1108.8186],[-2.1516,42.0689,1155.0006],[-2.1619,42.0667,1259.184],[-2.1585,42.06,1339.3014],[-2.1589,42.0559,1258.3041],[-2.1547,42.047,1015.777],[-2.1499,42.045,1035.29],[-2.1505,42.0422,1110.1323],[-2.1448,42.0416,1166.025],[-2.1288,42.0262,1109.5535],[-2.117,42.0215,1111.5807],[-2.1152,42.0115,1302.3131],[-2.1076,42.0028,1437.8438],[-2.112,41.997,1472.543],[-2.1194,41.9971,1504.2751],[-2.124,41.9953,1489.9895],[-2.1198,41.9861,1344.5045],[-2.1192,41.9766,1246.8936],[-2.1162,41.9747,1227.9651],[-2.116,41.9636,1168.5425],[-2.1099,41.9579,1095.5378],[-2.1004,41.9553,976.9904],[-2.0911,41.9563,1046.0959],[-2.0862,41.9544,1043.5131]]]]}}