{"type":"Feature","properties":{"GID_3":"ESP.1.2.1_1","GID_0":"ESP","country":"Spain","GID_1":"ESP.1_1","province":"Andalucía","NL_NAME_1":"NA","GID_2":"ESP.1.2_1","county":"Cádiz","NL_NAME_2":"NA","city":"BahíadeCádiz","VARNAME_3":"NA","NL_NAME_3":"NA","TYPE_3":"Comarca","ENGTYPE_3":"Comarca","CC_3":"NA","HASC_3":"NA","name":"Bahíade_Cádiz.city"},
"geometry":{"type": "MultiPolygon","coordinates": [[[[-6.0716,36.4635,83.7667],[-6.0706,36.4686,81.5949],[-6.0631,36.4743,103.2059],[-6.0429,36.4808,107.3926],[-6.0293,36.4893,129.362],[-6.0191,36.4933,87.0838],[-5.98,36.5186,103.7294],[-5.9801,36.5215,98.8436],[-5.997,36.5286,112.2278],[-5.9966,36.5399,112.1285],[-5.9981,36.5419,100.1724],[-5.9883,36.5466,69.655],[-5.9942,36.5497,85.6557],[-6.0021,36.559,106.8517],[-6.0093,36.562,115.8678],[-6.016,36.5523,100.71],[-6.0222,36.5495,54.4604],[-6.0424,36.5631,43.856],[-6.0458,36.5614,41.7195],[-6.0488,36.5626,34.709],[-6.0544,36.559,28.0598],[-6.057,36.5596,33.0085],[-6.0605,36.5582,25.0284],[-6.0682,36.5619,22.5055],[-6.0699,36.5646,20.5449],[-6.0798,36.5637,25.8756],[-6.085,36.5664,25.2439],[-6.0914,36.5632,12.6649],[-6.0964,36.5666,10.9614],[-6.1007999999999996,36.5654,9.7547],[-6.1163,36.5735,4.5275],[-6.1175,36.5774,3.9613],[-6.1322,36.5936,1.4338],[-6.153,36.5994,0.6755],[-6.1482,36.6037,1.1462],[-6.1439,36.602,1.7149],[-6.1431,36.6048,0.369],[-6.1395,36.6049,0.6846],[-6.1413,36.6143,1.1391],[-6.1395,36.6152,1.1391],[-6.1422,36.6221,3.7334],[-6.1537,36.6364,110.3808],[-6.1594,36.6403,106.4066],[-6.1606,36.6392,98.6988],[-6.1746,36.642,86.0195],[-6.1854,36.6486,37.3196],[-6.1842,36.6509,23.9783],[-6.1905,36.6525,30.6416],[-6.1895,36.6541,29.0137],[-6.1939,36.6568,22.9904],[-6.202,36.6566,30.2835],[-6.204,36.6576,36.2035],[-6.2017,36.6594,51.7987],[-6.2037,36.661,33.5182],[-6.2061,36.6605,42.5099],[-6.2078,36.6639,38.0182],[-6.2285,36.6736,65.1495],[-6.239,36.6844,52.4807],[-6.239,36.6935,57.3318],[-6.2553,36.7061,84.135],[-6.2779,36.7098,42.0046],[-6.282,36.7135,28.6719],[-6.3032,36.7189,25.7577],[-6.3155,36.7133,22.5167],[-6.3151,36.7115,19.7475],[-6.3229,36.7027,23.3059],[-6.3141,36.6945,16.6942],[-6.3149,36.6851,15.1278],[-6.3084,36.6783,15.439],[-6.3073,36.6689,18.6921],[-6.3126,36.6684,10.2218],[-6.3136,36.6656,10.2941],[-6.3105,36.6606,8.5108],[-6.3025,36.6585,6.9053],[-6.2962,36.6528,5.881],[-6.3003,36.6484,4.5382],[-6.3011,36.6439,4.8595],[-6.3062,36.6368,14.0277],[-6.2987,36.6168,0.4967],[-6.2935,36.6129,0.0],[-6.2876,36.6113,2.6215],[-6.2768,36.6007,23.4056],[-6.2701,36.5893,7.0719],[-6.2696,36.5829,0.0],[-6.266,36.5796,0.0],[-6.2621,36.5804,1.3175],[-6.2543,36.5774,0.3535],[-6.2499,36.5799,0.0],[-6.2493,36.584,14.0819],[-6.2413,36.5865,3.0004],[-6.2368,36.586,3.4381],[-6.236,36.5846,0.8789],[-6.2312,36.5876,0.0],[-6.2304,36.5874,0.0],[-6.2349,36.584,0.0],[-6.2349,36.5824,2.2206],[-6.2385,36.5804,0.0],[-6.2385,36.579,0.0],[-6.2362,36.5785,0.3489],[-6.2301,36.5815,1.388],[-6.2271,36.5807,2.985],[-6.2232,36.5682,1.4047],[-6.2246,36.5635,0.0],[-6.2235,36.5604,1.9579],[-6.2243,36.5524,1.323],[-6.2265,36.5515,0.0],[-6.2257,36.5479,0.9082],[-6.2318,36.5337,0.8158],[-6.2307,36.5274,0.176],[-6.2229,36.5271,0.3274],[-6.2176,36.5299,0.0],[-6.2093,36.549,0.2937],[-6.2068,36.5607,0.0],[-6.2138,36.5679,1.1286],[-6.2143,36.5713,0.7573],[-6.2054,36.5629,0.0],[-6.2051,36.5568,3.4979],[-6.2079,36.546,1.6066],[-6.2187,36.5265,2.9877],[-6.2337,36.5243,3.3754],[-6.2418,36.5285,2.7442],[-6.256,36.5293,1.4596],[-6.2549,36.5251,4.5265],[-6.2574,36.5243,0.9026],[-6.2565,36.5207,2.5709],[-6.2474,36.5187,0.5802],[-6.2496,36.5168,0.4066],[-6.2496,36.5137,0.0],[-6.2457,36.5085,0.0],[-6.249,36.5049,0.0],[-6.2438,36.5079,0.0],[-6.2329,36.5035,0.0],[-6.2143,36.511,0.0],[-6.2087,36.5088,0.0],[-6.2024,36.5179,0.0],[-6.1965,36.5221,0.0],[-6.2001,36.524,0.0],[-6.1985,36.5251,0.0],[-6.1993,36.5276,0.5038],[-6.1921,36.5249,0.4653],[-6.1832,36.5249,0.6235],[-6.1749,36.5224,7.3159],[-6.1718,36.5129,0.0],[-6.1732,36.5096,0.0],[-6.1815,36.5079,0.0],[-6.1824,36.5054,0.1213],[-6.1882,36.5018,0.0],[-6.179,36.4918,0.0],[-6.1796,36.4874,0.3364],[-6.189,36.4985,1.0571],[-6.1996,36.5004,0.0],[-6.1946,36.4954,0.0],[-6.1943,36.4907,0.0],[-6.1968,36.486,0.0],[-6.2018,36.4854,2.1865],[-6.2057,36.481,0.4256],[-6.2129,36.481,1.0485],[-6.2118,36.4724,0.0],[-6.2143,36.4682,0.7337],[-6.2199,36.466,0.3608],[-6.2279,36.4668,0.0],[-6.2287,36.4629,0.3786],[-6.239,36.4637,1.5177],[-6.2549,36.4696,3.4638],[-6.2596,36.4754,3.3957],[-6.2657,36.4876,2.9109],[-6.266,36.4899,1.3186],[-6.2621,36.4918,0.0],[-6.2621,36.4965,0.4841],[-6.2546,36.5007,0.0],[-6.2565,36.5024,0.0],[-6.2576,36.4999,2.3078],[-6.2607,36.5004,4.709],[-6.2624,36.5015,0.9103],[-6.2612,36.5046,0.0],[-6.2629,36.5071,2.0866],[-6.2661,36.5085,3.1442],[-6.2685,36.5068,5.3058],[-6.2685,36.5096,0.4375],[-6.2718,36.5135,3.8561],[-6.2762,36.5243,4.2731],[-6.2779,36.5238,2.1226],[-6.2801,36.526,0.0],[-6.2737,36.5285,0.0],[-6.2762,36.5307,2.4884],[-6.2735,36.5321,2.408],[-6.2721,36.5371,0.0],[-6.2762,36.536,0.0],[-6.2757,36.5332,0.6295],[-6.2796,36.5304,3.1667],[-6.2815,36.5307,1.3677],[-6.2818,36.5329,0.0],[-6.2851,36.5304,4.6398],[-6.2849,36.5332,2.602],[-6.2824,36.5332,0.0],[-6.2843,36.5346,1.5246],[-6.289,36.5315,2.1609],[-6.2913,36.5321,0.0],[-6.2913,36.5337,0.0],[-6.2851,36.5393,0.0],[-6.279,36.5421,0.0],[-6.2862,36.5432,1.6582],[-6.2921,36.5371,0.0],[-6.3021,36.5377,0.0],[-6.3079,36.5351,8.3494],[-6.3088,36.5324,0.0],[-6.3055,36.5309,11.743],[-6.3062,36.5276,1.1035],[-6.2968,36.5288,15.4189],[-6.2921,36.5268,2.7511],[-6.2865,36.5213,11.835],[-6.286,36.5168,0.4121],[-6.2693,36.4927,3.5506],[-6.2582,36.4721,3.4923],[-6.2571,36.4682,0.836],[-6.2582,36.4663,0.0],[-6.2515,36.4565,1.855],[-6.2524,36.4549,1.6602],[-6.2485,36.4441,0.0],[-6.2474,36.4435,0.0],[-6.2482,36.4479,0.0],[-6.246,36.4479,1.574],[-6.2332,36.4362,2.0046],[-6.2312,36.4274,0.0],[-6.2237,36.4176,1.7926],[-6.219,36.406,1.9809],[-6.2196,36.4038,0.0],[-6.2176,36.4004,1.2985],[-6.2185,36.394,1.2727],[-6.2171,36.3924,1.7947],[-6.2126,36.3921,1.611],[-6.211,36.399,0.0],[-6.2168,36.414,0.0],[-6.2151,36.4249,0.0],[-6.2118,36.4304,0.0],[-6.2118,36.4338,0.0],[-6.206,36.439,0.3031],[-6.2063,36.4424,0.5536],[-6.1965,36.4429,0.0626],[-6.1879,36.4349,0.0],[-6.1857,36.4351,0.0],[-6.1849,36.4412,0.4421],[-6.1838,36.4412,0.2007],[-6.1818,36.4371,0.1352],[-6.1849,36.4338,0.0],[-6.1932,36.4354,0.6759],[-6.1996,36.4393,0.0226],[-6.2023,36.4388,0.0],[-6.2099,36.426,0.283],[-6.2121,36.4162,0.0],[-6.2107,36.4113,0.0593],[-6.2065,36.4071,0.0723],[-6.2085,36.4043,0.0],[-6.204,36.4065,0.0],[-6.1985,36.4065,0.0],[-6.1951,36.404,0.0],[-6.1962,36.4029,0.0],[-6.2043,36.4038,0.0],[-6.206,36.3974,0.0],[-6.2085,36.3974,0.0],[-6.2093,36.3957,0.0],[-6.2076,36.3876,1.278],[-6.2099,36.3851,0.0],[-6.2074,36.3846,-0.0774],[-6.1985,36.3768,0.3289],[-6.1838,36.3704,1.5893],[-6.179,36.3654,0.0],[-6.1694,36.3504,1.1616],[-6.1618,36.3307,13.4899],[-6.1355,36.3411,29.3088],[-6.0861,36.3431,62.0277],[-6.0473,36.3465,94.2342],[-6.0179,36.3425,72.0762],[-6.0032,36.348,55.2758],[-6.0005,36.3527,42.7031],[-6.0018,36.3573,64.4572],[-5.9987,36.3698,100.9447],[-5.9936,36.3729,81.6835],[-5.9995,36.3773,139.5678],[-6.0249,36.4043,112.1124],[-6.0357,36.4243,63.7886],[-6.0484,36.435,44.1633],[-6.0564,36.4484,98.2783],[-6.072,36.4615,78.9305],[-6.0716,36.4635,83.7667]]],
[[[-6.2193,36.381,0.0],[-6.2215,36.3807,0.0],[-6.2204,36.3768,0.0],[-6.2196,36.3776,0.0],[-6.2193,36.381,0.0]]],
[[[-6.3163,36.5289,-0.1956],[-6.3179,36.5293,-0.1956],[-6.3171,36.5265,-0.2049],[-6.3132,36.5271,0.9003],[-6.3135,36.5282,0.9003],[-6.3163,36.5289,-0.1956]]]]}}