{"type":"Feature","properties":{"ISO3166-1-Alpha-3":"ESP","country":"Spain","fill":"#FF0","id":"5826","name":"Jaén"},
"geometry":{"type": "Polygon","coordinates": [[[-2.67521,38.50023,805.3322],[-2.71854,38.51429,771.8281],[-2.75603,38.53313,701.5462],[-2.76768,38.52421,707.2759],[-2.77008,38.52052,681.0204],[-2.79086,38.50706,673.4064],[-2.8069,38.50049,655.556],[-2.80737,38.49992,679.9325],[-2.81127,38.49755,654.6653],[-2.81659,38.49584,670.201],[-2.84489,38.48344,632.4352],[-2.85091,38.47995,626.9368],[-2.85964,38.47347,612.5109],[-2.8616,38.47091,600.3564],[-2.86336,38.46905,634.815],[-2.86517,38.46783,665.1063],[-2.87065,38.46571,634.163],[-2.87333,38.46403,604.813],[-2.8755,38.46194,693.8115],[-2.87899,38.4606,602.7705],[-2.88385,38.46155,674.9078],[-2.89504,38.4669,724.7673],[-2.90274,38.47192,826.3846],[-2.91312,38.47465,844.5436],[-2.92346,38.47633,855.2913],[-2.93814,38.47595,844.3301],[-2.9508,38.47447,854.7017],[-2.96656,38.46861,864.0066],[-2.98681,38.45721,783.4994],[-2.99273,38.45197,831.9441],[-2.99513,38.43853,773.4091],[-2.99707,38.43305,767.2756],[-3.00087,38.43006,764.6072],[-3.00937,38.43445,787.4694],[-3.02319,38.44634,828.3171],[-3.04635,38.47292,787.8292],[-3.05296,38.47897,837.7427],[-3.06061,38.48261,828.9325],[-3.0697,38.48272,821.9928],[-3.09849,38.46858,745.1221],[-3.11353,38.45755,808.7147],[-3.12327,38.4538,770.3832],[-3.13735,38.4528,738.3179],[-3.17083,38.46096,628.1237],[-3.24029,38.46372,755.1786],[-3.25956,38.46675,651.4064],[-3.27793,38.47166,714.9883],[-3.29571,38.47869,775.0248],[-3.30742,38.48189,888.4041],[-3.32281,38.48241,996.0149],[-3.34579,38.4798,969.0146],[-3.36188,38.47326,868.6631],[-3.36956,38.46623,761.0884],[-3.37361,38.45889,746.4393],[-3.37563,38.45176,741.9525],[-3.37666,38.44476,729.0967],[-3.38139,38.43864,733.3879],[-3.39594,38.42644,730.3806],[-3.41906,38.41505,1029.4735],[-3.44521,38.40649,1031.3401],[-3.45733,38.40484,950.3726],[-3.46958,38.40448,811.7119],[-3.48606,38.40644,792.4243],[-3.51908,38.41334,999.043],[-3.52637,38.41714,873.2247],[-3.5304,38.42339,737.8093],[-3.53311,38.43026,714.7935],[-3.53456,38.4374,811.4659],[-3.53807,38.44365,794.4323],[-3.54384,38.44882,904.2264],[-3.5536,38.45016,908.1605],[-3.56639,38.44913,979.2675],[-3.57675,38.44349,855.672],[-3.5806,38.4359,896.4821],[-3.58487,38.41365,958.1553],[-3.58874,38.40768,1125.7808],[-3.59603,38.40399,1168.2585],[-3.60706,38.40169,1183.9178],[-3.61985,38.40143,1053.1512],[-3.67197,38.41156,1046.4493],[-3.69217,38.41347,940.97],[-3.71747,38.4221,854.6257],[-3.72558,38.4228,929.9846],[-3.73266,38.42024,994.7629],[-3.74098,38.41815,992.8216],[-3.7578,38.4228,984.7613],[-3.76705,38.42654,971.0188],[-3.77837,38.42734,956.8777],[-3.79416,38.42608,920.2657],[-3.80754,38.42311,1044.3633],[-3.82309,38.4152,1006.3124],[-3.82968,38.40779,999.3912],[-3.83968,38.39262,938.1576],[-3.85994,38.38595,612.0587],[-3.89374,38.38161,787.5387],[-4.17759,38.39058,917.0342],[-4.21553,38.40122,1031.2609],[-4.23511,38.40339,864.5586],[-4.25607,38.40277,727.7339],[-4.26498,38.40143,701.5454],[-4.2718,38.39479,698.0808],[-4.27485,38.38799,600.8419],[-4.2755,38.35092,527.3848],[-4.24353,38.3393,477.0478],[-4.2412,38.33758,485.4019],[-4.21456,38.28927,450.3438],[-4.21521,38.25656,353.3588],[-4.21,38.235,557.6754],[-4.1984,38.21476,317.715],[-4.16801,38.18076,303.6138],[-4.16835,38.13683,248.0654],[-4.19305,38.12756,245.5],[-4.25031,38.06111,198.8089],[-4.25459,38.05219,215.2528],[-4.25934,38.02561,165.7699],[-4.26375,38.01914,198.8277],[-4.28432,38.00369,176.2974],[-4.261,37.96354,201.6524],[-4.28384,37.82048,263.892],[-4.27917,37.80853,300.5978],[-4.26884,37.79899,342.7979],[-4.24393,37.78722,262.9274],[-4.23072,37.77456,292.6945],[-4.22822,37.73325,286.2258],[-4.21981,37.71607,409.3014],[-4.18622,37.70572,484.1859],[-4.17199,37.69715,434.4995],[-4.17125,37.67936,451.8532],[-4.17838,37.66864,447.6105],[-4.20901,37.64079,359.5527],[-4.2131,37.62627,364.1831],[-4.20524,37.61964,431.0304],[-4.18225,37.61255,368.0894],[-4.156,37.57755,392.4801],[-4.11013,37.53782,418.2664],[-4.0946,37.49839,491.4866],[-4.08661,37.48654,499.1337],[-4.0375,37.45634,606.0721],[-4.00087,37.40211,971.5354],[-3.95079,37.37844,1080.5707],[-3.84131,37.38634,903.2205],[-3.79188,37.4663,1014.5436],[-3.68307,37.51812,1353.6914],[-3.62716,37.52942,1114.4644],[-3.50714,37.61335,1044.0579],[-3.49149,37.61643,1037.1665],[-3.46826,37.60634,1079.6151],[-3.42403,37.56852,984.6293],[-3.39926,37.56411,991.4958],[-3.31511,37.57782,979.3336],[-3.29739,37.58778,913.2612],[-3.2755,37.61623,1012.9761],[-3.25183,37.63303,974.2338],[-3.2234,37.63925,884.2915],[-3.18728,37.63587,832.7447],[-3.0908,37.59602,635.6821],[-3.07051,37.60741,612.5937],[-3.05134,37.61289,604.2523],[-3.03123,37.61293,658.0896],[-2.98339,37.60149,797.906],[-2.97619,37.63273,820.6121],[-2.90206,37.66566,905.7811],[-2.90023,37.74825,991.7914],[-2.88965,37.77432,1040.1996],[-2.78628,37.91245,2028.4431],[-2.69964,37.97264,1790.9109],[-2.69164,37.97318,1883.1385],[-2.68648,37.97139,1834.0472],[-2.67077,37.96148,1858.4797],[-2.59835,38.00575,1695.9557],[-2.60248,38.06203,1358.856],[-2.54738,38.08065,1290.3027],[-2.5362,38.09308,1300.454],[-2.52193,38.10506,1308.8584],[-2.51584,38.11191,1227.2841],[-2.50648,38.1253,1249.5593],[-2.44481,38.18819,926.1484],[-2.44295,38.19625,1032.0568],[-2.44411,38.20514,834.0057],[-2.44845,38.21715,860.6624],[-2.44886,38.22227,739.9088],[-2.44561,38.22537,824.9123],[-2.44116,38.22847,838.0905],[-2.43729,38.23314,866.3963],[-2.43481,38.23885,857.6063],[-2.43287,38.2449,959.7239],[-2.43191,38.2525,919.0029],[-2.43026,38.2588,856.5918],[-2.43062,38.26562,838.8404],[-2.43248,38.27296,714.2664],[-2.44005,38.28275,871.6699],[-2.47111,38.29818,1282.8525],[-2.47757,38.30813,1590.9203],[-2.47935,38.31735,1785.2788],[-2.48008,38.32629,1813.5275],[-2.4792,38.34192,1523.4432],[-2.48194,38.35701,1297.1334],[-2.48555,38.36376,1254.4032],[-2.48752,38.37109,1388.0023],[-2.48819,38.37885,1458.0308],[-2.48716,38.39308,1484.8909],[-2.48873,38.39874,1463.3662],[-2.55718,38.41445,939.9983],[-2.56741,38.4228,708.5463],[-2.57152,38.42763,782.9068],[-2.57402,38.43455,921.853],[-2.57325,38.44127,1039.3917],[-2.57066,38.4484,1279.4243],[-2.57004,38.46272,1397.704],[-2.57227,38.46967,1238.0428],[-2.57462,38.48359,1361.2271],[-2.57113,38.49558,1330.4048],[-2.57121,38.49874,1368.8571],[-2.57139,38.49987,1324.5325],[-2.5719,38.50054,1242.6497],[-2.57384,38.50204,1241.271],[-2.58221,38.50525,1188.8105],[-2.59875,38.50995,904.1088],[-2.62632,38.51083,834.605],[-2.6428,38.50928,816.1371],[-2.65616,38.50633,806.0357],[-2.67521,38.50023,805.3322]]]}}