{"type":"Feature","properties":{"featurecla":"River","scalerank":8,"rivernum":723,"dissolve":"723River","name":"Guadalquivir","name_alt":null,"note":null,"min_zoom":7.0,"strokeweig":0.15,"name_en":"Guadalquivir","min_label":8.0},
"geometry":{"type": "LineString","coordinates": [[-2.8989746093749891,37.99408600468162,787.7789],[-2.84375,38.062372137494116,1048.0229],[-2.8026611328124891,38.09760162968162,635.0],[-2.7754394531249891,38.15924713749412,635.0],[-2.7826416015624891,38.180682684369117,812.3321],[-2.8075439453124891,38.192401434369117,1145.8511],[-2.8647949218749891,38.200213934369117,662.9249],[-2.8928710937499891,38.200555731244116,749.2065],[-2.9150390625,38.19550202030662,750.5958],[-2.9326171875,38.185809637494117,798.3911],[-2.9467041015624891,38.172235418744116,546.0455],[-2.9746582031249891,38.13129303593162,544.9189]]}}