{"type":"Feature","properties":{"GID_3":"ESP.6.4.1_1","GID_0":"ESP","country":"Spain","GID_1":"ESP.6_1","province":"Cataluña","NL_NAME_1":"NA","GID_2":"ESP.6.4_1","county":"Tarragona","NL_NAME_2":"NA","city":"n.a.(240)","VARNAME_3":"NA","NL_NAME_3":"NA","TYPE_3":"Comarca","ENGTYPE_3":"Comarca","CC_3":"NA","HASC_3":"NA","name":"n.a.(240).city"},
"geometry":{"type": "MultiPolygon","coordinates": [[[[1.4757,41.4361,794.9842],[1.4685,41.444,757.3722],[1.4832,41.4579,713.4694],[1.4872,41.4663,590.1829],[1.4846,41.4749,579.4586],[1.4796,41.4761,626.6394],[1.4747,41.4795,768.1223],[1.4762,41.4826,782.7927],[1.474,41.4863,829.3605],[1.4656,41.484,870.2418],[1.464,41.4868,839.124],[1.46,41.4883,813.6023],[1.452,41.4864,754.3937],[1.4498,41.4922,646.7373],[1.4461,41.4948,635.4766],[1.437,41.4983,703.7967],[1.4226,41.4997,598.6782],[1.4218,41.5034,610.8405],[1.4188,41.5023,635.58],[1.4153,41.5054,669.0908],[1.408,41.5052,698.5487],[1.4046,41.5066,679.5179],[1.401,41.5121,626.2623],[1.3964,41.5129,605.0718],[1.3988,41.5158,610.4277],[1.3978,41.5194,612.7654],[1.4006,41.5212,650.1067],[1.3996,41.5285,643.6543],[1.4049,41.5308,654.939],[1.4087,41.535,674.077],[1.4256,41.5319,772.8624],[1.4362,41.5393,729.5164],[1.4486,41.5371,733.4682],[1.4493,41.5454,731.8183],[1.4467,41.5524,762.2316],[1.4337,41.5505,767.4359],[1.4311,41.5557,736.7505],[1.4396,41.563,723.8687],[1.4545,41.5692,723.654],[1.4475,41.5738,636.1897],[1.4353,41.5766,644.7021],[1.4332,41.5789,632.4241],[1.4197,41.5826,740.7228],[1.4155,41.5824,776.0194],[1.4122,41.5803,784.3544],[1.4106,41.5755,774.5109],[1.3955,41.5775,766.3442],[1.3929,41.5751,767.6526],[1.3955,41.5673,781.9869],[1.4023,41.5644,795.4816],[1.4035,41.5582,765.4936],[1.3919,41.5565,805.3416],[1.3846,41.5565,815.2573],[1.3805,41.5613,775.6887],[1.3717,41.5654,715.9749],[1.3464,41.568,717.4662],[1.3126,41.569,775.0091],[1.3047,41.5717,772.891],[1.2942,41.5667,776.6788],[1.2728,41.5722,737.5985],[1.2592,41.5675,701.8066],[1.257,41.5718,698.4357],[1.2512,41.5724,681.5029],[1.2516,41.5713,667.9747],[1.2465,41.5706,676.4423],[1.2437,41.5683,676.6005],[1.2345,41.5712,676.2191],[1.232,41.5693,666.5226],[1.2199,41.5696,649.3425],[1.2162,41.5672,639.5372],[1.217,41.5625,544.7631],[1.214,41.5604,613.9504],[1.2133,41.5529,682.4615],[1.2108,41.5486,688.1602],[1.1967,41.5434,666.887],[1.1807,41.5435,663.8542],[1.1679,41.5405,655.1635],[1.1668,41.537,658.0728],[1.1763,41.5338,666.9431],[1.172,41.5327,622.2742],[1.1647,41.5345,579.5082],[1.17,41.531,582.2776],[1.1732,41.5315,587.0012],[1.1714,41.5213,693.4298],[1.1702,41.5189,700.4069],[1.1662,41.5182,715.2206],[1.1647,41.5087,646.375],[1.1676,41.5048,665.0903],[1.1757,41.5016,688.8395],[1.1772,41.4945,710.4569],[1.181,41.4881,758.3383],[1.1988,41.4907,761.5803],[1.2058,41.4729,572.5741],[1.2142,41.4726,601.5735],[1.2218,41.475,606.4351],[1.232,41.4741,559.2491],[1.2532,41.4795,598.783],[1.2694,41.499,776.8777],[1.274,41.5,759.0225],[1.2855,41.4909,597.8589],[1.2914,41.4881,617.147],[1.3014,41.4892,625.822],[1.3032,41.4914,611.3918],[1.3192,41.4955,717.192],[1.3268,41.4799,726.0302],[1.3277,41.4692,794.1961],[1.323,41.4647,782.4105],[1.3213,41.4587,817.0562],[1.3224,41.4556,840.9316],[1.3189,41.4539,837.1635],[1.3213,41.4486,879.4104],[1.3278,41.4408,840.9913],[1.327,41.4281,729.8325],[1.3284,41.4271,704.1614],[1.341,41.4307,909.6407],[1.3519,41.4279,814.8908],[1.3553,41.4195,660.6679],[1.351,41.4054,493.3413],[1.3596,41.399,418.9207],[1.3661,41.3965,392.985],[1.3799,41.3954,522.5111],[1.3824,41.3983,594.5521],[1.3897,41.3965,600.4161],[1.3924,41.3981,694.6703],[1.3972,41.3974,744.9295],[1.3969,41.3954,689.0909],[1.4056,41.3948,750.8503],[1.4042,41.3973,794.5925],[1.4072,41.4056,740.5909],[1.4177,41.401,806.2073],[1.4236,41.4036,858.2458],[1.4263,41.3994,817.6838],[1.4248,41.3927,769.5013],[1.4198,41.3905,762.5779],[1.4183,41.3818,594.9713],[1.4165,41.3815,588.647],[1.4162,41.3773,557.757],[1.412,41.3747,520.2332],[1.4113,41.3708,485.291],[1.4293,41.3745,647.531],[1.4333,41.3835,770.8226],[1.449,41.3782,831.8887],[1.4551,41.379,720.409],[1.4616,41.3846,703.1796],[1.4679,41.3853,664.0756],[1.4731,41.3808,561.3582],[1.4803,41.3879,687.7684],[1.4825,41.3986,660.2141],[1.4902,41.4015,787.2656],[1.485,41.4135,686.7119],[1.4818,41.4167,674.365],[1.4838,41.4222,705.2051],[1.4771,41.4235,729.1795],[1.4751,41.4295,831.3761],[1.4777,41.4332,828.7258],[1.4834,41.4303,826.4118],[1.4912,41.4354,862.2437],[1.4952,41.4356,910.0739],[1.4757,41.4361,794.9842]]]]}}