{"type": "Feature","id": 137030.0,"bbox": [-5.0812882152287671,42.952948309369077,-4.9798477855412671,43.014898992962827],"geometry": {"type": "Polygon","coordinates": [[[-5.0770767894475171,42.955755926556577,1501.024],[-5.0524796214787671,42.952948309369077,1375.6233],[-5.0342911449162671,42.970038153119077,1092.5],[-5.0190323558537671,42.967962957806577,1143.8462],[-5.0093888011662671,42.968756414837827,1092.5],[-4.9996231761662671,42.966315008587827,1092.5],[-4.9853409496037671,42.966559149212827,1092.5],[-4.9798477855412671,42.970831610150327,1195.1499],[-4.9883927074162671,42.984198309369077,1259.4269],[-4.9999283519475171,43.003363348431577,1197.0945],[-5.0078018871037671,43.014898992962827,1169.1044],[-5.0096329417912671,43.005133367962827,1092.5],[-5.0261124339787671,42.993292547650327,1369.8671],[-5.0439957347600171,42.985419012494077,1331.2024],[-5.0605362621037671,42.980536199994077,1441.7406],[-5.0812882152287671,42.963507391400327,1214.2598],[-5.0770767894475171,42.955755926556577,1501.024]]]}
,"properties": {"name": null,"lge_id": null,"pfafstette": 49793.0,"lke_type": "N","altitude": 1089,"objectid": 85068,"scalerank": 12,"featurecla": "Lake","note": "_untitled_85068","funkyname": 0,"min_zoom": 7.0,"min_label": 8.0,"area_km2": 22.67846,"hist_schema_id": "Elevation0-9000","hist_area_km2": {"1100": 10.64116,"1125": 1.93892,"1150": 1.72172,"1175": 1.17892,"1200": 0.99276,"1225": 0.77558,"1250": 0.83765,"1275": 0.83762,"1300": 0.83766,"1325": 0.46535,"1350": 0.49643,"1375": 0.5119,"1400": 0.26373,"1425": 0.26373,"1450": 0.15515,"1475": 0.15513,"1500": 0.13963,"1525": 0.13963,"1550": 0.1086,"1575": 0.09308,"1600": 0.01552,"1625": 0.03102,"1650": 0.03102,"1675": 0.03102,"1725": 0.01551}}}