{"type": "Feature","bbox": [0.2009,40.8159,0.5712,41.2387],"geometry": {"type": "MultiPolygon","coordinates": [[[[0.2617,40.8373,611.3322],[0.2783,40.8211,874.3154],[0.272,40.8188,1019.7178],[0.2768,40.8195,949.668],[0.2778,40.8179,963.2682],[0.2818,40.819,902.9885],[0.2896,40.8159,1007.5557],[0.2916,40.8163,1025.2861],[0.3059,40.8364,1158.1609],[0.3105,40.84,1192.9951],[0.3217,40.8448,1126.9187],[0.3245,40.8443,1178.473],[0.3332,40.8495,1037.6238],[0.3349,40.8545,1078.8777],[0.3568,40.8776,1146.8066],[0.3621,40.8808,1141.6318],[0.3607,40.8835,1126.0585],[0.3667,40.8862,1084.1785],[0.3699,40.891,1049.5712],[0.3651,40.8972,974.4489],[0.3648,40.9004,1009.6838],[0.3683,40.9029,935.9362],[0.3631,40.9084,1001.8276],[0.3661,40.9132,955.8825],[0.3645,40.9168,1032.252],[0.3682,40.9192,937.7878],[0.3694,40.9279,1010.7915],[0.3665,40.9332,1024.3629],[0.3718,40.9372,983.6744],[0.3695,40.9389,957.7933],[0.3708,40.9434,1025.8237],[0.3722,40.9422,1022.9173],[0.3793,40.9455,922.5943],[0.383,40.9437,1000.5157],[0.3875,40.9453,991.7159],[0.3922,40.9484,857.198],[0.3908,40.9522,861.3379],[0.3939,40.9554,882.1981],[0.4004,40.9542,770.7408],[0.4024,40.9566,750.4521],[0.4099,40.9585,705.2373],[0.4153,40.9577,558.7972],[0.4225,40.9604,597.8054],[0.4387,40.9621,295.9063],[0.4458,40.9652,176.5625],[0.4498,40.9687,341.4206],[0.4501,40.972,331.2434],[0.4545,40.9759,298.6827],[0.4549,40.9785,292.1347],[0.4596,40.9773,265.2359],[0.467,40.9781,244.8572],[0.4686,40.9802,236.9174],[0.482,40.9762,198.2672],[0.4862,40.9767,218.5375],[0.4888,40.9812,82.001],[0.4966,40.984,193.0335],[0.4977,40.9875,188.4686],[0.5062,40.9912,211.4011],[0.5045,40.9928,226.6156],[0.5067,40.995,210.6108],[0.5156,40.9986,205.7904],[0.5224,40.997,210.6399],[0.5375,41.002,61.6845],[0.538,41.004,166.0874],[0.5458,41.0089,283.9174],[0.5542,41.0098,165.591],[0.5595,41.0146,317.2278],[0.5712,41.0189,312.0103],[0.5683,41.0201,297.5338],[0.5675,41.0248,262.7578],[0.5638,41.0275,278.259],[0.5587,41.0277,306.7885],[0.5578,41.0345,305.9791],[0.5502,41.0361,246.0757],[0.5476,41.0418,243.1383],[0.5487,41.0461,256.4644],[0.5463,41.0472,239.577],[0.5451,41.0511,234.513],[0.5369,41.0517,252.4777],[0.5284,41.0552,305.304],[0.5277,41.0623,470.7144],[0.5087,41.0613,601.0095],[0.503,41.0596,618.4927],[0.4999,41.063,531.5255],[0.5049,41.0678,514.5778],[0.5124,41.069,431.4095],[0.5124,41.0704,431.4095],[0.5171,41.0721,391.6476],[0.5271,41.0854,324.9257],[0.5361,41.0936,250.4579],[0.5364,41.0981,275.7865],[0.5433,41.1076,281.4318],[0.5505,41.1114,270.1537],[0.5539,41.1182,347.6612],[0.5284,41.1252,259.2037],[0.5166,41.1331,364.4085],[0.4934,41.1366,530.7802],[0.4889,41.1416,506.3179],[0.4876,41.1448,540.1353],[0.4942,41.1487,531.8254],[0.4933,41.1511,548.8522],[0.4955,41.155,546.0507],[0.4986,41.1555,542.0683],[0.4978,41.1583,541.3381],[0.4999,41.1581,548.2357],[0.5009,41.1625,548.7882],[0.4972,41.1684,523.3204],[0.5024,41.1736,557.0438],[0.4982,41.1827,541.5316],[0.4952,41.1968,529.1866],[0.4867,41.198,514.2793],[0.4818,41.2029,475.9467],[0.4578,41.2049,468.4028],[0.4584,41.2065,463.484],[0.4562,41.2084,458.5295],[0.457,41.2141,448.4722],[0.4525,41.2154,459.1528],[0.4458,41.2219,405.9019],[0.4385,41.2236,413.4781],[0.4305,41.2285,341.6218],[0.4222,41.2264,276.0427],[0.4132,41.22,259.324],[0.403,41.2184,322.4102],[0.4019,41.2164,341.2803],[0.3778,41.2121,225.8407],[0.3666,41.2073,313.0817],[0.3676,41.2133,313.7807],[0.3713,41.2173,305.008],[0.3733,41.2229,312.6587],[0.3714,41.2285,261.6373],[0.3734,41.232,260.8036],[0.3815,41.2346,90.9746],[0.3813,41.2365,68.5],[0.3646,41.2387,68.5],[0.3642,41.2277,68.5],[0.36,41.2255,73.8644],[0.3513,41.2268,68.5],[0.3413,41.2311,134.4618],[0.3384,41.2303,68.5],[0.3313,41.2227,68.5],[0.3224,41.2253,68.5],[0.3189,41.2211,223.1161],[0.3178,41.211,273.1758],[0.3148,41.2071,272.1368],[0.3126,41.1967,303.0362],[0.3098,41.1943,295.971],[0.3083,41.1872,307.7292],[0.306,41.1857,305.9001],[0.305,41.1723,315.5865],[0.3005,41.1669,332.0971],[0.3034,41.1644,323.5678],[0.292,41.1564,332.9823],[0.2731,41.1488,256.7464],[0.253,41.1502,331.4125],[0.256,41.1468,325.1811],[0.2548,41.145,334.6388],[0.2562,41.1437,332.7201],[0.2506,41.1384,334.3619],[0.2518,41.134,340.539],[0.2479,41.1302,346.7351],[0.237,41.1305,275.7726],[0.214,41.1373,211.2703],[0.2129,41.1365,197.5562],[0.2194,41.1344,227.3449],[0.2199,41.1324,203.6614],[0.2013,41.1268,209.385],[0.201,41.1246,210.8287],[0.209,41.1169,226.819],[0.2054,41.1104,236.6161],[0.2064,41.1096,236.6161],[0.2009,41.1027,240.7496],[0.2012,41.0847,246.2581],[0.208,41.0828,253.845],[0.2157,41.0843,251.3364],[0.2201,41.0829,254.3767],[0.2198,41.0792,256.0564],[0.2168,41.0777,262.3768],[0.2204,41.0715,261.0264],[0.2182,41.0629,265.8681],[0.2223,41.0592,269.264],[0.2288,41.0588,293.0255],[0.2302,41.0539,274.9681],[0.2209,41.0498,282.4394],[0.2178,41.0466,284.5186],[0.2178,41.0437,284.3521],[0.2202,41.0417,294.1429],[0.2259,41.0461,289.8351],[0.2331,41.0471,305.8322],[0.2348,41.046,311.2318],[0.2301,41.0398,296.22],[0.2304,41.037,304.6223],[0.2343,41.0346,305.1034],[0.2424,41.0349,311.8094],[0.2435,41.0402,325.1435],[0.2462,41.0413,310.0299],[0.253,41.033,315.1909],[0.2625,41.0267,325.3882],[0.2709,41.026,330.832],[0.2799,41.0198,346.191],[0.2764,41.0181,332.8634],[0.261,41.0189,344.9167],[0.2589,41.0139,344.8521],[0.2645,41.0103,345.778],[0.2706,41.0095,356.1529],[0.2743,41.0072,351.1072],[0.275,41.0053,354.6671],[0.2694,41.0019,353.6884],[0.2685,40.9983,359.0668],[0.2719,40.996,370.2631],[0.2723,40.9935,362.4189],[0.2811,40.9872,403.3088],[0.2824,40.9822,375.0733],[0.2811,40.9749,383.8322],[0.2834,40.9728,384.6301],[0.2894,40.9743,400.6771],[0.2935,40.9706,396.7791],[0.2843,40.9647,422.0361],[0.2854,40.9604,404.7156],[0.281,40.9512,419.2271],[0.276,40.951,440.9589],[0.2761,40.9481,408.3043],[0.2717,40.9448,412.7621],[0.2743,40.9366,421.0627],[0.2674,40.929,437.7567],[0.2606,40.9285,442.9286],[0.2539,40.9197,454.4396],[0.2541,40.9118,462.1766],[0.2488,40.9105,472.9196],[0.2499,40.9073,472.7958],[0.2533,40.9066,473.3708],[0.2496,40.9016,483.8942],[0.2501,40.896,481.274],[0.2459,40.8922,491.405],[0.246,40.8872,513.1525],[0.2413,40.8868,499.0855],[0.239,40.8849,500.6156],[0.2453,40.8805,532.6501],[0.2505,40.8795,525.8368],[0.2518,40.8766,550.2089],[0.2554,40.8746,532.5691],[0.2535,40.8702,530.063],[0.2543,40.8663,542.8808],[0.2517,40.8627,561.4531],[0.2534,40.86,560.8262],[0.2508,40.8563,563.8445],[0.2558,40.8531,568.8886],[0.2552,40.8509,569.3044],[0.2577,40.8485,576.7176],[0.2554,40.8467,588.2632],[0.2587,40.8463,604.5035],[0.26,40.8392,632.7948],[0.2625,40.8388,725.8162],[0.2617,40.8373,611.3322]]]]}
,"properties": {"GID_3": "ESP.6.4.6_1","GID_0": "ESP","country": "Spain","GID_1": "ESP.6_1","province": "Cataluña","NL_NAME_1": "NA","GID_2": "ESP.6.4_1","county": "Tarragona","NL_NAME_2": "NA","city": "n.a.(245)","VARNAME_3": "NA","NL_NAME_3": "NA","TYPE_3": "Comarca","ENGTYPE_3": "Comarca","CC_3": "NA","HASC_3": "NA","name": "n.a.(245).city","area_km2": 740.7166,"hist_schema_id": "Elevation0-9000","hist_area_km2": {"50": 0.2081,"75": 1.9317,"100": 2.0461,"125": 3.2445,"150": 5.2579,"175": 10.6151,"200": 15.6655,"225": 21.4966,"250": 27.0038,"275": 32.1606,"300": 43.5979,"325": 62.2751,"350": 73.2009,"375": 65.4291,"400": 63.8532,"425": 61.7021,"450": 58.934,"475": 49.0033,"500": 33.8919,"525": 19.9586,"550": 11.426,"575": 7.5767,"600": 6.6801,"625": 5.5596,"650": 5.0477,"675": 4.5838,"700": 4.0714,"725": 3.847,"750": 3.2861,"775": 3.2221,"800": 3.4465,"825": 3.2863,"850": 2.9497,"875": 2.8695,"900": 2.2441,"925": 2.4686,"950": 2.4046,"975": 2.2441,"1000": 2.3245,"1025": 1.7154,"1050": 1.5714,"1075": 1.331,"1100": 1.3151,"1125": 1.1386,"1150": 1.1388,"1175": 1.4116,"1200": 0.0802}}}