{"type":"Feature","properties":{"GID_2":"ESP.1.1_1","GID_0":"ESP","country":"Spain","GID_1":"ESP.1_1","province":"Andalucía","NL_NAME_1":"NA","county":"Almería","VARNAME_2":"NA","NL_NAME_2":"NA","TYPE_2":"Provincia","ENGTYPE_2":"Province","CC_2":"04","HASC_2":"ES.AN.AM","name":"Almería.county"},
"geometry":{"type": "MultiPolygon","coordinates": [[[[-3.0307,35.9412,0.0],[-3.0301,35.9426,0.0],[-3.0376,35.939,0.0],[-3.0346,35.9374,1.3777],[-3.0307,35.9412,0.0]]],
[[[-2.526,36.8237,0.0],[-2.5226,36.8249,4.161],[-2.5015,36.8243,7.8026],[-2.4954,36.8279,23.0686],[-2.4915,36.8276,6.7751],[-2.4812,36.834,1.2968],[-2.4751,36.8318,2.1656],[-2.4682,36.8262,0.0],[-2.464,36.8254,0.0],[-2.471,36.8293,0.0],[-2.4754,36.834,2.2031],[-2.4746,36.8354,2.2031],[-2.4712,36.8354,0.0],[-2.466,36.8335,1.9015],[-2.4671,36.8301,0.0],[-2.464,36.8326,3.3301],[-2.4615,36.8326,5.5039],[-2.4412,36.8207,6.7446],[-2.4332,36.8149,2.2434],[-2.4301,36.8107,0.3416],[-2.4257,36.8104,0.0],[-2.4221,36.8154,0.0],[-2.4101,36.8196,0.0],[-2.4037,36.8268,0.0],[-2.3674,36.8415,0.6751],[-2.3551,36.841,0.934],[-2.3451,36.8376,0.0],[-2.3293,36.8363,1.0053],[-2.3182,36.8335,0.0],[-2.3104,36.8285,0.0],[-2.3065,36.8282,0.6533],[-2.2965,36.8218,0.1857],[-2.2921,36.821,0.7016],[-2.2812,36.8126,1.2045],[-2.2482,36.7832,0.0],[-2.2065,36.7363,4.8331],[-2.2027,36.7313,53.1573],[-2.2015,36.7268,0.0],[-2.1949,36.7249,0.0],[-2.194,36.721,5.3648],[-2.1907,36.7196,0.0],[-2.1871,36.7212,0.0],[-2.184,36.7188,0.0],[-2.1788,36.7235,0.0],[-2.1701,36.7229,25.3149],[-2.1682,36.7215,0.0],[-2.1632,36.7262,0.0],[-2.154,36.7287,0.0],[-2.1529,36.7304,0.0],[-2.1368,36.7285,0.0],[-2.1304,36.7315,0.0],[-2.1207,36.7326,0.0],[-2.1188,36.7363,13.6171],[-2.1143,36.7376,0.0],[-2.1154,36.7396,0.0],[-2.1196,36.739,0.0],[-2.1226,36.7429,5.2975],[-2.1224,36.7451,-0.0456],[-2.1196,36.749,2.5123],[-2.1137,36.7479,0.0],[-2.1065,36.7515,5.2746],[-2.1093,36.7565,3.1738],[-2.1057,36.7635,2.4177],[-2.1021,36.761,0.0],[-2.0951,36.7643,1.8548],[-2.0907,36.7621,0.7309],[-2.0899,36.7635,0.7309],[-2.0829,36.7643,0.0],[-2.0799,36.7657,0.0],[-2.0804,36.7676,4.3755],[-2.0724,36.7696,0.0],[-2.0699,36.7746,3.9108],[-2.0649,36.7746,0.0],[-2.0601,36.7774,0.0],[-2.0599,36.7788,0.0],[-2.0626,36.7799,0.0],[-2.0607,36.7935,0.0],[-2.0621,36.7949,0.0],[-2.0585,36.7962,0.0],[-2.0621,36.7993,0.0],[-2.0612,36.8013,0.0],[-2.0626,36.8054,0.0],[-2.061,36.8085,2.4623],[-2.0554,36.8126,5.2209],[-2.0479,36.8112,0.0],[-2.0507,36.8157,8.7655],[-2.0407,36.8185,0.0],[-2.0401,36.8235,0.0],[-2.0312,36.8299,6.7299],[-2.0249,36.8307,0.0],[-2.0243,36.8351,1.7156],[-2.0082,36.8335,0.0],[-2.0021,36.8363,7.5989],[-2.0015,36.839,173.9812],[-1.999,36.8404,0.0],[-2.0012,36.8429,225.1713],[-2.0012,36.8457,121.936],[-1.9957,36.8501,36.5391],[-1.9965,36.8521,0.0],[-1.9996,36.8529,30.0116],[-1.999,36.8574,0.0],[-2.0054,36.8593,1.2086],[-2.0029,36.8629,0.7696],[-2.001,36.8721,0.0],[-2.0038,36.8746,49.9992],[-2.0035,36.8818,8.8469],[-2.0012,36.884,12.335],[-1.994,36.886,44.321],[-1.9918,36.8937,0.0],[-1.9857,36.8974,28.545],[-1.9813,36.9026,17.1944],[-1.9771,36.9024,8.551],[-1.9729,36.8979,4.6778],[-1.9676,36.8982,0.0],[-1.9635,36.9076,6.5346],[-1.959,36.909,20.3372],[-1.9582,36.9149,79.6113],[-1.9554,36.9157,0.0],[-1.9562,36.9176,28.5245],[-1.9526,36.9196,1.9494],[-1.9543,36.9207,4.0677],[-1.9543,36.9235,0.8198],[-1.9524,36.9235,0.0],[-1.9462,36.9296,0.0],[-1.9465,36.9324,5.3413],[-1.9432,36.9329,0.0],[-1.9413,36.9357,33.2453],[-1.9338,36.9388,6.8244],[-1.9221,36.9368,16.8499],[-1.9163,36.934,19.3701],[-1.914,36.9343,0.0],[-1.9129,36.9365,8.6877],[-1.9065,36.936,6.5084],[-1.9029,36.9401,0.0],[-1.9029,36.944,43.4208],[-1.8954,36.9482,0.0],[-1.8985,36.9543,12.5472],[-1.8999,36.9663,0.0],[-1.8949,36.9654,0.0],[-1.8957,36.9679,0.0],[-1.8999,36.9685,3.923],[-1.9007,36.9746,4.6666],[-1.8985,36.9782,0.346],[-1.8962,36.976,0.0],[-1.8946,36.9765,0.0],[-1.8976,36.9793,0.7201],[-1.901,36.9793,2.1994],[-1.9012,36.9876,4.9152],[-1.8985,36.9888,1.2035],[-1.8971,36.9935,3.795],[-1.8893,36.9968,0.6417],[-1.8882,37.0076,21.8087],[-1.8835,37.0085,0.0],[-1.8801,37.011,38.4641],[-1.8804,37.0129,50.3718],[-1.8779,37.0146,2.4798],[-1.8796,37.0251,0.0],[-1.876,37.0363,26.0358],[-1.8726,37.0393,23.2004],[-1.8654,37.0418,13.1978],[-1.8629,37.0454,0.0],[-1.8624,37.0518,13.8444],[-1.8582,37.0576,9.4157],[-1.8551,37.0588,17.0241],[-1.8546,37.0629,22.6925],[-1.8521,37.064,0.0],[-1.8493,37.0693,4.7407],[-1.8504,37.0926,9.9293],[-1.8451,37.1085,14.7225],[-1.8421,37.1129,2.0708],[-1.8393,37.1138,3.2828],[-1.8326,37.1207,3.4382],[-1.8324,37.1257,2.0098],[-1.831,37.1263,2.0098],[-1.8307,37.1312,11.7915],[-1.8276,37.1387,1.1889],[-1.8282,37.1421,8.6379],[-1.8257,37.144,0.0],[-1.8243,37.1493,3.8332],[-1.8238,37.164,0.0],[-1.8249,37.1651,5.5775],[-1.8218,37.1796,2.6209],[-1.8188,37.1821,0.2557],[-1.8193,37.1832,0.2557],[-1.8179,37.1826,0.9768],[-1.8179,37.1843,0.2495],[-1.8162,37.1843,0.2495],[-1.8174,37.181,1.6542],[-1.8157,37.1818,0.0],[-1.8151,37.1846,0.0],[-1.8179,37.186,0.2357],[-1.8171,37.1915,2.6916],[-1.8149,37.1935,0.9899],[-1.8101,37.2096,4.1347],[-1.8032,37.2232,1.782],[-1.7938,37.234,5.4473],[-1.791,37.2351,1.6242],[-1.7849,37.2343,1.0433],[-1.7782,37.239,0.5616],[-1.776,37.2382,0.0],[-1.771,37.2482,7.95],[-1.7629,37.2565,3.2869],[-1.7613,37.256,0.0],[-1.7624,37.2582,0.0],[-1.7576,37.2646,14.7072],[-1.7532,37.2654,0.0],[-1.7488,37.2685,5.2412],[-1.7451,37.2749,0.0],[-1.7387,37.2801,17.5831],[-1.7337,37.2818,6.7801],[-1.7312,37.2854,4.8839],[-1.7243,37.2899,0.0],[-1.721,37.2962,2.7641],[-1.7124,37.3001,0.0],[-1.711,37.3029,0.0],[-1.7071,37.3051,2.9793],[-1.7065,37.3104,2.1524],[-1.7035,37.3121,15.3022],[-1.6899,37.3379,2.4358],[-1.6765,37.3537,0.4277],[-1.6715,37.3571,1.4988],[-1.6651,37.3576,6.0988],[-1.6568,37.3565,7.129],[-1.6554,37.3535,0.0],[-1.6537,37.3537,0.0],[-1.6487,37.359,0.0],[-1.6499,37.3593,3.8091],[-1.6496,37.3624,12.0018],[-1.646,37.371,7.9053],[-1.6365,37.3757,7.1943],[-1.6351,37.3757,7.1943],[-1.6337,37.3724,0.0],[-1.6304,37.3729,0.0],[-1.63,37.3753,1.9432],[-1.6659,37.4009,78.3747],[-1.7049,37.4211,301.6372],[-1.737,37.4427,226.8883],[-1.7797,37.447,248.6614],[-1.7962,37.4522,299.7473],[-1.8117,37.4516,355.6517],[-1.8089,37.4335,259.3047],[-1.8452,37.4549,378.1122],[-1.8586,37.4791,414.2375],[-1.8646,37.4866,442.7317],[-1.8708,37.4897,479.972],[-1.9539,37.5883,753.9291],[-1.9556,37.5915,764.4276],[-1.9539,37.5975,789.9985],[-1.9556,37.601,807.276],[-1.9651,37.6051,831.697],[-1.97,37.6142,860.5501],[-1.9767,37.6188,891.7762],[-1.9784,37.6255,916.8149],[-1.9812,37.6284,927.8474],[-1.9817,37.6368,983.1495],[-1.9874,37.6452,1005.9963],[-1.9927,37.6433,1019.8217],[-1.9957,37.6503,856.9805],[-2.0019,37.6556,778.933],[-2.0076,37.6692,679.7132],[-2.0118,37.6735,712.7179],[-2.0097,37.6868,738.8944],[-2.0114,37.6925,791.1307],[-2.0103,37.6988,856.738],[-2.0125,37.7009,900.0625],[-2.0081,37.7115,1201.4742],[-2.0076,37.7198,1476.5809],[-2.004,37.7226,1293.6124],[-1.9998,37.723,1253.6837],[-1.9957,37.7281,1246.9919],[-2.0024,37.7478,1071.8121],[-2.0046,37.7662,952.3013],[-2.0087,37.775,1041.5381],[-2.0016,37.805,973.311],[-1.9964,37.819,859.901],[-1.9994,37.8232,714.7622],[-1.9952,37.8414,730.6379],[-1.9883,37.8535,771.5489],[-1.9773,37.8604,810.1087],[-1.9744,37.8685,834.3692],[-1.9826,37.8739,1006.3451],[-1.9879,37.8738,1068.3596],[-1.9946,37.8805,1003.4438],[-1.9988,37.8762,971.8755],[-2.0032,37.877,1003.0849],[-2.0044,37.8807,1017.2899],[-2.0217,37.8686,912.6989],[-2.0392,37.8754,929.5128],[-2.0424,37.8737,986.1979],[-2.0459,37.8746,1016.7782],[-2.0453,37.8762,977.9579],[-2.0499,37.8796,1019.643],[-2.0595,37.8801,1076.1167],[-2.0622,37.8835,1112.5491],[-2.0703,37.8845,1065.0702],[-2.0738,37.8838,1113.2523],[-2.0773,37.8784,1093.0221],[-2.0845,37.8724,984.8162],[-2.0857,37.8749,1032.9729],[-2.0983,37.8777,1199.9849],[-2.1034,37.8814,1223.4746],[-2.108,37.8815,1265.655],[-2.1064,37.8862,1185.254],[-2.1104,37.8909,1149.8271],[-2.118,37.8942,1183.1702],[-2.1231,37.9005,1194.5894],[-2.1299,37.9,1199.4788],[-2.1351,37.8977,1196.9507],[-2.1516,37.8973,1190.6196],[-2.1506,37.8957,1193.0458],[-2.1567,37.8913,1210.0405],[-2.1644,37.8926,1220.9797],[-2.1719,37.8887,1220.0146],[-2.1846,37.9017,1253.9514],[-2.1848,37.9037,1242.3964],[-2.2076,37.9166,1459.2477],[-2.2507,37.8972,1239.4094],[-2.2653,37.881,1210.9456],[-2.2884,37.8852,1148.0847],[-2.2948,37.8764,1059.9224],[-2.2962,37.8598,1077.0986],[-2.2937,37.8416,1094.064],[-2.2908,37.8376,1095.5544],[-2.2893,37.8315,1099.2817],[-2.2935,37.8282,1108.7681],[-2.3014,37.8103,1139.504],[-2.3007,37.8037,1134.5259],[-2.2935,37.7923,1064.3459],[-2.3001,37.7898,1056.787],[-2.2953,37.7886,1058.0081],[-2.2911,37.7896,1061.4482],[-2.2764,37.7769,1128.4885],[-2.287,37.7514,1158.6754],[-2.2886,37.7521,1164.8021],[-2.2946,37.7482,1163.3988],[-2.2942,37.7462,1158.105],[-2.2971,37.744,1166.2528],[-2.2968,37.7415,1129.0975],[-2.3074,37.7233,1016.5095],[-2.308,37.7206,1011.3464],[-2.3049,37.7192,1019.1058],[-2.3079,37.7168,1011.6813],[-2.3065,37.7103,1012.5304],[-2.3132,37.7114,1005.8625],[-2.3232,37.6939,991.9434],[-2.3257,37.6721,1056.9012],[-2.321,37.6599,1132.7217],[-2.3194,37.6597,1137.8352],[-2.3199,37.6481,1221.103],[-2.3165,37.645,1334.0337],[-2.3154,37.6415,1416.4618],[-2.3088,37.6358,1570.218],[-2.3157,37.6222,1718.4038],[-2.3391,37.6232,1728.86],[-2.3417,37.6238,1743.3772],[-2.3453,37.6293,1725.5946],[-2.3573,37.6247,1506.4963],[-2.3595,37.6213,1563.7097],[-2.3637,37.6215,1519.0171],[-2.3738,37.6292,1540.668],[-2.3912,37.6325,1655.2494],[-2.3887,37.618,1352.4315],[-2.3802,37.6122,1348.3502],[-2.3759,37.6123,1228.4226],[-2.3678,37.5916,1140.5535],[-2.3697,37.5811,1169.8746],[-2.3745,37.5794,1190.4646],[-2.3748,37.5779,1205.4685],[-2.3681,37.5729,1212.8461],[-2.3674,37.5631,1235.5374],[-2.3742,37.5574,1291.0255],[-2.3556,37.547,1252.788],[-2.3603,37.5375,1230.0601],[-2.3587,37.536,1210.8237],[-2.3603,37.5346,1209.2861],[-2.3584,37.5223,1368.8252],[-2.3625,37.5201,1337.7566],[-2.3811,37.523,1415.1876],[-2.3943,37.5177,1245.2992],[-2.3971,37.5134,1241.9166],[-2.4029,37.5156,1229.8136],[-2.4071,37.5245,1305.8135],[-2.4116,37.525,1305.0404],[-2.4147,37.5216,1258.5104],[-2.4134,37.5193,1245.8876],[-2.4159,37.516,1242.5638],[-2.4288,37.5116,1260.8466],[-2.4325,37.5118,1283.4041],[-2.4342,37.5095,1295.3889],[-2.44,37.5112,1280.615],[-2.4562,37.5095,1307.1414],[-2.4601,37.5076,1302.2853],[-2.4593,37.5023,1242.1799],[-2.4619,37.4987,1263.7239],[-2.4574,37.4909,1441.4459],[-2.474,37.4835,1289.088],[-2.503,37.4836,1344.416],[-2.5141,37.4796,1455.3658],[-2.5143,37.4779,1468.5886],[-2.5299,37.4652,1221.2305],[-2.5346,37.4638,1214.2197],[-2.535,37.4621,1212.5786],[-2.5465,37.4566,1180.3002],[-2.5508,37.4564,1187.4387],[-2.5566,37.4504,1149.9902],[-2.561,37.4502,1149.5067],[-2.5689,37.4458,1131.2395],[-2.569,37.4437,1110.833],[-2.5711,37.4427,1114.5789],[-2.5716,37.4375,1122.6342],[-2.5772,37.4291,1117.358],[-2.5967,37.4211,1039.9366],[-2.6024,37.4175,1018.8076],[-2.6081,37.4111,998.0463],[-2.6355,37.3942,1012.7796],[-2.6388,37.3883,1036.5215],[-2.6417,37.3875,1060.2708],[-2.6413,37.3776,1073.2526],[-2.6431,37.376,1071.5132],[-2.6352,37.3655,1118.4702],[-2.6372,37.3434,1169.0046],[-2.6468,37.3432,1176.7856],[-2.6547,37.3403,1235.2819],[-2.6504,37.3259,1344.9232],[-2.6542,37.3212,1362.1003],[-2.6544,37.3174,1376.1993],[-2.6509,37.3145,1333.5107],[-2.6508,37.3124,1320.3253],[-2.6516,37.309,1358.8186],[-2.656,37.3073,1416.5625],[-2.6549,37.3056,1417.006],[-2.6571,37.3021,1462.4275],[-2.6597,37.3013,1487.2041],[-2.6587,37.2994,1505.7606],[-2.6629,37.2959,1571.3774],[-2.6621,37.2935,1610.2867],[-2.6655,37.2851,1661.5419],[-2.6633,37.2772,1733.3309],[-2.6641,37.2723,1731.6787],[-2.6616,37.2667,1827.9976],[-2.6674,37.2496,1939.8298],[-2.6662,37.2381,1945.4878],[-2.6642,37.2365,1944.3584],[-2.6634,37.2322,1921.4258],[-2.6598,37.232,1921.7965],[-2.6575,37.229,1915.9246],[-2.66,37.212,1985.9888],[-2.6643,37.2118,2014.6508],[-2.669,37.2172,2032.563],[-2.6767,37.216,2076.0557],[-2.6905,37.2185,2028.9626],[-2.6924,37.2172,2028.9626],[-2.6936,37.2204,2020.7332],[-2.6993,37.2228,1952.9778],[-2.7048,37.2228,1929.8656],[-2.7066,37.2251,1930.3427],[-2.7098,37.2255,1947.4524],[-2.7105,37.2288,1932.1648],[-2.7184,37.2338,1897.4404],[-2.7252,37.2312,1924.9492],[-2.7303,37.2329,1920.332],[-2.7329,37.2374,1957.9807],[-2.7364,37.2323,1903.1431],[-2.7398,37.2307,1880.676],[-2.7399,37.2288,1874.73],[-2.7589,37.2268,1922.7957],[-2.7646,37.2317,1920.5408],[-2.762,37.2331,1926.5796],[-2.7679,37.2379,1914.7789],[-2.7721,37.2393,1927.1149],[-2.7785,37.2517,2051.2026],[-2.7746,37.2537,2033.0138],[-2.779,37.2569,2028.79],[-2.7771,37.2601,2006.6398],[-2.7789,37.2627,2013.1281],[-2.7944,37.2634,1958.8979],[-2.8021,37.2682,2011.4296],[-2.8148,37.2709,1903.9677],[-2.8193,37.2784,1866.9968],[-2.8303,37.2801,1871.5928],[-2.8346,37.2778,1821.0396],[-2.8453,37.2793,1730.4059],[-2.851,37.2762,1691.3203],[-2.8557,37.2683,1568.8171],[-2.8555,37.2644,1550.3328],[-2.8597,37.2538,1448.3872],[-2.859,37.2505,1362.3219],[-2.8638,37.2471,1451.0271],[-2.8693,37.2456,1492.189],[-2.8664,37.2431,1507.488],[-2.8747,37.2318,1294.3718],[-2.8751,37.2245,1241.1884],[-2.8727,37.2199,1206.6592],[-2.8802,37.204,1089.9408],[-2.8791,37.1926,1017.5885],[-2.8809,37.1871,991.1365],[-2.8827,37.1879,992.9984],[-2.888,37.183,1058.8481],[-2.8896,37.1762,1094.3575],[-2.8952,37.1671,1131.0089],[-2.9112,37.1633,1192.2799],[-2.9146,37.1585,1368.7764],[-2.9282,37.1573,1445.632],[-2.9293,37.1561,1482.9111],[-2.9283,37.1525,1452.5952],[-2.9313,37.1434,1687.4561],[-2.9305,37.1398,1746.2814],[-2.9336,37.1353,1837.3052],[-2.9369,37.1347,1819.0771],[-2.9408,37.1307,1730.9298],[-2.9416,37.1247,1754.7278],[-2.944,37.1224,1803.788],[-2.9469,37.1222,1823.7584],[-2.9436,37.1187,1828.2469],[-2.9428,37.1112,1942.3137],[-2.9457,37.1066,2088.1924],[-2.9482,37.1062,2097.7153],[-2.9499,37.0995,2271.4448],[-2.9489,37.0966,2333.7156],[-2.97,37.0965,2269.3599],[-2.979,37.0933,2485.5535],[-2.9841,37.0931,2526.176],[-2.9964,37.0958,2575.4753],[-3.0002,37.095,2598.2837],[-3.0038,37.0972,2482.2368],[-3.0149,37.1133,2214.0281],[-3.022,37.1134,2126.6948],[-3.0263,37.1166,2102.855],[-3.0295,37.1133,2044.2644],[-3.0257,37.1027,2025.1003],[-3.0219,37.099,1971.594],[-3.0221,37.0922,1900.1132],[-3.0243,37.0894,1834.406],[-3.0238,37.0845,1800.0032],[-3.0177,37.0707,1697.8296],[-3.0161,37.0522,1563.6898],[-3.0057,37.0339,1396.2584],[-3.0054,37.023,1255.5383],[-2.9995,37.0221,1058.7684],[-2.9986,37.0122,922.1425],[-2.9932,37.0135,1049.657],[-2.989,37.0073,1111.5614],[-2.9824,37.006,1130.3192],[-2.9767,36.987,771.6563],[-2.9783,36.9814,714.5967],[-2.9764,36.9774,686.2369],[-2.9783,36.9739,662.0959],[-2.9849,36.972,632.7061],[-2.986,36.9683,621.8518],[-2.9847,36.9645,644.7266],[-2.9901,36.9584,599.0916],[-2.9959,36.9567,553.601],[-3.0141,36.9564,492.0107],[-3.0171,36.954,487.6366],[-3.0221,36.9541,555.0621],[-3.0316,36.9441,510.8705],[-3.0302,36.9351,566.9534],[-3.0283,36.9341,499.9072],[-3.0313,36.9322,461.2148],[-3.0316,36.93,426.3659],[-3.0294,36.9283,416.3202],[-3.0309,36.9279,428.1115],[-3.0312,36.9246,388.4834],[-3.0435,36.9212,662.796],[-3.048,36.9161,836.9319],[-3.0558,36.9119,938.0116],[-3.0662,36.9125,694.9546],[-3.0688,36.9157,626.0145],[-3.068,36.9072,922.8231],[-3.0704,36.9012,900.0266],[-3.0696,36.8997,856.449],[-3.0672,36.9001,804.0861],[-3.0649,36.8983,756.1465],[-3.0565,36.8851,444.6713],[-3.0503999999999998,36.8835,542.6749],[-3.0432,36.8792,609.4965],[-3.0433,36.8766,695.3105],[-3.0356,36.8636,634.386],[-3.032,36.861,604.1273],[-3.0289,36.8445,721.8312],[-3.0373,36.8354,777.4126],[-3.0427,36.8319,712.2657],[-3.0738,36.8247,741.4301],[-3.0783,36.8189,693.9817],[-3.0918,36.8105,909.2675],[-3.1401,36.7878,338.7617],[-3.1399,36.7851,332.3958],[-3.1341,36.7815,538.8945],[-3.1367,36.7681,305.9204],[-3.133,36.7575,300.9038],[-3.1284,36.7507,11.2225],[-3.1129,36.751,19.7294],[-3.0724,36.7454,0.0],[-3.0624,36.7471,20.7949],[-3.0324,36.7474,11.0377],[-3.0232,36.7432,0.6648],[-3.0204,36.7446,0.0],[-3.0224,36.7451,1.87],[-3.0212,36.7471,7.8047],[-3.0085,36.7412,0.7501],[-2.9896,36.7443,2.2275],[-2.9796,36.7388,2.1116],[-2.9754,36.7382,0.0],[-2.9415,36.751,1.1299],[-2.9243,36.7518,0.0],[-2.9126,36.7471,6.8389],[-2.8943,36.7357,1.8664],[-2.871,36.7135,0.8493],[-2.8612,36.7021,0.5262],[-2.859,36.7001,0.7152],[-2.8532,36.699,2.587],[-2.8488,36.6949,0.0],[-2.8443,36.6957,0.9768],[-2.8335,36.7035,0.0],[-2.8187,36.7062,1.0022],[-2.8074,36.7049,1.0971],[-2.7993,36.7018,1.8793],[-2.794,36.6976,0.566],[-2.7954,36.6954,0.0],[-2.7982,36.6965,0.0],[-2.7979,36.6951,0.0],[-2.7924,36.6929,0.0],[-2.7865,36.694,3.2552],[-2.781,36.689,0.6726],[-2.7774,36.689,0.122],[-2.7721,36.6815,0.0],[-2.7643,36.6826,2.2929],[-2.7643,36.6813,0.9353],[-2.7613,36.6801,0.0],[-2.756,36.6801,0.0],[-2.7426,36.6838,1.4117],[-2.719,36.6854,0.306],[-2.7107,36.6854,0.1389],[-2.6996,36.6824,0.0],[-2.6904,36.6885,0.0],[-2.6826,36.689,0.348],[-2.6746,36.6943,1.3014],[-2.6632,36.6974,0.6964],[-2.6551,36.6979,0.0],[-2.6437,36.7046,0.7212],[-2.6149,36.7329,0.1959],[-2.6107,36.7465,6.548],[-2.6037,36.7565,0.0],[-2.606,36.7604,0.0],[-2.6029,36.7696,1.4521],[-2.5985,36.7774,2.5212],[-2.5757,36.8043,8.0176],[-2.5651,36.814,22.1152],[-2.5604,36.8135,0.0],[-2.551,36.8176,43.7083],[-2.5463,36.8168,0.0],[-2.5407,36.8187,0.0],[-2.5326,36.8185,0.0],[-2.531,36.8215,1.437],[-2.526,36.8237,0.0]]]]}}