{"type": "Feature","bbox": [-7.2865,37.6747,-6.1216,38.2083],"geometry": {"type": "MultiPolygon","coordinates": [[[[-6.6776,37.7463,192.984],[-6.6707,37.7501,206.128],[-6.6438,37.7517,417.7239],[-6.6449,37.7624,361.6951],[-6.6409,37.7683,356.3836],[-6.6238,37.7787,465.7696],[-6.6173,37.7877,288.0967],[-6.6125,37.7891,357.2913],[-6.6013,37.7963,294.6638],[-6.5807,37.7996,293.8746],[-6.5761,37.7987,304.5935],[-6.5723,37.8003,300.2453],[-6.5693,37.7988,302.3544],[-6.5645,37.8039,330.2242],[-6.5603,37.7995,306.2312],[-6.5543,37.8021,326.4611],[-6.5488,37.7979,316.6899],[-6.5452,37.8011,323.0211],[-6.5367,37.8027,332.4299],[-6.5333,37.805,335.5109],[-6.5356,37.8068,339.6349],[-6.5323,37.8106,356.5963],[-6.5314,37.8088,341.5845],[-6.5272,37.8081,347.8801],[-6.5222,37.8099,352.4454],[-6.5139,37.8081,360.462],[-6.4986,37.8106,391.4498],[-6.4803,37.81,426.6882],[-6.4748,37.8083,443.0845],[-6.4732,37.7987,550.0839],[-6.4782,37.7938,560.3331],[-6.4781,37.79,554.6839],[-6.4707,37.7772,556.1302],[-6.4803,37.7761,547.6086],[-6.4847,37.7699,483.6465],[-6.4805,37.7644,471.0513],[-6.4801,37.7462,572.13],[-6.4762,37.745,553.8608],[-6.4774,37.7397,527.8534],[-6.4818,37.7365,492.0206],[-6.484,37.7313,395.8264],[-6.4819,37.7267,317.5939],[-6.4829,37.7208,293.5273],[-6.4805,37.7208,307.2727],[-6.4811,37.7223,297.6931],[-6.4736,37.7253,322.4459],[-6.4606,37.721,325.1147],[-6.4542,37.7214,326.8224],[-6.4501,37.7189,351.2621],[-6.4307,37.7275,459.4408],[-6.4234,37.7341,453.9275],[-6.3899,37.7477,490.3055],[-6.3601,37.7549,418.6835],[-6.3529,37.7553,465.0207],[-6.3487,37.7575,438.3971],[-6.3291,37.7598,429.1957],[-6.3198,37.764,469.744],[-6.3109,37.7649,468.0313],[-6.3031,37.7617,440.0573],[-6.2784,37.7584,309.6038],[-6.2711,37.7588,288.7408],[-6.266,37.7614,267.5326],[-6.2582,37.7606,236.9974],[-6.2519,37.7631,175.4801],[-6.2483,37.7591,182.6446],[-6.2445,37.7478,171.4033],[-6.2541,37.7474,176.3754],[-6.2552,37.7459,200.4612],[-6.2523,37.7428,165.0961],[-6.2434,37.7409,160.3714],[-6.2362,37.7443,167.9737],[-6.2337,37.744,190.9934],[-6.2347,37.7386,162.1718],[-6.2267,37.7415,182.6828],[-6.2268,37.739,174.0135],[-6.2219,37.7397,181.167],[-6.2219,37.7415,200.8498],[-6.2169,37.7437,243.9982],[-6.2203,37.7485,266.8732],[-6.2198,37.7545,364.0459],[-6.2056,37.766,394.0451],[-6.2088,37.7694,304.4949],[-6.2074,37.7713,318.8256],[-6.2122,37.7862,433.7225],[-6.2154,37.7913,409.831],[-6.2123,37.7956,479.5728],[-6.2072,37.7983,495.8094],[-6.2079,37.8007,494.3548],[-6.2023,37.8055,467.1365],[-6.1875,37.8099,432.3413],[-6.1841,37.8095,445.4424],[-6.1773,37.7982,405.2908],[-6.1719,37.7985,398.8301],[-6.1728,37.7963,388.1118],[-6.1683,37.7961,382.1448],[-6.1673,37.7928,381.2969],[-6.163,37.7942,377.4803],[-6.159,37.7907,363.6344],[-6.1564,37.7909,349.2944],[-6.1534,37.7949,335.944],[-6.147,37.7937,330.3419],[-6.1429,37.7873,313.2623],[-6.1349,37.7892,312.6797],[-6.1339,37.7878,300.9387],[-6.1337,37.79,312.6797],[-6.1381,37.7951,306.689],[-6.1263,37.7972,307.4448],[-6.1242,37.8044,318.0371],[-6.127,37.8115,341.4348],[-6.1216,37.8156,323.2593],[-6.1218,37.8171,342.2476],[-6.1255,37.8181,330.6398],[-6.1295,37.8324,342.0778],[-6.1353,37.8349,365.6719],[-6.1348,37.8426,342.7537],[-6.1381,37.8441,339.7002],[-6.1417,37.8549,360.813],[-6.1462,37.8568,344.2766],[-6.154,37.8534,351.646],[-6.1589,37.8541,349.4181],[-6.163,37.8573,356.3494],[-6.1639,37.8628,355.7741],[-6.1603,37.8655,367.7141],[-6.1591,37.8735,364.9232],[-6.1502,37.877,370.6367],[-6.1453,37.8843,384.2825],[-6.1413,37.885,385.6957],[-6.1362,37.8957,511.237],[-6.1253,37.9009,384.8159],[-6.1249,37.9048,385.5322],[-6.1315,37.9088,451.067],[-6.1378,37.909,411.5815],[-6.1446,37.9204,391.8143],[-6.1464,37.9203,407.2616],[-6.15,37.916,403.3522],[-6.1512,37.9161,403.3522],[-6.1505,37.919,400.0002],[-6.1521,37.9192,398.0893],[-6.1564,37.9167,416.1329],[-6.164,37.9177,400.3253],[-6.1665,37.9092,409.374],[-6.1691,37.9094,409.262],[-6.184,37.9282,418.8341],[-6.1822,37.9382,422.7372],[-6.1801,37.941,425.3424],[-6.1856,37.9451,427.6149],[-6.1961,37.9491,430.3794],[-6.194,37.9547,433.5894],[-6.202,37.9595,446.2574],[-6.2003,37.9606,471.1674],[-6.2011,37.9619,456.5541],[-6.2039,37.9622,480.7378],[-6.2052,37.9597,463.8695],[-6.2093,37.9586,469.9288],[-6.2102,37.9607,479.435],[-6.2144,37.9614,466.1386],[-6.2331,37.958,471.8845],[-6.2396,37.9591,475.9673],[-6.2459,37.9631,480.6393],[-6.2461,37.9659,491.8535],[-6.2524,37.9716,489.3958],[-6.28,37.9735,506.4771],[-6.2888,37.9766,517.3505],[-6.3032,37.9783,527.0009],[-6.309,37.9852,533.3124],[-6.3196,37.9902,554.912],[-6.3216,37.9934,550.9828],[-6.3292,37.9983,567.0598],[-6.3334,37.9981,569.6882],[-6.346,38.0024,601.282],[-6.3526,38.0074,618.7416],[-6.359,38.0167,620.4316],[-6.3581,38.0263,824.2343],[-6.3629,38.0431,1029.5082],[-6.3671,38.0461,1035.3918],[-6.3671,38.0489,999.534],[-6.3883,38.0481,1000.3171],[-6.4022,38.0525,919.6653],[-6.4138,38.0586,905.6774],[-6.4357,38.0575,840.2869],[-6.4431,38.0592,830.2115],[-6.4523,38.056,635.5152],[-6.4436,38.0476,643.6638],[-6.4442,38.0461,629.4705],[-6.4475,38.0437,603.0715],[-6.4522,38.0429,585.1572],[-6.461,38.0357,555.2654],[-6.4657,38.0353,563.429],[-6.4657,38.0322,589.251],[-6.4695,38.0311,645.1815],[-6.4737,38.0244,804.7114],[-6.4721,38.0158,612.5049],[-6.4646,38.0138,651.0005],[-6.4653,38.011,529.3533],[-6.4692,38.0121,530.9015],[-6.4704,38.01,505.5656],[-6.4785,38.0081,493.1932],[-6.4799,38.0096,507.4937],[-6.4842,38.008,468.341],[-6.4916,38.0095,422.0585],[-6.4916,38.0121,423.0296],[-6.4955,38.0152,442.7677],[-6.4927,38.0164,435.3081],[-6.4949,38.0191,509.3337],[-6.5247,38.0215,691.0699],[-6.5456,38.0281,768.2253],[-6.5651,38.027,668.9355],[-6.5714,38.0241,656.29],[-6.5695,38.0227,632.3917],[-6.572,38.0202,658.0872],[-6.5787,38.0221,667.4398],[-6.5822,38.0209,722.3455],[-6.586,38.0237,732.3811],[-6.5846,38.0266,707.507],[-6.587,38.0268,726.2172],[-6.5837,38.0343,692.1091],[-6.5843,38.0442,740.9225],[-6.5804,38.0528,713.4008],[-6.5942,38.0669,602.2157],[-6.5994,38.075,599.2308],[-6.604,38.0773,592.7985],[-6.6073,38.0834,562.1466],[-6.6123,38.0859,553.2062],[-6.6223,38.0972,504.5787],[-6.6271,38.0983,490.2544],[-6.6372,38.0962,480.0225],[-6.6416,38.0976,481.1055],[-6.646,38.0913,466.5022],[-6.6492,38.09,475.4662],[-6.6513,38.0931,459.5531],[-6.65,38.0953,461.6547],[-6.6536,38.0965,463.2279],[-6.6586,38.0953,458.9878],[-6.6592,38.0926,448.4308],[-6.6609,38.0925,448.2944],[-6.6761,38.0953,458.9095],[-6.6799,38.0974,440.4906],[-6.682,38.0968,435.4359],[-6.6898,38.1,415.9017],[-6.6917,38.095,422.7366],[-6.7068,38.0965,405.7301],[-6.7153,38.0926,399.9966],[-6.7168,38.0999,391.4069],[-6.7196,38.1006,403.1516],[-6.7236,38.0971,384.4797],[-6.7265,38.0973,384.4555],[-6.7284,38.1,386.8429],[-6.735,38.0935,387.2269],[-6.7303,38.0924,373.1555],[-6.7319,38.0901,374.5321],[-6.7421,38.0933,365.6096],[-6.7472,38.0914,368.5336],[-6.7544,38.095,361.328],[-6.7581,38.0927,353.2339],[-6.7609,38.0979,350.3801],[-6.7699,38.0997,344.715],[-6.7644,38.1024,348.0635],[-6.7648,38.106,345.0411],[-6.7716,38.1032,350.1887],[-6.7735,38.1047,355.3935],[-6.7696,38.112,328.1364],[-6.7753,38.1125,351.2434],[-6.7799,38.109,326.8892],[-6.7822,38.1118,326.3334],[-6.7847,38.1116,324.5603],[-6.789,38.1092,318.9848],[-6.7972,38.1107,309.8933],[-6.7977,38.1139,329.9942],[-6.7998,38.1148,312.7251],[-6.8082,38.1112,305.3397],[-6.8157,38.1201,299.3158],[-6.8101,38.1327,432.7388],[-6.7994,38.1438,454.369],[-6.7988,38.1552,503.8661],[-6.7943,38.1596,512.0295],[-6.7928,38.1666,543.1768],[-6.7927,38.173,527.9089],[-6.795,38.1785,511.2678],[-6.8056,38.1787,483.2438],[-6.8222,38.1738,535.4152],[-6.8483,38.1772,491.5869],[-6.858,38.1799,506.9176],[-6.8828,38.1933,439.5763],[-6.8923,38.1954,329.7775],[-6.8941,38.198,306.4382],[-6.8979,38.1985,313.3292],[-6.9014,38.2013,268.0352],[-6.9223,38.2003,267.7706],[-6.925,38.2019,224.1095],[-6.9246,38.2053,202.1063],[-6.9268,38.2044,196.6213],[-6.9315,38.2083,195.1324],[-6.9348,38.2005,259.5704],[-6.9426,38.1933,303.5598],[-6.9536,38.1863,273.435],[-6.9614,38.1768,264.7812],[-6.9656,38.1679,209.1521],[-6.9692,38.1663,214.6194],[-6.9684,38.1593,200.8418],[-6.9625,38.1547,203.6784],[-6.958,38.1563,199.4315],[-6.9522,38.1528,200.6818],[-6.959,38.1501,204.3335],[-6.9583,38.1455,209.9389],[-6.9614,38.1405,205.1959],[-6.958,38.137,218.7372],[-6.9594,38.1335,253.9022],[-6.9649,38.132,276.074],[-6.9639,38.1312,267.6432],[-6.9657,38.1298,291.8295],[-6.9648,38.1278,290.5153],[-6.9677,38.1253,362.1498],[-6.9724,38.1148,385.0906],[-6.9706,38.1105,373.3775],[-6.9753,38.1079,361.4408],[-6.9756,38.1042,348.2672],[-6.9789,38.1051,342.7515],[-6.9828,38.1028,339.1255],[-6.9867,38.104,337.5815],[-6.9878,38.102,350.4321],[-6.9899,38.09,361.368],[-6.9874,38.0749,374.7328],[-6.9907,38.0668,366.0099],[-6.9898,38.0556,400.3249],[-6.9998,38.0495,464.4456],[-7.0021,38.0447,501.2056],[-7.0026,38.0425,506.9785],[-6.999,38.036,513.7757],[-7.003,38.03,442.0376],[-7.002,38.0224,529.6114],[-7.0044,38.0231,531.3818],[-7.0072,38.0208,522.7756],[-7.0147,38.0211,557.7122],[-7.025,38.0247,546.9938],[-7.038,38.0176,528.8278],[-7.0429,38.0165,507.3739],[-7.0447,38.014,520.5209],[-7.0468,38.0143,507.2959],[-7.0484,38.0154,507.2959],[-7.0479,38.0177,473.0479],[-7.057,38.019,452.1365],[-7.0595,38.0173,439.9189],[-7.0635,38.0196,444.8412],[-7.0641,38.0228,425.1547],[-7.0621,38.0267,415.718],[-7.0642,38.027,421.9354],[-7.0643,38.0284,407.5224],[-7.0667,38.0274,401.0885],[-7.0683,38.031,396.9218],[-7.0672,38.0336,423.9881],[-7.0713,38.0339,407.1064],[-7.0738,38.0322,375.4057],[-7.0803,38.0351,358.9242],[-7.0828,38.0337,373.6717],[-7.0821,38.036,348.1443],[-7.0901,38.0381,350.1472],[-7.0908,38.0404,337.6632],[-7.093,38.0401,344.6104],[-7.0934,38.0418,337.512],[-7.0987,38.0438,333.1631],[-7.1036,38.0409,326.5088],[-7.1083,38.0409,318.1411],[-7.1108,38.0362,312.0197],[-7.1123,38.0377,315.1466],[-7.1152,38.0365,315.5681],[-7.1139,38.0358,320.9921],[-7.1161,38.0318,312.3757],[-7.1176,38.0326,296.8166],[-7.1194,38.0307,284.6796],[-7.1209,38.033,281.3261],[-7.1283,38.0295,276.5515],[-7.1284,38.0272,278.7736],[-7.1249,38.0249,299.9897],[-7.1271,38.0221,320.2481],[-7.132,38.0216,325.6703],[-7.1277,38.0197,321.9753],[-7.1291,38.0108,359.8613],[-7.1207,38.0046,416.1546],[-7.125,38.0044,430.6626],[-7.1373,37.999,444.4766],[-7.1452,38.0029,423.7431],[-7.1498,38.0009,410.4501],[-7.1505,37.9978,402.1468],[-7.1562,37.994,408.9495],[-7.1599,37.9953,403.8055],[-7.163,37.9941,394.3154],[-7.1649,37.9959,387.3352],[-7.1735,37.9928,371.8415],[-7.1774,37.9984,368.0606],[-7.184,37.9966,354.3075],[-7.1837,37.9983,358.9332],[-7.187,38.0027,342.5701],[-7.1931,38.0007,325.9267],[-7.2023,38.0034,316.3423],[-7.207,38.0003,315.6919],[-7.2057,37.9977,309.3828],[-7.216,37.996,293.0455],[-7.2186,37.9926,296.2416],[-7.2267,37.9881,307.6882],[-7.2307,37.9915,307.8536],[-7.2325,37.9897,320.1548],[-7.2457,37.9922,294.9969],[-7.25,37.9856,292.0215],[-7.2534,37.9854,284.4796],[-7.256,37.9814,290.875],[-7.2592,37.9818,291.3601],[-7.2599,37.9795,296.0576],[-7.2624,37.9799,291.4123],[-7.2618,37.9775,278.3251],[-7.2496,37.9667,258.3177],[-7.2518,37.9601,219.3682],[-7.2483,37.9545,193.8181],[-7.2508,37.9526,191.1113],[-7.2513,37.9485,177.4639],[-7.2548,37.9457,173.0154],[-7.2528,37.9445,161.3833],[-7.2525,37.9415,168.4969],[-7.2544,37.9392,156.4471],[-7.2531,37.9385,144.8475],[-7.2578,37.9331,141.826],[-7.2549,37.9232,141.6319],[-7.2582,37.9221,144.2682],[-7.2619,37.9243,142.1631],[-7.2614,37.9182,151.7288],[-7.2679,37.9126,147.8342],[-7.2695,37.9063,143.7655],[-7.2741,37.9045,141.4909],[-7.2749,37.9019,138.5447],[-7.2736,37.8991,149.1049],[-7.2822,37.8977,143.9827],[-7.2826,37.8882,137.5158],[-7.2796,37.8765,135.3133],[-7.2865,37.8656,122.3591],[-7.2813,37.8627,141.8427],[-7.2799,37.8651,140.2259],[-7.2793,37.8626,141.8427],[-7.2782,37.864,161.0354],[-7.2778,37.8609,147.2088],[-7.2753,37.8595,154.5372],[-7.2667,37.8597,157.4188],[-7.264,37.8622,191.0938],[-7.2623,37.8622,202.3813],[-7.2622,37.86,166.085],[-7.2604,37.8606,178.9789],[-7.2587,37.8591,165.7503],[-7.2569,37.8614,167.1706],[-7.2546,37.859,175.2975],[-7.2511,37.861,189.1259],[-7.2494,37.859,177.2243],[-7.2484,37.8609,193.4706],[-7.244,37.857,197.5482],[-7.2416,37.8567,198.3382],[-7.2389,37.8524,202.0199],[-7.2381,37.8543,220.5821],[-7.2335,37.8517,220.9449],[-7.2321,37.8538,221.1709],[-7.2268,37.8543,235.1143],[-7.226,37.8529,222.126],[-7.2101,37.8502,251.3201],[-7.2051,37.8542,261.0314],[-7.1927,37.8517,293.4376],[-7.1902,37.8498,294.3725],[-7.1876,37.8516,299.5392],[-7.1821,37.8502,327.3238],[-7.1792,37.8511,332.6971],[-7.1741,37.8485,370.7524],[-7.168,37.8498,388.26],[-7.1561,37.8481,395.2954],[-7.1548,37.8452,394.8512],[-7.1449,37.845,420.6038],[-7.1373,37.842,421.5021],[-7.135,37.8368,493.7823],[-7.1294,37.8334,520.1074],[-7.1252,37.8269,559.2901],[-7.0912,37.8308,630.1211],[-7.0707,37.8349,586.6979],[-7.0664,37.8376,537.0568],[-7.0614,37.8346,489.5804],[-7.0577,37.8299,412.7874],[-7.0556,37.8177,347.8719],[-7.0494,37.8161,333.4223],[-7.0459,37.8118,318.8134],[-7.0477,37.8057,309.6493],[-7.0476,37.7953,284.9524],[-7.0498,37.7918,278.9268],[-7.0439,37.785,267.7691],[-7.0276,37.7788,239.482],[-7.015,37.7759,236.5439],[-6.9738,37.7829,295.043],[-6.9483,37.7965,331.217],[-6.9342,37.8015,340.6328],[-6.9218,37.8172,360.6459],[-6.9216,37.8101,338.8399],[-6.918,37.8029,337.1598],[-6.9211,37.7849,335.2589],[-6.9075,37.7758,315.3463],[-6.9025,37.7705,316.3461],[-6.8936,37.7652,323.3221],[-6.8624,37.7695,325.487],[-6.8633,37.78,327.4673],[-6.8534,37.7233,368.3611],[-6.8542,37.7167,268.392],[-6.8442,37.7151,275.9226],[-6.8423,37.7111,247.3366],[-6.8377,37.7092,264.1469],[-6.8287,37.7096,277.9214],[-6.8265,37.7073,290.2756],[-6.8204,37.7064,261.3893],[-6.8162,37.707,166.0402],[-6.8141,37.7094,198.9864],[-6.809,37.7068,118.7444],[-6.8139,37.7035,144.4459],[-6.8122,37.695,124.3366],[-6.8161,37.6954,135.1608],[-6.8198,37.6906,105.4897],[-6.8187,37.6871,101.9991],[-6.8165,37.6867,102.3948],[-6.8154,37.6898,100.6542],[-6.813,37.6892,99.5705],[-6.8155,37.6815,112.9225],[-6.819,37.6803,94.4741],[-6.8129,37.6747,97.2727],[-6.8062,37.678,100.0152],[-6.8055,37.6806,114.9639],[-6.8081,37.6847,127.7407],[-6.8071,37.6863,100.711],[-6.8044,37.6876,98.5808],[-6.7965,37.6866,104.8115],[-6.7984,37.6911,137.0252],[-6.7959,37.7007,107.9682],[-6.794,37.7036,110.0757],[-6.7876,37.7071,117.5739],[-6.7866,37.7109,127.9343],[-6.7823,37.7157,133.4204],[-6.7737,37.7138,126.2895],[-6.7706,37.7178,136.447],[-6.7607,37.7177,138.5822],[-6.7579,37.719,151.4213],[-6.7543,37.7184,147.5076],[-6.7503,37.7154,152.1543],[-6.7425,37.7144,149.6459],[-6.7343,37.7183,158.079],[-6.7279,37.7245,180.2693],[-6.7131,37.7214,177.8557],[-6.7089,37.7236,253.5579],[-6.706,37.7285,187.2761],[-6.7001,37.7287,194.1318],[-6.6957,37.7323,186.5505],[-6.6921,37.7322,201.5378],[-6.6938,37.7295,192.2827],[-6.6918,37.7287,187.0463],[-6.6807,37.7361,187.1546],[-6.6829,37.7401,193.6748],[-6.6801,37.7411,192.5712],[-6.6776,37.7463,192.984]]]]}
,"properties": {"GID_3": "ESP.1.5.1_1","GID_0": "ESP","country": "Spain","GID_1": "ESP.1_1","province": "Andalucía","NL_NAME_1": "NA","GID_2": "ESP.1.5_1","county": "Huelva","NL_NAME_2": "NA","city": "n.a.(133)","VARNAME_3": "NA","NL_NAME_3": "NA","TYPE_3": "Comarca","ENGTYPE_3": "Comarca","CC_3": "NA","HASC_3": "NA","name": "n.a.(133).city","area_km2": 3004.984,"hist_schema_id": "Elevation0-9000","hist_area_km2": {"100": 0.923,"125": 3.571,"150": 13.833,"175": 38.756,"200": 63.017,"225": 79.004,"250": 113.185,"275": 131.926,"300": 144.787,"325": 159.253,"350": 188.032,"375": 201.628,"400": 212.418,"425": 214.93,"450": 210.544,"475": 195.443,"500": 171.375,"525": 159.264,"550": 138.572,"575": 122.747,"600": 105.495,"625": 84.368,"650": 69.956,"675": 57.367,"700": 38.573,"725": 28.374,"750": 19.862,"775": 13.041,"800": 9.798,"825": 6.02,"850": 3.444,"875": 2.239,"900": 1.42,"925": 0.685,"950": 0.401,"975": 0.317,"1000": 0.267,"1025": 0.117,"1050": 0.033}}}