{"type": "Feature","bbox": [-4.1799,39.2585,-3.7692,39.7666],"geometry": {"type": "MultiPolygon","coordinates": [[[[-3.8127,39.2862,1137.2415],[-3.7928,39.2923,1056.7671],[-3.7954,39.2933,1045.7186],[-3.8095,39.3194,1170.1562],[-3.8133,39.333,876.3419],[-3.81,39.3427,841.0614],[-3.8055,39.3752,816.1714],[-3.7981,39.3968,781.3092],[-3.7868,39.4089,778.9491],[-3.7856,39.4149,778.7324],[-3.7738,39.4344,817.193],[-3.7692,39.4517,939.6974],[-3.7839,39.4574,905.6703],[-3.7901,39.4743,735.4615],[-3.7952,39.4762,732.2863],[-3.8072,39.4885,732.1676],[-3.8224,39.4906,732.5801],[-3.8324,39.494,730.0162],[-3.8397,39.5095,723.0175],[-3.8442,39.5262,711.8528],[-3.8361,39.5261,710.3979],[-3.8315,39.5277,709.1657],[-3.8298,39.5302,711.707],[-3.8229,39.5324,706.8534],[-3.8191,39.5354,705.4286],[-3.8141,39.5414,705.1571],[-3.8132,39.5461,702.6557],[-3.8105,39.5493,702.6235],[-3.8099,39.558,700.4089],[-3.8034,39.5718,698.0724],[-3.7941,39.5808,698.1232],[-3.7886,39.5893,696.5616],[-3.7749,39.5953,698.6609],[-3.7848,39.6049,758.3578],[-3.7878,39.6054,751.9965],[-3.7921,39.6091,752.4545],[-3.8005,39.6313,725.5231],[-3.8099,39.645,723.074],[-3.8191,39.6542,730.2393],[-3.8236,39.6621,736.6833],[-3.8252,39.6686,742.1714],[-3.8319,39.6659,742.8829],[-3.8371,39.6745,753.7286],[-3.8412,39.6773,761.8763],[-3.856,39.6813,766.0116],[-3.8597,39.6874,755.2087],[-3.8728,39.6862,756.5226],[-3.8728,39.6876,754.0769],[-3.8759,39.6874,752.7653],[-3.8862,39.6938,736.2261],[-3.8915,39.6929,730.8524],[-3.8917,39.6963,733.816],[-3.8866,39.6974,737.5078],[-3.8888,39.701,727.0425],[-3.8989,39.7043,712.6826],[-3.9142,39.7246,708.9562],[-3.9206,39.7308,719.7027],[-3.9329,39.7376,734.8868],[-3.9354,39.743,738.6487],[-3.9523,39.7465,759.0535],[-3.9619,39.7572,782.4329],[-3.9644,39.7666,922.9511],[-3.9686,39.7657,881.2928],[-3.9816,39.7566,735.6527],[-3.9996,39.7505,739.3875],[-4.0141,39.7492,769.9815],[-4.0262,39.7539,781.4379],[-4.0375,39.7486,817.4655],[-4.0375,39.7462,827.2715],[-4.0335,39.7415,944.5517],[-4.0361,39.7331,1033.707],[-4.0411,39.7408,846.7818],[-4.0536,39.7452,739.9484],[-4.0813,39.7489,664.5579],[-4.094,39.7471,628.2117],[-4.0989,39.7482,664.0851],[-4.1042,39.7467,662.84],[-4.1088,39.7415,664.7329],[-4.1133,39.7314,668.0074],[-4.1105,39.7294,659.8134],[-4.1178,39.726,666.3402],[-4.1204,39.7231,675.0322],[-4.1227,39.7242,675.4386],[-4.1358,39.7095,708.0986],[-4.1259,39.6983,716.8113],[-4.1175,39.6976,716.0381],[-4.1194,39.6931,722.0726],[-4.1191,39.6808,728.5736],[-4.1229,39.669,754.0696],[-4.1398,39.651,778.8277],[-4.1491,39.6453,774.5246],[-4.159,39.6358,791.2537],[-4.1679,39.6297,816.6948],[-4.1761,39.6272,812.8126],[-4.1799,39.6169,817.1404],[-4.1787,39.606,847.1346],[-4.1749,39.6018,872.4747],[-4.1695,39.5842,1072.4762],[-4.1615,39.58,1270.1726],[-4.1586,39.5768,1323.6632],[-4.1492,39.5734,1365.9307],[-4.1451,39.5692,1270.9871],[-4.1357,39.5652,1229.2839],[-4.1245,39.5636,1242.9377],[-4.1013,39.5658,1279.1002],[-4.0894,39.5692,1249.2452],[-4.0818,39.5681,1176.3844],[-4.0722,39.5722,1202.9897],[-4.0417,39.5754,1239.7294],[-4.0397,39.5742,1256.0762],[-4.0395,39.5677,1145.8589],[-4.0377,39.5657,1099.4979],[-4.0398,39.5592,939.506],[-4.03,39.522,804.8516],[-4.0405,39.5219,812.7767],[-4.042,39.5207,812.7767],[-4.0498,39.5225,818.5488],[-4.0597,39.5219,821.7319],[-4.068,39.5018,875.1129],[-4.065,39.4935,918.1682],[-4.0676,39.4858,960.1536],[-4.0631,39.4797,1027.1254],[-4.0634,39.4769,1043.2336],[-4.0587,39.4722,1168.3319],[-4.0621,39.4672,1156.2937],[-4.0645,39.4669,1205.269],[-4.0642,39.4623,1216.5266],[-4.068,39.4571,1226.8491],[-4.0756,39.4525,1226.1285],[-4.0812,39.4517,1227.3877],[-4.0999,39.4554,1143.9675],[-4.1036,39.4592,1187.8857],[-4.1085,39.4602,1229.4279],[-4.118,39.4569,1230.1976],[-4.1162,39.4506,1126.947],[-4.1203,39.4459,1053.1035],[-4.1204,39.4355,908.0648],[-4.1297,39.4139,746.1294],[-4.1278,39.4089,740.8611],[-4.135,39.4004,729.2313],[-4.1324,39.3969,740.1381],[-4.1428,39.3765,939.8253],[-4.1427,39.3725,1026.3926],[-4.1478,39.3666,1043.0308],[-4.148,39.3628,1062.4607],[-4.1407,39.364,1014.8092],[-4.1354,39.363,1036.6038],[-4.1279,39.3655,1050.4932],[-4.1204,39.3626,1039.1108],[-4.1154,39.3565,1031.0597],[-4.1141,39.3479,1052.8157],[-4.1086,39.3487,1042.6541],[-4.1043,39.3411,890.8583],[-4.0858,39.3495,1030.1744],[-4.0805,39.3602,915.1116],[-4.0733,39.3654,953.5248],[-4.047,39.3606,921.4612],[-4.0415,39.3579,985.9939],[-4.0254,39.3583,980.0017],[-4.0012,39.3515,1002.2697],[-3.9721,39.3522,1033.5132],[-3.9719,39.3473,931.0654],[-3.9677,39.3426,947.038],[-3.9684,39.3325,994.3906],[-3.9646,39.3309,988.7035],[-3.9682,39.3235,977.0708],[-3.9654,39.3192,989.6974],[-3.9661,39.3165,953.4739],[-3.9588,39.3102,896.6733],[-3.9584,39.3072,921.9656],[-3.9668,39.2994,927.8647],[-3.9269,39.2841,705.3729],[-3.9145,39.2843,768.1858],[-3.9004,39.2795,995.2626],[-3.8759,39.2621,705.3008],[-3.8572,39.2585,925.4237],[-3.8416,39.2596,929.1349],[-3.8372,39.2669,1003.7471],[-3.8282,39.269,1027.4772],[-3.8153,39.2792,1154.5338],[-3.8127,39.2862,1137.2415]]]]}
,"properties": {"GID_3": "ESP.4.5.2_1","GID_0": "ESP","country": "Spain","GID_1": "ESP.4_1","province": "Castilla-LaMancha","NL_NAME_1": "NA","GID_2": "ESP.4.5_1","county": "Toledo","NL_NAME_2": "NA","city": "n.a.(255)","VARNAME_3": "NA","NL_NAME_3": "NA","TYPE_3": "Comarca","ENGTYPE_3": "Comarca","CC_3": "NA","HASC_3": "NA","name": "n.a.(255).city","area_km2": 1217.9053,"hist_schema_id": "Elevation0-9000","hist_area_km2": {"625": 0.7173,"650": 6.4084,"675": 11.8573,"700": 29.1405,"725": 103.9116,"750": 164.5837,"775": 186.2896,"800": 137.8327,"825": 102.4814,"850": 78.5226,"875": 59.8725,"900": 52.5479,"925": 48.0686,"950": 41.1619,"975": 38.3981,"1000": 33.0092,"1025": 29.0457,"1050": 22.0657,"1075": 17.4792,"1100": 14.0086,"1125": 10.3898,"1150": 8.8177,"1175": 7.7217,"1200": 5.5122,"1225": 4.0237,"1250": 2.1093,"1275": 0.9315,"1300": 0.4249,"1325": 0.3105,"1350": 0.1798,"1375": 0.0817}}}