{"type": "Feature","bbox": [-6.7842,42.1481,-6.0461,42.4601],"geometry": {"type": "MultiPolygon","coordinates": [[[[-6.2983,42.1836,1066.8572],[-6.2941,42.1822,1058.0338],[-6.2936,42.178,1130.8925],[-6.2777,42.1789,1095.7654],[-6.2518,42.173,1221.6222],[-6.254,42.167,1100.9532],[-6.2421,42.1676,1039.5],[-6.2257,42.1619,962.3549],[-6.2186,42.151,904.1876],[-6.2123,42.1481,890.1335],[-6.1703,42.1582,878.8872],[-6.1601,42.1658,943.1135],[-6.1539,42.1613,949.2574],[-6.1433,42.1588,916.6799],[-6.1371,42.1647,914.7164],[-6.1246,42.1589,908.3198],[-6.1054,42.162,897.6154],[-6.0895,42.1616,870.6869],[-6.0774,42.159,861.4769],[-6.0699,42.1651,882.2094],[-6.0727,42.1907,847.3656],[-6.0495,42.1973,839.1133],[-6.0541,42.2103,871.4612],[-6.0461,42.2219,862.3657],[-6.0464,42.227,859.5167],[-6.0489,42.2284,858.1885],[-6.0584,42.2288,859.8835],[-6.0818,42.2236,872.3374],[-6.0945,42.2247,878.6837],[-6.1046,42.2192,1025.7734],[-6.1212,42.2285,1075.8715],[-6.1239,42.2286,1074.2145],[-6.1365,42.2418,1074.8958],[-6.1607,42.2549,1042.5125],[-6.1659,42.2559,999.7108],[-6.1721,42.2536,1032.3843],[-6.185,42.2569,1109.1375],[-6.1912,42.2651,1195.6128],[-6.1777,42.2856,912.9583],[-6.1644,42.2885,933.2396],[-6.1697,42.2915,943.8515],[-6.1653,42.2971,925.7086],[-6.1618,42.3134,931.9936],[-6.1591,42.3169,928.2941],[-6.1628,42.3145,932.1472],[-6.1729,42.3174,942.7161],[-6.169,42.3334,970.1251],[-6.1588,42.3469,951.4917],[-6.1646,42.3504,935.7027],[-6.1705,42.3501,945.1891],[-6.1759,42.3565,961.0677],[-6.1859,42.357,969.8966],[-6.2015,42.3629,1002.2402],[-6.2064,42.3719,1009.0526],[-6.2148,42.3786,1053.5923],[-6.2089,42.3979,1101.3499],[-6.2066,42.3997,1102.2047],[-6.2475,42.4102,1277.3835],[-6.2537,42.4127,1278.4178],[-6.2579,42.4166,1265.6177],[-6.2678,42.4205,1231.8411],[-6.2716,42.4191,1230.4956],[-6.2728,42.4218,1229.3633],[-6.2765,42.4192,1225.8135],[-6.2975,42.4246,1373.1411],[-6.3069,42.4245,1331.9336],[-6.3237,42.4309,1361.2136],[-6.3503,42.4328,1404.38],[-6.3613,42.4397,1483.0853],[-6.3792,42.4397,1627.6926],[-6.3898,42.4417,1617.0203],[-6.4132,42.4379,1606.4458],[-6.427,42.4383,1657.3771],[-6.4365,42.4418,1837.6941],[-6.4401,42.4413,1832.2987],[-6.446,42.4385,1759.7659],[-6.4592,42.4367,1668.175],[-6.4776,42.4282,1662.7369],[-6.4922,42.4257,1688.3284],[-6.4939,42.422,1686.2473],[-6.4925,42.4191,1673.3148],[-6.4888,42.4174,1662.5664],[-6.4872,42.4115,1696.3062],[-6.4681,42.4046,1683.8577],[-6.4715,42.3977,1523.314],[-6.4746,42.396,1482.3163],[-6.4761,42.3877,1678.4904],[-6.4873,42.389,1808.3384],[-6.4966,42.3862,1937.2488],[-6.4952,42.3906,1995.9496],[-6.5092,42.3937,1883.4592],[-6.514,42.3993,1937.0266],[-6.5228,42.4031,1927.1243],[-6.5307,42.4025,1981.0846],[-6.5398,42.4053,2073.9705],[-6.5554,42.403,2094.1123],[-6.5569,42.4067,1996.8822],[-6.5724,42.4114,1987.3022],[-6.5781,42.4221,1733.1853],[-6.5885,42.4315,1642.1812],[-6.5988,42.4367,1658.9294],[-6.6022,42.4408,1775.3528],[-6.6063,42.4351,1629.6671],[-6.6153,42.4454,1558.5193],[-6.6396,42.4517,1459.7874],[-6.6619,42.4484,1486.1394],[-6.6674,42.4581,1256.0369],[-6.6895,42.4601,1430.5033],[-6.6873,42.4569,1335.8971],[-6.6937,42.4545,1287.322],[-6.7004,42.4474,1248.3947],[-6.7048,42.4452,1193.0146],[-6.7148,42.4441,1115.5427],[-6.7238,42.4316,647.9405],[-6.72,42.426,445.8179],[-6.7213,42.4127,963.2606],[-6.7244,42.4094,1072.4556],[-6.7524,42.3932,1357.0933],[-6.7595,42.3865,1481.281],[-6.774,42.3788,1441.7465],[-6.7688,42.373,1418.9977],[-6.7664,42.365,1454.1603],[-6.7577,42.3675,1692.8053],[-6.7494,42.3628,1749.2657],[-6.7338,42.3591,1870.8273],[-6.7389,42.3448,1775.821],[-6.7381,42.3401,1797.9454],[-6.7406,42.3284,1844.6165],[-6.7369,42.325,1810.7551],[-6.7339,42.318,1804.5729],[-6.7396,42.3212,1781.6033],[-6.7363,42.3186,1781.9999],[-6.736,42.311,1811.4801],[-6.743,42.3033,1782.7615],[-6.741,42.2986,1828.1794],[-6.7524,42.2887,1688.3135],[-6.7552,42.2828,1791.1627],[-6.7658,42.271,1860.0214],[-6.7646,42.2679,1878.0],[-6.7669,42.2574,1938.6517],[-6.7711,42.2547,1992.7603],[-6.774,42.2542,2078.9165],[-6.7758,42.2555,2050.9526],[-6.7842,42.2536,1967.9873],[-6.7658,42.2455,1850.2003],[-6.759,42.2386,2038.2559],[-6.7428,42.2402,2054.04],[-6.7347,42.2356,1996.8071],[-6.7329,42.2317,1945.4264],[-6.7353,42.2302,1944.8286],[-6.7353,42.2279,1978.7837],[-6.7331,42.224,2016.5631],[-6.7251,42.2234,1970.1367],[-6.7227,42.2197,1945.91],[-6.7236,42.2169,2003.6608],[-6.7196,42.2133,2014.6061],[-6.7113,42.214,1955.3568],[-6.7037,42.2094,1910.9785],[-6.699,42.2098,1948.4524],[-6.6892,42.2147,1955.1459],[-6.6742,42.2144,1915.9551],[-6.6708,42.2125,1900.8718],[-6.6546,42.213,2002.9467],[-6.6478,42.2169,1992.0927],[-6.6385,42.2173,1982.1074],[-6.6298,42.212,1998.3176],[-6.6233,42.2122,1978.0022],[-6.6187,42.2094,1903.6538],[-6.6161,42.2044,1941.4591],[-6.6131,42.2032,1950.1213],[-6.607,42.2059,1928.4475],[-6.6037,42.204,1891.7363],[-6.597,42.2035,1868.8119],[-6.5935,42.2064,1834.8108],[-6.5875,42.208,1896.2549],[-6.5736,42.2049,1824.0972],[-6.5576,42.2071,1869.3916],[-6.5295,42.2027,1887.5974],[-6.5259,42.2033,1905.0791],[-6.5059,42.194,2103.8066],[-6.5065,42.1907,2047.3713],[-6.5041,42.1892,2016.5979],[-6.5082,42.1843,1984.4974],[-6.4997,42.1838,1912.505],[-6.4974,42.182,1913.3049],[-6.4919,42.1824,1900.0803],[-6.4903,42.1841,1840.8116],[-6.4781,42.1822,1877.8491],[-6.4687,42.1929,1885.2379],[-6.4613,42.1952,1872.2806],[-6.4597,42.1971,1873.748],[-6.4421,42.1935,1820.7261],[-6.4379,42.1983,1803.7849],[-6.4278,42.2019,1803.5339],[-6.4228,42.1989,1778.9236],[-6.4101,42.1957,1677.8813],[-6.3983,42.1979,1729.5427],[-6.3974,42.2008,1744.1938],[-6.3815,42.2031,1669.743],[-6.3804,42.2015,1656.64],[-6.347,42.2005,1534.2852],[-6.3416,42.2051,1515.4685],[-6.3293,42.1998,1476.0663],[-6.3234,42.2035,1467.5552],[-6.3208,42.2024,1477.2186],[-6.3125,42.2066,1498.8649],[-6.3068,42.2029,1297.3694],[-6.2983,42.1836,1066.8572]]]]}
,"properties": {"GID_3": "ESP.5.3.4_1","GID_0": "ESP","country": "Spain","GID_1": "ESP.5_1","province": "CastillayLeón","NL_NAME_1": "NA","GID_2": "ESP.5.3_1","county": "León","NL_NAME_2": "NA","city": "n.a.(151)","VARNAME_3": "NA","NL_NAME_3": "NA","TYPE_3": "Comarca","ENGTYPE_3": "Comarca","CC_3": "NA","HASC_3": "NA","name": "n.a.(151).city","area_km2": 1274.2849,"hist_schema_id": "Elevation0-9000","hist_area_km2": {"450": 0.5321,"475": 0.7043,"500": 0.9392,"525": 0.9705,"550": 1.0331,"575": 1.2053,"600": 1.5655,"625": 2.0351,"650": 1.6908,"675": 2.1764,"700": 2.8499,"725": 3.4921,"750": 3.4142,"775": 4.5735,"800": 4.6992,"825": 5.4047,"850": 10.4616,"875": 27.406,"900": 31.1825,"925": 34.4707,"950": 41.9554,"975": 36.5179,"1000": 32.9529,"1025": 35.6311,"1050": 39.4713,"1075": 42.871,"1100": 42.9956,"1125": 44.6075,"1150": 44.1519,"1175": 44.3262,"1200": 44.9856,"1225": 44.5893,"1250": 43.2895,"1275": 39.4803,"1300": 38.7299,"1325": 36.25,"1350": 35.6547,"1375": 34.5559,"1400": 32.9097,"1425": 31.8436,"1450": 29.7897,"1475": 29.0377,"1500": 27.3434,"1525": 26.5435,"1550": 24.3802,"1575": 23.3132,"1600": 21.5729,"1625": 19.9416,"1650": 18.7515,"1675": 15.4602,"1700": 14.2692,"1725": 12.0279,"1750": 12.0274,"1775": 10.6791,"1800": 9.7535,"1825": 9.283,"1850": 7.8242,"1875": 6.6494,"1900": 5.88,"1925": 5.3468,"1950": 4.5309,"1975": 3.6686,"2000": 2.6812,"2025": 1.6309,"2050": 1.082,"2075": 0.956,"2100": 0.5955,"2125": 0.3447,"2150": 0.2507,"2175": 0.094}}}