{"type":"Feature","properties":{"GID_3":"ESP.1.4.6_1","GID_0":"ESP","country":"Spain","GID_1":"ESP.1_1","province":"Andalucía","NL_NAME_1":"NA","GID_2":"ESP.1.4_1","county":"Granada","NL_NAME_2":"NA","city":"n.a.(114)","VARNAME_3":"NA","NL_NAME_3":"NA","TYPE_3":"Comarca","ENGTYPE_3":"Comarca","CC_3":"NA","HASC_3":"NA","name":"n.a.(114).city"},
"geometry":{"type": "MultiPolygon","coordinates": [[[[-3.7505,36.9765,1341.5719],[-3.753,36.9794,1355.733],[-3.7616,36.981,1356.9644],[-3.7614,36.984,1344.2908],[-3.7712,36.9888,1370.906],[-3.7751,36.9965,1252.0785],[-3.7741,37.0017,1207.5272],[-3.7678,37.0065,1201.6853],[-3.7691,37.0098,1177.0964],[-3.7655,37.0168,1129.8398],[-3.7638,37.017,1121.1827],[-3.7612,37.025,1084.4094],[-3.7593,37.0255,1072.6414],[-3.7646,37.0308,1060.7899],[-3.7642,37.0352,1133.2935],[-3.7549,37.0344,1137.9935],[-3.7381,37.0369,1070.4877],[-3.7377,37.0412,962.7661],[-3.7349,37.0425,942.1519],[-3.7308,37.049,917.6296],[-3.7327,37.0661,864.6801],[-3.7266,37.0719,829.0147],[-3.7275,37.0762,778.9087],[-3.7171,37.0822,756.5286],[-3.7042,37.0868,755.3453],[-3.6999,37.0903,740.6999],[-3.6988,37.0936,765.4788],[-3.6958,37.0949,780.8701],[-3.6974,37.0969,774.881],[-3.6947,37.1037,836.2213],[-3.6897,37.1054,889.9226],[-3.6873,37.1091,859.1849],[-3.7009,37.1133,853.2595],[-3.7041,37.1107,850.5765],[-3.7101,37.1112,863.1327],[-3.7131,37.1153,829.2708],[-3.7206,37.114,787.1478],[-3.7264,37.1179,695.8141],[-3.7351,37.1169,736.3261],[-3.7425,37.1188,799.032],[-3.7459,37.1163,814.1433],[-3.7496,37.1165,846.8038],[-3.7524,37.1185,866.7022],[-3.7543,37.1165,885.8994],[-3.7569,37.1181,898.4991],[-3.7506,37.1251,846.8973],[-3.752,37.1274,812.3975],[-3.7475,37.1346,800.6161],[-3.7564,37.1467,715.1968],[-3.7779,37.1518,721.2622],[-3.7773,37.1485,729.9514],[-3.7847,37.1372,813.6927],[-3.7891,37.1382,805.9127],[-3.7937,37.1417,772.9757],[-3.7966,37.1464,739.0594],[-3.7963,37.1494,722.1489],[-3.8103,37.1578,677.5669],[-3.8125,37.1543,687.809],[-3.8129,37.1468,697.96],[-3.8494,37.1475,668.1243],[-3.8566,37.1425,697.8419],[-3.8614,37.1468,672.4158],[-3.8584,37.158,638.9728],[-3.8694,37.1566,639.5705],[-3.8839,37.1579,645.1106],[-3.89,37.1602,624.0524],[-3.8972,37.1592,671.8956],[-3.9024,37.1555,692.5538],[-3.92,37.1486,710.1481],[-3.9344,37.1467,728.7174],[-3.9383,37.1424,740.108],[-3.9552,37.1522,704.2678],[-3.957,37.156,699.8348],[-3.9677,37.1546,562.2574],[-3.9754,37.1493,625.7596],[-3.976,37.1408,642.6322],[-3.9772,37.1412,648.5062],[-3.9804,37.1367,664.8674],[-3.9805,37.1335,679.1998],[-3.9827,37.1321,665.5313],[-3.98,37.1253,676.8778],[-3.9818,37.1236,673.321],[-3.9823,37.1174,683.2777],[-3.9854,37.119,733.7348],[-3.9941,37.1183,815.825],[-4.0132,37.0977,923.6902],[-4.0211,37.1005,912.7962],[-4.0496,37.0921,740.7951],[-4.0582,37.0923,898.473],[-4.0611,37.09,975.4277],[-4.08,37.0852,1234.4744],[-4.0864,37.0821,1301.3308],[-4.0855,37.079,1360.5898],[-4.0912,37.0799,1381.8309],[-4.1045,37.0742,1298.7134],[-4.1118,37.0732,1332.8319],[-4.114,37.0747,1362.8903],[-4.1236,37.0695,1331.718],[-4.138,37.067,1395.322],[-4.1709,37.0525,1448.6641],[-4.1802,37.0514,1513.5176],[-4.1816,37.05,1512.2351],[-4.1805,37.0489,1512.2351],[-4.1824,37.048,1485.3152],[-4.1809,37.0447,1499.1874],[-4.1843,37.0369,1445.0889],[-4.1819,37.0311,1466.3074],[-4.1841,37.0302,1499.3239],[-4.1826,37.0287,1483.7335],[-4.1911,37.025,1554.2554],[-4.2056,37.0267,1444.4977],[-4.2128,37.0227,1330.599],[-4.2232,37.0124,1081.0073],[-4.2243,37.0092,1089.5549],[-4.2205,37.0054,1098.3447],[-4.2153,36.9918,1216.1412],[-4.207,36.9862,1272.6117],[-4.193,36.9805,1446.8112],[-4.1767,36.9665,1231.6433],[-4.169,36.9624,1127.799],[-4.1665,36.9571,1244.2975],[-4.1388,36.9523,1237.261],[-4.1112,36.9497,1200.6401],[-4.0998,36.9527,1098.3888],[-4.099,36.9423,946.8523],[-4.0919,36.9333,1055.5554],[-4.074,36.9266,1299.8236],[-4.0721,36.9242,1301.8938],[-4.0635,36.9214,1584.8201],[-4.0536,36.915,1876.4109],[-4.0473,36.9036,2029.2139],[-4.0355,36.9049,2041.2152],[-4.014,36.8988,1768.6781],[-4.0121,36.8961,1661.5322],[-3.9991,36.8899,1581.1235],[-3.9826,36.8926,1593.4926],[-3.9707,36.8921,1704.658],[-3.9614,36.8894,1649.0466],[-3.9599,36.8876,1627.3247],[-3.952,36.8879,1566.5618],[-3.9463,36.885,1530.6821],[-3.944,36.8865,1508.4968],[-3.9399,36.8843,1496.6276],[-3.9294,36.8829,1611.1416],[-3.924,36.879,1530.946],[-3.9185,36.8681,1541.0177],[-3.9124,36.8694,1630.6526],[-3.9094,36.8675,1597.2795],[-3.899,36.8675,1506.8247],[-3.8954,36.8654,1521.1248],[-3.8904,36.8676,1720.1183],[-3.8807,36.8599,1239.4296],[-3.8824,36.8577,1213.0022],[-3.877,36.857,1323.5986],[-3.8776,36.8548,1337.3535],[-3.8756,36.853,1339.6873],[-3.8675,36.8507,1454.288],[-3.864,36.853,1542.0138],[-3.8609,36.8511,1495.8748],[-3.8587,36.8516,1493.8333],[-3.8422,36.8582,1590.5417],[-3.8383,36.8564,1544.314],[-3.8271,36.8556,1479.1305],[-3.8214,36.8494,1578.4646],[-3.8152,36.8469,1725.4092],[-3.8119,36.8494,1652.3073],[-3.8094,36.8583,1559.5085],[-3.8011,36.8592,1320.1748],[-3.7955,36.858,1329.5309],[-3.7875,36.8619,1284.8522],[-3.7854,36.865,1240.3562],[-3.7798,36.8671,1139.3273],[-3.7791,36.8744,1151.2466],[-3.7741,36.8798,1214.6615],[-3.7697,36.8805,1258.4036],[-3.7673,36.8833,1296.594],[-3.7699,36.8901,1330.8639],[-3.7648,36.893,1337.2308],[-3.7559,36.9067,1222.3939],[-3.759,36.9168,1107.9679],[-3.7583,36.9205,1240.9962],[-3.7564,36.9221,1220.1313],[-3.7515,36.9371,1285.0618],[-3.7477,36.9626,1273.553],[-3.7487,36.9671,1282.9867],[-3.7439,36.9731,1403.7533],[-3.7437,36.9748,1399.1914],[-3.7505,36.9765,1341.5719]]]]}}