{"type":"Feature","properties":{"GID_3":"ESP.1.7.3_1","GID_0":"ESP","country":"Spain","GID_1":"ESP.1_1","province":"Andalucía","NL_NAME_1":"NA","GID_2":"ESP.1.7_1","county":"Málaga","NL_NAME_2":"NA","city":"n.a.(183)","VARNAME_3":"NA","NL_NAME_3":"NA","TYPE_3":"Comarca","ENGTYPE_3":"Comarca","CC_3":"NA","HASC_3":"NA","name":"n.a.(183).city"},
"geometry":{"type": "MultiPolygon","coordinates": [[[[-5.4032,36.4903,52.5902],[-5.3989,36.4844,71.0117],[-5.3952,36.4693,173.8347],[-5.3741,36.4536,149.2029],[-5.3553,36.4338,265.3386],[-5.3524,36.4385,257.6997],[-5.334,36.4537,78.9678],[-5.3188,36.4633,219.6896],[-5.3145,36.471,262.3619],[-5.3098,36.475,252.6764],[-5.3041,36.4756,248.3437],[-5.2931,36.4846,310.1031],[-5.2883,36.5006,126.8888],[-5.2845,36.503,104.3725],[-5.2814,36.5093,201.3318],[-5.2778,36.5084,120.2018],[-5.2767,36.5115,119.306],[-5.2785,36.513,123.6193],[-5.2781,36.5199,139.5258],[-5.2756,36.5174,128.8864],[-5.2721,36.518,138.0159],[-5.2718,36.5218,146.381],[-5.2636,36.522,147.6214],[-5.2613,36.5248,164.2312],[-5.2567,36.5235,204.9679],[-5.2595,36.5282,234.1392],[-5.2585,36.5401,177.361],[-5.2616,36.5415,213.942],[-5.2617,36.5448,208.8413],[-5.2581,36.55,188.8606],[-5.2592,36.5581,449.5615],[-5.2566,36.5588,492.0498],[-5.2502,36.5553,235.6848],[-5.2435,36.5579,240.4428],[-5.2326,36.5499,695.8987],[-5.2151,36.5502,824.2724],[-5.2108,36.5472,910.7173],[-5.2082,36.5405,793.8949],[-5.2011,36.5354,447.5753],[-5.2008,36.5306,567.5812],[-5.1961,36.5292,680.0978],[-5.1902,36.5227,1006.3922],[-5.1823,36.5187,1132.1272],[-5.1762,36.5218,974.7651],[-5.1753,36.5244,1048.6521],[-5.1706,36.528,1039.0441],[-5.1647,36.5304,993.7494],[-5.1616,36.5352,1066.553],[-5.1469,36.5347,926.6519],[-5.14,36.53,758.8021],[-5.1368,36.5345,565.5209],[-5.1206,36.5434,338.418],[-5.1062,36.5589,913.4737],[-5.1062,36.5707,967.2076],[-5.0995,36.5723,993.4277],[-5.0865,36.5803,664.0605],[-5.0793,36.588,603.9789],[-5.0803,36.5924,817.0312],[-5.0753,36.5979,905.6366],[-5.0693,36.6011,1138.4775],[-5.0602,36.6024,1354.6653],[-5.0619,36.6088,1288.9133],[-5.058,36.6171,1215.6687],[-5.0548,36.6321,1316.6708],[-5.0427,36.6425,1443.4023],[-5.0432,36.6458,1407.3237],[-5.0228,36.6521,1043.5437],[-5.0168,36.6605,823.1584],[-5.0215,36.6613,788.3478],[-5.0306,36.6694,1001.3014],[-5.0243,36.6857,1700.3298],[-5.005,36.705,1735.8496],[-5.0023,36.7131,1650.9703],[-5.0,36.7338,1230.4922],[-4.996,36.7328,1179.0812],[-4.9892,36.7346,1127.052],[-4.9872,36.7314,1082.8904],[-4.9854,36.7314,1068.594],[-4.9764,36.7353,1014.8043],[-4.9707,36.7411,870.8549],[-4.9744,36.7486,802.2536],[-4.9715,36.7489,755.3972],[-4.9634,36.755,722.3097],[-4.955,36.7564,818.0392],[-4.9548,36.7598,804.9818],[-4.934,36.7696,633.8397],[-4.9227,36.7723,776.2198],[-4.9077,36.7712,1086.2678],[-4.9004,36.769,1453.2224],[-4.8878,36.7721,1258.6191],[-4.8917,36.7812,1026.5526],[-4.8888,36.7943,632.411],[-4.8905,36.798,627.6669],[-4.8893,36.799,589.8341],[-4.891,36.7998,604.6462],[-4.8854,36.8033,562.2668],[-4.8868,36.8041,600.402],[-4.8862,36.8064,564.3712],[-4.8811,36.8075,519.4005],[-4.8822,36.8096,529.541],[-4.8804,36.8124,497.8028],[-4.8906,36.8222,476.0343],[-4.8926,36.8201,512.5118],[-4.8956,36.822,478.1667],[-4.8994,36.8199,461.4984],[-4.9024,36.8224,458.7754],[-4.8961,36.8296,458.6581],[-4.9022,36.8343,445.5372],[-4.8958,36.8361,448.2304],[-4.8919,36.8395,443.5549],[-4.8934,36.841,447.2866],[-4.8973,36.8388,436.1681],[-4.8984,36.8398,436.1681],[-4.8969,36.8423,441.6536],[-4.9027,36.846,460.5105],[-4.9071,36.8532,602.645],[-4.9068,36.861,664.6454],[-4.9095,36.8661,699.7858],[-4.9177,36.8654,718.8509],[-4.9218,36.8677,766.215],[-4.9227,36.871,775.3424],[-4.9306,36.8763,790.3785],[-4.9409,36.8777,679.6436],[-4.9505,36.8817,636.8613],[-4.9547,36.8796,703.6705],[-4.9553,36.8777,716.9845],[-4.9775,36.8821,498.5458],[-4.979,36.8879,488.5069],[-4.9915,36.8916,508.3756],[-4.9938,36.8946,524.4371],[-5.0003,36.8937,530.6339],[-5.0028,36.8954,537.7637],[-5.0042,36.8933,568.4628],[-5.0019,36.8919,570.1329],[-5.0032,36.8894,596.7764],[-4.9999,36.8892,612.8609],[-5.0049,36.8826,671.6245],[-5.001,36.8793,637.9113],[-5.0015,36.8761,632.6965],[-5.0092,36.8759,696.0243],[-5.0154,36.8783,706.1876],[-5.027,36.8746,736.8911],[-5.0281,36.8709,809.3723],[-5.0395,36.8636,908.9777],[-5.0474,36.854,896.4174],[-5.0527,36.8516,911.8101],[-5.0554,36.8472,899.4929],[-5.0573,36.8473,917.5419],[-5.0608,36.844,879.5907],[-5.072,36.8483,933.4847],[-5.0743,36.8513,937.9965],[-5.0677,36.8571,906.5336],[-5.0622,36.8676,808.5379],[-5.0672,36.8715,854.8698],[-5.0646,36.8738,794.8221],[-5.0673,36.8756,772.2928],[-5.0728,36.8741,786.1431],[-5.0725,36.887,818.626],[-5.0739,36.8883,871.4266],[-5.0664,36.8931,929.1],[-5.063,36.8989,978.4905],[-5.0603,36.9,979.1643],[-5.0916,36.9211,819.8275],[-5.0928,36.9117,814.5552],[-5.0866,36.9051,796.8326],[-5.0935,36.9008,819.6694],[-5.0995,36.9009,769.1323],[-5.1049,36.898,776.4738],[-5.1024,36.8956,780.8564],[-5.1024,36.8918,769.3933],[-5.1097,36.8894,774.0604],[-5.1123,36.8739,798.2267],[-5.1165,36.8712,800.2399],[-5.1204,36.8589,791.156],[-5.1311,36.8416,793.8948],[-5.1339,36.8386,791.3541],[-5.1551,36.8318,871.1749],[-5.1703,36.8236,884.7576],[-5.1755,36.8253,858.3066],[-5.1792,36.8287,850.0511],[-5.1865,36.828,814.3546],[-5.1918,36.8334,715.5615],[-5.2001,36.8378,635.2449],[-5.2219,36.8428,772.9092],[-5.222,36.8502,667.5211],[-5.225,36.8563,594.7911],[-5.231,36.8612,552.0095],[-5.2439,36.8628,498.012],[-5.2666,36.8758,658.5621],[-5.2696,36.8842,647.4528],[-5.2772,36.8787,638.905],[-5.3014,36.8697,764.5272],[-5.3056,36.8582,752.3794],[-5.3076,36.8566,727.5835],[-5.3139,36.8563,741.0057],[-5.3324,36.8386,955.4094],[-5.3349,36.8276,507.6534],[-5.3406,36.8194,350.0],[-5.3349,36.8169,350.0],[-5.3331,36.8118,355.8061],[-5.3264,36.8053,382.9021],[-5.3197,36.7868,604.0427],[-5.3071,36.7804,606.0364],[-5.2908,36.7752,775.635],[-5.2951,36.7644,913.9169],[-5.3075,36.751,884.4699],[-5.3124,36.7345,988.3638],[-5.3245,36.724,880.0179],[-5.323,36.7188,1000.7194],[-5.3279,36.7005,941.6769],[-5.3273,36.6946,942.3142],[-5.3214,36.6945,1110.6571],[-5.3188,36.6928,1075.8872],[-5.3187,36.6901,1056.2615],[-5.3195,36.6882,1142.4768],[-5.3295,36.6819,1225.8807],[-5.3302,36.6789,1193.6624],[-5.3239,36.6734,972.5588],[-5.3337,36.6724,1012.1686],[-5.3437,36.6596,1098.9799],[-5.3511,36.6561,1106.3901],[-5.3529,36.6526,1133.7295],[-5.3639,36.6457,1094.6494],[-5.3789,36.6326,1314.7944],[-5.4065,36.6266,734.9883],[-5.409,36.6232,696.562],[-5.4132,36.6212,630.9191],[-5.4341,36.618,750.9698],[-5.4384,36.6142,753.9958],[-5.4558,36.6196,581.7169],[-5.4557,36.6168,562.1558],[-5.4582,36.614,558.7328],[-5.457,36.6021,474.8056],[-5.4607,36.5888,430.994],[-5.4627,36.589,430.1312],[-5.4768,36.5741,518.7357],[-5.4894,36.5705,548.471],[-5.4936,36.5601,472.5813],[-5.5019,36.5476,435.9384],[-5.5126,36.5424,397.825],[-5.522,36.5318,267.5936],[-5.5369,36.5272,203.2216],[-5.5399,36.5365,241.6589],[-5.5434,36.5384,241.5989],[-5.5669,36.5425,335.8479],[-5.5711,36.5474,381.5752],[-5.5741,36.5483,348.145],[-5.5793,36.5475,359.5723],[-5.595,36.5509,444.4106],[-5.5996,36.5507,524.6694],[-5.6101,36.5446,693.3536],[-5.6116,36.5416,738.9929],[-5.6093,36.5369,789.8134],[-5.6103,36.5341,809.2888],[-5.6061,36.5253,957.0288],[-5.6081,36.5123,1078.1191],[-5.5982,36.5085,941.4806],[-5.5829,36.5139,823.0067],[-5.5719,36.5126,687.3829],[-5.5599,36.5035,612.5995],[-5.5341,36.5028,369.3497],[-5.5241,36.4977,247.0819],[-5.5162,36.5009,157.3611],[-5.5142,36.5104,320.7516],[-5.5075,36.5157,483.8726],[-5.5081,36.518,465.8709],[-5.4928,36.5361,634.722],[-5.474,36.5366,784.9014],[-5.471,36.5355,795.984],[-5.4684,36.5302,778.484],[-5.4651,36.5279,766.0372],[-5.4615,36.5372,644.3681],[-5.453,36.5378,630.3023],[-5.4322,36.5343,407.3108],[-5.4276,36.5309,334.9675],[-5.425,36.5246,251.1383],[-5.4133,36.5207,162.8773],[-5.4144,36.5182,154.7753],[-5.4112,36.5043,96.216],[-5.4088,36.5002,88.5923],[-5.4097,36.4966,72.9221],[-5.404,36.4946,69.8113],[-5.4032,36.4903,52.5902]]]]}}