{"type":"Feature","properties":{"GID_3":"ESP.4.2.2_1","GID_0":"ESP","country":"Spain","GID_1":"ESP.4_1","province":"Castilla-LaMancha","NL_NAME_1":"NA","GID_2":"ESP.4.2_1","county":"CiudadReal","NL_NAME_2":"NA","city":"n.a.(80)","VARNAME_3":"NA","NL_NAME_3":"NA","TYPE_3":"Comarca","ENGTYPE_3":"Comarca","CC_3":"NA","HASC_3":"NA","name":"n.a.(80).city"},
"geometry":{"type": "MultiPolygon","coordinates": [[[[-3.8327,39.1422,635.5469],[-3.8676,39.1482,632.2107],[-3.888,39.1545,617.5327],[-3.9029,39.1552,640.358],[-3.9135,39.1581,646.9652],[-3.9344,39.1601,702.1741],[-3.9373,39.1584,692.3768],[-3.963,39.1547,701.4498],[-3.9989,39.1536,646.6165],[-4.008,39.1502,658.0825],[-4.0234,39.1503,799.8785],[-4.0332,39.148,846.5158],[-4.0388,39.145,860.6902],[-4.0494,39.1438,817.3699],[-4.0667,39.1369,835.8632],[-4.0744,39.1324,801.0584],[-4.0762,39.1273,864.3202],[-4.0704,39.125,817.9393],[-4.0653,39.1194,861.5356],[-4.0652,39.1149,859.1602],[-4.0726,39.112,805.6949],[-4.0795,39.1141,824.3366],[-4.0893,39.1047,807.8037],[-4.1023,39.1029,764.9592],[-4.1066,39.0955,767.7646],[-4.1057,39.0924,793.4404],[-4.1139,39.09,782.264],[-4.1143,39.0869,745.6085],[-4.1164,39.0858,771.6843],[-4.1119,39.0793,745.9004],[-4.1122,39.0669,728.777],[-4.1064,39.0581,730.86],[-4.1088,39.0549,779.2622],[-4.103,39.0503,753.7035],[-4.1053,39.0466,778.4777],[-4.1127,39.0421,804.0917],[-4.114,39.0379,792.2807],[-4.1333,39.0233,736.6983],[-4.1319,39.0157,738.6213],[-4.1382,39.0143,742.2575],[-4.1471,39.0153,717.4825],[-4.1568,39.0125,761.8418],[-4.1586,39.0107,778.8077],[-4.1614,39.0063,805.8683],[-4.1595,39.0038,750.3224],[-4.1671,38.9977,659.4916],[-4.1713,38.9754,755.2737],[-4.1793,38.9736,804.1528],[-4.1821,38.9685,800.5303],[-4.1885,38.9681,797.7231],[-4.2098,38.9711,632.6766],[-4.2324,38.9706,766.6857],[-4.2451,38.9761,804.1953],[-4.25,38.9747,727.7999],[-4.2507,38.9667,740.6706],[-4.2543,38.9596,582.0311],[-4.2603,38.9371,746.259],[-4.2456,38.928,605.9626],[-4.2452,38.9264,596.2786],[-4.2562,38.9182,647.8063],[-4.2601,38.917,656.8929],[-4.2649,38.9114,738.9557],[-4.2673,38.9023,755.9737],[-4.279,38.8963,738.1249],[-4.2964,38.884,685.869],[-4.2995,38.8781,677.7625],[-4.3114,38.8712,660.1633],[-4.3228,38.8614,644.6066],[-4.327,38.8603,641.8593],[-4.3307,38.8541,645.1956],[-4.3363,38.8555,639.7914],[-4.35,38.8507,623.1968],[-4.3562,38.8529,625.045],[-4.3645,38.8461,606.1207],[-4.3692,38.8467,605.0376],[-4.3712,38.8447,604.3552],[-4.3735,38.8457,606.3467],[-4.375,38.844,597.1193],[-4.3796,38.8447,591.9945],[-4.3793,38.8466,592.2307],[-4.3827,38.8486,589.3102],[-4.3916,38.8458,583.5168],[-4.3879,38.8403,591.7039],[-4.3876,38.8362,588.861],[-4.3822,38.8358,593.7485],[-4.3775,38.8307,594.8107],[-4.3728,38.8325,595.757],[-4.3663,38.8241,595.4498],[-4.3657,38.8179,599.7119],[-4.3618,38.8126,623.7929],[-4.3589,38.8119,614.9307],[-4.3569,38.8142,599.3082],[-4.3549,38.8135,600.3173],[-4.3498,38.8057,601.2683],[-4.3456,38.8038,602.6524],[-4.3352,38.8039,610.2682],[-4.3252,38.8013,609.1561],[-4.3227,38.7996,619.6978],[-4.3218,38.7948,619.1772],[-4.3136,38.7944,615.5546],[-4.3121,38.7917,627.6972],[-4.3022,38.7925,619.402],[-4.2993,38.7892,618.8738],[-4.2814,38.7864,620.3381],[-4.2767,38.7844,621.7123],[-4.2618,38.7838,627.578],[-4.2582,38.7804,627.6347],[-4.2527,38.7799,626.5359],[-4.2459,38.7761,631.5651],[-4.239,38.7631,631.2842],[-4.2353,38.7603,632.1459],[-4.2302,38.7624,650.5837],[-4.2285,38.7608,633.764],[-4.2155,38.7602,638.1769],[-4.212,38.7579,637.1382],[-4.1896,38.7597,675.3887],[-4.1262,38.7452,661.9757],[-4.1285,38.7352,660.1217],[-4.1237,38.7262,660.32],[-4.1231,38.708,701.585],[-4.1041,38.7094,676.748],[-4.0862,38.699,864.1096],[-4.0817,38.7,890.1902],[-4.0755,38.6981,916.9509],[-4.0621,38.7012,938.2684],[-4.0552,38.7009,934.507],[-4.0456,38.6978,924.4083],[-4.0427,38.6925,941.3738],[-4.0268,38.6895,911.6562],[-4.0104,38.6896,904.3435],[-4.01,38.6911,913.83],[-4.0001,38.6926,932.9362],[-3.9807,38.6897,984.9869],[-3.9753,38.6923,972.5046],[-3.973,38.6909,982.6908],[-3.9575,38.6905,937.822],[-3.957,38.6918,937.822],[-3.9478,38.692,933.3188],[-3.945,38.6906,953.7465],[-3.9394,38.6806,928.6669],[-3.9395,38.6774,947.1248],[-3.9339,38.6727,912.9786],[-3.9343,38.6635,773.55],[-3.9269,38.6536,980.529],[-3.9313,38.6439,791.6859],[-3.9287,38.637,717.8244],[-3.9223,38.6362,685.2729],[-3.8942,38.6448,707.5883],[-3.8911,38.6465,705.9167],[-3.8893,38.6509,785.1754],[-3.884,38.6557,1059.2113],[-3.8796,38.6557,987.4254],[-3.8664,38.6599,898.0126],[-3.8625,38.6615,879.7457],[-3.8619,38.6638,876.4203],[-3.8514,38.6573,676.9307],[-3.8357,38.656,691.7927],[-3.8295,38.6495,749.4859],[-3.83,38.646,779.1434],[-3.8217,38.6403,761.9979],[-3.8165,38.6342,749.1735],[-3.8052,38.6294,772.8069],[-3.7979,38.6223,750.0822],[-3.7941,38.6168,742.8604],[-3.7938,38.6136,756.9437],[-3.7911,38.6114,847.1469],[-3.7916,38.6076,747.211],[-3.8111,38.5906,792.1854],[-3.8126,38.5727,685.3707],[-3.8265,38.577,659.1574],[-3.8295,38.5807,642.7949],[-3.8474,38.5848,596.7303],[-3.8666,38.5866,546.275],[-3.874,38.5662,539.5932],[-3.888,38.5641,586.757],[-3.892,38.5591,553.5902],[-3.9027,38.557,630.8436],[-3.9129,38.5441,890.4207],[-3.9129,38.5388,958.2583],[-3.9195,38.534,993.3069],[-3.9016,38.528,958.4465],[-3.8958,38.5298,712.5168],[-3.8852,38.5272,603.9903],[-3.878,38.5197,977.2908],[-3.8736,38.5198,998.2024],[-3.8579,38.5129,982.4901],[-3.8561,38.5001,1057.1663],[-3.8515,38.4989,1055.3967],[-3.8482,38.4959,1110.0326],[-3.845,38.4979,1087.0283],[-3.8387,38.4936,1069.6941],[-3.831,38.4925,1074.1921],[-3.8292,38.4937,1093.3511],[-3.8209,38.4902,1053.9385],[-3.8126,38.4896,1062.4316],[-3.7858,38.4806,1033.0616],[-3.7785,38.4758,1011.3724],[-3.7682,38.4744,1079.1332],[-3.7592,38.4664,1015.9449],[-3.7545,38.4642,1038.8102],[-3.7456,38.4649,971.3335],[-3.7336,38.4943,821.2061],[-3.7254,38.4997,813.5751],[-3.7216,38.5093,833.4761],[-3.7168,38.5152,864.0631],[-3.7087,38.521,828.6609],[-3.7069,38.5246,812.6669],[-3.7014,38.5271,786.431],[-3.6982,38.5315,788.1855],[-3.6975,38.5346,783.8628],[-3.6994,38.5363,779.7021],[-3.704,38.5368,766.515],[-3.7074,38.5431,746.066],[-3.712,38.5456,726.9216],[-3.7133,38.5474,720.5179],[-3.712,38.5532,734.1748],[-3.7145,38.5546,733.2223],[-3.7018,38.5656,663.1976],[-3.6928,38.5698,692.3541],[-3.6912,38.5808,740.6518],[-3.6711,38.5983,654.9211],[-3.6521,38.6118,826.9896],[-3.6531,38.6163,790.0344],[-3.6472,38.6277,780.6962],[-3.6501,38.6359,781.6991],[-3.6561,38.6433,783.5847],[-3.628,38.6524,817.5514],[-3.6201,38.6674,741.1277],[-3.6078,38.672,821.6762],[-3.5973,38.6661,853.6559],[-3.5886,38.6638,803.16],[-3.5886,38.6673,792.5831],[-3.5743,38.6814,748.2552],[-3.56,38.7049,673.0889],[-3.5365,38.7234,708.5546],[-3.5342,38.7267,716.5056],[-3.5328,38.7383,745.7783],[-3.535,38.7461,780.4099],[-3.5321,38.7469,777.4195],[-3.5296,38.7498,791.6414],[-3.5338,38.7513,792.5388],[-3.5249,38.7563,765.7225],[-3.5234,38.76,766.6351],[-3.5249,38.7614,773.845],[-3.5219,38.7641,771.9075],[-3.5145,38.7667,740.0468],[-3.5137,38.7743,670.8466],[-3.5162,38.7837,668.7158],[-3.5078,38.8151,854.0394],[-3.509,38.8194,880.2361],[-3.5075,38.8293,837.7535],[-3.514,38.845,864.2911],[-3.5118,38.8521,809.352],[-3.5174,38.8486,868.7071],[-3.5211,38.8489,883.3335],[-3.5299,38.861,774.4084],[-3.535,38.8792,730.622],[-3.555,38.9062,709.1098],[-3.5563,38.9278,646.2156],[-3.5754,38.9234,644.4722],[-3.5761,38.9269,644.3397],[-3.5922,38.9511,642.6433],[-3.616,38.9748,639.8494],[-3.6153,38.9782,638.6641],[-3.6217,38.9912,636.4787],[-3.6319,38.9987,634.9891],[-3.656,38.9953,633.348],[-3.6724,38.9881,639.0519],[-3.6849,38.9908,629.2714],[-3.6986,39.0053,620.9433],[-3.6876,39.0233,638.2538],[-3.6957,39.0302,622.8669],[-3.7022,39.0413,628.105],[-3.7044,39.0425,624.9318],[-3.7031,39.0434,624.9318],[-3.7172,39.0625,620.0127],[-3.7247,39.0659,618.0362],[-3.7277,39.0693,611.7772],[-3.7335,39.0814,617.5343],[-3.7333,39.0885,613.911],[-3.7395,39.0928,616.9701],[-3.7618,39.0928,618.3401],[-3.7708,39.0948,617.8419],[-3.7796,39.0988,609.511],[-3.7812,39.101,602.572],[-3.7906,39.0996,608.6755],[-3.7954,39.102,606.6375],[-3.7994,39.1052,602.7283],[-3.7945,39.1054,604.4034],[-3.7942,39.1067,605.4813],[-3.8028,39.1071,608.5386],[-3.8057,39.1106,608.4161],[-3.8058,39.1132,604.5029],[-3.804,39.1126,604.5099],[-3.8026,39.1144,604.807],[-3.804,39.1258,611.6602],[-3.802,39.1345,628.8256],[-3.8067,39.1343,616.6849],[-3.8327,39.1422,635.5469]]]]}}