{"type": "Feature","id": "5829","bbox": [-15.82177,27.73436,-13.4178,29.28946],"geometry": {"type": "MultiPolygon","coordinates": [[[[-15.41564,28.14151,3.4764],[-15.40856,28.15375,0.0],[-15.40014,28.15721,0.0],[-15.39989,28.16503,2.5639],[-15.40526,28.17792,0.0],[-15.40929,28.17975,0.0],[-15.43871,28.17487,0.0],[-15.43505,28.14094,13.7457],[-15.45873,28.13422,0.0],[-15.52131,28.14753,57.7933],[-15.59704,28.14753,0.0],[-15.65079,28.16389,25.7487],[-15.66527,28.16055,0.0],[-15.67443,28.16527,0.0],[-15.6844,28.16763,32.3268],[-15.69506,28.1682,0.0],[-15.70621,28.16739,0.0],[-15.70006,28.1529,0.0],[-15.69811,28.13304,31.9396],[-15.70214,28.11506,98.9342],[-15.71369,28.1059,0.0],[-15.70836,28.08194,175.3329],[-15.72521,28.05687,348.3385],[-15.74983,28.03596,499.462],[-15.76769,28.02399,450.1722],[-15.807,28.00503,41.3249],[-15.81607,27.99604,69.0057],[-15.82063,27.98408,381.0173],[-15.82177,27.96833,458.5302],[-15.82006,27.95287,362.8105],[-15.81607,27.94147,271.3686],[-15.8212,27.92178,362.7805],[-15.81505,27.90127,321.7505],[-15.786,27.84422,180.8842],[-15.78197,27.83845,194.0925],[-15.77282,27.83198,196.369],[-15.75186,27.82136,74.3694],[-15.74787,27.81452,204.9399],[-15.73965,27.80435,20.4024],[-15.6857,27.76333,0.0],[-15.66955,27.75715,24.6278],[-15.6505,27.75312,0.0],[-15.60725,27.75031,35.6117],[-15.59773,27.74628,9.6043],[-15.58825,27.73892,2.0213],[-15.57795,27.73436,0.0],[-15.56603,27.73941,0.0],[-15.53966,27.76561,0.0],[-15.5349,27.76642,0.0],[-15.52343,27.77167,0.0],[-15.45303,27.79125,0.0],[-15.4392,27.80268,6.7768],[-15.40697,27.83832,0.0],[-15.39468,27.84589,0.0],[-15.37784,27.85228,0.0],[-15.37597,27.86758,0.0],[-15.38272,27.88548,0.0],[-15.39159,27.89985,12.808],[-15.38191,27.92121,0.0],[-15.37462,27.92988,0.0],[-15.36364,27.93464,46.3161],[-15.36364,27.94147,0.0],[-15.3767,27.95751,0.0],[-15.37413,27.97549,0.0],[-15.36628,27.99348,3.0461],[-15.36364,28.00971,0.0],[-15.36758,28.01581,0.0],[-15.38345,28.02432,0.0],[-15.39159,28.03022,0.4525],[-15.39965,28.04267,0.0],[-15.40392,28.0563,0.0],[-15.40624,28.06806,0.0],[-15.40856,28.0749,0.0],[-15.41495,28.11449,0.0],[-15.41564,28.14151,3.4764]]],
[[[-14.24454,28.12922,0.0],[-14.21223,28.16055,0.0],[-14.19164,28.17084,0.0],[-14.15201,28.18,0.0],[-14.11856,28.20051,12.8656],[-14.07258,28.21284,28.215],[-13.96679,28.22797,0.0],[-13.93371,28.24421,52.359],[-13.91128,28.27725,37.8642],[-13.90022,28.3111,71.8027],[-13.89208,28.32819,69.9175],[-13.87515,28.34907,0.0],[-13.87182,28.35798,0.0],[-13.87011,28.36774,5.0264],[-13.86962,28.3769,9.4993],[-13.86571,28.38288,2.3689],[-13.84777,28.39741,0.0],[-13.84293,28.40693,0.0],[-13.84435,28.41429,0.0],[-13.85363,28.42841,0.0],[-13.85656,28.43488,0.0],[-13.85774,28.4455,0.0],[-13.85656,28.47899,0.0],[-13.85294,28.49274,0.0],[-13.83519,28.53075,0.0],[-13.82868,28.55158,0.1944],[-13.82116,28.63666,0.0],[-13.82437,28.68179,0.0],[-13.83552,28.71548,0.0],[-13.86457,28.74421,1.1541],[-13.89867,28.75389,0.0],[-13.93541,28.7495,0.0],[-13.97265,28.73591,0.0],[-13.98949,28.72687,0.0],[-13.99991,28.71674,3.6536],[-14.00528,28.7036,16.2619],[-14.01012,28.66747,13.6376],[-14.02457,28.63711,27.3584],[-14.03612,28.58739,16.8494],[-14.07555,28.53612,0.0],[-14.0983,28.48664,0.0],[-14.12792,28.44359,84.2496],[-14.14086,28.43488,54.8838],[-14.14639,28.42333,90.4817],[-14.17129,28.35236,42.2186],[-14.19323,28.32184,198.2121],[-14.20189,28.3039,136.9961],[-14.20739,28.25438,47.5301],[-14.21353,28.23493,9.135],[-14.22444,28.21857,0.0],[-14.24014,28.20156,53.6336],[-14.27013,28.17597,6.7095],[-14.34118,28.13451,0.0],[-14.39892,28.11123,0.0],[-14.43602,28.10053,46.136],[-14.45556,28.09911,138.4641],[-14.48974,28.10432,20.8293],[-14.4969,28.10253,12.7542],[-14.49645,28.09854,4.539],[-14.49926,28.08657,0.0],[-14.50341,28.07477,0.8644],[-14.50707,28.07119,0.0],[-14.49486,28.06782,0.0],[-14.42862,28.07119,42.1083],[-14.40831,28.06696,69.63],[-14.36901,28.05077,0.0],[-14.34317,28.05069,60.3541],[-14.30134,28.06786,0.0],[-14.27139,28.09614,0.0],[-14.24454,28.12922,0.0]]],
[[[-13.45873,29.14741,67.0456],[-13.43879,29.159,53.107],[-13.43151,29.17243,28.7009],[-13.4276,29.18871,22.645],[-13.4178,29.20893,0.0],[-13.4466,29.23298,0.0],[-13.4654,29.24331,0.0],[-13.48298,29.23994,0.0],[-13.49547,29.22508,0.0],[-13.50316,29.20816,0.0],[-13.51399,29.17475,301.877],[-13.52611,29.1503,0.0],[-13.53722,29.13825,0.0],[-13.55118,29.13422,0.0],[-13.60237,29.13426,8.8333],[-13.61828,29.13239,0.0],[-13.63683,29.12694,0.0],[-13.65648,29.11603,5.5837],[-13.69017,29.09089,41.9161],[-13.70889,29.086,0.0],[-13.73143,29.08466,0.0],[-13.75056,29.08063,0.0],[-13.76684,29.07404,0.0],[-13.78087,29.06489,0.0],[-13.79849,29.04808,0.0],[-13.8321,29.00039,0.0],[-13.83507,28.98721,0.0],[-13.8391,28.93789,0.0],[-13.84293,28.92154,0.0],[-13.85342,28.90497,27.6095],[-13.86193,28.89741,0.0],[-13.87304,28.89423,0.0],[-13.87633,28.88882,21.513],[-13.87365,28.87686,26.0838],[-13.8673,28.86489,14.8083],[-13.85969,28.85944,0.0],[-13.81212,28.85908,9.2654],[-13.79149,28.85346,12.2937],[-13.78087,28.83959,0.0],[-13.77465,28.83959,0.0],[-13.75719,28.87031,22.675],[-13.73607,28.89647,0.0],[-13.7093,28.9147,0.0],[-13.67439,28.92154,3.9498],[-13.65844,28.92259,27.4956],[-13.63549,28.92723,0.5147],[-13.61978,28.92837,0.0],[-13.60757,28.9326,0.0],[-13.59972,28.94204,0.0],[-13.58996,28.95136,2.2056],[-13.54304,28.96174,3.2589],[-13.51049,28.97748,0.0],[-13.48205,28.99946,1.1171],[-13.46557,29.02391,33.1607],[-13.46459,29.03217,0.0],[-13.46622,29.04975,6.1906],[-13.46557,29.05805,5.6808],[-13.46227,29.06574,15.485],[-13.45385,29.07892,14.0363],[-13.45189,29.086,21.6533],[-13.45401,29.10407,0.0],[-13.45914,29.1186,0.0],[-13.46239,29.13215,8.8719],[-13.45873,29.14741,67.0456]]],
[[[-13.49201,29.24266,5.1421],[-13.47789,29.26626,15.0829],[-13.48668,29.28461,0.0],[-13.50817,29.28946,4.18],[-13.51793,29.2735,8.1404],[-13.52575,29.25121,5.9515],[-13.54125,29.2368,0.0],[-13.54125,29.2294,58.0566],[-13.51708,29.22626,3.3447],[-13.49201,29.24266,5.1421]]]]}
,"properties": {"ISO3166-1-Alpha-3": "ESP","country": "Spain","fill": "#F0F","name": "Las Palmas","area_km2": 4054.738,"hist_schema_id": "Elevation0-9000","hist_area_km2": {"0": 216.836,"25": 263.359,"50": 267.928,"75": 259.998,"100": 252.808,"125": 229.951,"150": 229.804,"175": 222.82,"200": 208.709,"225": 181.973,"250": 156.332,"275": 145.035,"300": 142.471,"325": 124.917,"350": 94.178,"375": 77.607,"400": 65.643,"425": 58.416,"450": 50.712,"475": 47.591,"500": 41.513,"525": 40.121,"550": 37.005,"575": 34.78,"600": 30.792,"625": 28.882,"650": 27.486,"675": 23.894,"700": 23.651,"725": 23.332,"750": 21.946,"775": 20.804,"800": 20.337,"825": 19.569,"850": 18.839,"875": 19.457,"900": 20.263,"925": 20.769,"950": 20.244,"975": 18.146,"1000": 17.883,"1025": 16.328,"1050": 16.74,"1075": 16.235,"1100": 15.673,"1125": 14.212,"1150": 13.182,"1175": 14.025,"1200": 12.564,"1225": 11.141,"1250": 9.568,"1275": 8.651,"1300": 7.377,"1325": 7.059,"1350": 6.31,"1375": 4.831,"1400": 5.055,"1425": 4.531,"1450": 4.4,"1475": 4.119,"1500": 3.67,"1525": 3.483,"1550": 3.576,"1575": 3.801,"1600": 3.146,"1625": 2.453,"1650": 2.565,"1675": 2.472,"1700": 2.678,"1725": 1.891,"1750": 1.554,"1775": 1.273,"1800": 0.936,"1825": 0.73,"1850": 0.768,"1875": 0.524,"1900": 0.318,"1925": 0.094}}}