{"type":"Feature","properties":{"GID_2":"ESP.14.1_1","GID_0":"ESP","country":"Spain","GID_1":"ESP.14_1","province":"IslasCanarias","NL_NAME_1":"NA","county":"LasPalmas","VARNAME_2":"NA","NL_NAME_2":"NA","TYPE_2":"Provincia","ENGTYPE_2":"Province","CC_2":"35","HASC_2":"ES.CN.LP","name":"Las_Palmas.county"},
"geometry":{"type": "MultiPolygon","coordinates": [[[[-15.4476,27.7982,0.0],[-15.436,27.8013,0.0],[-15.4326,27.7993,0.0],[-15.4326,27.8024,1.0725],[-15.4268,27.8046,0.0],[-15.4224,27.8088,0.1379],[-15.4201,27.8182,0.9288],[-15.4229,27.8218,0.5981],[-15.4215,27.8263,0.0],[-15.4224,27.8301,7.9249],[-15.4201,27.8335,5.3696],[-15.4174,27.8346,0.0],[-15.4185,27.8396,0.0],[-15.4132,27.8471,3.3015],[-15.4062,27.8471,0.1343],[-15.4038,27.8485,0.0],[-15.4001,27.8457,2.1708],[-15.4018,27.851,1.6774],[-15.399,27.8532,0.0],[-15.3982,27.8565,0.8873],[-15.3924,27.8549,0.0],[-15.3849,27.8571,3.6636],[-15.386,27.861,1.6862],[-15.3835,27.8612,0.0],[-15.3832,27.8649,0.0],[-15.386,27.866,2.1198],[-15.3846,27.8687,0.0],[-15.3862,27.8707,5.2853],[-15.3824,27.8707,0.0],[-15.3821,27.8738,0.7893],[-15.3799,27.8762,0.0],[-15.3899,27.881,0.0],[-15.3932,27.8888,2.1054],[-15.3929,27.8915,0.0],[-15.3874,27.8985,0.2288],[-15.3851,27.9054,1.2597],[-15.3846,27.9088,0.0],[-15.3871,27.9112,7.9046],[-15.3846,27.911,0.0],[-15.386,27.9151,5.0514],[-15.3835,27.9215,0.0],[-15.384,27.9271,0.569],[-15.3799,27.9304,0.0],[-15.3779,27.9343,3.6419],[-15.3743,27.9354,0.0],[-15.3626,27.9299,4.267],[-15.3618,27.9279,0.0],[-15.3576,27.9307,0.0],[-15.3585,27.9351,6.255],[-15.3607,27.9374,0.0],[-15.3687,27.9404,7.2659],[-15.3671,27.944,0.3407],[-15.3679,27.9457,0.0],[-15.3712,27.9449,0.8901],[-15.374,27.9482,0.0],[-15.3776,27.9471,0.0],[-15.3807,27.9507,3.8366],[-15.3768,27.9532,2.0864],[-15.3774,27.9557,0.0],[-15.381,27.9576,4.8121],[-15.3799,27.9615,0.0],[-15.3774,27.9629,0.0],[-15.3793,27.965699999999998,0.0],[-15.3824,27.9646,6.1314],[-15.3829,27.9732,3.4725],[-15.3787,27.9763,6.8813],[-15.3771,27.9746,0.0],[-15.3754,27.9771,6.8335],[-15.3785,27.9835,1.8664],[-15.3757,27.984,6.8432],[-15.3751,27.9863,9.0828],[-15.3776,27.9874,8.9124],[-15.3701,27.9879,0.0],[-15.3662,27.9918,3.0245],[-15.3693,27.994,0.0],[-15.3699,27.9971,0.0],[-15.3751,27.9965,27.204],[-15.3737,27.9982,0.0],[-15.3737,28.0032,0.0],[-15.3774,28.0068,7.8753],[-15.3729,28.0088,0.0],[-15.3851,28.0168,39.0825],[-15.3849,28.0243,6.5802],[-15.3868,28.026,9.3473],[-15.3843,28.0274,0.0],[-15.3868,28.0285,2.8025],[-15.3863,28.0304,0.0],[-15.3907,28.0296,0.546],[-15.4012,28.0354,19.17],[-15.4096,28.0424,4.4626],[-15.4085,28.0438,0.0],[-15.4096,28.0451,0.2757],[-15.4121,28.044,1.704],[-15.4154,28.0474,0.0],[-15.4124,28.0526,1.6508],[-15.414,28.0557,0.0],[-15.4163,28.054,9.4455],[-15.4201,28.0607,45.7278],[-15.4193,28.0626,0.0],[-15.4163,28.0624,0.0],[-15.4179,28.066,6.1919],[-15.4157,28.069,0.0],[-15.4163,28.0713,0.8331],[-15.4138,28.0754,2.4746],[-15.4121,28.0754,0.0],[-15.4143,28.0785,2.0052],[-15.4132,28.0815,0.0],[-15.4157,28.0829,4.6447],[-15.416,28.0857,3.7494],[-15.4115,28.0912,4.7366],[-15.4107,28.1035,0.0],[-15.4157,28.1135,3.3873],[-15.4213,28.121,0.0],[-15.4229,28.1224,0.0],[-15.424,28.1215,8.8213],[-15.4232,28.1293,0.0],[-15.4257,28.1268,0.2947],[-15.4243,28.1299,0.0],[-15.4293,28.1296,4.5503],[-15.429,28.1321,9.7204],[-15.4243,28.1354,0.0],[-15.4251,28.1396,0.0],[-15.426,28.1374,0.8099],[-15.4285,28.1371,8.6614],[-15.4276,28.1399,0.0],[-15.4229,28.1396,0.9405],[-15.4226,28.1413,0.6085],[-15.4265,28.1424,0.0],[-15.4276,28.1463,0.3821],[-15.426,28.146,0.3821],[-15.4254,28.1429,1.9464],[-15.4235,28.1426,0.0],[-15.4218,28.1468,0.8595],[-15.421,28.1413,0.6368],[-15.4196,28.1418,1.5582],[-15.4196,28.146,4.8798],[-15.4179,28.1457,4.8798],[-15.4168,28.1285,0.0],[-15.4149,28.1304,6.4876],[-15.4157,28.1421,4.1814],[-15.4118,28.1404,0.0],[-15.416,28.1465,4.3667],[-15.4121,28.1426,3.0445],[-15.4107,28.1429,0.0],[-15.4143,28.1482,0.0],[-15.4129,28.1504,0.0],[-15.4099,28.1501,0.0],[-15.4079,28.1576,2.6355],[-15.4068,28.1501,0.0],[-15.4079,28.1485,0.0],[-15.4065,28.1485,0.0],[-15.4062,28.1607,5.3438],[-15.4051,28.1632,3.1837],[-15.4015,28.1649,3.8249],[-15.4012,28.1668,1.9374],[-15.4037,28.1668,2.9849],[-15.4029,28.1685,0.0],[-15.4049,28.169,0.0],[-15.4012,28.1712,0.0],[-15.404,28.1757,0.0],[-15.4071,28.1787,0.0],[-15.411,28.179,0.0],[-15.4118,28.1804,0.0],[-15.4149,28.1804,0.0],[-15.4157,28.179,0.0],[-15.4193,28.1821,0.0],[-15.4218,28.1818,0.0],[-15.4254,28.1765,19.9945],[-15.429,28.1768,0.0],[-15.4329,28.1715,1.0761],[-15.4396,28.1699,0.0],[-15.4407,28.1674,0.0],[-15.4438,28.1668,0.0],[-15.4418,28.1651,1.5298],[-15.4429,28.1621,-0.0698],[-15.4335,28.1574,23.1055],[-15.4326,28.1546,0.0],[-15.4346,28.1537,0.0],[-15.4326,28.1513,0.0],[-15.4335,28.1474,0.8886],[-15.4312,28.1482,4.007],[-15.4312,28.1451,9.1337],[-15.4374,28.1401,0.0],[-15.4376,28.1374,1.3076],[-15.4438,28.1318,18.862],[-15.4482,28.1301,10.2066],[-15.4501,28.1326,0.0],[-15.4537,28.1285,7.3976],[-15.4557,28.1299,0.0],[-15.4568,28.1288,0.0],[-15.4565,28.1301,0.0],[-15.4579,28.1299,0.0],[-15.4582,28.1282,9.1848],[-15.4637,28.1296,0.0],[-15.4646,28.1271,0.0],[-15.4674,28.1262,4.3061],[-15.4699,28.1276,0.0],[-15.4729,28.1329,0.0],[-15.4749,28.1326,0.0],[-15.4743,28.134,0.0],[-15.4762,28.1343,5.9988],[-15.4771,28.1371,0.0],[-15.4815,28.1374,0.0],[-15.4854,28.1354,29.3991],[-15.489,28.1413,0.0],[-15.4954,28.1432,4.5942],[-15.496,28.1474,0.0],[-15.4982,28.1426,7.3668],[-15.5079,28.1482,1.9399],[-15.5135,28.1485,16.7786],[-15.5154,28.1471,0.0],[-15.5218,28.154,0.0],[-15.5251,28.1543,1.3623],[-15.5262,28.156,0.0],[-15.5299,28.156,0.0],[-15.5337,28.1524,0.0],[-15.5382,28.1526,0.0],[-15.5432,28.1476,0.0],[-15.546,28.1468,4.0723],[-15.5571,28.1463,2.5986],[-15.5607,28.1479,0.0],[-15.5632,28.146,0.0],[-15.5654,28.1474,0.0],[-15.5688,28.1451,4.4653],[-15.5768,28.146,0.0],[-15.5801,28.1446,0.0],[-15.5876,28.1476,0.0],[-15.599,28.1446,4.4676],[-15.6024,28.1482,0.0],[-15.6049,28.1471,34.1114],[-15.6074,28.1493,0.0],[-15.6126,28.1474,4.125],[-15.6179,28.1549,18.7787],[-15.6215,28.1549,111.0908],[-15.6268,28.1657,0.0],[-15.6374,28.1726,0.0],[-15.6432,28.1671,0.0],[-15.6512,28.1657,0.0],[-15.654,28.1674,0.0],[-15.6563,28.1643,17.5608],[-15.6693,28.1596,0.0],[-15.674,28.1626,0.0],[-15.6774,28.1601,19.1617],[-15.6768,28.1621,0.0],[-15.681,28.164,0.0],[-15.6799,28.1679,0.0],[-15.6835,28.1712,0.0],[-15.6904,28.1704,5.9367],[-15.6907,28.1671,33.6605],[-15.6982,28.164,0.0],[-15.706,28.1663,0.0],[-15.7101,28.1651,0.0],[-15.7096,28.1612,0.0],[-15.7065,28.1568,0.0],[-15.6968,28.1521,49.837],[-15.6965,28.1507,13.8582],[-15.7049,28.1426,1.3694],[-15.7021,28.1413,12.8182],[-15.6993,28.1349,42.0634],[-15.7007,28.1324,0.0],[-15.7046,28.1307,2.5359],[-15.7057,28.1257,28.5013],[-15.7093,28.1207,2.9194],[-15.709,28.119,0.0],[-15.7049,28.1179,26.0208],[-15.7074,28.1168,27.8673],[-15.7063,28.1143,4.5684],[-15.7074,28.1082,25.6171],[-15.7118,28.1071,0.0],[-15.714,28.1035,0.0],[-15.714,28.0993,0.0],[-15.7113,28.0971,0.4319],[-15.7113,28.0996,0.0],[-15.7085,28.0993,0.0],[-15.7074,28.0943,136.9343],[-15.711,28.0835,13.6042],[-15.7151,28.0779,16.7749],[-15.7185,28.0763,0.0],[-15.7218,28.0704,68.4514],[-15.7296,28.0654,28.1865],[-15.7351,28.0646,0.0],[-15.7382,28.0551,3.5292],[-15.7401,28.0535,9.7499],[-15.7429,28.054,0.0],[-15.7451,28.0518,13.7601],[-15.7465,28.0524,0.0],[-15.7585,28.0465,12.7239],[-15.7674,28.046,1.0166],[-15.7688,28.0368,56.3937],[-15.7865,28.0218,48.373],[-15.7979,28.0179,0.0],[-15.8135,28.0182,0.0],[-15.8229,28.014,0.0],[-15.8235,28.0126,0.0],[-15.8176,28.0054,1.1098],[-15.8196,28.0007,0.0],[-15.8212,28.0004,8.3861],[-15.821,27.9937,133.4344],[-15.8229,27.9868,350.2411],[-15.834,27.9707,8.7788],[-15.8332,27.959,21.0847],[-15.8301,27.9574,166.945],[-15.8313,27.9518,0.0],[-15.8282,27.949,33.7884],[-15.8285,27.9412,22.4263],[-15.8307,27.9385,32.2375],[-15.8287,27.9365,183.9735],[-15.8304,27.9338,49.4759],[-15.8293,27.9307,32.4701],[-15.8321,27.9285,0.0],[-15.8296,27.9249,244.4434],[-15.831,27.9218,292.7286],[-15.8318,27.9232,4.3317],[-15.8332,27.9221,4.3317],[-15.8318,27.9201,276.9444],[-15.8332,27.9168,314.7814],[-15.8315,27.9137,190.7464],[-15.8318,27.9093,42.7136],[-15.8179,27.8926,48.9891],[-15.8179,27.8896,0.0],[-15.8126,27.8826,233.1383],[-15.8129,27.879,0.0],[-15.8079,27.8743,86.9368],[-15.7996,27.8587,0.2773],[-15.799,27.8529,0.0],[-15.7963,27.8512,0.0],[-15.796,27.8479,2.7035],[-15.7921,27.8465,2.4399],[-15.7915,27.840699999999998,47.429],[-15.7882,27.8343,0.0],[-15.781,27.8293,0.0],[-15.779,27.8301,0.5681],[-15.774,27.8221,0.0],[-15.7679,27.8176,6.1912],[-15.7668,27.8151,0.0],[-15.7613,27.8168,0.0],[-15.754,27.8143,6.2386],[-15.7496,27.8065,0.0],[-15.7462,27.8065,0.0],[-15.7415,27.8001,0.0],[-15.7368,27.7974,0.0],[-15.7315,27.7982,0.0],[-15.7276,27.7954,1.5592],[-15.729,27.7943,0.0],[-15.7285,27.7915,0.0],[-15.7271,27.7899,0.0],[-15.7249,27.791,7.0745],[-15.7238,27.7899,20.1877],[-15.7257,27.7879,0.0],[-15.704,27.7765,0.0],[-15.7013,27.7738,5.3037],[-15.7007,27.7704,0.0],[-15.6965,27.7693,0.1937],[-15.6951,27.7715,0.0],[-15.696,27.7726,12.1715],[-15.6901,27.771,16.559],[-15.6874,27.7632,0.0],[-15.6846,27.7596,0.0],[-15.6824,27.7593,13.2243],[-15.6854,27.7588,0.0],[-15.6851,27.7576,0.0615],[-15.6865,27.759,0.0],[-15.6862,27.7563,0.0],[-15.6793,27.7551,0.0],[-15.6746,27.7488,5.6551],[-15.6693,27.7479,1.3471],[-15.6713,27.7502,1.4838],[-15.6699,27.7543,15.5197],[-15.6593,27.7565,1.1379],[-15.6526,27.7551,0.9254],[-15.6476,27.7507,9.7456],[-15.6407,27.7496,0.0],[-15.6382,27.7507,20.4981],[-15.6374,27.7482,2.455],[-15.634,27.7485,0.0],[-15.634,27.7465,0.0],[-15.6285,27.7446,0.0],[-15.6215,27.7451,0.0],[-15.6213,27.7485,0.0],[-15.6196,27.7485,0.0],[-15.6118,27.7443,0.0],[-15.6071,27.7388,0.0],[-15.6001,27.734,0.555],[-15.5885,27.736,1.4863],[-15.5818,27.7346,0.0],[-15.5738,27.7351,0.0],[-15.569,27.7368,0.0],[-15.5676,27.7524,0.0],[-15.5632,27.7604,0.0],[-15.5593,27.7632,0.4783],[-15.5582,27.7624,0.4783],[-15.551,27.7649,0.0],[-15.5518,27.7663,3.4954],[-15.5504,27.7671,14.4558],[-15.5446,27.7665,0.0],[-15.5396,27.7701,0.0],[-15.5335,27.7696,7.1426],[-15.5329,27.7721,38.0133],[-15.5296,27.7735,0.0],[-15.5282,27.776,2.8874],[-15.519,27.781,3.7143],[-15.514,27.7815,0.5997],[-15.5085,27.7799,0.0],[-15.5026,27.7824,0.0],[-15.5013,27.7851,0.0],[-15.4951,27.7896,0.5728],[-15.4876,27.7924,0.8758],[-15.4793,27.7935,0.0],[-15.4754,27.7924,0.1205],[-15.464,27.7962,0.2257],[-15.4632,27.7957,0.2257],[-15.4646,27.7946,0.0],[-15.4624,27.7943,0.0],[-15.4618,27.7965,0.0],[-15.4585,27.7976,0.5051],[-15.4476,27.7982,0.0]]],
[[[-15.3632,27.9915,0.0],[-15.3643,27.9929,0.0],[-15.3649,27.9904,0.0],[-15.3629,27.9904,0.0],[-15.3632,27.9915,0.0]]],
[[[-14.511,28.0688,0.0],[-14.5104,28.0707,0.0],[-14.5115,28.071,0.0],[-14.5135,28.0679,0.1906],[-14.5121,28.0674,0.0],[-14.511,28.0688,0.0]]],
[[[-15.4057,28.1324,0.0],[-15.4082,28.1332,0.3012],[-15.4043,28.1254,0.144],[-15.4043,28.131,0.0],[-15.4057,28.1324,0.0]]],
[[[-15.4076,28.1424,0.6734],[-15.4071,28.1479,0.0],[-15.4085,28.1471,0.0],[-15.409,28.1424,0.6734],[-15.4085,28.1368,0.1306],[-15.4068,28.1365,0.0],[-15.4076,28.1382,0.6241],[-15.4076,28.1424,0.6734]]],
[[[-13.8579,28.4296,0.5919],[-13.8604,28.4312,0.8536],[-13.8618,28.4379,0.0],[-13.856,28.4438,0.3771],[-13.8585,28.4515,6.6878],[-13.856,28.4565,0.0],[-13.8565,28.4621,0.0],[-13.8588,28.4638,3.2086],[-13.8588,28.4682,0.1444],[-13.8654,28.4751,0.6458],[-13.8671,28.4804,8.4808],[-13.8621,28.494,11.559],[-13.8565,28.4982,1.5903],[-13.8554,28.4937,3.287],[-13.854,28.4985,1.5858],[-13.8468,28.4996,0.0],[-13.8465,28.5012,0.4596],[-13.8421,28.5032,0.0],[-13.8432,28.5079,0.3676],[-13.8413,28.5099,0.0],[-13.8429,28.5104,0.9599],[-13.8429,28.5121,1.0648],[-13.839,28.5176,0.0],[-13.8387,28.5218,0.0],[-13.8343,28.5251,0.0],[-13.8349,28.5315,0.0],[-13.8324,28.5357,0.0],[-13.8354,28.5368,0.0],[-13.8382,28.5357,1.0815],[-13.8371,28.5415,0.0],[-13.8304,28.5454,0.0],[-13.8279,28.5515,0.1944],[-13.8238,28.5526,0.0],[-13.8243,28.5562,0.0],[-13.8287,28.5593,0.0],[-13.8257,28.569,0.0],[-13.8293,28.5718,1.62],[-13.8296,28.5751,0.521],[-13.8279,28.5824,0.4155],[-13.8229,28.5893,5.1824],[-13.8221,28.5938,0.0],[-13.8224,28.5968,0.0],[-13.824,28.5974,0.1892],[-13.8265,28.6035,0.9873],[-13.8265,28.6074,1.0607],[-13.8243,28.6063,0.0],[-13.8229,28.6101,1.4275],[-13.8249,28.616,0.0],[-13.8235,28.6207,0.0],[-13.826,28.621,2.8442],[-13.8254,28.626,1.1607],[-13.8285,28.6293,0.0],[-13.8274,28.6324,0.0],[-13.829,28.6349,0.0],[-13.8307,28.651,0.0],[-13.8299,28.6563,0.0],[-13.8315,28.6618,17.0838],[-13.8299,28.664,0.0],[-13.8332,28.6743,8.3511],[-13.831,28.6801,0.0],[-13.8318,28.6843,3.298],[-13.8299,28.6868,0.0],[-13.8313,28.6901,5.7803],[-13.8299,28.6946,0.0],[-13.8387,28.7093,0.0],[-13.836,28.711,0.0],[-13.8357,28.7129,0.5993],[-13.8412,28.7221,0.0],[-13.8404,28.7276,0.0],[-13.8457,28.7293,0.0],[-13.8485,28.7279,0.3328],[-13.8538,28.729,0.4541],[-13.854,28.7335,0.0],[-13.8574,28.7349,0.0],[-13.861,28.7315,1.2872],[-13.8643,28.7346,0.0],[-13.8657,28.734,0.0],[-13.8643,28.7368,0.0],[-13.8665,28.739,7.3704],[-13.8646,28.7404,0.0],[-13.8604,28.7399,0.0],[-13.8604,28.7412,0.0],[-13.8632,28.7415,0.9876],[-13.8646,28.7465,0.0608],[-13.8726,28.7451,1.004],[-13.8726,28.749,0.0],[-13.8776,28.7532,0.0],[-13.8838,28.7546,0.0],[-13.8868,28.7576,0.0],[-13.8935,28.7571,0.0],[-13.896,28.7532,1.5991],[-13.9021,28.7538,0.0],[-13.9043,28.7496,0.3921],[-13.916,28.7499,0.0],[-13.9157,28.7476,0.0],[-13.9193,28.7479,0.0],[-13.9218,28.7504,3.5967],[-13.9212,28.7518,0.0],[-13.9251,28.7529,0.0],[-13.9287,28.7504,1.2405],[-13.9318,28.751,0.0],[-13.9351,28.7476,0.0],[-13.936,28.7426,2.8498],[-13.939,28.7424,1.6984],[-13.9393,28.7462,0.0],[-13.9415,28.7474,0.0],[-13.9437,28.7443,0.7059],[-13.9482,28.7454,0.0],[-13.9504,28.7421,0.0],[-13.9532,28.7421,0.0],[-13.9521,28.7399,3.0025],[-13.9551,28.7393,0.0],[-13.956,28.7363,0.0],[-13.9593,28.7388,0.0],[-13.9618,28.7376,0.0],[-13.9637,28.734,0.0],[-13.9685,28.7351,1.3188],[-13.969,28.7365,0.0],[-13.9715,28.7349,0.0],[-13.971,28.7321,2.6786],[-13.9726,28.7321,0.0],[-13.974,28.7351,0.2709],[-13.9776,28.7363,0.0],[-13.9787,28.7326,0.3235],[-13.9807,28.7329,0.0],[-13.9824,28.7304,0.146],[-13.9874,28.7285,0.0],[-13.9899,28.7246,0.0],[-13.9926,28.726,0.0],[-13.9937,28.724,0.0],[-13.9965,28.724,0.0],[-13.9993,28.7257,0.0],[-14.0032,28.7165,0.2142],[-14.009,28.714,0.0],[-14.0062,28.7124,0.0],[-14.0112,28.7143,0.0],[-14.0121,28.7176,0.0],[-14.0176,28.7151,0.0],[-14.0176,28.7115,0.6191],[-14.0199,28.7093,0.0],[-14.0149,28.7082,0.6367],[-14.0168,28.7071,0.1679],[-14.0207,28.7082,0.0],[-14.0196,28.7051,0.0],[-14.021,28.7015,0.0],[-14.0182,28.7004,0.4773],[-14.0196,28.6996,0.0],[-14.0185,28.6968,0.0],[-14.021,28.696,0.0],[-14.0196,28.6921,0.0],[-14.0154,28.6907,0.0],[-14.0157,28.6857,0.4812],[-14.0132,28.6849,1.5698],[-14.014,28.6815,2.0842],[-14.0099,28.6782,3.1886],[-14.0104,28.6754,0.0],[-14.0085,28.6738,0.0],[-14.0112,28.6715,0.0],[-14.0149,28.6624,0.0],[-14.0199,28.6563,0.0],[-14.0199,28.6504,7.5046],[-14.0226,28.6468,13.2512],[-14.026,28.6465,0.0],[-14.0285,28.6351,0.0],[-14.031,28.6351,0.0],[-14.034,28.6315,0.0],[-14.0315,28.6299,15.3887],[-14.0335,28.6282,0.0],[-14.0324,28.6238,27.074],[-14.0346,28.6235,0.0],[-14.0393,28.6151,0.0],[-14.0374,28.604,0.0],[-14.0343,28.6007,0.0],[-14.0337,28.5929,0.0],[-14.0399,28.5879,0.0],[-14.0393,28.5846,0.0],[-14.041,28.5818,14.4183],[-14.0435,28.5807,0.0],[-14.0476,28.574,0.0],[-14.0568,28.5657,0.0],[-14.059,28.5601,13.1875],[-14.0585,28.5562,5.5967],[-14.0604,28.5546,0.0],[-14.0635,28.5551,0.0],[-14.0668,28.5518,5.6795],[-14.0651,28.5435,2.2194],[-14.0699,28.541,0.0],[-14.0718,28.5299,20.8134],[-14.0746,28.5285,0.5762],[-14.0749,28.5238,2.4138],[-14.0824,28.5143,0.0],[-14.084,28.5079,41.1174],[-14.0876,28.5063,0.0],[-14.0907,28.4949,1.5769],[-14.0924,28.4937,23.3079],[-14.0985,28.479,7.1871],[-14.1157,28.4629,5.5712],[-14.1187,28.4629,0.0],[-14.1232,28.4587,9.202],[-14.1265,28.4579,0.0],[-14.131,28.4526,0.0],[-14.1329,28.4526,0.0],[-14.1365,28.4474,0.8658],[-14.1404,28.446,0.0],[-14.1412,28.4426,1.057],[-14.1474,28.4396,1.2361],[-14.1471,28.434,24.8726],[-14.1521,28.4301,7.3078],[-14.1518,28.4237,0.0],[-14.1499,28.4218,24.2862],[-14.1593,28.4112,0.0],[-14.1579,28.4104,0.0],[-14.1593,28.4088,0.0],[-14.1587,28.4063,0.0],[-14.1554,28.4051,21.6641],[-14.1582,28.401,0.0],[-14.156,28.3996,18.2414],[-14.1574,28.3976,0.0],[-14.1557,28.3954,46.881],[-14.1585,28.3926,0.0],[-14.1618,28.3935,0.0],[-14.1624,28.3924,0.0],[-14.164,28.3751,5.9755],[-14.1621,28.371,22.1946],[-14.164,28.3674,10.7248],[-14.1724,28.3624,0.0],[-14.1724,28.3565,21.1302],[-14.1776,28.3504,0.0],[-14.1779,28.3465,0.3448],[-14.1815,28.3465,0.0],[-14.1826,28.3429,15.09],[-14.1874,28.3418,0.0],[-14.189,28.3385,20.0759],[-14.191,28.3385,2.6597],[-14.1926,28.3363,2.2264],[-14.1999,28.3343,0.0],[-14.2051,28.3282,0.0],[-14.2054,28.3193,8.5379],[-14.209,28.3146,1.3674],[-14.2101,28.3099,0.0],[-14.2076,28.3013,64.8544],[-14.2115,28.2988,0.0],[-14.2107,28.2962,3.3007],[-14.2126,28.2951,0.0],[-14.2129,28.2924,0.0],[-14.2121,28.2893,0.0],[-14.2154,28.2882,0.0],[-14.2121,28.2854,0.0],[-14.2124,28.2821,0.0],[-14.2093,28.2751,84.7631],[-14.2096,28.2696,47.6299],[-14.2132,28.2646,0.0],[-14.209,28.2599,27.6401],[-14.2099,28.2554,0.0],[-14.2149,28.2474,0.0],[-14.2129,28.2435,6.5926],[-14.2146,28.2426,0.0],[-14.2154,28.226,28.5933],[-14.2185,28.2243,0.0],[-14.2196,28.2204,10.5301],[-14.2226,28.2193,0.0],[-14.2215,28.2179,2.957],[-14.2235,28.2165,4.3265],[-14.2232,28.2146,10.998],[-14.2282,28.2101,26.057],[-14.2321,28.2099,11.4017],[-14.2349,28.2057,0.0],[-14.2426,28.201,15.4445],[-14.2471,28.1938,0.0],[-14.2637,28.1829,0.0],[-14.2746,28.1735,26.8457],[-14.2874,28.1651,37.1769],[-14.291,28.1646,0.0],[-14.2924,28.1624,0.0],[-14.299,28.1604,0.0],[-14.3032,28.1529,10.7446],[-14.3101,28.1474,6.6406],[-14.3446,28.1282,10.0359],[-14.3571,28.1246,1.4523],[-14.359,28.1221,0.0],[-14.3693,28.1171,0.0],[-14.3999,28.1082,14.0492],[-14.4143,28.1063,2.4124],[-14.4163,28.1074,0.0],[-14.421,28.1065,0.0],[-14.4224,28.1046,0.0],[-14.4499,28.101,0.9629],[-14.4551,28.1063,0.0],[-14.4637,28.1021,0.0],[-14.4657,28.1021,3.5988],[-14.4662,28.1043,0.0],[-14.4712,28.104,5.5806],[-14.4751,28.1057,0.0],[-14.4807,28.1018,0.0],[-14.4821,28.104,0.0],[-14.4862,28.1057,1.7106],[-14.4868,28.1099,0.0],[-14.4915,28.1113,0.0],[-14.4946,28.1068,0.0],[-14.4946,28.1043,0.0],[-14.4968,28.1043,0.0],[-14.4999,28.1015,0.0],[-14.4999,28.1001,0.0],[-14.4935,28.096,9.1854],[-14.4932,28.084,0.0],[-14.499,28.0838,0.0],[-14.5013,28.0818,0.0],[-14.5035,28.0749,0.8644],[-14.5065,28.0732,0.0],[-14.5063,28.071,0.0],[-14.5096,28.0696,0.0],[-14.5107,28.0665,0.0],[-14.5065,28.0651,0.0],[-14.5024,28.0721,4.9748],[-14.4762,28.0771,5.4402],[-14.439,28.0696,5.9239],[-14.4382,28.0668,0.0],[-14.4338,28.0676,14.369],[-14.4299,28.0649,0.0],[-14.4257,28.0646,10.8694],[-14.4087,28.0579,0.0],[-14.399,28.0582,12.5707],[-14.3846,28.0546,13.9308],[-14.3815,28.0521,8.6359],[-14.3774,28.0515,0.0],[-14.3687,28.0546,13.4915],[-14.3651,28.0529,11.2237],[-14.3643,28.0504,0.0],[-14.3601,28.0496,0.0],[-14.361,28.0482,0.0],[-14.3646,28.0496,0.0],[-14.3624,28.0474,0.0],[-14.3487,28.049,27.2701],[-14.3396,28.046,2.0953],[-14.331,28.0457,1.3135],[-14.3257,28.0476,1.6722],[-14.3196,28.0543,1.2564],[-14.3165,28.0554,0.0],[-14.3124,28.0618,0.0],[-14.3054,28.0676,5.6456],[-14.3054,28.0701,15.2162],[-14.2971,28.0776,18.0233],[-14.2901,28.0829,28.1925],[-14.2857,28.084,0.0],[-14.2835,28.0899,0.6828],[-14.2735,28.0974,0.0],[-14.2674,28.1087,3.1209],[-14.261,28.1129,0.1524],[-14.2585,28.1204,1.0742],[-14.2507,28.1254,0.7467],[-14.2476,28.1343,8.4589],[-14.2376,28.1399,0.0],[-14.2376,28.1429,8.8618],[-14.2304,28.1493,12.8032],[-14.2257,28.1601,0.3127],[-14.219,28.1654,1.5561],[-14.2132,28.1638,5.2309],[-14.2054,28.1671,0.0],[-14.2015,28.1726,6.0604],[-14.1957,28.1743,3.7961],[-14.1887,28.1726,1.8752],[-14.1846,28.1749,1.9596],[-14.1815,28.1735,0.0],[-14.1715,28.1751,0.0],[-14.1671,28.174,12.9273],[-14.1643,28.1768,0.0],[-14.1576,28.1765,0.0],[-14.1565,28.1796,24.2815],[-14.1518,28.1829,2.6561],[-14.1471,28.181,3.1326],[-14.1396,28.1829,0.0],[-14.1368,28.1871,8.614],[-14.131,28.1879,2.5629],[-14.1285,28.1868,0.0],[-14.1237,28.1912,3.2483],[-14.1163,28.1915,1.0942],[-14.1143,28.1887,0.0],[-14.1104,28.1885,0.0],[-14.106,28.1926,4.12],[-14.1024,28.1926,0.0],[-14.1004,28.1943,8.084],[-14.0938,28.1926,0.0],[-14.0815,28.1976,8.196],[-14.0768,28.1974,0.0],[-14.0751,28.2013,1.2203],[-14.0718,28.2013,16.3349],[-14.0682,28.199,13.7619],[-14.0646,28.2013,5.2516],[-14.0515,28.2032,22.0782],[-14.0487,28.2018,0.0],[-14.0426,28.2021,3.4302],[-14.0332,28.2068,1.3851],[-14.0257,28.2054,0.0],[-14.0246,28.2074,1.788],[-14.0224,28.2071,0.0],[-14.0207,28.2115,2.4497],[-14.0168,28.2113,0.0],[-14.0121,28.2071,3.0241],[-14.0076,28.2093,0.0],[-14.0024,28.2154,0.0],[-13.9951,28.2174,0.0],[-13.991,28.221,0.0],[-13.9901,28.2249,4.7315],[-13.9876,28.2274,0.9978],[-13.9826,28.2265,0.0],[-13.9782,28.2285,0.0],[-13.9665,28.2288,69.9032],[-13.9585,28.2268,0.0],[-13.9482,28.2271,16.2052],[-13.9432,28.231,32.2943],[-13.9426,28.2296,0.0],[-13.9407,28.2321,21.7612],[-13.9385,28.2313,0.0],[-13.9382,28.2326,12.4478],[-13.9354,28.2329,0.0],[-13.9318,28.2388,32.4636],[-13.9268,28.2418,0.0],[-13.9249,28.2463,43.0316],[-13.9218,28.2476,36.9078],[-13.9226,28.2499,74.4186],[-13.9165,28.2524,0.0],[-13.9176,28.2543,0.0],[-13.9135,28.259,27.339],[-13.914,28.2649,50.2586],[-13.9121,28.2654,0.0],[-13.9107,28.2701,0.0],[-13.909,28.2707,0.0],[-13.9096,28.2738,12.6082],[-13.9004,28.2746,0.0],[-13.9012,28.278199999999998,3.249],[-13.8962,28.2876,0.0],[-13.8982,28.2951,0.0],[-13.9026,28.2974,7.2894],[-13.9029,28.3024,20.7803],[-13.8999,28.3037,0.0],[-13.8979,28.3118,4.5477],[-13.8932,28.3143,22.877],[-13.8924,28.3174,0.0],[-13.8954,28.3199,8.2678],[-13.8951,28.3237,2.5382],[-13.8857,28.3246,0.0],[-13.8854,28.3282,21.537],[-13.8829,28.3299,0.0],[-13.8854,28.3318,9.7896],[-13.8788,28.3376,2.5677],[-13.8776,28.3421,0.0],[-13.8788,28.3429,6.4827],[-13.876,28.3468,0.0],[-13.8763,28.3535,0.0],[-13.8776,28.3551,2.3034],[-13.8757,28.3554,0.0],[-13.8713,28.3635,0.0],[-13.8693,28.3626,0.0],[-13.8682,28.3646,0.2695],[-13.8685,28.3696,5.4297],[-13.866,28.3718,0.0],[-13.8629,28.3843,0.0],[-13.8604,28.3857,0.0],[-13.8574,28.391,0.2454],[-13.8593,28.3926,0.5661],[-13.8557,28.3949,6.4216],[-13.8562,28.391,0.2454],[-13.8526,28.3913,0.0],[-13.8529,28.3982,0.9201],[-13.8518,28.4001,9.3357],[-13.8493,28.4001,0.0],[-13.8493,28.4015,0.0],[-13.8521,28.4026,6.3097],[-13.8485,28.4085,0.0],[-13.8488,28.414,0.0],[-13.851,28.4176,6.9519],[-13.8496,28.4212,0.0],[-13.8515,28.4243,0.0],[-13.8576,28.426,0.0],[-13.8579,28.4296,0.5919]]],
[[[-13.8124,28.7632,0.0],[-13.8121,28.7674,0.0],[-13.8154,28.7668,0.0],[-13.8187,28.7649,0.4898],[-13.8199,28.7613,0.8133],[-13.8238,28.7621,0.0],[-13.8254,28.7576,0.0],[-13.836,28.7529,0.0],[-13.8362,28.7499,0.0],[-13.8315,28.744,0.0],[-13.8318,28.739,0.0],[-13.8243,28.7385,0.0],[-13.821,28.7351,0.0],[-13.8135,28.7365,0.0],[-13.814,28.7399,0.0],[-13.8154,28.7401,3.7883],[-13.8135,28.7407,0.0],[-13.814,28.7449,0.0],[-13.8096,28.7554,0.0],[-13.8118,28.7574,0.0],[-13.8124,28.7632,0.0]]],
[[[-13.6987,28.9176,2.6082],[-13.6913,28.9196,8.7851],[-13.684,28.919,8.9163],[-13.6771,28.9213,10.8671],[-13.666,28.9176,0.0],[-13.6643,28.9199,0.0],[-13.6571,28.9201,0.0],[-13.6543,28.9179,0.0],[-13.6421,28.919,2.2789],[-13.639,28.921,0.0],[-13.6393,28.9238,0.8106],[-13.6335,28.929,5.6835],[-13.6293,28.9285,5.8065],[-13.6299,28.9268,0.0],[-13.6271,28.9263,0.0],[-13.6218,28.9307,5.8246],[-13.6157,28.9299,0.0],[-13.6129,28.931,0.0],[-13.6115,28.9337,0.0],[-13.6085,28.9337,0.0],[-13.6085,28.9363,0.0],[-13.6018,28.944,0.0],[-13.6024,28.9454,0.0],[-13.5982,28.9465,0.0],[-13.5968,28.9496,3.2553],[-13.5935,28.9474,0.0],[-13.5899,28.9474,0.0],[-13.5879,28.951,1.8796],[-13.5846,28.9501,0.0],[-13.5829,28.9515,0.0],[-13.5821,28.9543,3.0583],[-13.581,28.9526,0.0],[-13.5757,28.9521,0.0],[-13.5751,28.9543,0.7505],[-13.5649,28.9538,0.455],[-13.5588,28.9574,0.0],[-13.5554,28.9562,0.0],[-13.5588,28.9546,0.0],[-13.5532,28.9535,0.0],[-13.5518,28.9538,0.0],[-13.5526,28.9568,0.0],[-13.5493,28.9574,6.0089],[-13.5501,28.9554,0.0],[-13.5485,28.9543,0.0],[-13.5504,28.9524,0.0],[-13.5443,28.9518,0.0],[-13.5429,28.9546,0.0],[-13.5474,28.9543,0.0],[-13.5465,28.9587,0.0],[-13.5451,28.9593,3.5707],[-13.5454,28.9576,0.0],[-13.5435,28.9565,0.0],[-13.5415,28.9574,0.0],[-13.5354,28.9651,0.6705],[-13.536,28.9665,0.4543],[-13.5379,28.9662,0.0],[-13.5387,28.9632,0.6565],[-13.5401,28.9635,0.0],[-13.5387,28.9665,0.0],[-13.5318,28.9726,2.5347],[-13.5299,28.9729,2.5764],[-13.5318,28.966,0.0],[-13.5279,28.9713,0.0],[-13.5268,28.9662,0.5364],[-13.5246,28.9749,6.0689],[-13.5199,28.9743,0.8957],[-13.5165,28.9763,2.4363],[-13.5151,28.9801,0.0],[-13.5104,28.9813,0.528],[-13.5104,28.9835,3.2203],[-13.5076,28.986,0.0],[-13.5018,28.9871,0.6692],[-13.4951,28.9924,2.7453],[-13.4849,28.9924,0.0],[-13.4854,28.996,0.0],[-13.4871,28.996,0.0],[-13.4882,28.999,3.6476],[-13.4826,28.9979,0.0],[-13.4804,28.9996,0.0],[-13.4785,29.004,1.6298],[-13.4749,29.0057,0.0],[-13.476,29.0135,4.2435],[-13.4685,29.0146,0.0],[-13.4643,29.0187,0.0],[-13.4629,29.0246,21.3929],[-13.4685,29.0335,0.0],[-13.4676,29.0396,4.1522],[-13.4626,29.0451,0.0],[-13.4632,29.0513,0.3553],[-13.4651,29.0526,4.8272],[-13.4657,29.0557,3.4469],[-13.461,29.0576,0.5955],[-13.4587,29.0657,9.2799],[-13.4529,29.0732,0.0],[-13.451,29.0821,10.1928],[-13.4468,29.089,4.0427],[-13.4482,29.101,0.0],[-13.4493,29.1026,0.0],[-13.4546,29.104,7.9304],[-13.4537,29.1085,0.0],[-13.456,29.1082,1.5479],[-13.4635,29.1157,11.6289],[-13.4624,29.1207,0.0],[-13.4643,29.1232,2.2839],[-13.4643,29.1282,1.3183],[-13.4607,29.129,0.0],[-13.4599,29.1315,0.0],[-13.4568,29.1326,0.9948],[-13.4549,29.1379,5.6329],[-13.4507,29.1399,0.0],[-13.4499,29.1429,0.7501],[-13.4451,29.1437,0.0],[-13.4451,29.1474,1.4327],[-13.4424,29.1474,0.6192],[-13.4343,29.1529,0.1638],[-13.4282,29.1537,0.0],[-13.4265,29.1638,3.4421],[-13.4221,29.1649,0.0],[-13.4221,29.1668,0.0],[-13.4268,29.1685,1.543],[-13.4249,29.1694,0.0],[-13.4251,29.1735,0.0],[-13.4207,29.1768,0.0],[-13.4213,29.1793,0.0],[-13.4193,29.1818,0.0],[-13.4187,29.1857,0.0],[-13.4201,29.186,3.3222],[-13.4207,29.1896,0.7041],[-13.419,29.1929,0.0],[-13.421,29.1957,2.1144],[-13.4185,29.1951,0.0],[-13.4199,29.1993,2.7162],[-13.4182,29.2021,0.0],[-13.4201,29.2049,0.0],[-13.4232,29.206,0.0],[-13.4226,29.2082,0.0],[-13.4243,29.2104,0.0],[-13.4287,29.209,0.124],[-13.4332,29.2107,0.0],[-13.436,29.2165,0.0],[-13.4401,29.2185,0.0],[-13.4379,29.2201,0.0],[-13.439,29.2235,0.3137],[-13.4437,29.2215,0.0],[-13.4432,29.224,0.0],[-13.4471,29.2243,0.0],[-13.449,29.2265,0.0],[-13.451,29.226,0.0],[-13.4513,29.2235,0.8193],[-13.4549,29.2274,0.0],[-13.4599,29.2268,0.2592],[-13.4612,29.2251,2.185],[-13.4657,29.2268,47.3989],[-13.4676,29.2296,52.1235],[-13.4676,29.2376,0.0],[-13.469,29.2376,6.6852],[-13.4685,29.2404,0.0],[-13.4701,29.2421,0.0],[-13.4726,29.2332,121.8288],[-13.476,29.2315,0.0],[-13.4771,29.2282,109.4057],[-13.4799,29.2282,3.0503999999999998],[-13.4874,29.2226,3.2539],[-13.4971,29.219,0.3491],[-13.4965,29.2082,11.2511],[-13.4985,29.2062,6.2972],[-13.5021,29.2079,0.0],[-13.5063,29.2035,0.0],[-13.5079,29.2007,0.0],[-13.5074,29.1963,3.3155],[-13.511,29.1954,0.0],[-13.5096,29.1901,0.6529],[-13.5143,29.181,0.0],[-13.5135,29.1779,58.8357],[-13.5171,29.1765,0.0],[-13.5174,29.1726,4.2115],[-13.5212,29.1718,0.0],[-13.5232,29.169,0.0],[-13.5226,29.1501,47.9369],[-13.5251,29.141,0.0],[-13.5318,29.1346,3.9511],[-13.5385,29.1249,4.8582],[-13.5449,29.1199,5.4784],[-13.5513,29.1171,0.0],[-13.5626,29.1162,3.6213],[-13.5632,29.1199,0.0],[-13.5662,29.1218,0.0],[-13.5682,29.1212,2.0824],[-13.5687,29.1232,0.0],[-13.571,29.1235,0.3338],[-13.571,29.1254,0.0],[-13.5796,29.1296,1.671],[-13.5846,29.1346,0.0],[-13.5965,29.1368,0.2325],[-13.6038,29.1365,0.2407],[-13.6113,29.1321,0.0],[-13.6126,29.1287,11.8648],[-13.6224,29.1274,0.0],[-13.631,29.1171,0.0],[-13.6379,29.1182,0.0],[-13.6399,29.1201,3.3622],[-13.639,29.1235,0.0],[-13.6401,29.1249,0.0],[-13.6485,29.1257,0.0],[-13.6496,29.1243,0.0],[-13.6521,29.1249,0.0],[-13.6529,29.1221,0.0],[-13.6546,29.1235,0.6523],[-13.654,29.1249,0.0],[-13.6585,29.1254,0.0],[-13.6632,29.1193,0.0],[-13.6629,29.1168,0.0],[-13.6601,29.114,0.4494],[-13.6632,29.114,0.0],[-13.6651,29.111,0.0],[-13.6762,29.1068,0.0],[-13.6774,29.1046,0.1112],[-13.679,29.106,0.0],[-13.681,29.1051,0.0],[-13.6821,29.0971,6.6116],[-13.6882,29.0929,2.4626],[-13.6918,29.0935,0.0],[-13.6921,29.0912,3.1513],[-13.694,29.0904,39.7865],[-13.7001,29.0924,0.0],[-13.7068,29.0832,0.9677],[-13.7076,29.0796,115.8176],[-13.7118,29.0829,0.0],[-13.7146,29.0815,3.6737],[-13.721,29.0857,0.0],[-13.724,29.086,0.0],[-13.7274,29.0818,8.6212],[-13.7318,29.0832,0.0],[-13.736,29.0804,21.0747],[-13.744,29.081,0.0],[-13.7465,29.0779,6.9999],[-13.7485,29.0796,0.0],[-13.7524,29.0796,0.0],[-13.7585,29.0765,2.4207],[-13.7587,29.0738,5.2319],[-13.7607,29.0726,0.0],[-13.7596,29.071,0.7297],[-13.7624,29.0674,0.0],[-13.7676,29.0651,2.7099],[-13.7693,29.0676,0.0],[-13.7721,29.0632,4.829],[-13.7785,29.0637,0.0],[-13.784,29.0565,1.218],[-13.7946,29.0515,0.0],[-13.7999,29.0426,1.0776],[-13.8079,29.0382,0.0],[-13.8096,29.0343,8.9429],[-13.8135,29.0349,0.0],[-13.8174,29.0329,0.0],[-13.8179,29.0254,8.1413],[-13.8215,29.0201,7.9485],[-13.8229,29.0201,0.0],[-13.8226,29.0176,13.3757],[-13.8307,29.0071,4.4972],[-13.8299,29.0046,7.9856],[-13.8324,28.9985,0.0],[-13.8313,28.9951,0.0],[-13.8343,28.9893,0.0],[-13.8329,28.9818,0.0],[-13.8285,28.9763,15.9997],[-13.8318,28.9771,0.0],[-13.834,28.971,0.0],[-13.8354,28.9707,0.0],[-13.8337,28.9657,0.0],[-13.8346,28.9638,0.8528],[-13.8304,28.9601,4.0754],[-13.834,28.9576,0.0],[-13.8349,28.9526,1.1122],[-13.8337,28.9521,1.1122],[-13.8351,28.951,0.4924],[-13.8332,28.9482,0.0],[-13.8318,28.9485,3.0238],[-13.8332,28.9471,0.0],[-13.8346,28.9371,0.0],[-13.8299,28.9349,1.5504],[-13.8296,28.9304,5.7283],[-13.8404,28.9185,13.5408],[-13.8476,28.9163,0.0],[-13.8482,28.9132,10.897],[-13.8513,28.9115,0.4034],[-13.8518,28.9076,0.0],[-13.8574,28.9046,4.9822],[-13.8565,28.9007,7.371],[-13.8585,28.8974,0.0],[-13.8724,28.8949,0.0],[-13.8818,28.8874,0.0],[-13.8826,28.8846,0.0],[-13.8813,28.8815,0.0],[-13.8763,28.8779,23.1249],[-13.8754,28.8751,10.135],[-13.8757,28.8679,11.9374],[-13.8779,28.8651,0.0],[-13.8774,28.8593,0.0],[-13.8724,28.854,0.5637],[-13.8687,28.8546,0.0],[-13.8676,28.8574,5.9152],[-13.864,28.8599,0.0],[-13.8549,28.8612,0.8093],[-13.8471,28.8607,7.3692],[-13.8399,28.8546,0.0],[-13.8357,28.8582,2.3101],[-13.8337,28.8576,0.4019],[-13.8296,28.8621,4.2421],[-13.819,28.861,4.8521],[-13.8165,28.8585,0.6805],[-13.8143,28.8585,4.1815],[-13.8115,28.8543,0.0],[-13.8093,28.8565,2.0127],[-13.7993,28.8576,2.4545],[-13.7982,28.8541,0.0],[-13.7921,28.8523,1.3289],[-13.7887,28.8449,0.0],[-13.7899,28.839,0.0],[-13.7854,28.8382,0.0],[-13.784,28.8418,0.8612],[-13.7779,28.8438,0.0],[-13.7785,28.8457,4.0216],[-13.7738,28.8476,4.3883],[-13.7743,28.8512,7.8277],[-13.771,28.8532,0.0],[-13.771,28.8563,0.0],[-13.766,28.859,0.0],[-13.7657,28.861,13.2798],[-13.7601,28.8651,0.0],[-13.7601,28.8671,19.8467],[-13.7579,28.8671,3.1624],[-13.7574,28.8699,22.675],[-13.7524,28.8738,14.0083],[-13.7485,28.874,0.0],[-13.749,28.8774,15.9702],[-13.7476,28.8779,0.0],[-13.7496,28.8824,15.8048],[-13.7443,28.8888,0.0],[-13.7443,28.894,0.0],[-13.741,28.9021,62.54],[-13.7388,28.9018,0.0],[-13.739,28.9046,27.6048],[-13.736,28.9065,3.0236],[-13.7287,28.9054,0.0],[-13.7212,28.9107,8.1815],[-13.7132,28.9129,0.0],[-13.711,28.9151,0.0],[-13.7007,28.9157,0.0],[-13.6987,28.9176,2.6082]]],
[[[-13.5371,29.1368,0.0],[-13.5365,29.1382,0.0],[-13.5396,29.1385,0.0],[-13.5407,29.1362,0.0],[-13.539,29.136,0.0],[-13.5371,29.1368,0.0]]],
[[[-13.506,29.2904,1.5085],[-13.5115,29.2913,0.0],[-13.5146,29.2879,0.0],[-13.5137,29.2865,9.0008],[-13.516,29.2862,0.6037],[-13.5176,29.281,0.0],[-13.5149,29.2787,4.9876],[-13.5149,29.2754,19.2593],[-13.5196,29.274,0.0],[-13.5249,29.2676,0.0],[-13.5215,29.2574,2.7625],[-13.5254,29.2532,0.9284],[-13.5296,29.2521,0.0],[-13.5271,29.2499,0.0],[-13.5285,29.2474,0.19],[-13.5274,29.2415,0.5112],[-13.5307,29.2412,0.0],[-13.5337,29.2379,0.0],[-13.5449,29.2337,5.0815],[-13.5487,29.2287,6.752],[-13.5482,29.2218,0.0],[-13.5443,29.2179,0.0],[-13.5412,29.2207,36.6128],[-13.5385,29.2201,0.0],[-13.536,29.216,0.0],[-13.5324,29.2171,0.0],[-13.5299,29.2201,0.0],[-13.5226,29.2176,0.0],[-13.514,29.2263,2.3208],[-13.504,29.2243,0.0],[-13.5032,29.2265,0.0],[-13.501,29.2263,0.0],[-13.5001,29.2321,4.3107],[-13.4962,29.2337,0.0],[-13.491,29.2432,0.0],[-13.4885,29.244,0.0],[-13.4868,29.2557,3.0324],[-13.4829,29.2596,1.1636],[-13.4768,29.2596,0.0],[-13.4712,29.2646,0.0],[-13.4718,29.2693,0.0],[-13.4812,29.2796,0.0],[-13.4907,29.2807,0.0],[-13.4954,29.2793,0.0],[-13.4954,29.2826,0.0],[-13.506,29.2904,1.5085]]],
[[[-13.3396,29.2749,2.932],[-13.3382,29.2743,0.2553],[-13.3346,29.2779,0.0],[-13.339,29.2765,2.3888],[-13.3396,29.2749,2.932]]],
[[[-13.5335,29.3043,22.0182],[-13.5335,29.3065,9.306],[-13.5354,29.3071,0.0],[-13.5412,29.3035,0.0],[-13.5415,29.3013,0.0],[-13.5385,29.2968,58.3745],[-13.5385,29.2932,24.1215],[-13.5412,29.2893,0.0],[-13.5399,29.289,4.9983],[-13.5404,29.2876,0.0],[-13.5307,29.2904,0.0],[-13.5307,29.2976,50.0417],[-13.5288,29.2996,12.5569],[-13.5288,29.304,5.4808],[-13.5335,29.3043,22.0182]]],
[[[-13.5257,29.3118,5.0937],[-13.5274,29.3126,0.0],[-13.5279,29.3099,0.0],[-13.5262,29.3101,0.0],[-13.5257,29.3118,5.0937]]],
[[[-13.5026,29.4168,0.0],[-13.5115,29.416,0.0],[-13.5149,29.4132,4.0449],[-13.5171,29.4135,0.0],[-13.5174,29.4115,5.4142],[-13.5182,29.4126,0.0],[-13.5237,29.4121,0.0],[-13.5249,29.4101,0.0],[-13.5237,29.4074,6.2671],[-13.5254,29.4079,0.0],[-13.5285,29.4054,0.0],[-13.5313,29.4007,0.0],[-13.5304,29.3851,0.9328],[-13.5235,29.3821,7.4571],[-13.519,29.3821,2.5987],[-13.5157,29.3857,21.6329],[-13.5063,29.3838,0.7957],[-13.5004,29.3913,27.5398],[-13.496,29.3921,13.3733],[-13.4918,29.3954,0.0],[-13.4887,29.4024,0.6041],[-13.4862,29.4018,0.0],[-13.4854,29.404,0.0],[-13.4904,29.4054,2.495],[-13.4935,29.4085,0.0],[-13.4932,29.4104,0.0],[-13.5001,29.4149,0.0],[-13.5026,29.4132,5.483],[-13.5038,29.4157,0.0],[-13.5026,29.4168,0.0]]]]}}