{"type": "Feature","bbox": [-7.5417,39.0316,-4.9524,40.4867],"geometry": {"type": "MultiPolygon","coordinates": [[[[-5.9245,39.098,274.3041],[-5.9254,39.0939,272.8055],[-5.9375,39.0838,265.8087],[-5.9246,39.0832,270.0527],[-5.872,39.1043,271.0946],[-5.8542,39.1064,267.6501],[-5.8476,39.1096,266.2897],[-5.8339,39.1102,277.997],[-5.8163,39.1198,266.4428],[-5.8188,39.1226,266.4449],[-5.8192,39.1295,267.9245],[-5.8103,39.1446,273.7264],[-5.763,39.1354,274.394],[-5.7551,39.1323,274.8883],[-5.7534,39.1297,273.4351],[-5.7265,39.1122,283.5085],[-5.7228,39.1073,283.5832],[-5.7015,39.0899,287.6844],[-5.69,39.083,294.8758],[-5.6708,39.0808,324.678],[-5.6641,39.0884,328.6459],[-5.6458,39.1023,287.5309],[-5.6375,39.1001,280.5511],[-5.6106,39.0992,299.682],[-5.6037,39.1006,312.885],[-5.5985,39.108,314.0454],[-5.5927,39.1079,307.5463],[-5.5835,39.1181,291.516],[-5.5951,39.1263,296.2262],[-5.6019,39.1285,299.4768],[-5.6007999999999996,39.1344,311.5053],[-5.5919,39.1348,309.638],[-5.5835,39.1391,308.5923],[-5.5793,39.1431,301.8633],[-5.5764,39.1509,307.9888],[-5.5872,39.1581,294.9298],[-5.5936,39.1666,299.9377],[-5.6056,39.1758,303.5992],[-5.6131,39.1882,308.4183],[-5.6052,39.1907,308.0],[-5.5896,39.201,316.1038],[-5.5839,39.2001,313.9656],[-5.5704,39.2048,313.5037],[-5.5641,39.2106,320.2082],[-5.5566,39.2087,326.9237],[-5.5507,39.2157,323.3186],[-5.5477,39.2107,332.4184],[-5.5413,39.2064,343.3601],[-5.528,39.1915,373.3956],[-5.524,39.2018,397.8966],[-5.5184,39.2042,421.8106],[-5.5145,39.2097,433.7999],[-5.5113,39.199,418.63],[-5.5001,39.1876,345.7303],[-5.4934,39.1825,335.4552],[-5.4787,39.1781,316.5676],[-5.4695,39.169,311.8851],[-5.465,39.1607,305.6988],[-5.4597,39.1584,302.1893],[-5.4536,39.161,303.7027],[-5.4412,39.1596,308.0841],[-5.4278,39.1625,313.3223],[-5.4238,39.1601,312.4608],[-5.4245,39.1586,312.0165],[-5.4137,39.1567,315.4966],[-5.3989,39.1659,323.0985],[-5.3976,39.1686,324.4326],[-5.3939,39.169,325.899],[-5.3839,39.1742,330.9661],[-5.376,39.1866,343.0707],[-5.3671,39.213,366.0574],[-5.3533,39.2243,375.8587],[-5.347,39.2392,400.8332],[-5.347,39.248,414.2254],[-5.3527,39.2542,439.0149],[-5.3551,39.2603,499.3712],[-5.3529,39.2833,554.1257],[-5.3399,39.3333,619.181],[-5.3308,39.3313,616.6653],[-5.3231,39.3314,609.0332],[-5.3102,39.3252,604.9086],[-5.3031,39.3196,586.6449],[-5.283,39.3195,489.8655],[-5.2475,39.3018,438.6666],[-5.1862,39.3159,382.8804],[-5.1755,39.317,373.1353],[-5.1718,39.3155,372.2015],[-5.1502,39.321,392.9786],[-5.1234,39.3365,462.8527],[-5.1169,39.3435,523.891],[-5.1117,39.3575,541.544],[-5.1108,39.3677,552.6391],[-5.1136,39.3873,567.1122],[-5.0905,39.3906,569.4537],[-5.0745,39.38,556.7173],[-5.0537,39.3624,512.5832],[-5.0411,39.3665,480.5917],[-5.0195,39.3683,358.0096],[-5.0151,39.3745,413.0],[-5.0088,39.3783,413.0],[-4.9919,39.3707,413.0],[-4.9841,39.3718,413.0],[-4.9786,39.3797,413.0],[-4.9695,39.3829,413.0],[-4.9749,39.3938,413.0],[-4.9731,39.395,413.0],[-4.9524,39.395,416.0],[-4.9636,39.4044,618.0558],[-4.9722,39.4089,639.3809],[-4.9851,39.4195,591.5696],[-4.998,39.4267,667.9517],[-5.0004,39.43,679.2091],[-5.0077,39.4344,636.3564],[-5.0257,39.4523,662.7939],[-5.0439,39.4771,796.3876],[-5.0588,39.4894,837.6738],[-5.0746,39.4869,902.2385],[-5.0838,39.4907,893.2062],[-5.1035,39.5088,932.4547],[-5.1237,39.5216,933.0818],[-5.1351,39.5361,1094.8864],[-5.1457,39.5465,1090.7609],[-5.1459,39.5494,1137.5378],[-5.1547,39.5536,1221.8695],[-5.1606,39.5615,1216.7334],[-5.1777,39.5725,1273.5183],[-5.2065,39.5972,1120.0287],[-5.2051,39.5999,1075.4235],[-5.1922,39.6083,848.8489],[-5.1871,39.6164,663.6979],[-5.1829,39.6177,646.6721],[-5.1773,39.6246,629.575],[-5.1725,39.6354,617.0878],[-5.1614,39.6431,588.0893],[-5.1619,39.6461,571.3265],[-5.1641,39.6468,569.1342],[-5.1616,39.6503,562.1539],[-5.1623,39.6554,553.821],[-5.1587,39.6551,567.5889],[-5.1513,39.6613,546.7749],[-5.1487,39.6681,571.4447],[-5.1563,39.6739,532.519],[-5.1517,39.696,531.5947],[-5.1462,39.706,497.7393],[-5.1377,39.715,470.5048],[-5.1451,39.7265,461.9212],[-5.1565,39.739,419.0964],[-5.1625,39.7406,443.6604],[-5.1737,39.7509,465.894],[-5.1743,39.7552,455.0988],[-5.1643,39.7559,422.8179],[-5.1583,39.7597,404.777],[-5.1606,39.7712,394.7395],[-5.1654,39.78,361.5774],[-5.1674,39.7902,350.6409],[-5.1668,39.7999,315.7997],[-5.1719,39.7983,324.3665],[-5.206,39.7977,316.4181],[-5.21,39.7927,313.6606],[-5.2316,39.7746,314.9236],[-5.244,39.767,349.2903],[-5.2446,39.7609,302.75],[-5.2541,39.7526,310.5382],[-5.2668,39.7524,304.0224],[-5.2759,39.7566,301.3699],[-5.2951,39.7609,299.3792],[-5.3087,39.7604,326.9323],[-5.3145,39.7676,301.7331],[-5.3161,39.7728,322.8104],[-5.3112,39.7872,307.5851],[-5.3151,39.7887,301.3281],[-5.3163,39.7966,362.388],[-5.3131,39.8063,342.4284],[-5.3125,39.8243,357.346],[-5.3103,39.8313,363.6877],[-5.3064,39.8363,352.4898],[-5.2952,39.844,351.419],[-5.2901,39.852,350.4053],[-5.2834,39.8572,338.7512],[-5.2839,39.8639,338.8967],[-5.292,39.8659,352.2011],[-5.2942,39.8749,372.218],[-5.31,39.8802,386.6076],[-5.3107,39.8865,354.9064],[-5.3174,39.8908,336.8583],[-5.3263,39.892,334.489],[-5.3694,39.8884,311.5771],[-5.3938,39.8791,312.4097],[-5.406,39.8777,323.1865],[-5.4046,39.883,324.8835],[-5.401,39.8857,320.8623],[-5.3951,39.9169,292.6847],[-5.3823,39.9421,292.6506],[-5.3727,39.9706,286.43],[-5.365,39.9839,289.4622],[-5.3656,39.9928,294.452],[-5.3623,40.0111,290.7786],[-5.364,40.0261,299.5765],[-5.3658,40.0386,290.0345],[-5.3737,40.0593,285.5642],[-5.3679,40.079,287.6915],[-5.3671,40.0879,298.5211],[-5.3689,40.1001,283.6496],[-5.3593,40.1084,283.2726],[-5.3466,40.1111,287.7945],[-5.3386,40.1158,291.3041],[-5.3359,40.1158,290.695],[-5.3369,40.1242,301.2853],[-5.3419,40.126,308.276],[-5.3458,40.1297,315.4946],[-5.3458,40.1335,322.4163],[-5.3567,40.1484,362.0838],[-5.3571,40.1528,381.3691],[-5.3601,40.1543,384.855],[-5.3601,40.1569,384.9306],[-5.3669,40.1604,394.0762],[-5.3679,40.1641,416.58],[-5.3647,40.1745,444.7339],[-5.3646,40.1819,471.2744],[-5.3664,40.1835,489.8943],[-5.3664,40.196,554.4363],[-5.3681,40.1991,582.5571],[-5.364,40.2033,627.4705],[-5.3694,40.211,719.7184],[-5.3696,40.2183,774.3176],[-5.3626,40.223,838.9404],[-5.3582,40.2283,932.551],[-5.3583,40.232,973.8221],[-5.3431,40.2641,2115.8425],[-5.3488,40.2652,2139.842],[-5.3577,40.263,2133.5254],[-5.3641,40.257,2116.3213],[-5.3786,40.2579,1994.5103],[-5.3949,40.2505,2220.1216],[-5.4125,40.2552,2226.6138],[-5.4297,40.2523,2173.9487],[-5.4397,40.2336,2209.7896],[-5.4522,40.2272,2240.7749],[-5.468,40.2242,2215.1433],[-5.4708,40.2079,2112.3108],[-5.488,40.2047,2095.8787],[-5.499,40.1989,2238.0684],[-5.4999,40.2008,2223.4155],[-5.5096,40.2019,2126.8755],[-5.5186,40.1969,2196.1167],[-5.5309,40.1947,2070.4082],[-5.5364,40.1966,2021.1692],[-5.541,40.1959,2028.1941],[-5.548,40.1972,2021.1323],[-5.5517,40.2006,2017.4741],[-5.5635,40.2026,1995.2322],[-5.5681,40.2064,2041.3506],[-5.5909,40.2153,2098.9668],[-5.5983,40.2168,2355.6489],[-5.6099,40.2155,2283.7666],[-5.6188,40.2239,2271.8462],[-5.6136,40.2333,2109.3628],[-5.6143,40.2359,2119.9387],[-5.6163,40.2363,2127.8047],[-5.621,40.2414,1994.5005],[-5.6219,40.2459,1990.469],[-5.6261,40.2477,1998.5369],[-5.6491,40.2497,1697.6421],[-5.6597,40.2574,1497.5326],[-5.6565,40.2702,1301.1453],[-5.6826,40.2839,1655.7152],[-5.6925,40.2921,2012.6008],[-5.7002,40.2889,2055.5125],[-5.7051,40.2912,2016.6061],[-5.7341,40.2925,2359.4141],[-5.7374,40.2941,2346.8882],[-5.7443,40.2889,2359.5093],[-5.7578,40.2825,2183.7227],[-5.7649,40.2808,2153.6216],[-5.793,40.2867,1556.702],[-5.8026,40.2976,1157.6252],[-5.7932,40.3003,1251.2107],[-5.7892,40.3065,1411.5957],[-5.7819,40.3125,1566.8735],[-5.7938,40.3485,1401.0752],[-5.7974,40.3533,1565.045],[-5.8083,40.35,1256.6956],[-5.8167,40.3509,1133.5687],[-5.8225,40.3479,1180.0388],[-5.8248,40.3442,1167.1119],[-5.847,40.3281,1051.761],[-5.8536,40.3315,859.4138],[-5.8498,40.3382,885.9943],[-5.8522,40.337,932.5651],[-5.8549,40.3384,973.2858],[-5.8577,40.3344,1025.5172],[-5.8675,40.3314,1035.8984],[-5.874,40.3266,1143.436],[-5.8841,40.3266,1183.4735],[-5.8936,40.3182,1077.7878],[-5.8922,40.3119,990.0054],[-5.896,40.3053,932.3853],[-5.9082,40.2901,828.1797],[-5.9139,40.2871,790.4117],[-5.9171,40.2777,598.5889],[-5.9207,40.2809,619.4009],[-5.9377,40.2811,577.4617],[-5.9416,40.2844,670.3978],[-5.9648,40.2915,561.8481],[-5.9684,40.2896,546.8555],[-5.9755,40.2932,536.9536],[-5.9788,40.297,571.3456],[-5.992,40.299,777.318],[-6.0061,40.3061,913.0389],[-6.0113,40.3133,961.0139],[-6.0163,40.3165,954.7474],[-6.0195,40.3226,891.4079],[-6.0159,40.3403,602.712],[-6.0276,40.3395,854.1744],[-6.0456,40.3429,968.3993],[-6.0521,40.3416,995.8867],[-6.0676,40.3475,819.4871],[-6.1056,40.3568,382.7672],[-6.1021,40.3584,380.0],[-6.0968,40.3565,380.0],[-6.0923,40.3617,380.0],[-6.0858,40.3608,380.0],[-6.0823,40.3632,380.0],[-6.0811,40.3731,380.0],[-6.0863,40.3751,385.9754],[-6.0862,40.378,388.9837],[-6.0841,40.38,389.0826],[-6.0747,40.3822,388.8246],[-6.0724,40.3876,380.5],[-6.0837,40.3885,385.045],[-6.0852,40.3899,386.7429],[-6.0835,40.3923,419.9244],[-6.0761,40.391,386.6797],[-6.0741,40.3958,450.8948],[-6.0669,40.3951,381.3223],[-6.0648,40.3966,382.2229],[-6.068,40.3993,386.9058],[-6.0738,40.4008,384.9117],[-6.075,40.4034,382.4757],[-6.0828,40.403,389.0362],[-6.085,40.407,392.1077],[-6.0876,40.4087,397.9377],[-6.0918,40.408,398.498],[-6.0927,40.4112,411.7724],[-6.0973,40.4131,406.2328],[-6.104,40.415,423.3025],[-6.107,40.414,423.4635],[-6.1179,40.4159,421.7114],[-6.1188,40.4193,451.4244],[-6.1294,40.4208,447.9041],[-6.125,40.4294,589.4259],[-6.1192,40.4351,764.8491],[-6.1169,40.4353,777.3668],[-6.116,40.4416,1162.4426],[-6.1201,40.4427,1117.2346],[-6.1322,40.4369,996.4917],[-6.1469,40.4361,641.7239],[-6.1558,40.4478,1006.176],[-6.1524,40.4526,972.4631],[-6.1576,40.457,938.7807],[-6.1691,40.4581,1239.6168],[-6.1803,40.4622,1235.4803],[-6.1865,40.4664,1217.2018],[-6.1876,40.4713,1387.6099],[-6.1911,40.4722,1436.0405],[-6.2013,40.4829,1578.14],[-6.2119,40.4827,1409.0298],[-6.2312,40.4867,1351.0042],[-6.2398,40.4859,1363.7557],[-6.2549,40.47,1126.2756],[-6.2647,40.4709,1119.0254],[-6.2683,40.4676,1075.0015],[-6.2709,40.4609,1105.4547],[-6.2752,40.4585,1228.8875],[-6.2877,40.4576,1249.6432],[-6.2943,40.452,1043.8928],[-6.3222,40.4505,1163.7704],[-6.3252,40.4477,1196.2745],[-6.3346,40.4475,1196.5074],[-6.3445,40.4428,1241.0516],[-6.3458,40.4371,1263.1213],[-6.3654,40.4224,1495.3613],[-6.3657,40.4173,1443.9833],[-6.3613,40.4154,1532.671],[-6.3629,40.4117,1504.53],[-6.3618,40.4071,1561.8405],[-6.3759,40.4002,1387.7937],[-6.3831,40.4007,1467.0381],[-6.3911,40.399,1352.3258],[-6.4077,40.402,1349.6215],[-6.4187,40.3993,1311.0544],[-6.4242,40.3915,1200.1342],[-6.4395,40.3816,1170.9818],[-6.441,40.378,1228.2856],[-6.4382,40.3728,1375.5413],[-6.4501,40.3709,1185.0585],[-6.462,40.3727,1138.0063],[-6.4746,40.3701,1179.4016],[-6.4857,40.3632,1204.614],[-6.4933,40.362,1146.0803],[-6.5362,40.3473,914.4028],[-6.5603,40.3291,825.6669],[-6.5646,40.3146,1070.4757],[-6.5566,40.306399999999996,1071.0144],[-6.5559,40.3042,1053.0759],[-6.5595,40.2958,1169.8588],[-6.5561,40.2908,1190.7825],[-6.5687,40.2828,1132.8174],[-6.5709,40.2795,1131.2112],[-6.5835,40.2745,1267.0332],[-6.5869,40.2707,1343.803],[-6.5973,40.2716,1199.9559],[-6.6147,40.2661,1167.4003],[-6.6251,40.2666,1184.1255],[-6.6345,40.2647,1180.6937],[-6.6398,40.2689,1056.8477],[-6.6716,40.2632,956.0201],[-6.6776,40.258,924.4957],[-6.6777,40.251,972.9438],[-6.6883,40.2466,912.4423],[-6.69,40.2427,945.5339],[-6.7031,40.2511,883.118],[-6.7097,40.2605,910.7923],[-6.7114,40.2669,946.8875],[-6.7181,40.2692,1009.2582],[-6.7266,40.265,1002.3896],[-6.7351,40.2572,985.7369],[-6.7413,40.2562,996.0143],[-6.7517,40.2499,1197.7085],[-6.7554,40.2463,1305.1406],[-6.7555,40.2389,1447.6509],[-6.778,40.2455,1028.8977],[-6.7814,40.2491,1086.9563],[-6.802,40.2496,1082.2961],[-6.8,40.2421,1233.021],[-6.8066,40.2415,1227.3645],[-6.8105,40.2444,1210.546],[-6.8211,40.2447,1214.9886],[-6.8232,40.2458,1248.4219],[-6.8226,40.2482,1278.1215],[-6.8344,40.2476,1233.7224],[-6.8371,40.2486,1224.4827],[-6.8398,40.2556,1228.7217],[-6.8467,40.2544,1200.2509],[-6.8648,40.2705,1217.3945],[-6.868,40.2643,1145.8876],[-6.8762,40.26,1121.8126],[-6.884,40.2579,1042.5193],[-6.8899,40.2605,1090.4222],[-6.9044,40.2572,991.8879],[-6.9073,40.2539,973.9926],[-6.9167,40.2561,968.6436],[-6.9193,40.2554,974.8177],[-6.9261,40.2583,968.301],[-6.9337,40.2571,984.0598],[-6.9381,40.2587,984.3237],[-6.9442,40.2565,995.2633],[-6.9514,40.2576,1011.3077],[-6.9551,40.2518,972.2233],[-6.9544,40.2492,1004.7967],[-6.9615,40.243,920.5277],[-6.9633,40.2382,899.4196],[-6.9719,40.2365,922.7574],[-6.9764,40.2406,874.9169],[-6.9791,40.2406,870.3241],[-6.9889,40.2364,803.8544],[-6.9983,40.2353,822.1411],[-7.0127,40.2254,820.4326],[-7.0107,40.2229,807.2614],[-7.0189,40.2057,809.387],[-7.0189,40.1973,851.3856],[-7.025,40.1943,807.1679],[-7.0283,40.1909,627.1599],[-7.03,40.1864,536.389],[-7.0285,40.1827,519.2035],[-7.0255,40.1808,498.0776],[-7.0213,40.1805,496.6943],[-7.0165,40.1765,468.3193],[-7.0182,40.1755,481.5574],[-7.0178,40.1701,451.9548],[-7.022,40.1674,426.3643],[-7.0144,40.1582,406.4195],[-7.016,40.1539,407.4526],[-7.0143,40.1493,391.1844],[-7.0178,40.1481,395.3158],[-7.0212,40.144,382.9646],[-7.0171,40.1426,390.0675],[-7.0156,40.1381,371.7152],[-7.0137,40.1376,385.1717],[-7.0152,40.1357,371.3808],[-7.0126,40.1341,367.4781],[-7.0146,40.1318,368.6196],[-7.0119,40.1322,366.3232],[-7.009,40.1301,370.7138],[-7.0131,40.1264,351.9969],[-7.0072,40.1251,351.4404],[-7.0073,40.1228,344.1915],[-7.0036,40.124,351.4601],[-7.0029,40.1213,339.0023],[-6.9993,40.1213,347.5573],[-6.9998,40.1191,346.6406],[-6.9933,40.1193,333.5023],[-6.993,40.1125,324.8866],[-6.9904,40.1135,338.5355],[-6.9898,40.1177,328.0324],[-6.9866,40.1191,325.1891],[-6.9821,40.117,344.2736],[-6.9786,40.119,334.8048],[-6.9761,40.1164,323.4478],[-6.9692,40.1149,321.7692],[-6.9623,40.117,314.146],[-6.9608,40.1155,314.146],[-6.9621,40.1129,315.0096],[-6.9608,40.1111,313.2967],[-6.958,40.1117,318.6171],[-6.9542,40.1156,327.6921],[-6.9483,40.11,324.2602],[-6.9409,40.1125,316.9828],[-6.941,40.1069,311.5947],[-6.9434,40.1059,303.7175],[-6.943,40.104,302.4523],[-6.9338,40.1035,310.4424],[-6.9317,40.0959,310.4425],[-6.9208,40.0871,307.3862],[-6.9188,40.0827,304.6637],[-6.9173,40.0661,287.6701],[-6.9094,40.0672,285.2122],[-6.9076,40.0632,296.1659],[-6.9037,40.0614,277.8404],[-6.8923,40.0602,286.4713],[-6.8972,40.0521,293.3304],[-6.8866,40.0467,301.9423],[-6.8809,40.0417,273.1716],[-6.8825,40.0334,289.0765],[-6.8743,40.0238,263.297],[-6.8773,40.0182,263.6041],[-6.8667,40.0152,261.5259],[-6.8638,40.012,260.2499],[-6.8658,40.0097,260.0179],[-6.8738,40.0075,258.8875],[-6.8744,40.0041,260.4525],[-6.8727,40.0003,261.8074],[-6.8739,39.9949,257.22],[-6.8867,39.9793,276.1405],[-6.8858,39.9769,263.4898],[-6.8796,39.9718,256.315],[-6.8873,39.9652,250.3264],[-6.8885,39.961,253.1333],[-6.8847,39.9548,245.622],[-6.8857,39.951,252.2943],[-6.8839,39.9459,250.9913],[-6.885,39.9407,243.5885],[-6.8907,39.9376,249.3514],[-6.8928,39.9325,239.288],[-6.9011,39.9308,247.6993],[-6.9014,39.9277,239.2504],[-6.9066,39.9238,234.1752],[-6.9036,39.9211,246.6207],[-6.9073,39.9197,235.2039],[-6.9075,39.9179,239.0142],[-6.9042,39.9168,238.7709],[-6.8995,39.9107,231.5499],[-6.9023,39.9057,233.8869],[-6.8994,39.9009,228.2662],[-6.906,39.8903,237.5524],[-6.902,39.8866,233.7031],[-6.9041,39.8765,250.935],[-6.9028,39.8731,222.7663],[-6.9036,39.8707,221.0931],[-6.9075,39.8688,240.9883],[-6.9095,39.8631,203.6485],[-6.9122,39.8623,198.456],[-6.9143,39.8588,198.0117],[-6.9239,39.8578,198.4057],[-6.9301,39.8536,191.4305],[-6.936,39.8428,190.5526],[-6.9342,39.8408,192.6888],[-6.9349,39.8386,207.4519],[-6.9391,39.8373,190.8776],[-6.9401,39.8341,190.4021],[-6.9438,39.8357,197.4773],[-6.9458,39.8343,191.9864],[-6.9484,39.8275,185.126],[-6.9582,39.8238,181.8634],[-6.9601,39.8251,181.7577],[-6.9709,39.825,179.4231],[-6.9751,39.8195,205.226],[-6.981,39.82,166.9847],[-6.9842,39.8142,178.6495],[-6.9839,39.8104,194.1841],[-6.9872,39.81,174.656],[-6.988,39.8007,174.5533],[-6.9866,39.7982,175.6795],[-6.9895,39.7947,164.6854],[-6.9835,39.7907,170.429],[-6.9817,39.7819,167.6262],[-6.9774,39.7777,166.4874],[-6.9768,39.7723,183.5763],[-6.9841,39.7681,167.7401],[-6.9872,39.7632,180.5789],[-6.987,39.7542,172.1138],[-6.9898,39.7522,166.7356],[-6.9939,39.7403,188.019],[-6.9918,39.7356,191.1528],[-6.9939,39.7316,182.1655],[-6.9873,39.7276,152.5958],[-6.9937,39.7218,162.6883],[-6.9953,39.7166,156.4514],[-6.9995,39.7142,191.335],[-7.0024,39.7052,145.4268],[-7.0054,39.7018,151.4034],[-7.0038,39.697,140.858],[-7.0067,39.6918,147.7931],[-7.0073,39.6847,175.055],[-7.0133,39.6793,129.7316],[-7.0155,39.6704,157.8269],[-7.065,39.658,114.0],[-7.0732,39.6582,128.824],[-7.0894,39.6634,120.0842],[-7.1228,39.6638,160.2704],[-7.128,39.6627,118.5275],[-7.1428,39.6538,132.0337],[-7.1514,39.6531,114.0],[-7.2015,39.6622,126.031],[-7.2157,39.6599,116.0746],[-7.2515,39.6668,116.5733],[-7.2865,39.6607,113.5],[-7.2952,39.6544,113.5],[-7.3184,39.6485,113.5],[-7.327,39.6427,116.7769],[-7.3337,39.6408,113.5],[-7.3752,39.6508,113.5],[-7.3918,39.6497,113.5],[-7.403,39.6463,117.3535],[-7.4253,39.6511,113.5],[-7.4397,39.6588,151.9072],[-7.4555,39.6624,116.8847],[-7.4769,39.6628,113.5],[-7.4918,39.6658,113.5],[-7.5317,39.6673,123.0247],[-7.5417,39.6637,86.4801],[-7.5372,39.6614,124.505],[-7.5321,39.6622,152.3165],[-7.5317,39.6584,115.5902],[-7.5276,39.6559,117.0803],[-7.5276,39.6475,122.1892],[-7.5247,39.6428,116.1573],[-7.5274,39.6349,141.973],[-7.5207,39.6262,134.4625],[-7.5101,39.6188,115.2558],[-7.5078,39.6067,134.1797],[-7.5046,39.6043,128.2643],[-7.5039,39.6008,144.8986],[-7.5001,39.5994,124.4698],[-7.4994,39.5896,133.3676],[-7.4949,39.5861,127.6005],[-7.4883,39.5868,137.831],[-7.4789,39.5788,143.0207],[-7.4669,39.577,182.2571],[-7.4655,39.5739,155.7506],[-7.4612,39.5728,144.9207],[-7.4598,39.5668,152.5615],[-7.4526,39.5627,155.8609],[-7.448,39.5518,159.0084],[-7.4446,39.5513,160.2552],[-7.4465,39.5481,161.5639],[-7.4435,39.5471,196.5381],[-7.4417,39.5432,162.2348],[-7.4303,39.5345,190.6796],[-7.4267,39.5327,168.7879],[-7.422,39.5345,171.6642],[-7.4184,39.5315,170.5446],[-7.4105,39.5323,196.9014],[-7.4062,39.5306,169.9029],[-7.4001,39.5338,219.5567],[-7.3907,39.5297,177.328],[-7.3928,39.5272,190.7276],[-7.3885,39.524,197.1921],[-7.3889,39.5138,218.7468],[-7.3877,39.5104,196.6814],[-7.39,39.5079,199.9074],[-7.3904,39.5032,228.4393],[-7.3872,39.5015,214.865],[-7.3864,39.4984,236.4173],[-7.3791,39.4964,199.2753],[-7.3788,39.4945,205.2616],[-7.3819,39.4912,213.3814],[-7.365,39.4862,232.8242],[-7.3649,39.4822,243.005],[-7.3625,39.4814,256.2895],[-7.3605,39.4834,263.1382],[-7.3478,39.488,261.686],[-7.3476,39.4834,267.4352],[-7.3438,39.4781,287.7819],[-7.3381,39.479,286.0319],[-7.3326,39.4762,279.4638],[-7.323,39.4747,282.0706],[-7.3193,39.47,291.6083],[-7.3091,39.4676,286.9238],[-7.3044,39.4639,289.5057],[-7.3001,39.4631,291.2469],[-7.2957,39.4587,294.4557],[-7.2942,39.4566,303.8256],[-7.2959,39.4538,323.1563],[-7.3056,39.4461,331.5138],[-7.3061,39.4392,344.0094],[-7.3049,39.4377,351.0142],[-7.3086,39.4303,377.6846],[-7.3014,39.4227,372.7051],[-7.3029,39.4199,374.9034],[-7.3011,39.4169,381.1087],[-7.3033,39.4152,379.204],[-7.3026,39.4122,380.6108],[-7.3055,39.4111,381.1198],[-7.3085,39.4046,402.3298],[-7.3075,39.4029,413.0526],[-7.3102,39.3985,402.8866],[-7.3135,39.3995,412.7469],[-7.3149,39.3941,468.7784],[-7.3214,39.3866,517.8388],[-7.3229,39.382,556.5875],[-7.3211,39.378,558.3817],[-7.3178,39.3781,646.545],[-7.3156,39.3722,647.6699],[-7.3115,39.371,661.0353],[-7.3104,39.3617,714.5973],[-7.3063,39.3563,702.4766],[-7.306,39.3511,647.0703],[-7.3103,39.341,866.0],[-7.3075,39.3361,947.4146],[-7.302,39.3317,944.2592],[-7.2923,39.3288,832.3317],[-7.2908,39.326,788.1697],[-7.2879,39.3247,719.9568],[-7.288,39.3231,686.9985],[-7.2815,39.3206,757.563],[-7.2726,39.3113,782.3388],[-7.2689,39.3094,787.9799],[-7.2702,39.3042,760.1157],[-7.267,39.301,728.8145],[-7.2356,39.2801,567.3157],[-7.2037,39.2657,505.6555],[-7.1942,39.2754,418.2581],[-7.1886,39.2847,467.4119],[-7.1716,39.2977,333.1759],[-7.1696,39.3059,355.0392],[-7.1612,39.3121,342.1618],[-7.1551,39.3145,332.2413],[-7.1554,39.3174,338.1268],[-7.1519,39.3215,346.8608],[-7.1553,39.3297,421.8921],[-7.1601,39.3306,433.9212],[-7.1657,39.3261,426.2018],[-7.1684,39.3202,357.0165],[-7.1766,39.3274,439.3948],[-7.1771,39.3376,463.2337],[-7.1649,39.3514,516.5699],[-7.1614,39.3571,534.7166],[-7.1613,39.3608,519.7528],[-7.1542,39.3675,496.9539],[-7.1371,39.3768,445.1264],[-7.1337,39.3748,441.8586],[-7.1254,39.3812,429.5833],[-7.1043,39.386,429.4913],[-7.0987,39.3851,435.4303],[-7.0931,39.38,441.7341],[-7.0797,39.3793,460.0151],[-7.0738,39.3812,465.5591],[-7.0701,39.3742,442.0864],[-7.0629,39.3723,442.1615],[-7.0692,39.3667,419.4625],[-7.079,39.3514,438.6894],[-7.0985,39.3591,454.5403],[-7.1027,39.3553,470.2101],[-7.102,39.3464,477.2265],[-7.0882,39.3404,467.4887],[-7.0826,39.3353,474.2956],[-7.0841,39.323,412.0889],[-7.0812,39.3132,366.3549],[-7.077,39.3102,376.8391],[-7.0503,39.3216,404.187],[-7.044,39.3269,408.0396],[-7.0487,39.3294,414.5958],[-7.0479,39.3335,421.1231],[-7.0299,39.3509,370.2681],[-7.0293,39.3592,405.8505],[-7.0325,39.3676,430.7095],[-7.0213,39.3713,398.2964],[-7.0181,39.3786,390.978],[-7.0187,39.3831,406.1052],[-7.0092,39.3885,426.4443],[-7.0174,39.392,425.4812],[-7.0381,39.3965,440.8331],[-7.0496,39.402,479.0065],[-7.0669,39.4143,489.6848],[-7.0493,39.4367,551.9948],[-7.0321,39.4305,502.8231],[-7.0295,39.4318,511.579],[-6.9953,39.4246,514.5361],[-6.9893,39.4198,516.2308],[-6.9825,39.4194,534.2377],[-6.9806,39.4143,645.1348],[-6.9776,39.4125,660.6733],[-6.9357,39.3968,578.3887],[-6.9239,39.3946,587.4068],[-6.9076,39.3889,435.5815],[-6.8969,39.3895,499.1421],[-6.8831,39.3828,402.6866],[-6.8721,39.3824,477.8243],[-6.8566,39.3888,451.9272],[-6.8468,39.3875,430.0325],[-6.8309,39.3884,414.5014],[-6.8113,39.3914,387.698],[-6.802,39.3895,349.7271],[-6.8014,39.3839,403.6395],[-6.7909,39.3675,380.5091],[-6.7948,39.3617,343.5302],[-6.7948,39.3521,342.2096],[-6.7971,39.3448,295.9736],[-6.7789,39.336,355.906],[-6.7706,39.3286,360.597],[-6.7486,39.3258,401.6191],[-6.7466,39.3218,366.8577],[-6.7471,39.3158,338.4865],[-6.7503,39.3124,331.2739],[-6.7512,39.3036,307.3381],[-6.7617,39.2758,321.6446],[-6.7668,39.2697,348.0767],[-6.7788,39.2654,336.424],[-6.7842,39.2529,285.4283],[-6.7927,39.2476,270.6509],[-6.8007,39.2394,286.7859],[-6.8007,39.2311,251.0743],[-6.7968,39.2263,276.6331],[-6.7978,39.22,257.3098],[-6.7946,39.215,256.2593],[-6.7917,39.2106,301.6526],[-6.7877,39.2091,332.1036],[-6.7848,39.2015,296.5602],[-6.7674,39.1884,337.7179],[-6.7612,39.1885,323.324],[-6.7531,39.1939,360.1316],[-6.7505,39.194,353.6683],[-6.7399,39.19,409.8565],[-6.7071,39.1846,412.275],[-6.6891,39.1783,450.0031],[-6.6809,39.1772,476.773],[-6.6596,39.1991,331.2006],[-6.6451,39.1934,359.2416],[-6.6333,39.1969,376.8777],[-6.6268,39.1941,394.5546],[-6.6267,39.1919,425.3828],[-6.6193,39.1918,506.4468],[-6.6147,39.1888,540.4315],[-6.6057,39.188,458.1778],[-6.58,39.1798,418.9269],[-6.5791,39.179,409.3328],[-6.5832,39.1754,392.2855],[-6.5843,39.1711,386.4638],[-6.5781,39.1704,378.4362],[-6.574,39.1677,374.5081],[-6.5741,39.1584,358.1493],[-6.5386,39.1553,407.1406],[-6.5359,39.1634,379.5266],[-6.5359,39.176,413.7946],[-6.5402,39.1817,438.6081],[-6.491,39.1679,345.7511],[-6.4692,39.1733,351.2671],[-6.445,39.1734,352.2762],[-6.4386,39.1759,377.5926],[-6.4303,39.1738,325.2448],[-6.4185,39.1669,326.9685],[-6.406,39.165,332.047],[-6.3969,39.1667,344.7085],[-6.379,39.1628,348.3151],[-6.3712,39.163,366.528],[-6.3654,39.1669,394.1594],[-6.3554,39.1776,407.0417],[-6.3409,39.1839,455.434],[-6.3273,39.1867,513.4984],[-6.3193,39.1845,542.0066],[-6.3214,39.1717,430.2212],[-6.3163,39.1663,436.5642],[-6.3154,39.1613,452.5816],[-6.3093,39.1559,445.9511],[-6.3102,39.1534,440.3671],[-6.3074,39.1467,412.7414],[-6.308,39.1403,407.9473],[-6.3122,39.1325,390.3396],[-6.3096,39.1229,382.5719],[-6.3125,39.1161,371.9167],[-6.3118,39.1122,362.8419],[-6.2997,39.1042,369.3853],[-6.2952,39.0982,341.8154],[-6.2686,39.0953,368.2213],[-6.2599,39.0924,312.6397],[-6.2307,39.0898,336.2742],[-6.225,39.0848,323.1823],[-6.2155,39.0686,350.8292],[-6.203,39.0565,337.2941],[-6.1678,39.0589,363.6434],[-6.1538,39.0536,320.167],[-6.1516,39.0511,368.6167],[-6.1526,39.0473,367.2217],[-6.1462,39.0424,365.5161],[-6.142,39.0316,349.243],[-6.1364,39.0341,348.0305],[-6.131,39.0395,359.4892],[-6.1251,39.05,332.4171],[-6.1126,39.0611,351.9544],[-6.1061,39.0646,395.1154],[-6.0895,39.0846,354.1758],[-6.0785,39.0937,341.6959],[-6.0622,39.1021,297.6282],[-6.0384,39.1177,271.1563],[-6.0312,39.1199,269.1086],[-6.0185,39.1291,277.9789],[-6.0147,39.1293,262.4572],[-6.0161,39.1161,262.2557],[-6.0141,39.1067,258.9413],[-6.0163,39.1019,257.0852],[-6.015,39.0934,255.6431],[-6.0125,39.0891,255.0937],[-6.0119,39.0712,253.315],[-6.0102,39.0673,249.4421],[-6.0115,39.0633,248.516],[-6.0076,39.0597,249.7762],[-6.0105,39.0552,247.6993],[-6.0096,39.0526,249.5689],[-5.9896,39.0682,253.5203],[-5.9867,39.0696,255.3341],[-5.982,39.0687,258.2357],[-5.968,39.0827,259.4331],[-5.9665,39.0876,262.9543],[-5.9615,39.0902,264.12],[-5.9608,39.0938,263.873],[-5.9542,39.0975,262.4698],[-5.9497,39.103,263.8648],[-5.9471,39.1025,264.9086],[-5.9418,39.1087,265.7525],[-5.9378,39.1089,266.8897],[-5.9265,39.1046,276.7914],[-5.9245,39.098,274.3041]]]]}
,"properties": {"GID_2": "ESP.11.2_1","GID_0": "ESP","country": "Spain","GID_1": "ESP.11_1","province": "Extremadura","NL_NAME_1": "NA","county": "Cáceres","VARNAME_2": "NA","NL_NAME_2": "NA","TYPE_2": "Provincia","ENGTYPE_2": "Province","CC_2": "10","HASC_2": "ES.EX.CC","name": "Cáceres.county","area_km2": 19847.93,"hist_schema_id": "Elevation0-9000","hist_area_km2": {"125": 13.52,"150": 14.47,"175": 21.96,"200": 125.03,"225": 231.83,"250": 740.58,"275": 1533.96,"300": 1514.62,"325": 1647.9,"350": 1805.63,"375": 1919.58,"400": 1793.81,"425": 1439.17,"450": 1113.29,"475": 863.39,"500": 677.32,"525": 515.86,"550": 411.4,"575": 356.26,"600": 314.97,"625": 271.87,"650": 231.79,"675": 204.34,"700": 185.93,"725": 165.26,"750": 145.67,"775": 129.86,"800": 114.17,"825": 100.11,"850": 91.33,"875": 89.97,"900": 82.69,"925": 74.69,"950": 67.19,"975": 62.27,"1000": 56.38,"1025": 50.24,"1050": 48.84,"1075": 44.51,"1100": 41.85,"1125": 39.92,"1150": 37.35,"1175": 33.74,"1200": 31.08,"1225": 29.77,"1250": 27.21,"1275": 24.5,"1300": 22.99,"1325": 21.87,"1350": 20.01,"1375": 18.3,"1400": 16.83,"1425": 15.37,"1450": 14.77,"1475": 13.51,"1500": 11.93,"1525": 11.11,"1550": 10.96,"1575": 10.46,"1600": 8.71,"1625": 7.87,"1650": 8.0,"1675": 8.34,"1700": 7.79,"1725": 7.64,"1750": 6.93,"1775": 7.12,"1800": 5.55,"1825": 4.81,"1850": 4.53,"1875": 3.98,"1900": 4.19,"1925": 3.69,"1950": 3.61,"1975": 3.66,"2000": 3.72,"2025": 3.14,"2050": 2.33,"2075": 2.87,"2100": 2.44,"2125": 2.3,"2150": 2.35,"2175": 1.96,"2200": 1.89,"2225": 1.65,"2250": 0.89,"2275": 0.23,"2300": 0.26}}}