{"type": "Feature","bbox": [-6.5384,37.4542,-5.3293,38.1974],"geometry": {"type": "MultiPolygon","coordinates": [[[[-6.0075,37.5713,71.1351],[-6.0156,37.5827,117.6229],[-6.0174,37.5895,138.0118],[-6.0251,37.5998,142.6559],[-6.0305,37.6185,192.0639],[-6.0149,37.6157,165.8656],[-6.0074,37.617,171.8972],[-5.9846,37.6295,342.4167],[-5.9525,37.6358,264.2154],[-5.94,37.6364,201.657],[-5.9333,37.6388,272.5337],[-5.9264,37.636,228.0309],[-5.9038,37.6388,196.5734],[-5.8823,37.6451,289.2245],[-5.8821,37.6568,205.4537],[-5.8702,37.6646,304.6782],[-5.8577,37.6696,189.7925],[-5.857,37.6719,150.4293],[-5.8542,37.6734,121.7882],[-5.8427,37.6742,73.5178],[-5.833,37.6818,52.6596],[-5.8364,37.6844,34.3812],[-5.7918,37.6876,136.9594],[-5.7972,37.7028,290.393],[-5.7742,37.7156,116.0106],[-5.7587,37.7268,199.9504],[-5.7379,37.7321,240.7953],[-5.7038,37.7365,129.6274],[-5.6998,37.7332,136.2784],[-5.7016,37.7258,102.4357],[-5.6974,37.7229,120.7631],[-5.7,37.7209,122.4267],[-5.701,37.7139,118.5306],[-5.6968,37.7156,134.8326],[-5.6924,37.7117,82.0055],[-5.6929,37.7088,137.8274],[-5.6971,37.704,94.2983],[-5.676,37.7041,190.6791],[-5.6698,37.7069,206.3244],[-5.6675,37.7098,231.0867],[-5.6565,37.7127,238.6958],[-5.6377,37.7213,312.7442],[-5.6157,37.7197,288.1302],[-5.5963,37.7336,352.9792],[-5.5895,37.7332,354.9912],[-5.5606,37.7389,350.6771],[-5.5439,37.7463,379.7224],[-5.4931,37.7542,287.1958],[-5.4782,37.7519,286.9101],[-5.473,37.7552,348.5175],[-5.4575,37.7572,347.7571],[-5.4356,37.7519,293.2487],[-5.4242,37.7521,227.1689],[-5.4047,37.7584,407.9749],[-5.3928,37.7667,381.4305],[-5.3874,37.7658,314.234],[-5.3786,37.7689,314.4669],[-5.3577,37.7688,265.9237],[-5.3507999999999996,37.7738,264.3174],[-5.3436,37.7752,268.3233],[-5.3293,37.7819,127.1688],[-5.3308,37.7857,137.9699],[-5.3439,37.7898,156.6132],[-5.3452,37.7924,124.0776],[-5.3498,37.7943,127.1537],[-5.3473,37.8045,160.7874],[-5.3475,37.8123,172.0853],[-5.3419,37.8238,239.7395],[-5.3448,37.8279,160.5394],[-5.3393,37.8315,155.6794],[-5.3396,37.8336,162.2648],[-5.3452,37.8367,164.6953],[-5.3447,37.8401,171.5012],[-5.3469,37.8398,177.7352],[-5.3504,37.8434,183.0],[-5.3598,37.8442,183.0],[-5.3683,37.8502,183.0],[-5.3791,37.8526,183.0],[-5.3813,37.8516,183.0],[-5.388,37.8577,183.0],[-5.3999,37.8636,195.1807],[-5.4045,37.8623,212.1644],[-5.4115,37.8716,242.1099],[-5.4148,37.8699,243.5992],[-5.4136,37.8746,259.9518],[-5.4145,37.8769,269.5616],[-5.4174,37.8775,256.0204],[-5.4152,37.8791,260.6667],[-5.416,37.8843,273.1248],[-5.4178,37.8875,286.5965],[-5.4219,37.8889,283.0672],[-5.4208,37.893,320.7176],[-5.4144,37.898,304.5302],[-5.4136,37.9015,307.9896],[-5.4134,37.9049,312.2349],[-5.4165,37.9068,312.8773],[-5.4178,37.9166,330.1013],[-5.422,37.9184,325.9181],[-5.4171,37.9212,323.335],[-5.42,37.9249,337.7668],[-5.4165,37.9286,370.9829],[-5.4241,37.927,344.3887],[-5.4231,37.9307,365.0144],[-5.4207,37.9296,358.1272],[-5.4188,37.9315,368.9987],[-5.4187,37.9364,368.4913],[-5.4156,37.9381,379.3366],[-5.4143,37.9411,367.4477],[-5.4155,37.9437,374.2842],[-5.4181,37.9449,374.3465],[-5.4203,37.9487,385.3812],[-5.426,37.9501,387.5789],[-5.432,37.9539,401.3325],[-5.4358,37.9583,402.8549],[-5.4471,37.9615,419.4968],[-5.4521,37.9672,446.0605],[-5.4692,37.971,474.7432],[-5.4699,37.9745,497.7897],[-5.4742,37.9754,489.6305],[-5.4817,37.9898,552.2562],[-5.4851,37.9904,554.7584],[-5.4872,37.9936,574.8221],[-5.4902,37.9928,576.4331],[-5.493,37.9958,654.5574],[-5.4936,38.0001,691.1689],[-5.4904,38.0092,593.2139],[-5.4919,38.0136,529.7363],[-5.4889,38.0281,538.02],[-5.4898,38.0336,502.6039],[-5.4954,38.0424,434.9227],[-5.5103,38.0532,343.4034],[-5.516,38.0621,347.4108],[-5.5227,38.0651,431.9969],[-5.5255,38.0686,488.3931],[-5.5251,38.0733,532.187],[-5.5274,38.0755,499.5565],[-5.532,38.0759,518.7668],[-5.5395,38.0822,539.6046],[-5.5387,38.0938,562.9396],[-5.5507,38.1012,560.8203],[-5.5572,38.108,401.7439],[-5.5816,38.1155,454.5231],[-5.5812,38.129,657.137],[-5.5847,38.1317,642.7988],[-5.6333,38.1381,486.7025],[-5.6441,38.1293,523.8307],[-5.6458,38.1252,528.597],[-5.6669,38.1091,686.854],[-5.6692,38.1018,669.0156],[-5.6935,38.0838,633.7543],[-5.7103,38.0811,570.7909],[-5.7194,38.0851,592.1745],[-5.7328,38.0875,611.4822],[-5.7348,38.0863,621.7225],[-5.7359,38.0945,676.8278],[-5.7339,38.0982,656.0187],[-5.7341,38.1081,627.1866],[-5.735,38.1145,619.2604],[-5.7406,38.1266,612.2557],[-5.7387,38.1328,524.3157],[-5.7307,38.1371,485.2502],[-5.7186,38.1363,549.3073],[-5.7153,38.1338,536.9409],[-5.7088,38.1423,552.0084],[-5.7043,38.1434,530.003],[-5.6946,38.1504,474.976],[-5.7056,38.1641,428.0155],[-5.7057,38.1694,429.357],[-5.7019,38.1673,422.1857],[-5.6949,38.1711,426.6591],[-5.6938,38.1682,476.524],[-5.686,38.1616,510.2525],[-5.6841,38.1571,510.7169],[-5.684,38.1608,522.4189],[-5.6887,38.1712,458.3773],[-5.6874,38.1796,419.7326],[-5.6885,38.1819,406.8925],[-5.6977,38.1797,406.0915],[-5.6987,38.1827,416.3361],[-5.6944,38.1835,423.0025],[-5.6946,38.1865,421.3405],[-5.6979,38.185,419.3583],[-5.7018,38.1864,422.0055],[-5.7049,38.1851,425.7531],[-5.7078,38.1883,423.5175],[-5.7141,38.1863,427.0154],[-5.7146,38.189,435.8967],[-5.7231,38.1925,448.7706],[-5.725,38.1958,442.9204],[-5.728,38.1974,441.8679],[-5.7314,38.1952,441.0538],[-5.7419,38.1939,441.739],[-5.7457,38.1895,444.4704],[-5.7485,38.1904,451.7391],[-5.7538,38.1843,455.4745],[-5.7566,38.1853,490.2073],[-5.7574,38.1839,490.2073],[-5.7552,38.1819,458.8614],[-5.7572,38.1806,467.4285],[-5.761,38.1828,462.474],[-5.772,38.1834,464.8182],[-5.7816,38.1859,479.6842],[-5.7917,38.1776,490.0201],[-5.7998,38.1745,485.2746],[-5.803,38.1783,485.1351],[-5.8105,38.1736,509.4817],[-5.8118,38.1748,492.5839],[-5.8106,38.178,491.8124],[-5.8153,38.1763,504.5493],[-5.817,38.1777,530.1444],[-5.8186,38.1751,507.6884],[-5.8222,38.1757,531.2202],[-5.8241,38.1722,515.7716],[-5.823,38.1699,515.9461],[-5.8377,38.1744,530.2247],[-5.8466,38.1714,542.8535],[-5.8514,38.1719,541.675],[-5.8551,38.1695,544.664],[-5.8565,38.1615,553.0906],[-5.8746,38.1584,579.9177],[-5.8774,38.1554,613.1522],[-5.8767,38.1484,624.4146],[-5.8785,38.1466,641.2628],[-5.8768,38.1379,697.2141],[-5.8808,38.1322,840.9527],[-5.8952,38.1305,711.1827],[-5.9072,38.124,629.0586],[-5.9128,38.1227,620.5901],[-5.9141,38.1176,612.6132],[-5.9264,38.1044,476.904],[-5.9276,38.0973,454.7161],[-5.9291,38.0964,450.6619],[-5.9277,38.0912,434.424],[-5.9292,38.0892,434.2041],[-5.9107,38.0782,399.9295],[-5.9079,38.0683,393.282],[-5.9089,38.0629,386.6449],[-5.9116,38.0628,389.4126],[-5.9132,38.0596,382.6034],[-5.9179,38.0562,377.9868],[-5.9192,38.0498,378.6545],[-5.9283,38.0502,387.3873],[-5.9341,38.0469,366.779],[-5.9366,38.0387,349.5477],[-5.9326,38.0315,343.6783],[-5.9368,38.028,338.5668],[-5.9363,38.0244,334.5],[-5.9404,38.0149,335.0],[-5.9448,38.0107,337.0061],[-5.945,38.007,336.4879],[-5.9536,37.9954,335.0],[-5.9557,37.9984,335.0],[-5.9613,37.9997,335.0],[-5.9774,37.9998,373.9639],[-5.9868,37.998,378.9876],[-5.9934,37.9996,381.3143],[-6.0061,37.9914,550.2854],[-6.0129,37.9934,573.6501],[-6.017,37.9911,611.8964],[-6.0241,37.9933,585.6639],[-6.0312,37.9977,622.7192],[-6.0406,37.995,615.3834],[-6.0443,37.997,602.1301],[-6.0522,37.9967,543.8276],[-6.0552,37.9923,511.7351],[-6.0617,37.9915,491.306],[-6.0652,37.9885,508.9665],[-6.0777,37.9846,585.6899],[-6.0827,37.9857,581.2096],[-6.09,37.9845,625.2043],[-6.0943,37.9816,714.8932],[-6.1152,37.9818,582.1697],[-6.1297,37.9731,523.866],[-6.1361,37.9722,497.0779],[-6.1423,37.9658,471.0581],[-6.1492,37.9661,465.7038],[-6.1485,37.9626,460.8239],[-6.1544,37.9576,447.1846],[-6.1677,37.9558,445.2586],[-6.1678,37.9519,442.7686],[-6.1773,37.9461,424.399],[-6.1822,37.9382,422.7372],[-6.184,37.9282,418.8341],[-6.1691,37.9094,409.262],[-6.1665,37.9092,409.374],[-6.164,37.9177,400.3253],[-6.1564,37.9167,416.1329],[-6.1521,37.9192,398.0893],[-6.1505,37.919,400.0002],[-6.1512,37.9161,403.3522],[-6.15,37.916,403.3522],[-6.1464,37.9203,407.2616],[-6.1446,37.9204,391.8143],[-6.1378,37.909,411.5815],[-6.1315,37.9088,451.067],[-6.1249,37.9048,385.5322],[-6.1253,37.9009,384.8159],[-6.1362,37.8957,511.237],[-6.1413,37.885,385.6957],[-6.1453,37.8843,384.2825],[-6.1502,37.877,370.6367],[-6.1591,37.8735,364.9232],[-6.1603,37.8655,367.7141],[-6.1639,37.8628,355.7741],[-6.163,37.8573,356.3494],[-6.1589,37.8541,349.4181],[-6.154,37.8534,351.646],[-6.1462,37.8568,344.2766],[-6.1417,37.8549,360.813],[-6.1381,37.8441,339.7002],[-6.1348,37.8426,342.7537],[-6.1353,37.8349,365.6719],[-6.1295,37.8324,342.0778],[-6.1255,37.8181,330.6398],[-6.1218,37.8171,342.2476],[-6.1216,37.8156,323.2593],[-6.127,37.8115,341.4348],[-6.1242,37.8044,318.0371],[-6.1263,37.7972,307.4448],[-6.1381,37.7951,306.689],[-6.1337,37.79,312.6797],[-6.1339,37.7878,300.9387],[-6.1349,37.7892,312.6797],[-6.1429,37.7873,313.2623],[-6.147,37.7937,330.3419],[-6.1534,37.7949,335.944],[-6.1564,37.7909,349.2944],[-6.159,37.7907,363.6344],[-6.163,37.7942,377.4803],[-6.1673,37.7928,381.2969],[-6.1683,37.7961,382.1448],[-6.1728,37.7963,388.1118],[-6.1719,37.7985,398.8301],[-6.1773,37.7982,405.2908],[-6.1841,37.8095,445.4424],[-6.1875,37.8099,432.3413],[-6.2023,37.8055,467.1365],[-6.2079,37.8007,494.3548],[-6.2072,37.7983,495.8094],[-6.2123,37.7956,479.5728],[-6.2154,37.7913,409.831],[-6.2122,37.7862,433.7225],[-6.2074,37.7713,318.8256],[-6.2088,37.7694,304.4949],[-6.2056,37.766,394.0451],[-6.2198,37.7545,364.0459],[-6.2203,37.7485,266.8732],[-6.2169,37.7437,243.9982],[-6.2219,37.7415,200.8498],[-6.2219,37.7397,181.167],[-6.2268,37.739,174.0135],[-6.2267,37.7415,182.6828],[-6.2347,37.7386,162.1718],[-6.2337,37.744,190.9934],[-6.2362,37.7443,167.9737],[-6.2434,37.7409,160.3714],[-6.2523,37.7428,165.0961],[-6.2552,37.7459,200.4612],[-6.2541,37.7474,176.3754],[-6.2445,37.7478,171.4033],[-6.2483,37.7591,182.6446],[-6.2519,37.7631,175.4801],[-6.2582,37.7606,236.9974],[-6.266,37.7614,267.5326],[-6.2711,37.7588,288.7408],[-6.2784,37.7584,309.6038],[-6.3031,37.7617,440.0573],[-6.3109,37.7649,468.0313],[-6.3198,37.764,469.744],[-6.3291,37.7598,429.1957],[-6.3487,37.7575,438.3971],[-6.3529,37.7553,465.0207],[-6.3601,37.7549,418.6835],[-6.3899,37.7477,490.3055],[-6.4234,37.7341,453.9275],[-6.4307,37.7275,459.4408],[-6.4501,37.7189,351.2621],[-6.4542,37.7214,326.8224],[-6.4606,37.721,325.1147],[-6.4736,37.7253,322.4459],[-6.4811,37.7223,297.6931],[-6.4805,37.7208,307.2727],[-6.4829,37.7208,293.5273],[-6.48,37.7154,307.134],[-6.4758,37.7147,281.928],[-6.4733,37.7091,282.4351],[-6.4745,37.7088,282.4351],[-6.4764,37.712,274.6127],[-6.4793,37.711,273.9972],[-6.4794,37.7053,271.3068],[-6.4847,37.7012,256.5836],[-6.4848,37.6977,252.5839],[-6.4888,37.698,253.1456],[-6.4911,37.6963,256.1769],[-6.4907,37.6949,257.4429],[-6.4939,37.6913,280.1888],[-6.4929,37.689,253.0351],[-6.5013,37.6887,246.3102],[-6.498,37.6823,242.0],[-6.5008,37.6772,242.0],[-6.5004,37.6704,242.0],[-6.5022,37.6668,242.0],[-6.5036,37.666,242.0],[-6.5076,37.6683,242.0],[-6.5117,37.6647,220.0288],[-6.5158,37.6654,229.5338],[-6.5192,37.6622,213.9593],[-6.5215,37.6644,213.749],[-6.5254,37.6641,209.0316],[-6.5299,37.6576,204.0587],[-6.5332,37.6569,203.3185],[-6.536,37.651,217.422],[-6.5335,37.6469,195.9936],[-6.5365,37.6405,191.3246],[-6.5295,37.6368,162.5636],[-6.5304,37.6342,158.9843],[-6.5334,37.633,152.236],[-6.5334,37.6298,186.3908],[-6.5384,37.6267,156.7868],[-6.5364,37.6208,160.4771],[-6.5351,37.6215,160.4771],[-6.5321,37.6201,174.4279],[-6.533,37.6191,164.4398],[-6.5301,37.619,176.2849],[-6.5279,37.6158,174.4032],[-6.5263,37.6182,183.5799],[-6.5219,37.6196,191.65],[-6.5225,37.6219,187.5015],[-6.5204,37.6208,176.6886],[-6.5135,37.6252,189.9459],[-6.5109,37.6226,189.2311],[-6.5085,37.6247,201.6212],[-6.5078,37.6212,194.9534],[-6.5039,37.6244,224.7442],[-6.5005,37.6216,208.6757],[-6.4985,37.6227,217.6149],[-6.4978,37.621,210.0664],[-6.5009,37.62,222.7748],[-6.4995,37.6183,225.1527],[-6.4973,37.6195,231.7565],[-6.4967,37.6172,214.7878],[-6.4899,37.621,229.9256],[-6.489,37.6179,232.2227],[-6.4847,37.6161,246.8765],[-6.4841,37.6203,244.582],[-6.4813,37.6211,253.3039],[-6.4808,37.6197,263.1992],[-6.4764,37.6194,253.7235],[-6.4734,37.6225,269.3185],[-6.4718,37.6202,280.9167],[-6.4698,37.6213,267.2085],[-6.4654,37.6201,275.3674],[-6.4648,37.6215,274.6596],[-6.4612,37.6211,287.2147],[-6.4559,37.623,314.8751],[-6.4545,37.6208,297.7886],[-6.4492,37.6205,304.3331],[-6.4431,37.6234,320.0114],[-6.4385,37.6214,333.2152],[-6.4352,37.6226,343.7729],[-6.4311,37.6203,416.8662],[-6.4239,37.6219,378.0542],[-6.4169,37.6192,331.8569],[-6.4131,37.6195,333.1528],[-6.4095,37.6146,306.4179],[-6.3987,37.6126,290.6946],[-6.3971,37.6105,280.441],[-6.395,37.611,271.5511],[-6.3959,37.6089,272.546],[-6.3941,37.6041,266.9092],[-6.3977,37.6013,248.1843],[-6.3971,37.6002,261.354],[-6.4003,37.601,247.9197],[-6.402,37.5989,246.0547],[-6.3991,37.5983,242.521],[-6.3981,37.5955,253.7815],[-6.4,37.5946,229.9835],[-6.3981,37.594,236.1956],[-6.3994,37.5914,229.4011],[-6.3931,37.5881,235.3761],[-6.3935,37.5854,258.1959],[-6.3952,37.5854,219.9666],[-6.395,37.583,219.4462],[-6.4001,37.584,231.3565],[-6.4023,37.58,209.0814],[-6.3923,37.5541,346.1773],[-6.3889,37.5515,336.3739],[-6.384,37.5509,319.4859],[-6.3766,37.5471,286.4465],[-6.3663,37.5358,241.374],[-6.3696,37.5286,224.8485],[-6.3668,37.5179,180.2973],[-6.3628,37.5147,155.823],[-6.3579,37.5047,135.9201],[-6.3603,37.5044,147.1661],[-6.358,37.5001,125.6811],[-6.3555,37.5,123.5657],[-6.3561,37.4965,113.9104],[-6.3459,37.4929,100.6059],[-6.34,37.4872,90.6867],[-6.3323,37.4697,68.0448],[-6.3324,37.4645,64.3995],[-6.3248,37.4575,60.084],[-6.3249,37.4554,59.4267],[-6.322,37.4542,57.8068],[-6.2908,37.4629,57.0118],[-6.2722,37.4653,60.2171],[-6.2584,37.4702,87.6043],[-6.2588,37.4716,83.9751],[-6.2411,37.468,69.4679],[-6.2381,37.4737,67.975],[-6.2286,37.4832,51.6406],[-6.2282,37.4927,57.6541],[-6.2246,37.5034,48.8597],[-6.2269,37.5092,50.0668],[-6.2234,37.5096,51.9798],[-6.2216,37.5192,70.3563],[-6.2238,37.5283,88.5175],[-6.2294,37.5362,84.5839],[-6.229,37.5379,78.8638],[-6.233,37.5418,88.6282],[-6.2321,37.5439,93.7219],[-6.2337,37.547,109.6183],[-6.2378,37.5467,99.9206],[-6.2411,37.5509,104.6271],[-6.2428,37.5509,96.562],[-6.2454,37.5564,132.6077],[-6.2486,37.5552,134.5934],[-6.2503,37.5579,124.015],[-6.2539,37.5588,123.6261],[-6.2554,37.563,116.396],[-6.26,37.5609,120.3586],[-6.2605,37.566,138.9266],[-6.2627,37.5665,121.5891],[-6.2636,37.576,152.4206],[-6.2619,37.5772,147.5146],[-6.2649,37.5794,158.0697],[-6.2621,37.581,147.7506],[-6.2631,37.5852,149.0428],[-6.2667,37.5882,150.2494],[-6.2665,37.5896,156.453],[-6.2652,37.5886,150.2494],[-6.2638,37.591,163.1886],[-6.2619,37.5909,170.2745],[-6.2616,37.5961,166.6417],[-6.2557,37.5998,171.7675],[-6.2566,37.6019,193.7368],[-6.2544,37.6118,224.0177],[-6.2571,37.6281,226.3477],[-6.2465,37.6217,215.4115],[-6.2411,37.611,225.1671],[-6.235,37.6062,237.5199],[-6.2319,37.6012,242.447],[-6.232,37.5932,249.1953],[-6.2283,37.5872,227.1541],[-6.2297,37.5811,213.9785],[-6.2285,37.5731,215.4842],[-6.2319,37.5692,195.6871],[-6.2321,37.5628,197.5422],[-6.2347,37.5594,199.8391],[-6.2332,37.5562,182.6104],[-6.2282,37.5529,178.1382],[-6.2214,37.5404,157.5195],[-6.2171,37.532,124.4159],[-6.2169,37.5251,117.685],[-6.2146,37.5254,114.3367],[-6.2075,37.5187,98.5365],[-6.1977,37.4969,68.3525],[-6.1954,37.5006,63.9316],[-6.1739,37.5005,68.1145],[-6.1751,37.4962,60.2522],[-6.1531,37.4837,71.2701],[-6.1132,37.4774,39.3042],[-6.1125,37.474,43.2924],[-6.108,37.4771,34.983],[-6.1099,37.484,37.5038],[-6.1055,37.4905,25.597],[-6.098,37.4973,24.5277],[-6.0862,37.5032,10.7165],[-6.0818,37.5007,17.2115],[-6.0814,37.4973,16.1601],[-6.0758,37.4925,17.3709],[-6.0709,37.4912,15.6136],[-6.0588,37.499,12.9365],[-6.0407,37.4901,9.1901],[-6.0359,37.4898,8.5463],[-6.0298,37.4926,5.8202],[-6.0317,37.4959,5.2317],[-6.0246,37.499,9.2839],[-6.0265,37.5041,9.9826],[-6.0258,37.5089,14.7929],[-6.0231,37.51,14.2981],[-6.0217,37.5227,19.3863],[-6.0161,37.5242,20.6742],[-6.0179,37.5463,31.1737],[-6.0103,37.5578,64.4535],[-6.0123,37.562,72.4897],[-6.0075,37.5713,71.1351]]]]}
,"properties": {"GID_3": "ESP.1.8.1_1","GID_0": "ESP","country": "Spain","GID_1": "ESP.1_1","province": "Andalucía","NL_NAME_1": "NA","GID_2": "ESP.1.8_1","county": "Sevilla","NL_NAME_2": "NA","city": "n.a.(226)","VARNAME_3": "NA","NL_NAME_3": "NA","TYPE_3": "Comarca","ENGTYPE_3": "Comarca","CC_3": "NA","HASC_3": "NA","name": "n.a.(226).city","area_km2": 3742.901,"hist_schema_id": "Elevation0-9000","hist_area_km2": {"-75": 0.235,"-50": 0.05,"-25": 0.269,"0": 8.274,"25": 31.091,"50": 63.171,"75": 90.49,"100": 69.829,"125": 67.835,"150": 84.812,"175": 92.431,"200": 104.527,"225": 125.149,"250": 146.932,"275": 199.162,"300": 229.131,"325": 230.38,"350": 220.089,"375": 211.234,"400": 186.63,"425": 182.851,"450": 191.042,"475": 156.542,"500": 137.738,"525": 126.452,"550": 124.007,"575": 112.654,"600": 120.917,"625": 120.311,"650": 107.819,"675": 77.825,"700": 49.366,"725": 29.415,"750": 18.004,"775": 11.005,"800": 6.231,"825": 4.209,"850": 2.538,"875": 1.335,"900": 0.651,"925": 0.2,"950": 0.067}}}