{"type":"Feature","properties":{"GID_3":"ESP.3.1.2_1","GID_0":"ESP","country":"Spain","GID_1":"ESP.3_1","province":"Cantabria","NL_NAME_1":"NA","GID_2":"ESP.3.1_1","county":"Cantabria","NL_NAME_2":"NA","city":"Besaya","VARNAME_3":"NA","NL_NAME_3":"NA","TYPE_3":"Comarca","ENGTYPE_3":"Comarca","CC_3":"NA","HASC_3":"NA","name":"Besaya.city"},
"geometry":{"type": "MultiPolygon","coordinates": [[[[-4.1315,43.1157,1173.0498],[-4.1343,43.1122,1169.2737],[-4.1338,43.1031,1041.3698],[-4.0902,43.0975,598.9692],[-4.0665,43.1018,698.84],[-4.0549,43.0984,728.2889],[-4.0481,43.0919,1022.9741],[-4.0406,43.0895,1061.4518],[-4.0157,43.093,1153.0],[-4.0003,43.1022,1122.7937],[-3.9793,43.0988,1098.0127],[-3.9736,43.0935,1144.3215],[-3.9605,43.09,1198.5781],[-3.9533,43.0934,1190.3124],[-3.9527,43.0972,1133.272],[-3.9468,43.1029,1136.4052],[-3.9444,43.1121,1085.2882],[-3.9454,43.1181,1069.5388],[-3.9488,43.1238,942.2964],[-3.9484,43.1295,853.5056],[-3.9532,43.147,1018.92],[-3.9505,43.1519,1026.4968],[-3.9536,43.1546,1027.2848],[-3.9537,43.1661,1040.0396],[-3.9661,43.1711,915.9149],[-3.9696,43.1756,969.7456],[-3.9734,43.1766,944.7083],[-3.9766,43.1797,925.9745],[-3.9793,43.1957,736.2858],[-3.9776,43.1967,746.0293],[-3.9802,43.2059,675.1846],[-3.9898,43.2235,597.8951],[-4.0019,43.2328,648.6527],[-3.996,43.2436,647.4032],[-3.9992,43.2466,705.0566],[-3.998,43.2495,709.5478],[-4.0035,43.2558,680.2629],[-3.9994,43.2693,545.6795],[-3.9999,43.2768,455.9241],[-4.0039,43.2853,334.4072],[-4.0019,43.2895,466.7557],[-4.0134,43.3039,550.9279],[-4.0057,43.3116,258.0068],[-4.0023,43.3206,118.85],[-4.0056,43.331,214.3961],[-4.0135,43.3326,246.2033],[-4.0078,43.3554,160.0778],[-3.9928,43.3697,134.5233],[-3.992,43.3786,65.4878],[-4.0058,43.388,68.3749],[-4.0132,43.3898,29.3973],[-4.0155,43.3945,12.3907],[-4.0058,43.3985,12.7347],[-4.0067,43.4013,16.2711],[-4.0098,43.4026,10.6069],[-4.0139,43.4023,7.5783],[-4.0155,43.4007,8.9872],[-4.0183,43.4012,0.0466],[-4.0148,43.4059,5.0788],[-4.0304,43.4117,0.0],[-4.0338,43.4145,0.0],[-4.0251,43.4235,0.0],[-4.0339,43.4303,0.0],[-4.0351,43.4346,0.0],[-4.0443,43.436,0.0],[-4.0413,43.4421,0.0],[-4.0454,43.4457,0.0],[-4.0471,43.4457,0.0],[-4.0496,43.4424,0.0],[-4.0468,43.4399,0.0],[-4.0471,43.4379,0.0],[-4.0535,43.4368,0.0],[-4.0546,43.4343,0.0],[-4.0768,43.431,1.9466],[-4.081,43.4335,18.9758],[-4.079,43.4379,0.0],[-4.0818,43.439,0.0],[-4.094,43.4326,0.0],[-4.0954,43.4287,0.0],[-4.094,43.4279,0.0],[-4.0982,43.4268,0.0],[-4.0923,43.4212,35.4339],[-4.0894,43.4138,96.1306],[-4.0955,43.4071,191.4565],[-4.0887,43.4058,195.724],[-4.078,43.3965,92.3104],[-4.063,43.3948,18.5479],[-4.0463,43.3828,9.4608],[-4.0441,43.3837,5.0588],[-4.0502,43.3725,4.2152],[-4.0502,43.3667,5.151],[-4.0478,43.3624,7.315],[-4.0518,43.363,13.1091],[-4.0583,43.3692,74.4218],[-4.067,43.3685,123.4475],[-4.07,43.3645,137.4817],[-4.0751,43.3619,93.604],[-4.0818,43.3469,43.0],[-4.08,43.3429,63.1581],[-4.0885,43.3334,164.8715],[-4.0935,43.3303,164.6431],[-4.1076,43.3278,293.0318],[-4.1134,43.3244,289.9366],[-4.1137,43.3208,310.414],[-4.1176,43.3183,279.6148],[-4.1209,43.3103,292.1979],[-4.1287,43.3029,340.6187],[-4.1295,43.2987,498.575],[-4.1265,43.2933,618.9152],[-4.1388,43.2906,728.7264],[-4.1478,43.2789,473.8249],[-4.1427,43.2644,549.3002],[-4.1474,43.2545,806.0693],[-4.1531,43.2543,853.5959],[-4.1552,43.251,845.246],[-4.1591,43.25,793.5246],[-4.1798,43.2465,878.2352],[-4.177,43.2284,714.8376],[-4.1806,43.2242,714.6116],[-4.1795,43.2168,655.5934],[-4.1853,43.2049,744.7831],[-4.1822,43.202,699.3955],[-4.1869,43.1898,914.5075],[-4.1826,43.1851,902.8788],[-4.1824,43.1796,912.0579],[-4.1778,43.1753,938.822],[-4.1755,43.1702,1013.1761],[-4.1615,43.1617,1019.5825],[-4.1634,43.1581,1006.2998],[-4.1619,43.1522,973.5253],[-4.1675,43.1426,1059.4825],[-4.1618,43.1402,1020.8792],[-4.1582,43.1345,998.6228],[-4.1531,43.1317,1027.6332],[-4.1252,43.1222,1208.5526],[-4.1315,43.1157,1173.0498]]]]}}