{"type": "Feature","bbox": [-6.3055,39.05,-5.533,39.7742],"geometry": {"type": "MultiPolygon","coordinates": [[[[-5.9271,39.0924,270.5996],[-5.9375,39.0838,265.8087],[-5.9246,39.0832,270.0527],[-5.872,39.1043,271.0946],[-5.8542,39.1064,267.6501],[-5.8476,39.1096,266.2897],[-5.8339,39.1102,277.997],[-5.8163,39.1198,266.4428],[-5.8188,39.1226,266.4449],[-5.8192,39.1295,267.9245],[-5.8103,39.1446,273.7264],[-5.8093,39.1513,273.1524],[-5.8249,39.157,286.2154],[-5.8226,39.176,305.5066],[-5.8184,39.1821,324.9804],[-5.8179,39.1911,335.8144],[-5.8157,39.193,322.1819],[-5.834,39.2077,343.9258],[-5.8415,39.2107,367.5827],[-5.8359,39.2388,404.1758],[-5.8386,39.239,406.4898],[-5.8477,39.2576,366.4399],[-5.8426,39.2628,369.1703],[-5.8424,39.2668,368.4999],[-5.8388,39.27,373.5525],[-5.8349,39.2787,374.9683],[-5.8359,39.2823,376.6999],[-5.8344,39.2877,377.6625],[-5.8186,39.2998,383.0528],[-5.8131,39.3086,391.0154],[-5.8124,39.3191,391.486],[-5.8076,39.3231,398.6941],[-5.8007,39.3247,396.1595],[-5.7893,39.309,370.9464],[-5.7904,39.3044,357.5695],[-5.7832,39.3011,359.1532],[-5.7856,39.2969,348.8688],[-5.7834,39.2936,341.0725],[-5.781,39.2928,338.8505],[-5.7802,39.2847,331.0187],[-5.7778,39.283,325.1986],[-5.7718,39.2951,349.8922],[-5.7734,39.2982,350.1386],[-5.7646,39.3056,374.8743],[-5.7561,39.3055,382.1125],[-5.7422,39.3101,400.6066],[-5.7363,39.3134,403.4557],[-5.7327,39.3189,417.6332],[-5.7216,39.3231,442.438],[-5.722,39.3242,444.5099],[-5.7088,39.3255,662.2325],[-5.7024,39.3199,708.6558],[-5.698,39.324,786.3793],[-5.6976,39.3293,818.046],[-5.6918,39.3291,782.3923],[-5.6849,39.3322,788.4814],[-5.6831,39.3353,827.1414],[-5.6714,39.3434,917.0264],[-5.6707,39.3466,933.5756],[-5.6701,39.3443,915.9755],[-5.6647,39.3433,818.0648],[-5.6511,39.3449,864.2672],[-5.6411,39.3569,848.0217],[-5.623,39.3552,901.3574],[-5.5973,39.3693,966.4924],[-5.5927,39.3745,994.8979],[-5.5736,39.3837,1092.7554],[-5.5728,39.3933,1054.3374],[-5.5643,39.3994,872.0022],[-5.5532,39.4213,744.1337],[-5.5527,39.4268,634.3815],[-5.5472,39.4312,755.8157],[-5.5401,39.4338,889.0456],[-5.533,39.4476,856.9891],[-5.5438,39.4514,665.6365],[-5.5526,39.445,634.4713],[-5.5532,39.447,622.7678],[-5.5556,39.4475,611.7708],[-5.5559,39.4494,596.558],[-5.5658,39.4569,553.8174],[-5.5661,39.4594,533.9813],[-5.5634,39.4615,531.5123],[-5.5649,39.4626,526.6982],[-5.5609,39.4641,529.2914],[-5.5622,39.4693,525.9874],[-5.5677,39.4707,501.0776],[-5.5613,39.4735,504.757],[-5.5534,39.4804,567.5021],[-5.5531,39.4868,539.4543],[-5.5488,39.4908,588.5945],[-5.5364,39.4932,684.0767],[-5.5355,39.4948,732.5703],[-5.5483,39.5053,590.8828],[-5.5552,39.5079,601.3582],[-5.555,39.5094,593.7609],[-5.55,39.5107,557.3152],[-5.5563,39.5134,525.184],[-5.5568,39.5157,531.175],[-5.5713,39.5196,471.7452],[-5.5758,39.519,450.5544],[-5.5757,39.5213,442.3178],[-5.573,39.5234,448.8815],[-5.5725,39.529,445.1479],[-5.5665,39.5376,433.3565],[-5.5685,39.5455,461.2463],[-5.5749,39.5484,438.0023],[-5.5783,39.555,423.451],[-5.5814,39.5573,460.379],[-5.5857,39.5581,427.5361],[-5.5925,39.574,427.6645],[-5.6,39.5747,421.4174],[-5.6021,39.5781,421.0313],[-5.6082,39.5759,412.7944],[-5.6155,39.5774,414.2354],[-5.6217,39.5816,409.7056],[-5.6267,39.5822,404.9839],[-5.6295,39.5862,403.1598],[-5.6361,39.5843,399.9371],[-5.6429,39.5889,422.7917],[-5.6476,39.5875,397.6424],[-5.6506,39.5933,393.871],[-5.6594,39.5903,435.9034],[-5.6791,39.597,396.0997],[-5.684,39.6029,387.2583],[-5.6874,39.6028,395.0197],[-5.6907,39.6079,385.1368],[-5.6986,39.6072,380.7969],[-5.7045,39.6108,378.215],[-5.7078,39.6167,381.0874],[-5.7259,39.6224,397.892],[-5.729,39.6214,379.0323],[-5.7379,39.6272,399.9914],[-5.7497,39.6309,367.9682],[-5.7519,39.6338,375.0547],[-5.7406,39.646,500.4867],[-5.7283,39.6661,582.7354],[-5.7258,39.6843,553.8796],[-5.7274,39.6921,583.2228],[-5.7328,39.7062,635.5013],[-5.7383,39.7134,662.9194],[-5.7458,39.7137,760.8176],[-5.7731,39.7272,540.2368],[-5.7788,39.7311,528.9788],[-5.785,39.7385,448.7505],[-5.7912,39.7415,395.233],[-5.7938,39.747,363.3103],[-5.7999,39.7494,325.0531],[-5.8052,39.7556,299.5305],[-5.8178,39.7617,241.61],[-5.8235,39.762,239.5],[-5.828,39.7578,379.9753],[-5.8381,39.7584,535.6434],[-5.8543,39.7677,524.9293],[-5.8701,39.7742,520.7953],[-5.8747,39.754,417.9967],[-5.8793,39.7436,452.6917],[-5.8801,39.736,471.7859],[-5.8839,39.7313,452.8191],[-5.8883,39.7135,379.8924],[-5.9186,39.7224,359.8367],[-5.9217,39.7261,357.8379],[-5.9255,39.7222,371.0043],[-5.9246,39.7172,370.9104],[-5.9312,39.7136,384.1538],[-5.9522,39.7103,418.1156],[-5.9579,39.7053,463.16],[-5.9506,39.6999,469.0683],[-5.9461,39.6902,449.2298],[-5.9394,39.6843,453.5941],[-5.9377,39.6806,435.2417],[-5.9394,39.6723,374.8162],[-5.9424,39.6707,367.0339],[-5.9428,39.6686,351.8862],[-5.9406,39.6643,324.9371],[-5.9479,39.6648,330.6712],[-5.9583,39.6626,324.0013],[-5.9645,39.6662,323.2683],[-5.9764,39.664,320.4564],[-5.9823,39.6612,308.1455],[-6.0034,39.664,308.9688],[-6.0294,39.6446,288.1654],[-6.0478,39.6436,292.769],[-6.056,39.6349,282.2339],[-6.0639,39.6345,280.2804],[-6.0715,39.6279,267.248],[-6.0775,39.6266,282.6696],[-6.0842,39.6176,270.7907],[-6.0966,39.613,276.5291],[-6.1049,39.6074,258.2567],[-6.1033,39.6038,253.3725],[-6.1178,39.5991,259.436],[-6.1272,39.6036,256.1363],[-6.1304,39.6005,255.7525],[-6.1346,39.5995,256.5272],[-6.1461,39.6003,258.0763],[-6.1509,39.597,279.8706],[-6.1536,39.5971,241.1203],[-6.1538,39.6027,249.5192],[-6.1618,39.6042,240.0989],[-6.1626,39.6107,241.6526],[-6.1644,39.6115,249.0009],[-6.1673,39.6101,275.2491],[-6.1742,39.6112,249.5894],[-6.1807,39.609,236.2356],[-6.2047,39.6116,231.4098],[-6.2086,39.6096,239.0314],[-6.2217,39.6124,247.2868],[-6.232,39.6116,263.4974],[-6.2405,39.615,230.1753],[-6.2506,39.61,258.6377],[-6.255,39.6127,235.1532],[-6.2609,39.61,246.4078],[-6.2667,39.6107,244.3114],[-6.2722,39.608,222.8929],[-6.2817,39.6088,263.9596],[-6.2854,39.6077,219.6043],[-6.2942,39.6011,238.8181],[-6.2974,39.5962,215.7154],[-6.3055,39.5912,200.9026],[-6.2966,39.5929,213.2403],[-6.2939,39.5957,246.7446],[-6.2867,39.5954,217.8653],[-6.2818,39.5908,233.189],[-6.2778,39.5898,218.7597],[-6.2736,39.584,228.3353],[-6.2674,39.5877,227.3799],[-6.2617,39.5839,212.9576],[-6.2528,39.5834,225.6298],[-6.2515,39.5813,221.499],[-6.2483,39.5834,219.6834],[-6.2412,39.5828,230.5452],[-6.2439,39.5784,228.009],[-6.2423,39.5758,223.408],[-6.2338,39.5777,238.7626],[-6.2234,39.5737,266.1209],[-6.215,39.5726,239.1252],[-6.2065,39.5677,232.7115],[-6.2023,39.569,234.9204],[-6.2009,39.571,237.341],[-6.1965,39.5656,233.4071],[-6.1908,39.5675,263.3298],[-6.1886,39.5662,251.3957],[-6.1894,39.5608,241.1517],[-6.1833,39.5584,240.3803],[-6.1772,39.5534,242.102],[-6.1769,39.551,261.6367],[-6.1712,39.5523,254.1427],[-6.1689,39.5469,284.7132],[-6.1668,39.5462,247.2022],[-6.1609,39.5484,246.2514],[-6.1561,39.5462,244.9151],[-6.1581,39.5428,282.3091],[-6.1539,39.5386,271.574],[-6.1445,39.5406,262.6643],[-6.1438,39.5376,275.5149],[-6.1368,39.5392,278.7153],[-6.1366,39.5377,264.533],[-6.1397,39.5363,257.8831],[-6.1355,39.5328,254.5234],[-6.1401,39.5307,257.3933],[-6.1384,39.5277,264.0502],[-6.1457,39.5254,298.2288],[-6.1427,39.5216,271.6756],[-6.1382,39.5245,264.1592],[-6.1365,39.523,272.8252],[-6.1368,39.5196,267.9286],[-6.1341,39.5198,258.3885],[-6.1327,39.5181,293.448],[-6.1339,39.5141,286.0717],[-6.1314,39.5111,267.4206],[-6.1274,39.5116,273.6848],[-6.1275,39.5083,297.4466],[-6.1164,39.5055,290.8282],[-6.1157,39.4964,291.5298],[-6.1095,39.4925,280.3849],[-6.1093,39.484,277.1501],[-6.1019,39.4853,287.4581],[-6.1013,39.4837,288.1898],[-6.104,39.4813,290.5659],[-6.1018,39.4797,286.7418],[-6.0975,39.4821,312.0225],[-6.0966,39.479,301.9068],[-6.0983,39.476,320.5261],[-6.0885,39.4687,293.1876],[-6.098,39.4628,288.5355],[-6.0915,39.4584,307.5115],[-6.0942,39.4559,302.2081],[-6.093,39.4543,299.6115],[-6.0903,39.4562,305.4634],[-6.0884,39.4539,313.9588],[-6.0839,39.4554,304.0866],[-6.0813,39.454,314.8419],[-6.084,39.4492,309.2048],[-6.0889,39.4492,315.9172],[-6.0895,39.4482,307.0926],[-6.0869,39.4474,317.6803],[-6.0914,39.4416,313.8723],[-6.0916,39.4373,315.8246],[-6.0898,39.4351,320.1193],[-6.0834,39.434,343.4359],[-6.0871,39.4321,321.672],[-6.0838,39.4282,323.2351],[-6.0895,39.4254,324.0637],[-6.0886,39.4228,332.6359],[-6.0863,39.4209,325.6523],[-6.0836,39.4217,332.2544],[-6.0808,39.4257,331.2481],[-6.0814,39.4234,326.9382],[-6.0786,39.4216,340.3745],[-6.0795,39.4198,341.8683],[-6.0831,39.4188,333.7971],[-6.0807,39.4152,334.17],[-6.0812,39.4104,344.961],[-6.084,39.4117,334.3152],[-6.0876,39.4077,337.6005],[-6.0844,39.4054,337.3954],[-6.0868,39.4037,340.6415],[-6.0894,39.405,338.9189],[-6.0915,39.4025,339.1449],[-6.0881,39.4023,342.9389],[-6.0841,39.3988,342.337],[-6.0852,39.3978,345.4686],[-6.0903,39.3993,349.6764],[-6.0909,39.3963,346.6776],[-6.0936,39.3968,345.1992],[-6.0948,39.3949,346.5767],[-6.0915,39.3944,352.7068],[-6.0934,39.3918,350.9438],[-6.091,39.3881,351.343],[-6.0852,39.3868,364.0108],[-6.0865,39.3845,354.5852],[-6.0904,39.3851,355.6731],[-6.0918,39.3835,353.654],[-6.088,39.3823,358.5626],[-6.0842,39.3844,363.7603],[-6.0833,39.383,364.9569],[-6.0862,39.3819,364.6395],[-6.0799,39.3758,362.0042],[-6.0854,39.3741,368.5291],[-6.0838,39.3719,372.8686],[-6.0848,39.3671,370.1074],[-6.0808,39.3631,400.7809],[-6.0742,39.3603,417.8083],[-6.0717,39.353,432.4998],[-6.067,39.3527,433.408],[-6.0591,39.3487,464.8119],[-6.046,39.3393,438.5029],[-6.0603,39.3293,421.7571],[-6.0609,39.3248,437.4449],[-6.0662,39.321,429.6381],[-6.0652,39.3191,427.3932],[-6.0692,39.3159,414.0],[-6.0647,39.3085,412.9577],[-6.0752,39.3008,416.9896],[-6.0728,39.2942,434.2232],[-6.0802,39.2902,442.56],[-6.0806,39.2885,446.9465],[-6.0848,39.2888,446.9081],[-6.0889,39.2834,451.0833],[-6.091,39.2844,451.3659],[-6.0948,39.282,461.0864],[-6.0939,39.2801,457.9834],[-6.0896,39.28,459.3787],[-6.0728,39.2574,458.7073],[-6.0691,39.2549,460.3183],[-6.0657,39.2605,443.1426],[-6.0587,39.2672,440.7847],[-6.0514,39.2724,429.9453],[-6.0415,39.2764,439.2159],[-6.0305,39.2786,446.1568],[-6.0077,39.2745,611.2829],[-6.0109,39.2681,565.6713],[-6.0185,39.2637,472.8323],[-6.0232,39.2581,464.3274],[-6.0171,39.2428,508.5],[-6.018,39.2375,511.7298],[-5.997,39.2193,385.7791],[-5.9903,39.2007,332.0818],[-6.0118,39.2021,562.9196],[-6.0254,39.2058,483.9391],[-6.0393,39.2039,823.7345],[-6.0392,39.2024,796.079],[-6.0458,39.1977,467.5974],[-6.0607,39.1934,376.877],[-6.0736,39.1868,368.7112],[-6.0788,39.1871,437.5143],[-6.0891,39.1752,364.8055],[-6.089,39.1694,376.9577],[-6.0924,39.1652,362.8538],[-6.0903,39.1461,329.0538],[-6.095,39.12,310.5536],[-6.1085,39.1102,524.374],[-6.1315,39.1068,442.6531],[-6.1334,39.1078,429.6829],[-6.132,39.0987,397.6887],[-6.1271,39.0951,393.8911],[-6.1275,39.0858,390.703],[-6.1335,39.0771,395.0728],[-6.1285,39.0659,413.5995],[-6.1251,39.05,332.4171],[-6.1126,39.0611,351.9544],[-6.1061,39.0646,395.1154],[-6.0895,39.0846,354.1758],[-6.0785,39.0937,341.6959],[-6.0622,39.1021,297.6282],[-6.0384,39.1177,271.1563],[-6.0312,39.1199,269.1086],[-6.0185,39.1291,277.9789],[-6.0147,39.1293,262.4572],[-6.0161,39.1161,262.2557],[-6.0141,39.1067,258.9413],[-6.0163,39.1019,257.0852],[-6.015,39.0934,255.6431],[-6.0125,39.0891,255.0937],[-6.0119,39.0712,253.315],[-6.0102,39.0673,249.4421],[-6.0115,39.0633,248.516],[-6.0076,39.0597,249.7762],[-6.0105,39.0552,247.6993],[-6.0096,39.0526,249.5689],[-5.9896,39.0682,253.5203],[-5.9867,39.0696,255.3341],[-5.982,39.0687,258.2357],[-5.968,39.0827,259.4331],[-5.9665,39.0876,262.9543],[-5.9615,39.0902,264.12],[-5.9608,39.0938,263.873],[-5.9542,39.0975,262.4698],[-5.9497,39.103,263.8648],[-5.9471,39.1025,264.9086],[-5.9418,39.1087,265.7525],[-5.9378,39.1089,266.8897],[-5.9265,39.1046,276.7914],[-5.9245,39.098,274.3041],[-5.9271,39.0924,270.5996]]]]}
,"properties": {"GID_3": "ESP.11.2.10_1","GID_0": "ESP","country": "Spain","GID_1": "ESP.11_1","province": "Extremadura","NL_NAME_1": "NA","GID_2": "ESP.11.2_1","county": "Cáceres","NL_NAME_2": "NA","city": "n.a.(78)","VARNAME_3": "NA","NL_NAME_3": "NA","TYPE_3": "Comarca","ENGTYPE_3": "Comarca","CC_3": "NA","HASC_3": "NA","name": "n.a.(78).city","area_km2": 2315.63,"hist_schema_id": "Elevation0-9000","hist_area_km2": {"200": 0.457,"225": 2.01,"250": 14.549,"275": 120.627,"300": 83.163,"325": 127.003,"350": 158.871,"375": 192.945,"400": 204.162,"425": 208.851,"450": 211.773,"475": 229.941,"500": 203.448,"525": 132.038,"550": 80.592,"575": 57.215,"600": 42.526,"625": 39.77,"650": 33.895,"675": 28.753,"700": 27.118,"725": 23.861,"750": 22.355,"775": 20.228,"800": 14.661,"825": 10.469,"850": 8.159,"875": 5.554,"900": 3.523,"925": 2.163,"950": 1.262,"975": 0.803,"1000": 0.754,"1025": 0.623,"1050": 0.639,"1075": 0.41,"1100": 0.344,"1125": 0.115}}}