{"type":"Feature","properties":{"GID_1":"ESP.5_1","GID_0":"ESP","country":"Spain","province":"CastillayLeón","VARNAME_1":"CastileandLeon|CastelaeLeão|","NL_NAME_1":"NA","TYPE_1":"ComunidadAutónoma","ENGTYPE_1":"AutonomousCommunity","CC_1":"07","HASC_1":"ES.CL","ISO_1":"NA","name":"Castillay_León.province"},
"geometry":{"type": "MultiPolygon","coordinates": [[[[-5.621,40.2414,1994.5005],[-5.6163,40.2363,2127.8047],[-5.6143,40.2359,2119.9387],[-5.6136,40.2333,2109.3628],[-5.6188,40.2239,2271.8462],[-5.6099,40.2155,2283.7666],[-5.5983,40.2168,2355.6489],[-5.5909,40.2153,2098.9668],[-5.5681,40.2064,2041.3506],[-5.5635,40.2026,1995.2322],[-5.5517,40.2006,2017.4741],[-5.548,40.1972,2021.1323],[-5.5364,40.1966,2021.1692],[-5.5309,40.1947,2070.4082],[-5.5186,40.1969,2196.1167],[-5.5096,40.2019,2126.8755],[-5.4999,40.2008,2223.4155],[-5.499,40.1989,2238.0684],[-5.488,40.2047,2095.8787],[-5.4708,40.2079,2112.3108],[-5.468,40.2242,2215.1433],[-5.4522,40.2272,2240.7749],[-5.4397,40.2336,2209.7896],[-5.4297,40.2523,2173.9487],[-5.4125,40.2552,2226.6138],[-5.3949,40.2505,2220.1216],[-5.3786,40.2579,1994.5103],[-5.3641,40.257,2116.3213],[-5.3577,40.263,2133.5254],[-5.3488,40.2652,2139.842],[-5.3431,40.2641,2115.8425],[-5.3583,40.232,973.8221],[-5.3582,40.2283,932.551],[-5.3626,40.223,838.9404],[-5.3696,40.2183,774.3176],[-5.3694,40.211,719.7184],[-5.364,40.2033,627.4705],[-5.3681,40.1991,582.5571],[-5.3664,40.196,554.4363],[-5.3664,40.1835,489.8943],[-5.3646,40.1819,471.2744],[-5.3647,40.1745,444.7339],[-5.3679,40.1641,416.58],[-5.3669,40.1604,394.0762],[-5.3601,40.1569,384.9306],[-5.3601,40.1543,384.855],[-5.3571,40.1528,381.3691],[-5.3567,40.1484,362.0838],[-5.3458,40.1335,322.4163],[-5.3458,40.1297,315.4946],[-5.3419,40.126,308.276],[-5.3369,40.1242,301.2853],[-5.3359,40.1158,290.695],[-5.3157,40.107,307.5],[-5.3015,40.1074,307.5],[-5.2967,40.1101,307.5],[-5.2706,40.1097,313.6854],[-5.2671,40.1111,307.5],[-5.2606,40.1079,307.5],[-5.2492,40.1087,307.5],[-5.2128,40.1069,313.7055],[-5.2103,40.1053,311.3091],[-5.2116,40.0927,325.298],[-5.2076,40.0896,317.3439],[-5.2066,40.0856,325.2264],[-5.202,40.0829,321.9391],[-5.1922,40.0835,325.741],[-5.185,40.088,324.2478],[-5.1715,40.0848,333.8376],[-5.1539,40.0929,330.8449],[-5.1491,40.0908,337.1038],[-5.142,40.0915,348.2863],[-5.1401,40.093,344.2776],[-5.1402,40.0967,341.4073],[-5.1247,40.1041,341.0697],[-5.1053,40.1187,413.8791],[-5.1013,40.127,353.2737],[-5.0945,40.1274,381.7995],[-5.0908,40.1236,362.7875],[-5.0889,40.1236,371.3617],[-5.0859,40.1261,360.8552],[-5.085,40.1355,367.0266],[-5.0776,40.1362,369.3875],[-5.0782,40.1412,364.5967],[-5.0737,40.1438,364.6863],[-5.07,40.1488,363.1803],[-5.0627,40.1516,370.2703],[-5.0569,40.1492,369.7554],[-5.0518,40.1515,384.2664],[-5.042,40.1511,373.4741],[-5.0338,40.1567,375.9181],[-5.0184,40.1591,371.06],[-5.0169,40.1458,412.9014],[-5.0137,40.1437,426.8014],[-5.0069,40.1312,446.6508],[-5.0076,40.1217,489.1692],[-5.0132,40.1111,536.2381],[-5.0061,40.1097,550.926],[-4.9891,40.1159,641.4287],[-4.9823,40.1154,630.057],[-4.9708,40.1198,644.3651],[-4.9544,40.1211,550.5721],[-4.9588,40.1261,551.0174],[-4.9553,40.1262,581.1602],[-4.9592,40.1305,584.1101],[-4.9562,40.1334,579.7317],[-4.9457,40.1326,572.9732],[-4.9253,40.136,569.1322],[-4.918,40.1553,471.9279],[-4.9236,40.165,402.2973],[-4.9246,40.17,384.5534],[-4.9102,40.1755,385.0239],[-4.8965,40.1851,385.3577],[-4.8844,40.191,387.0834],[-4.8782,40.1903,391.4957],[-4.8752,40.1978,388.9087],[-4.862,40.2052,393.3821],[-4.8596,40.2035,394.6713],[-4.8493,40.209,399.8922],[-4.8402,40.21,403.0257],[-4.8353,40.2125,398.205],[-4.8208,40.2234,399.6731],[-4.8224,40.2295,402.1813],[-4.8076,40.2353,408.1489],[-4.8101,40.2409,414.4316],[-4.8119,40.2406,414.4316],[-4.811,40.2438,419.5708],[-4.8132,40.2495,425.8702],[-4.8181,40.2548,435.2008],[-4.8099,40.2594,458.384],[-4.8112,40.264,498.6974],[-4.807,40.2678,521.9163],[-4.8076,40.271,578.2311],[-4.8041,40.2751,608.0235],[-4.7888,40.2721,547.3048],[-4.7832,40.2702,483.1627],[-4.7816,40.2674,470.9876],[-4.778,40.2656,440.5177],[-4.7611,40.2609,434.8151],[-4.7532,40.2641,439.1325],[-4.7425,40.2753,472.1677],[-4.7285,40.2705,480.9382],[-4.7274,40.2735,505.4187],[-4.712,40.276,552.4508],[-4.7136,40.2808,490.4745],[-4.698,40.2822,499.9484],[-4.694,40.2664,541.8998],[-4.7025,40.2636,527.2697],[-4.7017,40.2572,536.2023],[-4.6928,40.2539,552.0248],[-4.6871,40.2496,559.2303],[-4.6936,40.2411,599.6085],[-4.6865,40.2358,644.9614],[-4.6895,40.2293,827.2674],[-4.6861,40.2185,602.0098],[-4.6866,40.211,570.8683],[-4.6792,40.207,539.7463],[-4.6737,40.2097,539.5968],[-4.6627,40.2061,584.3825],[-4.6577,40.1997,604.233],[-4.6539,40.1982,633.0088],[-4.64,40.1973,715.9659],[-4.6357,40.2005,730.8668],[-4.6298,40.2018,791.7498],[-4.6168,40.2002,953.7574],[-4.6068,40.205,1002.0261],[-4.6042,40.2082,1031.4891],[-4.6002,40.2082,1028.5498],[-4.5925,40.2114,1010.3834],[-4.5866,40.2163,1031.8726],[-4.5789,40.2174,1009.3795],[-4.5744,40.2197,1025.1088],[-4.5655,40.218,1003.0691],[-4.5606,40.2228,984.7745],[-4.5589,40.234,790.1335],[-4.5601,40.2364,769.2422],[-4.5658,40.2397,780.3856],[-4.5691,40.2572,639.4922],[-4.5563,40.2645,651.9418],[-4.554,40.2764,734.8928],[-4.5554,40.2771,726.8123],[-4.5467,40.2801,784.0431],[-4.5421,40.2866,867.2211],[-4.5338,40.2888,925.7631],[-4.529,40.2928,1006.0826],[-4.5376,40.3113,769.8688],[-4.5398,40.3278,1169.7166],[-4.5442,40.3302,1262.3024],[-4.5428,40.3308,1279.5613],[-4.5434,40.3335,1341.2188],[-4.5477,40.3394,1592.6575],[-4.5464,40.3421,1662.4941],[-4.5382,40.3407,1444.6407],[-4.5263,40.3449,1289.574],[-4.5267,40.3382,1129.2185],[-4.5209,40.3358,1023.0911],[-4.5154,40.3288,861.8411],[-4.5129,40.3206,830.3951],[-4.5043,40.3151,710.4857],[-4.4977,40.3167,704.136],[-4.4908,40.3205,693.1694],[-4.4854,40.3211,705.2834],[-4.4647,40.3187,861.5443],[-4.4554,40.3199,804.6909],[-4.4536,40.333,728.424],[-4.4605,40.3403,667.2566],[-4.4572,40.3447,661.1095],[-4.4496,40.3459,660.6405],[-4.4396,40.3503,652.6147],[-4.4384,40.3544,651.1738],[-4.4405,40.3638,644.5452],[-4.4395,40.3799,652.0739],[-4.4425,40.3857,615.3677],[-4.441,40.3886,610.9091],[-4.4368,40.39,611.2836],[-4.4369,40.3932,596.9719],[-4.432,40.3978,597.0127],[-4.4233,40.4024,580.4312],[-4.4218,40.4064,573.2542],[-4.4173,40.4065,571.0],[-4.4138,40.4106,575.3147],[-4.4006,40.4114,570.5],[-4.3768,40.4074,576.3809],[-4.3656,40.4079,674.0052],[-4.361,40.4117,914.0457],[-4.352,40.4134,1010.7552],[-4.334,40.4089,857.2347],[-4.3287,40.4107,698.5087],[-4.3208,40.4107,602.8544],[-4.3263,40.4136,600.9068],[-4.3241,40.4186,612.806],[-4.3241,40.4244,619.855],[-4.3294,40.4234,605.5579],[-4.334,40.4254,613.4406],[-4.3355,40.4278,614.0542],[-4.3403,40.4291,618.9374],[-4.3394,40.4319,619.1997],[-4.3408,40.438,623.314],[-4.3322,40.4416,652.5823],[-4.3351,40.4433,672.158],[-4.331,40.4447,657.0415],[-4.3326,40.4487,678.7325],[-4.3232,40.4494,662.0435],[-4.3207,40.4515,660.4963],[-4.3217,40.4561,672.1825],[-4.3268,40.4572,720.5065],[-4.3263,40.4602,679.6489],[-4.3186,40.4594,685.7696],[-4.3205,40.4629,703.9378],[-4.3163,40.4654,697.0314],[-4.3192,40.4673,728.1647],[-4.3175,40.4697,718.6643],[-4.3205,40.4706,734.1429],[-4.3233,40.477,747.4547],[-4.3234,40.5016,837.9911],[-4.325,40.5071,869.6396],[-4.3276,40.5075,877.7341],[-4.3231,40.5177,911.2368],[-4.3213,40.5321,986.8341],[-4.3285,40.5348,1011.9481],[-4.3246,40.541,1023.437],[-4.3247,40.5477,1052.49],[-4.3229,40.5511,1064.7346],[-4.3084,40.5588,1216.5486],[-4.2896,40.5644,1041.9583],[-4.2855,40.5823,1088.1487],[-4.2815,40.5896,1101.1233],[-4.2832,40.5953,1123.4269],[-4.279,40.601,1133.9757],[-4.2787,40.6042,1135.7699],[-4.2899,40.6084,1168.4202],[-4.2885,40.626,1279.088],[-4.2899,40.628,1272.105],[-4.2794,40.6305,1415.2552],[-4.2723,40.6291,1262.6527],[-4.2708,40.6227,1240.5015],[-4.262,40.6056,1459.8408],[-4.2556,40.6034,1426.251],[-4.2423,40.6023,1413.6049],[-4.2151,40.6049,1309.4718],[-4.1928,40.6133,1560.8185],[-4.1764,40.6163,1615.8351],[-4.1612,40.6234,1704.158],[-4.1629,40.6257,1710.8467],[-4.1687,40.6259,1725.5103],[-4.173,40.6309,1630.1428],[-4.1706,40.6342,1615.7366],[-4.1718,40.638,1585.9434],[-4.168,40.6433,1518.809],[-4.1679,40.6477,1483.4617],[-4.169,40.6638,1594.6244],[-4.1735,40.6668,1657.0103],[-4.1719,40.6796,1748.4536],[-4.1564,40.6923,1734.1598],[-4.1509,40.6926,1638.3922],[-4.1449,40.6952,1628.8414],[-4.139,40.7127,1548.2261],[-4.1348,40.7188,1492.9781],[-4.126,40.7245,1567.0312],[-4.1251,40.7297,1636.8783],[-4.115,40.7423,1689.5215],[-4.1065,40.7462,1734.7064],[-4.0976,40.7481,1891.7229],[-4.094,40.7562,1796.5736],[-4.0965,40.7647,1990.9824],[-4.0805,40.7769,1801.8843],[-4.0785,40.7822,1767.8923],[-4.0788,40.7889,1978.5781],[-4.0754,40.7892,1977.6899],[-4.07,40.7938,1981.884],[-4.0469,40.7903,1921.7981],[-4.0421,40.7838,2059.6875],[-4.0213,40.7813,1941.2286],[-4.0024,40.7884,1853.1122],[-3.9796,40.7842,2255.8215],[-3.9779,40.7878,2238.1672],[-3.9796,40.7998,2027.1692],[-3.9753,40.8039,1982.2665],[-3.9751,40.8071,1975.9371],[-3.9677,40.8119,1897.3143],[-3.962,40.8221,1832.134],[-3.9648,40.8385,2238.9951],[-3.9624,40.844,2287.7063],[-3.9571,40.8482,2358.2246],[-3.9465,40.8648,2147.6729],[-3.9475,40.8733,2110.5925],[-3.9438,40.8785,2056.4102],[-3.9432,40.8887,2069.5681],[-3.9473,40.8888,2058.5186],[-3.9526,40.8935,2116.5547],[-3.9455,40.9036,2039.0007],[-3.942,40.9116,2061.9355],[-3.9372,40.9159,2037.6698],[-3.9377,40.9272,2020.2156],[-3.9277,40.9276,1959.3195],[-3.9224,40.9299,2052.9597],[-3.9175,40.9428,1975.0393],[-3.9119,40.9447,2002.6993],[-3.9124,40.9503,1995.655],[-3.9075,40.9559,1939.2249],[-3.8989,40.9591,1983.9645],[-3.895,40.967,2096.3289],[-3.8808,40.9729,2139.3765],[-3.8801,40.9746,2128.1689],[-3.874,40.9752,2119.0076],[-3.8693,40.9714,2142.7786],[-3.8596,40.9789,2083.802],[-3.8483,40.9799,2196.5288],[-3.8431,40.9829,2180.2805],[-3.8302,40.9862,2064.8762],[-3.8224,40.9848,1949.2153],[-3.8149,40.9863,1776.5924],[-3.7818,41.0002,2075.4849],[-3.7673,41.0162,2093.8362],[-3.7669,41.019,2073.063],[-3.7589,41.027,2068.2922],[-3.7556,41.0277,2055.7773],[-3.7497,41.0351,2008.451],[-3.7392,41.0539,1849.1111],[-3.7295,41.0622,1898.3163],[-3.7203,41.0656,1943.0934],[-3.7158,41.0715,1856.51],[-3.695,41.0832,1757.5361],[-3.6875,41.0852,1766.313],[-3.6803,41.0842,1808.3256],[-3.6767,41.0864,1813.5997],[-3.6721,41.0918,1767.3815],[-3.6506,41.1073,1780.303],[-3.6435,41.1205,1818.0692],[-3.6341,41.1257,1810.2057],[-3.6318,41.1339,1665.0475],[-3.6195,41.1427,1622.0105],[-3.6136,41.1491,1630.7404],[-3.6002,41.1552,1632.4326],[-3.5916,41.1543,1540.5933],[-3.59,41.1583,1491.2546],[-3.5834,41.1611,1264.5995],[-3.569,41.1594,1726.4438],[-3.5574,41.1645,1804.9335],[-3.527,41.1662,1859.2235],[-3.5158,41.1624,1832.808],[-3.5095,41.1686,1867.4792],[-3.5072,41.1688,1898.1415],[-3.5006,41.1791,1975.7883],[-3.4936,41.1775,2062.6304],[-3.4869,41.181,2064.0718],[-3.4816,41.1803,2166.9424],[-3.4745,41.1837,2180.2852],[-3.4668,41.1833,2215.9019],[-3.4687,41.1862,2131.0195],[-3.4665,41.1888,2068.0344],[-3.4602,41.191,2179.7261],[-3.4441,41.2153,1840.7079],[-3.4251,41.2142,1767.4286],[-3.42,41.2164,1709.7493],[-3.4091,41.2118,1819.4537],[-3.4024,41.2136,1909.8793],[-3.4041,41.218,1828.1409],[-3.4029,41.2282,1889.5691],[-3.4062,41.2336,1901.4266],[-3.3979,41.2433,1947.0306],[-3.4002,41.2493,1943.5288],[-3.3994,41.2545,2020.4067],[-3.4057,41.2596,1973.1346],[-3.4106,41.2599,1890.7667],[-3.4142,41.265,1730.8888],[-3.4151,41.2732,1559.5497],[-3.4097,41.2606,1893.1018],[-3.4061,41.2618,1939.2112],[-3.3942,41.257,1781.4305],[-3.3693,41.2604,1762.3679],[-3.3564,41.2562,1731.1243],[-3.3456,41.256,1737.9137],[-3.3363,41.253,1697.724],[-3.3304,41.2555,1619.3519],[-3.3299,41.2588,1572.8286],[-3.3227,41.2618,1540.4146],[-3.321,41.2606,1512.9841],[-3.3128,41.2617,1546.0972],[-3.3063,41.2606,1576.0894],[-3.3027,41.2577,1574.3645],[-3.2978,41.257,1604.0957],[-3.2901,41.2579,1643.5634],[-3.2878,41.2659,1600.7731],[-3.2757,41.275,1656.8995],[-3.271,41.2752,1584.178],[-3.2667,41.2719,1517.0144],[-3.259,41.2697,1447.1536],[-3.2548,41.2577,1439.4495],[-3.2378,41.2794,1343.0764],[-3.2398,41.283,1297.4127],[-3.24,41.2851,1311.6794],[-3.2378,41.2855,1342.2068],[-3.2389,41.2879,1289.6538],[-3.2262,41.2981,1398.3378],[-3.215,41.2984,1406.6886],[-3.2073,41.3042,1491.5121],[-3.2036,41.3032,1464.3657],[-3.1997,41.3044,1484.9635],[-3.1921,41.3027,1481.1826],[-3.1885,41.3039,1491.0779],[-3.1785,41.2998,1485.1633],[-3.1708,41.299,1502.756],[-3.1648,41.2954,1483.9419],[-3.1483,41.292,1430.7628],[-3.1412,41.2922,1441.1606],[-3.13,41.2882,1420.1201],[-3.125,41.2909,1486.8514],[-3.1086,41.2879,1483.3914],[-3.1001,41.2801,1461.9271],[-3.0978,41.2799,1476.059],[-3.0938,41.284,1467.0258],[-3.0899,41.2834,1477.0785],[-3.0834,41.2797,1497.3076],[-3.0729,41.2778,1509.5856],[-3.0618,41.2734,1521.5833],[-3.0606,41.2765,1519.23],[-3.0355,41.2812,1455.1183],[-3.0179,41.2891,1442.2594],[-3.0113,41.2854,1357.7285],[-3.0059,41.2844,1361.6401],[-2.9792,41.2908,1350.4728],[-2.9674,41.2919,1264.5896],[-2.966,41.2932,1266.7252],[-2.9501,41.2926,1249.5725],[-2.944,41.2975,1247.0066],[-2.94,41.306,1243.0231],[-2.9411,41.3139,1238.4343],[-2.934,41.3134,1227.5939],[-2.9242,41.3186,1211.0637],[-2.9109,41.3212,1223.2502],[-2.9066,41.3276,1202.5461],[-2.8979,41.3248,1172.2834],[-2.8884,41.3252,1194.5376],[-2.8826,41.3218,1177.6434],[-2.8754,41.3214,1168.2731],[-2.8689,41.3171,1173.598],[-2.8668,41.3131,1206.0317],[-2.873,41.2985,1215.3838],[-2.8658,41.2918,1257.637],[-2.864,41.2874,1253.1885],[-2.8636,41.2813,1176.2628],[-2.8668,41.2745,1133.7234],[-2.8324,41.2636,1238.0146],[-2.8217,41.2584,1211.8074],[-2.8222,41.2566,1215.6082],[-2.8035,41.2565,1237.1891],[-2.7824,41.2538,1203.9146],[-2.7754,41.2501,1212.3386],[-2.7764,41.2575,1183.6758],[-2.7673,41.2692,1164.6169],[-2.7609,41.274,1147.3818],[-2.73,41.2717,1144.3529],[-2.7167,41.2757,1161.6711],[-2.714,41.2611,1138.8904],[-2.7095,41.252,1117.9003],[-2.6953,41.2456,1134.1438],[-2.6692,41.2371,1166.1213],[-2.6548,41.2407,1134.8507],[-2.6459,41.2402,1121.4067],[-2.6451,41.2379,1105.785],[-2.6346,41.2319,1133.9983],[-2.6362,41.2238,1172.8025],[-2.6291,41.2152,1218.4839],[-2.6238,41.2237,1182.4983],[-2.6169,41.2194,1198.8442],[-2.5894,41.2245,1156.8678],[-2.5873,41.2138,1138.7727],[-2.5931,41.2009,1140.719],[-2.6008,41.1948,1224.1099],[-2.6057,41.1936,1221.5586],[-2.6199,41.1954,1210.9327],[-2.622,41.188,1212.9414],[-2.6193,41.1833,1174.6737],[-2.6025,41.1887,1221.8145],[-2.5781,41.1793,1197.4943],[-2.5771,41.1778,1158.5824],[-2.5826,41.1644,1153.9016],[-2.5848,41.1614,1112.1008],[-2.5936,41.1566,1125.8557],[-2.596,41.1516,1106.6562],[-2.5812,41.1408,1182.2086],[-2.5755,41.1395,1183.7455],[-2.5675,41.1449,1207.8088],[-2.5551,41.1467,1216.3141],[-2.5418,41.1511,1220.6685],[-2.5364,41.1625,1231.7529],[-2.5169,41.1465,1205.8726],[-2.5173,41.137,1158.0425],[-2.5116,41.1315,1210.4404],[-2.5088,41.118899999999996,1190.6576],[-2.5036,41.1175,1174.3682],[-2.4854,41.1179,1283.7452],[-2.4803,41.1136,1251.7156],[-2.4694,41.0898,1201.2903],[-2.4694,41.0781,1206.4788],[-2.4494,41.0777,1201.8113],[-2.4479,41.0749,1206.3585],[-2.4422,41.0773,1130.6185],[-2.4399,41.0732,1141.8226],[-2.4409,41.0714,1146.304],[-2.4297,41.0723,1113.2653],[-2.4297,41.0659,1140.2986],[-2.4204,41.0602,1154.7041],[-2.4188,41.0577,1147.8741],[-2.4142,41.0609,1177.5547],[-2.4021,41.0617,1116.1506],[-2.383,41.0742,1212.1721],[-2.3813,41.077,1195.6722],[-2.3553,41.0865,1179.6882],[-2.3492,41.0774,1185.8628],[-2.3338,41.0674,1188.8344],[-2.3306,41.0668,1194.9731],[-2.3233,41.0565,1224.7046],[-2.3155,41.0616,1225.7278],[-2.3032,41.065,1258.3633],[-2.2935,41.0713,1270.907],[-2.291,41.0709,1259.3333],[-2.2844,41.0653,1249.6356],[-2.2635,41.0675,1283.9216],[-2.2321,41.097,1274.1543],[-2.2225,41.0934,1293.8406],[-2.1752,41.0838,1314.7583],[-2.1757,41.0866,1307.5569],[-2.1673,41.0954,1316.9463],[-2.1434,41.1026,1264.3888],[-2.1358,41.1167,1254.8202],[-2.1318,41.1181,1212.4651],[-2.1174,41.103,1294.7141],[-2.1094,41.0976,1236.4033],[-2.0974,41.0925,1186.6658],[-2.0871,41.0901,1176.9458],[-2.0814,41.0864,1162.2053],[-2.0766,41.082,1143.1763],[-2.0786,41.0774,1190.7654],[-2.0716,41.0725,1185.2144],[-2.0564,41.0697,1195.4919],[-2.0481,41.0784,1211.454],[-2.0575,41.0847,1159.188],[-2.0656,41.0958,1172.4031],[-2.0636,41.1035,1189.7159],[-2.0603,41.1052,1171.567],[-2.0627,41.1131,1181.4569],[-2.0591,41.1198,1181.3621],[-2.0505,41.1259,1188.8535],[-2.0516,41.1469,1098.5841],[-2.0773,41.1631,1091.5464],[-2.0798,41.171,1113.6803],[-2.1067,41.1752,965.5002],[-2.1462,41.1844,924.8831],[-2.1489,41.2188,910.8855],[-2.1548,41.2404,856.9147],[-2.1586,41.2649,831.978],[-2.1634,41.2832,819.2241],[-2.1736,41.2881,779.9474],[-2.1729,41.2958,811.8961],[-2.169,41.3011,770.5094],[-2.1673,41.3112,807.7866],[-2.1704,41.3188,828.3761],[-2.1643,41.3287,788.9845],[-2.1579,41.3316,785.7618],[-2.1566,41.3374,758.0631],[-2.1624,41.3479,770.6995],[-2.1631,41.3554,769.1426],[-2.156,41.3569,774.4669],[-2.1498,41.3559,790.313],[-2.1316,41.3684,868.3303],[-2.1257,41.3696,896.0618],[-2.1201,41.3797,938.6738],[-2.116,41.3821,938.976],[-2.1194,41.3843,932.8584],[-2.1206,41.39,893.0811],[-2.1194,41.3903,901.1814],[-2.1205,41.3943,880.2216],[-2.1182,41.3962,892.654],[-2.116,41.4087,914.2447],[-2.1167,41.425,913.9521],[-2.1117,41.4342,888.7065],[-2.1036,41.4396,897.4112],[-2.1015,41.4458,913.2411],[-2.047,41.4343,962.4974],[-2.0356,41.4269,956.0831],[-2.0347,41.4044,926.7917],[-2.0435,41.3972,989.0057],[-2.0423,41.389,1005.2268],[-2.0382,41.3893,997.1202],[-2.0292,41.3842,926.6348],[-2.0164,41.3836,891.2225],[-2.0166,41.385,895.943],[-2.0096,41.3858,907.6901],[-2.0019,41.3938,822.7295],[-1.9936,41.3954,798.0062],[-1.9934,41.3972,799.5842],[-1.9918,41.3956,878.99],[-1.9873,41.3959,982.0122],[-1.9818,41.4023,966.2296],[-1.9705,41.401,962.117],[-1.9625,41.4034,947.9486],[-1.9536,41.4086,919.0889],[-1.9527,41.4075,919.0889],[-1.9378,41.4074,865.4326],[-1.9372,41.4116,916.9222],[-1.9391,41.4127,881.6837],[-1.9399,41.417,882.3732],[-1.9365,41.4199,904.6124],[-1.9422,41.4199,899.0414],[-1.9536,41.4243,933.1343],[-1.9487,41.4296,924.6696],[-1.9487,41.4358,919.3429],[-1.9523,41.4455,922.1766],[-1.9514,41.456,928.3732],[-1.9532,41.4625,937.5728],[-1.9699,41.4815,955.3693],[-1.981,41.4864,968.8804],[-1.9766,41.4967,992.5067],[-1.9787,41.5041,978.3538],[-1.9749,41.5161,937.5419],[-1.9781,41.5267,938.5848],[-1.9719,41.5328,1003.1986],[-1.973,41.5342,1020.776],[-1.9673,41.5461,1124.8118],[-1.9704,41.5487,1118.5013],[-1.9686,41.5508,1125.3668],[-1.9735,41.558,1120.7408],[-1.9767,41.5574,1116.2413],[-1.9818,41.562,1097.618],[-1.9806,41.5647,1089.0996],[-1.9936,41.5771,1073.2205],[-1.995,41.5817,1066.4443],[-1.9919,41.5904,1092.699],[-1.9933,41.6001,1113.5942],[-1.9844,41.6071,1179.2844],[-1.9759,41.6029,1262.1462],[-1.9692,41.6056,1095.6069],[-1.958,41.6049,1001.5886],[-1.923,41.5983,1103.9771],[-1.9183,41.6066,1077.1189],[-1.9141,41.6087,1097.3992],[-1.9135,41.6163,1171.2605],[-1.9003,41.6264,1192.3754],[-1.8978,41.6324,1202.3125],[-1.8788,41.6411,1274.5815],[-1.8739,41.638,1298.829],[-1.8589,41.6615,1217.3699],[-1.8345,41.6607,1371.1953],[-1.8291,41.6626,1391.3092],[-1.8131,41.6606,1481.1987],[-1.8062,41.6643,1447.5492],[-1.809,41.6847,1603.9077],[-1.812,41.6865,1621.0353],[-1.8016,41.6962,1141.3702],[-1.7948,41.699,1244.5706],[-1.7938,41.6977,1136.2727],[-1.7868,41.6994,1277.5078],[-1.7881,41.7028,1362.0431],[-1.7849,41.717,1535.6804],[-1.7753,41.7248,1489.7031],[-1.7843,41.7285,1609.842],[-1.7877,41.7341,1665.7582],[-1.7979,41.7326,1659.7954],[-1.8092,41.7367,1823.0994],[-1.8026,41.7512,1901.7893],[-1.8211,41.7661,2222.0793],[-1.8249,41.7736,2137.3247],[-1.8253,41.7784,2229.6313],[-1.8395,41.7871,2280.3779],[-1.8529,41.7896,1937.9131],[-1.8437,41.806,1382.1313],[-1.8338,41.8148,1177.2272],[-1.8254,41.819,1079.8599],[-1.8185,41.83,983.3869],[-1.8208,41.847,898.2296],[-1.8203,41.8506,859.9607],[-1.8175,41.8534,814.5151],[-1.8202,41.8624,739.0758],[-1.8225,41.8654,790.5591],[-1.8321,41.8633,829.9583],[-1.8399,41.8753,694.8225],[-1.8387,41.889,745.347],[-1.8572,41.9095,722.8967],[-1.8585,41.9325,697.6784],[-1.8549,41.9368,710.528],[-1.8565,41.946,665.1118],[-1.8547,41.9592,635.0795],[-1.8565,41.9664,620.9856],[-1.8775,41.9524,757.9736],[-1.8906,41.9478,719.6673],[-1.9066,41.9456,673.7069],[-1.905,41.943,636.739],[-1.9111,41.9406,653.8044],[-1.9151,41.9323,664.1416],[-1.9214,41.9343,726.3139],[-1.9295,41.9295,824.6875],[-1.9326,41.9304,860.7151],[-1.9353,41.927,880.8824],[-1.9415,41.9254,885.7494],[-1.9548,41.9274,891.5251],[-1.9613,41.9203,952.1523],[-1.982,41.9193,1028.6439],[-1.9983,41.9307,1127.9641],[-2.0013,41.9385,1139.272],[-2.013,41.9408,1030.4711],[-2.016,41.9448,1025.0013],[-2.0195,41.9445,1022.0647],[-2.0214,41.9484,980.1497],[-2.0281,41.9531,663.7927],[-2.0298,41.9531,663.7927],[-2.0306,41.9481,681.8243],[-2.0343,41.9464,690.8944],[-2.0336,41.9436,731.2402],[-2.0359,41.9437,704.8438],[-2.0363,41.9394,714.6724],[-2.0443,41.9462,885.9956],[-2.0452,41.9501,840.5664],[-2.0622,41.9544,863.5889],[-2.0762,41.9509,989.6074],[-2.0783,41.9513,1009.1425],[-2.0801,41.9544,1007.0166],[-2.0862,41.9544,1043.5131],[-2.0911,41.9563,1046.0959],[-2.1004,41.9553,976.9904],[-2.1099,41.9579,1095.5378],[-2.116,41.9636,1168.5425],[-2.1162,41.9747,1227.9651],[-2.1192,41.9766,1246.8936],[-2.1198,41.9861,1344.5045],[-2.124,41.9953,1489.9895],[-2.1194,41.9971,1504.2751],[-2.112,41.997,1472.543],[-2.1076,42.0028,1437.8438],[-2.1152,42.0115,1302.3131],[-2.117,42.0215,1111.5807],[-2.1288,42.0262,1109.5535],[-2.1448,42.0416,1166.025],[-2.1505,42.0422,1110.1323],[-2.1499,42.045,1035.29],[-2.1547,42.047,1015.777],[-2.1619,42.0667,1259.184],[-2.1516,42.0689,1155.0006],[-2.1421,42.0742,1108.8186],[-2.1353,42.0746,1134.2771],[-2.127,42.0809,914.2374],[-2.1268,42.0881,825.2659],[-2.1284,42.0896,888.6052],[-2.1273,42.0972,990.1959],[-2.1367,42.1031,1010.8214],[-2.1481,42.1045,1032.9059],[-2.1756,42.1048,1179.1636],[-2.1985,42.1025,1256.6055],[-2.2088,42.1047,1261.8625],[-2.2166,42.1001,1325.4734],[-2.224,42.0982,1331.8567],[-2.2307,42.1015,1319.4734],[-2.2378,42.1022,1328.5872],[-2.2588,42.0873,1581.2506],[-2.2695,42.0886,1638.3776],[-2.2817,42.1084,1397.3124],[-2.2806,42.1143,1299.5339],[-2.2825,42.1188,1228.4375],[-2.2789,42.1224,1134.317],[-2.2821,42.1317,1017.1353],[-2.3191,42.1452,1357.9059],[-2.3268,42.1437,1449.1547],[-2.3321,42.146,1509.1023],[-2.3439,42.1455,1467.1101],[-2.3481,42.1467,1511.0281],[-2.351,42.1449,1496.7676],[-2.3706,42.1434,1540.9155],[-2.3761,42.1414,1482.4491],[-2.3878,42.1425,1503.5342],[-2.3972,42.1369,1647.0713],[-2.4013,42.1396,1647.7433],[-2.4176,42.139,1695.1685],[-2.4269,42.1358,1744.8149],[-2.4384,42.1373,1726.8719],[-2.4464,42.1322,1732.2301],[-2.4485,42.1241,1749.0177],[-2.4535,42.1213,1702.5615],[-2.4586,42.1153,1683.6455],[-2.4717,42.1143,1582.0977],[-2.4744,42.1111,1576.7111],[-2.4843,42.1063,1550.3838],[-2.4903,42.111,1498.2883],[-2.4958,42.1129,1555.3068],[-2.501,42.1124,1610.3413],[-2.5085,42.1154,1642.662],[-2.5146,42.1145,1646.3796],[-2.5164,42.1108,1632.6764],[-2.5162,42.1027,1621.3721],[-2.5193,42.098,1647.28],[-2.5182,42.0908,1687.2224],[-2.5215,42.0875,1684.113],[-2.5226,42.0829,1736.0432],[-2.5193,42.081,1718.1139],[-2.5147,42.0742,1757.0255],[-2.5148,42.0689,1768.7416],[-2.5324,42.0552,1717.1238],[-2.5395,42.055,1707.3058],[-2.549,42.0515,1915.1995],[-2.552,42.0456,1827.7096],[-2.5512,42.0389,1905.0028],[-2.556,42.0348,1780.0981],[-2.5652,42.014,1745.0502],[-2.5752,42.0067,1735.3812],[-2.5798,41.9963,1827.5514],[-2.5965,42.0019,1843.2356],[-2.6096,42.0029,1818.6868],[-2.615,42.0058,1842.4252],[-2.6244,42.0049,1896.9299],[-2.6266,42.0065,1925.3472],[-2.65,42.0038,2067.7109],[-2.6597,42.0054,2120.3572],[-2.6618,42.0029,2122.1956],[-2.6735,41.9981,2126.1216],[-2.6871,42.0014,2063.3789],[-2.6962,42.0107,1992.0511],[-2.7057,42.0151,2026.7167],[-2.7102,42.0137,1974.3567],[-2.7202,42.0158,1910.5129],[-2.7271,42.015,1926.1423],[-2.7461,42.0087,2028.6918],[-2.7487,42.0151,2019.7026],[-2.7557,42.0239,1935.1968],[-2.755,42.03,1970.0735],[-2.7575,42.0326,1978.2627],[-2.7384,42.0497,1853.3761],[-2.7345,42.06,1829.0668],[-2.7273,42.0656,1844.4482],[-2.7255,42.0713,1802.2483],[-2.7225,42.0725,1723.6099],[-2.7084,42.0863,1650.6631],[-2.7075,42.0905,1462.144],[-2.7104,42.0964,1270.821],[-2.7088,42.1014,1135.4133],[-2.706,42.1025,1111.002],[-2.7067,42.1057,1158.0845],[-2.7222,42.1157,1215.6328],[-2.7284,42.1229,1299.2278],[-2.7384,42.1248,1347.165],[-2.7463,42.1239,1384.2521],[-2.7511,42.1178,1501.8441],[-2.7654,42.1248,1609.9724],[-2.7748,42.1235,1618.2345],[-2.7821,42.1141,1648.5479],[-2.7915,42.1087,1638.7621],[-2.7932,42.101,1667.6899],[-2.7901,42.0976,1589.1987],[-2.7901,42.0942,1607.1532],[-2.8033,42.0805,1640.1921],[-2.8032,42.0781,1664.7531],[-2.7984,42.0754,1661.4349],[-2.7968,42.0725,1672.0054],[-2.7949,42.0635,1753.5881],[-2.7983,42.0593,1804.9565],[-2.7979,42.0468,1879.986],[-2.8041,42.0463,1848.7902],[-2.8126,42.0366,1871.8862],[-2.8236,42.041,1821.6313],[-2.8402,42.0345,1879.5354],[-2.8446,42.0345,1879.0464],[-2.8567,42.0288,1910.601],[-2.8582,42.0227,1997.0386],[-2.8623,42.0192,2007.1068],[-2.8678,42.0178,2087.0356],[-2.8695,42.015,2066.3428],[-2.8838,42.0095,2129.7227],[-2.8894,42.0104,2142.1238],[-2.8911,42.017,2084.1108],[-2.9136,42.0228,2033.8048],[-2.9152,42.039,1710.4269],[-2.9204,42.0492,1792.1887],[-2.9229,42.0612,1835.1453],[-2.9269,42.0665,1960.9944],[-2.9279,42.0741,1847.3069],[-2.9324,42.0809,1748.5217],[-2.9311,42.0868,1690.4562],[-2.9353,42.0894,1788.2473],[-2.9586,42.0859,1588.9114],[-2.9605,42.0844,1585.2218],[-2.9794,42.0841,1190.4915],[-2.9931,42.0875,1466.6984],[-3.0038,42.0833,1688.3242],[-3.0146,42.0884,1794.7668],[-3.0234,42.0893,1846.5004],[-3.0343,42.086,1802.7195],[-3.0589,42.127,1307.5256],[-3.0661,42.1333,1304.9614],[-3.0736,42.1358,1308.6592],[-3.0837,42.1334,1367.897],[-3.0861,42.1355,1271.3512],[-3.0906,42.1486,1201.7528],[-3.0898,42.1593,1368.7668],[-3.0997,42.1674,1308.4176],[-3.0965,42.1694,1299.4041],[-3.1019,42.17,1320.6445],[-3.1017,42.1718,1298.9595],[-3.109,42.1763,1370.8933],[-3.1124,42.1758,1404.9413],[-3.1149,42.1788,1455.5793],[-3.1153,42.1883,1540.63],[-3.1251,42.1932,1465.8798],[-3.1293,42.1995,1672.7461],[-3.1288,42.2009,1694.1605],[-3.1187,42.2045,1725.9696],[-3.1133,42.2095,1718.4746],[-3.1059,42.2118,1808.5365],[-3.1014,42.2171,1865.0369],[-3.0996,42.2272,1977.79],[-3.1024,42.2322,2016.3381],[-3.0923,42.2447,2010.4358],[-3.0885,42.2457,1981.1057],[-3.0977,42.2631,1827.7],[-3.0896,42.273,1862.8713],[-3.0961,42.279,1711.2941],[-3.0958,42.2874,1458.2112],[-3.1035,42.3059,1398.0828],[-3.1026,42.3089,1323.3066],[-3.1066,42.3126,1260.0808],[-3.1033,42.3208,1308.1382],[-3.098,42.3223,1306.6604],[-3.0958,42.3269,1238.7322],[-3.1002,42.3284,1201.7059],[-3.1106,42.3386,1135.1962],[-3.1092,42.3519,1072.629],[-3.0875,42.3522,1203.0641],[-3.0636,42.3561,1159.2974],[-3.0632,42.3628,1114.3461],[-3.0848,42.3854,955.2751],[-3.0948,42.3837,1116.739],[-3.1043,42.3854,942.2651],[-3.1034,42.3903,924.8675],[-3.0969,42.3986,873.5208],[-3.0957,42.4052,850.0343],[-3.0988,42.4085,873.3993],[-3.1013,42.4168,814.0975],[-3.0963,42.4169,849.864],[-3.0905,42.4199,827.8474],[-3.0903,42.4224,851.41],[-3.0781,42.4157,815.3568],[-3.0785,42.4075,920.6714],[-3.0826,42.3974,1061.7211],[-3.0786,42.3914,1097.5115],[-3.075,42.3916,1128.8699],[-3.0735,42.3856,1145.103],[-3.0678,42.38,1164.6436],[-3.0644,42.3733,1191.2841],[-3.0576,42.3701,1220.6552],[-3.0531,42.3734,1215.595],[-3.0559,42.3851,1169.7574],[-3.064,42.4043,972.6297],[-3.0589,42.4099,892.172],[-3.0573,42.4171,844.1848],[-3.0632,42.4249,818.2076],[-3.0576,42.4339,778.9443],[-3.0459,42.4451,738.139],[-3.0609,42.462,695.7269],[-3.0641,42.4709,685.3615],[-3.0733,42.4765,737.236],[-3.0822,42.4745,757.6902],[-3.0892,42.4789,654.2322],[-3.0904,42.4779,652.3542],[-3.0914,42.4863,653.0728],[-3.0939,42.4863,654.4518],[-3.0946,42.4881,634.0016],[-3.0932,42.4915,621.3647],[-3.0792,42.4991,634.0759],[-3.0753,42.5065,636.5959],[-3.0739,42.5157,616.114],[-3.076,42.5202,618.9977],[-3.0717,42.5277,626.5059],[-3.0764,42.5322,649.5476],[-3.0812,42.5312,637.4644],[-3.084,42.5322,639.9181],[-3.0826,42.5337,638.1492],[-3.0892,42.5383,647.1971],[-3.0967,42.5346,711.7939],[-3.0999,42.5362,764.3668],[-3.1074,42.5288,770.8455],[-3.1173,42.5323,773.9539],[-3.1253,42.5331,778.6979],[-3.1342,42.542,791.9277],[-3.1263,42.5438,772.6734],[-3.1149,42.5513,722.6579],[-3.1054,42.5539,669.3427],[-3.1037,42.5531,679.6189],[-3.1042,42.5568,676.376],[-3.1024,42.5594,689.6267],[-3.0882,42.5671,764.7432],[-3.0823,42.574,776.9696],[-3.0861,42.5822,788.0087],[-3.0793,42.5837,750.8157],[-3.068,42.5889,694.252],[-3.0598,42.5892,684.3403],[-3.0649,42.5935,689.0687],[-3.0646,42.5983,682.8532],[-3.0603,42.6006,666.4055],[-3.0604,42.6026,672.7826],[-3.0652,42.6065,688.6669],[-3.0704,42.6214,854.2138],[-3.0781,42.6237,916.775],[-3.0795,42.6261,989.6027],[-3.0863,42.6277,967.5623],[-3.081,42.6313,890.5387],[-3.0847,42.6353,949.0745],[-3.0841,42.6407,820.2519],[-3.0693,42.6388,845.556],[-3.0407,42.64,766.8885],[-3.0294,42.6382,673.2245],[-3.018,42.6322,660.1016],[-3.0144,42.6404,693.4518],[-3.0087,42.6408,704.8193],[-3.0047,42.6443,671.8878],[-2.9951,42.6419,661.3395],[-2.9899,42.6423,667.2931],[-2.9859,42.6363,877.7427],[-2.98,42.6353,704.2764],[-2.9758,42.6391,659.1761],[-2.9703,42.6411,633.8911],[-2.9526,42.6386,829.9005],[-2.9464,42.6393,838.5242],[-2.9334,42.6345,762.0209],[-2.9241,42.6217,839.1718],[-2.916,42.6195,839.8167],[-2.9044,42.6202,795.7711],[-2.9044,42.6265,813.2582],[-2.8927,42.6277,644.9118],[-2.8904,42.6257,666.6235],[-2.8939,42.6213,721.1281],[-2.8821,42.6207,762.1083],[-2.8835,42.6244,731.3414],[-2.8762,42.631,516.0133],[-2.864,42.6332,485.5875],[-2.858,42.6382,449.4298],[-2.8717,42.6402,449.8438],[-2.8744,42.643,447.3064],[-2.8891,42.6492,448.1546],[-2.896,42.655,452.4363],[-2.9006,42.6678,451.2975],[-2.8972,42.6694,454.245],[-2.8998,42.6729,455.4008],[-2.895,42.6793,455.5141],[-2.898,42.6823,461.6044],[-2.9013,42.6826,460.4653],[-2.9037,42.6864,469.7192],[-2.9024,42.6936,522.9611],[-2.9184,42.6979,477.3491],[-2.9216,42.7012,472.001],[-2.9303,42.6996,462.7234],[-2.928,42.7047,465.9518],[-2.9305,42.7082,466.7316],[-2.9563,42.7104,477.8904],[-2.9634,42.708,473.4632],[-2.9739,42.7087,473.6744],[-2.9806,42.7038,463.194],[-2.987,42.7088,465.2656],[-2.9893,42.7193,464.4016],[-2.9943,42.7215,464.5083],[-3.0074,42.7232,467.7584],[-3.0107,42.7284,463.885],[-3.0058,42.7324,464.4203],[-3.0071,42.7336,464.4203],[-3.0163,42.7339,467.2701],[-3.0163,42.7405,471.5113],[-3.0178,42.7412,467.9506],[-3.033,42.7371,471.5594],[-3.0407,42.7385,475.8627],[-3.043,42.7437,467.15],[-3.0487,42.7486,478.1696],[-3.0503,42.7559,469.3167],[-3.0474,42.7609,478.9978],[-3.0496,42.7656,472.8257],[-3.0641,42.7601,475.9436],[-3.0808,42.7672,501.002],[-3.0823,42.7661,536.0297],[-3.0813,42.7619,474.4026],[-3.0844,42.7571,479.1909],[-3.0891,42.7602,486.298],[-3.091,42.7642,487.231],[-3.1006,42.7672,526.6847],[-3.1097,42.7635,519.7248],[-3.1154,42.7593,513.1018],[-3.1479,42.7567,540.1982],[-3.142,42.7629,888.9048],[-3.1366,42.7655,977.308],[-3.1282,42.7843,1165.7795],[-3.1232,42.7893,1292.691],[-3.1307,42.7896,1248.7295],[-3.14,42.7957,1236.5552],[-3.1592,42.8046,1255.17],[-3.1481,42.8145,816.8055],[-3.1488,42.8205,769.2413],[-3.1409,42.8363,700.6087],[-3.1329,42.8373,637.6904],[-3.1301,42.8405,648.3824],[-3.1313,42.8446,654.0596],[-3.1279,42.8496,578.6509],[-3.1229,42.8489,595.6785],[-3.1208,42.855,648.1309],[-3.1131,42.861,792.9235],[-3.1137,42.864,814.1469],[-3.1082,42.8712,916.6522],[-3.1051,42.8802,1044.7793],[-3.1133,42.8818,997.1601],[-3.1125,42.8867,794.0131],[-3.1149,42.8892,754.0268],[-3.1189,42.8913,773.8414],[-3.1256,42.8913,895.8115],[-3.138,42.8761,792.3769],[-3.1387,42.8713,877.7504],[-3.1447,42.8687,830.8624],[-3.1498,42.8613,698.7456],[-3.1607,42.8563,673.6812],[-3.173,42.8572,942.2579],[-3.1906,42.8694,1057.6831],[-3.2004,42.855,979.5298],[-3.2069,42.8513,984.2987],[-3.2094,42.8442,823.2059],[-3.2221,42.8386,910.5746],[-3.2055,42.8274,1247.7004],[-3.2169,42.8265,870.0781],[-3.2258,42.8301,648.6033],[-3.2826,42.8755,915.0391],[-3.2867,42.8851,768.4675],[-3.2764,42.887,1119.0964],[-3.2772,42.9016,994.4413],[-3.2485,42.9121,1176.7222],[-3.2457,42.9238,914.4933],[-3.2399,42.9315,924.9911],[-3.2353,42.9331,952.4316],[-3.2355,42.9438,914.1293],[-3.2247,42.9497,884.0778],[-3.2199,42.9495,877.8782],[-3.2166,42.9479,866.3317],[-3.2166,42.9455,862.5518],[-3.2137,42.946,844.3204],[-3.2116,42.9443,876.5878],[-3.2097,42.9445,881.5471],[-3.2097,42.9467,881.2216],[-3.2064,42.9469,896.6675],[-3.2025,42.945,889.597],[-3.1965,42.9464,897.4802],[-3.1807,42.9445,923.7292],[-3.1693,42.9402,911.4827],[-3.1447,42.9347,914.6385],[-3.1477,42.9327,956.6445],[-3.1508,42.9195,870.8774],[-3.1495,42.9173,874.5831],[-3.1415,42.9132,787.2697],[-3.1318,42.9127,900.8176],[-3.1265,42.904,818.4872],[-3.1084,42.9061,936.3847],[-3.1046,42.9101,990.8483],[-3.0985,42.9061,978.1066],[-3.0928,42.9003,897.2661],[-3.0937,42.8992,897.2661],[-3.0895,42.899,748.8124],[-3.0751,42.901,621.7083],[-3.0689,42.9039,594.1054],[-3.06,42.9017,628.6001],[-3.0189,42.9085,1080.1107],[-3.0161,42.9105,1097.6056],[-3.0143,42.9189,1040.1895],[-3.0048,42.927,981.0508],[-3.0022,42.9278,990.5807],[-2.9976,42.9262,974.6119],[-2.9913,42.9345,888.9891],[-2.9849,42.9355,845.9789],[-2.9814,42.9388,797.532],[-2.9848,42.9442,789.4437],[-2.9907,42.9469,810.9536],[-2.996,42.9529,857.6611],[-3.0116,42.9524,889.7606],[-3.0196,42.955,800.3453],[-3.0213,42.9577,850.4835],[-3.0203,42.961,875.187],[-3.0247,42.9619,913.6936],[-3.0377,42.9694,681.9006],[-3.0406,42.9694,798.1016],[-3.0448,42.9734,825.7085],[-3.0388,42.9783,858.9445],[-3.0369,42.9822,884.0263],[-3.0411,42.9823,883.0063],[-3.0529,42.9944,942.411],[-3.0586,42.9968,989.7561],[-3.0611,42.9991,955.2512],[-3.0602,43.0035,858.6858],[-3.0717,43.0056,993.1375],[-3.077,43.0085,1021.183],[-3.0793,43.0048,1068.7712],[-3.0889,43.0016,1059.5165],[-3.1061,43.0054,1081.7191],[-3.1203,43.0059,916.9266],[-3.1243,43.0077,943.8149],[-3.1447,43.0068,1024.149],[-3.1692,43.0152,932.1937],[-3.1778,43.022,736.8506],[-3.1709,43.0255,979.9807],[-3.1702,43.0291,825.2792],[-3.1528,43.027,1076.7594],[-3.1434,43.0274,1056.7845],[-3.1418,43.0298,945.7178],[-3.1474,43.0349,825.3893],[-3.1443,43.0381,789.2534],[-3.145,43.0493,453.7875],[-3.1417,43.049,495.7076],[-3.1436,43.0536,468.7817],[-3.1406,43.0593,408.7572],[-3.1403,43.0671,445.1428],[-3.141,43.0687,445.1428],[-3.1474,43.0689,550.3652],[-3.1581,43.074,569.2748],[-3.1515,43.0789,521.2024],[-3.1476,43.0857,562.2559],[-3.1339,43.0972,392.0127],[-3.1414,43.1106,446.3054],[-3.1479,43.1082,439.7416],[-3.152,43.1041,306.9254],[-3.1625,43.1089,293.9461],[-3.1696,43.1096,290.4796],[-3.1804,43.1163,470.4194],[-3.1817,43.1209,513.4753],[-3.1614,43.1432,278.5214],[-3.1667,43.1469,280.1531],[-3.1618,43.1542,184.5951],[-3.1484,43.1611,179.7609],[-3.1413,43.1615,183.8405],[-3.1428,43.1682,459.9597],[-3.1482,43.174,635.8162],[-3.1574,43.1778,629.5245],[-3.1625,43.177,641.6483],[-3.168,43.1786,641.9108],[-3.1788,43.1752,628.0635],[-3.1856,43.1692,392.685],[-3.1875,43.1692,336.1754],[-3.1989,43.1709,242.2144],[-3.2047,43.1744,221.8533],[-3.2078,43.1794,171.3487],[-3.2109,43.1778,202.26],[-3.2126,43.1741,175.4396],[-3.218,43.1752,191.2748],[-3.224,43.1701,192.377],[-3.2235,43.1722,194.6895],[-3.2278,43.1763,188.3489],[-3.2301,43.1764,194.797],[-3.2311,43.1789,265.2632],[-3.2334,43.179,245.8825],[-3.2375,43.1858,329.1586],[-3.2534,43.1986,816.8507],[-3.2562,43.1953,895.0903],[-3.2624,43.1963,783.0544],[-3.2679,43.1942,788.0833],[-3.2781,43.1944,934.7115],[-3.2776,43.19,1013.9437],[-3.2974,43.1826,875.3552],[-3.3005,43.1791,849.1042],[-3.3057,43.177,972.2469],[-3.3093,43.1725,901.5564],[-3.3195,43.1712,1009.7668],[-3.3202,43.1697,978.5702],[-3.3337,43.1657,1048.944],[-3.3385,43.1675,982.1581],[-3.3419,43.1668,980.9854],[-3.3506,43.1543,888.2136],[-3.371,43.1514,1105.2009],[-3.3719,43.1488,1091.1832],[-3.3888,43.14,1120.2324],[-3.4071,43.1374,1240.6753],[-3.4103,43.1345,1323.2561],[-3.4219,43.1323,1274.1234],[-3.4296,43.1337,1316.3269],[-3.4335,43.1319,1290.4733],[-3.4416,43.1328,1180.5325],[-3.4447,43.1315,1147.7539],[-3.4589,43.1361,960.1644],[-3.4803,43.1361,1023.9745],[-3.4869,43.1332,894.5897],[-3.5021,43.1366,930.6524],[-3.5084,43.1366,958.7667],[-3.5437,43.1481,1164.5096],[-3.5612,43.1495,1400.6458],[-3.5855,43.1545,1265.3707],[-3.5996,43.1519,1415.984],[-3.6035,43.1496,1499.6324],[-3.6082,43.1637,1432.3081],[-3.6124,43.1695,1543.8624],[-3.6236,43.1739,1357.1781],[-3.6311,43.1729,1314.8699],[-3.6336,43.1755,1365.9011],[-3.641,43.176,1453.8138],[-3.645,43.1793,1514.1982],[-3.651,43.181,1434.0031],[-3.6581,43.1776,1463.2054],[-3.656,43.1707,1317.7589],[-3.6609,43.1687,1351.4312],[-3.6622,43.1652,1427.4182],[-3.6667,43.1628,1503.4569],[-3.6679,43.1576,1510.3218],[-3.6766,43.1551,1486.4408],[-3.6764,43.1511,1557.6249],[-3.6841,43.1424,1669.1447],[-3.6856,43.1372,1413.1711],[-3.6837,43.1362,1383.9423],[-3.6949,43.1266,1209.9866],[-3.7038,43.1234,1199.9293],[-3.7029,43.1181,1145.0504],[-3.7046,43.1162,1152.2505],[-3.7142,43.114,1312.4385],[-3.7192,43.1083,1371.189],[-3.7282,43.1047,1273.6465],[-3.7481,43.1022,1341.3186],[-3.7559,43.0991,1341.9128],[-3.7598,43.0921,1342.1947],[-3.7569,43.085,1475.7065],[-3.7675,43.0803,1442.7655],[-3.7757,43.0825,1394.3158],[-3.7783,43.0805,1400.5398],[-3.7895,43.0781,1316.3054],[-3.801,43.0832,1248.4854],[-3.8062,43.0834,1152.7554],[-3.8101,43.0866,1100.769],[-3.8148,43.0858,1013.0602],[-3.8207,43.081,960.7082],[-3.8263,43.0806,927.8541],[-3.8352,43.0805,924.0229],[-3.8443,43.0824,1003.9374],[-3.8469,43.0844,1006.2011],[-3.8507,43.08,941.5848],[-3.8507,43.077,971.4811],[-3.8459,43.071,1003.2147],[-3.8317,43.0638,1194.1493],[-3.8339,43.0629,1179.8882],[-3.834,43.0586,1095.4818],[-3.8426,43.0513,1017.8314],[-3.8498,43.048,999.3092],[-3.8491,43.0411,1011.608],[-3.851,43.0391,1022.1402],[-3.8557,43.0393,1003.5447],[-3.8614,43.0434,994.1194],[-3.8648,43.0422,1015.5777],[-3.8669,43.0438,1010.3846],[-3.8907,43.0418,852.8575],[-3.8927,43.0363,837.4141],[-3.9092,43.0161,835.0],[-3.9246,43.0103,835.0],[-3.9454,43.0057,835.0],[-3.9607,42.9924,835.0],[-3.974,42.9686,923.6084],[-3.9908,42.9308,1019.3506],[-3.9877,42.9258,1041.5065],[-3.9775,42.9183,1032.6747],[-3.9728,42.9117,1141.8762],[-3.9539,42.9113,878.4651],[-3.9457,42.9094,1009.5017],[-3.9393,42.9102,903.2814],[-3.9296,42.9147,822.9387],[-3.9363,42.9081,815.7192],[-3.9375,42.904,837.3886],[-3.9335,42.8996,794.6961],[-3.9263,42.9044,840.1578],[-3.9233,42.9156,840.9765],[-3.9181,42.9163,873.8057],[-3.9114,42.9234,875.8915],[-3.8912,42.9255,853.8928],[-3.8888,42.9298,853.8409],[-3.8896,42.9351,918.188],[-3.8876,42.9377,971.7328],[-3.8873,42.9487,936.7575],[-3.8777,42.9478,971.1035],[-3.8701,42.9497,1103.4015],[-3.867,42.9548,1092.0262],[-3.8395,42.9398,1135.4686],[-3.8373,42.9342,1037.6642],[-3.8299,42.9277,1038.3663],[-3.8335,42.918,973.0724],[-3.8382,42.9162,977.5355],[-3.8439,42.9169,1056.4375],[-3.8466,42.9192,1028.1146],[-3.8534,42.9181,942.1062],[-3.8573,42.9075,898.4247],[-3.8603,42.9045,917.7283],[-3.8589,42.9037,918.2915],[-3.8685,42.8991,791.5549],[-3.879,42.9013,780.2709],[-3.8832,42.9043,774.3475],[-3.8908,42.9026,775.2645],[-3.9027,42.9095,836.9957],[-3.9077,42.9145,911.8918],[-3.9079,42.9122,923.6505],[-3.9105,42.9109,905.5809],[-3.907,42.9075,810.84],[-3.8991,42.9041,784.6075],[-3.8929,42.8873,825.3491],[-3.9027,42.8862,802.827],[-3.9088,42.8894,741.1261],[-3.9103,42.8919,786.9559],[-3.9164,42.8892,887.3227],[-3.9202,42.8906,835.796],[-3.9243,42.8892,897.8484],[-3.9024,42.8849,825.4609],[-3.8974,42.8803,863.6488],[-3.9056,42.8702,830.8116],[-3.9132,42.8677,782.7747],[-3.9154,42.8609,772.2955],[-3.913,42.8591,736.8173],[-3.8992,42.8599,766.9268],[-3.8964,42.8563,784.0659],[-3.8877,42.8568,746.2952],[-3.8801,42.8514,747.7421],[-3.8737,42.8529,787.2406],[-3.8684,42.8567,922.75],[-3.8738,42.8632,859.4588],[-3.8735,42.8702,867.3984],[-3.8709,42.8743,897.0443],[-3.874,42.8751,856.1391],[-3.868,42.886,848.9874],[-3.8637,42.8898,817.6002],[-3.8518,42.8834,936.2614],[-3.8367,42.8788,957.3906],[-3.8253,42.8686,921.1046],[-3.8341,42.8557,903.0333],[-3.8337,42.8521,911.1208],[-3.8164,42.8359,828.2637],[-3.8166,42.8302,781.2838],[-3.8196,42.8278,698.1534],[-3.8162,42.8193,885.6402],[-3.816,42.8105,946.3417],[-3.8205,42.8063,967.5678],[-3.8216,42.8003,983.2191],[-3.8232,42.7988,983.4194],[-3.829,42.7987,993.3043],[-3.8542,42.7875,1033.9342],[-3.8633,42.7864,1052.0979],[-3.886,42.7982,1097.3368],[-3.8944,42.8045,1145.451],[-3.8995,42.7907,1103.5099],[-3.9014,42.7886,1092.4019],[-3.9096,42.7864,1082.2449],[-3.9087,42.777,1067.3989],[-3.9109,42.7684,1062.6345],[-3.9264,42.7701,1065.4692],[-3.9305,42.7745,1070.7908],[-3.9487,42.7675,1074.1704],[-3.9465,42.7619,1086.2178],[-3.9565,42.7622,1084.7571],[-3.9656,42.7586,1066.5419],[-3.9788,42.7581,1066.4047],[-3.9815,42.7683,1009.6285],[-3.9906,42.771,975.8469],[-3.9945,42.7686,1062.613],[-3.9996,42.769,1069.462],[-3.9959,42.7862,718.5623],[-3.9975,42.7878,719.214],[-3.9964,42.7989,725.7887],[-4.0008,42.8098,872.5717],[-4.0,42.8241,1004.8807],[-4.0035,42.8314,1010.7324],[-4.011,42.8304,1009.5696],[-4.0207,42.8193,933.6413],[-4.0141,42.806399999999996,725.3951],[-4.0239,42.8063,745.5513],[-4.0328,42.8012,729.5389],[-4.0317,42.7936,749.3479],[-4.0283,42.7903,770.0834],[-4.0298,42.7883,820.2301],[-4.0335,42.7866,783.2959],[-4.0378,42.7908,848.4681],[-4.0437,42.7888,804.978],[-4.0501,42.7798,830.1165],[-4.0496,42.7729,954.0634],[-4.0458,42.7666,1085.4042],[-4.0546,42.763,1087.5361],[-4.0717,42.7605,1086.5881],[-4.0813,42.7614,1107.3015],[-4.0853,42.7722,1086.2656],[-4.094,42.7733,1148.2019],[-4.0952,42.779,1013.1998],[-4.0996,42.7846,996.2578],[-4.0984,42.7912,859.9603],[-4.1129,42.7945,864.2938],[-4.1226,42.7946,857.5194],[-4.1374,42.7903,906.2365],[-4.1443,42.7913,888.7569],[-4.1498,42.7893,959.5018],[-4.1736,42.8085,963.5591],[-4.1787,42.8109,965.4518],[-4.1826,42.8103,1039.2224],[-4.1854,42.8173,913.1042],[-4.1785,42.8262,950.0458],[-4.1654,42.8282,1014.9747],[-4.1631,42.8301,991.5725],[-4.1617,42.8361,955.85],[-4.1565,42.8378,972.407],[-4.1509,42.8345,946.6827],[-4.1505,42.8314,971.1511],[-4.1455,42.8289,994.1116],[-4.1404,42.829,952.746],[-4.1409,42.8304,952.746],[-4.1373,42.8335,999.1348],[-4.137,42.8394,1068.8578],[-4.1284,42.8462,1109.9656],[-4.126,42.8566,1222.1582],[-4.139,42.8593,1033.0475],[-4.1411,42.8617,1023.4397],[-4.1452,42.8622,966.3105],[-4.1489,42.8657,943.7935],[-4.1442,42.8686,939.3425],[-4.1498,42.8711,930.6611],[-4.1693,42.8589,955.3802],[-4.1811,42.8587,970.9791],[-4.1855,42.8544,944.6605],[-4.1955,42.8491,943.6427],[-4.1993,42.8447,954.1555],[-4.2089,42.8448,953.858],[-4.2188,42.8505,982.3638],[-4.2256,42.8589,990.4528],[-4.2228,42.8647,1008.6639],[-4.2234,42.875,1001.0675],[-4.2305,42.8967,1029.7255],[-4.2307,42.9032,1032.7531],[-4.2247,42.9064,1173.8511],[-4.2225,42.9109,1170.3052],[-4.2366,42.9171,1077.2782],[-4.239,42.933,1065.5394],[-4.2384,42.9543,1233.3842],[-4.2459,42.9594,1415.1635],[-4.2621,42.9652,1684.8326],[-4.278,42.9654,1909.688],[-4.2894,42.9691,1913.9459],[-4.2989,42.9665,1908.0511],[-4.3036,42.9669,1915.2051],[-4.3154,42.9697,1863.9204],[-4.3472,42.9721,2051.0632],[-4.3721,42.9946,1873.9326],[-4.3748,42.9995,1958.7722],[-4.3743,43.006,2089.0813],[-4.3862,43.0165,2001.5576],[-4.3891,43.0257,2140.8972],[-4.3922,43.0273,2108.0757],[-4.398,43.0348,2047.9755],[-4.4139,43.042,2001.0249],[-4.4318,43.0457,1977.0773],[-4.4424,43.0559,1618.4049],[-4.4475,43.0585,1556.3367],[-4.4567,43.057,1332.4146],[-4.461,43.0607,1358.1692],[-4.463,43.06,1303.3899],[-4.4711,43.0517,994.5126],[-4.4764,43.0413,1447.4576],[-4.4756,43.0387,1440.0399],[-4.4939,43.0396,1423.2411],[-4.4958,43.0384,1373.4368],[-4.5208,43.0473,1485.3345],[-4.5584,43.0195,1648.4475],[-4.5742,43.0269,1562.8657],[-4.5905,43.0258,1783.3118],[-4.606,43.0357,1918.4598],[-4.6116,43.0305,1772.6511],[-4.6195,43.0265,1816.7759],[-4.6295,43.0239,1883.3159],[-4.6381,43.0166,1943.4679],[-4.6514,43.0208,1849.5432],[-4.6731,43.0213,1934.9226],[-4.6842,43.026,1816.3163],[-4.6903,43.0263,1718.0601],[-4.7087,43.025,2009.0122],[-4.7144,43.0196,2209.8467],[-4.7196,43.0172,2323.8567],[-4.7286,43.0187,2292.9106],[-4.731,43.0222,2496.1108],[-4.7369,43.021,2426.144],[-4.7432,43.0281,2406.9634],[-4.7388,43.0407,2075.2651],[-4.7341,43.047,2143.9663],[-4.7439,43.0564,2004.4829],[-4.7497,43.0558,1908.6805],[-4.7528,43.0572,1805.0896],[-4.766,43.0556,1773.2234],[-4.7664,43.0745,1862.9922],[-4.7844,43.0836,1963.2148],[-4.7967,43.0878,2133.0527],[-4.8006,43.0877,2023.5455],[-4.8074,43.0918,1971.667],[-4.8168,43.0926,2031.9573],[-4.8172,43.096,2066.6582],[-4.8214,43.0993,1947.7366],[-4.8327,43.1026,1918.5948],[-4.8357,43.1163,1840.7482],[-4.8452,43.1215,1769.1918],[-4.8457,43.1238,1859.1736],[-4.8513,43.1259,1858.8134],[-4.8426,43.1333,1490.796],[-4.8438,43.146,2137.6069],[-4.8385,43.147,2155.3],[-4.8351,43.1559,2170.3518],[-4.8347,43.1582,2246.2664],[-4.8406,43.1623,2261.4141],[-4.8388,43.1667,2351.5305],[-4.8516,43.1728,2470.646],[-4.8493,43.177,2340.3184],[-4.8409,43.1807,2503.0356],[-4.8391,43.1897,2437.6863],[-4.8527,43.1963,2509.0935],[-4.8568,43.2041,2323.2832],[-4.8616,43.2056,2064.8826],[-4.8601,43.2084,2258.1587],[-4.8625,43.2122,2195.3101],[-4.8595,43.2155,2145.0388],[-4.8601,43.2184,2132.3545],[-4.8735,43.2296,1597.5574],[-4.882,43.232,849.3167],[-4.8935,43.2384,589.6764],[-4.9125,43.2368,1380.6083],[-4.9194,43.2275,1831.8264],[-4.9322,43.2249,1854.7711],[-4.9422,43.2249,2037.3083],[-4.9519,43.2193,2217.0044],[-4.9519,43.2144,2204.5647],[-4.9638,43.2124,2289.2271],[-4.971,43.2044,2281.3096],[-4.9702,43.2022,2302.811],[-4.9789,43.2005,2174.853],[-4.9965,43.1854,1090.134],[-4.9968,43.1731,1246.1914],[-5.0014,43.1763,1460.3511],[-5.0174,43.1819,1496.0309],[-5.0208,43.1851,1816.7268],[-5.0307,43.1836,1776.0082],[-5.0408,43.1846,1526.4924],[-5.0532,43.1827,1559.62],[-5.0543,43.1795,1498.7394],[-5.0758,43.1815,403.9364],[-5.0781,43.1752,424.717],[-5.0762,43.1726,441.4689],[-5.0784,43.1604,453.9778],[-5.0828,43.1582,503.8601],[-5.0874,43.1531,569.8336],[-5.0856,43.1482,803.8873],[-5.0948,43.143,637.2378],[-5.0903,43.134,862.5679],[-5.091,43.1295,984.4437],[-5.0992,43.1158,1605.7739],[-5.0956,43.1077,1652.1422],[-5.1016,43.1018,1818.1005],[-5.1204,43.1006,1673.1112],[-5.1406,43.1029,1994.8942],[-5.1477,43.1151,1934.8411],[-5.1534,43.1109,1770.0658],[-5.1575,43.1099,1773.053],[-5.1599,43.111,1787.8003],[-5.163,43.1092,1799.4088],[-5.1678,43.1024,1586.7155],[-5.1753,43.1,1568.2758],[-5.1885,43.0997,1583.1165],[-5.1911,43.0953,1608.7444],[-5.1989,43.0927,1638.2379],[-5.2011,43.0902,1691.5403],[-5.2067,43.0923,1782.3562],[-5.2096,43.0868,1570.2983],[-5.2201,43.0836,1507.9503],[-5.2259,43.0855,1627.8309],[-5.2287,43.0842,1710.8512],[-5.2402,43.0885,1828.1948],[-5.2684,43.0875,1832.4281],[-5.2781,43.0833,1729.2128],[-5.282,43.0774,1783.4185],[-5.2969,43.0792,1749.3276],[-5.3114,43.0841,1847.8242],[-5.3171,43.0827,1826.9421],[-5.3204,43.0793,1792.7302],[-5.3366,43.0819,1933.5173],[-5.3413,43.0837,1972.217],[-5.3389,43.0915,1953.557],[-5.3447,43.0942,1861.6667],[-5.369,43.0945,1781.8557],[-5.3777,43.0883,1804.5878],[-5.383,43.0872,1878.7844],[-5.3903,43.0493,2021.187],[-5.3949,43.0476,1942.6921],[-5.4003,43.0478,1907.0613],[-5.4058,43.0499,1936.876],[-5.4107,43.0491,1877.0052],[-5.4168,43.0521,1871.0316],[-5.4338,43.0527,1890.7465],[-5.4481,43.0554,1927.6427],[-5.4667,43.0505,1951.738],[-5.4755,43.0555,2011.691],[-5.4784,43.0549,1979.6658],[-5.4806,43.0535,1993.4738],[-5.4809,43.0421,1683.9225],[-5.4874,43.0315,1699.9705],[-5.4902,43.0305,1711.8264],[-5.4936,43.0213,2056.5569],[-5.5059,43.0286,1987.2336],[-5.5285,43.0258,1859.3499],[-5.5301,43.0226,1846.2391],[-5.5403,43.0183,1890.05],[-5.5561,43.0205,1880.0491],[-5.5579,43.0225,1800.0874],[-5.57,43.0227,1872.8256],[-5.5745,43.0322,1891.1316],[-5.5951,43.0334,1830.5878],[-5.6037,43.036,1825.8572],[-5.609,43.034,1725.5845],[-5.613,43.0354,1728.2571],[-5.6274,43.0342,1646.5306],[-5.6366,43.0353,1737.1819],[-5.6386,43.0385,1906.9648],[-5.643,43.0378,2016.5704],[-5.6499,43.0447,2083.417],[-5.6589,43.0456,2067.9214],[-5.6717,43.0529,1984.0682],[-5.6735,43.052,1996.4403],[-5.6882,43.0568,1993.626],[-5.6932,43.0564,1860.5289],[-5.7008,43.0518,1733.1042],[-5.7165,43.0462,1748.8353],[-5.721,43.0429,1702.7705],[-5.7283,43.0425,1735.7783],[-5.7295,43.0374,1727.4478],[-5.7341,43.0341,1861.8057],[-5.7356,43.0232,1930.8021],[-5.74,43.0206,1999.673],[-5.7438,43.0207,1960.2144],[-5.7482,43.0172,1876.259],[-5.7509,43.0055,1690.9851],[-5.7587,42.9992,1401.4795],[-5.7593,42.9927,1385.7223],[-5.7664,42.986,1470.3107],[-5.7613,42.9738,1776.498],[-5.7628,42.9711,1774.8195],[-5.7655,42.9692,1709.2509],[-5.7799,42.967,1698.2112],[-5.7905,42.9679,1830.6454],[-5.8,42.9654,1822.0439],[-5.8039,42.9626,1850.3689],[-5.807,42.965,1801.8075],[-5.8242,42.9681,1751.3691],[-5.8394,42.9662,1861.4104],[-5.843,42.9642,1818.7606],[-5.8502,42.9674,1604.1171],[-5.8635,42.9789,1774.552],[-5.8638,42.9813,1807.0916],[-5.889,42.979,1807.0286],[-5.8919,42.985,1790.0969],[-5.8915,42.9894,1701.5029],[-5.8871,42.994,1840.6488],[-5.9065,42.99,1669.652],[-5.9145,42.9927,1817.2891],[-5.9129,42.9962,1696.7831],[-5.9195,43.0028,1686.1031],[-5.9251,43.0039,1798.1345],[-5.9253,43.006,1793.8431],[-5.9311,43.0059,1794.0854],[-5.9336,43.0108,1965.5458],[-5.9433,43.0129,1961.2814],[-5.9566,43.0186,2314.4824],[-5.961,43.0291,2239.4956],[-5.9701,43.0413,2178.4126],[-5.9677,43.0449,2076.0017],[-5.9706,43.0506,1944.7036],[-5.967,43.0583,2082.292],[-5.9698,43.0564,2025.6885],[-5.9713,43.0572,2038.5487],[-5.974,43.0649,2006.4441],[-5.9804,43.0642,2006.4895],[-5.9891,43.0678,1912.3051],[-5.9963,43.0597,1740.4587],[-6.0201,43.0548,1736.8303],[-6.0375,43.0632,1933.0271],[-6.0498,43.0656,1702.7107],[-6.0521,43.068,1766.1683],[-6.0622,43.0647,1828.8573],[-6.0672,43.0657,1800.4675],[-6.0818,43.0757,1901.0934],[-6.0848,43.0691,1808.7002],[-6.0917,43.0669,1997.821],[-6.0902,43.0598,1770.5066],[-6.0949,43.0488,1783.5062],[-6.0903,43.0439,1912.6062],[-6.0897,43.0381,1875.2756],[-6.0953,43.0339,1910.8176],[-6.0968,43.0306,2041.1427],[-6.1013,43.0319,1970.04],[-6.106,43.0293,1946.5189],[-6.1124,43.0294,2006.2687],[-6.1203,43.0242,2120.5327],[-6.1365,43.021,1998.4795],[-6.1483,43.0332,1980.021],[-6.1592,43.0355,1870.5579],[-6.1625,43.033,1945.9985],[-6.1673,43.0424,1853.0619],[-6.171,43.043,1999.2284],[-6.1783,43.0478,2000.8655],[-6.186,43.0495,1963.1649],[-6.1942,43.0428,1844.5786],[-6.2138,43.0466,1926.7186],[-6.2267,43.0089,1387.9392],[-6.2383,43.0143,1508.6549],[-6.2426,43.0135,1549.3529],[-6.2647,43.0171,1736.5399],[-6.2689,43.0214,1744.1157],[-6.2697,43.025,1806.7446],[-6.2735,43.0262,1832.6404],[-6.2851,43.0363,1871.8743],[-6.2902,43.0344,1839.4169],[-6.295,43.0269,1923.6527],[-6.3112,43.0288,1990.4825],[-6.3135,43.0313,2012.9891],[-6.3264,43.0313,2010.1213],[-6.3296,43.0425,1849.9021],[-6.333,43.0465,2001.9889],[-6.3381,43.0459,2046.6868],[-6.3406,43.0491,1943.1399],[-6.348,43.0497,1918.8783],[-6.3507999999999996,43.0531,1888.0956],[-6.3578,43.0566,1854.8677],[-6.359,43.0595,1850.8882],[-6.3633,43.0573,1860.1624],[-6.3619,43.0541,1786.9863],[-6.3644,43.0502,1793.7354],[-6.3739,43.0462,1902.7224],[-6.3734,43.0411,1866.5367],[-6.39,43.0405,1799.7169],[-6.3969,43.0383,1842.8726],[-6.3949,43.0326,1784.974],[-6.3916,43.0312,1783.3087],[-6.3907,43.0258,1650.5979],[-6.3942,43.0166,1654.8347],[-6.4022,43.0162,1704.833],[-6.4078,43.0185,1831.6232],[-6.411,43.0169,1842.0996],[-6.412,43.0086,1730.5327],[-6.4103,43.0016,1725.7067],[-6.4074,42.9995,1711.9341],[-6.4249,42.9876,1866.2771],[-6.4275,42.9876,1878.9846],[-6.437,42.993,1963.3763],[-6.4463,42.9821,1703.2599],[-6.4589,42.9836,1466.3584],[-6.4657,42.9863,1686.6038],[-6.4707,42.9916,1720.6899],[-6.4772,42.9919,1740.1925],[-6.4788,42.9897,1697.191],[-6.4781,42.9801,1512.5413],[-6.4723,42.9773,1559.1703],[-6.4745,42.9706,1609.7014],[-6.4729,42.9677,1766.4731],[-6.4684,42.9661,1718.4214],[-6.4622,42.9676,1688.9226],[-6.4516,42.9659,1562.9014],[-6.4422,42.9668,1467.6086],[-6.4335,42.9641,1447.8864],[-6.4415,42.9473,1587.8149],[-6.433,42.9397,1705.8169],[-6.4422,42.9393,1605.489],[-6.4511,42.9355,1676.311],[-6.4771,42.9339,1699.1093],[-6.486,42.929,1623.1045],[-6.4896,42.9202,1899.3064],[-6.4963,42.9215,1722.7349],[-6.5104,42.9287,1499.5906],[-6.5226,42.9235,1415.0044],[-6.5344,42.9221,1566.6185],[-6.5382,42.9196,1708.7678],[-6.5411,42.9125,1901.1853],[-6.5689,42.9147,1621.9156],[-6.571,42.917,1607.5077],[-6.5793,42.9185,1655.6879],[-6.5902,42.9167,1693.3555],[-6.5977,42.9185,1610.194],[-6.6064,42.9161,1643.6938],[-6.6128,42.9245,1611.2234],[-6.6284,42.9195,1645.7098],[-6.6321,42.9232,1682.2052],[-6.6386,42.9254,1805.6008],[-6.6466,42.9238,1646.5024],[-6.6568,42.9245,1833.2544],[-6.6605,42.9228,1752.0847],[-6.6671,42.9245,1789.3333],[-6.6909,42.9223,1829.8622],[-6.6958,42.9189,1864.6501],[-6.7126,42.915,1788.9957],[-6.7225,42.9175,1720.8223],[-6.7344,42.9076,1676.8623],[-6.7405,42.8994,1726.8074],[-6.7491,42.8941,1715.0375],[-6.7565,42.883,1833.0522],[-6.7603,42.884,1697.321],[-6.7736,42.8828,1842.7595],[-6.7732,42.8866,1797.563],[-6.7678,42.8902,1700.9375],[-6.768,42.8949,1582.0221],[-6.7705,42.8986,1600.1577],[-6.7896,42.9045,1703.1874],[-6.8009,42.9101,1452.1893],[-6.8115,42.9113,1343.7662],[-6.824,42.915,1350.1602],[-6.8479,42.9143,840.1595],[-6.8438,42.9062,1048.2092],[-6.833,42.8978,1049.8156],[-6.8276,42.8886,1347.6429],[-6.8276,42.8799,1470.8208],[-6.8259,42.8769,1516.3782],[-6.8148,42.8708,1666.7175],[-6.8197,42.8673,1653.032],[-6.8353,42.8736,1493.3059],[-6.8373,42.8774,1460.1051],[-6.8403,42.8781,1458.9192],[-6.8336,42.882,1449.019],[-6.8711,42.8738,1179.6613],[-6.8594,42.8485,1470.1422],[-6.853,42.8387,1786.6919],[-6.8481,42.8334,1811.2076],[-6.8412,42.8323,1819.168],[-6.844,42.8281,1697.9707],[-6.8402,42.8233,1781.1305],[-6.8513,42.8187,1824.6176],[-6.8542,42.8106,1819.0752],[-6.8628,42.8069,1718.0933],[-6.8691,42.8008,1733.8929],[-6.8686,42.7992,1730.249],[-6.8644,42.7974,1641.2172],[-6.8639,42.7928,1620.5608],[-6.8673,42.7871,1622.1332],[-6.8756,42.7824,1665.1422],[-6.8797,42.7823,1580.5493],[-6.8906,42.7773,1718.1121],[-6.8968,42.7719,1768.5588],[-6.8977,42.7667,1726.6067],[-6.8961,42.7651,1751.7771],[-6.8992,42.7651,1746.274],[-6.904,42.7595,1694.0736],[-6.9355,42.7408,1226.9427],[-6.9468,42.7415,1241.4604],[-6.9564,42.7556,1274.9199],[-6.9593,42.755,1257.6687],[-6.9677,42.7475,1135.1285],[-6.9658,42.7423,1101.8491],[-6.9666,42.7387,1042.8124],[-6.9727,42.7379,1137.8169],[-6.969,42.7294,1160.9391],[-6.9727,42.725,1106.6263],[-6.9836,42.7187,1326.5702],[-6.99,42.7266,1258.2365],[-6.9941,42.7256,1228.157],[-6.9993,42.7269,1211.234],[-7.0029,42.7238,1205.3993],[-7.0107,42.7236,1142.9592],[-7.0215,42.714,1288.3917],[-7.0198,42.7102,1274.9406],[-7.0249,42.7125,1391.2679],[-7.0289,42.7105,1380.6155],[-7.0366,42.7002,1060.9406],[-7.045,42.6947,1324.1984],[-7.0339,42.684,1239.0488],[-7.0317,42.6756,1053.2644],[-7.0216,42.6692,1016.0212],[-7.0206,42.6665,1030.2527],[-7.0154,42.6646,963.9158],[-7.0172,42.6611,1059.7186],[-7.0125,42.6578,1000.825],[-7.0203,42.6547,1069.5814],[-7.0213,42.6519,1078.1117],[-7.0089,42.6492,1159.2886],[-7.0042,42.6428,1424.7307],[-7.0129,42.6418,1371.6068],[-7.0177,42.6452,1307.1187],[-7.0289,42.6394,1465.0404],[-7.0316,42.6396,1472.9055],[-7.0379,42.636,1530.9132],[-7.0418,42.6361,1521.4724],[-7.0469,42.6327,1554.59],[-7.0479,42.626,1557.6299],[-7.0457,42.6222,1550.026],[-7.047,42.6123,1447.0134],[-7.0454,42.6042,1442.4869],[-7.05,42.5979,1275.4503],[-7.0442,42.5895,1243.9987],[-7.0347,42.5873,1281.4755],[-7.034,42.5841,1284.9226],[-7.0451,42.577,848.5399],[-7.0456,42.5743,808.9467],[-7.0484,42.5725,821.1523],[-7.0546,42.5716,993.6606],[-7.057,42.5643,1222.3894],[-7.0558,42.5597,1327.733],[-7.0626,42.5527,1368.7069],[-7.0688,42.5544,1256.0602],[-7.0645,42.551,1300.926],[-7.0641,42.5482,1282.0764],[-7.0708,42.5379,1404.8247],[-7.0674,42.5363,1392.1687],[-7.0618,42.5375,1430.5363],[-7.0597,42.5293,1427.854],[-7.0686,42.5182,1306.8921],[-7.0695,42.5132,1291.5889],[-7.0717,42.5104,1414.4502],[-7.0769,42.5082,1503.3953],[-7.0737,42.5067,1429.8335],[-7.0597,42.5066,1240.5942],[-7.0517,42.5086,1298.6704],[-7.0456,42.5078,1282.2769],[-7.0325,42.5043,1351.9183],[-7.0285,42.4978,1363.3859],[-7.0195,42.5015,1463.2201],[-7.0008,42.5057,1597.8171],[-7.0006,42.502,1521.1732],[-6.9972,42.4995,1490.2354],[-6.9789,42.4932,1501.6588],[-6.9734,42.494,1463.8384],[-6.9654,42.5127,1089.7563],[-6.9599,42.5177,1072.3972],[-6.9348,42.5192,1028.4612],[-6.9321,42.5205,993.7687],[-6.9249,42.5194,840.0114],[-6.9146,42.5101,879.3885],[-6.9164,42.5084,973.0397],[-6.9131,42.5071,963.7187],[-6.9062,42.5078,1062.7977],[-6.8971,42.5039,1020.8228],[-6.8766,42.4992,804.645],[-6.8599,42.4887,847.1024],[-6.8487,42.487,876.1375],[-6.8409,42.4889,781.9115],[-6.8372,42.4956,512.3343],[-6.8329,42.4922,481.826],[-6.8266,42.4929,631.4163],[-6.8226,42.4908,736.3608],[-6.8253,42.4857,687.856],[-6.8191,42.4823,837.0959],[-6.8146,42.4739,610.2737],[-6.8085,42.4694,403.9097],[-6.8113,42.4612,394.4912],[-6.8222,42.4539,386.9343],[-6.8201,42.4377,372.4368],[-6.8216,42.4333,369.9298],[-6.8145,42.4269,390.3417],[-6.8247,42.4259,377.9111],[-6.8208,42.4214,420.7645],[-6.8288,42.4168,362.1684],[-6.8311,42.4083,421.0047],[-6.8379,42.4091,367.2704],[-6.8434,42.4058,360.826],[-6.8334,42.3954,516.8658],[-6.8233,42.3919,833.3298],[-6.8207,42.3856,901.6794],[-6.8094,42.3846,1165.2904],[-6.8021,42.3863,1111.4404],[-6.8017,42.3837,1266.7361],[-6.7958,42.382,1315.2988],[-6.7878,42.3826,1270.2457],[-6.774,42.3788,1441.7465],[-6.7688,42.373,1418.9977],[-6.7664,42.365,1454.1603],[-6.7577,42.3675,1692.8053],[-6.7494,42.3628,1749.2657],[-6.7338,42.3591,1870.8273],[-6.7389,42.3448,1775.821],[-6.7381,42.3401,1797.9454],[-6.7406,42.3284,1844.6165],[-6.7369,42.325,1810.7551],[-6.7339,42.318,1804.5729],[-6.7396,42.3212,1781.6033],[-6.7363,42.3186,1781.9999],[-6.736,42.311,1811.4801],[-6.743,42.3033,1782.7615],[-6.741,42.2986,1828.1794],[-6.7524,42.2887,1688.3135],[-6.7552,42.2828,1791.1627],[-6.7658,42.271,1860.0214],[-6.7646,42.2679,1878.0],[-6.7669,42.2574,1938.6517],[-6.774,42.2542,2078.9165],[-6.7758,42.2555,2050.9526],[-6.7874,42.2542,1985.8877],[-6.794,42.2494,2091.6934],[-6.7928,42.2466,2064.2571],[-6.7957,42.2423,2097.449],[-6.8013,42.2408,2023.7168],[-6.803,42.2387,2031.4871],[-6.8017,42.2345,2007.4873],[-6.7949,42.2277,2007.1577],[-6.7949,42.2245,1951.6108],[-6.7908,42.2183,1889.6243],[-6.787,42.2157,1936.5812],[-6.7946,42.2122,1936.5544],[-6.7966,42.209,1894.5441],[-6.8022,42.2184,1795.7256],[-6.8158,42.2208,1761.8771],[-6.8296,42.2261,1683.8307],[-6.8435,42.2283,1625.6562],[-6.8566,42.2271,1721.45],[-6.8678,42.2231,1637.0892],[-6.8697,42.2237,1637.0892],[-6.8867,42.2143,1738.4387],[-6.8931,42.2072,1745.8828],[-6.8887,42.2018,1673.7828],[-6.9009,42.1896,1685.9089],[-6.9109,42.1884,1642.772],[-6.9146,42.1894,1601.2982],[-6.9382,42.1774,1486.8943],[-6.9434,42.1722,1520.9575],[-6.9409,42.1668,1487.2026],[-6.9465,42.1456,1215.1709],[-6.9444,42.1417,1330.9109],[-6.9563,42.1294,1405.2377],[-6.9652,42.1285,1425.8987],[-6.9732,42.1247,1325.0146],[-6.9814,42.1233,1216.0723],[-6.9863,42.1242,1042.5421],[-6.9897,42.1213,1041.3353],[-6.989,42.1165,1048.8247],[-6.9908,42.1151,1034.5],[-6.9887,42.1119,1034.5],[-6.9893,42.1077,1034.5],[-6.9917,42.1066,1067.5883],[-6.9921,42.1047,1047.0032],[-6.9899,42.1025,1034.5],[-6.9913,42.0995,1017.2858],[-6.9945,42.0997,1008.0562],[-6.995,42.1016,1006.5812],[-6.9978,42.1008,1015.8009],[-7.0027,42.0963,1006.3821],[-7.002,42.091,1009.11],[-7.0002,42.0897,992.6849],[-7.003,42.0877,984.0842],[-7.0031,42.0839,984.5519],[-7.0123,42.0851,976.9111],[-7.0168,42.0812,981.1778],[-7.0199,42.0831,960.8871],[-7.0334,42.0742,1391.1766],[-7.0339,42.0715,1413.2279],[-7.0309,42.0633,1456.5173],[-7.0219,42.0609,1353.9661],[-7.0125,42.0527,1105.5365],[-6.9945,42.0514,1306.5232],[-6.9746,42.0551,1635.1083],[-6.973,42.0391,1343.3248],[-6.9645,42.0337,1240.1316],[-6.961,42.0272,1457.9175],[-6.9663,42.0238,1373.1157],[-6.9695,42.0153,1142.9873],[-6.9762,42.009,1052.5121],[-6.9794,42.0002,1013.5721],[-6.9869,41.997,1000.4512],[-6.9863,41.9948,993.632],[-6.9915,41.9859,957.0869],[-6.9834,41.9729,979.7968],[-6.9793,41.9738,979.3336],[-6.9578,41.9689,989.7329],[-6.9503,41.9538,846.2949],[-6.9472,41.951,766.6367],[-6.9443,41.9446,925.7932],[-6.9415,41.9439,937.5082],[-6.9332,41.9464,994.6267],[-6.9259,41.9439,1021.7256],[-6.9116,41.9441,1063.3461],[-6.892,41.9398,1138.547],[-6.8851,41.9403,1113.1129],[-6.8747,41.9438,1057.9927],[-6.8695,41.9484,1058.1603],[-6.8488,41.9424,947.705],[-6.8337,41.9443,1083.6943],[-6.8305,41.9435,1187.9084],[-6.8216,41.946,1266.5837],[-6.81,41.9695,1286.5793],[-6.8113,41.9925,1470.2642],[-6.7979,41.9886,1440.9238],[-6.7855,41.9887,1405.6011],[-6.7687,41.9841,1332.2118],[-6.7673,41.9747,1287.5974],[-6.7506,41.9436,1180.7526],[-6.7262,41.937,809.3236],[-6.7148,41.9388,737.4727],[-6.7145,41.9376,739.757],[-6.7,41.9333,848.0024],[-6.6357,41.942,856.6151],[-6.6214,41.9397,810.9522],[-6.617,41.9412,724.592],[-6.6152,41.945,726.1985],[-6.6097,41.9481,749.3575],[-6.5994,41.9483,814.2606],[-6.5891,41.9629,1033.3204],[-6.5883,41.9675,1062.8843],[-6.5749,41.9608,1002.0701],[-6.5494,41.9445,949.0767],[-6.546,41.9361,746.2284],[-6.5459,41.9308,732.2117],[-6.5499,41.9293,717.4548],[-6.5476,41.9277,708.1577],[-6.5501,41.926,710.0462],[-6.5488,41.9233,723.3019],[-6.5577,41.9103,803.2414],[-6.5569,41.9074,786.368],[-6.5613,41.8959,741.085],[-6.5658,41.894,799.9532],[-6.5712,41.8835,875.9182],[-6.5378,41.8767,763.5011],[-6.5176,41.8751,701.2341],[-6.5155,41.8716,631.272],[-6.5201,41.8648,627.859],[-6.5257,41.8601,623.2178],[-6.5224,41.8541,620.4373],[-6.5275,41.8498,624.6335],[-6.5283,41.8469,678.02],[-6.526,41.843,640.3705],[-6.53,41.8399,609.179],[-6.5322,41.8354,619.2632],[-6.532,41.8331,608.772],[-6.5287,41.8308,603.6925],[-6.5303,41.8288,631.3685],[-6.5283,41.8282,601.166],[-6.5315,41.8226,598.6735],[-6.5274,41.8208,592.9257],[-6.5358,41.8181,598.2782],[-6.5331,41.8156,601.2441],[-6.5333,41.814,593.601],[-6.5386,41.8127,620.614],[-6.5371,41.8075,579.5577],[-6.5428,41.8055,581.7491],[-6.5391,41.8013,582.0139],[-6.5432,41.8003,574.0284],[-6.543,41.7964,587.1193],[-6.547,41.795,602.4446],[-6.5434,41.7891,589.7834],[-6.5438,41.7839,588.4219],[-6.5472,41.78,599.4681],[-6.5436,41.7785,584.3965],[-6.5497,41.7768,561.0466],[-6.5501,41.773,573.8887],[-6.5551,41.7672,575.795],[-6.5552,41.7575,542.5574],[-6.5582,41.7534,566.2758],[-6.5647,41.7515,543.5561],[-6.5689,41.7436,538.3032],[-6.5665,41.7417,545.6652],[-6.5614,41.7418,546.215],[-6.5592,41.7384,559.1147],[-6.556,41.7374,534.2914],[-6.5577,41.7345,542.2812],[-6.5553,41.7252,579.6594],[-6.5517,41.7265,528.7792],[-6.5488,41.7255,531.9742],[-6.5549,41.721,526.8855],[-6.5501,41.7186,542.0978],[-6.5537,41.7168,582.425],[-6.5486,41.7143,557.1471],[-6.5483,41.7128,535.8045],[-6.5502,41.7115,525.1058],[-6.546,41.7077,524.5208],[-6.5471,41.7042,551.8027],[-6.5431,41.704,551.0109],[-6.5425,41.7011,538.4848],[-6.5453,41.6986,539.1991],[-6.5517,41.7024,542.5167],[-6.5541,41.7013,525.8667],[-6.5549,41.6986,508.2992],[-6.5529,41.6954,540.3397],[-6.5538,41.6933,514.6688],[-6.5483,41.6856,724.1345],[-6.5343,41.6766,681.6088],[-6.5276,41.6753,761.5093],[-6.519,41.6689,800.6046],[-6.5125,41.6612,737.0226],[-6.4995,41.6571,795.9622],[-6.4887,41.6575,747.6427],[-6.4694,41.6662,755.9008],[-6.4573,41.6666,798.8372],[-6.4525,41.6754,825.3302],[-6.4523,41.6809,922.267],[-6.4443,41.6848,928.8862],[-6.4405,41.6844,928.2437],[-6.4362,41.6807,949.8809],[-6.4343,41.6821,930.9376],[-6.4256,41.6794,885.6777],[-6.4137,41.6785,773.3074],[-6.406,41.6809,848.9387],[-6.396,41.6772,879.4678],[-6.3745,41.6737,820.14],[-6.3546,41.6764,883.7772],[-6.3023,41.6618,892.8918],[-6.283,41.6523,874.3392],[-6.2544,41.633,873.1915],[-6.2358,41.607,763.1519],[-6.2301,41.6037,766.0759],[-6.2087,41.5991,726.4099],[-6.2014,41.5945,758.909],[-6.1969,41.5895,681.0624],[-6.196,41.5846,681.9463],[-6.1891,41.5748,546.5139],[-6.2013,41.5682,541.2483],[-6.2117,41.5591,607.7562],[-6.2173,41.5505,542.397],[-6.2174,41.5427,570.4014],[-6.2266,41.5346,526.2432],[-6.2369,41.5213,547.9407],[-6.2426,41.5192,544.4535],[-6.2458,41.5158,536.7144],[-6.2577,41.5141,535.8922],[-6.258,41.5119,529.1742],[-6.251,41.5002,524.6923],[-6.2558,41.4971,560.9452],[-6.2658,41.4982,519.7455],[-6.2679,41.4943,517.0],[-6.2618,41.4868,477.261],[-6.2686,41.4871,493.5732],[-6.284,41.479,522.2742],[-6.2859,41.4665,482.1356],[-6.2962,41.4598,469.5552],[-6.3053,41.4497,463.9023],[-6.3049,41.4464,463.1859],[-6.2948,41.4362,467.9908],[-6.3,41.4287,461.9525],[-6.31,41.4194,461.599],[-6.319,41.4155,486.8983],[-6.3268,41.4164,464.0445],[-6.3333,41.4103,460.0605],[-6.3324,41.4052,460.5768],[-6.3201,41.4009,460.4275],[-6.3172,41.3971,456.0],[-6.3176,41.3939,457.1205],[-6.3154,41.3901,473.1142],[-6.3176,41.3857,457.6425],[-6.3258,41.3868,459.3484],[-6.3413,41.38,463.5415],[-6.3525,41.3783,472.7523],[-6.3617,41.3834,503.14],[-6.3657,41.3883,414.0967],[-6.3666,41.3934,397.0837],[-6.3713,41.392,426.3404],[-6.3761,41.3874,433.9633],[-6.3896,41.3847,400.0836],[-6.3929,41.3788,412.5449],[-6.3935,41.3698,396.7701],[-6.3853,41.3631,402.8121],[-6.3779,41.3637,401.4976],[-6.3762,41.3616,393.0],[-6.3768,41.3593,393.0],[-6.3797,41.3563,395.0016],[-6.3921,41.3499,414.8621],[-6.4051,41.3503,411.0771],[-6.4153,41.3479,392.375],[-6.4265,41.3333,399.1821],[-6.4181,41.3261,392.0],[-6.4338,41.3202,392.0],[-6.439,41.3133,401.993],[-6.4395,41.3105,441.9769],[-6.4371,41.3079,392.0],[-6.4376,41.3053,401.8699],[-6.4493,41.2988,392.0],[-6.4594,41.2977,392.0],[-6.4688,41.3013,390.8409],[-6.4774,41.295,326.8172],[-6.4869,41.2913,330.7498],[-6.4902,41.2887,356.4435],[-6.4913,41.2849,386.8224],[-6.4817,41.2794,337.1406],[-6.4784,41.2758,334.4521],[-6.4804,41.2735,386.2579],[-6.4963,41.2661,331.8452],[-6.5115,41.2644,339.3379],[-6.5167,41.2738,347.6258],[-6.5226,41.2756,335.4281],[-6.5249,41.2711,340.0027],[-6.5303,41.2669,338.6088],[-6.5471,41.258,344.6706],[-6.5516,41.2456,334.4733],[-6.567,41.2426,328.5942],[-6.5713,41.239,349.7206],[-6.5797,41.2389,330.1393],[-6.5846,41.241,325.0],[-6.5869,41.246,330.0345],[-6.5866,41.2524,333.4493],[-6.5916,41.2552,357.1359],[-6.5952,41.2529,325.0],[-6.5967,41.2459,358.0818],[-6.5998,41.2435,342.164],[-6.6072,41.2494,324.5],[-6.6203,41.2476,324.0],[-6.6287,41.2428,324.0],[-6.6358,41.2441,324.0],[-6.6419,41.2479,324.0],[-6.6484,41.2475,324.0],[-6.6529,41.2353,328.2771],[-6.6613,41.2333,326.7477],[-6.6714,41.2232,324.0],[-6.6795,41.2199,324.0],[-6.6849,41.2122,333.0202],[-6.6914,41.2096,220.6512],[-6.6915,41.207,197.125],[-6.6883,41.2027,195.25],[-6.6906,41.1959,218.3909],[-6.6923,41.1931,207.5486],[-6.6995,41.1924,194.394],[-6.6967,41.1887,195.2692],[-6.6975,41.1846,196.9727],[-6.7004,41.181,200.9321],[-6.7084,41.177,217.3334],[-6.7091,41.1726,197.015],[-6.7197,41.1658,236.4082],[-6.7309,41.1615,189.5],[-6.7374,41.155,232.4886],[-6.7413,41.1483,192.5508],[-6.7455,41.147,225.9548],[-6.7527,41.1405,203.265],[-6.7588,41.1397,189.5],[-6.7679,41.1348,189.5],[-6.7711,41.1301,189.5],[-6.7707,41.124,198.2834],[-6.7613,41.1139,194.3837],[-6.7596,41.1078,189.0],[-6.7542,41.104,189.0],[-6.7587,41.0978,189.0],[-6.7626,41.0958,189.0],[-6.7634,41.092,189.0],[-6.7692,41.0885,189.0],[-6.7743,41.0771,188.125],[-6.7908,41.0565,186.625],[-6.809,41.0447,127.4174],[-6.8076,41.0398,158.9805],[-6.8089,41.0365,125.0],[-6.8338,41.0285,142.2317],[-6.8685,41.0269,137.0315],[-6.8799,41.0282,132.0932],[-6.9161,41.0384,127.421],[-6.9313,41.0294,124.0],[-6.9296,41.0238,140.193],[-6.9316,41.0168,147.1426],[-6.9246,41.011,130.2848],[-6.9216,41.0025,164.8578],[-6.9088,40.9989,165.5008],[-6.9035,40.9897,140.1573],[-6.8904,40.9811,149.0605],[-6.8891,40.9761,155.0633],[-6.8788,40.9663,175.2034],[-6.8755,40.9609,170.3906],[-6.8669,40.9576,204.4761],[-6.8591,40.9497,224.6042],[-6.8524,40.9364,204.5625],[-6.8532,40.9312,204.2195],[-6.8476,40.9246,212.0636],[-6.8488,40.9228,218.4806],[-6.8473,40.9179,228.837],[-6.849,40.9142,233.417],[-6.8489,40.9025,282.2681],[-6.8427,40.8975,366.8409],[-6.8385,40.8905,286.6401],[-6.8303,40.8855,327.66],[-6.8225,40.8849,319.0129],[-6.82,40.881,317.6129],[-6.809,40.8824,332.4479],[-6.8047,40.8707,343.9172],[-6.8052,40.8652,345.884],[-6.8019,40.8604,345.1276],[-6.8039,40.8567,372.014],[-6.8013,40.8526,371.9657],[-6.8019,40.8495,407.7466],[-6.8002,40.8486,388.0921],[-6.8019,40.8456,399.0772],[-6.8076,40.8458,432.1005],[-6.8091,40.8438,451.1365],[-6.8122,40.8434,489.9575],[-6.8122,40.8421,489.9575],[-6.8165,40.8439,541.2062],[-6.8193,40.8421,537.3398],[-6.8246,40.8451,554.7099],[-6.826,40.8434,553.6849],[-6.8269,40.8401,596.2974],[-6.8241,40.8401,581.5885],[-6.8212,40.8369,579.0415],[-6.821,40.8335,603.8506],[-6.8234,40.8343,589.0388],[-6.8234,40.8272,606.8326],[-6.8251,40.8259,622.3112],[-6.8231,40.8241,619.1378],[-6.8237,40.8179,623.9606],[-6.8173,40.8075,643.5159],[-6.8182,40.8018,645.6876],[-6.8169,40.7971,648.7947],[-6.8196,40.7945,648.5907],[-6.8192,40.7925,649.4581],[-6.8222,40.7876,660.5827],[-6.8257,40.7849,666.0262],[-6.8254,40.7814,674.1561],[-6.8278,40.7761,674.994],[-6.8259,40.7678,679.7084],[-6.8312,40.7528,686.7102],[-6.8286,40.7446,692.729],[-6.8305,40.7428,691.979],[-6.8286,40.7385,694.3608],[-6.8249,40.7371,695.4411],[-6.8247,40.7299,706.6032],[-6.8199,40.7281,707.1667],[-6.8193,40.7257,705.8738],[-6.8174,40.7255,708.7862],[-6.8108,40.7169,708.1942],[-6.8132,40.7084,713.1398],[-6.8113,40.7019,716.9483],[-6.807,40.6979,722.2359],[-6.8068,40.6933,722.5533],[-6.805,40.6929,723.8923],[-6.8058,40.6906,723.3591],[-6.8017,40.6779,731.983],[-6.8056,40.6685,738.526],[-6.794,40.6613,777.8863],[-6.7995,40.6545,785.2076],[-6.8062,40.6327,791.2611],[-6.8154,40.6182,790.3879],[-6.8276,40.603,792.8975],[-6.8381,40.5942,789.7086],[-6.8368,40.5846,785.2115],[-6.8378,40.5799,785.9924],[-6.8413,40.5766,784.8144],[-6.8454,40.5659,786.8314],[-6.83,40.563,770.513],[-6.8232,40.5582,761.9483],[-6.8083,40.5544,761.3372],[-6.8056,40.5549,755.6525],[-6.8046,40.5504,757.9657],[-6.8009,40.5503,765.6887],[-6.8054,40.5408,771.3547],[-6.8052,40.5359,783.2964],[-6.8042,40.5312,804.9327],[-6.7974,40.5224,761.0558],[-6.7953,40.5114,725.6808],[-6.8108,40.5052,771.2237],[-6.8147,40.5016,774.9556],[-6.818,40.4946,790.4354],[-6.8176,40.4901,799.2323],[-6.8227,40.4832,807.6336],[-6.8352,40.4754,764.4169],[-6.8497,40.4515,832.5245],[-6.8387,40.4147,795.8184],[-6.8345,40.4077,819.416],[-6.8219,40.3956,860.0887],[-6.8125,40.3909,870.4681],[-6.8095,40.3873,861.7842],[-6.8105,40.3849,866.1469],[-6.8092,40.3837,861.5198],[-6.8037,40.3815,856.9899],[-6.7934,40.3721,864.7528],[-6.7842,40.3699,892.0668],[-6.781,40.3643,896.0402],[-6.7896,40.3599,902.2516],[-6.7939,40.3554,895.9785],[-6.7903,40.3342,864.6393],[-6.7941,40.3284,866.1262],[-6.804,40.3244,873.9149],[-6.817,40.3253,887.6143],[-6.8215,40.3224,889.5418],[-6.8246,40.3228,898.5582],[-6.8266,40.3189,906.1857],[-6.8323,40.3173,912.1201],[-6.8347,40.3145,916.3811],[-6.8401,40.3137,935.2548],[-6.8477,40.3069,1007.4435],[-6.8614,40.2996,1119.9777],[-6.8641,40.2951,1111.0745],[-6.8644,40.2842,1080.8105],[-6.8622,40.2792,1123.9688],[-6.8648,40.2705,1217.3945],[-6.8467,40.2544,1200.2509],[-6.8398,40.2556,1228.7217],[-6.8371,40.2486,1224.4827],[-6.8344,40.2476,1233.7224],[-6.8226,40.2482,1278.1215],[-6.8232,40.2458,1248.4219],[-6.8211,40.2447,1214.9886],[-6.8105,40.2444,1210.546],[-6.8066,40.2415,1227.3645],[-6.8,40.2421,1233.021],[-6.802,40.2496,1082.2961],[-6.7814,40.2491,1086.9563],[-6.778,40.2455,1028.8977],[-6.7555,40.2389,1447.6509],[-6.7554,40.2463,1305.1406],[-6.7517,40.2499,1197.7085],[-6.7413,40.2562,996.0143],[-6.7351,40.2572,985.7369],[-6.7266,40.265,1002.3896],[-6.7181,40.2692,1009.2582],[-6.7114,40.2669,946.8875],[-6.7097,40.2605,910.7923],[-6.7031,40.2511,883.118],[-6.69,40.2427,945.5339],[-6.6883,40.2466,912.4423],[-6.6777,40.251,972.9438],[-6.6776,40.258,924.4957],[-6.6716,40.2632,956.0201],[-6.6398,40.2689,1056.8477],[-6.6345,40.2647,1180.6937],[-6.6251,40.2666,1184.1255],[-6.6147,40.2661,1167.4003],[-6.5973,40.2716,1199.9559],[-6.5869,40.2707,1343.803],[-6.5835,40.2745,1267.0332],[-6.5709,40.2795,1131.2112],[-6.5687,40.2828,1132.8174],[-6.5561,40.2908,1190.7825],[-6.5595,40.2958,1169.8588],[-6.5559,40.3042,1053.0759],[-6.5566,40.306399999999996,1071.0144],[-6.5646,40.3146,1070.4757],[-6.5603,40.3291,825.6669],[-6.5362,40.3473,914.4028],[-6.4933,40.362,1146.0803],[-6.4857,40.3632,1204.614],[-6.4746,40.3701,1179.4016],[-6.462,40.3727,1138.0063],[-6.4501,40.3709,1185.0585],[-6.4382,40.3728,1375.5413],[-6.441,40.378,1228.2856],[-6.4395,40.3816,1170.9818],[-6.4242,40.3915,1200.1342],[-6.4187,40.3993,1311.0544],[-6.4077,40.402,1349.6215],[-6.3911,40.399,1352.3258],[-6.3831,40.4007,1467.0381],[-6.3759,40.4002,1387.7937],[-6.3618,40.4071,1561.8405],[-6.3629,40.4117,1504.53],[-6.3613,40.4154,1532.671],[-6.3657,40.4173,1443.9833],[-6.3654,40.4224,1495.3613],[-6.3458,40.4371,1263.1213],[-6.3445,40.4428,1241.0516],[-6.3346,40.4475,1196.5074],[-6.3252,40.4477,1196.2745],[-6.3222,40.4505,1163.7704],[-6.2943,40.452,1043.8928],[-6.2877,40.4576,1249.6432],[-6.2752,40.4585,1228.8875],[-6.2709,40.4609,1105.4547],[-6.2683,40.4676,1075.0015],[-6.2647,40.4709,1119.0254],[-6.2549,40.47,1126.2756],[-6.2398,40.4859,1363.7557],[-6.2312,40.4867,1351.0042],[-6.2119,40.4827,1409.0298],[-6.2013,40.4829,1578.14],[-6.1911,40.4722,1436.0405],[-6.1876,40.4713,1387.6099],[-6.1865,40.4664,1217.2018],[-6.1803,40.4622,1235.4803],[-6.1691,40.4581,1239.6168],[-6.1576,40.457,938.7807],[-6.1524,40.4526,972.4631],[-6.1558,40.4478,1006.176],[-6.1469,40.4361,641.7239],[-6.1322,40.4369,996.4917],[-6.1201,40.4427,1117.2346],[-6.116,40.4416,1162.4426],[-6.1169,40.4353,777.3668],[-6.1192,40.4351,764.8491],[-6.125,40.4294,589.4259],[-6.1294,40.4208,447.9041],[-6.1188,40.4193,451.4244],[-6.1179,40.4159,421.7114],[-6.107,40.414,423.4635],[-6.104,40.415,423.3025],[-6.0973,40.4131,406.2328],[-6.0927,40.4112,411.7724],[-6.0918,40.408,398.498],[-6.0876,40.4087,397.9377],[-6.085,40.407,392.1077],[-6.0828,40.403,389.0362],[-6.075,40.4034,382.4757],[-6.0738,40.4008,384.9117],[-6.068,40.3993,386.9058],[-6.0648,40.3966,382.2229],[-6.0669,40.3951,381.3223],[-6.0741,40.3958,450.8948],[-6.0761,40.391,386.6797],[-6.0835,40.3923,419.9244],[-6.0852,40.3899,386.7429],[-6.0837,40.3885,385.045],[-6.0724,40.3876,380.5],[-6.0747,40.3822,388.8246],[-6.0841,40.38,389.0826],[-6.0862,40.378,388.9837],[-6.0863,40.3751,385.9754],[-6.0811,40.3731,380.0],[-6.0823,40.3632,380.0],[-6.0858,40.3608,380.0],[-6.0923,40.3617,380.0],[-6.0968,40.3565,380.0],[-6.1021,40.3584,380.0],[-6.1056,40.3568,382.7672],[-6.0676,40.3475,819.4871],[-6.0521,40.3416,995.8867],[-6.0456,40.3429,968.3993],[-6.0276,40.3395,854.1744],[-6.0159,40.3403,602.712],[-6.0195,40.3226,891.4079],[-6.0163,40.3165,954.7474],[-6.0113,40.3133,961.0139],[-6.0061,40.3061,913.0389],[-5.992,40.299,777.318],[-5.9788,40.297,571.3456],[-5.9755,40.2932,536.9536],[-5.9684,40.2896,546.8555],[-5.9648,40.2915,561.8481],[-5.9416,40.2844,670.3978],[-5.9377,40.2811,577.4617],[-5.9207,40.2809,619.4009],[-5.9171,40.2777,598.5889],[-5.9139,40.2871,790.4117],[-5.9082,40.2901,828.1797],[-5.896,40.3053,932.3853],[-5.8922,40.3119,990.0054],[-5.8936,40.3182,1077.7878],[-5.8841,40.3266,1183.4735],[-5.874,40.3266,1143.436],[-5.8675,40.3314,1035.8984],[-5.8577,40.3344,1025.5172],[-5.8549,40.3384,973.2858],[-5.8522,40.337,932.5651],[-5.8498,40.3382,885.9943],[-5.8536,40.3315,859.4138],[-5.847,40.3281,1051.761],[-5.8248,40.3442,1167.1119],[-5.8225,40.3479,1180.0388],[-5.8167,40.3509,1133.5687],[-5.8083,40.35,1256.6956],[-5.7974,40.3533,1565.045],[-5.7938,40.3485,1401.0752],[-5.7819,40.3125,1566.8735],[-5.7892,40.3065,1411.5957],[-5.7932,40.3003,1251.2107],[-5.8026,40.2976,1157.6252],[-5.793,40.2867,1556.702],[-5.7649,40.2808,2153.6216],[-5.7578,40.2825,2183.7227],[-5.7443,40.2889,2359.5093],[-5.7374,40.2941,2346.8882],[-5.7341,40.2925,2359.4141],[-5.7051,40.2912,2016.6061],[-5.7002,40.2889,2055.5125],[-5.6925,40.2921,2012.6008],[-5.6826,40.2839,1655.7152],[-5.6565,40.2702,1301.1453],[-5.6597,40.2574,1497.5326],[-5.6491,40.2497,1697.6421],[-5.6261,40.2477,1998.5369],[-5.6219,40.2459,1990.469],[-5.621,40.2414,1994.5005]],
[[-4.2698,40.6755,1585.1599],[-4.2632,40.6669,1539.5903],[-4.2565,40.6638,1520.1971],[-4.2574,40.6534,1520.0111],[-4.2679,40.6549,1475.9165],[-4.3016,40.6527,1521.3745],[-4.3196,40.6475,1550.8542],[-4.3233,40.6522,1583.1023],[-4.3247,40.6577,1623.1978],[-4.3185,40.6617,1603.329],[-4.3173,40.6669,1619.2927],[-4.2942,40.6765,1648.3485],[-4.2903,40.6804,1630.1587],[-4.2855,40.6805,1603.3005],[-4.2698,40.6755,1585.1599]]],
[[[-2.702,42.7844,939.202],[-2.7107,42.7836,956.4006],[-2.7187,42.7887,791.9604],[-2.7281,42.7912,813.7836],[-2.7315,42.7945,883.6667],[-2.7436,42.7922,855.4283],[-2.7582,42.7939,929.1054],[-2.7674,42.7924,896.6961],[-2.7729,42.794,879.6198],[-2.8103,42.7915,748.3337],[-2.8178,42.79,684.8019],[-2.8268,42.7844,539.2551],[-2.8305,42.7921,687.6205],[-2.8354,42.7963,773.191],[-2.8418,42.7762,511.6285],[-2.8452,42.778,542.2068],[-2.8537,42.7682,501.9578],[-2.8538,42.7666,502.6535],[-2.8483,42.7633,487.0883],[-2.8523,42.7621,502.4494],[-2.8532,42.7586,470.7764],[-2.8512,42.7528,466.3662],[-2.8558,42.7525,472.3499],[-2.8542,42.747,486.1061],[-2.8619,42.7455,475.6262],[-2.8684,42.7399,476.5936],[-2.8649,42.7371,510.8979],[-2.8542,42.7364,544.2131],[-2.8467,42.7307,602.6492],[-2.8552,42.7287,565.3032],[-2.8516,42.7251,576.8806],[-2.8442,42.7245,654.1606],[-2.8289,42.719,630.3773],[-2.8253,42.7089,544.4728],[-2.811,42.7067,498.9709],[-2.8067,42.7023,606.6843],[-2.7954,42.6979,760.8622],[-2.7845,42.6989,783.516],[-2.7783,42.6857,558.5355],[-2.7705,42.6766,689.0703],[-2.7707,42.6727,751.6163],[-2.7757,42.6702,803.5735],[-2.7705,42.6687,868.0767],[-2.7678,42.666,905.7961],[-2.7489,42.6659,955.8591],[-2.735,42.6621,1036.7883],[-2.7265,42.6637,840.6004],[-2.718,42.662,755.5786],[-2.7145,42.6639,780.2828],[-2.7147,42.6696,729.8436],[-2.7053,42.6738,656.3254],[-2.6992,42.6748,645.9179],[-2.6798,42.6716,778.6104],[-2.6778,42.6692,761.1727],[-2.6706,42.6698,749.4765],[-2.6663,42.6662,760.5096],[-2.6591,42.6724,667.3983],[-2.6539,42.67,706.7839],[-2.6517,42.661,746.3165],[-2.6348,42.6478,953.3149],[-2.6318,42.6492,950.1473],[-2.6186,42.6486,989.8107],[-2.6133,42.6468,1003.4099],[-2.6039,42.6496,955.6796],[-2.6011,42.6478,964.0579],[-2.5998,42.6507,913.0896],[-2.5848,42.6516,872.3315],[-2.5649,42.6445,855.9107],[-2.5602,42.6473,781.0751],[-2.5607,42.6482,781.0751],[-2.5519,42.6492,787.6229],[-2.5478,42.6451,794.2106],[-2.5515,42.6407,750.9857],[-2.5491,42.6376,730.4664],[-2.5382,42.6387,701.392],[-2.5173,42.6463,780.4462],[-2.5173,42.6542,837.8942],[-2.5232,42.665,803.8306],[-2.522,42.684,731.3654],[-2.5354,42.6875,785.7341],[-2.5393,42.6866,817.5925],[-2.5483,42.6688,778.7497],[-2.5676,42.6705,788.3505],[-2.5732,42.6681,799.7875],[-2.5777,42.6682,798.9791],[-2.5794,42.6689,783.4543],[-2.5781,42.674,846.1523],[-2.5941,42.69,689.4082],[-2.6038,42.6956,620.5906],[-2.6089,42.696,620.3599],[-2.6081,42.7071,652.517],[-2.603,42.7087,670.1636],[-2.6003,42.7153,714.2089],[-2.5924,42.7106,644.1794],[-2.5899,42.7108,662.6974],[-2.5726,42.7252,763.1267],[-2.5702,42.7325,826.2272],[-2.567,42.7373,906.9896],[-2.5646,42.7369,911.9753],[-2.5625,42.7413,978.7851],[-2.5641,42.747,1011.2921],[-2.5589,42.7532,1069.7303],[-2.5583,42.7627,1124.8311],[-2.5648,42.7629,1131.4452],[-2.567,42.759,1082.4528],[-2.575,42.7547,1045.2269],[-2.5893,42.7503,803.8692],[-2.5917,42.7517,822.3741],[-2.5923,42.7593,950.7858],[-2.6024,42.7659,1014.9594],[-2.6023,42.7706,992.9361],[-2.609,42.7708,995.627],[-2.6143,42.7684,1007.4231],[-2.6178,42.7708,984.2421],[-2.6207,42.7694,960.1055],[-2.624,42.7705,910.6422],[-2.6327,42.7656,934.2038],[-2.6401,42.7663,902.2117],[-2.6437,42.7647,880.178],[-2.6455,42.7672,831.2529],[-2.6515,42.7675,849.4486],[-2.6533,42.7722,788.9854],[-2.6671,42.7745,753.9225],[-2.6678,42.7724,730.4777],[-2.6789,42.7798,783.1738],[-2.6936,42.779,851.5554],[-2.6948,42.7819,908.259],[-2.702,42.7844,939.202]]],
[[[-4.0884,42.8185,966.4541],[-4.0948,42.824,1003.3192],[-4.1019,42.8251,1020.8995],[-4.107,42.8277,1063.526],[-4.1124,42.8223,986.8096],[-4.113,42.8167,970.9075],[-4.1052,42.8088,833.2954],[-4.1088,42.8031,803.3884],[-4.101,42.7939,827.1957],[-4.089,42.7999,779.5944],[-4.0884,42.8185,966.4541]]],
[[[-4.1785,42.8161,897.7875],[-4.1745,42.8116,909.7402],[-4.161,42.8131,863.7431],[-4.161,42.8184,893.9901],[-4.163,42.8209,937.1325],[-4.1763,42.8234,962.4359],[-4.1823,42.8203,919.1136],[-4.1785,42.8161,897.7875]]]]}}