{"type":"Feature","properties":{"GID_3":"ESP.16.1.6_1","GID_0":"ESP","country":"Spain","GID_1":"ESP.16_1","province":"PaísVasco","NL_NAME_1":"NA","GID_2":"ESP.16.1_1","county":"Álava","NL_NAME_2":"NA","city":"n.a.(6)","VARNAME_3":"NA","NL_NAME_3":"NA","TYPE_3":"Comarca","ENGTYPE_3":"Comarca","CC_3":"NA","HASC_3":"NA","name":"n.a.(6).city"},
"geometry":{"type": "MultiPolygon","coordinates": [[[[-2.578,42.483,388.5555],[-2.5745,42.491,397.1298],[-2.5675,42.4941,397.4507],[-2.5568,42.4851,399.7921],[-2.5298,42.4839,380.5],[-2.5293,42.4854,380.5],[-2.5377,42.4901,384.7007],[-2.5378,42.494,381.4915],[-2.5195,42.508,394.9181],[-2.5139,42.5183,378.3008],[-2.5097,42.5201,377.892],[-2.5072,42.5187,381.1522],[-2.5053,42.5135,379.9454],[-2.5101,42.505,380.1324],[-2.518,42.4996,373.8458],[-2.5191,42.4957,377.3271],[-2.5147,42.4901,394.0158],[-2.477,42.4868,373.9032],[-2.4725,42.4925,428.7206],[-2.4491,42.4969,441.7432],[-2.4385,42.4894,408.2662],[-2.4207,42.4893,395.2175],[-2.4233,42.4996,420.6575],[-2.4237,42.5096,430.8761],[-2.422,42.5117,442.1215],[-2.4093,42.516,482.0568],[-2.3922,42.5169,449.4934],[-2.3932,42.5231,494.8476],[-2.3982,42.5294,519.5767],[-2.3984,42.5342,539.4023],[-2.401,42.5385,543.3711],[-2.4001,42.5432,568.5284],[-2.396,42.5468,527.6342],[-2.3899,42.5491,604.345],[-2.3905,42.5607,672.2568],[-2.393,42.5646,670.1328],[-2.4,42.5891,704.9532],[-2.3967,42.5991,795.3779],[-2.3993,42.5979,847.828],[-2.4119,42.6003,877.6938],[-2.4185,42.6071,935.6729],[-2.4211,42.6071,970.669],[-2.4248,42.6046,952.9607],[-2.4249,42.6002,890.0124],[-2.4295,42.5973,824.3263],[-2.4437,42.5747,678.0535],[-2.4532,42.5671,668.3407],[-2.46,42.5788,649.4659],[-2.4622,42.5874,739.2599],[-2.4725,42.5894,717.5913],[-2.4837,42.5892,729.3831],[-2.4889,42.5877,661.1252],[-2.4906,42.5854,624.0422],[-2.4943,42.6012,739.1827],[-2.4993,42.6115,889.1649],[-2.5,42.6165,1118.2725],[-2.5165,42.6171,1001.7796],[-2.5445,42.6117,1258.953],[-2.5815,42.5996,1230.3179],[-2.5973,42.5994,1313.4238],[-2.6258,42.6049,1277.6887],[-2.6312,42.6038,1342.6675],[-2.644,42.5967,1202.698],[-2.6673,42.5924,1159.4725],[-2.6817,42.5954,1096.3911],[-2.6805,42.5945,1096.3911],[-2.686,42.5831,785.7596],[-2.687,42.5597,580.152],[-2.6914,42.5428,496.2688],[-2.7054,42.5168,422.4241],[-2.6853,42.5202,438.2952],[-2.6815,42.5237,429.078],[-2.6757,42.5257,480.5817],[-2.6773,42.5101,413.0389],[-2.6757,42.509,420.6226],[-2.6657,42.5098,425.6919],[-2.6565,42.504,418.5842],[-2.6498,42.4855,404.158],[-2.6477,42.4833,415.3635],[-2.6395,42.4845,406.0809],[-2.6309,42.4902,404.0417],[-2.6285,42.4956,423.5186],[-2.6101,42.4959,403.3027],[-2.6054,42.5035,402.3187],[-2.5922,42.4918,397.6435],[-2.5937,42.4897,402.2863],[-2.5982,42.4883,412.525],[-2.6009,42.4846,397.7903],[-2.6024,42.4795,402.4019],[-2.6005,42.4755,392.9156],[-2.5929,42.4722,394.7226],[-2.5872,42.4741,398.4338],[-2.5921,42.4803,391.8681],[-2.5914,42.4826,403.306],[-2.578,42.483,388.5555]]]]}}