{"type":"Feature","properties":{"GID_3":"ESP.4.3.3_1","GID_0":"ESP","country":"Spain","GID_1":"ESP.4_1","province":"Castilla-LaMancha","NL_NAME_1":"NA","GID_2":"ESP.4.3_1","county":"Cuenca","NL_NAME_2":"NA","city":"n.a.(95)","VARNAME_3":"NA","NL_NAME_3":"NA","TYPE_3":"Comarca","ENGTYPE_3":"Comarca","CC_3":"NA","HASC_3":"NA","name":"n.a.(95).city"},
"geometry":{"type": "MultiPolygon","coordinates": [[[[-1.5485,39.6133,644.0],[-1.5536,39.6132,644.0],[-1.5495,39.6167,644.0],[-1.5504,39.6204,644.0],[-1.5484,39.6277,644.0],[-1.5533,39.634,644.0],[-1.5577,39.6353,644.0],[-1.5656,39.6473,674.7236],[-1.5578,39.6537,680.7064],[-1.563,39.6555,719.0339],[-1.5604,39.6589,697.8772],[-1.5628,39.6638,733.511],[-1.5551,39.6656,685.9519],[-1.5619,39.6706,689.158],[-1.5624,39.6728,690.7315],[-1.5565,39.6779,685.9398],[-1.5511,39.6891,761.1091],[-1.5437,39.6967,937.0416],[-1.5355,39.7025,929.8342],[-1.5119,39.7122,880.3796],[-1.5106,39.7173,873.8685],[-1.5119,39.7192,847.2697],[-1.5036,39.722,862.7776],[-1.5099,39.7256,747.192],[-1.5298,39.729,878.3898],[-1.5314,39.7308,895.6371],[-1.5362,39.7317,899.9015],[-1.5374,39.7268,913.3655],[-1.5484,39.722,879.6066],[-1.5546,39.7149,869.9048],[-1.559,39.7138,859.6102],[-1.5688,39.7151,834.6869],[-1.5779,39.719,876.4941],[-1.5836,39.7175,846.223],[-1.5867,39.7197,762.5803],[-1.5866,39.7181,789.0233],[-1.5906,39.718,732.1144],[-1.59,39.7165,739.2659],[-1.6088,39.7175,854.1414],[-1.6159,39.7147,894.3275],[-1.6137,39.7129,872.7057],[-1.6128,39.7083,878.3448],[-1.6143,39.7,679.647],[-1.6177,39.7057,706.4886],[-1.617,39.7127,785.673],[-1.6204,39.715,800.8204],[-1.6243,39.7151,791.2671],[-1.6252,39.717,805.6002],[-1.6231,39.7207,801.4282],[-1.6256,39.723,802.4929],[-1.6334,39.7224,813.2099],[-1.6342,39.7274,808.1352],[-1.6375,39.7305,805.2014],[-1.6345,39.7333,820.1396],[-1.6352,39.7398,856.8373],[-1.6508,39.7394,937.3833],[-1.6651,39.7424,930.7046],[-1.6686,39.7414,918.1388],[-1.6709,39.7385,902.7332],[-1.674,39.7425,893.3917],[-1.6748,39.7476,867.7371],[-1.6783,39.7501,859.8266],[-1.7019,39.7548,875.6451],[-1.7599,39.7876,982.1904],[-1.7676,39.7897,984.4853],[-1.782,39.7886,1019.1218],[-1.7849,39.7866,865.0684],[-1.7972,39.787,875.5363],[-1.797,39.7914,872.7766],[-1.7992,39.7916,873.5822],[-1.8039,39.7867,883.0436],[-1.8059,39.7898,878.7986],[-1.8034,39.795,876.1633],[-1.81,39.7935,917.5928],[-1.8098,39.7968,910.616],[-1.8164,39.8001,893.3907],[-1.8102,39.8061,919.0669],[-1.8093,39.8103,889.1629],[-1.819,39.8103,907.1913],[-1.8254,39.806,907.8558],[-1.8298,39.8092,974.4288],[-1.8339,39.806399999999996,918.7075],[-1.8378,39.8068,912.7244],[-1.8405,39.8042,924.4893],[-1.8436,39.805,926.141],[-1.8451,39.8026,941.0524],[-1.849,39.8033,920.5554],[-1.8489,39.8055,923.9728],[-1.8525,39.8072,915.6356],[-1.8585,39.8065,911.6566],[-1.8622,39.8043,911.8663],[-1.8698,39.8045,928.0472],[-1.8709,39.8121,935.2328],[-1.869,39.8151,931.9103],[-1.8788,39.8238,924.9365],[-1.8797,39.8267,947.2839],[-1.8858,39.8286,938.765],[-1.8854,39.8313,934.347],[-1.8808,39.8321,927.7232],[-1.8849,39.8366,930.6865],[-1.8867,39.8333,947.8996],[-1.8916,39.8334,1033.0698],[-1.9036,39.8399,1082.7031],[-1.906,39.8385,1086.226],[-1.9133,39.8387,1023.4041],[-1.9163,39.8405,994.343],[-1.9235,39.8406,1039.6189],[-1.9395,39.8457,1089.5077],[-1.9432,39.8537,1106.0442],[-1.9477,39.8553,1108.3602],[-1.9477,39.8594,1077.3861],[-1.9564,39.8756,1078.5391],[-1.9562,39.8819,1114.4673],[-1.9458,39.8966,1141.2549],[-1.9412,39.9153,1156.3289],[-1.9484,39.9426,1088.028],[-1.9438,39.9549,1063.084],[-1.9532,39.9639,1115.8562],[-1.9783,39.9739,1148.4874],[-1.9808,39.9894,1186.1754],[-1.9706,40.0005,1203.2001],[-1.9659,40.0036,1199.613],[-1.958,40.0048,1203.7279],[-1.9436,40.0004,1168.3202],[-1.9359,39.9928,1159.0413],[-1.9361,40.0002,1183.7416],[-1.9263,40.0059,1191.208],[-1.911,40.022,1189.5378],[-1.9066,40.0236,1208.7899],[-1.895,40.024,1228.6693],[-1.8923,40.0256,1208.4541],[-1.8854,40.0237,1199.074],[-1.8669,40.0236,1194.6373],[-1.8512,40.0176,1172.9553],[-1.8447,40.0204,1041.6483],[-1.8257,40.0165,1011.6362],[-1.8245,40.012,1006.7087],[-1.8191,40.0116,1052.3145],[-1.8149,40.0075,1128.0155],[-1.8146,40.0034,1197.2482],[-1.8063,39.9991,1185.6421],[-1.8058,39.9976,1137.0131],[-1.7881,39.9983,1092.7988],[-1.7669,39.9947,1087.9028],[-1.7434,39.9863,1088.5818],[-1.7278,39.9931,1092.7363],[-1.729,40.0157,1226.073],[-1.7278,40.0241,1269.8461],[-1.711,40.0539,1300.7883],[-1.7162,40.0543,1267.9476],[-1.731,40.0623,1328.1979],[-1.7329,40.066,1373.1807],[-1.7238,40.0729,1375.606],[-1.7157,40.0935,1333.9109],[-1.7198,40.1089,1377.5378],[-1.7148,40.1166,1413.3542],[-1.7138,40.1235,1403.5402],[-1.7273,40.1378,1380.6085],[-1.7389,40.1427,1564.875],[-1.7484,40.1536,1693.875],[-1.7588,40.1596,1743.3102],[-1.7816,40.2126,1689.4634],[-1.794,40.2283,1658.9004],[-1.7961,40.2258,1632.0564],[-1.7986,40.2138,1544.3672],[-1.8028,40.2114,1461.8435],[-1.8187,40.2219,1386.3363],[-1.8214,40.2272,1361.7316],[-1.8302,40.2253,1260.7565],[-1.8359,40.2263,1210.5469],[-1.8417,40.2239,1196.8213],[-1.847,40.2145,1221.2842],[-1.8601,40.2207,1430.0784],[-1.8735,40.2217,1297.8745],[-1.9024,40.2223,1441.6239],[-1.9184,40.2202,1332.1151],[-1.922,40.2164,1298.4904],[-1.9226,40.2178,1397.7062],[-1.9281,40.2165,1384.0991],[-1.9394,40.2194,1389.6943],[-1.9435,40.219,1382.5466],[-1.9457,40.2171,1343.7495],[-1.9502,40.2216,1324.7319],[-1.9572,40.2203,1341.0883],[-1.9593,40.2218,1312.4508],[-1.9664,40.2224,1260.1973],[-1.9622,40.2268,1256.6608],[-1.9569,40.2277,1304.3071],[-1.9592,40.2288,1189.7598],[-1.9575,40.2313,1278.4294],[-1.9602,40.2342,1314.165],[-1.9627,40.2307,1302.929],[-1.9675,40.2297,1258.0923],[-1.971,40.2298,1270.9447],[-1.9743,40.2322,1367.7426],[-1.9809,40.2316,1284.715],[-1.9819,40.2261,1130.5232],[-1.9862,40.2261,1116.2322],[-1.9857,40.2288,1108.6808],[-1.9986,40.2377,1121.5045],[-1.9992,40.2432,1145.3544],[-2.0029,40.2489,1111.6504],[-2.0083,40.2522,1087.8718],[-2.0089,40.2554,1084.2911],[-2.0169,40.254,1073.126],[-2.0158,40.2578,1073.9897],[-2.0182,40.2585,1073.3425],[-2.0201,40.256,1114.2407],[-2.0256,40.2542,1066.0292],[-2.0253,40.2501,1064.3008],[-2.0358,40.2516,1065.4122],[-2.0382,40.2483,1060.0269],[-2.0487,40.2494,1078.9611],[-2.0547,40.2457,1042.4908],[-2.0505,40.2561,1293.1956],[-2.0525,40.2761,1366.2136],[-2.0343,40.2859,1423.3645],[-2.0411,40.3128,1420.4298],[-2.0345,40.319,1258.5475],[-2.0388,40.3198,1245.7441],[-2.0409,40.322,1271.5336],[-2.0467,40.3348,1436.03],[-2.0443,40.3435,1403.4805],[-2.0472,40.3475,1370.5195],[-2.0473,40.3513,1274.6672],[-2.0418,40.374,1263.1208],[-2.0502,40.3812,1181.1899],[-2.0565,40.3912,1108.3],[-2.065,40.3917,1294.6317],[-2.0727,40.4008,1324.5073],[-2.0814,40.4048,1330.3435],[-2.0822,40.407,1333.4087],[-2.0929,40.4131,1350.0347],[-2.0986,40.4197,1336.4221],[-2.1164,40.4264,1332.6533],[-2.1234,40.4306,1334.4155],[-2.14,40.4326,1272.0997],[-2.1463,40.4278,1322.5767],[-2.1767,40.4258,1407.6968],[-2.1889,40.433,1323.6331],[-2.1932,40.4329,1298.9484],[-2.2222,40.4759,1074.6306],[-2.2314,40.4757,1072.7101],[-2.2475,40.4806,1248.775],[-2.2534,40.4875,1294.4211],[-2.2606,40.4862,1279.8313],[-2.2667,40.4613,1027.4526],[-2.2638,40.4478,961.6785],[-2.2601,40.447,903.1135],[-2.26,40.4441,875.5595],[-2.2713,40.431399999999996,1109.4402],[-2.2773,40.4292,1156.3901],[-2.278,40.4257,1166.9165],[-2.2763,40.4173,1203.5596],[-2.2704,40.4067,1124.2172],[-2.2724,40.4027,1147.1014],[-2.2697,40.4026,1122.5754],[-2.2588,40.3959,1014.2233],[-2.2337,40.3661,902.5328],[-2.2555,40.339,1076.6135],[-2.2494,40.3189,1122.7487],[-2.2423,40.3097,1075.3213],[-2.2435,40.3039,1076.1641],[-2.2513,40.2994,1210.3594],[-2.2365,40.27,1292.0488],[-2.2281,40.2572,1313.4089],[-2.2237,40.2421,1343.9971],[-2.2359,40.2387,1232.7921],[-2.2416,40.2338,1180.2708],[-2.2489,40.2226,1190.8661],[-2.2444,40.2107,1183.7278],[-2.2493,40.2011,1116.3595],[-2.2452,40.1996,1062.1494],[-2.2288,40.181,1091.6665],[-2.2328,40.1776,1071.6263],[-2.2369,40.1701,1073.1481],[-2.2428,40.1663,1059.8347],[-2.241,40.1589,1053.6785],[-2.2422,40.1475,994.0441],[-2.2536,40.1445,955.0411],[-2.2599,40.1504,978.7563],[-2.2643,40.175,997.5257],[-2.2721,40.183,1034.2688],[-2.2764,40.1832,1039.955],[-2.2797,40.1877,1065.098],[-2.2878,40.1915,1075.5546],[-2.2916,40.1954,1084.8789],[-2.3015,40.1873,1084.9617],[-2.3063,40.1854,1097.7976],[-2.3099,40.1864,1028.5732],[-2.3109,40.1941,1006.5531],[-2.3206,40.2049,995.7691],[-2.3278,40.2059,972.379],[-2.335,40.2092,922.542],[-2.3417,40.2089,921.8507],[-2.3487,40.2005,923.6848],[-2.3653,40.1894,922.6801],[-2.3726,40.1815,988.3966],[-2.3747,40.1767,976.2208],[-2.3719,40.1669,939.8961],[-2.3759,40.1597,926.9078],[-2.376,40.152,941.2131],[-2.3708,40.1323,1088.3839],[-2.3674,40.127,1115.5319],[-2.3556,40.1236,1093.6807],[-2.3491,40.1171,1137.8695],[-2.3451,40.1157,1110.54],[-2.3452,40.1125,1117.5734],[-2.3571,40.1113,1125.7357],[-2.3688,40.1063,1005.6306],[-2.3721,40.1016,1143.1755],[-2.3716,40.0962,1147.4603],[-2.3801,40.0861,1137.5009],[-2.376,40.081,1157.2972],[-2.3781,40.0801,1133.1335],[-2.38,40.0743,1145.9744],[-2.3868,40.0709,1020.3724],[-2.3858,40.0704,1026.7991],[-2.3923,40.0641,1122.4596],[-2.3981,40.0639,1133.9905],[-2.4016,40.0616,1100.9144],[-2.4039,40.0476,1066.4443],[-2.4155,40.0421,1050.8994],[-2.4486,40.0358,1050.9119],[-2.4416,40.0118,1027.7642],[-2.4263,39.9997,946.1821],[-2.429,39.9913,985.6793],[-2.4337,39.9856,954.2734],[-2.4318,39.9834,954.6857],[-2.4174,39.9779,931.4287],[-2.4117,39.9733,971.3708],[-2.4014,39.963,987.7004],[-2.3898,39.9456,937.2648],[-2.3781,39.9624,1047.6985],[-2.3734,39.9601,1046.0688],[-2.3616,39.9434,972.8038],[-2.3533,39.9393,961.8752],[-2.3459,39.9323,958.4102],[-2.3385,39.9293,973.8896],[-2.3365,39.9233,957.0637],[-2.3251,39.9126,949.2743],[-2.3212,39.9065,926.3224],[-2.321,39.903,929.9953],[-2.312,39.8919,916.6298],[-2.2986,39.8846,923.4261],[-2.2791,39.8769,885.9668],[-2.2706,39.878,833.4382],[-2.2699,39.8709,823.2399],[-2.2662,39.8659,822.5282],[-2.2677,39.8636,842.0096],[-2.2733,39.864,824.1854],[-2.2738,39.8589,824.0657],[-2.2878,39.8525,811.1913],[-2.29,39.8486,815.4945],[-2.2721,39.8401,819.4136],[-2.2765,39.8302,807.7479],[-2.2835,39.8256,831.2446],[-2.285,39.8211,801.4751],[-2.279,39.8087,798.3575],[-2.2798,39.8067,801.5925],[-2.2851,39.8037,798.3663],[-2.2845,39.7988,794.5],[-2.2811,39.7991,815.8363],[-2.2776,39.7946,854.294],[-2.2688,39.7918,867.8374],[-2.2599,39.7813,892.171],[-2.2506,39.7745,884.6827],[-2.2402,39.7615,901.8977],[-2.2375,39.7604,898.4271],[-2.2143,39.768,839.4668],[-2.2097,39.7667,834.5553],[-2.2067,39.7609,827.798],[-2.1983,39.7583,847.6696],[-2.1862,39.7484,829.4175],[-2.1878,39.7457,816.0823],[-2.1847,39.7373,853.3895],[-2.1709,39.7251,869.1216],[-2.1215,39.7043,1023.0089],[-2.1151,39.6987,1026.6847],[-2.1102,39.6888,995.8813],[-2.1071,39.6886,1021.2025],[-2.1105,39.6841,988.6777],[-2.1015,39.6647,909.5344],[-2.0799,39.6414,905.3735],[-2.0668,39.6395,918.1239],[-2.0443,39.639,927.3558],[-2.039,39.6415,936.8626],[-2.0405,39.6439,944.0534],[-2.035,39.6516,966.2902],[-2.0318,39.6507,955.3663],[-2.0277,39.6584,989.0807],[-2.0047,39.6701,941.0444],[-2.0048,39.6673,938.2917],[-1.9789,39.6844,948.1247],[-1.9749,39.6905,962.7028],[-1.9641,39.7005,979.0399],[-1.9691,39.71,1004.3255],[-1.9582,39.709,1013.6848],[-1.9463,39.7041,1001.1023],[-1.9398,39.7044,1005.2968],[-1.9377,39.7018,1002.5222],[-1.9323,39.6788,1005.5624],[-1.8982,39.6337,938.9617],[-1.8874,39.6445,977.3414],[-1.8453,39.6668,1013.5284],[-1.832,39.6768,996.621],[-1.821,39.6907,1011.5605],[-1.7928,39.6683,1014.4083],[-1.741,39.6581,1049.7926],[-1.7286,39.6626,1011.6761],[-1.7198,39.6605,997.2103],[-1.7172,39.6556,986.6738],[-1.7052,39.6436,967.2999],[-1.6976,39.6236,938.6318],[-1.6839,39.605,908.561],[-1.6344,39.5778,873.8012],[-1.6267,39.5717,895.7172],[-1.6251,39.5684,907.5549],[-1.6191,39.5696,899.6435],[-1.6096,39.5675,852.539],[-1.5923,39.5476,867.0233],[-1.5487,39.5438,672.0513],[-1.53,39.5478,645.4017],[-1.5253,39.5467,647.2711],[-1.5177,39.5514,644.0],[-1.5031,39.5521,644.0],[-1.5031,39.5562,644.0],[-1.5007,39.5571,644.0],[-1.5043,39.5639,644.0],[-1.5043,39.5723,644.0],[-1.5129,39.5749,644.0],[-1.5136,39.5757,644.0],[-1.5103,39.5777,644.0],[-1.5122,39.5796,644.0],[-1.5178,39.5778,644.0],[-1.5191,39.5804,644.0],[-1.5167,39.5849,644.0],[-1.5265,39.5929,644.0],[-1.5261,39.596,644.0],[-1.5226,39.5994,644.0],[-1.5276,39.6048,644.0],[-1.5312,39.6042,644.0],[-1.5485,39.6133,644.0]]]]}}