{"type": "Feature","bbox": [0.1592,40.523,3.3246,42.8613],"geometry": {"type": "MultiPolygon","coordinates": [[[[0.438,40.5471,82.5076],[0.4463,40.545,79.5156],[0.449,40.5413,76.3448],[0.4565,40.5403,68.1428],[0.4604,40.5376,64.1723],[0.477,40.532,46.9807],[0.4822,40.5319,40.4121],[0.4871,40.5292,34.6423],[0.4988,40.5279,20.7437],[0.5151,40.523,4.7437],[0.5188,40.5337,0.6874],[0.5224,40.5385,0.0],[0.5226,40.5426,0.7552],[0.5301,40.5507,1.3431],[0.5346,40.5513,0.0],[0.5326,40.554,0.0],[0.5382,40.5671,1.719],[0.5401,40.569,7.4835],[0.5424,40.5687,0.0],[0.5468,40.5737,0.0],[0.551,40.5693,0.0],[0.5568,40.5715,0.0],[0.5549,40.5724,0.0],[0.5512,40.5704,0.0],[0.5529,40.5726,0.0],[0.5496,40.5729,0.0],[0.5485,40.5749,0.9497],[0.561,40.5846,0.0],[0.5649,40.5899,0.7939],[0.5782,40.6001,0.0],[0.5915,40.6138,12.9793],[0.596,40.6138,0.0],[0.5982,40.6113,0.2764],[0.6035,40.6093,0.0],[0.5963,40.6146,0.0],[0.5976,40.6154,0.0],[0.5965,40.6174,0.4521],[0.601,40.6162,0.0],[0.5988,40.6146,0.0],[0.5996,40.6138,0.0],[0.6026,40.6154,0.0],[0.599,40.619,0.3802],[0.6001,40.6201,0.0],[0.6026,40.6193,0.0],[0.601,40.6221,0.5041],[0.6129,40.6232,0.0499],[0.6274,40.6221,-0.2108],[0.6526,40.6246,-0.0436],[0.6529,40.626,0.6077],[0.6568,40.6265,-0.0005],[0.6635,40.6263,-0.0103],[0.6835,40.634,0.0],[0.6832,40.636,-0.1539],[0.6865,40.6349,-0.0357],[0.6926,40.6365,0.0],[0.6929,40.6393,-0.4675],[0.6946,40.6368,0.0],[0.706,40.6376,-0.2582],[0.7088,40.6362,0.0],[0.7146,40.6387,0.0172],[0.7262,40.6393,-0.2464],[0.7443,40.6362,0.01],[0.7396,40.626,0.0],[0.7112,40.5926,-0.1096],[0.6949,40.5893,-0.9918],[0.684,40.5896,-0.0294],[0.6737,40.5932,-0.1819],[0.6693,40.5924,0.0],[0.6774,40.5893,-0.5205],[0.6599,40.5854,-1.5],[0.6651,40.5788,-1.2465],[0.6635,40.5776,-1.0186],[0.6604,40.579,-1.5],[0.6621,40.5776,-1.0186],[0.6607,40.576,-1.5],[0.6576,40.5774,-1.5],[0.6557,40.5874,-1.5],[0.6613,40.5879,-1.5],[0.6613,40.5918,-0.529],[0.6585,40.5913,-0.0161],[0.654,40.5854,-0.1236],[0.6432,40.5838,0.0],[0.6454,40.5821,0.0],[0.6518,40.584,-0.0112],[0.6568,40.5793,-0.7703],[0.6543,40.5785,0.0113],[0.6499,40.5815,-0.1035],[0.6501,40.5776,-0.1289],[0.6468,40.5765,0.0],[0.6435,40.5771,0.0],[0.6421,40.5793,0.0],[0.6415,40.5779,0.0],[0.6443,40.5757,0.0],[0.6432,40.5749,0.0148],[0.6315,40.5782,0.0],[0.6315,40.5812,0.0192],[0.6335,40.5815,0.0],[0.6337,40.5779,-0.0111],[0.6354,40.5774,-0.0878],[0.6363,40.5826,0.0],[0.6282,40.5824,0.0],[0.6182,40.5865,0.0],[0.6168,40.586,0.0],[0.6157,40.5782,0.0],[0.6132,40.5768,-0.0604],[0.6096,40.5782,0.0],[0.6029,40.576,-0.0219],[0.596,40.5765,-0.4059],[0.6035,40.5612,0.2025],[0.6065,40.5607,-0.0791],[0.6124,40.5557,-0.0944],[0.6185,40.554,-0.1898],[0.6343,40.5532,-0.0562],[0.6388,40.5557,-0.1513],[0.6487,40.5554,0.0],[0.6582,40.5574,0.0971],[0.6593,40.5599,-0.0026],[0.6704,40.5604,0.0],[0.6874,40.569,-0.0071],[0.704,40.581,0.0],[0.736,40.621,0.0251],[0.7568,40.6399,0.0],[0.769,40.6474,-0.1499],[0.846,40.6785,0.0],[0.8629,40.6893,0.0],[0.8696,40.696,0.0],[0.8788,40.7157,0.0],[0.879,40.7196,0.0],[0.8743,40.7318,0.0],[0.8688,40.7318,0.0],[0.8615,40.7349,0.0],[0.8435,40.731,0.0],[0.8304,40.7335,0.0],[0.8138,40.7482,-0.0038],[0.7974,40.7646,0.0],[0.7815,40.7835,0.0],[0.7718,40.7915,0.0],[0.7629,40.7938,0.0],[0.7476,40.7938,0.0],[0.7262,40.7901,0.0093],[0.7296,40.786,0.0],[0.7415,40.7865,-0.2042],[0.7826,40.7724,0.1325],[0.7707,40.764,-0.0392],[0.7593,40.7632,0.0275],[0.7335,40.7682,-0.0764],[0.7296,40.7699,-0.0805],[0.7243,40.7762,-0.1068],[0.709,40.786,0.0],[0.7043,40.786,-0.4723],[0.7038,40.7879,-1.0],[0.7054,40.7899,-0.0777],[0.6996,40.8021,0.0],[0.7063,40.8096,8.5061],[0.7115,40.8093,0.0],[0.7149,40.8124,10.23],[0.7237,40.8162,2.2332],[0.7321,40.8176,0.0],[0.7324,40.8213,6.4903],[0.7349,40.8235,0.0],[0.7418,40.8229,1.5009],[0.7426,40.8332,6.4153],[0.7451,40.8385,0.0],[0.7496,40.8399,0.0],[0.7488,40.8429,11.9932],[0.7535,40.8465,1.6688],[0.7635,40.8471,2.3357],[0.7649,40.8524,5.2023],[0.7701,40.8579,2.675],[0.7793,40.8596,0.0],[0.7932,40.8674,4.1494],[0.796,40.8704,0.0],[0.7968,40.8746,0.9849],[0.8021,40.8793,0.1598],[0.8024,40.8771,0.0],[0.8037,40.8771,0.0],[0.8049,40.8826,8.418],[0.814,40.8913,0.0],[0.8168,40.8913,0.0],[0.819,40.896,8.9409],[0.8271,40.9029,0.0],[0.8271,40.906,1.6114],[0.8293,40.9087,0.0],[0.8337,40.9113,0.0],[0.834,40.9132,0.0],[0.8368,40.9137,0.0],[0.8376,40.919,4.954],[0.8418,40.9201,0.0],[0.8482,40.926,12.0071],[0.851,40.9265,0.0],[0.8529,40.9321,19.3075],[0.8579,40.9346,0.0],[0.8571,40.9374,0.0],[0.8626,40.9471,14.5789],[0.8754,40.9512,2.7889],[0.8799,40.9551,0.0],[0.8804,40.9593,4.7656],[0.886,40.9618,0.0],[0.8938,40.9715,4.9256],[0.8988,40.9754,0.0],[0.9035,40.9765,0.0],[0.9079,40.9826,12.1705],[0.9162,40.9893,5.9387],[0.9268,40.989,8.3474],[0.9274,40.9868,0.0],[0.931,40.9882,0.0],[0.9296,40.9904,0.0],[0.9315,40.991,0.0],[0.9374,41.0024,0.0],[0.9496,41.0132,6.4219],[0.9529,41.0182,10.9433],[0.9662,41.0285,0.0],[0.9721,41.0304,0.0],[0.9876,41.0412,1.1207],[1.004,41.0432,0.0],[1.0168,41.0518,0.55],[1.0237,41.0521,2.813],[1.029,41.0557,3.2971],[1.0507,41.0649,2.4723],[1.056,41.0649,4.6874],[1.0621,41.0624,0.0],[1.0596,41.0646,0.6335],[1.0632,41.0651,0.0],[1.0626,41.0604,0.0],[1.0651,41.0629,0.0],[1.0651,41.0651,0.0],[1.0676,41.0662,1.4046],[1.0846,41.064,3.6357],[1.1015,41.0704,1.9948],[1.1232,41.0749,1.5626],[1.1304,41.0749,1.1116],[1.1299,41.0724,0.0],[1.134,41.074,1.7163],[1.144,41.0726,3.392],[1.1443,41.0701,0.0],[1.1482,41.0679,4.5534],[1.1479,41.0654,0.0],[1.1571,41.0646,4.5543],[1.1621,41.059,10.4535],[1.161,41.0557,0.0],[1.1676,41.0565,4.2765],[1.1676,41.0551,0.0],[1.1724,41.0546,0.0],[1.1749,41.0596,7.3182],[1.1818,41.0638,12.8945],[1.1801,41.0668,4.01],[1.1782,41.0671,0.8523],[1.1785,41.0696,1.7095],[1.1904,41.0874,1.4824],[1.1946,41.0907,0.812],[1.1962,41.0913,0.812],[1.2013,41.0854,0.0],[1.2085,41.0815,0.0],[1.1976,41.0907,0.5736],[1.1988,41.0946,2.1667],[1.2068,41.0976,1.8721],[1.2143,41.1035,2.9998],[1.216,41.1018,2.1053],[1.2143,41.0996,0.8735],[1.2174,41.1004,0.0],[1.2193,41.1037,0.0],[1.2221,41.1037,0.3911],[1.2246,41.0996,0.1222],[1.2282,41.099,0.0],[1.2371,41.1029,0.0],[1.2371,41.106,0.4826],[1.2413,41.1049,0.0],[1.2424,41.1085,0.0],[1.2485,41.1087,1.328],[1.2474,41.106,1.2778],[1.244,41.1063,1.0093],[1.2432,41.1035,1.0745],[1.2324,41.0996,0.0],[1.2318,41.0965,5.9133],[1.2279,41.096,0.0],[1.224,41.091,0.0],[1.226,41.0887,0.7592],[1.2254,41.0874,0.7592],[1.2201,41.0838,0.0],[1.2215,41.0835,0.0],[1.2276,41.0879,0.0],[1.2374,41.1001,9.2304],[1.2407,41.0993,6.9528],[1.2413,41.101,4.095],[1.2479,41.1032,2.1668],[1.2496,41.1068,2.7862],[1.2524,41.1063,0.0],[1.2549,41.1087,0.0],[1.2563,41.1124,6.6159],[1.2618,41.114,5.4118],[1.266,41.1124,0.9928],[1.2713,41.1129,0.0],[1.2749,41.1157,0.0],[1.2746,41.1193,6.2912],[1.2821,41.1196,0.0],[1.2843,41.1226,6.0755],[1.2871,41.1237,1.137],[1.289,41.1226,1.4402],[1.2935,41.1265,1.1782],[1.3007,41.129,6.9546],[1.3218,41.1301,1.1726],[1.3246,41.1274,9.5487],[1.3365,41.1282,0.0],[1.344,41.1246,0.0],[1.3454,41.1279,1.2859],[1.3485,41.1285,0.0],[1.3499,41.1268,0.0],[1.3579,41.1276,0.0],[1.3629,41.1307,3.6977],[1.3737,41.1338,2.6614],[1.3846,41.1343,6.189],[1.3863,41.1321,10.2324],[1.3901,41.1312,0.0],[1.3949,41.1312,0.0],[1.3987,41.1332,0.0],[1.4018,41.1321,0.2531],[1.4054,41.1354,0.0],[1.4021,41.1374,2.3913],[1.4046,41.1407,4.7731],[1.4104,41.1421,4.4001],[1.4374,41.156,1.1679],[1.4415,41.1563,0.4706],[1.4454,41.1593,1.8983],[1.4521,41.1593,0.2949],[1.4626,41.1651,0.0],[1.4726,41.166,1.8312],[1.4787,41.1682,2.6042],[1.4815,41.1674,0.0],[1.4824,41.1693,5.1766],[1.4957,41.1738,6.3484],[1.5082,41.1757,1.7812],[1.5213,41.1799,1.2235],[1.5243,41.1799,0.3618],[1.5251,41.176,0.1257],[1.5265,41.176,0.1538],[1.5276,41.1776,0.0],[1.5254,41.1807,6.7239],[1.5379,41.1829,2.2364],[1.6304,41.1921,2.1484],[1.6479,41.1968,1.4292],[1.6543,41.1963,0.6702],[1.6535,41.1943,0.0695],[1.6487,41.1926,0.0],[1.6571,41.1935,0.0],[1.6557,41.1943,0.0],[1.6563,41.1963,0.4257],[1.6699,41.1982,1.0125],[1.6735,41.1974,0.2377],[1.6879,41.204,1.4054],[1.6888,41.206,2.198],[1.6965,41.2079,2.3225],[1.7076,41.2071,0.8149],[1.7107,41.2096,3.6374],[1.7218,41.2132,1.7536],[1.7276,41.2129,0.206],[1.7285,41.2115,0.5455],[1.7271,41.2099,0.0],[1.7293,41.2076,0.0],[1.729,41.2096,1.7744],[1.7315,41.2129,0.0],[1.7307,41.2151,0.0],[1.7359,41.2154,0.3054],[1.7371,41.2113,2.2124],[1.7343,41.2113,0.5084],[1.7335,41.2085,0.0],[1.729,41.2065,0.0],[1.7301,41.2054,0.0],[1.7351,41.2099,0.3746],[1.7388,41.2104,0.0],[1.7365,41.2163,2.6146],[1.7515,41.2176,4.2258],[1.7524,41.2193,5.1667],[1.7624,41.2182,0.0],[1.7629,41.2196,2.8488],[1.7713,41.2204,0.0],[1.7771,41.2235,0.0],[1.7843,41.2232,0.0],[1.7971,41.2307,3.9937],[1.8062,41.2343,4.8725],[1.8126,41.234,8.1227],[1.814,41.236,4.8471],[1.8207,41.2357,8.3849],[1.821,41.2329,0.0],[1.8246,41.2318,0.0],[1.8274,41.2332,0.0],[1.8282,41.236,6.2295],[1.8549,41.2337,0.0],[1.8562,41.2354,0.0],[1.8604,41.2357,7.3549],[1.8618,41.239,5.4493],[1.8663,41.239,0.0],[1.8651,41.2363,0.0],[1.8663,41.2363,0.0],[1.8679,41.2371,0.0],[1.8671,41.2399,0.0],[1.8693,41.2421,11.7062],[1.8929,41.2493,62.9068],[1.9007,41.2487,0.0],[1.9037,41.254,10.1392],[1.9182,41.2568,0.0],[1.9218,41.2593,2.2452],[1.9232,41.2585,0.0],[1.9229,41.2562,0.0],[1.9243,41.2565,0.0],[1.9299,41.2585,0.0],[1.9285,41.2612,1.0197],[1.9321,41.2626,2.8928],[1.9515,41.2649,0.8097],[1.9982,41.2643,0.9499],[1.9987,41.2654,0.9499],[2.0274,41.2668,0.0],[2.0743,41.2771,1.2792],[2.0904,41.2832,1.5827],[2.1079,41.2874,1.8055],[2.119,41.2929,0.2566],[2.1388,41.3074,4.4933],[2.144,41.316,5.4076],[2.1426,41.3213,3.0099],[2.1493,41.321,4.4299],[2.1524,41.3229,2.5735],[2.1526,41.3271,5.6653],[2.1576,41.3371,4.8221],[2.1604,41.3382,3.733],[2.1629,41.3365,3.5881],[2.1649,41.3407,1.5774],[2.1607,41.3426,1.4487],[2.1568,41.3424,0.0],[2.1493,41.3315,0.0],[2.1471,41.3321,7.378],[2.1454,41.336,1.4489],[2.1499,41.3368,0.0],[2.1507,41.3426,2.2658],[2.1599,41.3457,0.0],[2.1626,41.351,3.527],[2.1679,41.349,1.2379],[2.1707,41.3515,0.0],[2.1726,41.3563,0.0],[2.1704,41.359,3.2518],[2.1762,41.3596,0.0],[2.1732,41.3638,3.4869],[2.1743,41.3651,0.7364],[2.1799,41.3643,2.9474],[2.1807,41.3654,0.961],[2.1774,41.3674,1.132],[2.1771,41.371,3.7439],[2.1821,41.3707,2.8533],[2.1824,41.3718,0.0],[2.1785,41.3749,0.7431],[2.1829,41.3754,2.7006],[2.1843,41.3779,0.0],[2.186,41.3779,0.0],[2.1843,41.3688,2.339],[2.186,41.366,0.732],[2.1824,41.3646,0.0],[2.1726,41.349,3.7549],[2.1713,41.3449,0.0],[2.1738,41.3421,1.7613],[2.1749,41.3496,1.3785],[2.1826,41.3632,0.0],[2.1868,41.3657,1.1938],[2.1888,41.3737,6.2791],[2.1951,41.3835,1.4953],[2.1971,41.3854,1.2835],[2.201,41.384,0.0],[2.2037,41.3871,0.0],[2.201,41.3893,0.0],[2.2021,41.3915,4.1107],[2.2049,41.3915,0.0],[2.2076,41.396,2.8363],[2.2118,41.3946,0.0],[2.2107,41.3979,5.6384],[2.2118,41.3993,6.1251],[2.2149,41.3993,0.4304],[2.2146,41.4018,5.6089],[2.2235,41.4079,4.6185],[2.2301,41.4168,2.873],[2.2343,41.4165,0.0],[2.2324,41.4179,1.1865],[2.2321,41.421,4.5083],[2.2357,41.4249,3.1561],[2.2387,41.4243,0.0],[2.2376,41.4293,6.3048],[2.2396,41.4335,5.0319],[2.2521,41.4479,8.7722],[2.266,41.4593,7.0153],[2.3063,41.4757,5.779],[2.3096,41.474,0.2168],[2.3129,41.476,0.9035],[2.3124,41.4735,0.0],[2.3135,41.4735,0.0],[2.3193,41.4785,0.0],[2.3521,41.486,0.6438],[2.381,41.4951,0.0],[2.3835,41.4976,8.4752],[2.4076,41.5085,0.0],[2.4179,41.5165,3.2649],[2.441,41.529,3.7601],[2.4449,41.529,0.0],[2.4451,41.526,0.0],[2.4493,41.5299,0.95009999999999994],[2.4479,41.534,0.8465],[2.4499,41.536,2.0781],[2.454,41.5371,0.0],[2.4629,41.5435,0.0],[2.471,41.5468,0.0],[2.4951,41.5524,1.5163],[2.5007,41.5563,2.7631],[2.5074,41.5563,0.0],[2.5099,41.5585,0.0],[2.5096,41.5612,2.8449],[2.5154,41.5624,7.9326],[2.5521,41.5788,12.9441],[2.5596,41.5768,0.4545],[2.561,41.5788,1.7208],[2.561,41.5765,0.5565],[2.5576,41.574,0.0],[2.5604,41.5743,0.4461],[2.5643,41.5804,1.1552],[2.569,41.5829,3.6311],[2.5812,41.5857,7.1428],[2.6026,41.594,10.8908],[2.6087,41.5946,0.0],[2.6301,41.6032,0.0],[2.6418,41.6054,0.0],[2.6501,41.6099,2.4842],[2.6974,41.6224,1.8374],[2.7032,41.6265,2.0374],[2.7182,41.6287,0.0],[2.7276,41.6354,0.0],[2.7468,41.6435,0.5314],[2.759,41.6465,1.0728],[2.7735,41.6474,0.2153],[2.7774,41.6493,0.0],[2.7771,41.6515,0.0],[2.7787,41.6512,0.0],[2.7813,41.6554,0.0],[2.7857,41.666,4.0428],[2.7929,41.6738,13.1604],[2.7954,41.6743,8.6177],[2.7979,41.6721,0.0],[2.8035,41.6735,0.0],[2.8038,41.6754,0.0],[2.8082,41.6771,0.0],[2.8079,41.6787,0.0],[2.8154,41.6818,0.0],[2.8188,41.6885,0.0],[2.8279,41.6901,0.2114],[2.834,41.6946,4.2628],[2.8418,41.6929,0.0],[2.8454,41.6949,0.6571],[2.8463,41.6976,8.1447],[2.8535,41.6999,0.0],[2.8665,41.6985,0.0],[2.8735,41.701,29.5736],[2.8793,41.701,8.4416],[2.8824,41.704,12.7003],[2.8885,41.7012,4.1728],[2.9004,41.7051,0.0],[2.8993,41.7074,43.1995],[2.9024,41.7101,1.7039],[2.9129,41.7074,1.2808],[2.9199,41.7126,19.6953],[2.9249,41.7121,57.8412],[2.9293,41.7143,17.7396],[2.9349,41.7146,9.0417],[2.9337,41.7193,2.2104],[2.9376,41.7218,0.2987],[2.9407,41.7196,0.0],[2.9407,41.7238,25.8106],[2.946,41.7254,0.0],[2.949,41.7307,30.3791],[2.954,41.7313,0.0],[2.9546,41.7368,0.0],[2.9582,41.7351,0.0],[2.9599,41.7374,10.461],[2.9585,41.7399,0.0],[2.9657,41.7449,0.7967],[2.9715,41.7526,0.5689],[2.9749,41.7535,0.0],[2.9776,41.7576,34.6746],[2.9976,41.7626,0.0],[2.9985,41.7649,0.0],[3.0013,41.7651,0.0],[3.0096,41.7718,0.0],[3.0265,41.7735,0.0],[3.0293,41.7707,8.1919],[3.0321,41.7713,0.0],[3.0329,41.7726,0.0],[3.0307,41.7743,10.7577],[3.0296,41.7782,17.1579],[3.031,41.7804,0.7181],[3.0385,41.7779,1.7073],[3.0443,41.7785,0.0],[3.0457,41.7813,2.0547],[3.0487,41.7818,0.0],[3.0457,41.7871,6.0117],[3.0468,41.7896,2.801],[3.0532,41.7904,1.7568],[3.0546,41.7871,0.0],[3.0565,41.7865,0.0],[3.0568,41.7893,2.1942],[3.0618,41.7951,0.0],[3.0613,41.7979,0.0],[3.0668,41.8007,1.359],[3.0651,41.8049,1.2642],[3.071,41.8193,6.0888],[3.084,41.8262,3.3921],[3.0876,41.8315,5.096],[3.0929,41.8329,6.4497],[3.0937,41.8385,19.5271],[3.101,41.8443,5.2458],[3.1132,41.8485,0.0],[3.1226,41.8485,0.0],[3.126,41.8457,0.0],[3.1229,41.8449,0.0],[3.1237,41.8426,0.0],[3.121,41.8413,0.0],[3.1307,41.8413,0.0],[3.139,41.8485,0.0],[3.146,41.8504,0.0],[3.1457,41.8537,0.0],[3.1429,41.8557,5.6926],[3.1443,41.8582,3.8552],[3.1499,41.8579,0.0],[3.1515,41.8615,0.0],[3.1551,41.8621,23.5469],[3.1574,41.8621,3.0305],[3.1576,41.8599,0.0],[3.1599,41.8593,0.0],[3.1665,41.8629,0.0],[3.1718,41.8626,0.0],[3.1768,41.8674,8.8388],[3.179,41.8668,0.0],[3.1782,41.8726,3.534],[3.1821,41.8763,0.0],[3.1788,41.8793,13.8386],[3.1829,41.8812,0.0],[3.1829,41.8874,5.3613],[3.1913,41.8879,0.0],[3.1938,41.8904,0.0],[3.1943,41.8937,0.0],[3.1982,41.8915,0.0],[3.2026,41.8913,5.9443],[3.2054,41.8982,10.9787],[3.211,41.904,0.0],[3.2085,41.9085,0.0],[3.2121,41.909,0.0],[3.2085,41.9129,2.784],[3.2093,41.9157,0.0],[3.2082,41.9174,7.9993],[3.2165,41.9179,0.0],[3.2171,41.9212,0.3637],[3.2201,41.9215,0.0],[3.2185,41.924,0.0],[3.219,41.9276,0.0],[3.2165,41.9293,0.0],[3.2199,41.9318,0.0],[3.2199,41.9349,0.0],[3.2157,41.936,0.0],[3.2179,41.9385,0.0],[3.2182,41.9421,17.6964],[3.2338,41.9496,0.0],[3.2318,41.9538,0.0],[3.2299,41.9546,2.1307],[3.234,41.9585,0.0],[3.2338,41.9624,0.0],[3.2307,41.9604,35.3828],[3.231,41.9696,4.9963],[3.2218,41.9746,1.9112],[3.2132,41.9749,0.0],[3.2104,41.9724,10.004],[3.2115,41.9762,0.0],[3.2054,41.9832,2.2172],[3.1971,42.0015,1.0746],[3.1935,42.0229,0.0],[3.1707,42.0232,1.4083],[3.1938,42.024,0.2116],[3.1949,42.036,0.0],[3.1968,42.0407,0.0],[3.196,42.0462,0.0276],[3.1993,42.0526,0.1844],[3.2096,42.0526,2.5297],[3.2118,42.054,5.5778],[3.2146,42.0612,3.9657],[3.2104,42.0618,48.1382],[3.2099,42.0663,0.0],[3.2126,42.069,0.0],[3.209,42.0696,41.5064],[3.2063,42.0743,0.0],[3.1985,42.0779,130.5264],[3.1999,42.0801,0.0],[3.2032,42.0804,0.0],[3.2029,42.0824,0.0],[3.1993,42.0832,2.8303],[3.1949,42.0871,0.0],[3.1932,42.091,0.0],[3.1904,42.0929,99.7138],[3.1893,42.0976,0.0],[3.1846,42.0999,9.1861],[3.1851,42.1015,0.0],[3.1826,42.1049,0.0],[3.1726,42.1032,14.6844],[3.1699,42.1051,50.5942],[3.1688,42.1082,1.7244],[3.1751,42.1071,4.3326],[3.1768,42.1115,0.0],[3.1732,42.1121,0.0],[3.1712,42.1149,9.3635],[3.1646,42.1135,9.1162],[3.1632,42.1157,0.0],[3.1543,42.1179,7.9191],[3.1493,42.1215,0.0],[3.1462,42.121,0.2704],[3.1454,42.1179,0.0],[3.1418,42.1146,2.4377],[3.1371,42.1157,0.0],[3.139,42.1204,0.0],[3.1368,42.1271,0.0],[3.1249,42.1271,0.0],[3.1249,42.131,0.0],[3.1224,42.1315,6.6753],[3.1232,42.1335,0.0],[3.1218,42.1365,0.7355],[3.1199,42.1374,2.0561],[3.1199,42.1404,5.0866],[3.1151,42.1465,0.2521],[3.1113,42.1676,0.0],[3.1096,42.1937,0.2468],[3.1121,42.211,0.1149],[3.119,42.229,0.4462],[3.1299,42.2429,0.5794],[3.136,42.2463,0.0],[3.136,42.2493,0.7217],[3.1382,42.2524,0.0971],[3.1474,42.2588,0.2375],[3.1507,42.259,0.359],[3.1512,42.2571,0.0],[3.1529,42.261,3.372],[3.1629,42.2649,1.4169],[3.1707,42.2649,0.8995],[3.1737,42.2635,0.3287],[3.1751,42.2607,1.7388],[3.1799,42.2593,0.8866],[3.1807,42.2565,6.3209],[3.1782,42.2554,0.0957],[3.1793,42.2526,0.0],[3.1804,42.2549,10.3064],[3.1796,42.251,0.0],[3.1818,42.2493,6.726],[3.1804,42.2471,22.554],[3.1829,42.2451,0.0],[3.1971,42.2471,22.1386],[3.1982,42.2429,0.0],[3.2037,42.2404,0.0],[3.2076,42.241,17.4773],[3.209,42.2393,2.946],[3.2074,42.2371,8.8523],[3.2124,42.2368,0.0],[3.2179,42.2321,11.635],[3.2215,42.2337,0.0],[3.2218,42.2365,0.0],[3.2268,42.2374,0.0],[3.2254,42.2396,38.0159],[3.229,42.2401,0.0],[3.2265,42.2429,0.0],[3.231,42.2451,5.2565],[3.2276,42.2485,0.0],[3.2285,42.2513,1.1021],[3.2374,42.2471,11.0052],[3.2387,42.2501,1.6993],[3.2437,42.2496,3.2494],[3.2488,42.2401,0.0],[3.264,42.2368,0.0],[3.2665,42.2426,38.1485],[3.264,42.2443,0.0],[3.2554,42.244,0.0],[3.2546,42.2465,0.0],[3.2565,42.2493,0.0],[3.2537,42.2526,3.1313],[3.2621,42.2507,10.2561],[3.271,42.2543,85.648],[3.2763,42.2524,14.328],[3.2818,42.254,0.0],[3.2812,42.2574,7.2999],[3.2879,42.2657,0.0],[3.2868,42.2674,61.5239],[3.2876,42.2707,0.0],[3.2837,42.2707,0.0],[3.2832,42.2738,0.0],[3.2804,42.2751,21.9536],[3.2807,42.2774,0.0],[3.2774,42.2799,0.0],[3.2801,42.2818,0.0],[3.276,42.284,6.6197],[3.2776,42.2876,0.0],[3.2796,42.2888,22.5839],[3.2812,42.286,2.2796],[3.2871,42.2851,0.0],[3.2876,42.2824,1.0607],[3.2921,42.2829,1.3995],[3.2924,42.2801,0.0],[3.2938,42.2807,0.8664],[3.2932,42.2829,1.3995],[3.2976,42.2835,0.0],[3.2968,42.2854,0.3077],[3.2999,42.2849,0.0],[3.2971,42.2899,0.7251],[3.2968,42.2951,0.0],[3.2938,42.2932,2.2148],[3.2943,42.2904,22.7469],[3.2921,42.2924,0.0],[3.2871,42.2924,17.7106],[3.2876,42.294,7.0278],[3.2921,42.2951,1.9006],[3.2899,42.2979,0.0],[3.2921,42.2985,0.0],[3.2932,42.3018,17.3734],[3.2888,42.3026,0.8975],[3.2904,42.3043,1.8369],[3.2901,42.3065,0.0],[3.2943,42.3068,0.0],[3.296,42.304,10.8927],[3.3007,42.3043,0.0],[3.301,42.306,0.0],[3.2993,42.3068,9.3757],[3.3032,42.3079,3.8569],[3.3029,42.3107,10.1191],[3.3121,42.3118,0.0],[3.3135,42.3138,0.0],[3.3129,42.3163,4.3087],[3.3157,42.3138,5.5364],[3.3188,42.3143,0.0],[3.3174,42.3165,3.0961],[3.3213,42.3165,0.0],[3.3226,42.3193,0.0],[3.3168,42.3238,0.0],[3.3115,42.3251,0.0],[3.3099,42.3251,0.0],[3.3099,42.3207,2.2999],[3.3082,42.3224,0.0],[3.3087,42.3268,0.0],[3.3057,42.3285,1.7798],[3.3024,42.3268,6.5309],[3.2976,42.3296,0.0],[3.2957,42.3288,0.0],[3.2926,42.3301,1.6057],[3.289,42.3299,0.0],[3.2876,42.3282,5.149],[3.2865,42.334,0.0],[3.2804,42.3321,0.0],[3.281,42.3357,4.4847],[3.269,42.339,0.0],[3.2682,42.3404,28.1817],[3.2629,42.3407,0.0],[3.2613,42.3357,15.5716],[3.2499,42.3351,0.0],[3.2501,42.3299,8.2905],[3.2471,42.3349,5.7277],[3.2474,42.3371,0.0],[3.2415,42.3357,18.4251],[3.2421,42.3382,0.0],[3.2374,42.3421,14.0245],[3.2385,42.349,0.0],[3.2304,42.3521,0.0],[3.224,42.3493,0.7485],[3.2151,42.3496,0.0],[3.2151,42.3476,0.0],[3.2118,42.3476,0.0],[3.2101,42.3446,4.0535],[3.204,42.3476,0.0],[3.1999,42.3418,0.0],[3.2035,42.3404,3.3792],[3.2026,42.3363,0.3606],[3.1971,42.3349,2.9774],[3.1857,42.3432,4.0379],[3.1879,42.3518,8.7128],[3.1821,42.3515,5.4882],[3.1807,42.3537,0.0],[3.174,42.3551,25.5314],[3.1718,42.3579,5.2673],[3.1632,42.3604,46.499],[3.1654,42.3624,0.0],[3.1638,42.3649,0.0],[3.1674,42.3662,0.0],[3.1657,42.3743,0.0],[3.1626,42.3746,0.0],[3.1613,42.371,1.7939],[3.1588,42.3718,5.5279],[3.159,42.3746,0.5578],[3.1557,42.3785,0.7001],[3.1554,42.3812,9.3066],[3.1674,42.3885,0.0],[3.1674,42.3899,1.5923],[3.1629,42.3913,0.0],[3.1585,42.3896,3.4064],[3.1537,42.3915,9.3264],[3.1526,42.3935,11.1652],[3.1649,42.4004,0.0],[3.164,42.4038,0.0],[3.1571,42.4046,1.5053],[3.1565,42.4068,0.0],[3.1599,42.4074,0.0],[3.1621,42.4107,3.7351],[3.1657,42.4104,0.0],[3.1654,42.4135,0.0],[3.171,42.416,7.3177],[3.169,42.421,24.4581],[3.1707,42.4246,1.7733],[3.161,42.4282,10.7678],[3.1685,42.4296,0.0],[3.1707,42.4313,6.7059],[3.171,42.434,158.2928],[3.1737,42.4338,45.8062],[3.1743,42.4351,0.0],[3.1446,42.4331,305.0731],[3.1246,42.4351,470.5085],[3.1208,42.438,602.3066],[3.1081,42.4336,546.749],[3.1026,42.4266,634.2697],[3.0956,42.425,606.5052],[3.0858,42.4258,683.137],[3.0724,42.4358,642.1282],[3.07,42.4362,686.2588],[3.0474,42.4568,520.0532],[3.0409,42.4726,914.0756],[3.0325,42.4744,914.2964],[3.0132,42.4664,964.7333],[3.0005,42.4729,1101.1987],[2.9868,42.4731,1062.4749],[2.9804,42.4677,1049.7228],[2.9675,42.4655,993.5513],[2.9471,42.4818,1230.1907],[2.9329,42.4744,1113.4348],[2.9247,42.4589,894.3729],[2.9184,42.4562,890.0446],[2.8822,42.4606,631.1126],[2.8708,42.4669,391.211],[2.8665,42.4654,327.3771],[2.8619,42.4556,338.7267],[2.8576,42.4542,334.0073],[2.8399,42.459,478.8954],[2.8277,42.4394,717.0265],[2.821,42.4397,703.2233],[2.8159,42.4379,743.9429],[2.8012,42.4231,712.7728],[2.7993,42.4183,769.4444],[2.7802,42.4145,725.4233],[2.7768,42.4117,782.41],[2.7712,42.4122,875.8385],[2.7596,42.4186,1029.4994],[2.7566,42.4248,1207.2734],[2.7519,42.4254,1273.1377],[2.724,42.4227,1390.1707],[2.6932,42.4064,1078.7649],[2.6739,42.4045,1129.8701],[2.6712,42.3869,924.9666],[2.6655,42.3855,961.7231],[2.6538,42.3877,1107.1155],[2.6529,42.3844,1070.5447],[2.6592,42.3797,1011.655],[2.6632,42.3724,857.6929],[2.6617,42.3688,777.2348],[2.6624,42.3659,672.6661],[2.6675,42.3618,635.6617],[2.6701,42.362,588.2897],[2.6752,42.3572,556.1759],[2.6753999999999998,42.3423,607.0865],[2.6716,42.3408,583.2905],[2.66,42.3408,449.6245],[2.6118,42.3461,654.6595],[2.5822,42.3571,1171.505],[2.5668,42.3571,1230.2661],[2.5552,42.3527,1200.8484],[2.5516,42.3411,1143.3955],[2.5486,42.3402,1124.99],[2.542,42.3339,1332.4226],[2.5333,42.3335,1460.4084],[2.5261,42.3334,1513.9559],[2.4984,42.3426,1341.9683],[2.4832,42.3399,1189.6792],[2.4756,42.3461,1352.0425],[2.4669,42.3595,1405.1011],[2.4568,42.3635,1596.9974],[2.4561,42.3667,1530.4142],[2.4529,42.3688,1538.0585],[2.4429,42.3711,1606.0255],[2.4355,42.3753,1587.6437],[2.433,42.3814,1625.5166],[2.4346,42.3849,1605.7067],[2.4333,42.392,1620.1133],[2.4103,42.3922,1548.969],[2.396,42.3951,1605.2225],[2.3841,42.4002,1664.0049],[2.3718,42.4006,1649.9153],[2.3608,42.4029,1820.2489],[2.346,42.4094,2168.3213],[2.3449,42.4144,2354.9758],[2.3309,42.4158,2347.0522],[2.3241,42.418,2391.8638],[2.3183,42.4225,2455.3376],[2.3187,42.425,2482.3674],[2.3106,42.4284,2356.0015],[2.3011,42.4244,2436.1372],[2.2912,42.4229,2470.0303],[2.2571,42.4385,2673.1797],[2.2458,42.4286,2553.1895],[2.2263,42.4258,2726.6919],[2.207,42.4187,2716.5686],[2.2068,42.4172,2770.3396],[2.1869,42.4177,2757.9209],[2.1848,42.4192,2727.2996],[2.1569,42.4234,2754.8335],[2.1332,42.4143,2804.5527],[2.1244,42.4076,2593.6123],[2.1217,42.3972,2810.5251],[2.1151,42.3944,2780.8337],[2.1141,42.3857,2758.0317],[2.1164,42.3834,2888.4775],[2.0895,42.3737,2630.0112],[2.0859,42.3637,2538.4841],[2.084,42.3622,2527.4736],[2.0819,42.364,2502.1602],[2.0767,42.3644,2476.0815],[2.0599,42.3586,2394.4905],[2.049,42.3576,2218.7075],[2.0476,42.3561,2200.2019],[2.0461,42.3573,2197.7529],[2.0235,42.3552,2183.0813],[2.0152,42.3474,1974.9419],[1.9858,42.3622,1965.5679],[1.9825,42.3664,1910.7424],[1.9717,42.374,1774.7483],[1.9644,42.3826,1655.7653],[1.9647,42.3879,1559.1974],[1.9613,42.3903,1495.1884],[1.9606,42.3988,1283.6469],[1.9552,42.4121,1155.1843],[1.9582,42.4236,1183.1697],[1.9412,42.4305,1134.0068],[1.9429,42.4445,1156.6873],[1.9338,42.4542,1237.5801],[1.922,42.4477,1187.7412],[1.9157,42.4462,1191.6377],[1.8996,42.45,1242.7278],[1.8961,42.4496,1259.4224],[1.8956,42.4476,1273.397],[1.8908,42.4481,1286.0226],[1.8899,42.4499,1306.093],[1.8844,42.4499,1369.7976],[1.881,42.459,1447.4613],[1.8677,42.4644,1524.5974],[1.8562,42.4637,1755.9624],[1.8473,42.4683,1754.6475],[1.8469,42.4708,1773.3585],[1.8444,42.4721,1810.8151],[1.8457,42.473,1798.8885],[1.8389,42.479,1890.5482],[1.8303,42.4832,2237.4592],[1.8191,42.4842,2394.144],[1.817,42.4831,2393.8853],[1.8052,42.4887,2578.7891],[1.8003,42.4884,2580.1016],[1.7925,42.4853,2622.3928],[1.7799,42.4874,2677.4814],[1.7676,42.4868,2816.5249],[1.7466,42.4948,2705.4346],[1.7309,42.4925,2846.79],[1.7263,42.5049,2476.8906],[1.7115,42.4923,2240.7207],[1.7036,42.4898,2276.1606],[1.691,42.4948,2389.4441],[1.6789,42.4955,2478.1809],[1.6704,42.5042,2794.3389],[1.6626,42.4936,2557.8167],[1.6609,42.479,2676.7314],[1.6625,42.474,2809.0037],[1.6559,42.4682,2894.7346],[1.6458,42.4688,2731.012],[1.6405,42.4667,2733.0625],[1.6351,42.4672,2759.0781],[1.63,42.4636,2809.4333],[1.6234,42.4655,2708.5044],[1.6053,42.4648,2681.9529],[1.5976,42.4676,2599.2261],[1.5867,42.4618,2665.5593],[1.583,42.457,2516.5308],[1.5809,42.45,2741.1191],[1.5755,42.4518,2663.0659],[1.567,42.459,2613.125],[1.5612,42.4587,2607.325],[1.557,42.4539,2576.366],[1.5597,42.4483,2521.6426],[1.5549,42.4461,2497.8999],[1.5531,42.4435,2417.8909],[1.5526,42.4335,2201.4932],[1.5258,42.4322,2022.4368],[1.5123,42.4296,1748.7139],[1.4763,42.4355,866.0481],[1.4566,42.4359,1202.4446],[1.4516,42.4375,1177.047],[1.4441,42.4437,1338.2273],[1.4468,42.4438,1436.5321],[1.4462,42.4482,1613.989],[1.4418,42.4535,1802.9097],[1.4475,42.4601,1921.2786],[1.4401,42.4644,2030.9983],[1.441,42.4755,1930.728],[1.4334,42.4818,2147.7529],[1.4192,42.4838,2117.8667],[1.4258,42.4935,1733.877],[1.4434,42.4952,1431.3643],[1.4692,42.5108,2310.7966],[1.4653,42.5138,2132.979],[1.46,42.5235,2222.4441],[1.4539,42.5271,2321.3618],[1.4518,42.5344,2307.9077],[1.4526,42.5382,2257.3103],[1.4437,42.5426,1944.7289],[1.4397,42.5437,1846.6511],[1.4231,42.5379,2415.9238],[1.4142,42.5377,2568.292],[1.4192,42.5451,2318.8628],[1.4193,42.5495,2369.6467],[1.4262,42.5587,2492.1628],[1.4446,42.5667,2492.6799],[1.4444,42.572,2588.7607],[1.4331,42.5756,2630.2109],[1.4273,42.5831,2651.2297],[1.4284,42.5878,2843.1396],[1.4407,42.5881,2747.2476],[1.4442,42.5924,2847.9438],[1.442,42.5993,2813.5034],[1.4289,42.6134,2631.5725],[1.4299,42.6153,2582.6025],[1.4209,42.6249,2805.7593],[1.413,42.6526,2793.6846],[1.4055,42.6569,2920.958],[1.3928,42.6674,2919.1953],[1.3871,42.6688,3016.3682],[1.3892,42.6731,2858.7656],[1.3862,42.6781,2878.8291],[1.3879,42.6873,2590.5813],[1.377,42.6941,2600.4731],[1.3653,42.6952,2597.5544],[1.3544,42.7003,2531.9602],[1.3518,42.7029,2448.3472],[1.3528,42.7113,2473.9873],[1.3554,42.7134,2495.2671],[1.3574,42.7194,2504.6738],[1.3401,42.7188,2373.1011],[1.3353,42.724,2477.6621],[1.3259,42.7241,2493.3667],[1.3093,42.7179,2543.3582],[1.2953,42.7191,2447.5693],[1.2781,42.7148,2738.8198],[1.2772,42.7163,2700.7603],[1.2692,42.718,2649.8875],[1.2519,42.7148,2553.3469],[1.2509,42.7187,2458.769],[1.2425,42.7241,2281.9897],[1.2293,42.7277,2577.3364],[1.2163,42.7207,2526.4744],[1.1891,42.7164,2528.9631],[1.1751,42.7088,2789.8135],[1.1707,42.7082,2814.895],[1.165,42.7095,2570.0601],[1.1332,42.7283,2413.219],[1.1341,42.7328,2324.4709],[1.1331,42.7368,2196.2444],[1.1302,42.7391,2090.501],[1.1311,42.7451,2146.2815],[1.1292,42.7527,2311.3706],[1.1175,42.7633,2352.7253],[1.1087,42.7659,2331.3245],[1.1086,42.7702,2315.5635],[1.107,42.7715,2317.8757],[1.09,42.7767,2337.7827],[1.078,42.7877,2590.1426],[1.0732,42.7824,2567.813],[1.0441,42.7808,2647.6113],[1.0425,42.7813,2647.6113],[1.0437,42.7839,2546.2148],[1.0386,42.7861,2516.2932],[1.0379,42.7851,2468.4248],[1.0322,42.7867,2544.0449],[1.0312,42.7852,2527.4072],[1.0071,42.7902,2612.6748],[1.0025,42.7902,2566.6096],[0.9952,42.787,2426.2317],[0.9845,42.7862,2572.4258],[0.9604,42.8052,2672.6484],[0.9473,42.801,2582.0347],[0.9331,42.7909,2481.5134],[0.9355,42.7888,2655.0339],[0.9258,42.7897,2518.9839],[0.9077,42.797,2460.2637],[0.9072,42.7986,2547.303],[0.885,42.8131,2682.6626],[0.8708,42.8156,2594.7676],[0.8609,42.8213,2550.0613],[0.8583,42.8257,2574.6929],[0.8329,42.8283,2081.3491],[0.8015,42.8405,1972.7314],[0.7867,42.836,1726.2151],[0.7788,42.8361,1720.4432],[0.7355,42.8488,611.0806],[0.7348,42.8522,583.6271],[0.7304,42.8557,801.4692],[0.7184,42.8588,1383.2174],[0.7159,42.858,1534.385],[0.7082,42.8613,1711.395],[0.6908,42.8549,1824.4542],[0.6783,42.8551,2119.314],[0.6787,42.8483,2105.8706],[0.6626,42.8411,2042.5265],[0.6592,42.8354,1997.1385],[0.6625,42.8285,1952.8198],[0.6701,42.8244,1902.5453],[0.6705,42.8216,1881.0592],[0.6669,42.8191,1892.3292],[0.6652,42.8143,1942.8062],[0.6713,42.8059,1989.1051],[0.6702,42.802,1881.2715],[0.66,42.7984,1976.0897],[0.6523,42.7877,1797.3119],[0.6449,42.7831,1873.6105],[0.6614,42.776,1521.0459],[0.6683,42.7748,1420.4691],[0.6625,42.77,1304.5331],[0.6565,42.7679,1322.4838],[0.6419,42.7548,1927.5653],[0.6599,42.7522,2006.6166],[0.6634,42.7498,2028.5518],[0.6634,42.7455,2050.5125],[0.6669,42.7412,2109.1702],[0.6701,42.7327,2093.426],[0.6802,42.7233,2186.1792],[0.6756,42.7213,2000.087],[0.6751,42.7172,1890.1893],[0.6779,42.7122,2003.8123],[0.682,42.7091,2086.1145],[0.675,42.6954,2333.0869],[0.6763,42.6911,2419.0752],[0.6687,42.6889,2384.041],[0.6646,42.6911,2493.8711],[0.6601,42.691,2538.1643],[0.66,42.6884,2493.2847],[0.6659,42.6827,2453.0332],[0.6713,42.6812,2547.6128],[0.6734,42.6791,2533.9731],[0.6758,42.6711,2558.116],[0.6797,42.6688,2571.2502],[0.6805,42.6663,2546.9241],[0.687,42.6643,2362.2449],[0.6919,42.6594,2490.897],[0.6951,42.6587,2627.22],[0.6998,42.6328,2903.9014],[0.6983,42.6293,2947.707],[0.7084,42.6212,2731.4731],[0.7174,42.6196,2769.0864],[0.7232,42.6165,2779.9233],[0.7318,42.6156,2648.1511],[0.7364,42.613,2581.0474],[0.7397,42.6126,2525.1917],[0.7439,42.6154,2499.1943],[0.7491,42.6128,2326.6121],[0.7675,42.6113,1532.7827],[0.7659,42.6031,1482.0083],[0.7611,42.5951,1422.0],[0.7599,42.5806,1422.0],[0.7578,42.5762,1375.8022],[0.7586,42.5722,1328.2122],[0.7473,42.5566,1302.3218],[0.7481,42.5522,1250.5414],[0.7409,42.545,1138.8923],[0.7496,42.535,1948.303],[0.7454,42.5353,1734.9167],[0.7351,42.5401,1104.0649],[0.7248,42.5305,1045.2339],[0.7216,42.5252,1038.0051],[0.7239,42.52,1030.6752],[0.7193,42.5128,1022.2598],[0.73,42.5124,1220.2744],[0.7395,42.5052,1620.4926],[0.7333,42.5045,1606.6597],[0.7296,42.4973,1585.8185],[0.7265,42.4981,1537.1753],[0.7133,42.4873,982.5165],[0.7051,42.4944,1246.9237],[0.7005,42.4959,1415.0208],[0.6993,42.4952,1370.4419],[0.7008,42.491,1160.5739],[0.698,42.4864,1304.5281],[0.6905,42.4876,1337.0771],[0.6969,42.4741,1209.76],[0.7061,42.4647,1050.1904],[0.7085,42.4589,985.3286],[0.7063,42.4566,965.545],[0.7065,42.4493,958.2222],[0.7107,42.4389,895.0898],[0.7102,42.4364,893.96],[0.7192,42.429,884.7465],[0.7263,42.4269,887.4537],[0.7359,42.414,855.4208],[0.7345,42.4079,854.5798],[0.7283,42.4079,899.9932],[0.726,42.4053,1015.8212],[0.7365,42.3993,1013.808],[0.7382,42.3997,932.7004],[0.7405,42.3916,902.5693],[0.7418,42.3919,902.5693],[0.7461,42.3848,820.4772],[0.7431,42.3791,811.7002],[0.7353,42.3762,1066.8939],[0.7343,42.3715,1004.5752],[0.7228,42.3688,1076.0204],[0.7233,42.3656,1119.3733],[0.7368,42.3621,945.1587],[0.7462,42.3569,848.5754],[0.7655,42.3562,933.3196],[0.7662,42.3534,869.6793],[0.7713,42.3507,897.7303],[0.7543,42.3467,808.4034],[0.7536,42.3442,801.5],[0.7495,42.3433,801.5],[0.7448,42.3376,805.2368],[0.7404,42.3369,801.5],[0.7437,42.3263,834.733],[0.7592,42.3259,1267.2781],[0.7646,42.3225,1319.6199],[0.7551,42.3135,1080.335],[0.7566,42.3093,931.3362],[0.7449,42.3012,717.4897],[0.7439,42.2857,752.3677],[0.7386,42.2815,652.6757],[0.7398,42.2691,643.2294],[0.735,42.2522,624.165],[0.7335,42.2487,618.9888],[0.7285,42.2459,619.7918],[0.7249,42.2413,611.598],[0.7201,42.2305,597.6042],[0.7149,42.2248,610.6695],[0.7142,42.2219,587.6592],[0.7174,42.2199,615.1727],[0.7134,42.2155,581.3835],[0.7142,42.21,580.3502],[0.7084,42.2043,588.1068],[0.7094,42.1973,579.406],[0.7066,42.1912,565.5167],[0.7026,42.1901,559.1595],[0.7034,42.185,569.006],[0.6986,42.1727,550.6472],[0.7016,42.1696,555.7422],[0.714,42.1634,711.1326],[0.7037,42.1584,665.6016],[0.6959,42.152,536.3979],[0.6954,42.1386,521.9198],[0.698,42.1265,511.42],[0.7022,42.1219,506.1392],[0.6996,42.107,496.3101],[0.6949,42.1014,496.6772],[0.6956,42.0991,496.7697],[0.6851,42.0918,511.3658],[0.6793,42.0761,772.483],[0.6688,42.0612,489.8039],[0.6679,42.0521,468.3872],[0.6686,42.0489,469.2191],[0.6712,42.0474,470.9271],[0.666,42.0418,467.7787],[0.6568,42.0404,466.0],[0.6565,42.0315,466.0],[0.6517,42.0263,466.0],[0.657,42.0149,474.1661],[0.6639,42.0146,504.2817],[0.6573,42.0016,481.25],[0.6466,41.9968,482.0],[0.6444,41.9924,490.0401],[0.6454,41.9871,482.0],[0.642,41.9821,483.8299],[0.6421,41.9869,569.2914],[0.6386,41.9946,641.826],[0.6238,41.9918,584.348],[0.6169,41.9872,482.0],[0.6192,41.9833,482.0],[0.6164,41.9816,482.0],[0.61,41.9689,449.7701],[0.6036,41.9654,372.8235],[0.6044,41.9607,365.3525],[0.5926,41.9689,745.399],[0.587,41.9668,632.5071],[0.586,41.9618,658.2026],[0.5782,41.9576,730.0792],[0.5619,41.9382,834.6765],[0.5625,41.9327,826.6177],[0.5757,41.9307,756.517],[0.577,41.9292,724.8077],[0.6029,41.9223,529.5632],[0.6075,41.9193,377.1057],[0.5949,41.918,364.0],[0.5952,41.9153,364.0],[0.601,41.9086,364.0],[0.5958,41.889,364.0],[0.5928,41.8844,364.0],[0.6083,41.8783,505.865],[0.6073,41.8723,459.6641],[0.6034,41.8691,434.7234],[0.594,41.8681,431.7556],[0.5908,41.8653,360.6483],[0.5801,41.8635,294.9301],[0.5822,41.8577,297.8322],[0.5801,41.8509,287.8765],[0.5622,41.8536,456.1346],[0.5622,41.8522,456.1346],[0.5574,41.8542,449.0753],[0.5525,41.8494,423.5551],[0.5516,41.8407,385.6163],[0.5536,41.8402,375.7674],[0.5534,41.8351,385.4098],[0.5494,41.8265,380.5785],[0.5424,41.8204,369.8906],[0.5251,41.8226,286.6659],[0.5195,41.8209,280.162],[0.5155,41.8224,277.4982],[0.5106,41.8206,272.4944],[0.5022,41.8144,266.2419],[0.499,41.807,255.6302],[0.4952,41.8045,254.4734],[0.4891,41.8052,246.6815],[0.4833,41.8015,248.826],[0.4738,41.7872,250.9904],[0.4697,41.7656,227.6082],[0.4647,41.7632,245.9249],[0.448,41.7647,221.688],[0.4383,41.7613,207.4845],[0.4089,41.7593,196.9382],[0.4006,41.7567,193.5476],[0.3987,41.7578,192.4284],[0.3994,41.7527,191.4218],[0.395,41.7379,185.5648],[0.3955,41.732,183.9863],[0.3848,41.7403,200.8792],[0.3728,41.7239,199.9191],[0.3693,41.7247,200.0386],[0.3687,41.7142,185.0036],[0.3421,41.6966,175.7832],[0.3282,41.6811,167.2581],[0.326,41.6747,170.5],[0.3263,41.6622,166.4207],[0.3329,41.6596,162.3501],[0.3489,41.6368,222.5465],[0.358,41.6317,242.3624],[0.3459,41.6219,215.6198],[0.3496,41.5995,224.8925],[0.3921,41.5953,249.9447],[0.4021,41.5927,238.5349],[0.4285,41.6024,248.8363],[0.4359,41.5849,232.7186],[0.4316,41.5814,229.2955],[0.4302,41.5779,229.626],[0.4329,41.569,203.017],[0.4304,41.5653,217.5952],[0.4391,41.556,213.5071],[0.447,41.5423,209.5613],[0.443,41.5411,182.0783],[0.4323,41.531,135.3639],[0.4271,41.5235,138.8682],[0.4181,41.5176,140.7753],[0.3979,41.4913,126.5569],[0.384,41.4859,142.8],[0.3709,41.4847,247.4294],[0.3474,41.4878,88.39],[0.3421,41.484,86.9497],[0.3414,41.4809,86.13],[0.3449,41.471,83.1174],[0.3446,41.4631,82.8498],[0.3457,41.4607,82.6042],[0.3546,41.4543,77.6041],[0.3554,41.4518,78.4346],[0.3483,41.4433,77.1686],[0.3464,41.4317,91.0561],[0.3475,41.4273,79.655],[0.3419,41.4138,71.4904],[0.32,41.3949,68.5],[0.3323,41.3862,205.3463],[0.36,41.3705,347.7719],[0.3738,41.3504,123.0955],[0.3668,41.3418,92.9796],[0.3592,41.342,68.5],[0.3486,41.3298,68.5],[0.3512,41.3252,68.5],[0.3655,41.3209,72.0618],[0.3683,41.3186,68.5],[0.3702,41.3115,68.5],[0.3657,41.304,68.5],[0.3696,41.2965,347.1256],[0.3857,41.2789,394.6511],[0.3816,41.2736,380.3528],[0.3768,41.2617,333.2468],[0.3779,41.2538,296.8714],[0.3737,41.2494,283.7686],[0.3742,41.2449,191.255],[0.3788,41.2375,68.5],[0.3813,41.2365,68.5],[0.3646,41.2387,68.5],[0.3642,41.2277,68.5],[0.36,41.2255,73.8644],[0.3513,41.2268,68.5],[0.3413,41.2311,134.4618],[0.3384,41.2303,68.5],[0.3313,41.2227,68.5],[0.3224,41.2253,68.5],[0.3189,41.2211,223.1161],[0.3178,41.211,273.1758],[0.3148,41.2071,272.1368],[0.3126,41.1967,303.0362],[0.3098,41.1943,295.971],[0.3083,41.1872,307.7292],[0.306,41.1857,305.9001],[0.305,41.1723,315.5865],[0.3005,41.1669,332.0971],[0.3034,41.1644,323.5678],[0.292,41.1564,332.9823],[0.2731,41.1488,256.7464],[0.253,41.1502,331.4125],[0.256,41.1468,325.1811],[0.2548,41.145,334.6388],[0.2562,41.1437,332.7201],[0.2506,41.1384,334.3619],[0.2518,41.134,340.539],[0.2479,41.1302,346.7351],[0.237,41.1305,275.7726],[0.214,41.1373,211.2703],[0.2129,41.1365,197.5562],[0.2194,41.1344,227.3449],[0.2199,41.1324,203.6614],[0.2013,41.1268,209.385],[0.201,41.1246,210.8287],[0.209,41.1169,226.819],[0.2054,41.1104,236.6161],[0.2064,41.1096,236.6161],[0.2009,41.1027,240.7496],[0.2012,41.0847,246.2581],[0.208,41.0828,253.845],[0.2157,41.0843,251.3364],[0.2201,41.0829,254.3767],[0.2198,41.0792,256.0564],[0.2168,41.0777,262.3768],[0.2204,41.0715,261.0264],[0.2182,41.0629,265.8681],[0.2223,41.0592,269.264],[0.2288,41.0588,293.0255],[0.2302,41.0539,274.9681],[0.2209,41.0498,282.4394],[0.2178,41.0466,284.5186],[0.2178,41.0437,284.3521],[0.2202,41.0417,294.1429],[0.2259,41.0461,289.8351],[0.2331,41.0471,305.8322],[0.2348,41.046,311.2318],[0.2301,41.0398,296.22],[0.2304,41.037,304.6223],[0.2343,41.0346,305.1034],[0.2424,41.0349,311.8094],[0.2435,41.0402,325.1435],[0.2462,41.0413,310.0299],[0.253,41.033,315.1909],[0.2625,41.0267,325.3882],[0.2709,41.026,330.832],[0.2799,41.0198,346.191],[0.2764,41.0181,332.8634],[0.261,41.0189,344.9167],[0.2589,41.0139,344.8521],[0.2645,41.0103,345.778],[0.2706,41.0095,356.1529],[0.2743,41.0072,351.1072],[0.275,41.0053,354.6671],[0.2694,41.0019,353.6884],[0.2685,40.9983,359.0668],[0.2719,40.996,370.2631],[0.2723,40.9935,362.4189],[0.2811,40.9872,403.3088],[0.2824,40.9822,375.0733],[0.2811,40.9749,383.8322],[0.2834,40.9728,384.6301],[0.2894,40.9743,400.6771],[0.2935,40.9706,396.7791],[0.2843,40.9647,422.0361],[0.2854,40.9604,404.7156],[0.281,40.9512,419.2271],[0.276,40.951,440.9589],[0.2761,40.9481,408.3043],[0.2717,40.9448,412.7621],[0.2743,40.9366,421.0627],[0.2674,40.929,437.7567],[0.2606,40.9285,442.9286],[0.2539,40.9197,454.4396],[0.2541,40.9118,462.1766],[0.2488,40.9105,472.9196],[0.2499,40.9073,472.7958],[0.2533,40.9066,473.3708],[0.2496,40.9016,483.8942],[0.2501,40.896,481.274],[0.2459,40.8922,491.405],[0.246,40.8872,513.1525],[0.2413,40.8868,499.0855],[0.239,40.8849,500.6156],[0.2453,40.8805,532.6501],[0.2505,40.8795,525.8368],[0.2518,40.8766,550.2089],[0.2554,40.8746,532.5691],[0.2535,40.8702,530.063],[0.2543,40.8663,542.8808],[0.2517,40.8627,561.4531],[0.2534,40.86,560.8262],[0.2508,40.8563,563.8445],[0.2558,40.8531,568.8886],[0.2552,40.8509,569.3044],[0.2577,40.8485,576.7176],[0.2554,40.8467,588.2632],[0.2587,40.8463,604.5035],[0.26,40.8392,632.7948],[0.2625,40.8388,725.8162],[0.2617,40.8373,611.3322],[0.2666,40.8335,624.8558],[0.2664,40.8315,654.4946],[0.2783,40.8211,874.3154],[0.272,40.8188,1019.7178],[0.2718,40.817,1181.1548],[0.2652,40.8138,1130.2092],[0.2586,40.8046,883.7894],[0.2578,40.8003,748.9964],[0.2499,40.7985,977.2852],[0.2444,40.7921,1066.767],[0.2336,40.787,1209.3113],[0.2329,40.7794,1212.7073],[0.2347,40.7762,1149.4558],[0.2294,40.7712,972.1086],[0.23,40.7675,889.5876],[0.2239,40.7656,880.3981],[0.212,40.7675,1191.7809],[0.2016,40.7576,1124.5536],[0.1963,40.7586,1172.3918],[0.1902,40.7503,1155.9651],[0.185,40.7531,1203.135],[0.1841,40.7556,1175.2152],[0.1813,40.7533,1204.3712],[0.1753,40.755,1174.9534],[0.1763,40.751,1183.7434],[0.174,40.749,1153.2179],[0.1763,40.7438,1122.7006],[0.1754,40.7412,1072.6097],[0.168,40.7448,1096.9967],[0.1646,40.7487,1093.6914],[0.1592,40.7506,1184.8247],[0.1649,40.7433,1241.3702],[0.1632,40.7425,1234.583],[0.1645,40.7401,1234.7638],[0.1675,40.7395,1242.2286],[0.1708,40.7329,1337.5345],[0.1834,40.7282,1182.7103],[0.1911,40.7312,1288.0024],[0.1973,40.7242,1330.9272],[0.2171,40.7326,1264.063],[0.2262,40.7332,1252.7903],[0.2242,40.7257,1114.4562],[0.2275,40.715,904.8785],[0.2348,40.7063,571.7003],[0.236,40.7021,704.516],[0.2419,40.7004,937.9428],[0.2508,40.7046,1096.4733],[0.2619,40.706,1094.8433],[0.2695,40.7034,1057.7583],[0.2769,40.6944,1006.3401],[0.2919,40.6886,886.7307],[0.2924,40.6852,893.1769],[0.2857,40.6792,796.8482],[0.2822,40.6729,758.1711],[0.2753,40.6705,710.582],[0.2683,40.6596,390.8795],[0.2692,40.6479,369.2992],[0.2662,40.6462,354.0631],[0.2662,40.6442,342.9105],[0.271,40.6383,334.8867],[0.2759,40.6369,329.1896],[0.2789,40.6301,319.7288],[0.2923,40.6233,310.5928],[0.2985,40.626,314.6042],[0.3008,40.6226,300.7657],[0.3153,40.6143,284.1018],[0.3185,40.615,280.9163],[0.3453,40.6076,247.9971],[0.3508,40.6082,243.8828],[0.3711,40.6051,219.1929],[0.3748,40.6064,212.809],[0.3892,40.6066,193.2253],[0.3962,40.6025,182.8524],[0.402,40.6024,177.5804],[0.4064,40.5973,169.4358],[0.4046,40.5949,165.5884],[0.4307,40.5797,135.0425],[0.444,40.5782,122.4203],[0.4366,40.5727,128.4769],[0.4384,40.5702,121.3552],[0.4335,40.5654,103.0344],[0.4362,40.5588,96.5547],[0.4359,40.5499,94.3324],[0.438,40.5471,82.5076]]],
[[[0.7321,40.7793,0.0],[0.729,40.7807,0.0],[0.7268,40.7776,0.0],[0.7354,40.7726,0.0],[0.744,40.7715,0.0],[0.7451,40.7726,0.0],[0.7407,40.7743,0.0],[0.7321,40.7793,0.0]]],
[[[1.9767,42.4862,1418.9203],[1.9627,42.4768,1307.2845],[1.9569,42.4581,1192.4653],[1.9602,42.4535,1167.7057],[1.9692,42.4521,1171.5828],[1.9818,42.4476,1215.7261],[2.0102,42.4492,1273.1084],[2.0128,42.4527,1273.3904],[1.9918,42.4626,1204.0729],[1.9866,42.4727,1274.5908],[1.9858,42.4751,1280.1223],[1.991,42.4847,1380.7825],[1.9967,42.4867,1472.9509],[1.9872,42.4932,1564.9054],[1.9804,42.4944,1537.828],[1.9767,42.4862,1418.9203]]],
[[[1.6068,41.1857,0.0],[1.6088,41.186,0.0],[1.6079,41.1882,0.0],[1.6057,41.1868,0.1844],[1.6068,41.1857,0.0]]],
[[[2.1707,41.3376,0.0],[2.1726,41.3374,0.0],[2.1732,41.3393,0.0],[2.1713,41.3396,0.0],[2.1707,41.3376,0.0]]],
[[[3.1846,41.8629,0.0],[3.1851,41.8618,0.0],[3.1882,41.8621,0.0],[3.1879,41.8632,0.0],[3.1846,41.8629,0.0]]],
[[[3.2262,42.0415,-0.0931],[3.2262,42.0407,-0.0931],[3.2299,42.0412,0.0],[3.2282,42.0424,0.0],[3.2262,42.0415,-0.0931]]],
[[[3.226,42.0429,0.0],[3.2274,42.0435,0.0],[3.2279,42.0449,0.0],[3.2238,42.0438,0.0],[3.226,42.0429,0.0]]],
[[[3.2268,42.0476,0.0],[3.2251,42.0504,6.4882],[3.219,42.049,0.0],[3.219,42.0468,0.0],[3.2221,42.0446,0.0],[3.2268,42.0476,0.0]]],
[[[3.3218,42.3235,3.1582],[3.3188,42.3243,2.0035],[3.3218,42.3213,0.0],[3.3246,42.3213,0.0],[3.3246,42.3235,0.0],[3.3232,42.3224,0.0],[3.3218,42.3235,3.1582]]]]}
,"properties": {"GID_1": "ESP.6_1","GID_0": "ESP","country": "Spain","province": "Cataluña","VARNAME_1": "Catalogna|Catalogne|Catalonia|Ca","NL_NAME_1": "NA","TYPE_1": "ComunidadAutónoma","ENGTYPE_1": "AutonomousCommunity","CC_1": "09","HASC_1": "ES.CT","ISO_1": "NA","name": "Cataluña.province","area_km2": 32061.26,"hist_schema_id": "Elevation0-9000","hist_area_km2": {"0": 862.25,"25": 641.32,"50": 623.34,"75": 686.59,"100": 794.16,"125": 883.32,"150": 874.67,"175": 910.55,"200": 952.11,"225": 989.72,"250": 1008.28,"275": 909.74,"300": 843.15,"325": 816.59,"350": 767.6,"375": 742.28,"400": 719.8,"425": 715.83,"450": 722.2,"475": 747.73,"500": 709.93,"525": 689.41,"550": 673.91,"575": 670.45,"600": 660.82,"625": 649.03,"650": 620.59,"675": 596.19,"700": 550.5,"725": 503.7,"750": 451.8,"775": 399.0,"800": 367.77,"825": 331.48,"850": 291.31,"875": 273.31,"900": 254.01,"925": 239.09,"950": 233.61,"975": 228.27,"1000": 221.12,"1025": 213.89,"1050": 206.37,"1075": 202.3,"1100": 197.57,"1125": 194.29,"1150": 181.43,"1175": 176.13,"1200": 168.37,"1225": 163.8,"1250": 153.89,"1275": 152.39,"1300": 142.78,"1325": 135.22,"1350": 129.81,"1375": 127.03,"1400": 125.05,"1425": 121.73,"1450": 119.24,"1475": 120.07,"1500": 115.54,"1525": 110.46,"1550": 109.47,"1575": 104.27,"1600": 101.75,"1625": 100.35,"1650": 99.93,"1675": 96.75,"1700": 94.91,"1725": 92.54,"1750": 90.47,"1775": 85.79,"1800": 85.07,"1825": 83.09,"1850": 81.18,"1875": 79.35,"1900": 77.36,"1925": 74.95,"1950": 73.69,"1975": 73.0,"2000": 70.48,"2025": 68.39,"2050": 65.56,"2075": 63.23,"2100": 61.93,"2125": 62.08,"2150": 60.75,"2175": 59.79,"2200": 60.21,"2225": 59.06,"2250": 57.25,"2275": 56.28,"2300": 53.76,"2325": 52.18,"2350": 51.33,"2375": 49.14,"2400": 46.58,"2425": 45.92,"2450": 42.63,"2475": 39.51,"2500": 35.06,"2525": 32.12,"2550": 30.36,"2575": 26.47,"2600": 22.29,"2625": 19.52,"2650": 17.79,"2675": 14.96,"2700": 12.49,"2725": 10.4,"2750": 8.18,"2775": 6.25,"2800": 3.92,"2825": 2.84,"2850": 2.09,"2875": 1.11,"2900": 0.81,"2925": 0.39}}}