{"type": "Feature","bbox": [-9.3018,42.4626,-7.6624,43.7915],"geometry": {"type": "MultiPolygon","coordinates": [[[[-9.0143,42.4851,0.0],[-9.0157,42.4876,0.0],[-9.0207,42.4837,0.0],[-9.0221,42.4729,0.0],[-9.0204,42.4721,0.0],[-9.0182,42.4663,0.0],[-9.014,42.4632,0.0],[-9.0099,42.4626,0.2626],[-9.0082,42.4654,5.8812],[-9.001,42.4665,0.0],[-8.9987,42.469,0.0],[-9.0049,42.4726,0.7692],[-9.0076,42.4799,0.0],[-9.0143,42.4851,0.0]]],
[[[-9.0015,42.491,0.0],[-9.0018,42.4926,0.0],[-9.0035,42.4921,0.0],[-9.0029,42.4893,0.0],[-9.0015,42.491,0.0]]],
[[[-9.004,42.4924,0.0487],[-9.0043,42.494,0.0],[-9.0068,42.4932,0.0],[-9.0065,42.4918,0.0],[-9.004,42.4924,0.0487]]],
[[[-9.0035,42.4985,0.0],[-9.004,42.5004,1.4861],[-9.0099,42.4993,0.0],[-9.0074,42.4985,0.4712],[-9.0062,42.4943,0.0],[-9.0029,42.4968,0.0],[-9.0035,42.4985,0.0]]],
[[[-9.0429,42.511,0.0],[-9.0426,42.5132,0.0],[-9.0499,42.5132,0.0],[-9.056,42.5076,0.0],[-9.0493,42.5054,0.0],[-9.0429,42.511,0.0]]],
[[[-9.079,42.5185,0.0],[-9.0804,42.5196,0.0],[-9.0793,42.5163,0.0],[-9.0779,42.5165,0.0],[-9.079,42.5185,0.0]]],
[[[-9.0904,42.6379,0.0],[-9.0929,42.6393,0.0],[-9.0938,42.6365,0.0],[-9.0888,42.6357,0.0],[-9.0904,42.6379,0.0]]],
[[[-9.0826,42.7335,0.0],[-9.0835,42.7326,0.0],[-9.0812,42.7326,0.0],[-9.0799,42.736,0.0],[-9.0826,42.7343,0.0],[-9.0826,42.7335,0.0]]],
[[[-8.9537,42.5843,1.3902],[-8.9454,42.5851,1.945],[-8.9399,42.5826,2.703],[-8.9368,42.5846,1.9578],[-8.9326,42.5838,5.4335],[-8.9304,42.5868,0.0],[-8.9201,42.5865,0.0],[-8.9207,42.594,0.0],[-8.9235,42.5965,10.4319],[-8.9321,42.5965,10.6639],[-8.9365,42.6018,3.6326],[-8.9371,42.6071,0.9347],[-8.9326,42.6093,0.8854],[-8.9312,42.6079,0.6015],[-8.9315,42.6046,0.2989],[-8.9301,42.6046,0.2989],[-8.9299,42.6074,0.6015],[-8.9329,42.6107,4.7699],[-8.931,42.6115,0.0],[-8.931,42.6135,4.6928],[-8.9279,42.6129,0.0],[-8.9282,42.614,16.0633],[-8.9215,42.6179,21.2613],[-8.9221,42.6207,29.6494],[-8.9196,42.6235,3.5426],[-8.9101,42.6282,0.0],[-8.9104,42.6296,0.0],[-8.9068,42.6318,0.0],[-8.9029,42.6324,11.5572],[-8.9026,42.636,0.2121],[-8.9004,42.6387,0.0],[-8.9018,42.6426,1.3618],[-8.8982,42.644,11.8712],[-8.8951,42.644,14.8079],[-8.8943,42.6426,9.5107],[-8.899,42.6421,-1.0],[-8.8993,42.6407,5.4884],[-8.8849,42.6401,2.5619],[-8.8774,42.6368,0.7025],[-8.8738,42.6326,12.4227],[-8.874,42.6282,9.4412],[-8.8807,42.6276,0.0],[-8.8832,42.6257,0.386],[-8.8835,42.6229,7.2581],[-8.8879,42.6201,0.4496],[-8.8865,42.6157,0.0],[-8.8887,42.6137,0.6882],[-8.8901,42.6151,0.0],[-8.8912,42.614,0.0],[-8.8876,42.6101,0.0],[-8.8849,42.6149,1.1041],[-8.8807,42.6124,1.4399],[-8.8757,42.614,5.8445],[-8.8693,42.6104,0.4765],[-8.8687,42.6082,0.0],[-8.8651,42.6096,2.8488],[-8.8618,42.606,0.7507],[-8.8568,42.6063,0.0],[-8.8571,42.6115,0.0],[-8.8601,42.6113,7.7384],[-8.8618,42.6146,4.4576],[-8.8618,42.6171,20.276],[-8.8596,42.6179,0.0],[-8.8582,42.6268,0.0],[-8.8557,42.6274,5.7024],[-8.8557,42.6299,4.1637],[-8.8535,42.6307,8.8197],[-8.8462,42.6307,8.4595],[-8.8415,42.6288,8.125],[-8.8396,42.629,4.682],[-8.8379,42.6321,1.5832],[-8.8385,42.6351,1.2891],[-8.8443,42.6374,4.7846],[-8.8462,42.6404,7.3561],[-8.856,42.6404,15.5675],[-8.861,42.6463,4.2781],[-8.8549,42.6504,0.0],[-8.8562,42.6526,9.3212],[-8.8512,42.6593,0.0],[-8.8521,42.664,11.1915],[-8.851,42.666,2.4878999999999998],[-8.8454,42.6654,0.0],[-8.8435,42.6626,0.0],[-8.8399,42.6615,0.0],[-8.8415,42.664,27.9363],[-8.8404,42.6754,0.0],[-8.8426,42.6776,5.5203],[-8.8415,42.6793,21.6336],[-8.8432,42.6824,24.4811],[-8.8424,42.6862,0.6783],[-8.8365,42.6776,3.2599],[-8.834,42.6763,1.8141],[-8.829,42.6662,0.0],[-8.8179,42.6657,5.5638],[-8.8154,42.664,4.7689],[-8.8143,42.6601,19.3182],[-8.8157,42.6574,9.5876],[-8.8196,42.6524,0.0],[-8.8213,42.6524,0.0],[-8.8204,42.6501,7.8611],[-8.8232,42.6501,0.4878],[-8.8221,42.6485,3.7731],[-8.8249,42.646,0.0],[-8.8126,42.6443,4.346],[-8.8035,42.6387,2.1368],[-8.8037,42.6368,0.0],[-8.801,42.6385,0.0],[-8.7999,42.6365,1.0516],[-8.7949,42.6368,0.5901],[-8.7876,42.6401,0.6946],[-8.7782,42.6418,0.0],[-8.7707,42.6485,0.0],[-8.7704,42.6518,0.0],[-8.7638,42.6518,0.8077],[-8.7587,42.6474,10.845],[-8.7546,42.6476,0.0],[-8.7499,42.651,3.8357],[-8.7468,42.6507,1.5697],[-8.7463,42.6585,0.0],[-8.7432,42.6635,0.0],[-8.744,42.6654,0.5421],[-8.7404,42.6649,1.866],[-8.7374,42.6696,2.1756],[-8.7301,42.6732,4.7218],[-8.7266,42.6771,0.0],[-8.726,42.6794,0.0],[-8.7303,42.6844,0.2039],[-8.7299,42.6864,0.0],[-8.7256,42.6877,4.8198],[-8.7266,42.6883,0.1975],[-8.7224,42.6949,0.2261],[-8.7249,42.699,0.0],[-8.7172,42.7063,0.0],[-8.7033,42.7072,0.8499],[-8.6775,42.7118,3.202],[-8.6762,42.7175,1.6757],[-8.6548,42.7205,0.5109],[-8.6543,42.7267,0.0],[-8.6508,42.7291,5.7441],[-8.6499,42.7272,2.888],[-8.6448,42.7261,49.8731],[-8.643,42.7238,60.0132],[-8.631,42.7202,173.6311],[-8.6238,42.7142,205.4742],[-8.6229,42.7163,177.8044],[-8.6163,42.7188,147.4078],[-8.6141,42.7147,195.515],[-8.6065,42.7151,292.7672],[-8.604,42.7168,260.7607],[-8.6074,42.7255,312.5563],[-8.5998,42.7431,18.6781],[-8.5934,42.7437,31.7225],[-8.5812,42.7414,31.2738],[-8.579,42.7435,38.2453],[-8.5716,42.7421,42.3952],[-8.5635,42.7462,45.7134],[-8.5545,42.7467,29.4048],[-8.5594,42.7556,25.840699999999998],[-8.5564,42.7606,28.8435],[-8.5485,42.7607,30.3133],[-8.5459,42.7537,31.1264],[-8.5333,42.7519,40.1537],[-8.5306,42.7561,33.9419],[-8.5268,42.7554,33.986],[-8.5226,42.7518,46.0621],[-8.5169,42.7513,42.9388],[-8.512,42.755,40.0769],[-8.5072,42.7561,40.2162],[-8.493,42.7564,39.6379],[-8.4879,42.7516,52.4041],[-8.4697,42.7436,53.4213],[-8.4449,42.7482,45.5553],[-8.4329,42.7459,50.1743],[-8.4302,42.7466,52.7714],[-8.4221,42.7544,61.7642],[-8.4104,42.7532,64.6554],[-8.4068,42.7542,46.7172],[-8.4064,42.7563,45.8167],[-8.4153,42.7642,77.4115],[-8.4133,42.7681,61.7004],[-8.41,42.7684,55.2308],[-8.4041,42.7723,51.4516],[-8.4,42.7804,73.8901],[-8.3981,42.7812,56.9993],[-8.3913,42.7767,225.5412],[-8.3886,42.7808,199.5509],[-8.3923,42.7861,75.8984],[-8.3921,42.7891,62.7136],[-8.3828,42.7895,66.2661],[-8.3826,42.7851,71.8291],[-8.3787,42.7841,75.4451],[-8.3687,42.7854,69.1531],[-8.3608,42.7836,72.0532],[-8.3542,42.7788,72.0432],[-8.3476,42.7839,67.927],[-8.348,42.7885,64.0846],[-8.34,42.7932,66.9136],[-8.3319,42.7942,66.4425],[-8.3334,42.7999,88.7196],[-8.33,42.8111,81.3463],[-8.331,42.8148,74.0147],[-8.3339,42.8172,76.4257],[-8.3296,42.8234,78.1545],[-8.3303,42.8273,109.0767],[-8.334,42.8302,84.3216],[-8.3425,42.8284,91.3992],[-8.3459,42.8322,87.6401],[-8.3455,42.8359,94.3784],[-8.3393,42.8406,94.9481],[-8.3349,42.8392,88.2728],[-8.3296,42.8421,100.4135],[-8.3259,42.8312,100.8681],[-8.3219,42.8334,119.3696],[-8.3213,42.8393,95.9602],[-8.3153,42.8459,139.4618],[-8.3137,42.8415,110.3689],[-8.3104,42.8389,111.209],[-8.3118,42.8339,107.1345],[-8.3102,42.8304,153.9432],[-8.3075,42.8297,119.3187],[-8.3027,42.8318,105.692],[-8.2933,42.8296,107.4522],[-8.2931,42.8281,115.1967],[-8.2983,42.8254,118.571],[-8.2994,42.8189,113.73779999999999],[-8.2884,42.8179,121.438],[-8.2793,42.8109,120.0655],[-8.274,42.813,116.1075],[-8.2767,42.8165,120.1996],[-8.2767,42.8216,125.0961],[-8.2634,42.8287,135.6691],[-8.2625,42.8322,131.7269],[-8.2551,42.8364,150.9196],[-8.2458,42.8334,153.8338],[-8.2478,42.8291,132.6113],[-8.2465,42.8278,154.5143],[-8.244,42.8276,144.0148],[-8.2362,42.8328,161.9042],[-8.2331,42.8322,164.3772],[-8.2326,42.8289,148.5],[-8.2286,42.8267,165.6063],[-8.2102,42.8237,188.7506],[-8.206,42.826,154.261],[-8.2058,42.8322,166.5222],[-8.2123,42.834,156.9416],[-8.2161,42.8406,182.3072],[-8.2212,42.8424,166.5],[-8.2206,42.8443,178.0143],[-8.2148,42.8462,170.2897],[-8.2105,42.8456,222.1907],[-8.2074,42.8429,181.265],[-8.2032,42.8443,187.0963],[-8.1978,42.8515,186.5544],[-8.1835,42.86,242.5],[-8.1805,42.858,242.5],[-8.1751,42.8583,242.5],[-8.1647,42.8547,242.5],[-8.1637,42.8517,242.5],[-8.1597,42.8499,242.5],[-8.1554,42.8505,245.7868],[-8.1518,42.8468,251.0862],[-8.1429,42.8478,242.5],[-8.1393,42.846,244.696],[-8.1399,42.8436,252.9829],[-8.1379,42.843,242.5],[-8.1349,42.8432,245.3148],[-8.1262,42.85,246.4053],[-8.12,42.8503,242.5],[-8.1207,42.8464,242.5],[-8.1162,42.8411,242.5],[-8.1112,42.847,242.5],[-8.1047,42.845,247.11],[-8.1049,42.8484,242.5],[-8.1029,42.8498,242.5],[-8.1009,42.8472,242.5],[-8.0887,42.8536,242.5],[-8.0831,42.8547,253.107],[-8.0809,42.8532,249.9485],[-8.0716,42.8524,266.5402],[-8.0679,42.8455,275.9334],[-8.0601,42.8431,295.5704],[-8.0606,42.8407,300.2837],[-8.0645,42.8406,294.7374],[-8.063,42.8361,292.0882],[-8.0542,42.8371,306.5994],[-8.0549,42.8333,295.9227],[-8.0458,42.8315,308.1013],[-8.0413,42.838,305.1369],[-8.0352,42.8381,311.477],[-8.0308,42.8403,308.4117],[-8.0241,42.8471,314.6802],[-8.0159,42.847,318.6138],[-8.0134,42.8502,316.7632],[-8.0106,42.8486,319.6494],[-7.9996,42.8489,327.7765],[-7.9949,42.8506,344.5015],[-7.9953,42.8532,343.8071],[-7.9917,42.8573,359.1805],[-7.9935,42.8588,376.4682],[-7.9875,42.8649,387.9727],[-7.9874,42.8682,392.8348],[-7.9831,42.8707,399.7961],[-7.9777,42.8774,413.201],[-7.9646,42.8799,444.3047],[-7.956,42.8844,471.1205],[-7.9539,42.8893,512.0648],[-7.9353,42.9034,694.5674],[-7.9432,42.9173,688.3971],[-7.9384,42.9229,718.6316],[-7.9161,42.9323,792.7505],[-7.908,42.9512,707.6622],[-7.9051,42.9854,753.4257],[-7.9138,42.9989,741.7905],[-7.914,43.0079,715.3008],[-7.9266,43.0324,703.5266],[-7.926,43.0357,718.3438],[-7.9291,43.0357,718.8019],[-7.9311,43.0429,781.3064],[-7.9308,43.0487,796.5613],[-7.9395,43.0602,704.211],[-7.9428,43.0676,708.4364],[-7.9219,43.0823,719.687],[-7.9167,43.0882,760.9904],[-7.918,43.0924,760.199],[-7.9278,43.0998,644.8375],[-7.9369,43.1118,612.4512],[-7.9506,43.1643,575.0881],[-7.9501,43.1772,543.2867],[-7.958,43.183,511.3087],[-7.9612,43.1898,488.5217],[-7.9446,43.2162,721.0042],[-7.9426,43.2251,710.8544],[-7.9322,43.2424,689.0338],[-7.9217,43.2694,662.224],[-7.9257,43.2751,639.3198],[-7.9397,43.2776,620.3965],[-7.9469,43.286,637.0286],[-7.942,43.2889,635.1899],[-7.931,43.3017,671.6477],[-7.9172,43.3092,676.5098],[-7.9094,43.3154,661.2373],[-7.9053,43.3226,669.1456],[-7.8994,43.3274,608.1212],[-7.8925,43.33,593.8718],[-7.8876,43.3363,667.3617],[-7.8814,43.3524,642.9693],[-7.8862,43.3693,592.2786],[-7.8854,43.3754,596.6387],[-7.8922,43.3855,430.4656],[-7.8969,43.3861,322.6321],[-7.898,43.3897,364.1183],[-7.894,43.3925,356.7805],[-7.8908,43.3984,329.3833],[-7.8798,43.4073,370.8907],[-7.8714,43.4061,466.1874],[-7.8695,43.4082,487.5044],[-7.8575,43.4052,505.5504],[-7.8457,43.3994,477.0152],[-7.8367,43.4017,469.5166],[-7.8229,43.4007,459.2132],[-7.8112,43.4157,465.6458],[-7.8052,43.4266,439.3586],[-7.8102,43.4283,429.0555],[-7.808,43.4299,455.3533],[-7.8098,43.4312,463.5126],[-7.8071,43.4373,566.3336],[-7.7942,43.446,566.0526],[-7.7934,43.4445,571.7599],[-7.7838,43.4461,499.3566],[-7.7799,43.4489,472.1973],[-7.7752,43.4598,434.2022],[-7.7752,43.4666,420.0746],[-7.7729,43.4681,431.4079],[-7.7727,43.4709,442.3203],[-7.7695,43.4727,428.2729],[-7.7708,43.4756,438.6724],[-7.7662,43.485,475.5829],[-7.7681,43.4876,563.0268],[-7.757,43.4981,525.4099],[-7.7617,43.5023,526.184],[-7.7581,43.5091,454.3411],[-7.7539,43.5095,449.5357],[-7.7514,43.5076,442.444],[-7.7463,43.5088,465.9896],[-7.7443,43.512,481.1049],[-7.7445,43.5136,443.7401],[-7.7485,43.5134,446.0628],[-7.7474,43.5155,443.5572],[-7.749,43.5162,415.7984],[-7.7465,43.5174,422.8852],[-7.7494,43.5196,427.6949],[-7.746,43.521,511.6368],[-7.749,43.5236,414.9342],[-7.7435,43.5262,451.4485],[-7.7441,43.5286,430.5111],[-7.7462,43.5293,380.0108],[-7.7442,43.5299,411.5032],[-7.748,43.533,385.1951],[-7.749,43.5318,384.8537],[-7.7549,43.532,365.4882],[-7.7478,43.5419,353.6016],[-7.7519,43.5458,362.6716],[-7.7537,43.5448,348.6095],[-7.7572,43.5482,312.4335],[-7.76,43.5482,304.9286],[-7.7527,43.55,326.9033],[-7.7568,43.5518,328.6987],[-7.7521,43.5527,321.9975],[-7.7549,43.5554,297.9936],[-7.7505,43.5569,283.9188],[-7.7523,43.5596,288.4792],[-7.749,43.5613,296.8129],[-7.7458,43.569,286.8936],[-7.7436,43.5701,317.8526],[-7.7453,43.5755,353.7088],[-7.7486,43.5776,289.5038],[-7.7461,43.5807,282.7062],[-7.7423,43.5819,281.0193],[-7.74,43.5795,274.8799],[-7.7292,43.5813,264.2154],[-7.7278,43.583,277.3425],[-7.7205,43.5793,253.4714],[-7.7176,43.584,248.6689],[-7.722,43.5853,300.2195],[-7.7197,43.5892,298.2769],[-7.7207,43.5989,263.7018],[-7.7294,43.5999,246.0525],[-7.7302,43.6028,243.6905],[-7.7246,43.6041,238.458],[-7.7222,43.6081,225.5648],[-7.7306,43.6105,234.9861],[-7.725,43.6117,282.5038],[-7.7247,43.613,219.6484],[-7.7328,43.6163,207.3652],[-7.7353,43.6213,204.9383],[-7.7309,43.6217,241.1145],[-7.7317,43.6256,239.139],[-7.7265,43.6243,223.0727],[-7.7251,43.6276,234.3048],[-7.7181,43.6333,241.4259],[-7.7187,43.6349,236.2027],[-7.7169,43.6359,263.541],[-7.7185,43.6376,210.2383],[-7.7154,43.6391,282.8103],[-7.7169,43.6454,195.4687],[-7.7095,43.6442,154.9493],[-7.7062,43.6471,200.4468],[-7.7012,43.644,163.656],[-7.6945,43.6481,159.2555],[-7.694,43.651,140.3242],[-7.6962,43.6533,135.3653],[-7.6908,43.6546,136.6918],[-7.7009,43.6684,123.6637],[-7.7065,43.6722,139.8757],[-7.7085,43.6707,107.7482],[-7.7075,43.6786,132.8519],[-7.7127,43.6794,125.8996],[-7.7191,43.6873,104.0424],[-7.7164,43.6881,101.8824],[-7.7088,43.685,137.3624],[-7.7065,43.6865,94.0569],[-7.7024,43.6863,107.5497],[-7.7034,43.6926,103.3552],[-7.6984,43.6956,53.7799],[-7.7029,43.6958,155.2243],[-7.7016,43.6991,147.8042],[-7.7072,43.7012,47.2919],[-7.7073,43.7028,4.6981],[-7.7014,43.7066,0.1738],[-7.7052,43.7078,15.7704],[-7.7071,43.7107,2.3715],[-7.7079,43.7079,5.5134],[-7.7099,43.7101,0.0],[-7.7082,43.7121,40.1507],[-7.7029,43.7121,3.1655],[-7.7015,43.7146,22.9902],[-7.6965,43.7154,0.0],[-7.7021,43.7207,13.0568],[-7.6999,43.7249,0.0],[-7.701,43.7365,0.0],[-7.699,43.7388,33.7887],[-7.6874,43.7421,32.3383],[-7.6865,43.744,0.0],[-7.6913,43.7485,48.7389],[-7.689,43.7515,0.0],[-7.6885,43.756,3.2807],[-7.6843,43.759,34.2359],[-7.676,43.761,0.0],[-7.6749,43.7626,3.0109],[-7.6762,43.7637,3.0109],[-7.6765,43.7696,12.5026],[-7.6721,43.7718,0.0],[-7.6693,43.7721,17.1158],[-7.6687,43.7704,0.0],[-7.6635,43.7724,0.0],[-7.6624,43.7774,13.2513],[-7.6687,43.7826,2.9241],[-7.6732,43.7835,43.8412],[-7.6757,43.7876,0.0],[-7.684,43.7874,2.5753],[-7.6896,43.7915,0.0],[-7.6868,43.7865,0.0],[-7.6885,43.7765,7.3061],[-7.7149,43.766,0.0],[-7.7179,43.7615,0.0],[-7.716,43.7557,25.9858],[-7.7182,43.7582,0.0],[-7.7218,43.7571,0.0],[-7.7265,43.7543,0.0],[-7.7265,43.7521,0.0],[-7.7287,43.7507,0.0],[-7.7329,43.751,0.0],[-7.7343,43.7487,0.0],[-7.7446,43.7449,14.0216],[-7.7518,43.7485,0.1092],[-7.7543,43.7418,62.4757],[-7.7599,43.7388,3.914],[-7.766,43.7376,27.808],[-7.7738,43.7401,0.0],[-7.7746,43.7379,0.0],[-7.7726,43.736,0.4604],[-7.7754,43.7343,0.0],[-7.7882,43.734,0.0],[-7.794,43.736,0.0],[-7.7982,43.7324,0.0],[-7.7965,43.7263,0.0],[-7.8035,43.7215,14.4202],[-7.8049,43.7218,13.6137],[-7.8065,43.7271,0.0],[-7.8126,43.7268,3.8041],[-7.8143,43.7221,0.1642],[-7.8096,43.7218,1.7747],[-7.8076,43.7168,4.4105],[-7.8171,43.7129,0.9699],[-7.8221,43.7157,0.0],[-7.8254,43.7157,0.0],[-7.8285,43.7132,8.8156],[-7.8296,43.7088,0.0],[-7.8263,43.7068,3.2216],[-7.8251,43.7012,0.0],[-7.8187,43.7012,6.9324],[-7.8135,43.6974,2.3205],[-7.8087,43.6971,12.2207],[-7.8082,43.6954,5.6794],[-7.8135,43.696,0.0],[-7.8207,43.694,0.1787],[-7.824,43.6971,0.0],[-7.8357,43.6976,0.4791],[-7.8376,43.7012,0.9436],[-7.8301,43.7024,0.0],[-7.8332,43.7049,0.0],[-7.8493,43.7032,3.0278],[-7.8576,43.7065,1.2668],[-7.861,43.7062,0.0],[-7.861,43.7043,0.0],[-7.864,43.7035,0.0],[-7.8649,43.7004,40.3954],[-7.8687,43.6979,0.0],[-7.8604,43.6893,1.1266],[-7.8593,43.6871,7.1803],[-7.8601,43.6832,0.0],[-7.8546,43.6829,2.6623],[-7.8515,43.6785,0.0],[-7.8457,43.6768,0.4624],[-7.844,43.6751,0.0],[-7.8443,43.6715,0.0],[-7.8474,43.6688,0.9083],[-7.8501,43.6726,0.0],[-7.8568,43.671,0.4059],[-7.8651,43.6682,10.4096],[-7.8671,43.6651,0.0],[-7.8718,43.6651,4.5252],[-7.8751,43.6676,0.1128],[-7.8776,43.6643,0.0302],[-7.8821,43.6638,0.3283],[-7.8851,43.6638,0.0],[-7.8874,43.6662,3.2239],[-7.8968,43.6707,0.4139],[-7.8929,43.671,0.3376],[-7.8904,43.6685,0.0],[-7.8832,43.6668,0.0],[-7.879,43.671,0.6802],[-7.8715,43.6721,8.4855],[-7.8715,43.681,0.0],[-7.8779,43.6835,0.0],[-7.8876,43.6846,-0.1671],[-7.8904,43.6868,0.3192],[-7.8893,43.6896,3.3337],[-7.8782,43.6871,9.5526],[-7.8813,43.6918,19.003],[-7.8793,43.6968,8.3576],[-7.8796,43.701,21.6848],[-7.8771,43.7015,0.0],[-7.8737,43.706,1.825],[-7.8699,43.7065,0.0],[-7.8721,43.7115,37.5389],[-7.876,43.7135,0.0],[-7.8774,43.7215,0.0],[-7.8751,43.7218,26.3077],[-7.8737,43.7163,11.6906],[-7.8701,43.7157,29.2994],[-7.8635,43.7107,12.7602],[-7.8526,43.7088,11.6306],[-7.849,43.7096,0.0],[-7.849,43.711,0.0],[-7.854,43.7132,16.2596],[-7.8496,43.7171,0.0],[-7.851,43.7187,0.0],[-7.8546,43.7191,4.6402],[-7.8543,43.7257,0.0],[-7.8607,43.7251,22.8022],[-7.8707,43.7307,1.3933],[-7.8726,43.7368,4.2446],[-7.8718,43.7385,1.4875],[-7.8674,43.7396,9.272],[-7.8649,43.7349,1.2276],[-7.8621,43.7337,0.0],[-7.864,43.7368,0.4378],[-7.8637,43.741,3.923],[-7.8662,43.744,2.9802],[-7.8624,43.7462,3.4494],[-7.864,43.7518,10.684],[-7.8626,43.7568,15.1655],[-7.8587,43.7588,0.0],[-7.8587,43.7626,0.0],[-7.8679,43.7707,58.1663],[-7.869,43.7746,0.0],[-7.8785,43.7663,0.0],[-7.8907,43.7635,26.2792],[-7.8974,43.7637,131.8612],[-7.9038,43.769,0.0],[-7.906,43.769,0.0],[-7.9085,43.7615,82.0215],[-7.9154,43.7551,0.0],[-7.9171,43.7504,51.2941],[-7.9212,43.7476,63.6523],[-7.9212,43.744,104.8101],[-7.9296,43.7396,24.5539],[-7.9343,43.7401,141.1771],[-7.9404,43.7435,0.0],[-7.9507,43.7418,0.0],[-7.9507,43.7376,0.0],[-7.9468,43.7335,67.4832],[-7.9515,43.7293,8.5959],[-7.9635,43.7212,33.6577],[-7.9668,43.7212,0.0],[-7.9707,43.7188,0.305],[-7.9776,43.7207,0.0],[-7.9763,43.7185,10.5673],[-7.9782,43.7154,75.3494],[-7.9938,43.7101,2.8801],[-7.9996,43.7057,0.0],[-8.006,43.7043,3.7169],[-8.0151,43.7118,8.2237],[-8.0232,43.7121,0.0],[-8.0257,43.7096,8.716],[-8.0313,43.7143,0.371],[-8.0335,43.7143,0.0],[-8.0399,43.714,0.0],[-8.0438,43.7113,19.7066],[-8.0474,43.7135,0.0],[-8.0471,43.7121,0.0],[-8.0562,43.7099,0.0],[-8.0554,43.7079,0.0],[-8.0588,43.7046,23.878],[-8.0624,43.7054,0.0],[-8.0635,43.7015,0.0],[-8.0651,43.701,0.0],[-8.0638,43.6974,0.0],[-8.0682,43.6954,0.0],[-8.066,43.6926,0.0],[-8.0688,43.6893,0.0],[-8.0668,43.6829,5.6237],[-8.0735,43.6835,4.793],[-8.0754,43.6821,0.0],[-8.071,43.6743,1.4539],[-8.0746,43.6738,0.0],[-8.0735,43.6693,1.8857],[-8.076,43.6682,0.0],[-8.0724,43.6654,0.0],[-8.0735,43.6615,7.9628],[-8.0765,43.6607,0.0],[-8.0724,43.6582,0.0],[-8.0704,43.6549,0.0],[-8.0696,43.6563,0.359],[-8.0704,43.6579,4.7843],[-8.0688,43.6593,9.2348],[-8.0654,43.6579,0.0],[-8.0554,43.659,3.6383],[-8.0524,43.6576,8.2874],[-8.0504,43.6515,3.5944],[-8.0518,43.6493,3.6828],[-8.0707,43.6512,0.0],[-8.0718,43.6488,0.0],[-8.066,43.6421,0.0],[-8.0601,43.6396,1.0772],[-8.0521,43.6396,2.6296],[-8.0549,43.6351,0.0],[-8.0494,43.6357,12.6466],[-8.0507,43.6332,26.8089],[-8.0576,43.6329,7.1574],[-8.0571,43.6357,0.0],[-8.0596,43.6362,0.1588],[-8.0638,43.6351,34.5454],[-8.0713,43.6407,2.3759],[-8.0796,43.6404,15.7226],[-8.0804,43.6362,0.0],[-8.0857,43.6387,8.9231],[-8.0874,43.6424,1.1043],[-8.0818,43.6468,0.0],[-8.0818,43.6526,10.7356],[-8.0871,43.6549,4.3214],[-8.0868,43.6615,0.0],[-8.0899,43.6662,0.0],[-8.0929,43.6671,0.0],[-8.0946,43.6579,6.2316],[-8.0974,43.656,0.0],[-8.0954,43.6535,56.1876],[-8.1037,43.6526,0.6305],[-8.1018,43.6449,18.8008],[-8.1104,43.6499,0.0],[-8.1135,43.6454,0.0],[-8.1088,43.641,0.0],[-8.1157,43.6382,3.2287],[-8.1182,43.6382,4.2039],[-8.1201,43.6426,0.0],[-8.1229,43.6437,6.3586],[-8.1276,43.6346,0.0],[-8.1313,43.6362,0.0],[-8.1388,43.6354,0.0],[-8.1426,43.6279,6.2373],[-8.146,43.6265,0.0],[-8.1496,43.6199,18.8373],[-8.1604,43.6143,0.0],[-8.1821,43.614,0.0],[-8.1807,43.6162,4.1516],[-8.1807,43.6226,0.0],[-8.1829,43.6213,1.9362],[-8.1876,43.6218,3.1254],[-8.1901,43.6188,3.7639],[-8.1899,43.6129,9.4739],[-8.1943,43.6138,0.0],[-8.1987,43.6124,1.1931],[-8.1974,43.6087,0.0],[-8.1943,43.6065,0.0],[-8.1954,43.604,0.0],[-8.201,43.6035,13.2151],[-8.2001,43.6001,19.2156],[-8.2021,43.5971,0.0],[-8.2132,43.594,0.1201],[-8.2126,43.5924,0.0],[-8.2165,43.5921,0.0],[-8.2185,43.5868,56.0891],[-8.2201,43.5863,0.0],[-8.2163,43.5835,0.0],[-8.2174,43.5821,0.0],[-8.2374,43.5718,2.637],[-8.246,43.5654,90.5661],[-8.249,43.5657,0.0],[-8.2543,43.5607,33.2292],[-8.2579,43.5601,7.2919],[-8.2626,43.5563,26.2562],[-8.2726,43.5549,1.9456],[-8.2774,43.5596,0.0],[-8.2796,43.559,0.0],[-8.284,43.5621,0.0],[-8.2851,43.5599,1.3057],[-8.284,43.5579,0.0],[-8.2893,43.556,2.7822],[-8.2962,43.5563,0.8795],[-8.3054,43.5649,1.7102],[-8.3079,43.5649,15.7721],[-8.3068,43.5685,12.7938],[-8.309,43.5693,0.0],[-8.3162,43.5693,0.0],[-8.3224,43.5651,36.765],[-8.326,43.5599,0.0],[-8.324,43.5546,14.2136],[-8.3185,43.554,19.3147],[-8.3151,43.5554,17.7926],[-8.3165,43.5535,0.0],[-8.3132,43.5518,7.5699],[-8.3154,43.5507,0.0],[-8.3143,43.5471,47.2781],[-8.3124,43.5451,0.0],[-8.309,43.5449,0.0],[-8.3037,43.5468,6.6186],[-8.3029,43.546,6.6186],[-8.3057,43.541,0.0],[-8.2985,43.541,3.703],[-8.2987,43.5388,0.0],[-8.2965,43.5385,8.8147],[-8.2982,43.5374,0.0],[-8.2937,43.5335,5.8322],[-8.2957,43.5301,5.3485],[-8.3076,43.5232,2.56],[-8.3104,43.5235,30.3474],[-8.3107,43.5276,0.7595],[-8.3232,43.5257,0.0],[-8.3285,43.5182,6.5],[-8.3293,43.5137,6.4413],[-8.3321,43.5129,1.4986],[-8.3285,43.5104,6.0151],[-8.3315,43.5074,0.0],[-8.3196,43.5024,5.5476],[-8.319,43.4974,0.0],[-8.3224,43.4882,9.0081],[-8.3251,43.489,0.0],[-8.3265,43.4871,0.0],[-8.3251,43.4837,11.2702],[-8.3351,43.4793,0.0],[-8.336,43.4765,3.681],[-8.3393,43.4757,0.0],[-8.3443,43.4707,0.0],[-8.3426,43.4663,6.2742],[-8.3465,43.4663,0.0],[-8.3468,43.4643,16.269],[-8.3482,43.4643,0.0],[-8.3462,43.4615,0.0],[-8.3413,43.4613,3.8181],[-8.3407,43.4582,0.0],[-8.3346,43.4607,7.046],[-8.3321,43.4646,6.4082],[-8.3285,43.4646,5.3519],[-8.3174,43.4701,2.1448],[-8.3121,43.4674,8.1933],[-8.3082,43.4685,6.8926],[-8.3057,43.4654,0.0],[-8.2999,43.4654,2.9093],[-8.2985,43.4608,0.0],[-8.2896,43.4615,0.0],[-8.2863,43.4643,15.3077],[-8.2812,43.4637,0.0],[-8.2801,43.4671,6.9058],[-8.2779,43.4682,0.0],[-8.266,43.4674,0.7717],[-8.2601,43.4735,0.0],[-8.2596,43.4804,0.0],[-8.2579,43.4832,0.0],[-8.2582,43.4893,8.9089],[-8.2557,43.4904,0.0],[-8.2518,43.4896,0.0],[-8.2479,43.4932,0.8282],[-8.2451,43.4932,2.1079],[-8.2429,43.4896,4.1902],[-8.249,43.4857,0.5049],[-8.2546,43.4851,2.7232],[-8.256,43.4837,0.0],[-8.256,43.4787,0.0],[-8.2515,43.4793,0.0],[-8.254,43.4818,0.0],[-8.254,43.484,2.7232],[-8.251,43.4846,3.512],[-8.2493,43.4768,0.0],[-8.2437,43.4754,0.0],[-8.2465,43.4774,4.4166],[-8.2454,43.4785,0.6092],[-8.241,43.4735,0.0],[-8.239,43.4741,0.9008],[-8.2404,43.4774,5.5123],[-8.231,43.4807,4.0059],[-8.2307,43.4787,2.0301],[-8.2351,43.4768,5.839],[-8.236,43.4746,3.7198],[-8.2299,43.4757,1.7576],[-8.2268,43.4749,0.0],[-8.2249,43.4724,1.3673],[-8.2201,43.4774,8.5442],[-8.216,43.4771,2.7003],[-8.2146,43.481,3.6246],[-8.2113,43.4832,3.6796],[-8.2085,43.4818,4.1714],[-8.2082,43.4771,5.1657],[-8.2001,43.4779,1.1916],[-8.1974,43.4815,3.4907],[-8.1943,43.4801,0.0],[-8.1915,43.481,0.0],[-8.1926,43.4846,0.0],[-8.1915,43.4857,0.0],[-8.1979,43.486,0.0],[-8.1954,43.4888,11.3273],[-8.1868,43.4904,0.0],[-8.184,43.4938,17.9391],[-8.1765,43.494,11.4736],[-8.1749,43.4968,4.4522],[-8.171,43.4985,0.0],[-8.1735,43.5054,0.0],[-8.1654,43.5088,0.0],[-8.1668,43.5121,5.6239],[-8.1535,43.5129,3.5716],[-8.1543,43.5107,0.6626],[-8.1599,43.5079,0.0804],[-8.1635,43.4924,4.4088],[-8.1682,43.4879,3.3841],[-8.1693,43.4801,3.1274],[-8.1737,43.4771,1.3626],[-8.1771,43.4771,1.0842],[-8.1818,43.4815,0.2775],[-8.1843,43.4779,3.8973],[-8.1924,43.476,0.0],[-8.1915,43.474,1.4236],[-8.1857,43.4749,0.0],[-8.1815,43.474,3.3107],[-8.1812,43.4726,1.6389],[-8.1871,43.4707,0.0],[-8.1938,43.4718,0.0],[-8.1935,43.4704,0.0],[-8.191,43.4701,0.6213],[-8.1912,43.4651,9.8655],[-8.1976,43.4637,5.5588],[-8.2004,43.4604,20.601],[-8.2193,43.4604,10.3659],[-8.2201,43.4574,0.0],[-8.2299,43.4565,11.9662],[-8.2329,43.4574,2.6311],[-8.2324,43.4618,2.0463],[-8.2299,43.4624,0.0],[-8.2313,43.4632,0.0],[-8.2412,43.4643,0.0],[-8.2407,43.4607,1.9801],[-8.2479,43.4607,0.0],[-8.2546,43.466,0.0],[-8.2571,43.4651,0.0],[-8.2565,43.4626,4.7143],[-8.2626,43.4621,0.0],[-8.2668,43.4557,1.6354],[-8.2685,43.4557,0.0],[-8.2707,43.4588,0.0],[-8.2696,43.4635,1.7083],[-8.2735,43.4635,5.3045],[-8.2779,43.4593,4.4135],[-8.284,43.4601,6.8062],[-8.2918,43.456,0.0],[-8.3026,43.4543,0.0],[-8.3099,43.4543,0.0],[-8.3124,43.4557,0.0],[-8.3124,43.4504,0.0],[-8.3065,43.449,11.604],[-8.3035,43.4465,0.6353],[-8.3168,43.4449,0.0],[-8.3146,43.4421,15.2359],[-8.3096,43.4404,0.0],[-8.2987,43.4396,0.0],[-8.2996,43.4371,0.0],[-8.2979,43.4354,0.0],[-8.281,43.4368,13.148],[-8.2762,43.4321,3.1508],[-8.2674,43.429,26.1432],[-8.2607,43.4221,13.7877],[-8.2576,43.4221,17.6425],[-8.2579,43.4193,1.5116],[-8.2532,43.4207,14.2543],[-8.2446,43.4171,7.538],[-8.2385,43.4201,2.6433],[-8.2412,43.4221,0.0],[-8.2435,43.4215,7.6075],[-8.2446,43.4238,2.776],[-8.2382,43.4299,3.2307],[-8.2371,43.4285,0.0],[-8.2304,43.4296,3.7578],[-8.2224,43.4274,9.2471],[-8.2168,43.4226,20.2122],[-8.2165,43.4182,0.0],[-8.2104,43.4207,10.3899],[-8.204,43.4201,0.0],[-8.2024,43.4215,0.0],[-8.2029,43.4243,7.7888],[-8.1974,43.4265,2.4348],[-8.1876,43.4246,12.3264],[-8.1857,43.4221,0.0],[-8.1796,43.421,16.2551],[-8.1807,43.4188,0.0],[-8.174,43.4204,3.3504],[-8.1727,43.419,3.3504],[-8.1729,43.4113,0.0],[-8.1693,43.4129,3.6105],[-8.1679,43.4115,0.0],[-8.1654,43.4135,0.0],[-8.1521,43.4135,0.0],[-8.1499,43.421,45.5002],[-8.1396,43.4221,7.4339],[-8.1346,43.4243,0.0],[-8.1396,43.4212,0.0],[-8.1488,43.4196,9.785],[-8.1485,43.414,3.6456],[-8.1599,43.4087,5.3852],[-8.1601,43.4049,7.024],[-8.1701,43.4082,2.5209],[-8.1754,43.4124,0.0],[-8.1829,43.4135,10.7612],[-8.1896,43.4135,4.9287],[-8.1954,43.4107,0.0],[-8.2054,43.4093,0.0],[-8.209,43.4046,25.6108],[-8.2126,43.404,0.0],[-8.2132,43.4012,5.9636],[-8.2115,43.3974,0.0],[-8.2165,43.3924,6.9756],[-8.219,43.3935,3.2091],[-8.2215,43.3921,0.0],[-8.2201,43.3896,0.0],[-8.2224,43.3882,0.0],[-8.2207,43.3874,0.07],[-8.2254,43.3846,0.8451],[-8.2201,43.3846,0.0],[-8.2182,43.3776,0.0],[-8.2149,43.3782,2.6345],[-8.2146,43.3751,9.6989],[-8.2185,43.3718,4.2339],[-8.2176,43.3676,1.7283],[-8.2129,43.3668,0.0],[-8.2104,43.3635,0.0],[-8.2063,43.3646,3.855],[-8.2054,43.3621,2.6393],[-8.2121,43.3565,2.8908],[-8.2207,43.3535,0.0],[-8.2176,43.351,0.0],[-8.2124,43.3512,6.5084],[-8.2104,43.3499,6.5045],[-8.2085,43.3432,0.0],[-8.2032,43.3393,3.1612],[-8.2038,43.3365,15.219],[-8.2082,43.3379,5.7051],[-8.2107,43.3407,0.0],[-8.214,43.339,0.0],[-8.2085,43.3321,24.3334],[-8.2087,43.3271,9.9587],[-8.2065,43.3262,0.2558],[-8.2063,43.3232,0.0],[-8.2024,43.3218,2.5515],[-8.204,43.319,0.0],[-8.2101,43.3162,3.9854],[-8.2096,43.3088,4.0682],[-8.2118,43.3051,0.3111],[-8.2157,43.3037,0.0],[-8.2143,43.2943,0.3525],[-8.2154,43.2915,1.1108],[-8.2171,43.2912,0.3306],[-8.2157,43.2954,0.3406],[-8.2196,43.301,0.0],[-8.2132,43.3074,0.193],[-8.2124,43.3101,0.1605],[-8.2107,43.3104,4.0682],[-8.2124,43.3157,0.0],[-8.2146,43.3129,0.0746],[-8.2143,43.3162,0.7258],[-8.2065,43.319,0.1671],[-8.2057,43.3207,0.3671],[-8.2101,43.3271,0.0],[-8.2126,43.3276,5.0945],[-8.2146,43.3312,3.6211],[-8.2171,43.331,7.6373],[-8.2179,43.3329,2.2779],[-8.2232,43.3329,4.2324],[-8.2238,43.3363,0.0],[-8.229,43.3424,0.0],[-8.241,43.3429,2.1026],[-8.2412,43.346,0.0],[-8.2437,43.3482,2.4587],[-8.2504,43.349,0.0],[-8.2529,43.3529,1.4616],[-8.2524,43.3549,0.0],[-8.2454,43.3565,0.0],[-8.2446,43.3585,0.0],[-8.2463,43.3593,0.0],[-8.2496,43.3579,1.2829],[-8.251,43.3613,11.3278],[-8.2493,43.3632,4.0381],[-8.249,43.3615,0.0],[-8.2449,43.3621,0.9523],[-8.2501,43.3649,3.7806],[-8.2507,43.3671,0.0],[-8.2599,43.3701,16.5515],[-8.2613,43.3763,0.0],[-8.2643,43.3785,29.288],[-8.2643,43.3826,0.0],[-8.2687,43.3851,18.4642],[-8.2721,43.3849,19.2459],[-8.2721,43.3865,2.3184],[-8.2838,43.3857,0.0],[-8.2874,43.3829,18.2108],[-8.2962,43.3854,14.399],[-8.2968,43.3893,0.0],[-8.2985,43.3901,27.7985],[-8.2971,43.3979,0.0],[-8.2999,43.4001,18.8604],[-8.3032,43.3993,3.2652],[-8.3062,43.4057,0.0],[-8.3135,43.4024,0.0],[-8.3287,43.4029,10.9149],[-8.3435,43.3979,0.0],[-8.3496,43.3976,0.0],[-8.3507,43.3957,18.7733],[-8.3493,43.3924,0.0],[-8.3443,43.3913,0.0],[-8.3551,43.3901,1.6196],[-8.3504,43.3871,42.7892],[-8.3501,43.3854,18.6177],[-8.356,43.3849,0.0],[-8.3571,43.3829,0.0],[-8.356,43.381,0.0],[-8.3507,43.379,0.0],[-8.3485,43.3815,1.7709],[-8.341,43.3818,1.6588],[-8.3376,43.3782,1.0833],[-8.3396,43.3724,0.0],[-8.3454,43.3724,0.0],[-8.3435,43.369,0.0],[-8.3399,43.3676,3.0172],[-8.3476,43.3662,0.0],[-8.3496,43.3579,0.0],[-8.3526,43.3568,0.0],[-8.3471,43.354,22.7264],[-8.3501,43.3507,0.0],[-8.3474,43.3504,0.0],[-8.3476,43.3479,2.1863],[-8.3546,43.3474,0.0],[-8.3551,43.3443,6.6313],[-8.3607,43.3435,0.0],[-8.3626,43.341,0.0],[-8.3726,43.3443,0.0],[-8.374,43.344,0.0],[-8.3735,43.3407,9.8418],[-8.3749,43.3393,3.5972],[-8.3835,43.3399,6.7552],[-8.3804,43.3379,0.0],[-8.3813,43.3335,0.0],[-8.3799,43.3312,0.0],[-8.3768,43.3315,2.389],[-8.3707,43.3285,0.0],[-8.3679,43.3229,0.0],[-8.3612,43.3213,3.1268],[-8.359,43.319,15.4148],[-8.3596,43.3162,4.3588],[-8.3646,43.3201,5.0084],[-8.3693,43.3199,0.9769],[-8.3746,43.3235,1.0304],[-8.3779,43.3237,2.0887],[-8.3793,43.3249,3.1222],[-8.3787,43.3293,1.243],[-8.3818,43.3299,4.1943],[-8.3829,43.3335,1.087],[-8.3868,43.3368,11.6239],[-8.3865,43.3429,45.7679],[-8.3837,43.3429,0.0],[-8.3824,43.3451,2.6581],[-8.3824,43.3474,0.4843],[-8.3857,43.3499,0.0],[-8.3804,43.3515,0.0],[-8.381,43.3546,0.6447],[-8.3787,43.3574,0.0],[-8.3846,43.3551,0.0],[-8.3918,43.3585,3.9584],[-8.3926,43.3607,0.6554],[-8.3874,43.361,6.7529],[-8.3918,43.364,0.0],[-8.3968,43.3629,0.0],[-8.3988,43.3596,2.5015],[-8.4026,43.361,0.0],[-8.4029,43.3635,2.3608],[-8.3988,43.3638,0.5812],[-8.3996,43.3662,0.0],[-8.3979,43.3671,0.0],[-8.3915,43.3674,3.4882],[-8.3874,43.3651,0.0],[-8.3851,43.366,0.0],[-8.3846,43.3688,0.0],[-8.3921,43.374,1.3705],[-8.3954,43.3796,16.3829],[-8.3918,43.3857,0.0],[-8.3996,43.3904,1.7197],[-8.4018,43.3874,1.2551],[-8.4079,43.3879,5.8401],[-8.4096,43.386,2.9066],[-8.4079,43.3843,0.0],[-8.4104,43.3851,3.7209],[-8.4121,43.3818,1.0652],[-8.4035,43.3735,0.0],[-8.4087,43.3688,2.8665],[-8.4179,43.3718,4.2459],[-8.4188,43.3751,0.0],[-8.4215,43.3776,0.7827],[-8.4299,43.3779,45.755],[-8.4385,43.3824,0.0],[-8.4476,43.3771,5.7541],[-8.4465,43.3732,11.3414],[-8.4499,43.3732,7.7188],[-8.4529,43.371,1.7696],[-8.4582,43.3721,0.0],[-8.4599,43.371,0.0],[-8.4601,43.3693,0.0],[-8.4579,43.369,0.4968],[-8.4596,43.3626,1.0008],[-8.4571,43.3607,0.0],[-8.4629,43.3607,0.0],[-8.4713,43.3576,1.9521],[-8.474,43.3543,2.5997],[-8.4885,43.3529,2.9847],[-8.4857,43.3585,1.5841],[-8.4874,43.3613,0.0],[-8.4918,43.3613,0.0],[-8.5004,43.3535,4.8846],[-8.4999,43.3521,4.8846],[-8.4963,43.3526,5.9581],[-8.4951,43.3499,18.1349],[-8.5057,43.3326,1.6619],[-8.5046,43.3299,6.8261],[-8.5057,43.3285,15.3644],[-8.5087,43.3262,4.3184],[-8.5149,43.3282,5.7521],[-8.5176,43.3274,1.4827],[-8.5238,43.3213,17.7037],[-8.5285,43.3207,0.0],[-8.5329,43.3151,17.0271],[-8.5385,43.3162,7.0796],[-8.5476,43.3112,5.0335],[-8.556,43.3112,0.0],[-8.5637,43.3149,0.0],[-8.5676,43.3138,0.0],[-8.5779,43.3179,0.0],[-8.5904,43.3165,36.0796],[-8.5899,43.3215,0.0],[-8.591,43.3218,8.8874],[-8.6046,43.3179,13.0791],[-8.6018,43.3204,0.0],[-8.6049,43.3207,9.1508],[-8.6071,43.3235,0.0],[-8.6082,43.3224,0.0],[-8.6074,43.3176,0.7417],[-8.6099,43.3146,6.3545],[-8.6138,43.3168,1.2463],[-8.6207,43.3171,0.0],[-8.6412,43.3076,0.0],[-8.646,43.3085,4.2645],[-8.6685,43.3001,3.1905],[-8.684,43.2971,0.7428],[-8.6968,43.2915,3.2344],[-8.7135,43.2893,0.9569],[-8.7204,43.291,19.9978],[-8.7224,43.2932,6.2311],[-8.7224,43.2968,0.0],[-8.7254,43.2974,0.0],[-8.726,43.2993,0.0],[-8.7326,43.2946,3.3374],[-8.7421,43.2938,0.0],[-8.7487,43.2946,22.7959],[-8.7501,43.2968,0.0],[-8.7554,43.2971,0.0],[-8.7624,43.3021,0.0],[-8.7671,43.3001,9.1551],[-8.7749,43.3001,23.4445],[-8.781,43.3037,4.0427],[-8.7863,43.3046,8.547],[-8.7885,43.306,0.0],[-8.7879,43.3088,0.0],[-8.8024,43.3135,39.1856],[-8.8051,43.3207,0.0],[-8.8093,43.3229,11.049],[-8.8076,43.3232,0.0],[-8.8021,43.3215,0.0],[-8.8054,43.3235,0.6723],[-8.8068,43.3271,0.0],[-8.8118,43.3235,18.5105],[-8.8171,43.3235,24.0311],[-8.8174,43.3279,1.2319],[-8.8199,43.329,0.0],[-8.8235,43.3296,1.5905],[-8.8274,43.3276,1.1231],[-8.8307,43.3426,0.0],[-8.8393,43.346,0.0],[-8.8474,43.3393,0.0],[-8.8488,43.3354,7.1026],[-8.8476,43.3299,2.0449],[-8.8499,43.329,0.0],[-8.8496,43.3229,0.0],[-8.8451,43.3201,8.5885],[-8.8532,43.3204,4.0437],[-8.8571,43.3226,0.0],[-8.8568,43.3176,17.2577],[-8.8626,43.3176,2.3344],[-8.8643,43.3179,19.9904],[-8.8629,43.3213,0.0],[-8.8649,43.3224,0.0],[-8.8729,43.3235,0.0],[-8.8746,43.3154,0.0],[-8.8735,43.3126,6.5606],[-8.8763,43.3126,21.9986],[-8.8793,43.3138,0.0],[-8.8804,43.3174,9.5048],[-8.8849,43.3207,0.0],[-8.8935,43.3196,3.229],[-8.9021,43.3221,0.0],[-8.9101,43.3221,0.0],[-8.914,43.3193,0.0],[-8.9074,43.3065,0.0],[-8.9112,43.304,0.0],[-8.9071,43.2951,0.0],[-8.9076,43.2935,14.0333],[-8.9107,43.2951,0.0],[-8.9129,43.2926,12.5251],[-8.9168,43.294,0.0],[-8.9165,43.296,0.0],[-8.9187,43.2965,1.5286],[-8.9204,43.2943,3.0224],[-8.9279,43.2932,0.0],[-8.9293,43.2888,16.1938],[-8.9268,43.2835,8.6254],[-8.9299,43.2832,57.3171],[-8.9368,43.2899,0.0],[-8.9432,43.2899,3.7791],[-8.9524,43.2949,0.0],[-8.9599,43.2926,0.0],[-8.9626,43.2876,0.0],[-8.9721,43.2874,0.0],[-8.9765,43.2835,43.0327],[-8.9813,43.2835,6.1257],[-8.9843,43.2818,4.9824],[-8.9865,43.2768,24.0295],[-8.9918,43.2754,0.0],[-8.9846,43.2715,8.4132],[-8.9821,43.2651,0.0],[-8.9782,43.2626,0.0],[-8.9643,43.2613,0.63],[-8.9643,43.2632,0.0],[-8.9563,43.2643,25.2113],[-8.9512,43.2624,2.0846],[-8.9537,43.2604,9.2173],[-8.9537,43.2568,10.5778],[-8.9507,43.2538,7.7343],[-8.9529,43.2493,3.3466],[-8.9521,43.2471,24.1327],[-8.9479,43.241,4.5978],[-8.9421,43.241,0.0],[-8.9424,43.2385,0.0],[-8.9385,43.2349,0.0],[-8.9387,43.2313,0.0],[-8.9357,43.2321,10.5326],[-8.9368,43.2274,4.7795],[-8.9407,43.2232,0.7636],[-8.936,43.2249,1.2685],[-8.9318,43.2307,2.5926],[-8.9254,43.2337,0.0],[-8.9262,43.2368,0.6903],[-8.9221,43.2396,0.9557],[-8.9215,43.2429,66.3046],[-8.916,43.2443,1.9146],[-8.9124,43.2426,0.168],[-8.9129,43.2415,0.0],[-8.9168,43.2424,0.0],[-8.9165,43.2374,4.3418],[-8.9201,43.2332,5.1283],[-8.9196,43.2296,10.6888],[-8.9282,43.2251,0.6959],[-8.9293,43.2215,6.5765],[-8.9332,43.2193,0.0],[-8.9393,43.2193,3.9847],[-8.9457,43.2165,4.3777],[-8.9451,43.219,0.0],[-8.9479,43.2226,0.0],[-8.9438,43.2271,0.0],[-8.9526,43.2304,13.062],[-8.9563,43.2287,20.8998],[-8.9663,43.2293,0.0],[-8.9676,43.2282,0.0],[-8.9668,43.226,0.0],[-8.971,43.2238,0.0],[-8.9779,43.2268,30.619],[-8.9788,43.229,0.0],[-8.9815,43.2293,0.8479],[-8.9865,43.2262,3.1903],[-8.9865,43.2215,20.8087],[-8.9907,43.2199,17.148],[-8.9926,43.2157,1.7107],[-8.9979,43.2157,1.3355],[-9.0026,43.2176,4.556],[-9.0049,43.2207,1.5693],[-9.004,43.2235,9.1244],[-8.999,43.2226,0.0],[-9.0032,43.2249,1.0878],[-9.0024,43.2279,5.1776],[-9.0037,43.2304,34.0959],[-9.0082,43.2329,8.8595],[-9.0124,43.2332,1.3582],[-9.0149,43.2304,0.0],[-9.0107,43.2246,5.2497],[-9.014,43.2246,0.0],[-9.0143,43.2215,19.1514],[-9.0201,43.2201,6.5902],[-9.0187,43.2157,0.0],[-9.0221,43.2129,4.7992],[-9.0254,43.2129,5.1912],[-9.0262,43.216,0.0],[-9.034,43.2143,2.0157],[-9.036,43.2096,0.0],[-9.034,43.2076,14.9287],[-9.0354,43.2065,0.0],[-9.0363,43.1996,9.6067],[-9.0393,43.1951,1.9303],[-9.0432,43.1915,5.4026],[-9.0579,43.1862,0.0],[-9.0601,43.1835,17.7922],[-9.074,43.1871,0.0],[-9.0776,43.1857,1.6342],[-9.0787,43.1821,0.0],[-9.086,43.1857,0.0],[-9.0915,43.1799,2.2618],[-9.0901,43.1862,9.5895],[-9.0857,43.1885,0.0],[-9.0879,43.1901,0.0],[-9.0926,43.1899,0.0],[-9.0982,43.194,0.0],[-9.0999,43.1932,0.0],[-9.0985,43.1899,0.9247],[-9.101,43.1907,0.0],[-9.101,43.1882,2.6076],[-9.104,43.1888,0.0],[-9.106,43.1857,0.0],[-9.109,43.186,0.0],[-9.1149,43.189,18.2217],[-9.1146,43.1943,0.0],[-9.1215,43.194,3.2836],[-9.1243,43.1957,1.3912],[-9.1268,43.1946,12.568],[-9.1301,43.1982,1.1535],[-9.1329,43.1929,3.3927],[-9.1337,43.1976,0.0],[-9.136,43.1979,0.0],[-9.1351,43.199,0.0],[-9.1379,43.2018,0.0],[-9.1374,43.1935,0.0],[-9.1335,43.1924,2.1055],[-9.1343,43.1912,4.1459],[-9.1426,43.1924,0.0],[-9.1446,43.1949,0.0],[-9.1501,43.1957,0.0],[-9.1515,43.1982,0.0],[-9.154,43.1985,0.0],[-9.1521,43.1937,0.0],[-9.1529,43.191,0.0],[-9.1501,43.1874,0.0],[-9.1585,43.1829,3.207],[-9.1651,43.1832,9.9777],[-9.1687,43.1879,0.0],[-9.1735,43.1915,0.0],[-9.1751,43.1912,0.0],[-9.174,43.1876,1.0493],[-9.179,43.1829,0.0],[-9.1804,43.1682,6.2871],[-9.1849,43.1676,0.0],[-9.1849,43.1638,0.0],[-9.1896,43.1607,0.7653],[-9.1943,43.1632,0.0],[-9.1993,43.1615,0.0],[-9.1974,43.1568,6.6973],[-9.2004,43.1549,12.3687],[-9.2074,43.156,4.8777],[-9.2071,43.1593,0.0],[-9.2104,43.1613,6.7164],[-9.2115,43.1646,0.0],[-9.214,43.1646,0.0],[-9.2143,43.1607,0.0],[-9.2121,43.1582,0.0],[-9.2151,43.1565,0.0],[-9.214,43.1526,0.0],[-9.2151,43.1515,0.0],[-9.2132,43.1471,0.0],[-9.2107,43.1465,0.0],[-9.2096,43.144,0.0],[-9.2079,43.1449,1.2521],[-9.2051,43.1418,3.7383],[-9.204,43.1343,0.0],[-9.206,43.134,0.0],[-9.2062,43.1324,0.0],[-9.2051,43.129,3.4616],[-9.2013,43.1274,0.0],[-9.1976,43.1312,1.0571],[-9.1971,43.1268,0.0],[-9.1926,43.1226,0.0],[-9.1904,43.1246,6.0351],[-9.1893,43.1229,0.0],[-9.1826,43.1237,0.0],[-9.1837,43.1285,0.0],[-9.1787,43.129,6.882],[-9.1799,43.1329,0.0],[-9.1779,43.1349,0.0],[-9.1785,43.1376,1.4442],[-9.1707,43.1376,5.9007],[-9.1685,43.1424,7.2742],[-9.1699,43.1451,0.0],[-9.1662,43.1504,0.0],[-9.1637,43.149,5.52],[-9.1676,43.1326,0.0],[-9.1651,43.1279,4.2229],[-9.1582,43.1288,17.1405],[-9.1507,43.1329,3.6335],[-9.1463,43.1271,5.1486],[-9.1418,43.1274,15.5364],[-9.1379,43.1349,5.5751],[-9.1326,43.1351,1.7205],[-9.1321,43.1335,0.0],[-9.1385,43.131,5.9407],[-9.1412,43.1263,10.2277],[-9.1593,43.1265,0.0],[-9.1596,43.1232,14.7095],[-9.1618,43.1226,7.0259],[-9.164,43.1176,9.5144],[-9.1637,43.1129,28.5864],[-9.1662,43.111,16.2951],[-9.1651,43.1088,15.7372],[-9.1662,43.1046,10.8098],[-9.1846,43.1032,9.2137],[-9.1851,43.1004,0.0],[-9.1824,43.0946,21.9613],[-9.1829,43.0929,0.0],[-9.189,43.0907,0.0],[-9.1885,43.089,3.3598],[-9.1946,43.0907,6.1143],[-9.1932,43.096,3.8977],[-9.1974,43.0977,10.5213],[-9.1979,43.1043,0.0],[-9.2032,43.1013,15.1183],[-9.2068,43.1026,0.754],[-9.209,43.1001,11.4592],[-9.214,43.1024,8.2759],[-9.2154,43.1046,0.0],[-9.2137,43.1051,0.0],[-9.214,43.1099,0.0],[-9.2165,43.111,1.7571],[-9.2174,43.1135,0.0],[-9.2199,43.1132,0.7395],[-9.2224,43.1087,0.0],[-9.2221,43.104,0.0],[-9.2196,43.1026,7.4707],[-9.224,43.0985,0.0],[-9.2224,43.0943,0.0],[-9.224,43.0926,0.0],[-9.2207,43.0904,0.0],[-9.221,43.0876,0.0],[-9.2249,43.0868,13.9332],[-9.2254,43.0899,0.0],[-9.2276,43.091,0.0],[-9.2379,43.0913,0.0],[-9.2435,43.0851,4.353],[-9.2454,43.0918,7.478],[-9.2479,43.0935,4.4284],[-9.2568,43.0921,0.0],[-9.2574,43.0885,0.0],[-9.2529,43.0838,11.1013],[-9.2538,43.0818,1.7224],[-9.2518,43.0793,22.6242],[-9.2504,43.0721,0.6],[-9.2518,43.069,0.0],[-9.2543,43.0679,7.6275],[-9.2557,43.0588,0.0],[-9.2582,43.0568,0.0],[-9.2599,43.0515,20.8516],[-9.2635,43.0499,15.4205],[-9.2665,43.0532,0.0],[-9.2701,43.0529,0.0],[-9.2693,43.0501,1.2008],[-9.2724,43.0449,13.1805],[-9.2851,43.0471,0.0],[-9.2912,43.0579,0.0],[-9.2999,43.0568,0.7478],[-9.2996,43.0501,0.0],[-9.3018,43.0474,3.9299],[-9.2979,43.0474,37.0078],[-9.2954,43.044,5.1178],[-9.2921,43.0426,0.0],[-9.2879,43.0435,0.0],[-9.284,43.0288,0.0],[-9.281,43.0251,18.2973],[-9.2824,43.0193,0.0],[-9.2796,43.0168,0.0],[-9.2793,43.0124,35.9654],[-9.2743,43.0079,0.0],[-9.2724,43.0096,11.3303],[-9.2632,43.0101,0.0],[-9.2582,43.0029,0.0],[-9.2532,43.004,10.3418],[-9.2521,43.0029,2.4154],[-9.2615,43.0007,0.37],[-9.2618,42.9979,0.0],[-9.2604,42.9982,2.9457],[-9.2601,42.9963,0.0],[-9.2607,42.9924,0.0],[-9.2629,42.9899,3.9784],[-9.2612,42.9851,9.6967],[-9.2629,42.981,52.1878],[-9.2607,42.9721,4.8539],[-9.2624,42.9687,5.1822],[-9.2699,42.9618,6.2847],[-9.2746,42.9635,0.0],[-9.2788,42.9626,0.0],[-9.2776,42.9593,0.0],[-9.2849,42.9551,0.0],[-9.2829,42.9435,0.0],[-9.2857,42.9432,23.2414],[-9.2879,42.9454,0.0],[-9.2896,42.9362,130.0871],[-9.2982,42.9218,0.0],[-9.2918,42.9193,0.0],[-9.2826,42.9196,11.321],[-9.2788,42.9104,0.0],[-9.2746,42.9101,3.6759],[-9.2821,42.8907,0.0],[-9.2749,42.8862,7.8146],[-9.2743,42.8804,0.0],[-9.2704,42.8796,0.0],[-9.269,42.8807,0.0],[-9.2651,42.8913,54.9986],[-9.2621,42.8946,0.0],[-9.2618,42.8999,0.0],[-9.2593,42.9032,0.0],[-9.2599,42.906,0.0],[-9.2557,42.9085,0.0],[-9.2574,42.9093,0.0],[-9.2621,42.9071,0.0],[-9.261,42.9104,4.4923],[-9.2649,42.9151,2.7444],[-9.2624,42.9207,0.0],[-9.251,42.926,6.4022],[-9.2471,42.9254,0.0],[-9.2421,42.9276,0.0],[-9.2338,42.9263,0.0],[-9.2315,42.9321,0.0],[-9.2332,42.9368,0.0],[-9.2324,42.9415,1.1244],[-9.2265,42.9396,0.0],[-9.2212,42.9429,1.0748],[-9.2187,42.9426,2.3312],[-9.2187,42.9371,15.5753],[-9.216,42.9346,0.0],[-9.2179,42.9313,0.4571],[-9.214,42.9282,0.0],[-9.2085,42.9271,13.0901],[-9.2101,42.9176,0.0],[-9.209,42.916,0.0],[-9.2054,42.9174,8.5933],[-9.1946,42.9174,14.167],[-9.1876,42.9149,0.0],[-9.1835,42.9157,1.8635],[-9.1824,42.9188,0.0],[-9.1862,42.9232,11.031],[-9.184,42.931,0.0],[-9.1868,42.936,12.1871],[-9.191,42.9385,9.8247],[-9.1899,42.9443,0.0],[-9.1929,42.9454,5.4274],[-9.1907,42.9487,0.0],[-9.191,42.9515,4.464],[-9.1888,42.9524,6.6065],[-9.1851,42.9465,0.0],[-9.1812,42.9454,0.0],[-9.1804,42.9437,2.1364],[-9.179,42.9435,2.1364],[-9.1782,42.9454,0.0],[-9.174,42.944,3.7706],[-9.1746,42.9396,0.0],[-9.171,42.9338,8.7588],[-9.1704,42.9282,0.0],[-9.1657,42.9251,35.2976],[-9.1624,42.9118,0.0],[-9.1568,42.9104,0.0],[-9.1549,42.9129,4.754],[-9.1532,42.9104,0.0],[-9.1512,42.9104,0.0],[-9.1465,42.9118,5.4715],[-9.1438,42.909,3.8786],[-9.1412,42.9087,0.0],[-9.1346,42.9107,13.6644],[-9.1274,42.9065,0.0],[-9.1318,42.8993,0.0],[-9.144,42.8957,0.0],[-9.1449,42.8918,0.0],[-9.139,42.8913,0.0],[-9.1393,42.8874,18.2719],[-9.1415,42.8821,0.0],[-9.1443,42.8838,0.0],[-9.1485,42.8835,0.3745],[-9.1474,42.8768,0.0],[-9.1485,42.8743,0.3087],[-9.1512,42.8743,0.0],[-9.1515,42.8696,0.0],[-9.1479,42.869,1.5865],[-9.1488,42.8654,0.0],[-9.1468,42.8651,0.0],[-9.1474,42.861,0.5525],[-9.1362,42.8457,0.0],[-9.133,42.8479,5.012],[-9.1332,42.8449,0.0],[-9.1276,42.8426,0.0],[-9.1243,42.8471,1.6457],[-9.1213,42.8476,1.2782],[-9.1154,42.8457,0.0],[-9.1099,42.8401,0.0],[-9.1071,42.8301,0.0],[-9.1099,42.8146,0.0],[-9.1135,42.8115,0.0],[-9.1304,42.8054,0.8842],[-9.1421,42.806,0.0],[-9.1443,42.8024,0.0],[-9.1457,42.8043,0.0],[-9.1515,42.8063,0.0],[-9.1538,42.8021,0.0],[-9.1488,42.7949,0.0],[-9.1404,42.7954,0.0],[-9.1401,42.7912,0.0],[-9.1357,42.7904,0.0],[-9.1293,42.7832,0.0],[-9.1279,42.7804,0.0],[-9.1304,42.7785,0.0],[-9.126,42.7754,0.0],[-9.1282,42.7707,0.0],[-9.1179,42.769,7.1573],[-9.1154,42.7588,0.0],[-9.1179,42.7554,0.0],[-9.1179,42.7524,0.0],[-9.1118,42.7518,0.0],[-9.1115,42.754,0.0],[-9.1037,42.7551,0.0],[-9.0935,42.7499,1.4706],[-9.091,42.7449,0.0],[-9.0913,42.7368,0.0],[-9.0771,42.7388,0.0],[-9.0757,42.7457,1.0281],[-9.0804,42.7524,15.0413],[-9.0757,42.7579,6.7989],[-9.0671,42.7599,0.0],[-9.0582,42.759,2.2608],[-9.0551,42.7632,27.2867],[-9.0543,42.7676,38.2075],[-9.0479,42.769,3.0854],[-9.0476,42.771,3.9158],[-9.0526,42.774,0.0],[-9.0526,42.7762,0.3879],[-9.0593,42.7774,4.6286],[-9.0604,42.7804,0.0],[-9.0649,42.7829,0.0],[-9.0635,42.7865,5.7416],[-9.0424,42.7871,8.5179],[-9.0332,42.7918,0.0],[-9.0307,42.7968,7.1844],[-9.0282,42.7985,2.2944],[-9.0251,42.7985,1.1842],[-9.0224,42.7962,0.8883],[-9.0212,42.8001,1.0564],[-9.0193,42.801,0.0],[-9.0199,42.8026,0.399],[-9.0179,42.8029,3.0302],[-9.0179,42.8004,2.511],[-9.0135,42.7988,8.8914],[-9.0118,42.7962,12.7012],[-9.0135,42.7921,0.5861],[-9.0162,42.7904,0.0],[-9.0151,42.7824,1.4197],[-9.0074,42.7835,0.0],[-9.0049,42.7826,3.7905],[-9.0024,42.7785,0.0],[-8.9993,42.7824,16.6696],[-8.9974,42.7804,0.0],[-8.9918,42.7804,0.0],[-8.9893,42.7776,1.6376],[-8.9868,42.7779,0.0],[-8.9863,42.7796,1.7439],[-8.981,42.7785,0.0],[-8.9804,42.786,0.706],[-8.9776,42.7876,0.9398],[-8.9776,42.7893,1.184],[-8.9818,42.7899,4.972],[-8.9804,42.7915,0.543],[-8.9824,42.7926,1.2459],[-8.9799,42.7943,3.6963],[-8.979,42.7904,3.3417],[-8.9746,42.7915,2.7422],[-8.9732,42.7893,0.0],[-8.969,42.7893,3.5403],[-8.9663,42.7871,15.105],[-8.9676,42.7815,0.0],[-8.9663,42.779,1.3854],[-8.959,42.7793,6.0165],[-8.9504,42.784,12.039],[-8.9487,42.7893,10.3573],[-8.9443,42.7938,0.0],[-8.9462,42.796,3.4641],[-8.9457,42.7974,0.0],[-8.9415,42.8015,0.0],[-8.936,42.8029,3.4861],[-8.9351,42.8051,0.0],[-8.931,42.8065,0.6506],[-8.9324,42.8018,0.0],[-8.9282,42.8013,3.1179],[-8.9232,42.7971,19.3179],[-8.9157,42.7974,7.211],[-8.9146,42.801,4.8815],[-8.9118,42.8004,0.0],[-8.9082,42.8021,9.919],[-8.9063,42.8054,0.0],[-8.9057,42.8179,18.109],[-8.8996,42.8249,0.236],[-8.9049,42.8285,0.5207],[-8.899,42.8288,9.2654],[-8.8965,42.8274,18.7074],[-8.8915,42.8196,2.5228],[-8.8865,42.8162,0.0],[-8.8807,42.8176,3.108],[-8.8799,42.8274,1.4129],[-8.8749,42.829,1.3569],[-8.8696,42.8285,0.4674],[-8.8774,42.8265,0.2346],[-8.8785,42.8224,0.0],[-8.8765,42.8207,0.0821],[-8.8768,42.8185,0.0],[-8.8793,42.816,0.0],[-8.8868,42.8129,0.0],[-8.8951,42.8157,0.0],[-8.8965,42.814,1.7934],[-8.8957,42.8104,5.6015],[-8.8965,42.8076,8.396],[-8.8985,42.8074,0.0],[-8.8974,42.8046,0.0],[-8.9015,42.8015,1.4826],[-8.8951,42.796,0.0],[-8.8962,42.7932,4.2507],[-8.8988,42.7935,0.8776],[-8.9001,42.7912,2.3377],[-8.8912,42.7896,1.8483],[-8.8929,42.7863,0.0],[-8.8907,42.784,1.7631],[-8.8915,42.7807,0.0894],[-8.894,42.7835,1.5423],[-8.8996,42.7832,1.1583],[-8.9013,42.7857,0.0],[-8.9063,42.7868,17.9579],[-8.9101,42.7912,1.2112],[-8.9235,42.7868,0.0],[-8.9296,42.7832,0.0],[-8.9318,42.7779,0.0],[-8.9365,42.7785,2.3355],[-8.9371,42.7757,9.2932],[-8.9404,42.7738,0.0],[-8.9396,42.7668,6.2993],[-8.9421,42.7665,0.0],[-8.9424,42.7643,5.1504],[-8.9462,42.764,0.0],[-8.9451,42.7615,10.5134],[-8.9462,42.7599,2.3653],[-8.9496,42.7621,0.6719],[-8.9515,42.7565,3.0794],[-8.951,42.7526,2.5869],[-8.9568,42.7454,16.6417],[-8.9613,42.7454,11.4623],[-8.964,42.7415,5.3217],[-8.9693,42.739,2.5681],[-8.9751,42.7399,13.2788],[-8.9757,42.7451,0.8725],[-8.9779,42.7449,0.0],[-8.979,42.7426,0.8576],[-8.9896,42.7415,8.7134],[-8.9915,42.7396,0.0],[-8.991,42.7351,7.977],[-8.994,42.7324,0.0],[-8.9946,42.7287,24.7893],[-8.999,42.7265,28.835],[-9.001,42.7268,0.0],[-9.0021,42.7296,0.0],[-9.0088,42.7274,0.0],[-9.0101,42.7137,0.0],[-9.0132,42.7096,1.0868],[-9.0212,42.711,0.0],[-9.026,42.709,0.0],[-9.0251,42.7049,6.7509],[-9.0287,42.7032,0.0],[-9.0304,42.6982,6.2068],[-9.0343,42.6954,4.5219],[-9.0296,42.6924,0.0],[-9.0321,42.6776,0.0],[-9.0399,42.6738,0.0],[-9.0404,42.6712,0.0],[-9.0429,42.6699,0.0],[-9.0432,42.6649,0.0],[-9.0457,42.6629,0.0],[-9.0432,42.6604,0.0],[-9.0437,42.6524,0.0],[-9.0393,42.6501,0.0],[-9.0404,42.6413,0.0],[-9.0546,42.6237,0.0],[-9.0663,42.6199,0.0],[-9.0654,42.6182,0.0],[-9.0629,42.6188,0.0],[-9.0618,42.6174,0.0],[-9.0612,42.6135,2.3398],[-9.0649,42.6107,0.0],[-9.0632,42.6071,0.0],[-9.0696,42.5996,0.0],[-9.0737,42.6032,0.0],[-9.081,42.5968,0.0],[-9.0818,42.5932,0.0],[-9.0787,42.5907,0.0],[-9.081,42.5815,0.0],[-9.0837,42.5804,0.0],[-9.0874,42.5815,0.0],[-9.0918,42.579,0.0],[-9.0926,42.574,0.0],[-9.0874,42.5685,0.0],[-9.0843,42.5685,0.0],[-9.0824,42.566,0.0],[-9.0779,42.5668,0.0],[-9.0738,42.5649,0.0],[-9.0726,42.5674,0.0],[-9.076,42.5715,3.3898],[-9.0699,42.5715,0.0],[-9.0696,42.5729,0.0],[-9.0721,42.5732,5.4841],[-9.0704,42.5743,5.5705],[-9.0682,42.5729,0.0],[-9.0671,42.5751,0.0],[-9.0596,42.5771,1.0874],[-9.0518,42.5749,0.0],[-9.0421,42.5663,0.0],[-9.0379,42.5601,0.0],[-9.0351,42.5593,0.0],[-9.0337,42.5524,0.0],[-9.0321,42.5515,0.0],[-9.0326,42.5438,0.0],[-9.0376,42.5421,0.0],[-9.0421,42.5351,0.0],[-9.0421,42.5293,0.4339],[-9.0454,42.5251,0.0],[-9.0435,42.5182,0.0],[-9.0482,42.5185,0.0],[-9.0485,42.5171,0.0],[-9.0424,42.5168,0.0],[-9.0315,42.5207,7.0754],[-9.0232,42.5165,0.0],[-9.0201,42.519,4.0218],[-9.0174,42.5182,0.0],[-9.0176,42.5221,1.7603],[-9.0126,42.5235,0.4041],[-9.0096,42.5149,0.0],[-9.0062,42.5135,0.0],[-9.011,42.5204,0.301],[-9.0104,42.526,3.3891],[-9.0062,42.5285,0.7163],[-8.9982,42.529,1.957],[-8.9979,42.5313,8.7925],[-8.9924,42.5332,0.0],[-8.986,42.5382,0.0],[-8.9832,42.5435,9.5378],[-8.9854,42.5518,7.4391],[-8.9885,42.5543,0.0],[-8.9865,42.5599,0.0],[-8.9918,42.5593,10.819],[-8.9876,42.5624,0.0],[-8.9907,42.5638,1.9392],[-8.9821,42.5685,0.0],[-8.9726,42.5693,16.8913],[-8.971,42.5682,0.0],[-8.9682,42.5696,3.1283],[-8.9679,42.5679,0.0],[-8.9646,42.5676,0.2609],[-8.9613,42.5704,0.0],[-8.9629,42.5726,4.1667],[-8.9582,42.5776,0.0],[-8.9579,42.581,3.1393],[-8.9537,42.5843,1.3902]]],
[[[-8.8771,42.6001,0.0],[-8.8763,42.6021,0.5692],[-8.8765,42.6032,0.5692],[-8.8785,42.6026,0.0],[-8.8771,42.6001,0.0]]],
[[[-8.9626,42.776,1.1127],[-8.966,42.7771,0.0],[-8.9671,42.7751,0.0],[-8.9626,42.7726,0.0],[-8.9626,42.776,1.1127]]],
[[[-9.144,42.7396,0.0],[-9.1465,42.741,0.0],[-9.1488,42.739,0.0],[-9.1488,42.7368,0.0],[-9.1449,42.736,0.0],[-9.1432,42.7371,0.0],[-9.144,42.7396,0.0]]],
[[[-9.1682,42.801,0.0],[-9.1729,42.8018,0.0],[-9.1726,42.7993,0.0],[-9.1746,42.7988,0.0],[-9.1676,42.7971,0.0],[-9.1668,42.8001,0.0],[-9.1682,42.801,0.0]]],
[[[-9.1446,42.8174,0.0],[-9.1457,42.8187,0.0],[-9.1471,42.8176,0.0],[-9.1482,42.8096,0.0],[-9.1449,42.8138,0.0],[-9.1429,42.8138,0.0],[-9.1446,42.8174,0.0]]],
[[[-9.1679,42.8665,0.0],[-9.1687,42.8685,0.0],[-9.1721,42.8676,0.0],[-9.1729,42.8621,0.0],[-9.1715,42.8596,0.0],[-9.1674,42.8604,0.0],[-9.1668,42.866,0.0],[-9.1679,42.8665,0.0]]],
[[[-9.1849,42.8832,0.0],[-9.186,42.8849,0.0],[-9.1882,42.8846,0.0],[-9.1896,42.8807,0.0],[-9.186,42.8768,0.0],[-9.1824,42.876,0.0],[-9.1821,42.8807,0.0],[-9.1849,42.8832,0.0]]],
[[[-8.8376,43.3629,0.0],[-8.8485,43.3613,6.8815],[-8.849,43.3599,5.8021],[-8.8471,43.359,48.3051],[-8.8474,43.3568,0.0],[-8.8451,43.3549,0.0],[-8.8357,43.3576,1.7615],[-8.8354,43.3537,0.0],[-8.8324,43.3526,0.0],[-8.8315,43.3599,1.0119],[-8.8335,43.3624,0.0],[-8.8362,43.3615,0.0],[-8.8376,43.3629,0.0]]],
[[[-8.3785,43.3668,0.0],[-8.3801,43.3679,0.0],[-8.3813,43.3676,0.0],[-8.3774,43.3662,0.0],[-8.3785,43.3668,0.0]]],
[[[-8.4532,43.3757,1.5002],[-8.4476,43.3785,5.7541],[-8.4451,43.3826,0.0],[-8.451,43.3799,0.0],[-8.4515,43.3776,0.0],[-8.454,43.3776,0.2299],[-8.4532,43.3757,1.5002]]],
[[[-8.3368,43.5113,0.0],[-8.3396,43.5115,2.3918],[-8.3399,43.511,2.3918],[-8.3368,43.5101,0.0],[-8.3368,43.5113,0.0]]],
[[[-7.8313,43.7099,0.0],[-7.8343,43.7113,5.4138],[-7.8382,43.7104,3.346],[-7.8374,43.7088,3.346],[-7.8343,43.7082,0.0],[-7.8313,43.7099,0.0]]],
[[[-7.8665,43.7796,0.0],[-7.8685,43.781,0.0],[-7.8696,43.7793,0.0],[-7.8676,43.7788,0.0],[-7.8665,43.7796,0.0]]]]}
,"properties": {"GID_2": "ESP.12.1_1","GID_0": "ESP","country": "Spain","GID_1": "ESP.12_1","province": "Galicia","NL_NAME_1": "NA","county": "ACoruña","VARNAME_2": "LaCoruña","NL_NAME_2": "NA","TYPE_2": "Provincia","ENGTYPE_2": "Province","CC_2": "15","HASC_2": "ES.GA.AC","name": "A_Coruña.county","area_km2": 7962.955,"hist_schema_id": "Elevation0-9000","hist_area_km2": {"0": 190.281,"25": 311.939,"50": 330.302,"75": 339.087,"100": 326.914,"125": 334.932,"150": 328.502,"175": 334.239,"200": 338.921,"225": 347.166,"250": 366.861,"275": 428.461,"300": 476.463,"325": 497.952,"350": 508.093,"375": 491.613,"400": 424.582,"425": 336.441,"450": 274.941,"475": 248.711,"500": 208.656,"525": 163.422,"550": 104.628,"575": 72.175,"600": 47.015,"625": 38.992,"650": 30.357,"675": 24.655,"700": 19.152,"725": 11.501,"750": 5.086,"775": 0.807,"800": 0.109}}}