{"type": "Feature","bbox": [-6.306,36.5162,-5.4557,36.8638],"geometry": {"type": "MultiPolygon","coordinates": [[[[-5.8448,36.6683,65.667],[-5.8542,36.6695,61.3854],[-5.8652,36.6753,46.4881],[-5.8728,36.6779,30.4803],[-5.8781,36.6774,23.6843],[-5.8799,36.6791,28.5734],[-5.8895,36.6735,29.9219],[-5.8924,36.6735,23.9428],[-5.8945,36.6768,25.4223],[-5.9024,36.6751,22.7694],[-5.9148,36.6874,32.1577],[-5.9174,36.6883,40.3572],[-5.9209,36.6943,52.6191],[-5.9292,36.7007,74.4152],[-5.935,36.7099,75.1451],[-5.9353,36.7139,63.5589],[-5.9459,36.7274,75.1028],[-5.9395,36.735,66.6075],[-5.9244,36.7454,64.4801],[-5.9211,36.7593,84.3137],[-5.9177,36.7651,86.1113],[-5.9198,36.7898,80.8862],[-5.9209,36.7942,100.3987],[-5.9223,36.7946,98.5853],[-5.9159,36.7996,105.53],[-5.9142,36.805,98.1577],[-5.9034,36.8215,144.6558],[-5.8909,36.8351,169.2241],[-5.8909,36.8422,180.6659],[-5.9252,36.8531,125.0502],[-5.9412,36.852,176.9317],[-5.9527,36.8531,195.4199],[-5.9608,36.8513,168.6382],[-5.973,36.8442,174.3176],[-6.0362,36.8493,65.9242],[-6.0504,36.8535,48.3601],[-6.0846,36.8545,3.4614],[-6.1043,36.8573,2.0522],[-6.1218,36.8638,1.9842],[-6.1335,36.8522,2.4784],[-6.1548,36.8524,11.84],[-6.1875,36.8378,3.931],[-6.1953,36.8361,1.49],[-6.2005,36.8322,1.7886],[-6.2,36.8307,1.8304],[-6.2156,36.8254,16.0801],[-6.2195,36.8211,29.9713],[-6.2255,36.8203,27.6364],[-6.2326,36.8109,38.4198],[-6.2388,36.7921,27.8214],[-6.2439,36.7882,57.6064],[-6.2545,36.7878,3.3296],[-6.2711,36.7912,0.9425],[-6.2701,36.7822,2.9178],[-6.2821,36.7675,2.7547],[-6.2827,36.7649,4.6544],[-6.2856,36.7656,2.8834],[-6.2949,36.7509,6.616],[-6.2942,36.7425,9.4411],[-6.2995,36.7377,23.6432],[-6.3043,36.7289,25.088],[-6.306,36.7216,22.5908],[-6.3032,36.7189,25.7577],[-6.282,36.7135,28.6719],[-6.2779,36.7098,42.0046],[-6.2553,36.7061,84.135],[-6.239,36.6935,57.3318],[-6.239,36.6844,52.4807],[-6.2285,36.6736,65.1495],[-6.2078,36.6639,38.0182],[-6.2061,36.6605,42.5099],[-6.2037,36.661,33.5182],[-6.2017,36.6594,51.7987],[-6.204,36.6576,36.2035],[-6.202,36.6566,30.2835],[-6.1939,36.6568,22.9904],[-6.1895,36.6541,29.0137],[-6.1905,36.6525,30.6416],[-6.1842,36.6509,23.9783],[-6.1854,36.6486,37.3196],[-6.1746,36.642,86.0195],[-6.1606,36.6392,98.6988],[-6.1594,36.6403,106.4066],[-6.1537,36.6364,110.3808],[-6.1422,36.6221,3.7334],[-6.1395,36.6152,1.1391],[-6.1413,36.6143,1.1391],[-6.1395,36.6049,0.6846],[-6.1431,36.6048,0.369],[-6.1439,36.602,1.7149],[-6.1482,36.6037,1.1462],[-6.153,36.5994,0.6755],[-6.1322,36.5936,1.4338],[-6.1175,36.5774,3.9613],[-6.1163,36.5735,4.5275],[-6.1007999999999996,36.5654,9.7547],[-6.0964,36.5666,10.9614],[-6.0914,36.5632,12.6649],[-6.085,36.5664,25.2439],[-6.0798,36.5637,25.8756],[-6.0699,36.5646,20.5449],[-6.0682,36.5619,22.5055],[-6.0605,36.5582,25.0284],[-6.057,36.5596,33.0085],[-6.0544,36.559,28.0598],[-6.0488,36.5626,34.709],[-6.0458,36.5614,41.7195],[-6.0424,36.5631,43.856],[-6.0222,36.5495,54.4604],[-6.016,36.5523,100.71],[-6.0093,36.562,115.8678],[-6.0021,36.559,106.8517],[-5.9942,36.5497,85.6557],[-5.9883,36.5466,69.655],[-5.9981,36.5419,100.1724],[-5.9966,36.5399,112.1285],[-5.997,36.5286,112.2278],[-5.9801,36.5215,98.8436],[-5.98,36.5186,103.7294],[-5.9691,36.5223,113.6697],[-5.9457,36.5265,99.3693],[-5.9186,36.5288,59.2113],[-5.8953,36.5354,50.1073],[-5.8469,36.5353,148.6073],[-5.8429,36.5374,183.297],[-5.83,36.5382,220.4434],[-5.7959,36.5493,148.4256],[-5.7861,36.5508,200.9971],[-5.7743,36.5501,186.9706],[-5.756,36.5545,313.3451],[-5.7183,36.5563,211.6371],[-5.6638,36.5444,372.8094],[-5.6491,36.5377,398.1004],[-5.6351,36.5267,844.8831],[-5.6077,36.5162,1047.4143],[-5.6061,36.5253,957.0288],[-5.6103,36.5341,809.2888],[-5.6093,36.5369,789.8134],[-5.6116,36.5416,738.9929],[-5.6101,36.5446,693.3536],[-5.5996,36.5507,524.6694],[-5.5793,36.5475,359.5723],[-5.5741,36.5483,348.145],[-5.5711,36.5474,381.5752],[-5.5669,36.5425,335.8479],[-5.5434,36.5384,241.5989],[-5.5399,36.5365,241.6589],[-5.5369,36.5272,203.2216],[-5.522,36.5318,267.5936],[-5.5126,36.5424,397.825],[-5.5019,36.5476,435.9384],[-5.4936,36.5601,472.5813],[-5.4894,36.5705,548.471],[-5.4768,36.5741,518.7357],[-5.4627,36.589,430.1312],[-5.4607,36.5888,430.994],[-5.457,36.6021,474.8056],[-5.4582,36.614,558.7328],[-5.4557,36.6168,562.1558],[-5.4558,36.6196,581.7169],[-5.4641,36.6215,607.6424],[-5.4659,36.6258,522.4852],[-5.4778,36.634,316.2303],[-5.4888,36.6381,488.9653],[-5.4915,36.6446,624.9227],[-5.4956,36.6445,644.6466],[-5.5025,36.6509,559.3695],[-5.5087,36.6531,506.4037],[-5.512,36.6567,498.217],[-5.5226,36.6601,517.2455],[-5.5308,36.6594,533.7961],[-5.5313,36.664,414.2739],[-5.541,36.6703,211.5],[-5.5425,36.6741,230.2212],[-5.5475,36.679,321.5507],[-5.5742,36.6842,429.2092],[-5.5845,36.6904,290.6829],[-5.5905,36.6898,267.1761],[-5.595,36.6861,276.8403],[-5.5988,36.685,243.235],[-5.6031,36.6763,214.917],[-5.6064,36.6753,212.3981],[-5.6108,36.6684,191.1234],[-5.6047,36.6598,232.3373],[-5.6167,36.6482,218.0205],[-5.6177,36.6431,282.8117],[-5.6128,36.639,113.2112],[-5.6194,36.6361,104.8148],[-5.6296,36.6411,95.0],[-5.6322,36.6395,98.1168],[-5.6341,36.6335,98.6893],[-5.6406,36.6281,95.0],[-5.6403,36.6262,97.1414],[-5.6518,36.6238,95.0],[-5.6537,36.6294,95.0],[-5.6582,36.63,98.2621],[-5.6574,36.6319,98.6205],[-5.6599,36.636,95.0],[-5.6633,36.6358,97.3056],[-5.6728,36.6427,95.0],[-5.6697,36.6464,95.0],[-5.6717,36.6469,95.0],[-5.6729,36.6504,95.0],[-5.6768,36.6522,112.3738],[-5.6812,36.6507,95.0],[-5.6804,36.6477,95.0],[-5.6833,36.6469,95.0],[-5.6881,36.656,95.0],[-5.6909,36.6573,95.0],[-5.7057,36.6594,98.1022],[-5.7105,36.656,95.0],[-5.7077,36.6534,95.0],[-5.7116,36.6464,95.0],[-5.7213,36.6515,95.0],[-5.7271,36.6468,95.0],[-5.732,36.6526,95.0],[-5.7407,36.6523,95.0],[-5.7384,36.6585,95.0],[-5.7393,36.6597,95.0],[-5.7458,36.655,95.0],[-5.7504,36.6551,95.0],[-5.751,36.6593,95.0],[-5.7536,36.6594,95.0],[-5.7632,36.6528,95.0],[-5.7668,36.6534,95.0],[-5.7637,36.6606,95.0],[-5.7687,36.665,95.0],[-5.7752,36.6632,95.0],[-5.776,36.6668,95.0],[-5.7803,36.6706,95.0],[-5.7834,36.6681,95.0],[-5.7889,36.6696,71.3775],[-5.8119,36.6686,53.9933],[-5.8293,36.671,81.9688],[-5.8448,36.6683,65.667]]]]}
,"properties": {"GID_3": "ESP.1.2.2_1","GID_0": "ESP","country": "Spain","GID_1": "ESP.1_1","province": "Andalucía","NL_NAME_1": "NA","GID_2": "ESP.1.2_1","county": "Cádiz","NL_NAME_2": "NA","city": "CampiñadeJerez","VARNAME_3": "NA","NL_NAME_3": "NA","TYPE_3": "Comarca","ENGTYPE_3": "Comarca","CC_3": "NA","HASC_3": "NA","name": "Campiñade_Jerez.city","area_km2": 1406.25,"hist_schema_id": "Elevation0-9000","hist_area_km2": {"0": 117.352,"25": 290.516,"50": 238.969,"75": 201.76,"100": 120.548,"125": 54.849,"150": 32.584,"175": 27.727,"200": 29.679,"225": 31.911,"250": 29.307,"275": 27.196,"300": 23.725,"325": 20.627,"350": 19.708,"375": 19.285,"400": 17.243,"425": 14.52,"450": 12.681,"475": 10.332,"500": 9.805,"525": 9.601,"550": 8.477,"575": 9.141,"600": 8.477,"625": 5.924,"650": 4.886,"675": 3.047,"700": 2.298,"725": 1.175,"750": 0.749,"775": 0.426,"800": 0.29,"825": 0.341,"850": 0.153,"875": 0.256,"900": 0.136,"925": 0.068,"950": 0.136,"975": 0.119,"1000": 0.068,"1025": 0.119,"1050": 0.034}}}