{"type":"Feature","properties":{"GID_2":"ESP.1.5_1","GID_0":"ESP","country":"Spain","GID_1":"ESP.1_1","province":"Andalucía","NL_NAME_1":"NA","county":"Huelva","VARNAME_2":"NA","NL_NAME_2":"NA","TYPE_2":"Provincia","ENGTYPE_2":"Province","CC_2":"21","HASC_2":"ES.AN.HL","name":"Huelva.county"},
"geometry":{"type": "MultiPolygon","coordinates": [[[[-6.3422,36.8031,0.0],[-6.3447,36.8159,0.0],[-6.3517,36.8253,0.0],[-6.3538,36.8383,0.0],[-6.3531,36.855,0.0],[-6.3451,36.8891,0.0],[-6.338,36.8962,0.2803],[-6.3309,36.8988,0.0],[-6.3345,36.9033,0.0],[-6.3446,36.907,1.0027],[-6.3567,36.9191,1.0278],[-6.3709,36.9268,0.7084],[-6.3787,36.9347,0.9186],[-6.373,36.9366,0.6803],[-6.3637,36.9458,0.7448],[-6.3596,36.9597,1.075],[-6.361,36.9719,0.6956],[-6.3539,36.9863,0.6555],[-6.3567,37.0002,0.6761],[-6.3798,37.0484,0.6795],[-6.3806,37.0596,0.6857],[-6.3862,37.0744,1.0963],[-6.3854,37.0837,0.467],[-6.3765,37.0976,0.2557],[-6.3683,37.1043,0.3795],[-6.3562,37.1107,0.6029],[-6.3599,37.1173,1.316],[-6.3535,37.1182,1.0942],[-6.3494,37.1211,1.0445],[-6.3436,37.1207,1.0355],[-6.3422,37.123,1.0838],[-6.343,37.128,1.0642],[-6.3463,37.1292,0.9313],[-6.3485,37.1324,1.3419],[-6.3554,37.1345,1.2707],[-6.3595,37.1384,1.0161],[-6.3528,37.1474,1.2999],[-6.3528,37.1504,1.3828],[-6.3486,37.1524,1.6837],[-6.336,37.1696,7.4454],[-6.3504,37.1806,25.1613],[-6.3529,37.1961,16.6848],[-6.3519,37.1982,20.4862],[-6.3532,37.199,20.4044],[-6.3497,37.2031,19.217],[-6.3505,37.2077,20.0334],[-6.3478,37.2093,21.0935],[-6.3451,37.2183,23.1999],[-6.3597,37.2381,44.186],[-6.3554,37.2419,50.32],[-6.3511,37.2496,51.9364],[-6.3542,37.2555,53.453],[-6.3488,37.2661,57.7886],[-6.3369,37.2748,48.8382],[-6.3415,37.278,45.6167],[-6.3427,37.2812,41.863],[-6.3399,37.2831,47.1597],[-6.3383,37.2882,47.3982],[-6.3364,37.2895,51.6881],[-6.3329,37.2991,58.6231],[-6.3438,37.3131,70.1211],[-6.3713,37.3275,85.3572],[-6.3844,37.3375,91.7246],[-6.3781,37.3461,117.1987],[-6.3738,37.3487,125.2376],[-6.3683,37.3495,136.7623],[-6.3618,37.3558,131.7636],[-6.349,37.3625,71.6668],[-6.3459,37.3657,69.7683],[-6.355,37.3708,74.439],[-6.3552,37.3739,78.02],[-6.3619,37.3759,77.8574],[-6.3555,37.3859,103.2675],[-6.3541,37.3973,84.8887],[-6.3618,37.4014,92.5254],[-6.3561,37.4122,77.11],[-6.3273,37.4161,53.8856],[-6.3212,37.4205,54.789],[-6.3203,37.4193,50.4118],[-6.3125,37.4187,46.8542],[-6.3121,37.4218,52.2278],[-6.3054,37.4263,39.3601],[-6.3065,37.4351,42.7235],[-6.3112,37.4417,47.9452],[-6.3118,37.4457,50.7327],[-6.3211,37.4514,55.6541],[-6.322,37.4542,57.8068],[-6.3249,37.4554,59.4267],[-6.3248,37.4575,60.084],[-6.3324,37.4645,64.3995],[-6.3323,37.4697,68.0448],[-6.34,37.4872,90.6867],[-6.3459,37.4929,100.6059],[-6.3561,37.4965,113.9104],[-6.3555,37.5,123.5657],[-6.358,37.5001,125.6811],[-6.3603,37.5044,147.1661],[-6.3579,37.5047,135.9201],[-6.3628,37.5147,155.823],[-6.3668,37.5179,180.2973],[-6.3696,37.5286,224.8485],[-6.3663,37.5358,241.374],[-6.3766,37.5471,286.4465],[-6.384,37.5509,319.4859],[-6.3889,37.5515,336.3739],[-6.3923,37.5541,346.1773],[-6.4023,37.58,209.0814],[-6.4001,37.584,231.3565],[-6.395,37.583,219.4462],[-6.3952,37.5854,219.9666],[-6.3935,37.5854,258.1959],[-6.3931,37.5881,235.3761],[-6.3994,37.5914,229.4011],[-6.3981,37.594,236.1956],[-6.4,37.5946,229.9835],[-6.3981,37.5955,253.7815],[-6.3991,37.5983,242.521],[-6.402,37.5989,246.0547],[-6.4003,37.601,247.9197],[-6.3971,37.6002,261.354],[-6.3977,37.6013,248.1843],[-6.3941,37.6041,266.9092],[-6.3959,37.6089,272.546],[-6.395,37.611,271.5511],[-6.3971,37.6105,280.441],[-6.3987,37.6126,290.6946],[-6.4095,37.6146,306.4179],[-6.4131,37.6195,333.1528],[-6.4169,37.6192,331.8569],[-6.4239,37.6219,378.0542],[-6.4311,37.6203,416.8662],[-6.4352,37.6226,343.7729],[-6.4385,37.6214,333.2152],[-6.4431,37.6234,320.0114],[-6.4492,37.6205,304.3331],[-6.4545,37.6208,297.7886],[-6.4559,37.623,314.8751],[-6.4612,37.6211,287.2147],[-6.4648,37.6215,274.6596],[-6.4654,37.6201,275.3674],[-6.4698,37.6213,267.2085],[-6.4718,37.6202,280.9167],[-6.4734,37.6225,269.3185],[-6.4764,37.6194,253.7235],[-6.4808,37.6197,263.1992],[-6.4813,37.6211,253.3039],[-6.4841,37.6203,244.582],[-6.4847,37.6161,246.8765],[-6.489,37.6179,232.2227],[-6.4899,37.621,229.9256],[-6.4967,37.6172,214.7878],[-6.4973,37.6195,231.7565],[-6.4995,37.6183,225.1527],[-6.5009,37.62,222.7748],[-6.4978,37.621,210.0664],[-6.4985,37.6227,217.6149],[-6.5005,37.6216,208.6757],[-6.5039,37.6244,224.7442],[-6.5078,37.6212,194.9534],[-6.5085,37.6247,201.6212],[-6.5109,37.6226,189.2311],[-6.5135,37.6252,189.9459],[-6.5204,37.6208,176.6886],[-6.5225,37.6219,187.5015],[-6.5219,37.6196,191.65],[-6.5263,37.6182,183.5799],[-6.5279,37.6158,174.4032],[-6.5301,37.619,176.2849],[-6.533,37.6191,164.4398],[-6.5321,37.6201,174.4279],[-6.5351,37.6215,160.4771],[-6.5364,37.6208,160.4771],[-6.5384,37.6267,156.7868],[-6.5334,37.6298,186.3908],[-6.5334,37.633,152.236],[-6.5304,37.6342,158.9843],[-6.5295,37.6368,162.5636],[-6.5365,37.6405,191.3246],[-6.5335,37.6469,195.9936],[-6.536,37.651,217.422],[-6.5332,37.6569,203.3185],[-6.5299,37.6576,204.0587],[-6.5254,37.6641,209.0316],[-6.5215,37.6644,213.749],[-6.5192,37.6622,213.9593],[-6.5158,37.6654,229.5338],[-6.5117,37.6647,220.0288],[-6.5076,37.6683,242.0],[-6.5036,37.666,242.0],[-6.5022,37.6668,242.0],[-6.5004,37.6704,242.0],[-6.5008,37.6772,242.0],[-6.498,37.6823,242.0],[-6.5013,37.6887,246.3102],[-6.4929,37.689,253.0351],[-6.4939,37.6913,280.1888],[-6.4907,37.6949,257.4429],[-6.4911,37.6963,256.1769],[-6.4888,37.698,253.1456],[-6.4848,37.6977,252.5839],[-6.4847,37.7012,256.5836],[-6.4794,37.7053,271.3068],[-6.4793,37.711,273.9972],[-6.4764,37.712,274.6127],[-6.4745,37.7088,282.4351],[-6.4733,37.7091,282.4351],[-6.4758,37.7147,281.928],[-6.48,37.7154,307.134],[-6.4829,37.7208,293.5273],[-6.4805,37.7208,307.2727],[-6.4811,37.7223,297.6931],[-6.4736,37.7253,322.4459],[-6.4606,37.721,325.1147],[-6.4542,37.7214,326.8224],[-6.4501,37.7189,351.2621],[-6.4307,37.7275,459.4408],[-6.4234,37.7341,453.9275],[-6.3899,37.7477,490.3055],[-6.3601,37.7549,418.6835],[-6.3529,37.7553,465.0207],[-6.3487,37.7575,438.3971],[-6.3291,37.7598,429.1957],[-6.3198,37.764,469.744],[-6.3109,37.7649,468.0313],[-6.3031,37.7617,440.0573],[-6.2784,37.7584,309.6038],[-6.2711,37.7588,288.7408],[-6.266,37.7614,267.5326],[-6.2582,37.7606,236.9974],[-6.2519,37.7631,175.4801],[-6.2483,37.7591,182.6446],[-6.2445,37.7478,171.4033],[-6.2541,37.7474,176.3754],[-6.2552,37.7459,200.4612],[-6.2523,37.7428,165.0961],[-6.2434,37.7409,160.3714],[-6.2362,37.7443,167.9737],[-6.2337,37.744,190.9934],[-6.2347,37.7386,162.1718],[-6.2267,37.7415,182.6828],[-6.2268,37.739,174.0135],[-6.2219,37.7397,181.167],[-6.2219,37.7415,200.8498],[-6.2169,37.7437,243.9982],[-6.2203,37.7485,266.8732],[-6.2198,37.7545,364.0459],[-6.2056,37.766,394.0451],[-6.2088,37.7694,304.4949],[-6.2074,37.7713,318.8256],[-6.2122,37.7862,433.7225],[-6.2154,37.7913,409.831],[-6.2123,37.7956,479.5728],[-6.2072,37.7983,495.8094],[-6.2079,37.8007,494.3548],[-6.2023,37.8055,467.1365],[-6.1875,37.8099,432.3413],[-6.1841,37.8095,445.4424],[-6.1773,37.7982,405.2908],[-6.1719,37.7985,398.8301],[-6.1728,37.7963,388.1118],[-6.1683,37.7961,382.1448],[-6.1673,37.7928,381.2969],[-6.163,37.7942,377.4803],[-6.159,37.7907,363.6344],[-6.1564,37.7909,349.2944],[-6.1534,37.7949,335.944],[-6.147,37.7937,330.3419],[-6.1429,37.7873,313.2623],[-6.1349,37.7892,312.6797],[-6.1339,37.7878,300.9387],[-6.1337,37.79,312.6797],[-6.1381,37.7951,306.689],[-6.1263,37.7972,307.4448],[-6.1242,37.8044,318.0371],[-6.127,37.8115,341.4348],[-6.1216,37.8156,323.2593],[-6.1218,37.8171,342.2476],[-6.1255,37.8181,330.6398],[-6.1295,37.8324,342.0778],[-6.1353,37.8349,365.6719],[-6.1348,37.8426,342.7537],[-6.1381,37.8441,339.7002],[-6.1417,37.8549,360.813],[-6.1462,37.8568,344.2766],[-6.154,37.8534,351.646],[-6.1589,37.8541,349.4181],[-6.163,37.8573,356.3494],[-6.1639,37.8628,355.7741],[-6.1603,37.8655,367.7141],[-6.1591,37.8735,364.9232],[-6.1502,37.877,370.6367],[-6.1453,37.8843,384.2825],[-6.1413,37.885,385.6957],[-6.1362,37.8957,511.237],[-6.1253,37.9009,384.8159],[-6.1249,37.9048,385.5322],[-6.1315,37.9088,451.067],[-6.1378,37.909,411.5815],[-6.1446,37.9204,391.8143],[-6.1464,37.9203,407.2616],[-6.15,37.916,403.3522],[-6.1512,37.9161,403.3522],[-6.1505,37.919,400.0002],[-6.1521,37.9192,398.0893],[-6.1564,37.9167,416.1329],[-6.164,37.9177,400.3253],[-6.1665,37.9092,409.374],[-6.1691,37.9094,409.262],[-6.184,37.9282,418.8341],[-6.1822,37.9382,422.7372],[-6.1801,37.941,425.3424],[-6.1856,37.9451,427.6149],[-6.1961,37.9491,430.3794],[-6.194,37.9547,433.5894],[-6.202,37.9595,446.2574],[-6.2003,37.9606,471.1674],[-6.2011,37.9619,456.5541],[-6.2039,37.9622,480.7378],[-6.2052,37.9597,463.8695],[-6.2093,37.9586,469.9288],[-6.2102,37.9607,479.435],[-6.2144,37.9614,466.1386],[-6.2331,37.958,471.8845],[-6.2396,37.9591,475.9673],[-6.2459,37.9631,480.6393],[-6.2461,37.9659,491.8535],[-6.2524,37.9716,489.3958],[-6.28,37.9735,506.4771],[-6.2888,37.9766,517.3505],[-6.3032,37.9783,527.0009],[-6.309,37.9852,533.3124],[-6.3196,37.9902,554.912],[-6.3216,37.9934,550.9828],[-6.3292,37.9983,567.0598],[-6.3334,37.9981,569.6882],[-6.346,38.0024,601.282],[-6.3526,38.0074,618.7416],[-6.359,38.0167,620.4316],[-6.3581,38.0263,824.2343],[-6.3629,38.0431,1029.5082],[-6.3671,38.0461,1035.3918],[-6.3671,38.0489,999.534],[-6.3883,38.0481,1000.3171],[-6.4022,38.0525,919.6653],[-6.4138,38.0586,905.6774],[-6.4357,38.0575,840.2869],[-6.4431,38.0592,830.2115],[-6.4523,38.056,635.5152],[-6.4436,38.0476,643.6638],[-6.4442,38.0461,629.4705],[-6.4475,38.0437,603.0715],[-6.4522,38.0429,585.1572],[-6.461,38.0357,555.2654],[-6.4657,38.0353,563.429],[-6.4657,38.0322,589.251],[-6.4695,38.0311,645.1815],[-6.4737,38.0244,804.7114],[-6.4721,38.0158,612.5049],[-6.4646,38.0138,651.0005],[-6.4653,38.011,529.3533],[-6.4692,38.0121,530.9015],[-6.4704,38.01,505.5656],[-6.4785,38.0081,493.1932],[-6.4799,38.0096,507.4937],[-6.4842,38.008,468.341],[-6.4916,38.0095,422.0585],[-6.4916,38.0121,423.0296],[-6.4955,38.0152,442.7677],[-6.4927,38.0164,435.3081],[-6.4949,38.0191,509.3337],[-6.5247,38.0215,691.0699],[-6.5456,38.0281,768.2253],[-6.5651,38.027,668.9355],[-6.5714,38.0241,656.29],[-6.5695,38.0227,632.3917],[-6.572,38.0202,658.0872],[-6.5787,38.0221,667.4398],[-6.5822,38.0209,722.3455],[-6.586,38.0237,732.3811],[-6.5846,38.0266,707.507],[-6.587,38.0268,726.2172],[-6.5837,38.0343,692.1091],[-6.5843,38.0442,740.9225],[-6.5804,38.0528,713.4008],[-6.5942,38.0669,602.2157],[-6.5994,38.075,599.2308],[-6.604,38.0773,592.7985],[-6.6073,38.0834,562.1466],[-6.6123,38.0859,553.2062],[-6.6223,38.0972,504.5787],[-6.6271,38.0983,490.2544],[-6.6372,38.0962,480.0225],[-6.6416,38.0976,481.1055],[-6.646,38.0913,466.5022],[-6.6492,38.09,475.4662],[-6.6513,38.0931,459.5531],[-6.65,38.0953,461.6547],[-6.6536,38.0965,463.2279],[-6.6586,38.0953,458.9878],[-6.6592,38.0926,448.4308],[-6.6609,38.0925,448.2944],[-6.6761,38.0953,458.9095],[-6.6799,38.0974,440.4906],[-6.682,38.0968,435.4359],[-6.6898,38.1,415.9017],[-6.6917,38.095,422.7366],[-6.7068,38.0965,405.7301],[-6.7153,38.0926,399.9966],[-6.7168,38.0999,391.4069],[-6.7196,38.1006,403.1516],[-6.7236,38.0971,384.4797],[-6.7265,38.0973,384.4555],[-6.7284,38.1,386.8429],[-6.735,38.0935,387.2269],[-6.7303,38.0924,373.1555],[-6.7319,38.0901,374.5321],[-6.7421,38.0933,365.6096],[-6.7472,38.0914,368.5336],[-6.7544,38.095,361.328],[-6.7581,38.0927,353.2339],[-6.7609,38.0979,350.3801],[-6.7699,38.0997,344.715],[-6.7644,38.1024,348.0635],[-6.7648,38.106,345.0411],[-6.7716,38.1032,350.1887],[-6.7735,38.1047,355.3935],[-6.7696,38.112,328.1364],[-6.7753,38.1125,351.2434],[-6.7799,38.109,326.8892],[-6.7822,38.1118,326.3334],[-6.7847,38.1116,324.5603],[-6.789,38.1092,318.9848],[-6.7972,38.1107,309.8933],[-6.7977,38.1139,329.9942],[-6.7998,38.1148,312.7251],[-6.8082,38.1112,305.3397],[-6.8157,38.1201,299.3158],[-6.8101,38.1327,432.7388],[-6.7994,38.1438,454.369],[-6.7988,38.1552,503.8661],[-6.7943,38.1596,512.0295],[-6.7928,38.1666,543.1768],[-6.7927,38.173,527.9089],[-6.795,38.1785,511.2678],[-6.8056,38.1787,483.2438],[-6.8222,38.1738,535.4152],[-6.8483,38.1772,491.5869],[-6.858,38.1799,506.9176],[-6.8828,38.1933,439.5763],[-6.8923,38.1954,329.7775],[-6.8941,38.198,306.4382],[-6.8979,38.1985,313.3292],[-6.9014,38.2013,268.0352],[-6.9223,38.2003,267.7706],[-6.925,38.2019,224.1095],[-6.9246,38.2053,202.1063],[-6.9268,38.2044,196.6213],[-6.9315,38.2083,195.1324],[-6.9348,38.2005,259.5704],[-6.9426,38.1933,303.5598],[-6.9536,38.1863,273.435],[-6.9614,38.1768,264.7812],[-6.9656,38.1679,209.1521],[-6.9692,38.1663,214.6194],[-6.9684,38.1593,200.8418],[-6.9625,38.1547,203.6784],[-6.958,38.1563,199.4315],[-6.9522,38.1528,200.6818],[-6.959,38.1501,204.3335],[-6.9583,38.1455,209.9389],[-6.9614,38.1405,205.1959],[-6.958,38.137,218.7372],[-6.9594,38.1335,253.9022],[-6.9649,38.132,276.074],[-6.9639,38.1312,267.6432],[-6.9657,38.1298,291.8295],[-6.9648,38.1278,290.5153],[-6.9677,38.1253,362.1498],[-6.9724,38.1148,385.0906],[-6.9706,38.1105,373.3775],[-6.9753,38.1079,361.4408],[-6.9756,38.1042,348.2672],[-6.9789,38.1051,342.7515],[-6.9828,38.1028,339.1255],[-6.9867,38.104,337.5815],[-6.9878,38.102,350.4321],[-6.9899,38.09,361.368],[-6.9874,38.0749,374.7328],[-6.9907,38.0668,366.0099],[-6.9898,38.0556,400.3249],[-6.9998,38.0495,464.4456],[-7.0021,38.0447,501.2056],[-7.0026,38.0425,506.9785],[-6.999,38.036,513.7757],[-7.003,38.03,442.0376],[-7.002,38.0224,529.6114],[-7.0044,38.0231,531.3818],[-7.0072,38.0208,522.7756],[-7.0147,38.0211,557.7122],[-7.025,38.0247,546.9938],[-7.038,38.0176,528.8278],[-7.0429,38.0165,507.3739],[-7.0447,38.014,520.5209],[-7.0468,38.0143,507.2959],[-7.0484,38.0154,507.2959],[-7.0479,38.0177,473.0479],[-7.057,38.019,452.1365],[-7.0595,38.0173,439.9189],[-7.0635,38.0196,444.8412],[-7.0641,38.0228,425.1547],[-7.0621,38.0267,415.718],[-7.0642,38.027,421.9354],[-7.0643,38.0284,407.5224],[-7.0667,38.0274,401.0885],[-7.0683,38.031,396.9218],[-7.0672,38.0336,423.9881],[-7.0713,38.0339,407.1064],[-7.0738,38.0322,375.4057],[-7.0803,38.0351,358.9242],[-7.0828,38.0337,373.6717],[-7.0821,38.036,348.1443],[-7.0901,38.0381,350.1472],[-7.0908,38.0404,337.6632],[-7.093,38.0401,344.6104],[-7.0934,38.0418,337.512],[-7.0987,38.0438,333.1631],[-7.1036,38.0409,326.5088],[-7.1083,38.0409,318.1411],[-7.1108,38.0362,312.0197],[-7.1123,38.0377,315.1466],[-7.1152,38.0365,315.5681],[-7.1139,38.0358,320.9921],[-7.1161,38.0318,312.3757],[-7.1176,38.0326,296.8166],[-7.1194,38.0307,284.6796],[-7.1209,38.033,281.3261],[-7.1283,38.0295,276.5515],[-7.1284,38.0272,278.7736],[-7.1249,38.0249,299.9897],[-7.1271,38.0221,320.2481],[-7.132,38.0216,325.6703],[-7.1277,38.0197,321.9753],[-7.1291,38.0108,359.8613],[-7.1207,38.0046,416.1546],[-7.125,38.0044,430.6626],[-7.1373,37.999,444.4766],[-7.1452,38.0029,423.7431],[-7.1498,38.0009,410.4501],[-7.1505,37.9978,402.1468],[-7.1562,37.994,408.9495],[-7.1599,37.9953,403.8055],[-7.163,37.9941,394.3154],[-7.1649,37.9959,387.3352],[-7.1735,37.9928,371.8415],[-7.1774,37.9984,368.0606],[-7.184,37.9966,354.3075],[-7.1837,37.9983,358.9332],[-7.187,38.0027,342.5701],[-7.1931,38.0007,325.9267],[-7.2023,38.0034,316.3423],[-7.207,38.0003,315.6919],[-7.2057,37.9977,309.3828],[-7.216,37.996,293.0455],[-7.2186,37.9926,296.2416],[-7.2267,37.9881,307.6882],[-7.2307,37.9915,307.8536],[-7.2325,37.9897,320.1548],[-7.2457,37.9922,294.9969],[-7.25,37.9856,292.0215],[-7.2534,37.9854,284.4796],[-7.256,37.9814,290.875],[-7.2592,37.9818,291.3601],[-7.2599,37.9795,296.0576],[-7.2624,37.9799,291.4123],[-7.2618,37.9775,278.3251],[-7.2497,37.9669,258.3177],[-7.2518,37.9597,219.3682],[-7.2483,37.9545,193.8181],[-7.2508,37.9526,191.1113],[-7.2513,37.9485,177.4639],[-7.2548,37.9457,173.0154],[-7.2528,37.9445,161.3833],[-7.2525,37.9415,168.4969],[-7.2544,37.9392,156.4471],[-7.2531,37.9385,144.8475],[-7.2578,37.9331,141.826],[-7.2551,37.9227,141.6319],[-7.2582,37.9221,144.2682],[-7.2619,37.9243,142.1631],[-7.2614,37.9182,151.7288],[-7.2679,37.9126,147.8342],[-7.2695,37.9063,143.7655],[-7.2741,37.9045,141.4909],[-7.2749,37.9019,138.5447],[-7.2736,37.8991,149.1049],[-7.2822,37.8977,143.9827],[-7.2826,37.8882,137.5158],[-7.2796,37.8765,135.3133],[-7.2821,37.8744,160.8642],[-7.2835,37.8689,146.5453],[-7.2895,37.8612,147.9247],[-7.2976,37.8567,138.7917],[-7.3013,37.8416,115.3316],[-7.3101,37.8358,110.5535],[-7.3139,37.8288,115.108],[-7.3203,37.8235,116.2823],[-7.3212,37.8189,105.8114],[-7.3244,37.8158,104.1696],[-7.3335,37.8125,128.044],[-7.3418,37.8066,111.0672],[-7.3467,37.8055,101.9148],[-7.3516,37.8006,105.7859],[-7.3571,37.7988,108.4641],[-7.3605,37.7937,108.553],[-7.3661,37.7927,98.7792],[-7.3686,37.7874,107.7134],[-7.3788,37.7823,121.4495],[-7.3826,37.775,95.4044],[-7.3909,37.7713,94.2563],[-7.3967,37.764,93.9462],[-7.4076,37.7672,88.5177],[-7.4094,37.7666,91.6709],[-7.41,37.7628,86.0156],[-7.4132999999999996,37.7598,88.4278],[-7.4214,37.7589,99.6743],[-7.4227,37.755,96.7926],[-7.4188,37.7488,106.1373],[-7.4187,37.7438,84.6509],[-7.4286,37.741,79.2738],[-7.4287,37.7371,92.6694],[-7.4264,37.734,81.9204],[-7.4313,37.7206,72.4438],[-7.4362,37.7183,75.1964],[-7.4402,37.7063,77.4993],[-7.4394,37.7004,113.2846],[-7.4412,37.6997,69.0987],[-7.4437,37.702,65.7739],[-7.4478,37.6975,70.7326],[-7.4438,37.6886,71.078],[-7.4476,37.6817,84.5489],[-7.4523,37.6774,68.1918],[-7.4489,37.6747,62.9979],[-7.4436,37.6646,75.1278],[-7.4556,37.6622,54.1283],[-7.4514,37.6586,59.1237],[-7.4546,37.6548,52.0],[-7.4531,37.6485,55.3813],[-7.4544,37.6464,56.3678],[-7.458,37.6463,52.0],[-7.4638,37.6497,54.5292],[-7.4672,37.6494,59.0512],[-7.4636,37.6419,65.108],[-7.4667,37.6372,53.3423],[-7.471,37.6349,52.0],[-7.4703,37.625,52.0],[-7.4779,37.6258,52.0],[-7.4823,37.6241,52.0],[-7.4797,37.6184,53.2194],[-7.4863,37.6123,52.0],[-7.4856,37.6096,52.0],[-7.4888,37.604,52.0],[-7.4909,37.6035,58.9447],[-7.4971,37.6071,57.5157],[-7.5038,37.6048,52.0],[-7.5003,37.5973,52.0],[-7.4965,37.5947,52.0],[-7.4975,37.5906,52.0],[-7.5018,37.5853,52.0],[-7.5013,37.578,52.0],[-7.5077,37.576,52.0],[-7.5141,37.5718,52.0],[-7.5155,37.5688,52.0],[-7.5134,37.5659,52.0],[-7.5102,37.5675,54.4517],[-7.5075,37.5668,52.0],[-7.5067,37.5574,52.0],[-7.5079,37.5567,52.0],[-7.5116,37.5601,52.0],[-7.5194,37.5595,52.0],[-7.5223,37.557,12.8499],[-7.5227,37.5531,0.0],[-7.5197,37.5468,0.0],[-7.5126,37.5385,1.0715],[-7.5117,37.5249,0.0],[-7.5052,37.5224,8.8775],[-7.4954,37.5234,11.7053],[-7.4922,37.5222,0.0],[-7.4903,37.5184,6.8862],[-7.4909,37.5089,9.8678],[-7.4841,37.4983,0.0],[-7.4797,37.4954,16.5783],[-7.4708,37.4933,1.0321],[-7.4638,37.4872,13.0881],[-7.4639,37.4838,4.1025],[-7.4693,37.4785,0.0],[-7.4688,37.4685,2.657],[-7.4652,37.461,0.0],[-7.4567,37.4524,0.8954],[-7.4592,37.4399,0.0],[-7.4575,37.4293,0.0],[-7.4455,37.4194,5.6108],[-7.448,37.4155,4.5262],[-7.4613,37.4131,0.0],[-7.4627,37.409,0.0],[-7.461,37.4067,0.7776],[-7.449,37.401,0.0],[-7.4405,37.391,0.0],[-7.4363,37.3614,0.0],[-7.4378,37.3554,0.0],[-7.4448,37.3465,0.0],[-7.4448,37.3419,0.0],[-7.439,37.3269,0.0],[-7.4422,37.3113,0.0],[-7.4333,37.2881,0.0],[-7.4217,37.2738,0.0],[-7.423,37.27,0.0],[-7.432,37.2594,0.0],[-7.4336,37.2501,0.0],[-7.431,37.2452,0.0],[-7.4196,37.2381,0.0],[-7.4135,37.2254,0.0],[-7.4137,37.2106,0.0],[-7.4073,37.1834,0.0],[-7.4036,37.1777,0.0],[-7.3985,37.1793,1.0967],[-7.3801,37.1718,0.0],[-7.3699,37.1726,2.8882],[-7.3507,37.1774,1.8068],[-7.3451,37.1829,7.6752],[-7.3449,37.1824,7.6752],[-7.3457,37.1815,3.882],[-7.3435,37.1815,3.4923],[-7.3435,37.1835,7.6752],[-7.3326,37.1851,0.0],[-7.3393,37.1899,0.1634],[-7.3393,37.1926,0.6225],[-7.3371,37.1968,0.1907],[-7.3326,37.199,0.0],[-7.3318,37.2035,0.0],[-7.3382,37.2054,0.2169],[-7.354,37.2007,0.0735],[-7.3576,37.201,0.18],[-7.3607,37.2035,0.1859],[-7.3554,37.2021,0.4536],[-7.3385,37.2074,0.2157],[-7.3315,37.2062,0.0],[-7.3335,37.2096,0.2459],[-7.3376,37.211,0.0477],[-7.3335,37.2104,0.2459],[-7.3301,37.2068,0.2523],[-7.3237,37.206,0.0],[-7.3221,37.211,0.228],[-7.3215,37.2068,0.0],[-7.3165,37.2088,0.5197],[-7.3154,37.2029,0.0],[-7.3112,37.201,0.2541],[-7.3135,37.2001,5.373],[-7.3157,37.2018,0.9545],[-7.3179,37.2076,0.0],[-7.3212,37.2049,3.4937],[-7.3296,37.2057,0.2523],[-7.329,37.1971,0.0],[-7.336,37.1901,0.0],[-7.3312,37.1865,-0.0937],[-7.331,37.1885,-0.0363],[-7.3349,37.1901,0.0],[-7.3315,37.1932,1.4823],[-7.3299,37.1924,2.0443],[-7.3215,37.1943,5.015],[-7.3163,37.1932,1.1488],[-7.2876,37.201,5.2113],[-7.2749,37.2026,5.9753],[-7.2096,37.2046,0.8115],[-7.1896,37.2071,2.3118],[-7.1882,37.209,2.8511],[-7.1868,37.2071,2.8149],[-7.1754,37.2065,1.4857],[-7.1443,37.2085,1.3967],[-7.0771,37.2071,1.6546],[-7.0662,37.2051,0.9663],[-7.064,37.2062,1.519],[-7.0651,37.2079,0.0],[-7.0779,37.2104,1.2722],[-7.1038,37.2104,3.3027],[-7.1285,37.2135,0.8101],[-7.1576,37.2101,5.3064],[-7.1704,37.2157,0.2271],[-7.1737,37.2188,0.0],[-7.1751,37.2226,0.0],[-7.1718,37.2235,0.0],[-7.1682,37.2304,0.8959],[-7.1687,37.2365,0.8882],[-7.1651,37.2454,0.0],[-7.1629,37.2612,0.4156],[-7.1649,37.2626,0.422],[-7.1696,37.2615,0.9179],[-7.1718,37.2629,0.2505],[-7.1732,37.2699,0.0],[-7.1776,37.2757,4.0734],[-7.1769,37.2765,4.0734],[-7.1729,37.2718,0.1597],[-7.1704,37.2632,0.2505],[-7.161,37.2651,0.8338],[-7.1632,37.2457,0.4731],[-7.1662,37.2371,0.0],[-7.164,37.2421,0.791],[-7.1571,37.2432,2.2826],[-7.1524,37.236,0.3908],[-7.1574,37.2346,0.7033],[-7.1576,37.2329,0.7868],[-7.1549,37.2301,0.3912],[-7.1568,37.2265,0.6485],[-7.1621,37.2257,0.59],[-7.1662,37.2268,0.0],[-7.1676,37.2249,0.5542],[-7.1676,37.2179,0.0],[-7.1626,37.214,0.0],[-7.1507,37.2132,0.0],[-7.1365,37.2176,0.2527],[-7.119,37.2163,0.0],[-7.1162,37.2149,0.0],[-7.0843,37.2149,1.6319],[-7.0341,37.2057,6.0299],[-7.0174,37.2004,1.94],[-6.9707,37.1782,0.3704],[-6.9518,37.1718,2.7073],[-6.9479,37.1682,0.0],[-6.9485,37.1638,0.0],[-6.9474,37.1654,0.0],[-6.9479,37.1715,0.0],[-6.9649,37.1879,4.1517],[-6.9674,37.1963,0.8451],[-6.9735,37.2029,0.0],[-6.9779,37.2068,0.439],[-6.9963,37.209,0.1924],[-7.0006,37.2171,0.0],[-7.0046,37.2193,0.0],[-7.0082,37.2193,0.0],[-7.0032,37.2199,0.0],[-6.9993,37.2185,1.1258],[-6.9938,37.209,0.0],[-6.9779,37.2082,0.0],[-6.9821,37.2151,0.0],[-6.9829,37.214,0.0],[-6.9801,37.211,0.0],[-6.9807,37.2096,0.2946],[-6.9938,37.2099,0.0],[-6.9988,37.219,0.2367],[-7.004,37.2207,0.0],[-7.0115,37.2193,0.0],[-7.0151,37.2121,0.0],[-7.0226,37.214,1.1867],[-7.0232,37.2163,1.5139],[-7.0213,37.2182,0.6659],[-7.0221,37.2229,6.4261],[-7.0179,37.2226,0.159],[-7.0151,37.2251,0.7526],[-7.0159,37.2268,2.3619],[-7.0179,37.2268,2.3619],[-7.0157,37.2321,0.0],[-7.0165,37.2346,0.6667],[-7.0132,37.234,0.8148],[-7.0126,37.2365,1.0246],[-7.0087,37.236,0.4947],[-7.0085,37.2388,1.6384],[-7.0101,37.2385,4.7515],[-7.0099,37.2396,4.872],[-7.0057,37.239,2.8283],[-7.0035,37.2412,1.5343],[-7.0051,37.2429,0.0],[-7.0079,37.2424,1.7046],[-7.0065,37.2443,1.9262],[-6.999,37.2435,0.0],[-6.9982,37.2479,0.0],[-6.994,37.2491,0.0],[-6.9971,37.2568,0.2473],[-6.9956,37.2574,0.7673],[-6.988,37.2551,0.0],[-6.9843,37.249,0.0],[-6.9882,37.2479,0.0],[-6.9901,37.2424,0.0],[-6.9946,37.2385,0.1895],[-6.9951,37.2357,0.0],[-6.9996,37.2349,0.0],[-7.0012,37.2318,0.411],[-7.0032,37.2318,0.0],[-7.0012,37.2285,0.0],[-6.9963,37.2251,0.0],[-6.9879,37.2238,0.0],[-6.984,37.2185,0.0],[-6.9868,37.224,0.0],[-6.9963,37.226,0.0],[-7.0004,37.2301,0.0],[-6.9985,37.234,0.0],[-6.9943,37.2351,0.2466],[-6.9938,37.2376,0.1895],[-6.9907,37.2396,0.3027],[-6.9874,37.2477,0.0],[-6.9832,37.2487,0.6448],[-6.9876,37.2568,0.0],[-6.9829,37.2504,0.2333],[-6.971,37.2435,0.1108],[-6.9737,37.2332,0.6189],[-6.9657,37.2171,0.0],[-6.9579,37.216,0.0],[-6.961,37.2212,0.6706],[-6.9621,37.2443,0.0],[-6.9654,37.2527,0.4042],[-6.9682,37.2507,0.5381],[-6.966,37.2532,0.4042],[-6.9671,37.256,0.8968],[-6.966,37.2571,0.0],[-6.9846,37.269,0.4576],[-6.9885,37.2679,0.4767],[-6.9946,37.2599,0.0],[-6.9893,37.2565,0.0],[-6.9938,37.2588,0.0],[-7.0018,37.2574,0.6526],[-6.9954,37.2596,0.1773],[-6.9893,37.2679,1.2393],[-6.9862,37.2699,0.866],[-6.9829,37.2696,1.8187],[-6.9729,37.264,0.0],[-6.9729,37.2651,0.0],[-6.9804,37.2701,0.4734],[-6.9826,37.2762,1.2192],[-6.9782,37.269,0.7908],[-6.9699,37.2643,0.1083],[-6.9676,37.2651,0.1293],[-6.9665,37.2687,0.5936],[-6.9735,37.2788,0.0],[-6.9724,37.2888,0.0],[-6.9779,37.2976,0.7325],[-6.9793,37.3095,1.232],[-6.9757,37.2973,0.1667],[-6.9726,37.2957,1.5592],[-6.9713,37.2938,1.1581],[-6.9704,37.281,1.1303],[-6.9682,37.2768,0.0705],[-6.9665,37.2768,0.0705],[-6.9665,37.2813,0.6501],[-6.966,37.2768,0.0],[-6.9643,37.2765,0.0],[-6.9612,37.2835,0.0],[-6.9599,37.289,0.0],[-6.9618,37.2926,0.2609],[-6.961,37.2974,1.0472],[-6.9579,37.2996,0.3761],[-6.961,37.296,0.0],[-6.9585,37.2893,0.0],[-6.9554,37.2962,0.3105],[-6.9543,37.2957,0.3105],[-6.9607,37.2779,0.0],[-6.959,37.2771,1.0125],[-6.9574,37.2793,0.5151],[-6.9568,37.2846,0.8366],[-6.956,37.2813,0.0],[-6.9543,37.2829,0.441],[-6.9551,37.2899,0.5104],[-6.9543,37.2893,0.5104],[-6.9535,37.2835,0.7213],[-6.9543,37.2793,0.0459],[-6.9626,37.269,0.0],[-6.9643,37.264,1.6442],[-6.9588,37.2515,0.0],[-6.9596,37.2485,0.0],[-6.9587,37.2476,0.0],[-6.9579,37.2495,0.8511],[-6.9566,37.2468,0.0],[-6.9554,37.2415,3.9989],[-6.9565,37.2404,0.0],[-6.9551,37.2401,2.4973],[-6.9571,37.2382,0.0],[-6.9546,37.2382,1.7697],[-6.9538,37.2349,3.5645],[-6.9571,37.2337,0.0],[-6.9535,37.2335,3.1447],[-6.9532,37.2296,1.9127],[-6.9562,37.229,0.0],[-6.9529,37.2287,0.8405],[-6.9518,37.2254,2.2601],[-6.9546,37.2246,0.0],[-6.9515,37.2249,2.2601],[-6.9505,37.2215,0.0],[-6.9535,37.2188,0.0],[-6.9498,37.2202,0.3212],[-6.9465,37.2146,0.0],[-6.9426,37.2121,0.4315],[-6.9379,37.2132,0.0],[-6.936,37.2179,0.8167],[-6.9224,37.231,0.8158],[-6.921,37.2335,0.0],[-6.9215,37.2376,1.5792],[-6.9196,37.2349,0.0],[-6.9179,37.2349,0.0],[-6.8946,37.2546,1.9957],[-6.8899,37.2605,0.2221],[-6.8885,37.2674,5.436],[-6.8882,37.2643,0.0],[-6.884,37.2671,0.0],[-6.8821,37.2718,0.6291],[-6.8815,37.2699,0.0],[-6.8801,37.2701,0.0],[-6.8682,37.2912,0.8865],[-6.8596,37.2938,1.3565],[-6.866,37.2896,0.2666],[-6.8754,37.2735,1.381],[-6.876,37.269,0.0],[-6.8751,37.2679,0.0],[-6.8685,37.2732,0.0],[-6.8637,37.2732,0.7456],[-6.8679,37.2724,0.0],[-6.8749,37.2674,0.0],[-6.8796,37.2596,0.3391],[-6.9021,37.2407,0.3431],[-6.9071,37.2326,0.0],[-6.9343,37.2085,0.0],[-6.934,37.2063,0.0],[-6.9385,37.2071,0.0],[-6.9401,37.2057,0.0],[-6.939,37.2015,0.0],[-6.937,37.2021,5.7624],[-6.934,37.1991,4.1857],[-6.9349,37.1968,5.0248],[-6.9365,37.1968,3.6177],[-6.9385,37.1996,0.0],[-6.9374,37.1954,3.7217],[-6.9337,37.1968,5.0248],[-6.9307,37.1957,13.1957],[-6.9318,37.1924,5.5592],[-6.9362,37.1924,0.3113],[-6.9301,37.1843,0.0],[-6.924,37.1829,1.0259],[-6.9196,37.1793,2.7757],[-6.9215,37.1765,0.0],[-6.9174,37.1768,0.0],[-6.909,37.1718,1.7503],[-6.9129,37.1701,0.0],[-6.9107,37.169,0.0],[-6.9085,37.1707,4.7885],[-6.9057,37.1688,2.7808],[-6.9082,37.1671,0.0],[-6.9046,37.1654,0.0],[-6.9057,37.1671,0.0],[-6.9037,37.1682,4.1023],[-6.8976,37.1643,2.6716],[-6.8968,37.1635,0.0],[-6.899,37.1607,0.0],[-6.8971,37.1601,0.0],[-6.8962,37.1624,2.0672],[-6.896,37.1607,0.1416],[-6.8904,37.1571,1.3398],[-6.8751,37.1488,3.6646],[-6.8715,37.1488,4.4817],[-6.8368,37.1363,7.494],[-6.8338,37.1346,0.4107],[-6.8338,37.1315,0.7528],[-6.8299,37.131,0.3564],[-6.8315,37.1296,1.0921],[-6.8351,37.1318,0.0],[-6.8318,37.1285,0.0],[-6.8293,37.1285,0.0],[-6.8279,37.1313,2.8072],[-6.826,37.1315,3.8394],[-6.7799,37.1151,4.6455],[-6.6546,37.0532,10.5619],[-6.5951,37.0221,28.9817],[-6.5201,36.9768,0.5305],[-6.4999,36.9601,1.9671],[-6.4615,36.9232,2.8279],[-6.4474,36.9057,4.1383],[-6.4268,36.8701,5.4295],[-6.4193,36.8526,0.8476],[-6.3965,36.8093,0.0],[-6.3888,36.8026,3.1652],[-6.3799,36.8007,3.9389],[-6.3699,36.7962,1.7616],[-6.3562,36.7969,0.0],[-6.3526,36.799,6.033],[-6.3488,36.7967,0.0],[-6.3444,36.7993,0.0],[-6.3422,36.8031,0.0]]],
[[[-6.9227,37.1626,0.2856],[-6.9257,37.1632,0.4143],[-6.9251,37.1599,1.0238],[-6.8879,37.1437,0.0],[-6.8776,37.1407,1.3951],[-6.8551,37.1296,0.5987],[-6.8537,37.1301,0.5987],[-6.8626,37.1341,2.7645],[-6.8665,37.1387,1.4182],[-6.874,37.1418,1.7658],[-6.8779,37.141,1.3951],[-6.8965,37.1504,2.047],[-6.9026,37.1563,0.0],[-6.9062,37.1565,0.7698],[-6.9126,37.161,0.0],[-6.9227,37.1626,0.2856]]],
[[[-6.9688,37.2171,0.1475],[-6.9707,37.2179,0.0],[-6.9751,37.2101,0.0],[-6.9654,37.1991,0.1112],[-6.9618,37.1918,0.2021],[-6.9618,37.1876,0.2433],[-6.9585,37.1835,1.0736],[-6.9493,37.1768,0.0],[-6.9426,37.1763,0.0],[-6.9393,37.1779,2.1428],[-6.934,37.1757,1.4504],[-6.9257,37.171,0.6573],[-6.921,37.1651,0.7407],[-6.919,37.1657,1.3483],[-6.9182,37.1632,0.0],[-6.916,37.1635,0.3459],[-6.9165,37.1663,0.0],[-6.9371,37.1835,0.5068],[-6.9407,37.1921,0.2583],[-6.9402,37.1949,0.0],[-6.9424,37.1963,1.0886],[-6.9457,37.2055,0.0],[-6.9688,37.2171,0.1475]]],
[[[-7.1582,37.234,0.4156],[-7.1582,37.2354,0.4156],[-7.166,37.2349,0.3442],[-7.1662,37.2276,0.0],[-7.1568,37.2274,0.2012],[-7.1582,37.234,0.4156]]],
[[[-6.9812,37.2471,0.0],[-6.9824,37.2482,0.0],[-6.9871,37.2471,0.0],[-6.9901,37.2393,0.3027],[-6.9929,37.2374,0.0],[-6.9938,37.2346,0.2466],[-6.999,37.2324,0.1402],[-6.999,37.2296,0.5065],[-6.9968,37.2276,0.3077],[-6.9896,37.2268,0.0],[-6.9876,37.2302,0.3014],[-6.9879,37.2271,0.0],[-6.9829,37.2224,0.9382],[-6.9768,37.2121,0.0],[-6.9707,37.2201,0.7687],[-6.9751,37.231,1.0922],[-6.974,37.2421,0.0],[-6.9812,37.2471,0.0]]],
[[[-7.0037,37.2343,0.382],[-7.0049,37.2357,0.0],[-7.0093,37.2335,0.8956],[-7.0057,37.2324,1.3771],[-7.0037,37.2343,0.382]]],
[[[-6.9715,37.279,0.1706],[-6.9729,37.2801,0.0],[-6.971,37.2768,0.3333],[-6.9707,37.2776,0.206],[-6.9715,37.279,0.1706]]],
[[[-6.8357,37.1146,0.0],[-6.8371,37.1157,0.0],[-6.8324,37.1085,0.0],[-6.8332,37.111,0.0],[-6.8357,37.1146,0.0]]],
[[[-6.8429,37.1224,0.0],[-6.844,37.1229,0.0],[-6.8374,37.1163,0.0],[-6.8374,37.1174,0.0],[-6.8429,37.1224,0.0]]],
[[[-6.8507,37.1285,0.0],[-6.8537,37.1299,0.5987],[-6.8521,37.1279,0.0],[-6.8446,37.1235,0.0],[-6.8457,37.1251,0.0],[-6.8507,37.1285,0.0]]],
[[[-6.879,37.2665,0.546],[-6.8785,37.2718,0.28],[-6.8824,37.2643,0.0],[-6.8865,37.2627,0.0],[-6.8932,37.2524,0.0],[-6.884,37.2585,0.0],[-6.876,37.2679,0.0],[-6.8774,37.2685,0.0],[-6.879,37.2665,0.546]]],
[[[-6.9732,37.2949,0.6638],[-6.974,37.2962,0.3472],[-6.976,37.2971,0.1667],[-6.9721,37.2915,0.0],[-6.9732,37.2949,0.6638]]]]}}