{"type":"Feature","properties":{"GID_3":"ESP.11.1.5_1","GID_0":"ESP","country":"Spain","GID_1":"ESP.11_1","province":"Extremadura","NL_NAME_1":"NA","GID_2":"ESP.11.1_1","county":"Badajoz","NL_NAME_2":"NA","city":"n.a.(43)","VARNAME_3":"NA","NL_NAME_3":"NA","TYPE_3":"Comarca","ENGTYPE_3":"Comarca","CC_3":"NA","HASC_3":"NA","name":"n.a.(43).city"},
"geometry":{"type": "MultiPolygon","coordinates": [[[[-6.6118,38.7389,290.6322],[-6.6267,38.7548,284.9438],[-6.6261,38.7655,269.4223],[-6.6173,38.7655,267.4685],[-6.6131,38.7613,270.1367],[-6.5969,38.7557,263.9825],[-6.5945,38.753,262.6463],[-6.5928,38.7579,257.9355],[-6.5936,38.7671,253.5628],[-6.5831,38.766,274.5395],[-6.5691,38.773,249.1165],[-6.5625,38.7785,237.2449],[-6.5594,38.7905,212.1354],[-6.5617,38.7933,212.5368],[-6.5664,38.7939,211.2474],[-6.568,38.7978,212.678],[-6.5726,38.7971,209.1499],[-6.5827,38.7995,209.2062],[-6.5849,38.8031,208.6106],[-6.5901,38.8029,205.8817],[-6.5949,38.8047,206.8422],[-6.5958,38.8068,207.0339],[-6.6002,38.8046,206.1614],[-6.6037,38.8103,203.8698],[-6.6071,38.8084,202.6196],[-6.6135,38.8098,201.6844],[-6.616,38.8151,202.342],[-6.6243,38.8163,199.6053],[-6.6263,38.8204,198.4488],[-6.6294,38.8211,197.0045],[-6.6302,38.8233,203.1303],[-6.6342,38.8237,195.7711],[-6.6364,38.826,204.7788],[-6.6452,38.8272,194.0884],[-6.6501,38.8323,200.4019],[-6.6575,38.8333,192.2316],[-6.6586,38.8358,194.6356],[-6.6648,38.8368,191.3528],[-6.6875,38.8494,186.7567],[-6.6914,38.8567,187.397],[-6.6869,38.8599,185.5736],[-6.6858,38.8633,184.2061],[-6.687,38.8643,183.769],[-6.6896,38.8625,183.437],[-6.6915,38.863,183.2858],[-6.6925,38.8652,183.1669],[-6.6907,38.8675,181.8914],[-6.6942,38.8693,179.2083],[-6.6716,38.8683,181.0746],[-6.6652,38.8659,183.3054],[-6.6524,38.8664,180.8612],[-6.6438,38.8905,187.4302],[-6.6481,38.8903,187.2544],[-6.6434,38.9148,190.2549],[-6.6357,38.91,192.0211],[-6.6347,38.912,196.8721],[-6.6364,38.9215,202.1581],[-6.6343,38.9366,208.9839],[-6.6356,38.9472,214.3286],[-6.6376,38.9498,213.223],[-6.6355,38.9582,215.6389],[-6.6528,38.9751,214.8583],[-6.6516,38.981,226.6212],[-6.6553,38.9851,217.5399],[-6.6569,38.9919,204.4023],[-6.6521,38.9979,205.7245],[-6.6516,39.0066,213.2801],[-6.6553,39.0138,230.4842],[-6.6529,39.0186,220.0987],[-6.654,39.0234,234.2171],[-6.6521,39.0238,231.7923],[-6.6499,39.0277,229.0385],[-6.6453,39.0291,226.6688],[-6.6416,39.0336,236.9347],[-6.6371,39.0453,246.7394],[-6.7212,39.0573,248.4893],[-6.7272,39.0644,247.743],[-6.7394,39.0681,223.6897],[-6.74,39.0718,219.4825],[-6.7432,39.0753,214.7599],[-6.747,39.0756,215.3045],[-6.7344,39.1222,331.7802],[-6.7348,39.1253,314.0162],[-6.7437,39.1323,314.0281],[-6.7449,39.1388,306.0383],[-6.747,39.1405,301.8953],[-6.7606,39.1397,292.1245],[-6.7644,39.1371,278.6779],[-6.7648,39.1336,281.2819],[-6.77,39.1337,272.8156],[-6.7695,39.1311,264.4728],[-6.7636,39.1296,253.038],[-6.7634,39.1284,271.0949],[-6.7709,39.1232,243.0004],[-6.7853,39.1231,259.2276],[-6.786,39.1205,255.4458],[-6.7844,39.1176,251.0507],[-6.7812,39.1169,261.3557],[-6.7832,39.1124,278.7502],[-6.7876,39.1134,271.5567],[-6.7882,39.1106,266.3643],[-6.7838,39.1081,271.6409],[-6.7851,39.1058,271.9698],[-6.7776,39.1027,249.581],[-6.7744,39.1055,258.004],[-6.7699,39.1015,240.9552],[-6.7821,39.0849,246.2656],[-6.7868,39.0888,267.2081],[-6.7888,39.087,261.8506],[-6.7868,39.086,267.399],[-6.7882,39.0838,261.7428],[-6.7913,39.0851,254.5578],[-6.7946,39.0806,242.0993],[-6.7965,39.0809,237.8003],[-6.8012,39.0775,230.3412],[-6.7979,39.0657,222.667],[-6.8023,39.0604,214.9],[-6.8082,39.0601,209.4571],[-6.8158,39.066,214.5229],[-6.828,39.0657,217.0625],[-6.8287,39.0642,214.4765],[-6.8203,39.0627,224.8444],[-6.8199,39.0584,218.8377],[-6.8468,39.0558,236.9736],[-6.8658,39.064,257.4223],[-6.8697,39.0694,243.1224],[-6.8669,39.0799,215.9126],[-6.8643,39.0823,211.1634],[-6.8717,39.0838,214.0536],[-6.8832,39.0825,205.9701],[-6.8854,39.0842,200.7277],[-6.8798,39.1007,225.5847],[-6.8909,39.1072,198.3691],[-6.8941,39.0972,202.0315],[-6.898,39.0918,194.4254],[-6.8985,39.0825,193.8569],[-6.8956,39.0729,188.4422],[-6.8999,39.0645,190.7097],[-6.899,39.061,187.7527],[-6.9006,39.0557,190.0774],[-6.9032,39.0523,187.2062],[-6.9124,39.0493,201.0783],[-6.9252,39.0398,205.4504],[-6.9396,39.0403,197.8872],[-6.9539,39.0443,194.1127],[-6.9653,39.0424,192.3558],[-6.9678,39.0395,191.9911],[-6.9511,39.0236,182.8825],[-6.9645,39.011,190.2526],[-6.9714,38.9982,221.7898],[-6.9751,38.9948,216.5808],[-6.9866,38.9763,201.8269],[-6.9923,38.9721,198.0239],[-6.9992,38.9627,207.958],[-7.0109,38.9518,204.8311],[-7.0204,38.9401,204.4958],[-7.0275,38.9229,192.5102],[-7.0327,38.9183,196.3212],[-7.0522,38.907,175.7722],[-7.0489,38.9027,169.6187],[-7.0448,38.9017,168.5583],[-7.0417,38.8979,168.4026],[-7.0392,38.8913,167.8188],[-7.0405,38.8838,165.4596],[-7.0356,38.8835,168.5332],[-7.033,38.8788,165.8115],[-7.0329,38.8773,166.117],[-7.0359,38.876,166.1875],[-7.0396,38.87,162.9888],[-7.0393,38.8647,163.0279],[-7.0441,38.8632,163.0479],[-7.0453,38.8651,163.7619],[-7.0532,38.858,161.9612],[-7.0612,38.8581,163.2894],[-7.0654,38.8543,160.9463],[-7.0686,38.8542,164.7648],[-7.0854,38.8308,153.1926],[-7.0892,38.821,157.6681],[-7.0964,38.816,156.8668],[-7.1081,38.8169,154.5468],[-7.1243,38.8155,154.6399],[-7.1286,38.8138,153.051],[-7.1499,38.7983,154.0885],[-7.1565,38.7912,148.4631],[-7.159,38.7849,147.0599],[-7.1535,38.7838,162.3523],[-7.1497,38.7858,166.7539],[-7.1476,38.7834,161.2024],[-7.1509,38.7792,163.6393],[-7.1445,38.7788,161.1798],[-7.1367,38.7694,166.4516],[-7.1277,38.7699,168.5184],[-7.1263,38.7679,167.7988],[-7.1183,38.7647,170.2883],[-7.1113,38.7587,172.7877],[-7.0988,38.7534,175.9165],[-7.0953,38.7499,174.5786],[-7.0916,38.7487,176.1228],[-7.0755,38.7493,183.0597],[-7.0717,38.7482,179.2684],[-7.0693,38.743899999999996,180.1137],[-7.0622,38.7417,182.4004],[-7.0575,38.7339,183.4649],[-7.0524,38.7331,190.2137],[-7.0369,38.7078,192.2469],[-7.0352,38.7019,197.0172],[-7.0273,38.6965,197.4084],[-7.0224,38.6907,201.4931],[-7.0173,38.6974,239.0557],[-7.0041,38.7011,271.317],[-6.9926,38.7115,254.085],[-6.9741,38.7156,249.8723],[-6.9715,38.7136,247.8794],[-6.9567,38.7132,253.715],[-6.923,38.698,263.4331],[-6.9358,38.6996,262.7264],[-6.9359,38.6857,275.3288],[-6.9328,38.6829,284.3384],[-6.925,38.6668,311.3857],[-6.9233,38.6564,334.7152],[-6.9195,38.65,348.7575],[-6.9392,38.6431,394.3641],[-6.9445,38.6352,436.4523],[-6.9433,38.628,403.9374],[-6.9561,38.6228,356.5454],[-6.9602,38.6282,351.0177],[-6.9662,38.6279,335.809],[-6.9706,38.6253,338.905],[-6.9741,38.6193,323.242],[-6.9814,38.6166,309.7054],[-6.9864,38.622,287.1049],[-6.9923,38.6186,278.4263],[-7.0054,38.6296,266.8183],[-7.0207,38.6385,225.9419],[-7.0247,38.6314,229.2851],[-7.0243,38.6302,236.6437],[-7.02,38.6303,234.694],[-7.0166,38.6227,243.2179],[-7.0185,38.6185,242.6646],[-7.0093,38.6167,254.0991],[-7.0105,38.6129,243.0914],[-7.0028,38.6074,252.9849],[-6.9996,38.6071,251.6663],[-6.9973,38.6121,260.1437],[-6.995,38.6121,266.7798],[-6.9962,38.6081,261.2465],[-6.9867,38.6055,268.8444],[-6.9889,38.5981,271.4766],[-6.983,38.5989,278.3929],[-6.9783,38.5977,276.755],[-6.9761,38.5944,279.0491],[-6.9698,38.593,281.0887],[-6.9665,38.5892,287.1429],[-6.9623,38.5895,286.0255],[-6.9564,38.5866,292.5086],[-6.9593,38.5827,294.8322],[-6.9674,38.5806,306.4789],[-6.9678,38.5767,301.8763],[-6.9631,38.5753,305.5697],[-6.9604,38.5701,309.8934],[-6.9565,38.568,305.678],[-6.9508,38.5675,310.4515],[-6.949,38.5696,312.3713],[-6.9449,38.5706,320.4152],[-6.9415,38.5656,321.6391],[-6.931,38.5617,335.8356],[-6.9219,38.564,342.0106],[-6.9173,38.5614,343.5575],[-6.9168,38.5591,347.3611],[-6.9099,38.5615,357.3418],[-6.9055,38.5595,365.6332],[-6.9013,38.5604,375.8686],[-6.8961,38.5583,381.1931],[-6.8945,38.5555,381.4732],[-6.8913,38.5549,399.1945],[-6.8819,38.5569,404.2457],[-6.872,38.5574,411.3573],[-6.8694,38.5552,417.2878],[-6.8662,38.5565,417.2337],[-6.8565,38.546,431.6254],[-6.8483,38.5448,434.8967],[-6.8272,38.5539,619.0143],[-6.8188,38.5753,464.0941],[-6.8011,38.5684,461.5505],[-6.793,38.5617,501.8024],[-6.7908,38.556399999999996,494.8516],[-6.7893,38.5575,573.0088],[-6.771,38.5542,554.0817],[-6.7692,38.5502,480.4613],[-6.7613,38.543,419.0473],[-6.7577,38.5406,414.2774],[-6.7548,38.5415,409.8801],[-6.7384,38.5299,492.5717],[-6.7332,38.5369,434.2549],[-6.7412,38.5455,370.6888],[-6.7392,38.5493,364.5019],[-6.7341,38.5513,363.0],[-6.7351,38.5522,363.0],[-6.7302,38.556399999999996,363.0],[-6.7264,38.5561,363.0],[-6.7238,38.552,366.6757],[-6.7211,38.5526,366.5555],[-6.7127,38.5479,370.3281],[-6.7101,38.5435,380.9056],[-6.7045,38.5416,384.9713],[-6.7015,38.5351,395.7189],[-6.6947,38.5311,407.2808],[-6.6871,38.5358,519.2132],[-6.6825,38.543,663.6979],[-6.6921,38.5486,680.3347],[-6.6947,38.5535,661.9912],[-6.6983,38.5538,614.3416],[-6.7153,38.5696,538.0774],[-6.7265,38.5768,492.6047],[-6.713,38.5917,347.9861],[-6.7105,38.5967,320.7518],[-6.7118,38.5985,316.9774],[-6.7088,38.6038,344.3849],[-6.7109,38.6093,339.0256],[-6.7098,38.6156,332.2895],[-6.7008,38.623,317.8057],[-6.6947,38.6307,316.8182],[-6.6992,38.6586,292.8929],[-6.7002,38.6881,268.5995],[-6.6915,38.6912,286.0204],[-6.6909,38.6932,282.5515],[-6.6678,38.6983,259.4234],[-6.6687,38.6998,254.162],[-6.6649,38.7042,256.4995],[-6.6669,38.7127,249.0564],[-6.6614,38.7147,247.4264],[-6.6471,38.7015,265.583],[-6.6301,38.702,287.5646],[-6.6139,38.7044,280.4507],[-6.5984,38.7148,285.5771],[-6.6078,38.7201,277.6579],[-6.621,38.7303,268.4544],[-6.6354,38.735,262.4581],[-6.6383,38.7402,258.8231],[-6.621,38.7382,279.2015],[-6.6118,38.7389,290.6322]]]]}}