{"type":"Feature","properties":{"ISO3166-1-Alpha-3":"ESP","country":"Spain","fill":"#00F","id":"5830","name":"León"},
"geometry":{"type": "Polygon","coordinates": [[[-4.83187,43.18868,2233.9373],[-4.85941,43.22341,1891.4033],[-4.879,43.23516,1118.2527],[-4.88858,43.23752,469.5925],[-4.89838,43.23855,946.8025],[-4.90848,43.23731,1474.61],[-4.96147,43.21623,2197.4509],[-4.97716,43.20558,2084.157],[-5.00829,43.19292,1017.0925],[-5.04589,43.18527,1491.2998],[-5.06289,43.17876,1152.6609],[-5.07211,43.17246,629.5778],[-5.08245,43.15804,503.8601],[-5.0862,43.15145,593.3344],[-5.08819,43.14419,806.9357],[-5.09547,43.12832,1136.0472],[-5.10284,43.11954,1390.2421],[-5.11813,43.10858,1595.5303],[-5.12984,43.10719,1882.6808],[-5.14002,43.10959,1782.8721],[-5.1504,43.11416,1799.5515],[-5.15955,43.11318,1705.6964],[-5.212,43.09396,1634.1764],[-5.30747,43.08548,1661.0273],[-5.36104,43.09153,1639.7745],[-5.37401,43.08967,1811.7756],[-5.38284,43.08533,1770.7222],[-5.3899,43.06378,1528.4662],[-5.3985,43.05649,1711.9539],[-5.40806,43.05357,1801.1534],[-5.41876,43.05187,1869.4684],[-5.47338,43.05112,1842.4961],[-5.47863,43.04624,1846.6116],[-5.48139,43.03991,1573.761],[-5.48584,43.03355,1634.2438],[-5.49077,43.02864,1787.3029],[-5.49875,43.02786,1785.7742],[-5.51731,43.02905,1855.4011],[-5.541,43.02179,1803.9774],[-5.55157,43.02102,1890.6643],[-5.5617,43.02296,1780.979],[-5.57077,43.02652,1783.708],[-5.57898,43.03117,1817.1876],[-5.60082,43.03469,1821.6003],[-5.61544,43.03458,1689.0162],[-5.63709,43.03799,1839.9142],[-5.66515,43.04828,1976.1262],[-5.67993,43.04965,1801.4115],[-5.70518,43.04879,1583.051],[-5.71954,43.04512,1691.8025],[-5.72998,43.04058,1659.6643],[-5.73517,43.03448,1861.8057],[-5.73866,43.0282,1789.4233],[-5.74386,43.02195,1960.2144],[-5.7506,43.01613,1746.3984],[-5.75533,43.01009,1450.2126],[-5.75817,43.00425,1423.7225],[-5.75915,43.00146,1379.5377],[-5.7598,42.99867,1390.5217],[-5.76228,42.99316,1344.2523],[-5.76631,42.98766,1428.5681],[-5.76993,42.98161,1445.8818],[-5.77869,42.97466,1531.2041],[-5.78928,42.97236,1727.0503],[-5.80483,42.97061,1580.3842],[-5.84483,42.97169,1421.7334],[-5.85486,42.97428,1822.2175],[-5.86294,42.97795,1759.8224],[-5.88901,42.98565,1697.1038],[-5.89372,42.98999,1690.3933],[-5.90485,42.9927,1612.1821],[-5.91865,42.9988,1720.1863],[-5.93092,43.00652,1794.0854],[-5.95467,43.01758,2283.2979],[-5.96041,43.02339,1901.2544],[-5.96459,43.03004,1914.5977],[-5.96761,43.03706,2143.1929],[-5.97126,43.0514,1944.7036],[-5.97637,43.05768,1895.3779],[-5.98779,43.06233,1701.8173],[-6.01676,43.05732,1520.8232],[-6.02999,43.05789,1784.1121],[-6.07911,43.0651,1697.0984],[-6.08833,43.0621,1933.5618],[-6.09128,43.05649,1729.1301],[-6.09272,43.04952,1759.6919],[-6.09575,43.0419,1811.038],[-6.10239,43.03479,1906.3657],[-6.12202,43.02792,1959.3678],[-6.13551,43.02712,1855.27],[-6.14807,43.02957,1901.9148],[-6.17546,43.03784,1751.7461],[-6.19975,43.04104,1764.7897],[-6.21279,43.03887,1766.8267],[-6.21897,43.0336,1635.5441],[-6.22168,43.02009,1514.4279],[-6.22628,43.01544,1439.9758],[-6.23445,43.01435,1477.6936],[-6.25359,43.01799,1663.3652],[-6.29728,43.03396,1805.1786],[-6.31038,43.0336,1860.2366],[-6.32981,43.03786,1736.908],[-6.33793,43.04345,1970.0806],[-6.34728,43.0481,1862.9479],[-6.36485,43.05143,1769.724],[-6.39276,43.04221,1622.3701],[-6.39873,43.03518,1758.9302],[-6.40188,43.02864,1426.5999],[-6.40872,43.02215,1733.4534],[-6.41366,43.0165,1763.093],[-6.41475,43.01029,1727.9388],[-6.41475,43.00487,1657.3033],[-6.4187,43.00053,1562.0031],[-6.42614,42.99758,1560.3083],[-6.44694,42.99278,1439.9377],[-6.47557,42.99185,1727.1433],[-6.48027,42.98787,1730.0096],[-6.48123,42.98239,1481.8811],[-6.47632,42.97686,1582.0527],[-6.4682,42.97314,1498.3848],[-6.45035,42.96813,1511.0767],[-6.44407,42.96399,1455.3109],[-6.44485,42.95771,1298.1543],[-6.44903,42.95107,1255.7107],[-6.50156,42.92971,1395.5718],[-6.5158,42.9287,1420.9604],[-6.55122,42.91785,1586.2418],[-6.5621,42.91666,1581.7762],[-6.60845,42.9196,1607.6051],[-6.61473,42.92327,1472.6212],[-6.62298,42.92544,1388.847],[-6.63574,42.9273,1704.0498],[-6.68251,42.92689,1582.2468],[-6.70111,42.92451,1455.7112],[-6.71943,42.92022,1594.2942],[-6.72979,42.91526,1622.8868],[-6.73762,42.90953,1613.0149],[-6.74436,42.90309,1497.8479],[-6.75237,42.89743,1484.1655],[-6.76348,42.89283,1535.0754],[-6.77087,42.89407,1589.0249],[-6.77723,42.9041,1398.9692],[-6.79532,42.91087,1325.4241],[-6.82829,42.9148,1322.7512],[-6.8371,42.90557,866.9541],[-6.83909,42.89666,1217.0962],[-6.84356,42.88909,1382.8254],[-6.86048,42.87446,1303.3235],[-6.86226,42.86204,1186.7844],[-6.85407,42.83759,1725.5585],[-6.85389,42.82943,1550.3743],[-6.85753,42.81814,1619.9773],[-6.86335,42.80845,1688.2507],[-6.89562,42.78064,1423.0251],[-6.91805,42.75731,1320.6743],[-6.92859,42.75005,1224.5896],[-6.93872,42.74659,1078.8396],[-6.94761,42.74734,1034.0087],[-6.95575,42.74912,1160.9979],[-6.96569,42.74703,1120.5543],[-6.98838,42.73011,1158.1733],[-7.01696,42.72086,1054.9664],[-7.02125,42.71806,1236.1702],[-7.0328,42.70626,1228.7927],[-7.03765,42.69817,1085.8057],[-7.03969,42.68913,1319.3555],[-7.03618,42.67592,1130.2507],[-7.03024,42.66719,1164.6146],[-7.02336,42.65998,1159.5632],[-7.01675,42.65427,956.7368],[-7.01391,42.64763,1170.1926],[-7.0143,42.64133,1364.7032],[-7.02318,42.63543,1375.7239],[-7.03225,42.63156,1286.6785],[-7.0399,42.62556,1392.7068],[-7.04434,42.61709,1398.0149],[-7.04202,42.58911,1247.5164],[-7.04279,42.57761,963.4883],[-7.06011,42.54862,1145.4214],[-7.06251,42.54066,1490.8721],[-7.06197,42.522,1261.3523],[-7.07104,42.50345,1226.8677],[-7.02628,42.50201,1269.9113],[-6.98313,42.49482,1406.9929],[-6.97231,42.4957,1419.4005],[-6.96835,42.49839,1294.1381],[-6.96662,42.50056,1208.7014],[-6.96202,42.50381,975.9946],[-6.95265,42.50826,733.1913],[-6.93293,42.51306,759.977],[-6.91999,42.51283,828.5814],[-6.90944,42.50929,934.8135],[-6.89717,42.50162,895.4294],[-6.89257,42.49978,882.759],[-6.82105,42.48506,808.5513],[-6.80878,42.46402,393.71],[-6.81082,42.45612,699.9664],[-6.81304,42.43891,409.176],[-6.8164,42.4302,369.2991],[-6.82074,42.42366,393.0844],[-6.82854,42.41545,373.9021],[-6.83185,42.41261,362.3225],[-6.83911,42.41012,358.0],[-6.78917,42.37889,1392.0092],[-6.75542,42.36266,1683.3306],[-6.74046,42.35026,1667.1655],[-6.73571,42.34114,1661.9198],[-6.73806,42.33385,1729.0459],[-6.73876,42.32636,1857.7446],[-6.73775,42.31199,1829.8696],[-6.73832,42.30496,1722.2949],[-6.74062,42.29819,1828.1794],[-6.74441,42.29184,1664.2799],[-6.7564,42.28088,1792.406],[-6.76981,42.26197,1806.7471],[-6.78325,42.25288,1959.2114],[-6.70563,42.21718,1801.7635],[-6.69056,42.21361,1933.719],[-6.65406,42.21682,1941.9285],[-6.64417,42.2156,1954.1193],[-6.61629,42.2056,1933.0923],[-6.55781,42.20714,1869.3916],[-6.52377,42.2007,1928.406],[-6.49058,42.18417,1840.8116],[-6.42776,42.202,1803.5339],[-6.33954,42.20013,1378.5688],[-6.32039,42.20721,1467.8608],[-6.31153,42.20812,1433.6238],[-6.30212,42.20234,1199.4742],[-6.29079,42.18593,1059.9941],[-6.27954,42.17784,1130.7467],[-6.24368,42.16788,1047.0269],[-6.21472,42.15047,902.6201],[-6.2037,42.14834,890.9272],[-6.04502,42.15769,857.3755],[-5.95588,42.12583,827.5999],[-5.95036,42.1264,828.6934],[-5.93795,42.13483,798.5824],[-5.93248,42.13635,791.2267],[-5.92075,42.13613,768.8326],[-5.91532,42.13753,769.781],[-5.91158,42.14071,773.0933],[-5.90737,42.14815,806.0733],[-5.90358,42.15107,812.0815],[-5.89304,42.15046,849.5283],[-5.88363,42.14214,815.6851],[-5.86942,42.12204,796.7578],[-5.83819,42.1186,772.8248],[-5.75514,42.13679,751.0172],[-5.74313,42.11347,746.6072],[-5.67691,42.12031,764.6876],[-5.67965,42.14021,780.3489],[-5.656,42.13477,775.5347],[-5.64327,42.12875,754.4628],[-5.62513,42.11119,746.4185],[-5.62251,42.10732,737.7476],[-5.62115,42.10219,737.8913],[-5.62474,42.08359,720.4407],[-5.55336,42.06301,765.8976],[-5.5417,42.09801,783.3589],[-5.52076,42.09698,759.2321],[-5.42158,42.03075,775.9933],[-5.3763,42.04139,793.9349],[-5.38738,42.08304,747.9998],[-5.37688,42.13427,734.1143],[-5.38721,42.19516,803.6533],[-5.38146,42.21477,801.7291],[-5.36119,42.22498,824.739],[-5.35247,42.22269,812.4434],[-5.32166,42.20423,787.5542],[-5.30922,42.20409,784.2891],[-5.28681,42.21634,789.5814],[-5.27452,42.21961,781.9443],[-5.27003,42.21895,787.5663],[-5.26752,42.21798,783.6944],[-5.26533,42.21818,783.3643],[-5.26174,42.22107,783.6899],[-5.25937,42.22477,783.6965],[-5.25044,42.2483,771.1284],[-5.23816,42.26434,789.8117],[-5.22985,42.26933,804.1774],[-5.21949,42.27077,802.8405],[-5.1948,42.26208,782.7823],[-5.17037,42.2679,783.4185],[-5.14811,42.27999,787.2059],[-5.12397,42.30025,794.7159],[-5.11242,42.3062,791.2267],[-5.09385,42.3094,787.6616],[-5.06401,42.27371,766.9803],[-5.04171,42.26754,795.6959],[-5.03827,42.29705,777.0734],[-5.00223,42.28915,828.8099],[-4.95489,42.29602,804.1777],[-4.94251,42.34646,851.8634],[-4.97959,42.33789,846.8067],[-4.97274,42.37426,860.2249],[-4.91131,42.38147,883.8193],[-4.91271,42.40064,897.0989],[-4.88805,42.518,987.2715],[-4.88796,42.53691,995.3733],[-4.9144,42.54481,991.8278],[-4.89526,42.62163,1056.1921],[-4.89809,42.66909,1086.2919],[-4.8924,42.68415,1088.7656],[-4.88193,42.69797,1110.5212],[-4.88102,42.70476,1122.3248],[-4.8875,42.71161,1127.0575],[-4.91996,42.72581,1138.5752],[-4.92806,42.73262,1142.037],[-4.93207,42.73999,1103.2268],[-4.92977,42.74723,1076.2441],[-4.90927,42.76921,1172.2675],[-4.90367,42.77957,1132.1934],[-4.90192,42.84806,1583.8579],[-4.90034,42.85459,1629.476],[-4.89679,42.85977,1635.9164],[-4.89015,42.86257,1539.7618],[-4.86565,42.86052,1785.495],[-4.85536,42.89177,1904.4465],[-4.84762,42.90236,1708.9225],[-4.82286,42.91695,1463.6041],[-4.81343,42.92572,1585.0837],[-4.80027,42.9752,1976.3026],[-4.7892,42.98979,2076.8621],[-4.76045,43.00539,1978.7538],[-4.72686,43.01593,2223.0117],[-4.73474,43.0414,2064.0977],[-4.73872,43.0481,2112.0176],[-4.75852,43.06228,1592.9725],[-4.76446,43.07161,1694.1951],[-4.77045,43.07864,1837.9214],[-4.81138,43.09481,1900.0647],[-4.82076,43.10068,1794.4165],[-4.82789,43.10807,1688.5398],[-4.83355,43.12393,1509.8647],[-4.83603,43.13509,1448.9022],[-4.83187,43.18868,2233.9373]],
[[-5.31929,42.24499,816.8155],[-5.33716,42.24656,824.8229],[-5.34836,42.26097,832.5434],[-5.34834,42.27815,838.2039],[-5.33014,42.28961,839.4711],[-5.30922,42.29317,841.1061],[-5.30197,42.27318,826.5687],[-5.30319,42.25208,820.5264],[-5.31929,42.24499,816.8155]]]}}