{"type":"Feature","properties":{"GID_2":"ESP.5.3_1","GID_0":"ESP","country":"Spain","GID_1":"ESP.5_1","province":"CastillayLeón","NL_NAME_1":"NA","county":"León","VARNAME_2":"NA","NL_NAME_2":"NA","TYPE_2":"Provincia","ENGTYPE_2":"Province","CC_2":"24","HASC_2":"ES.CL.LN","name":"León.county"},
"geometry":{"type": "MultiPolygon","coordinates": [[[[-5.6967,42.1208,763.3459],[-5.6767,42.1203,764.6876],[-5.6796,42.1326,775.8373],[-5.6855,42.1357,776.8298],[-5.6869,42.1382,777.4769],[-5.6808,42.1417,778.4723],[-5.6795,42.1402,780.3489],[-5.6674,42.1421,766.8159],[-5.6652,42.1411,766.2417],[-5.6658,42.1369,778.1036],[-5.6451,42.1321,755.6014],[-5.6381,42.1221,745.7423],[-5.6215,42.1087,737.7476],[-5.6194,42.105,728.2408],[-5.6242,42.0926,735.1085],[-5.6383,42.0851,733.1394],[-5.6341,42.0814,725.5311],[-5.6248,42.0835,720.4407],[-5.6061,42.0795,714.6461],[-5.6043,42.0806,716.5157],[-5.6037,42.0794,714.6442],[-5.5967,42.0791,712.6519],[-5.5972,42.0765,711.8304],[-5.5938,42.076,713.1453],[-5.5913,42.0786,712.834],[-5.5884,42.0773,713.1678],[-5.5893,42.0725,731.5312],[-5.5864,42.0712,714.894],[-5.5834,42.066,722.3348],[-5.5888,42.0529,711.5292],[-5.5865,42.0509,717.7513],[-5.5801,42.0584,716.0411],[-5.5793,42.0644,743.5507],[-5.5776,42.0654,743.5507],[-5.5746,42.0646,770.3854],[-5.5697,42.0578,768.8682],[-5.5647,42.0592,767.1622],[-5.5606,42.056,751.0406],[-5.5573,42.0607,766.5618],[-5.5527,42.0637,769.2809],[-5.5493,42.0703,770.8451],[-5.5481,42.0791,778.2106],[-5.5439,42.0862,780.9844],[-5.5442,42.0924,783.181],[-5.5417,42.0981,783.3589],[-5.5433,42.0994,783.4596],[-5.5269,42.1043,773.3619],[-5.5166,42.0934,765.3642],[-5.5103,42.0929,777.0697],[-5.5101,42.0911,776.0654],[-5.4984,42.0837,755.9989],[-5.4898,42.0738,718.8018],[-5.4833,42.0598,763.1055],[-5.477,42.056399999999996,750.348],[-5.4808,42.0524,744.4818],[-5.4641,42.0436,750.2444],[-5.4545,42.0407,751.6219],[-5.4386,42.0315,764.2476],[-5.4304,42.0351,786.9878],[-5.4247,42.0356,778.9451],[-5.4202,42.0292,773.408],[-5.412,42.0304,769.8403],[-5.3977,42.0346,789.8613],[-5.3843,42.0421,777.9766],[-5.3762,42.0415,793.9349],[-5.3743,42.0432,788.6458],[-5.3755,42.0468,782.4628],[-5.3711,42.0514,777.0485],[-5.3743,42.0681,764.4142],[-5.3779,42.075,758.312],[-5.3896,42.0873,745.3474],[-5.39,42.0898,740.6174],[-5.3763,42.0995,755.942],[-5.3806,42.1072,758.0466],[-5.3799,42.1128,759.3788],[-5.3775,42.1129,760.0788],[-5.3778,42.1142,757.4088],[-5.3726,42.1183,751.267],[-5.3751,42.1214,748.3962],[-5.3751,42.1267,732.9384],[-5.3714,42.13,730.3076],[-5.381,42.1507,751.9999],[-5.3813,42.1593,759.8932],[-5.3795,42.1633,764.0121],[-5.3866,42.1686,771.9122],[-5.3888,42.1754,781.4527],[-5.387,42.1894,791.4399],[-5.3801,42.1979,788.6345],[-5.3884,42.2053,819.2332],[-5.388,42.2214,824.0583],[-5.3807,42.2254,796.0721],[-5.3755,42.2224,790.7192],[-5.3611,42.2251,824.739],[-5.3528,42.2192,808.6393],[-5.3491,42.2204,810.0531],[-5.3404,42.2163,801.4308],[-5.3355,42.2167,800.8091],[-5.3373,42.2135,798.5853],[-5.332,42.2086,795.6012],[-5.3267,42.2068,796.3387],[-5.3242,42.2082,794.7731],[-5.3172,42.2053,786.473],[-5.3115,42.1996,770.7248],[-5.3074,42.1992,774.5846],[-5.3063,42.2073,781.319],[-5.2997,42.2154,788.6802],[-5.2997,42.2198,791.3979],[-5.3018,42.2221,794.7188],[-5.2868,42.2299,795.4333],[-5.2766,42.2164,783.8022],[-5.2735,42.2162,779.5132],[-5.2655,42.2109,778.7492],[-5.257,42.2107,775.8709],[-5.2456,42.2147,753.6626],[-5.2414,42.2145,753.171],[-5.2339,42.2189,767.361],[-5.2309,42.2239,770.1419],[-5.2267,42.2251,766.9409],[-5.2277,42.2299,773.4023],[-5.2294,42.2313,774.0898],[-5.2355,42.2303,777.2122],[-5.2424,42.2317,781.9202],[-5.2446,42.2352,760.7726],[-5.2515,42.2361,765.3997],[-5.2539,42.2398,774.5696],[-5.2484,42.2454,767.2068],[-5.2459,42.2508,767.4139],[-5.2446,42.2639,784.0822],[-5.2386,42.2662,792.8636],[-5.2353,42.2713,803.9449],[-5.2364,42.2733,804.053],[-5.2302,42.2756,805.9377],[-5.2313,42.2636,802.2031],[-5.2283,42.2624,802.4971],[-5.2202,42.2779,810.0107],[-5.2166,42.278,801.3906],[-5.2002,42.2647,791.389],[-5.1978,42.2605,787.9568],[-5.1826,42.2642,788.2333],[-5.1834,42.268,790.8422],[-5.1781,42.2711,791.932],[-5.1641,42.2711,782.2034],[-5.156,42.2739,785.0955],[-5.156,42.2777,787.7707],[-5.1442,42.2815,787.1801],[-5.1261,42.301,796.4211],[-5.1232,42.3018,794.965],[-5.1195,42.3077,796.282],[-5.1137,42.3097,797.0814],[-5.1119,42.3118,797.1049],[-5.0936,42.3093,787.6616],[-5.0869,42.2975,778.8765],[-5.0861,42.2922,777.4081],[-5.0823,42.2937,777.3287],[-5.0778,42.2916,777.2057],[-5.0789,42.2897,776.8317],[-5.0753,42.285,787.4198],[-5.075,42.2789,793.0155],[-5.0718,42.2778,791.3748],[-5.0706,42.2791,787.2498],[-5.066,42.2762,777.2873],[-5.0621,42.2779,769.8891],[-5.0681,42.2612,765.8477],[-5.0547,42.2575,779.0336],[-5.0451,42.262,794.525],[-5.0415,42.2675,795.6959],[-5.0422,42.2715,791.9283],[-5.0388,42.2772,784.2004],[-5.0368,42.2891,786.5495],[-5.0414,42.2928,775.5366],[-5.0382,42.2971,777.7754],[-5.002,42.2891,828.8099],[-4.9947,42.2931,829.5458],[-4.9898,42.2918,827.8168],[-4.9866,42.2938,825.6184],[-4.9734,42.2887,810.6291],[-4.9702,42.2921,816.6555],[-4.9533,42.2971,814.9155],[-4.9505,42.3084,825.5775],[-4.9479,42.3109,834.0747],[-4.947,42.3164,843.0543],[-4.9491,42.3188,840.7189],[-4.9423,42.3275,849.6765],[-4.9406,42.3356,852.1078],[-4.9424,42.3465,851.8634],[-4.9528,42.3466,831.1151],[-4.9541,42.3442,825.7133],[-4.982,42.3377,847.8992],[-4.9841,42.3379,851.0146],[-4.9834,42.3424,851.2249],[-4.977,42.349,861.8028],[-4.9776,42.3555,859.7307],[-4.9716,42.3678,866.3049],[-4.9724,42.3744,864.719],[-4.9699,42.3748,863.9075],[-4.9687,42.3773,865.8455],[-4.9644,42.3797,863.0449],[-4.9612,42.3761,856.9902],[-4.9447,42.3764,876.3431],[-4.9455,42.3777,869.2605],[-4.9432,42.3793,862.0131],[-4.9462,42.3814,854.4572],[-4.9361,42.3821,873.6522],[-4.9332,42.3848,882.8658],[-4.9113,42.3815,883.8193],[-4.9031,42.3865,900.1144],[-4.9111,42.3923,919.7783],[-4.9083,42.3969,891.4816],[-4.9142,42.4012,894.2491],[-4.9125,42.4046,924.4858],[-4.9147,42.4144,922.484],[-4.906,42.4203,932.845],[-4.9049,42.4245,934.8781],[-4.9086,42.4284,938.0803],[-4.9098,42.4339,941.8022],[-4.9239,42.4361,918.3406],[-4.9134,42.4413,951.1389],[-4.9055,42.4492,942.7476],[-4.8999,42.4507,938.1873],[-4.8878,42.5089,984.6711],[-4.8902,42.509,983.1871],[-4.8911,42.5182,985.5154],[-4.8879,42.537,995.3733],[-4.9098,42.5412,982.2842],[-4.9144,42.5447,991.8278],[-4.9151,42.5602,999.9456],[-4.9024,42.5779,1011.9756],[-4.901,42.5947,1029.2526],[-4.9047,42.5991,1035.7045],[-4.9047,42.6031,1037.6034],[-4.8946,42.6238,1057.6337],[-4.8983,42.6356,1071.3823],[-4.8961,42.6557,1094.1998],[-4.9003,42.6692,1061.8069],[-4.8905,42.6928,1088.7303],[-4.886,42.6954,1112.0957],[-4.8799,42.704,1116.7921],[-4.8716,42.708,1130.429],[-4.8837,42.7126,1137.1912],[-4.8848,42.7181,1146.9425],[-4.8912,42.7234,1145.0532],[-4.8972,42.7243,1152.0811],[-4.9109,42.7188,1128.8026],[-4.9158,42.7205,1091.4503],[-4.9184,42.7342,1136.3164],[-4.9282,42.7369,1129.4757],[-4.9363,42.7444,1094.0552],[-4.9334,42.7533,1079.7048],[-4.9355,42.7564,1099.3364],[-4.9285,42.7554,1062.5271],[-4.925,42.7593,1059.5287],[-4.9205,42.7574,1127.6707],[-4.9095,42.7742,1176.4259],[-4.909,42.7794,1108.5535],[-4.9027,42.7844,1193.7098],[-4.9015,42.783,1177.6724],[-4.8958,42.7851,1194.207],[-4.8965,42.7997,1156.7151],[-4.8989,42.8022,1195.4423],[-4.8988,42.8052,1199.0194],[-4.9028,42.8093,1233.8469],[-4.8969,42.8173,1342.7781],[-4.8958,42.827,1518.2502],[-4.8919,42.8322,1534.9329],[-4.8885,42.8411,1562.3885],[-4.9007,42.8516,1636.7513],[-4.901,42.8574,1651.8728],[-4.8983,42.8631,1694.6493],[-4.8804,42.8659,1741.8021],[-4.8684,42.8628,1769.9562],[-4.8655,42.8605,1750.4515],[-4.8605,42.871,1257.671],[-4.8583,42.8781,1503.4309],[-4.8594,42.8837,1585.0791],[-4.8554,42.8917,1904.4465],[-4.8459,42.8975,1902.3374],[-4.8383,42.8953,1938.0469],[-4.836,42.8993,1818.1312],[-4.8378,42.9067,1626.1843],[-4.8304,42.9119,1515.844],[-4.8283,42.917,1473.9127],[-4.8196,42.9223,1523.8582],[-4.8137,42.924,1573.4038],[-4.813,42.9274,1584.4546],[-4.8091,42.9303,1626.359],[-4.8108,42.936,1801.0079],[-4.8051,42.9418,1955.6277],[-4.8026,42.9495,2035.8458],[-4.8064,42.9565,1970.2742],[-4.8051,42.9618,1985.0239],[-4.8072,42.9677,2036.3987],[-4.7956,42.9738,2183.0149],[-4.7947,42.9866,2119.9961],[-4.7882,42.9925,2231.5601],[-4.7828,42.9935,2211.6387],[-4.781,42.9979,2117.1003],[-4.7668,43.0015,2207.4771],[-4.7569,43.0155,2368.7563],[-4.7388,43.0184,2378.7847],[-4.7369,43.021,2426.144],[-4.7432,43.0281,2406.9634],[-4.7388,43.0407,2075.2651],[-4.7341,43.047,2143.9663],[-4.7439,43.0564,2004.4829],[-4.7497,43.0558,1908.6805],[-4.7528,43.0572,1805.0896],[-4.766,43.0556,1773.2234],[-4.7664,43.0745,1862.9922],[-4.7844,43.0836,1963.2148],[-4.7967,43.0878,2133.0527],[-4.8006,43.0877,2023.5455],[-4.8074,43.0918,1971.667],[-4.8168,43.0926,2031.9573],[-4.8172,43.096,2066.6582],[-4.8214,43.0993,1947.7366],[-4.8327,43.1026,1918.5948],[-4.8357,43.1163,1840.7482],[-4.8452,43.1215,1769.1918],[-4.8457,43.1238,1859.1736],[-4.8513,43.1259,1858.8134],[-4.8426,43.1333,1490.796],[-4.8438,43.146,2137.6069],[-4.8385,43.147,2155.3],[-4.8351,43.1559,2170.3518],[-4.8347,43.1582,2246.2664],[-4.8406,43.1623,2261.4141],[-4.8388,43.1667,2351.5305],[-4.8516,43.1728,2470.646],[-4.8493,43.177,2340.3184],[-4.8409,43.1807,2503.0356],[-4.8391,43.1897,2437.6863],[-4.8527,43.1963,2509.0935],[-4.8568,43.2041,2323.2832],[-4.8616,43.2056,2064.8826],[-4.8601,43.2084,2258.1587],[-4.8625,43.2122,2195.3101],[-4.8595,43.2155,2145.0388],[-4.8601,43.2184,2132.3545],[-4.8735,43.2296,1597.5574],[-4.882,43.232,849.3167],[-4.8935,43.2384,589.6764],[-4.9074,43.2379,1474.61],[-4.9125,43.2368,1380.6083],[-4.9194,43.2275,1831.8264],[-4.9322,43.2249,1854.7711],[-4.9422,43.2249,2037.3083],[-4.9519,43.2193,2217.0044],[-4.9519,43.2144,2204.5647],[-4.9638,43.2124,2289.2271],[-4.971,43.2044,2281.3096],[-4.9702,43.2022,2302.811],[-4.9789,43.2005,2174.853],[-4.9965,43.1854,1090.134],[-4.9968,43.1731,1246.1914],[-5.0014,43.1763,1460.3511],[-5.0174,43.1819,1496.0309],[-5.0208,43.1851,1816.7268],[-5.0307,43.1836,1776.0082],[-5.0408,43.1846,1526.4924],[-5.0532,43.1827,1559.62],[-5.0543,43.1795,1498.7394],[-5.0758,43.1815,403.9364],[-5.0781,43.1752,424.717],[-5.0762,43.1726,441.4689],[-5.0784,43.1604,453.9778],[-5.0828,43.1582,503.8601],[-5.0874,43.1531,569.8336],[-5.0856,43.1482,803.8873],[-5.0948,43.143,637.2378],[-5.0903,43.134,862.5679],[-5.091,43.1295,984.4437],[-5.0992,43.1158,1605.7739],[-5.0956,43.1077,1652.1422],[-5.1016,43.1018,1818.1005],[-5.1204,43.1006,1673.1112],[-5.1406,43.1029,1994.8942],[-5.1477,43.1151,1934.8411],[-5.1534,43.1109,1770.0658],[-5.1575,43.1099,1773.053],[-5.1599,43.111,1787.8003],[-5.163,43.1092,1799.4088],[-5.1678,43.1024,1586.7155],[-5.1753,43.1,1568.2758],[-5.1885,43.0997,1583.1165],[-5.1911,43.0953,1608.7444],[-5.1989,43.0927,1638.2379],[-5.2011,43.0902,1691.5403],[-5.2067,43.0923,1782.3562],[-5.2096,43.0868,1570.2983],[-5.2201,43.0836,1507.9503],[-5.2259,43.0855,1627.8309],[-5.2287,43.0842,1710.8512],[-5.2402,43.0885,1828.1948],[-5.2684,43.0875,1832.4281],[-5.2781,43.0833,1729.2128],[-5.282,43.0774,1783.4185],[-5.2969,43.0792,1749.3276],[-5.3114,43.0841,1847.8242],[-5.3171,43.0827,1826.9421],[-5.3204,43.0793,1792.7302],[-5.3366,43.0819,1933.5173],[-5.3413,43.0837,1972.217],[-5.3389,43.0915,1953.557],[-5.3447,43.0942,1861.6667],[-5.369,43.0945,1781.8557],[-5.3777,43.0883,1804.5878],[-5.383,43.0872,1878.7844],[-5.3903,43.0493,2021.187],[-5.3949,43.0476,1942.6921],[-5.4003,43.0478,1907.0613],[-5.4058,43.0499,1936.876],[-5.4107,43.0491,1877.0052],[-5.4168,43.0521,1871.0316],[-5.4338,43.0527,1890.7465],[-5.4481,43.0554,1927.6427],[-5.4667,43.0505,1951.738],[-5.4755,43.0555,2011.691],[-5.4784,43.0549,1979.6658],[-5.4806,43.0535,1993.4738],[-5.4809,43.0421,1683.9225],[-5.4874,43.0315,1699.9705],[-5.4902,43.0305,1711.8264],[-5.4936,43.0213,2056.5569],[-5.5059,43.0286,1987.2336],[-5.5285,43.0258,1859.3499],[-5.5301,43.0226,1846.2391],[-5.5403,43.0183,1890.05],[-5.5561,43.0205,1880.0491],[-5.5579,43.0225,1800.0874],[-5.57,43.0227,1872.8256],[-5.5745,43.0322,1891.1316],[-5.5951,43.0334,1830.5878],[-5.6037,43.036,1825.8572],[-5.609,43.034,1725.5845],[-5.613,43.0354,1728.2571],[-5.6274,43.0342,1646.5306],[-5.6366,43.0353,1737.1819],[-5.6386,43.0385,1906.9648],[-5.643,43.0378,2016.5704],[-5.6499,43.0447,2083.417],[-5.6589,43.0456,2067.9214],[-5.6717,43.0529,1984.0682],[-5.6735,43.052,1996.4403],[-5.6882,43.0568,1993.626],[-5.6932,43.0564,1860.5289],[-5.7008,43.0518,1733.1042],[-5.7165,43.0462,1748.8353],[-5.721,43.0429,1702.7705],[-5.7283,43.0425,1735.7783],[-5.7295,43.0374,1727.4478],[-5.7341,43.0341,1861.8057],[-5.7356,43.0232,1930.8021],[-5.74,43.0206,1999.673],[-5.7438,43.0207,1960.2144],[-5.7482,43.0172,1876.259],[-5.7509,43.0055,1690.9851],[-5.7587,42.9992,1401.4795],[-5.7593,42.9927,1385.7223],[-5.7664,42.986,1470.3107],[-5.7613,42.9738,1776.498],[-5.7628,42.9711,1774.8195],[-5.7655,42.9692,1709.2509],[-5.7799,42.967,1698.2112],[-5.7905,42.9679,1830.6454],[-5.8,42.9654,1822.0439],[-5.8039,42.9626,1850.3689],[-5.807,42.965,1801.8075],[-5.8242,42.9681,1751.3691],[-5.8394,42.9662,1861.4104],[-5.843,42.9642,1818.7606],[-5.8502,42.9674,1604.1171],[-5.8635,42.9789,1774.552],[-5.8638,42.9813,1807.0916],[-5.889,42.979,1807.0286],[-5.8919,42.985,1790.0969],[-5.8915,42.9894,1701.5029],[-5.8871,42.994,1840.6488],[-5.9065,42.99,1669.652],[-5.9145,42.9927,1817.2891],[-5.9129,42.9962,1696.7831],[-5.9195,43.0028,1686.1031],[-5.9251,43.0039,1798.1345],[-5.9253,43.006,1793.8431],[-5.9311,43.0059,1794.0854],[-5.9336,43.0108,1965.5458],[-5.9433,43.0129,1961.2814],[-5.9566,43.0186,2314.4824],[-5.961,43.0291,2239.4956],[-5.9701,43.0413,2178.4126],[-5.9677,43.0449,2076.0017],[-5.9706,43.0506,1944.7036],[-5.967,43.0583,2082.292],[-5.9698,43.0564,2025.6885],[-5.9713,43.0572,2038.5487],[-5.974,43.0649,2006.4441],[-5.9804,43.0642,2006.4895],[-5.9891,43.0678,1912.3051],[-5.9963,43.0597,1740.4587],[-6.0201,43.0548,1736.8303],[-6.0375,43.0632,1933.0271],[-6.0498,43.0656,1702.7107],[-6.0521,43.068,1766.1683],[-6.0622,43.0647,1828.8573],[-6.0672,43.0657,1800.4675],[-6.0818,43.0757,1901.0934],[-6.0848,43.0691,1808.7002],[-6.0917,43.0669,1997.821],[-6.0902,43.0598,1770.5066],[-6.0949,43.0488,1783.5062],[-6.0903,43.0439,1912.6062],[-6.0897,43.0381,1875.2756],[-6.0953,43.0339,1910.8176],[-6.0968,43.0306,2041.1427],[-6.1013,43.0319,1970.04],[-6.106,43.0293,1946.5189],[-6.1124,43.0294,2006.2687],[-6.1203,43.0242,2120.5327],[-6.1365,43.021,1998.4795],[-6.1483,43.0332,1980.021],[-6.1592,43.0355,1870.5579],[-6.1625,43.033,1945.9985],[-6.1673,43.0424,1853.0619],[-6.171,43.043,1999.2284],[-6.1783,43.0478,2000.8655],[-6.186,43.0495,1963.1649],[-6.1942,43.0428,1844.5786],[-6.2138,43.0466,1926.7186],[-6.2267,43.0089,1387.9392],[-6.2383,43.0143,1508.6549],[-6.2426,43.0135,1549.3529],[-6.2647,43.0171,1736.5399],[-6.2689,43.0214,1744.1157],[-6.2697,43.025,1806.7446],[-6.2735,43.0262,1832.6404],[-6.2851,43.0363,1871.8743],[-6.2902,43.0344,1839.4169],[-6.295,43.0269,1923.6527],[-6.3112,43.0288,1990.4825],[-6.3135,43.0313,2012.9891],[-6.3264,43.0313,2010.1213],[-6.3296,43.0425,1849.9021],[-6.333,43.0465,2001.9889],[-6.3381,43.0459,2046.6868],[-6.3406,43.0491,1943.1399],[-6.348,43.0497,1918.8783],[-6.3507999999999996,43.0531,1888.0956],[-6.3578,43.0566,1854.8677],[-6.359,43.0595,1850.8882],[-6.3633,43.0573,1860.1624],[-6.3619,43.0541,1786.9863],[-6.3644,43.0502,1793.7354],[-6.3739,43.0462,1902.7224],[-6.3734,43.0411,1866.5367],[-6.39,43.0405,1799.7169],[-6.3969,43.0383,1842.8726],[-6.3949,43.0326,1784.974],[-6.3916,43.0312,1783.3087],[-6.3907,43.0258,1650.5979],[-6.3942,43.0166,1654.8347],[-6.4022,43.0162,1704.833],[-6.4078,43.0185,1831.6232],[-6.411,43.0169,1842.0996],[-6.412,43.0086,1730.5327],[-6.4103,43.0016,1725.7067],[-6.4074,42.9995,1711.9341],[-6.4249,42.9876,1866.2771],[-6.4275,42.9876,1878.9846],[-6.437,42.993,1963.3763],[-6.4463,42.9821,1703.2599],[-6.4589,42.9836,1466.3584],[-6.4657,42.9863,1686.6038],[-6.4707,42.9916,1720.6899],[-6.4772,42.9919,1740.1925],[-6.4788,42.9897,1697.191],[-6.4781,42.9801,1512.5413],[-6.4723,42.9773,1559.1703],[-6.4745,42.9706,1609.7014],[-6.4729,42.9677,1766.4731],[-6.4684,42.9661,1718.4214],[-6.4622,42.9676,1688.9226],[-6.4516,42.9659,1562.9014],[-6.4422,42.9668,1467.6086],[-6.4335,42.9641,1447.8864],[-6.4415,42.9473,1587.8149],[-6.433,42.9397,1705.8169],[-6.4422,42.9393,1605.489],[-6.4511,42.9355,1676.311],[-6.4771,42.9339,1699.1093],[-6.486,42.929,1623.1045],[-6.4896,42.9202,1899.3064],[-6.4963,42.9215,1722.7349],[-6.5104,42.9287,1499.5906],[-6.5226,42.9235,1415.0044],[-6.5344,42.9221,1566.6185],[-6.5382,42.9196,1708.7678],[-6.5411,42.9125,1901.1853],[-6.5689,42.9147,1621.9156],[-6.571,42.917,1607.5077],[-6.5793,42.9185,1655.6879],[-6.5902,42.9167,1693.3555],[-6.5977,42.9185,1610.194],[-6.6064,42.9161,1643.6938],[-6.6128,42.9245,1611.2234],[-6.6284,42.9195,1645.7098],[-6.6321,42.9232,1682.2052],[-6.6386,42.9254,1805.6008],[-6.6466,42.9238,1646.5024],[-6.6568,42.9245,1833.2544],[-6.6605,42.9228,1752.0847],[-6.6671,42.9245,1789.3333],[-6.6909,42.9223,1829.8622],[-6.6958,42.9189,1864.6501],[-6.7126,42.915,1788.9957],[-6.7225,42.9175,1720.8223],[-6.7344,42.9076,1676.8623],[-6.7405,42.8994,1726.8074],[-6.7491,42.8941,1715.0375],[-6.7565,42.883,1833.0522],[-6.7603,42.884,1697.321],[-6.7736,42.8828,1842.7595],[-6.7732,42.8866,1797.563],[-6.7678,42.8902,1700.9375],[-6.768,42.8949,1582.0221],[-6.7705,42.8986,1600.1577],[-6.7896,42.9045,1703.1874],[-6.8009,42.9101,1452.1893],[-6.8115,42.9113,1343.7662],[-6.824,42.915,1350.1602],[-6.8479,42.9143,840.1595],[-6.8438,42.9062,1048.2092],[-6.833,42.8978,1049.8156],[-6.8276,42.8886,1347.6429],[-6.8276,42.8799,1470.8208],[-6.8259,42.8769,1516.3782],[-6.8148,42.8708,1666.7175],[-6.8197,42.8673,1653.032],[-6.8353,42.8736,1493.3059],[-6.8373,42.8774,1460.1051],[-6.8403,42.8781,1458.9192],[-6.8336,42.882,1449.019],[-6.8711,42.8738,1179.6613],[-6.8594,42.8485,1470.1422],[-6.853,42.8387,1786.6919],[-6.8481,42.8334,1811.2076],[-6.8412,42.8323,1819.168],[-6.844,42.8281,1697.9707],[-6.8402,42.8233,1781.1305],[-6.8513,42.8187,1824.6176],[-6.8542,42.8106,1819.0752],[-6.8628,42.8069,1718.0933],[-6.8691,42.8008,1733.8929],[-6.8686,42.7992,1730.249],[-6.8644,42.7974,1641.2172],[-6.8639,42.7928,1620.5608],[-6.8673,42.7871,1622.1332],[-6.8756,42.7824,1665.1422],[-6.8797,42.7823,1580.5493],[-6.8906,42.7773,1718.1121],[-6.8968,42.7719,1768.5588],[-6.8977,42.7667,1726.6067],[-6.8961,42.7651,1751.7771],[-6.8992,42.7651,1746.274],[-6.904,42.7595,1694.0736],[-6.9355,42.7408,1226.9427],[-6.9468,42.7415,1241.4604],[-6.9564,42.7556,1274.9199],[-6.9593,42.755,1257.6687],[-6.9677,42.7475,1135.1285],[-6.9658,42.7423,1101.8491],[-6.9666,42.7387,1042.8124],[-6.9727,42.7379,1137.8169],[-6.969,42.7294,1160.9391],[-6.9727,42.725,1106.6263],[-6.9836,42.7187,1326.5702],[-6.99,42.7266,1258.2365],[-6.9941,42.7256,1228.157],[-6.9993,42.7269,1211.234],[-7.0029,42.7238,1205.3993],[-7.0107,42.7236,1142.9592],[-7.0215,42.714,1288.3917],[-7.0198,42.7102,1274.9406],[-7.0249,42.7125,1391.2679],[-7.0289,42.7105,1380.6155],[-7.0366,42.7002,1060.9406],[-7.045,42.6947,1324.1984],[-7.0339,42.684,1239.0488],[-7.0317,42.6756,1053.2644],[-7.0216,42.6692,1016.0212],[-7.0206,42.6665,1030.2527],[-7.0154,42.6646,963.9158],[-7.0172,42.6611,1059.7186],[-7.0125,42.6578,1000.825],[-7.0203,42.6547,1069.5814],[-7.0213,42.6519,1078.1117],[-7.0089,42.6492,1159.2886],[-7.0042,42.6428,1424.7307],[-7.0129,42.6418,1371.6068],[-7.0177,42.6452,1307.1187],[-7.0289,42.6394,1465.0404],[-7.0316,42.6396,1472.9055],[-7.0379,42.636,1530.9132],[-7.0418,42.6361,1521.4724],[-7.0469,42.6327,1554.59],[-7.0479,42.626,1557.6299],[-7.0457,42.6222,1550.026],[-7.047,42.6123,1447.0134],[-7.0454,42.6042,1442.4869],[-7.05,42.5979,1275.4503],[-7.0442,42.5895,1243.9987],[-7.0347,42.5873,1281.4755],[-7.034,42.5841,1284.9226],[-7.0451,42.577,848.5399],[-7.0456,42.5743,808.9467],[-7.0484,42.5725,821.1523],[-7.0546,42.5716,993.6606],[-7.057,42.5643,1222.3894],[-7.0558,42.5597,1327.733],[-7.0626,42.5527,1368.7069],[-7.0688,42.5544,1256.0602],[-7.0645,42.551,1300.926],[-7.0641,42.5482,1282.0764],[-7.0708,42.5379,1404.8247],[-7.0674,42.5363,1392.1687],[-7.0618,42.5375,1430.5363],[-7.0597,42.5293,1427.854],[-7.0686,42.5182,1306.8921],[-7.0695,42.5132,1291.5889],[-7.0717,42.5104,1414.4502],[-7.0769,42.5082,1503.3953],[-7.0737,42.5067,1429.8335],[-7.0597,42.5066,1240.5942],[-7.0517,42.5086,1298.6704],[-7.0456,42.5078,1282.2769],[-7.0325,42.5043,1351.9183],[-7.0285,42.4978,1363.3859],[-7.0195,42.5015,1463.2201],[-7.0008,42.5057,1597.8171],[-7.0006,42.502,1521.1732],[-6.9972,42.4995,1490.2354],[-6.9789,42.4932,1501.6588],[-6.9734,42.494,1463.8384],[-6.9654,42.5127,1089.7563],[-6.9599,42.5177,1072.3972],[-6.9348,42.5192,1028.4612],[-6.9321,42.5205,993.7687],[-6.9249,42.5194,840.0114],[-6.9146,42.5101,879.3885],[-6.9164,42.5084,973.0397],[-6.9131,42.5071,963.7187],[-6.9062,42.5078,1062.7977],[-6.8971,42.5039,1020.8228],[-6.8766,42.4992,804.645],[-6.8599,42.4887,847.1024],[-6.8487,42.487,876.1375],[-6.8409,42.4889,781.9115],[-6.8372,42.4956,512.3343],[-6.8329,42.4922,481.826],[-6.8266,42.4929,631.4163],[-6.8226,42.4908,736.3608],[-6.8253,42.4857,687.856],[-6.8191,42.4823,837.0959],[-6.8146,42.4739,610.2737],[-6.8085,42.4694,403.9097],[-6.8113,42.4612,394.4912],[-6.8222,42.4539,386.9343],[-6.8201,42.4377,372.4368],[-6.8216,42.4333,369.9298],[-6.8145,42.4269,390.3417],[-6.8247,42.4259,377.9111],[-6.8208,42.4214,420.7645],[-6.8288,42.4168,362.1684],[-6.8311,42.4083,421.0047],[-6.8379,42.4091,367.2704],[-6.8434,42.4058,360.826],[-6.8334,42.3954,516.8658],[-6.8233,42.3919,833.3298],[-6.8207,42.3856,901.6794],[-6.8094,42.3846,1165.2904],[-6.8021,42.3863,1111.4404],[-6.8017,42.3837,1266.7361],[-6.7958,42.382,1315.2988],[-6.7878,42.3826,1270.2457],[-6.774,42.3788,1441.7465],[-6.7688,42.373,1418.9977],[-6.7664,42.365,1454.1603],[-6.7577,42.3675,1692.8053],[-6.7494,42.3628,1749.2657],[-6.7338,42.3591,1870.8273],[-6.7389,42.3448,1775.821],[-6.7381,42.3401,1797.9454],[-6.7406,42.3284,1844.6165],[-6.7369,42.325,1810.7551],[-6.7339,42.318,1804.5729],[-6.7396,42.3212,1781.6033],[-6.7363,42.3186,1781.9999],[-6.736,42.311,1811.4801],[-6.743,42.3033,1782.7615],[-6.741,42.2986,1828.1794],[-6.7524,42.2887,1688.3135],[-6.7552,42.2828,1791.1627],[-6.7658,42.271,1860.0214],[-6.7646,42.2679,1878.0],[-6.7669,42.2574,1938.6517],[-6.7711,42.2547,1992.7603],[-6.774,42.2542,2078.9165],[-6.7758,42.2555,2050.9526],[-6.7842,42.2536,1967.9873],[-6.7658,42.2455,1850.2003],[-6.759,42.2386,2038.2559],[-6.7428,42.2402,2054.04],[-6.7347,42.2356,1996.8071],[-6.7329,42.2317,1945.4264],[-6.7353,42.2302,1944.8286],[-6.7353,42.2279,1978.7837],[-6.7331,42.224,2016.5631],[-6.7251,42.2234,1970.1367],[-6.7227,42.2197,1945.91],[-6.7236,42.2169,2003.6608],[-6.7196,42.2133,2014.6061],[-6.7113,42.214,1955.3568],[-6.7037,42.2094,1910.9785],[-6.699,42.2098,1948.4524],[-6.6892,42.2147,1955.1459],[-6.6742,42.2144,1915.9551],[-6.6708,42.2125,1900.8718],[-6.6546,42.213,2002.9467],[-6.6478,42.2169,1992.0927],[-6.6385,42.2173,1982.1074],[-6.6298,42.212,1998.3176],[-6.6233,42.2122,1978.0022],[-6.6187,42.2094,1903.6538],[-6.6161,42.2044,1941.4591],[-6.6131,42.2032,1950.1213],[-6.607,42.2059,1928.4475],[-6.6037,42.204,1891.7363],[-6.597,42.2035,1868.8119],[-6.5935,42.2064,1834.8108],[-6.5875,42.208,1896.2549],[-6.5736,42.2049,1824.0972],[-6.5576,42.2071,1869.3916],[-6.5295,42.2027,1887.5974],[-6.5259,42.2033,1905.0791],[-6.5059,42.194,2103.8066],[-6.5065,42.1907,2047.3713],[-6.5041,42.1892,2016.5979],[-6.5082,42.1843,1984.4974],[-6.4997,42.1838,1912.505],[-6.4974,42.182,1913.3049],[-6.4919,42.1824,1900.0803],[-6.4903,42.1841,1840.8116],[-6.4781,42.1822,1877.8491],[-6.4687,42.1929,1885.2379],[-6.4613,42.1952,1872.2806],[-6.4597,42.1971,1873.748],[-6.4421,42.1935,1820.7261],[-6.4379,42.1983,1803.7849],[-6.4278,42.2019,1803.5339],[-6.4228,42.1989,1778.9236],[-6.4101,42.1957,1677.8813],[-6.3983,42.1979,1729.5427],[-6.3974,42.2008,1744.1938],[-6.3815,42.2031,1669.743],[-6.3804,42.2015,1656.64],[-6.347,42.2005,1534.2852],[-6.3416,42.2051,1515.4685],[-6.3293,42.1998,1476.0663],[-6.3234,42.2035,1467.5552],[-6.3208,42.2024,1477.2186],[-6.3125,42.2066,1498.8649],[-6.3068,42.2029,1297.3694],[-6.3029,42.1921,1164.6149],[-6.2983,42.1836,1066.8572],[-6.2941,42.1822,1058.0338],[-6.2936,42.178,1130.8925],[-6.2777,42.1789,1095.7654],[-6.2518,42.173,1221.6222],[-6.254,42.167,1100.9532],[-6.2421,42.1676,1039.5],[-6.2257,42.1619,962.3549],[-6.2186,42.151,904.1876],[-6.2123,42.1481,890.1335],[-6.1703,42.1582,878.8872],[-6.1601,42.1658,943.1135],[-6.1539,42.1613,949.2574],[-6.1433,42.1588,916.6799],[-6.1371,42.1647,914.7164],[-6.1246,42.1589,908.3198],[-6.1054,42.162,897.6154],[-6.0895,42.1616,870.6869],[-6.0774,42.159,861.4769],[-6.0755,42.1619,868.7132],[-6.0287,42.1576,901.9358],[-5.9897,42.1434,869.9059],[-5.9742,42.1302,866.783],[-5.9608,42.1272,856.2284],[-5.9533,42.1237,853.4058],[-5.9521,42.135,806.8205],[-5.948,42.1419,819.6857],[-5.9356,42.1412,792.9152],[-5.9315,42.1394,788.6318],[-5.9265,42.1407,775.0016],[-5.9115,42.1406,773.0933],[-5.9059,42.1439,788.4872],[-5.8973,42.1561,824.2336],[-5.8904,42.15,844.6432],[-5.8809,42.1453,836.0682],[-5.8847,42.1384,802.7871],[-5.8667,42.1201,795.4415],[-5.8447,42.1107,742.6914],[-5.8407,42.1126,741.0226],[-5.838,42.1188,759.2941],[-5.832,42.1194,763.6935],[-5.812,42.1265,736.3151],[-5.8064,42.1305,732.2131],[-5.8045,42.1298,731.6512],[-5.8062,42.1277,730.6232],[-5.8052,42.1246,729.4005],[-5.798,42.1276,743.3586],[-5.7911,42.1273,748.851],[-5.7878,42.1334,749.1105],[-5.78,42.1353,750.7902],[-5.7699,42.1359,750.4019],[-5.7594,42.1343,750.1737],[-5.7551,42.1366,751.0172],[-5.7509,42.1243,748.8373],[-5.752,42.1213,748.8693],[-5.7431,42.1134,746.6072],[-5.7174,42.115,746.8828],[-5.6967,42.1208,763.3459]],
[[-5.3089,42.2521,820.261],[-5.3167,42.2495,820.8756],[-5.3163,42.2411,818.4724],[-5.3327,42.2387,809.2883],[-5.3361,42.2335,813.8574],[-5.3355,42.2308,813.3347],[-5.337,42.2308,813.5957],[-5.3412,42.2327,815.0486],[-5.3405,42.2467,825.7427],[-5.3459,42.251,830.4174],[-5.3471,42.2592,832.4074],[-5.3452,42.2678,834.4649],[-5.3371,42.2697,822.9575],[-5.3284,42.2741,836.0057],[-5.3202,42.2672,831.5597],[-5.3063,42.2716,826.6076],[-5.3016,42.2692,825.8297],[-5.3006,42.2653,824.8666],[-5.3038,42.2569,822.5377],[-5.3032,42.252,820.5264],[-5.306,42.2494,818.1835],[-5.3089,42.2521,820.261]]]]}}