{"type": "Feature","bbox": [1.706,41.8824,1.7249,41.8969],"geometry": {"type": "MultiPolygon","coordinates": [[[[1.706,41.8894,395.036],[1.7156,41.8859,379.13],[1.7188,41.8824,347.2243],[1.7249,41.8931,438.2283],[1.72,41.8954,387.4103],[1.7183,41.8929,376.4971],[1.7153,41.8922,368.7641],[1.7117,41.8962,361.8146],[1.7087,41.8969,358.6416],[1.7089,41.8939,356.5805],[1.7118,41.8911,358.7773],[1.7097,41.8888,364.586],[1.706,41.8894,395.036]]]]}
,"properties": {"GID_3": "ESP.6.3.12_1","GID_0": "ESP","country": "Spain","GID_1": "ESP.6_1","province": "Cataluña","NL_NAME_1": "NA","GID_2": "ESP.6.3_1","county": "Lleida","NL_NAME_2": "NA","city": "n.a.(35)","VARNAME_3": "NA","NL_NAME_3": "NA","TYPE_3": "Comarca","ENGTYPE_3": "Comarca","CC_3": "NA","HASC_3": "NA","name": "n.a.(35).city","area_km2": 1.0417093,"hist_schema_id": "Elevation0-9000","hist_area_km2": {"325": 0.0157852,"350": 0.3314617,"375": 0.3314469,"400": 0.1104848,"425": 0.1894,"450": 0.0473483,"475": 0.0157825}}}