{"type":"Feature","properties":{"GID_2":"ESP.1.4_1","GID_0":"ESP","country":"Spain","GID_1":"ESP.1_1","province":"Andalucía","NL_NAME_1":"NA","county":"Granada","VARNAME_2":"NA","NL_NAME_2":"NA","TYPE_2":"Provincia","ENGTYPE_2":"Province","CC_2":"18","HASC_2":"ES.AN.GD","name":"Granada.county"},
"geometry":{"type": "MultiPolygon","coordinates": [[[[-3.3512,36.7285,0.2817],[-3.3482,36.7326,12.2859],[-3.339,36.7382,16.4127],[-3.3304,36.7382,0.0],[-3.3221,36.7415,0.0],[-3.3149,36.7415,7.4743],[-3.3104,36.7388,16.2432],[-3.3048,36.7379,0.387],[-3.294,36.7418,0.0],[-3.2818,36.7438,6.4202],[-3.261,36.7532,7.5755],[-3.2429,36.754,14.4604],[-3.2337,36.7496,0.0],[-3.2296,36.7513,18.8249],[-3.2112,36.7449,0.0],[-3.2021,36.7504,0.0],[-3.1943,36.749,28.0611],[-3.1849,36.7499,21.7556],[-3.1799,36.7476,8.4517],[-3.1729,36.7485,1.3863],[-3.1668,36.7435,0.0],[-3.1524,36.7471,3.24],[-3.1429,36.7435,0.0],[-3.1365,36.7493,12.9505],[-3.1284,36.7507,11.2225],[-3.133,36.7575,300.9038],[-3.1367,36.7681,305.9204],[-3.1341,36.7815,538.8945],[-3.1399,36.7851,332.3958],[-3.1401,36.7878,338.7617],[-3.0918,36.8105,909.2675],[-3.0783,36.8189,693.9817],[-3.0738,36.8247,741.4301],[-3.0427,36.8319,712.2657],[-3.0373,36.8354,777.4126],[-3.0289,36.8445,721.8312],[-3.032,36.861,604.1273],[-3.0356,36.8636,634.386],[-3.0433,36.8766,695.3105],[-3.0432,36.8792,609.4965],[-3.0503999999999998,36.8835,542.6749],[-3.0565,36.8851,444.6713],[-3.0649,36.8983,756.1465],[-3.0672,36.9001,804.0861],[-3.0696,36.8997,856.449],[-3.0704,36.9012,900.0266],[-3.068,36.9072,922.8231],[-3.0688,36.9157,626.0145],[-3.0662,36.9125,694.9546],[-3.0558,36.9119,938.0116],[-3.048,36.9161,836.9319],[-3.0435,36.9212,662.796],[-3.0312,36.9246,388.4834],[-3.0309,36.9279,428.1115],[-3.0294,36.9283,416.3202],[-3.0316,36.93,426.3659],[-3.0313,36.9322,461.2148],[-3.0283,36.9341,499.9072],[-3.0302,36.9351,566.9534],[-3.0316,36.9441,510.8705],[-3.0221,36.9541,555.0621],[-3.0171,36.954,487.6366],[-3.0141,36.9564,492.0107],[-2.9959,36.9567,553.601],[-2.9901,36.9584,599.0916],[-2.9847,36.9645,644.7266],[-2.986,36.9683,621.8518],[-2.9849,36.972,632.7061],[-2.9783,36.9739,662.0959],[-2.9764,36.9774,686.2369],[-2.9783,36.9814,714.5967],[-2.9767,36.987,771.6563],[-2.9824,37.006,1130.3192],[-2.989,37.0073,1111.5614],[-2.9932,37.0135,1049.657],[-2.9986,37.0122,922.1425],[-2.9995,37.0221,1058.7684],[-3.0054,37.023,1255.5383],[-3.0057,37.0339,1396.2584],[-3.0161,37.0522,1563.6898],[-3.0177,37.0707,1697.8296],[-3.0238,37.0845,1800.0032],[-3.0243,37.0894,1834.406],[-3.0221,37.0922,1900.1132],[-3.0219,37.099,1971.594],[-3.0257,37.1027,2025.1003],[-3.0295,37.1133,2044.2644],[-3.0263,37.1166,2102.855],[-3.022,37.1134,2126.6948],[-3.0149,37.1133,2214.0281],[-3.0038,37.0972,2482.2368],[-3.0002,37.095,2598.2837],[-2.9964,37.0958,2575.4753],[-2.9841,37.0931,2526.176],[-2.979,37.0933,2485.5535],[-2.97,37.0965,2269.3599],[-2.9489,37.0966,2333.7156],[-2.9499,37.0995,2271.4448],[-2.9482,37.1062,2097.7153],[-2.9457,37.1066,2088.1924],[-2.9428,37.1112,1942.3137],[-2.9436,37.1187,1828.2469],[-2.9469,37.1222,1823.7584],[-2.944,37.1224,1803.788],[-2.9416,37.1247,1754.7278],[-2.9408,37.1307,1730.9298],[-2.9369,37.1347,1819.0771],[-2.9336,37.1353,1837.3052],[-2.9305,37.1398,1746.2814],[-2.9313,37.1434,1687.4561],[-2.9283,37.1525,1452.5952],[-2.9293,37.1561,1482.9111],[-2.9282,37.1573,1445.632],[-2.9146,37.1585,1368.7764],[-2.9112,37.1633,1192.2799],[-2.8952,37.1671,1131.0089],[-2.8896,37.1762,1094.3575],[-2.888,37.183,1058.8481],[-2.8827,37.1879,992.9984],[-2.8809,37.1871,991.1365],[-2.8791,37.1926,1017.5885],[-2.8802,37.204,1089.9408],[-2.8727,37.2199,1206.6592],[-2.8751,37.2245,1241.1884],[-2.8747,37.2318,1294.3718],[-2.8664,37.2431,1507.488],[-2.8693,37.2456,1492.189],[-2.8638,37.2471,1451.0271],[-2.859,37.2505,1362.3219],[-2.8597,37.2538,1448.3872],[-2.8555,37.2644,1550.3328],[-2.8557,37.2683,1568.8171],[-2.851,37.2762,1691.3203],[-2.8453,37.2793,1730.4059],[-2.8346,37.2778,1821.0396],[-2.8303,37.2801,1871.5928],[-2.8193,37.2784,1866.9968],[-2.8148,37.2709,1903.9677],[-2.8021,37.2682,2011.4296],[-2.7944,37.2634,1958.8979],[-2.7789,37.2627,2013.1281],[-2.7771,37.2601,2006.6398],[-2.779,37.2569,2028.79],[-2.7746,37.2537,2033.0138],[-2.7785,37.2517,2051.2026],[-2.7721,37.2393,1927.1149],[-2.7679,37.2379,1914.7789],[-2.762,37.2331,1926.5796],[-2.7646,37.2317,1920.5408],[-2.7589,37.2268,1922.7957],[-2.7399,37.2288,1874.73],[-2.7398,37.2307,1880.676],[-2.7364,37.2323,1903.1431],[-2.7329,37.2374,1957.9807],[-2.7303,37.2329,1920.332],[-2.7252,37.2312,1924.9492],[-2.7184,37.2338,1897.4404],[-2.7105,37.2288,1932.1648],[-2.7098,37.2255,1947.4524],[-2.7066,37.2251,1930.3427],[-2.7048,37.2228,1929.8656],[-2.6993,37.2228,1952.9778],[-2.6936,37.2204,2020.7332],[-2.6924,37.2172,2028.9626],[-2.6905,37.2185,2028.9626],[-2.6767,37.216,2076.0557],[-2.669,37.2172,2032.563],[-2.6643,37.2118,2014.6508],[-2.66,37.212,1985.9888],[-2.6575,37.229,1915.9246],[-2.6598,37.232,1921.7965],[-2.6634,37.2322,1921.4258],[-2.6642,37.2365,1944.3584],[-2.6662,37.2381,1945.4878],[-2.6674,37.2496,1939.8298],[-2.6616,37.2667,1827.9976],[-2.6641,37.2723,1731.6787],[-2.6633,37.2772,1733.3309],[-2.6655,37.2851,1661.5419],[-2.6621,37.2935,1610.2867],[-2.6629,37.2959,1571.3774],[-2.6587,37.2994,1505.7606],[-2.6597,37.3013,1487.2041],[-2.6571,37.3021,1462.4275],[-2.6549,37.3056,1417.006],[-2.656,37.3073,1416.5625],[-2.6516,37.309,1358.8186],[-2.6508,37.3124,1320.3253],[-2.6509,37.3145,1333.5107],[-2.6544,37.3174,1376.1993],[-2.6542,37.3212,1362.1003],[-2.6504,37.3259,1344.9232],[-2.6547,37.3403,1235.2819],[-2.6468,37.3432,1176.7856],[-2.6372,37.3434,1169.0046],[-2.6352,37.3655,1118.4702],[-2.6431,37.376,1071.5132],[-2.6413,37.3776,1073.2526],[-2.6417,37.3875,1060.2708],[-2.6388,37.3883,1036.5215],[-2.6355,37.3942,1012.7796],[-2.6081,37.4111,998.0463],[-2.6024,37.4175,1018.8076],[-2.5967,37.4211,1039.9366],[-2.5772,37.4291,1117.358],[-2.5716,37.4375,1122.6342],[-2.5711,37.4427,1114.5789],[-2.569,37.4437,1110.833],[-2.5689,37.4458,1131.2395],[-2.561,37.4502,1149.5067],[-2.5566,37.4504,1149.9902],[-2.5508,37.4564,1187.4387],[-2.5465,37.4566,1180.3002],[-2.535,37.4621,1212.5786],[-2.5346,37.4638,1214.2197],[-2.5299,37.4652,1221.2305],[-2.5143,37.4779,1468.5886],[-2.5141,37.4796,1455.3658],[-2.503,37.4836,1344.416],[-2.474,37.4835,1289.088],[-2.4574,37.4909,1441.4459],[-2.4619,37.4987,1263.7239],[-2.4593,37.5023,1242.1799],[-2.4601,37.5076,1302.2853],[-2.4562,37.5095,1307.1414],[-2.44,37.5112,1280.615],[-2.4342,37.5095,1295.3889],[-2.4325,37.5118,1283.4041],[-2.4288,37.5116,1260.8466],[-2.4159,37.516,1242.5638],[-2.4134,37.5193,1245.8876],[-2.4147,37.5216,1258.5104],[-2.4116,37.525,1305.0404],[-2.4071,37.5245,1305.8135],[-2.4029,37.5156,1229.8136],[-2.3971,37.5134,1241.9166],[-2.3943,37.5177,1245.2992],[-2.3811,37.523,1415.1876],[-2.3625,37.5201,1337.7566],[-2.3584,37.5223,1368.8252],[-2.3603,37.5346,1209.2861],[-2.3587,37.536,1210.8237],[-2.3603,37.5375,1230.0601],[-2.3556,37.547,1252.788],[-2.3742,37.5574,1291.0255],[-2.3674,37.5631,1235.5374],[-2.3681,37.5729,1212.8461],[-2.3748,37.5779,1205.4685],[-2.3745,37.5794,1190.4646],[-2.3697,37.5811,1169.8746],[-2.3678,37.5916,1140.5535],[-2.3759,37.6123,1228.4226],[-2.3802,37.6122,1348.3502],[-2.3887,37.618,1352.4315],[-2.3912,37.6325,1655.2494],[-2.3738,37.6292,1540.668],[-2.3637,37.6215,1519.0171],[-2.3595,37.6213,1563.7097],[-2.3573,37.6247,1506.4963],[-2.3453,37.6293,1725.5946],[-2.3417,37.6238,1743.3772],[-2.3391,37.6232,1728.86],[-2.3157,37.6222,1718.4038],[-2.3088,37.6358,1570.218],[-2.3154,37.6415,1416.4618],[-2.3165,37.645,1334.0337],[-2.3199,37.6481,1221.103],[-2.3194,37.6597,1137.8352],[-2.321,37.6599,1132.7217],[-2.3257,37.6721,1056.9012],[-2.3232,37.6939,991.9434],[-2.3132,37.7114,1005.8625],[-2.3065,37.7103,1012.5304],[-2.3079,37.7168,1011.6813],[-2.3049,37.7192,1019.1058],[-2.308,37.7206,1011.3464],[-2.3074,37.7233,1016.5095],[-2.2968,37.7415,1129.0975],[-2.2971,37.744,1166.2528],[-2.2942,37.7462,1158.105],[-2.2946,37.7482,1163.3988],[-2.2886,37.7521,1164.8021],[-2.287,37.7514,1158.6754],[-2.2764,37.7769,1128.4885],[-2.2911,37.7896,1061.4482],[-2.2953,37.7886,1058.0081],[-2.3001,37.7898,1056.787],[-2.2935,37.7923,1064.3459],[-2.3007,37.8037,1134.5259],[-2.3014,37.8103,1139.504],[-2.2935,37.8282,1108.7681],[-2.2893,37.8315,1099.2817],[-2.2908,37.8376,1095.5544],[-2.2937,37.8416,1094.064],[-2.2962,37.8598,1077.0986],[-2.2948,37.8764,1059.9224],[-2.2884,37.8852,1148.0847],[-2.2653,37.881,1210.9456],[-2.2507,37.8972,1239.4094],[-2.2076,37.9166,1459.2477],[-2.2216,37.9224,1400.5764],[-2.2223,37.9239,1450.2574],[-2.2276,37.9237,1465.124],[-2.2295,37.9262,1396.7715],[-2.2378,37.9285,1392.9221],[-2.2533,37.9396,1267.5917],[-2.2587,37.95,1190.0459],[-2.2667,37.953,1115.7722],[-2.2741,37.9595,1150.7402],[-2.2768,37.9601,1166.2534],[-2.2976,37.9903,1168.6611],[-2.2984,38.0022,1316.4584],[-2.3092,38.0089,1257.0728],[-2.323,38.014,1301.0931],[-2.3415,38.026,1404.2162],[-2.3578,38.0225,1328.4272],[-2.373,38.0233,1363.4242],[-2.3927,38.0309,1383.4794],[-2.4032,38.0329,1378.9335],[-2.4114,38.0322,1363.4253],[-2.4233,38.0337,1365.2491],[-2.432,38.0434,1417.1873],[-2.436,38.0434,1425.3102],[-2.4513,38.0491,1598.2952],[-2.4625,38.0503,1719.5574],[-2.4719,38.0564,1835.2983],[-2.4806,38.0532,1855.9612],[-2.4817,38.0553,1788.4967],[-2.4959,38.062,1688.719],[-2.5043,38.0684,1500.7646],[-2.5216,38.0698,1454.0549],[-2.5311,38.0741,1455.9076],[-2.5392,38.0758,1356.1755],[-2.5474,38.0799,1244.8732],[-2.5512,38.0841,1221.1272],[-2.5567,38.0817,1227.8379],[-2.5653,38.0836,1239.3422],[-2.5731,38.0774,1262.9181],[-2.5715,38.0754,1275.0685],[-2.5733,38.0743,1268.7205],[-2.5854,38.0726,1298.2634],[-2.5864,38.0704,1300.2334],[-2.5913,38.0696,1299.4362],[-2.5939,38.065,1322.0115],[-2.6062,38.0619,1406.0156],[-2.6066,38.0602,1394.5581],[-2.5989,38.0588,1525.9097],[-2.5958,38.0532,1586.5786],[-2.5998,38.0437,1654.4186],[-2.5976,38.0072,1705.9358],[-2.5993,38.0039,1715.7957],[-2.6044,38.0014,1721.796],[-2.6056,37.9978,1681.4873],[-2.6092,37.9968,1705.619],[-2.6196,37.9886,1785.0684],[-2.6424,37.9811,1798.3835],[-2.6556,37.9663,1945.127],[-2.6606,37.966,1861.1162],[-2.6704,37.9614,1858.4797],[-2.6748,37.9651,1850.3107],[-2.6784,37.9652,1788.9186],[-2.6835,37.9681,1820.8224],[-2.6896,37.9739,1882.484],[-2.6914,37.9729,1883.1385],[-2.6942,37.9745,1832.321],[-2.7022,37.9717,1796.0662],[-2.706,37.9674,1785.2115],[-2.7101,37.968,1759.082],[-2.7155,37.9623,1854.3002],[-2.7186,37.9637,1849.979],[-2.7228,37.9625,1807.0378],[-2.7241,37.9559,1781.0332],[-2.728,37.9553,1804.9331],[-2.7312,37.9489,1920.2405],[-2.7358,37.948,1942.7444],[-2.743,37.9358,1920.6733],[-2.7524,37.9312,1722.8198],[-2.7547,37.9275,1741.9777],[-2.7671,37.9194,1906.0715],[-2.7685,37.9228,1789.4198],[-2.7742,37.9256,1932.5228],[-2.785,37.9171,1948.8784],[-2.7891,37.9074,1919.4146],[-2.7963,37.9007,1903.8667],[-2.7998,37.8893,1946.5405],[-2.8061,37.881,1982.9163],[-2.8195,37.8762,1970.7688],[-2.8177,37.8718,1908.5698],[-2.8215,37.858,1825.3721],[-2.8196,37.8555,1858.8539],[-2.8199,37.852,1798.2736],[-2.8234,37.846,1881.0448],[-2.8271,37.844,1927.8147],[-2.8304,37.8392,1944.8136],[-2.8288,37.8372,1957.2832],[-2.8332,37.8349,1927.8132],[-2.8343,37.8307,1916.1034],[-2.8395,37.8287,1893.4673],[-2.8405,37.8214,1831.1606],[-2.8435,37.8178,1813.1296],[-2.8473,37.8139,1743.2228],[-2.8573,37.8093,1369.2725],[-2.8599,37.8039,1263.1184],[-2.8726,37.7921,1079.8282],[-2.8759,37.7829,1292.2054],[-2.8747,37.7782,1318.4277],[-2.8802,37.76,1083.2622],[-2.89,37.7615,1138.7495],[-2.8992,37.7567,1157.7532],[-2.9037,37.7512,1062.5233],[-2.9023,37.739,977.2086],[-2.9071,37.7292,890.071],[-2.9047,37.7251,857.7975],[-2.9012,37.7248,965.4077],[-2.9006,37.7232,943.7595],[-2.904,37.7099,951.6487],[-2.9014,37.6893,937.9532],[-2.8988,37.6848,902.0153],[-2.8839,37.681399999999996,940.5351],[-2.8911,37.6731,901.2957],[-2.9021,37.6657,905.7811],[-2.9195,37.6597,870.0616],[-2.9381,37.65,844.7275],[-2.9778,37.634,830.6362],[-2.9733,37.6253,808.2063],[-2.9739,37.6229,806.9581],[-2.9784,37.6169,840.9098],[-2.9843,37.6143,856.3599],[-2.9761,37.6064,806.3936],[-2.9781,37.6028,826.571],[-2.9831,37.6015,797.906],[-2.9897,37.6039,739.5621],[-2.9953,37.6032,690.666],[-3.0017,37.6057,601.4639],[-3.0033,37.6082,556.8551],[-3.0214,37.6101,548.5477],[-3.0218,37.6117,547.8771],[-3.0244,37.6117,565.7769],[-3.0266,37.6158,555.9451],[-3.0286,37.6141,574.6663],[-3.0298,37.6162,559.1685],[-3.0309,37.6155,561.0981],[-3.035,37.6174,563.6999],[-3.035,37.6186,563.6999],[-3.0406,37.6179,572.9359],[-3.0434,37.6159,579.3636],[-3.0479,37.6184,589.551],[-3.0515,37.6182,581.6646],[-3.052,37.6149,600.0717],[-3.0564,37.6128,586.8693],[-3.0552,37.6111,588.8912],[-3.0578,37.6067,596.7146],[-3.0612,37.6067,596.9634],[-3.0611,37.605,618.7851],[-3.0662,37.6053,605.8589],[-3.0661,37.6042,605.8589],[-3.0691,37.6042,607.6793],[-3.0687,37.603,613.657],[-3.0734,37.6034,612.8909],[-3.0764,37.5993,615.5454],[-3.0837,37.5992,634.1084],[-3.086,37.5958,627.1071],[-3.0916,37.5966,635.6821],[-3.0993,37.6022,709.2759],[-3.0996,37.6055,707.3231],[-3.1249,37.6106,761.9636],[-3.1477,37.626,729.4431],[-3.1504,37.6264,724.1096],[-3.172,37.6429,768.3813],[-3.1863,37.6445,797.4279],[-3.2156,37.6442,851.1714],[-3.2334,37.638,924.7837],[-3.2624,37.6392,1016.1108],[-3.2629,37.6357,1013.8654],[-3.261,37.6336,986.7677],[-3.273,37.6184,1009.1552],[-3.2802,37.6145,1012.3563],[-3.2887,37.604,1023.925],[-3.2907,37.5945,963.8492],[-3.2968,37.588,913.2612],[-3.3032,37.5885,941.8564],[-3.3064,37.5863,934.6313],[-3.3171,37.5848,932.2233],[-3.3254,37.5818,932.9076],[-3.3312,37.5819,942.5059],[-3.3447,37.5757,981.6914],[-3.3509,37.5749,950.9403],[-3.3572,37.5764,952.8942],[-3.3665,37.5676,975.4047],[-3.3743,37.5675,986.4823],[-3.3787,37.5642,988.4579],[-3.3855,37.5654,981.1844],[-3.3992,37.5641,991.4958],[-3.4094,37.5674,1028.4321],[-3.4244,37.5696,994.9218],[-3.4337,37.5756,1054.3348],[-3.4368,37.5739,1014.5673],[-3.4487,37.5839,1014.5551],[-3.4529,37.5883,1018.3256],[-3.4531,37.5911,1023.6477],[-3.4611,37.5984,1035.6959],[-3.4794,37.6011,1080.5287],[-3.5064,37.6173,1010.7262],[-3.536,37.5974,1444.1936],[-3.5383,37.5942,1415.2731],[-3.5344,37.5855,1274.1968],[-3.5345,37.5824,1255.1042],[-3.5363,37.5808,1237.8928],[-3.5551,37.5736,1607.3896],[-3.5592,37.5696,1667.4919],[-3.5587,37.5663,1544.6289],[-3.5706,37.5618,1358.3667],[-3.5828,37.5539,1354.8716],[-3.5913,37.5505,1320.0676],[-3.5906,37.5483,1286.1165],[-3.5999,37.5474,1234.8342],[-3.627,37.5286,1076.3137],[-3.6322,37.5292,1061.3376],[-3.6329,37.5279,1055.9727],[-3.6493,37.5249,1039.1055],[-3.659,37.5207,1130.2461],[-3.6651,37.5211,1114.8091],[-3.6719,37.5183,1050.2517],[-3.6843,37.5177,1353.6914],[-3.7118,37.5028,1344.2402],[-3.717,37.4965,1171.7938],[-3.73,37.4876,1368.7422],[-3.7431,37.4872,1050.8909],[-3.7707,37.4799,1104.4806],[-3.7761,37.4765,1039.0586],[-3.7756,37.4879,1163.7317],[-3.7776,37.4901,1190.6476],[-3.7832,37.4919,1362.1334],[-3.7855,37.4909,1396.8074],[-3.7924,37.4825,1211.9298],[-3.7914,37.4789,1160.1294],[-3.7864,37.4783,1098.697],[-3.7914,37.4717,1070.0391],[-3.7916,37.4662,1014.5436],[-3.8019,37.4608,1040.6554],[-3.8082,37.4599,1025.0107],[-3.8082,37.458,1000.5653],[-3.8021,37.4534,941.5386],[-3.8134,37.4306,852.8475],[-3.8159,37.429,846.5634],[-3.8176,37.422,818.5625],[-3.8259,37.4141,806.5582],[-3.8274,37.4101,788.7238],[-3.8241,37.4058,791.3067],[-3.8253,37.4025,894.5712],[-3.8304,37.4014,945.1967],[-3.8362,37.3956,917.4373],[-3.8411,37.3863,903.2205],[-3.8434,37.3854,912.2029],[-3.8576,37.3879,856.4352],[-3.8823,37.3875,987.4162],[-3.9013,37.3835,1166.6957],[-3.9048,37.3808,1167.7728],[-3.9121,37.3784,1099.0698],[-3.9378,37.3797,1029.6202],[-3.9508,37.3784,1080.5707],[-3.9731,37.3882,917.1639],[-3.9813,37.3875,914.0352],[-4.0007,37.4021,971.5354],[-4.0176,37.4014,931.2292],[-4.0267,37.4055,919.3654],[-4.0362,37.4061,896.8496],[-4.0527,37.4027,855.0803],[-4.067,37.4046,823.9406],[-4.0722,37.4024,854.0807],[-4.0858,37.4038,905.885],[-4.0981,37.4002,808.6697],[-4.0991,37.3954,804.4009],[-4.1025,37.3939,816.282],[-4.1022,37.3902,811.6543],[-4.1079,37.3862,821.9919],[-4.1199,37.3825,888.4749],[-4.1271,37.3783,883.7501],[-4.1301,37.3731,897.7051],[-4.1456,37.3617,743.8365],[-4.1544,37.3459,694.7555],[-4.158,37.3422,682.3202],[-4.1618,37.342,665.9067],[-4.173,37.3487,698.8001],[-4.1947,37.3505,678.6177],[-4.2039,37.3529,747.4218],[-4.2092,37.3525,850.0677],[-4.2232,37.3421,858.8572],[-4.2229,37.3405,862.3279],[-4.2284,37.3374,870.3933],[-4.2363,37.3359,842.6148],[-4.239,37.3277,915.1992],[-4.2351,37.312,630.7596],[-4.2364,37.2972,762.0195],[-4.2417,37.2889,815.491],[-4.248,37.2692,746.988],[-4.2631,37.2604,415.0],[-4.2607,37.2539,415.0],[-4.2575,37.2504,415.0],[-4.2552,37.2296,653.0333],[-4.2633,37.2275,812.4471],[-4.2826,37.2101,812.9235],[-4.283,37.2074,824.9319],[-4.2919,37.2037,842.4578],[-4.2954,37.1994,810.5206],[-4.3205,37.1918,695.4438],[-4.3236,37.1901,680.8197],[-4.3275,37.1844,581.6085],[-4.3232,37.1808,675.5328],[-4.3092,37.153,717.546],[-4.3027,37.1452,741.2273],[-4.2968,37.1335,773.3041],[-4.2914,37.1303,725.1919],[-4.2869,37.1196,786.3591],[-4.2871,37.1117,846.3348],[-4.2855,37.1086,847.7124],[-4.2865,37.0983,866.8465],[-4.2833,37.0919,823.5163],[-4.2845,37.0889,830.2739],[-4.2804,37.0549,1119.9691],[-4.2726,37.0418,860.9993],[-4.2699,37.0271,1154.8376],[-4.2724,37.0149,1363.0333],[-4.26,37.0174,1162.583],[-4.2549,37.0226,1044.9644],[-4.2518,37.023,1111.8015],[-4.2312,37.017,1055.8407],[-4.2232,37.0124,1081.0073],[-4.2243,37.0092,1089.5549],[-4.2205,37.0054,1098.3447],[-4.2153,36.9918,1216.1412],[-4.207,36.9862,1272.6117],[-4.193,36.9805,1446.8112],[-4.1767,36.9665,1231.6433],[-4.169,36.9624,1127.799],[-4.1665,36.9571,1244.2975],[-4.1388,36.9523,1237.261],[-4.1112,36.9497,1200.6401],[-4.0998,36.9527,1098.3888],[-4.099,36.9423,946.8523],[-4.0919,36.9333,1055.5554],[-4.074,36.9266,1299.8236],[-4.0721,36.9242,1301.8938],[-4.0635,36.9214,1584.8201],[-4.0536,36.915,1876.4109],[-4.0473,36.9036,2029.2139],[-4.0355,36.9049,2041.2152],[-4.014,36.8988,1768.6781],[-4.0121,36.8961,1661.5322],[-3.9991,36.8899,1581.1235],[-3.9826,36.8926,1593.4926],[-3.9707,36.8921,1704.658],[-3.9614,36.8894,1649.0466],[-3.9599,36.8876,1627.3247],[-3.952,36.8879,1566.5618],[-3.9463,36.885,1530.6821],[-3.944,36.8865,1508.4968],[-3.9399,36.8843,1496.6276],[-3.9294,36.8829,1611.1416],[-3.924,36.879,1530.946],[-3.9185,36.8681,1541.0177],[-3.9124,36.8694,1630.6526],[-3.9094,36.8675,1597.2795],[-3.899,36.8675,1506.8247],[-3.8954,36.8654,1521.1248],[-3.8904,36.8676,1720.1183],[-3.8807,36.8599,1239.4296],[-3.8824,36.8577,1213.0022],[-3.877,36.857,1323.5986],[-3.8776,36.8548,1337.3535],[-3.8756,36.853,1339.6873],[-3.8675,36.8507,1454.288],[-3.864,36.853,1542.0138],[-3.8609,36.8511,1495.8748],[-3.8587,36.8516,1493.8333],[-3.8422,36.8582,1590.5417],[-3.8383,36.8564,1544.314],[-3.8271,36.8556,1479.1305],[-3.8214,36.8494,1578.4646],[-3.8152,36.8469,1725.4092],[-3.8151,36.8419,1804.1136],[-3.796,36.8316,1674.2373],[-3.7933,36.8267,1597.8274],[-3.7952,36.821,1571.7332],[-3.7905,36.8207,1480.9504],[-3.7863,36.8155,1325.4252],[-3.7864,36.8124,1261.9839],[-3.768,36.802,849.452],[-3.7709,36.7966,783.7434],[-3.7659,36.7883,711.9919],[-3.7669,36.7847,736.3057],[-3.7703,36.7831,720.6526],[-3.7746,36.7755,676.5128],[-3.7775,36.7748,663.4822],[-3.7794,36.7675,502.5088],[-3.7822,36.7645,354.5],[-3.7791,36.7589,250.1867],[-3.7796,36.7528,132.1209],[-3.7812,36.751,154.6541],[-3.7772,36.7449,62.8196],[-3.7773,36.7371,7.6508],[-3.7726,36.7337,43.4476],[-3.7729,36.7313,0.0],[-3.7643,36.7287,0.0],[-3.7615,36.7349,0.0],[-3.7546,36.7382,3.6655],[-3.751,36.7382,1.1459],[-3.7435,36.7349,2.6914],[-3.736,36.7287,1.2654],[-3.7368,36.7238,14.1342],[-3.7346,36.719,14.4166],[-3.7285,36.719,0.0],[-3.729,36.7215,0.0],[-3.7265,36.7229,0.0],[-3.7249,36.7268,0.0],[-3.726,36.729,28.5883],[-3.7162,36.7329,7.4806],[-3.709,36.7318,0.0],[-3.7032,36.7337,0.0],[-3.6951,36.7282,0.0],[-3.6901,36.731,7.2332],[-3.6754,36.7296,0.0],[-3.664,36.7432,8.5132],[-3.6579,36.7463,2.6285],[-3.6488,36.7446,29.9955],[-3.6465,36.7426,9.5199],[-3.6449,36.7438,20.2154],[-3.6357,36.7418,0.0],[-3.629,36.7426,28.9336],[-3.6232,36.741,16.6862],[-3.6026,36.744,13.7884],[-3.5971,36.7415,1.3045],[-3.5796,36.7235,0.0],[-3.554,36.7146,0.5784],[-3.546,36.7165,0.9321],[-3.5385,36.7229,4.0165],[-3.5337,36.7232,1.8237],[-3.529,36.721,2.3874],[-3.5287,36.7235,1.85],[-3.526,36.7238,2.5171],[-3.5235,36.7229,0.9911],[-3.524,36.7204,0.0],[-3.5229,36.7204,0.0],[-3.5149,36.7238,4.7105],[-3.5129,36.7193,2.1375],[-3.5074,36.7174,5.5219],[-3.4821,36.6968,0.0],[-3.474,36.6965,31.3767],[-3.4685,36.6935,0.0],[-3.4593,36.6965,1.4759],[-3.4537,36.6949,0.0],[-3.426,36.6954,0.0],[-3.4199,36.6937,0.0],[-3.4132,36.7029,7.1831],[-3.4104,36.7012,8.3529],[-3.4068,36.7015,4.1811],[-3.4035,36.7068,0.0],[-3.3976,36.7054,0.0],[-3.3926,36.7068,0.0],[-3.3918,36.7088,12.0046],[-3.389,36.7085,0.0],[-3.3882,36.711,47.6978],[-3.3651,36.7137,0.0],[-3.3512,36.7285,0.2817]]]]}}