{"type": "Feature","bbox": [-5.5849,38.0886,-4.1938,38.7291],"geometry": {"type": "MultiPolygon","coordinates": [[[[-5.0984,38.25,714.6723],[-5.0885,38.2525,725.2493],[-5.0519,38.2834,829.4034],[-5.0357,38.2811,835.3694],[-5.0253,38.2781,833.5223],[-5.0169,38.2736,837.9476],[-4.9986,38.2709,905.2101],[-4.9863,38.2589,757.524],[-4.9886,38.2525,738.2231],[-4.9855,38.2407,678.3207],[-4.982,38.2394,724.4562],[-4.9823,38.2357,681.0737],[-4.9744,38.2227,621.6341],[-4.9389,38.2005,608.7517],[-4.9368,38.1977,613.5848],[-4.9366,38.1919,589.1021],[-4.9271,38.1779,565.3702],[-4.9086,38.1631,680.9041],[-4.9055,38.1585,685.9292],[-4.9035,38.1596,660.0739],[-4.8951,38.1572,601.5908],[-4.8817,38.1477,609.8138],[-4.8777,38.1278,643.7495],[-4.8821,38.124,547.8378],[-4.8717,38.1209,473.7829],[-4.8605,38.1124,397.7413],[-4.852,38.1125,372.0368],[-4.8429,38.11,342.6558],[-4.8375,38.1147,346.3755],[-4.8337,38.1149,342.4375],[-4.8332,38.1176,353.5767],[-4.8302,38.1202,342.9448],[-4.842,38.1253,367.8277],[-4.8421,38.1284,360.8928],[-4.8459,38.1278,397.2931],[-4.8429,38.1345,421.5434],[-4.8459,38.133,369.711],[-4.8488,38.1341,369.1807],[-4.8511,38.1375,410.0268],[-4.8519,38.1343,437.9164],[-4.855,38.1321,395.5591],[-4.8585,38.1359,379.744],[-4.8548,38.1353,420.9872],[-4.8542,38.1398,421.3914],[-4.8459,38.1432,401.2789],[-4.8458,38.1476,467.9235],[-4.8433,38.1491,409.0704],[-4.8299,38.1473,465.4838],[-4.8291,38.1522,502.6059],[-4.8224,38.1536,530.1115],[-4.8183,38.158,613.3767],[-4.8145,38.1589,645.1756],[-4.7922,38.1586,518.1469],[-4.7736,38.1557,310.0114],[-4.7713,38.1537,360.4221],[-4.7647,38.1551,397.7153],[-4.764,38.1506,316.1605],[-4.7584,38.1505,304.8689],[-4.755,38.1487,305.1421],[-4.7525,38.1419,304.766],[-4.7492,38.1417,296.6862],[-4.7423,38.1357,283.9759],[-4.7354,38.1379,279.6244],[-4.7297,38.1312,309.1991],[-4.727,38.1252,260.548],[-4.7219,38.1205,260.008],[-4.7146,38.1236,258.4116],[-4.7104,38.1203,248.9455],[-4.6969,38.1194,242.1453],[-4.6953,38.1115,223.4959],[-4.6983,38.1101,220.7191],[-4.694,38.1015,228.8144],[-4.6981,38.0961,208.3576],[-4.6872,38.0932,295.0735],[-4.68,38.0886,417.3944],[-4.6722,38.0892,374.6364],[-4.6668,38.0929,377.1791],[-4.6629,38.1007,507.0103],[-4.6584,38.101,528.6253],[-4.6601,38.1039,564.6949],[-4.6534,38.1146,528.0868],[-4.6442,38.115,541.2187],[-4.6377,38.1182,537.915],[-4.6387,38.1201,531.2952],[-4.6354,38.1209,539.6471],[-4.6362,38.1336,675.1389],[-4.6324,38.1396,633.4062],[-4.6319,38.145,598.5674],[-4.6362,38.1626,543.5537],[-4.6337,38.1669,592.4374],[-4.6375,38.1749,610.629],[-4.6256,38.1838,641.6404],[-4.6254,38.1855,638.2905],[-4.6304,38.1891,626.8854],[-4.6376,38.1916,641.0457],[-4.642,38.1983,645.2533],[-4.6402,38.1973,636.1141],[-4.633,38.1991,638.9108],[-4.619,38.2116,726.772],[-4.6119,38.2077,711.3888],[-4.6072,38.2074,721.0837],[-4.6033,38.2101,666.828],[-4.5944,38.2103,699.7357],[-4.567,38.2199,684.9783],[-4.5537,38.2401,611.21],[-4.5441,38.2319,582.5613],[-4.5437,38.229,584.7662],[-4.5366,38.2341,596.2255],[-4.5356,38.2393,602.8356],[-4.5318,38.2393,607.5327],[-4.5307,38.245,610.9473],[-4.5224,38.2437,671.658],[-4.5219,38.2466,661.1966],[-4.5199,38.2459,664.4017],[-4.5118,38.2535,701.1309],[-4.5072,38.248,737.7695],[-4.4966,38.2426,761.0996],[-4.4868,38.2418,752.0254],[-4.4816,38.2369,740.3685],[-4.467,38.2415,703.0964],[-4.4555,38.2328,679.1041],[-4.4531,38.2331,674.1928],[-4.4471,38.2293,683.1026],[-4.4478,38.227,666.5181],[-4.4421,38.2192,654.2893],[-4.4372,38.2192,660.1338],[-4.4354,38.2169,666.5806],[-4.434,38.2189,651.9246],[-4.4322,38.2186,642.2705],[-4.4273,38.2151,638.5356],[-4.4264,38.2136,641.3925],[-4.4298,38.2096,635.9966],[-4.4321,38.2096,628.3824],[-4.4283,38.2042,616.424],[-4.4253,38.2034,585.5911],[-4.4234,38.196,487.5376],[-4.4147,38.1929,431.2087],[-4.4134,38.1911,427.5816],[-4.4145,38.1883,377.2311],[-4.4028,38.1808,353.8539],[-4.4051,38.179,322.9452],[-4.4064,38.1697,332.8375],[-4.4135,38.1604,407.7507],[-4.4071,38.1593,570.2648],[-4.4027,38.1597,616.8787],[-4.3958,38.1685,593.1931],[-4.388,38.1717,596.4579],[-4.3872,38.1742,623.7721],[-4.383,38.177,642.0156],[-4.3797,38.1633,613.2941],[-4.3723,38.1595,609.5566],[-4.3711,38.1636,524.7273],[-4.3604,38.1577,381.8521],[-4.3548,38.1659,390.1794],[-4.3552,38.1727,399.9239],[-4.3522,38.179,429.4395],[-4.3474,38.1839,459.7038],[-4.3431,38.1818,499.313],[-4.3377,38.1832,527.3029],[-4.3313,38.1826,565.799],[-4.3193,38.1787,668.2314],[-4.3096,38.1718,650.7727],[-4.2973,38.166,487.018],[-4.2976,38.1701,505.1534],[-4.3,38.1719,536.3777],[-4.3012,38.1843,598.806],[-4.3096,38.1925,622.0515],[-4.3035,38.1978,642.5965],[-4.2981,38.1928,734.4898],[-4.2917,38.1898,743.0952],[-4.2859,38.1826,721.7739],[-4.2829,38.1829,723.7415],[-4.2783,38.1863,738.3547],[-4.2738,38.1788,735.747],[-4.267,38.1764,711.9833],[-4.2558,38.1779,691.9752],[-4.2499,38.1769,615.0808],[-4.2428,38.18,662.4634],[-4.2399,38.1829,715.8503],[-4.2401,38.1851,734.3203],[-4.2327,38.1831,712.8591],[-4.2177,38.2015,457.9212],[-4.2088,38.2029,392.088],[-4.2079,38.2075,356.0346],[-4.2006,38.2131,303.3962],[-4.2009,38.2207,309.3276],[-4.1971,38.2257,314.9799],[-4.1976,38.2279,310.4293],[-4.1938,38.2313,321.8012],[-4.1968,38.2344,319.8708],[-4.1958,38.2375,324.5297],[-4.2039,38.2464,349.0757],[-4.2122,38.2448,401.9546],[-4.2164,38.2467,345.3118],[-4.215,38.2553,358.8815],[-4.2083,38.2668,368.4395],[-4.2147,38.2695,360.1349],[-4.2128,38.2718,363.5015],[-4.215,38.2766,366.98],[-4.2131,38.2795,369.2419],[-4.2141,38.2827,380.4805],[-4.2101,38.3015,402.0255],[-4.2167,38.3039,472.8496],[-4.2171,38.3001,449.881],[-4.2201,38.2985,426.7961],[-4.2274,38.3011,451.7951],[-4.2267,38.3083,453.8462],[-4.2325,38.3143,456.9231],[-4.2386,38.3155,446.9015],[-4.235,38.317,433.8751],[-4.2389,38.3212,472.6339],[-4.238,38.3239,535.9778],[-4.234,38.325,455.3383],[-4.2332,38.3266,440.9069],[-4.2358,38.3288,524.8998],[-4.2378,38.3261,441.8264],[-4.2394,38.3323,458.416],[-4.2353,38.336,514.2222],[-4.2373,38.3416,497.5364],[-4.2399,38.3396,465.1606],[-4.2435,38.3424,498.676],[-4.245,38.3404,459.3362],[-4.2476,38.3424,515.2941],[-4.2475,38.3407,468.3775],[-4.2516,38.3418,482.1526],[-4.2557,38.3402,483.572],[-4.2557,38.3428,500.1185],[-4.2581,38.344,523.4382],[-4.2629,38.3426,488.5336],[-4.2688,38.3472,500.989],[-4.2714,38.3465,492.758],[-4.2739,38.3503,497.7083],[-4.2763,38.3509,527.3848],[-4.276,38.3479,495.8063],[-4.2788,38.3477,502.6947],[-4.2872,38.3428,503.544],[-4.2897,38.3474,507.9267],[-4.2942,38.3471,516.2396],[-4.2961,38.3502,526.3525],[-4.3027,38.3504,597.9105],[-4.3095,38.353,547.5247],[-4.3118,38.3575,523.844],[-4.3173,38.357,589.6273],[-4.3198,38.362,542.8491],[-4.3219,38.3628,533.7963],[-4.3242,38.3608,545.1962],[-4.3274,38.3635,566.1907],[-4.3319,38.3607,568.9899],[-4.3338,38.3654,588.1117],[-4.384,38.3823,673.8091],[-4.3886,38.3859,638.7246],[-4.3949,38.3872,642.4958],[-4.4063,38.3832,618.0998],[-4.4096,38.3849,614.9525],[-4.417,38.3945,612.4521],[-4.4294,38.396,596.6111],[-4.4351,38.4023,596.0464],[-4.4529,38.4009,586.7704],[-4.4564,38.4069,579.0047],[-4.462,38.4105,581.0959],[-4.4643,38.4169,574.2009],[-4.4712,38.426,570.0406],[-4.4831,38.4331,575.2017],[-4.4871,38.4396,570.4729],[-4.4949,38.4407,560.2524],[-4.4964,38.4434,559.5803],[-4.5006,38.4455,554.3365],[-4.5058,38.4576,550.553],[-4.5132,38.4641,550.6704],[-4.5217,38.4628,543.5771],[-4.5344,38.4695,537.5633],[-4.5414,38.4819,537.0336],[-4.5512,38.4773,529.3597],[-4.5583,38.4766,528.6441],[-4.559,38.4821,523.0784],[-4.5637,38.4848,530.1579],[-4.5657,38.4908,517.747],[-4.5717,38.4875,519.5953],[-4.5765,38.4934,513.1786],[-4.5859,38.4928,509.0999],[-4.5883,38.4864,504.7651],[-4.5936,38.4864,503.5458],[-4.596,38.4901,499.4528],[-4.6085,38.4947,499.7148],[-4.6111,38.5002,491.416],[-4.6189,38.5086,486.8118],[-4.6187,38.5124,486.6142],[-4.6213,38.5177,482.3846],[-4.6203,38.5211,495.3624],[-4.6222,38.5235,483.3203],[-4.6332,38.5252,504.9644],[-4.6397,38.5319,475.0431],[-4.6501,38.5354,468.1616],[-4.6671,38.5478,461.9418],[-4.6794,38.5467,461.5295],[-4.6957,38.5495,455.0086],[-4.703,38.5526,454.1685],[-4.7054,38.5552,452.6417],[-4.7006,38.56,451.8584],[-4.7013,38.5627,461.0728],[-4.705,38.5638,448.7578],[-4.7049,38.5701,443.2317],[-4.7073,38.572,443.9449],[-4.7192,38.571,451.4111],[-4.7333,38.5747,435.9656],[-4.7473,38.5797,431.9039],[-4.7559,38.5857,429.1624],[-4.7684,38.5868,424.5899],[-4.7874,38.5971,450.0764],[-4.8015,38.5948,413.6968],[-4.8187,38.5959,412.0166],[-4.8233,38.5976,406.0205],[-4.8351,38.6075,404.7064],[-4.8526,38.6131,397.1546],[-4.8601,38.614,395.7761],[-4.8635,38.6189,394.1889],[-4.8671,38.6299,393.0666],[-4.8639,38.6401,389.9295],[-4.868,38.6477,385.0433],[-4.867,38.6598,431.4352],[-4.8707,38.6749,404.7222],[-4.8688,38.681,425.7178],[-4.8769,38.6861,529.9299],[-4.8845,38.6878,558.2314],[-4.8921,38.6851,478.6348],[-4.9045,38.6868,374.8538],[-4.9187,38.6861,410.5868],[-4.923,38.6823,402.2063],[-4.9361,38.6814,429.0422],[-4.9648,38.6856,417.84],[-5.0045,38.6951,480.1661],[-5.0008,38.6968,490.9149],[-5.0019,38.7082,502.43],[-5.0079,38.7152,492.045],[-5.0171,38.7189,465.5253],[-5.0246,38.7265,454.8872],[-5.0326,38.7254,436.4064],[-5.0468,38.7291,424.583],[-5.0498,38.7266,388.0888],[-5.0615,38.7243,346.0],[-5.0631,38.7212,346.0],[-5.0682,38.7176,347.4657],[-5.0802,38.7154,346.0],[-5.09,38.7115,351.1911],[-5.0924,38.709,349.0993],[-5.1007,38.7077,357.1817],[-5.1119,38.7119,376.8164],[-5.1183,38.716,377.7238],[-5.1424,38.7138,447.2984],[-5.1498,38.7164,424.0293],[-5.1553,38.7159,437.6328],[-5.1639,38.714,456.4581],[-5.1665,38.7117,441.9294],[-5.1693,38.7131,449.0725],[-5.1708,38.7173,489.6967],[-5.1844,38.7197,499.2231],[-5.1802,38.7123,496.6278],[-5.1812,38.7067,585.0861],[-5.1754,38.7005,546.9075],[-5.1733,38.6885,453.5395],[-5.1676,38.6817,392.5887],[-5.1679,38.6773,368.1991],[-5.1827,38.6761,369.0903],[-5.1856,38.6742,371.8891],[-5.1873,38.6704,383.0972],[-5.179,38.6657,373.0128],[-5.1849,38.6594,371.454],[-5.1902,38.6605,372.2976],[-5.1947,38.6668,392.6458],[-5.1975,38.667,373.5935],[-5.1984,38.6645,376.0929],[-5.1968,38.6605,391.3483],[-5.1976,38.6568,410.8022],[-5.1993,38.6564,406.3552],[-5.2014,38.6578,374.0546],[-5.204,38.6661,375.7561],[-5.2079,38.6679,379.616],[-5.2122,38.656,378.2093],[-5.2115,38.6518,378.8262],[-5.2146,38.6486,446.2946],[-5.2171,38.6492,388.8134],[-5.2194,38.656,402.0636],[-5.2238,38.6565,383.2587],[-5.2223,38.6489,384.1746],[-5.2293,38.6471,387.9036],[-5.2313,38.6443,384.6535],[-5.2355,38.6431,388.7856],[-5.2374,38.6377,406.3204],[-5.2419,38.6371,392.8322],[-5.2473,38.6399,389.602],[-5.2449,38.6321,397.3502],[-5.2539,38.6332,394.3503],[-5.2541,38.6261,426.9659],[-5.2705,38.6211,396.2499],[-5.2732,38.6157,431.0192],[-5.2792,38.6123,400.6252],[-5.287,38.613,400.7297],[-5.2932,38.6091,401.3687],[-5.3018,38.5982,405.0034],[-5.3097,38.5941,406.1364],[-5.3106,38.59,408.5002],[-5.3066,38.586,408.9302],[-5.3058,38.5808,410.0798],[-5.3095,38.5773,417.5773],[-5.3237,38.5806,417.0469],[-5.3288,38.5783,415.9703],[-5.3356,38.5785,460.0439],[-5.347,38.5834,475.7541],[-5.3565,38.5855,475.1013],[-5.3716,38.5836,466.9916],[-5.3696,38.5794,464.8727],[-5.3756,38.5683,434.8702],[-5.3859,38.5668,436.2177],[-5.3897,38.5622,437.2988],[-5.3833,38.5574,449.5506],[-5.3857,38.5548,438.306],[-5.3918,38.5547,439.3375],[-5.3927,38.5528,439.6856],[-5.3914,38.5489,440.9866],[-5.3835,38.5437,447.8752],[-5.3829,38.5411,442.4459],[-5.3846,38.5392,442.696],[-5.3904,38.5401,446.4247],[-5.3966,38.5463,447.437],[-5.3996,38.5466,447.7933],[-5.4071,38.5433,452.325],[-5.4035,38.5361,457.0965],[-5.4159,38.5302,452.1443],[-5.4134,38.5241,455.3793],[-5.4102,38.5241,462.6539],[-5.4103,38.52,476.7465],[-5.4158,38.5207,470.8598],[-5.4188,38.5125,459.3962],[-5.4277,38.5147,473.0947],[-5.4345,38.5044,468.2686],[-5.4447,38.5049,483.3886],[-5.4487,38.5021,477.6819],[-5.4504,38.4982,473.9624],[-5.4584,38.4992,484.3898],[-5.4583,38.4948,475.6871],[-5.4692,38.4849,476.709],[-5.4741,38.486,491.1257],[-5.4794,38.4847,482.0964],[-5.4811,38.4775,481.9493],[-5.4801,38.4743,486.1653],[-5.4843,38.4634,498.7352],[-5.4866,38.4658,505.2415],[-5.491,38.4665,490.0626],[-5.4947,38.4587,494.0798],[-5.4984,38.4595,499.6048],[-5.5038,38.4567,505.384],[-5.5124,38.464,503.8127],[-5.5196,38.4632,496.171],[-5.5307,38.4546,499.1999],[-5.543,38.4499,510.5878],[-5.5463,38.45,507.3052],[-5.5489,38.4467,510.5822],[-5.5527,38.4456,513.1909],[-5.562,38.4356,512.6111],[-5.568,38.4334,513.4489],[-5.5729,38.4269,514.6023],[-5.5726,38.4233,515.6614],[-5.5844,38.4003,523.6813],[-5.5849,38.3859,527.0997],[-5.5799,38.3811,530.4255],[-5.5773,38.3822,536.7399],[-5.5729,38.3784,532.3063],[-5.5667,38.3772,533.4758],[-5.563,38.372,547.7101],[-5.5664,38.3684,537.1696],[-5.5655,38.3669,545.7119],[-5.5595,38.3676,543.9413],[-5.5594,38.3661,541.9551],[-5.5668,38.3626,550.0685],[-5.5686,38.3567,544.2808],[-5.5671,38.3513,547.306],[-5.5722,38.3419,550.1508],[-5.5714,38.3384,549.8871],[-5.5736,38.3308,551.5476],[-5.5755,38.3296,553.9249],[-5.5676,38.3235,552.8433],[-5.5559,38.3183,555.3928],[-5.5511,38.311,557.6351],[-5.5505,38.3063,560.2385],[-5.5524,38.3035,562.7239],[-5.5469,38.2976,565.9506],[-5.5442,38.2885,574.3091],[-5.542,38.2868,576.5256],[-5.5415,38.2851,576.6309],[-5.5443,38.2823,577.9981],[-5.541,38.2781,582.1204],[-5.5373,38.2795,586.6436],[-5.5374,38.273,588.6656],[-5.5317,38.27,594.368],[-5.5258,38.2641,604.4306],[-5.5299,38.2552,628.7587],[-5.5237,38.2492,633.7485],[-5.5223,38.2304,608.0123],[-5.5242,38.2226,577.8793],[-5.5221,38.2139,549.9854],[-5.5233,38.213,534.484],[-5.5207,38.2108,522.3072],[-5.5209,38.2072,513.7254],[-5.5266,38.2053,470.645],[-5.5291,38.2019,465.1699],[-5.5304,38.2033,443.493],[-5.5388,38.1998,426.4691],[-5.5372,38.1965,416.1652],[-5.5391,38.1932,416.5222],[-5.5366,38.1919,410.8535],[-5.5402,38.185,410.8191],[-5.5436,38.1849,391.8387],[-5.5422,38.1814,384.4254],[-5.5399,38.181,394.2388],[-5.5399,38.177,379.1631],[-5.542,38.1771,381.5572],[-5.5395,38.1718,364.484],[-5.5403,38.17,362.1931],[-5.5357,38.1687,365.7018],[-5.5388,38.1617,343.7561],[-5.5256,38.1626,401.2903],[-5.5001,38.1537,432.7111],[-5.4969,38.1553,510.1976],[-5.4907,38.1523,495.9714],[-5.4845,38.1535,457.6361],[-5.4781,38.1512,474.3279],[-5.4778,38.1496,465.664],[-5.4696,38.1449,488.9209],[-5.4512,38.1458,386.4176],[-5.4294,38.152,507.2075],[-5.4243,38.1502,523.7721],[-5.4079,38.1352,388.165],[-5.3853,38.1336,487.5642],[-5.3819,38.1307,544.2993],[-5.3557,38.1255,571.2491],[-5.3471,38.1268,561.3102],[-5.3415,38.1319,567.9001],[-5.3346,38.1323,580.9327],[-5.3182,38.1249,576.1826],[-5.3033,38.1315,429.8488],[-5.2996,38.1295,421.4744],[-5.2931,38.1301,411.4409],[-5.2859,38.1246,404.1159],[-5.2837,38.1206,407.337],[-5.2783,38.1186,388.6439],[-5.2752,38.124,421.3541],[-5.2769,38.128,455.1771],[-5.276,38.1308,489.4929],[-5.2704,38.1351,582.804],[-5.2745,38.1506,621.3367],[-5.2736,38.1621,642.2112],[-5.2697,38.1715,662.1368],[-5.2675,38.1876,708.6995],[-5.2523,38.186,712.7699],[-5.2383,38.1917,662.0775],[-5.2319,38.1975,669.6152],[-5.2216,38.2032,558.3021],[-5.1973,38.2092,569.8964],[-5.1868,38.2158,531.5304],[-5.1792,38.2184,557.4109],[-5.1354,38.2287,474.8077],[-5.1227,38.2365,494.8748],[-5.1036,38.2425,552.6489],[-5.0984,38.25,714.6723]]]]}
,"properties": {"GID_3": "ESP.1.3.2_1","GID_0": "ESP","country": "Spain","GID_1": "ESP.1_1","province": "Andalucía","NL_NAME_1": "NA","GID_2": "ESP.1.3_1","county": "Córdoba","NL_NAME_2": "NA","city": "n.a.(86)","VARNAME_3": "NA","NL_NAME_3": "NA","TYPE_3": "Comarca","ENGTYPE_3": "Comarca","CC_3": "NA","HASC_3": "NA","name": "n.a.(86).city","area_km2": 4753.637,"hist_schema_id": "Elevation0-9000","hist_area_km2": {"200": 0.1,"225": 0.434,"250": 0.767,"275": 1.435,"300": 2.201,"325": 3.701,"350": 11.922,"375": 36.051,"400": 67.018,"425": 120.013,"450": 185.667,"475": 251.077,"500": 340.091,"525": 444.111,"550": 475.942,"575": 535.452,"600": 484.001,"625": 436.986,"650": 377.991,"675": 293.608,"700": 252.94,"725": 193.184,"750": 139.199,"775": 68.322,"800": 19.737,"825": 6.375,"850": 3.129,"875": 1.132,"900": 0.766,"925": 0.25}}}