{"type":"Feature","properties":{"GID_3":"ESP.5.5.2_1","GID_0":"ESP","country":"Spain","GID_1":"ESP.5_1","province":"CastillayLeón","NL_NAME_1":"NA","GID_2":"ESP.5.5_1","county":"Salamanca","NL_NAME_2":"NA","city":"n.a.(213)","VARNAME_3":"NA","NL_NAME_3":"NA","TYPE_3":"Comarca","ENGTYPE_3":"Comarca","CC_3":"NA","HASC_3":"NA","name":"n.a.(213).city"},
"geometry":{"type": "MultiPolygon","coordinates": [[[[-5.4697,41.1579,869.8058],[-5.4733,41.1535,874.804],[-5.4771,41.1515,869.54],[-5.476,41.1508,865.2946],[-5.4798,41.1498,873.246],[-5.4807,41.1468,870.8806],[-5.4842,41.1455,870.55],[-5.4881,41.1547,878.4374],[-5.4877,41.1716,904.9086],[-5.4851,41.1788,919.9956],[-5.4965,41.1773,911.922],[-5.5063,41.1803,913.8683],[-5.5131,41.1851,915.9224],[-5.5144,41.1909,909.3119],[-5.518,41.1949,911.6377],[-5.5251,41.1958,912.1844],[-5.543,41.2053,903.201],[-5.5549,41.2138,894.8992],[-5.565,41.217,905.7839],[-5.571,41.2163,909.657],[-5.5878,41.2024,876.6685],[-5.6045,41.208,853.2842],[-5.6105,41.2138,868.9763],[-5.6195,41.2156,866.0245],[-5.6282,41.2145,861.8348],[-5.6343,41.2319,845.511],[-5.6376,41.2322,855.0009],[-5.6568,41.2455,860.0549],[-5.6675,41.2443,834.4633],[-5.6788,41.2319,833.8199],[-5.7011,41.2344,844.9607],[-5.7348,41.2276,863.2446],[-5.7346,41.2244,872.6925],[-5.7322,41.2242,872.7829],[-5.7334,41.2182,851.9125],[-5.7262,41.1979,857.3195],[-5.7173,41.1881,869.8857],[-5.7283,41.1748,874.2308],[-5.7291,41.1695,874.6061],[-5.7262,41.1541,844.6996],[-5.7427,41.1447,824.5052],[-5.7579,41.1419,848.947],[-5.7579,41.1466,853.298],[-5.7661,41.1484,809.2103],[-5.7849,41.1456,829.2009],[-5.7855,41.141,827.1091],[-5.7953,41.1383,829.3887],[-5.7939,41.1268,820.9184],[-5.7915,41.1247,813.5939],[-5.8036,41.0873,797.5297],[-5.7972,41.0828,798.686],[-5.7848,41.0821,802.6479],[-5.7819,41.0791,805.6552],[-5.7907,41.0654,784.0886],[-5.7878,41.0618,801.521],[-5.7912,41.06,798.1638],[-5.7907,41.057,787.5468],[-5.7953,41.0521,758.5031],[-5.7998,41.0501,753.6237],[-5.806,41.0514,751.87],[-5.8137,41.0558,750.7233],[-5.8222,41.0536,753.458],[-5.8262,41.0547,760.4725],[-5.8262,41.0559,756.4442],[-5.8276,41.0518,764.5778],[-5.834,41.0453,771.9856],[-5.8405,41.049,779.907],[-5.852,41.0461,783.0179],[-5.8518,41.0448,777.6285],[-5.8584,41.0441,777.4822],[-5.8559,41.0433,780.1705],[-5.8539,41.0355,791.48],[-5.8558,41.0322,810.4344],[-5.8522,41.0233,826.0797],[-5.8532,41.0128,848.9521],[-5.8579,41.0096,848.6541],[-5.8662,41.011,845.8964],[-5.8699,41.0042,834.9642],[-5.8726,41.0031,838.9435],[-5.8834,41.0051,829.7328],[-5.8815,40.9991,836.2206],[-5.8884,40.9905,801.9348],[-5.8864,40.989,808.0131],[-5.8875,40.9858,817.1176],[-5.8922,40.9866,815.0431],[-5.8942,40.9815,781.9936],[-5.9009,40.9824,780.9948],[-5.9026,40.9804,784.706],[-5.9016,40.9781,790.0853],[-5.8807,40.962,813.2162],[-5.8931,40.9553,792.293],[-5.894,40.9514,798.6948],[-5.8905,40.9433,805.4484],[-5.8941,40.9436,804.2469],[-5.8948,40.9452,800.0497],[-5.8977,40.9438,797.9235],[-5.9006,40.9459,794.5087],[-5.9024,40.9432,798.4216],[-5.9041,40.9439,795.7941],[-5.9093,40.9418,804.0587],[-5.9134,40.943,803.9893],[-5.9231,40.9343,816.9987],[-5.9296,40.9383,811.9414],[-5.9372,40.9397,813.6628],[-5.9424,40.9429,813.9013],[-5.9424,40.9468,814.2599],[-5.9464,40.9485,822.6805],[-5.9508,40.9479,824.4779],[-5.9582,40.9527,796.3802],[-5.9692,40.9532,802.8165],[-5.9691,40.956,804.3831],[-5.9797,40.9544,806.9687],[-5.9855,40.9512,815.4532],[-5.9898,40.9362,810.7754],[-5.9962,40.9272,814.8277],[-5.9913,40.9273,812.2677],[-5.9839,40.9217,813.7782],[-5.9773,40.9223,810.4558],[-5.9749,40.9243,809.942],[-5.9658,40.9129,821.1616],[-5.9705,40.9065,809.833],[-5.9616,40.8964,811.2638],[-5.9647,40.8942,802.4915],[-5.9801,40.8956,798.8337],[-5.9824,40.894,798.0059],[-5.9792,40.8909,803.5634],[-5.9824,40.8893,798.73],[-5.9813,40.8862,795.7156],[-5.9783,40.8861,801.3633],[-5.975,40.8768,807.2623],[-5.9683,40.8707,823.8886],[-5.9587,40.8728,835.2593],[-5.9553,40.8691,828.4677],[-5.9498,40.8687,833.2579],[-5.9451,40.8642,828.4804],[-5.9364,40.8638,841.9214],[-5.9339,40.8571,846.4068],[-5.9319,40.8608,843.5106],[-5.9225,40.8621,835.6574],[-5.9211,40.8611,834.8678],[-5.9151,40.8638,835.4939],[-5.9106,40.8551,846.3292],[-5.9073,40.84,863.2827],[-5.899,40.8528,852.0351],[-5.8921,40.8589,831.1392],[-5.89,40.8574,842.4059],[-5.8738,40.8617,841.1964],[-5.8688,40.8614,849.1433],[-5.8678,40.8569,855.4167],[-5.8621,40.8516,865.3359],[-5.8583,40.8436,893.1548],[-5.8542,40.8409,890.7318],[-5.8503,40.8349,903.835],[-5.842,40.8379,902.8756],[-5.8421,40.8461,889.0532],[-5.8359,40.85,889.7029],[-5.8337,40.8488,882.802],[-5.8287,40.8527,869.3941],[-5.8258,40.8539,882.7028],[-5.8243,40.8529,888.286],[-5.8222,40.8548,887.1005],[-5.8247,40.878,865.4352],[-5.8235,40.8796,861.111],[-5.8189,40.8783,865.3014],[-5.8187,40.8744,871.2906],[-5.8089,40.8744,854.2012],[-5.796,40.8674,860.4818],[-5.7931,40.8633,870.7047],[-5.7894,40.8642,851.4335],[-5.7838,40.8619,860.1985],[-5.7826,40.8649,871.5304],[-5.7744,40.8616,881.0361],[-5.7726,40.8632,887.333],[-5.7762,40.8664,872.0805],[-5.7748,40.8688,875.5289],[-5.7653,40.8702,875.8571],[-5.7625,40.864,882.2782],[-5.7642,40.8594,889.6865],[-5.7522,40.8519,887.0145],[-5.7555,40.8485,902.8083],[-5.7491,40.8407,917.6292],[-5.7451,40.839,921.6895],[-5.7461,40.8369,927.801],[-5.7333,40.8396,914.6423],[-5.7336,40.8348,922.3511],[-5.7298,40.8352,925.1802],[-5.7237,40.8286,949.9447],[-5.7059,40.8299,932.2077],[-5.6987,40.8272,919.5829],[-5.6963,40.8289,922.446],[-5.6968,40.8314,918.6416],[-5.6916,40.8316,923.9669],[-5.6855,40.8292,946.3013],[-5.6817,40.8299,957.5665],[-5.6757,40.8216,931.3699],[-5.6656,40.8167,942.4745],[-5.6622,40.8195,942.3871],[-5.6559,40.8185,925.3854],[-5.6489,40.8239,928.9637],[-5.6429,40.8214,953.2267],[-5.6416,40.8184,960.8676],[-5.6312,40.8157,988.0562],[-5.6302,40.8128,999.3212],[-5.62,40.8178,994.6207],[-5.6164,40.8176,999.6479],[-5.6133,40.823,990.2748],[-5.6228,40.8301,942.6242],[-5.6242,40.8335,931.8401],[-5.6216,40.8373,931.9297],[-5.6252,40.8367,924.7612],[-5.6268,40.8392,937.4055],[-5.6248,40.843,924.5307],[-5.627,40.847,900.329],[-5.624,40.8476,917.3266],[-5.6316,40.8518,904.6368],[-5.6286,40.8557,910.8177],[-5.6309,40.8692,902.5037],[-5.6249,40.8717,894.6454],[-5.6233,40.8757,872.7774],[-5.6113,40.885,862.4846],[-5.6191,40.889,857.4932],[-5.6179,40.8909,846.2489],[-5.6151,40.8897,851.5303],[-5.6143,40.8952,837.8638],[-5.609,40.8968,832.8111],[-5.6092,40.9033,836.6635],[-5.604,40.9059,839.9123],[-5.6058,40.9105,819.1769],[-5.6026,40.9105,833.4663],[-5.6018,40.9133,847.6871],[-5.6059,40.9171,827.5403],[-5.6033,40.9193,816.7858],[-5.6003,40.9164,834.9134],[-5.5979,40.9179,836.6254],[-5.594,40.9173,836.2806],[-5.5942,40.9246,829.5689],[-5.5905,40.9271,824.3153],[-5.5872,40.9231,830.9913],[-5.5846,40.9227,830.2773],[-5.5842,40.9205,830.9753],[-5.5764,40.9211,826.4039],[-5.5738,40.918,829.3763],[-5.5713,40.9205,827.4886],[-5.5706,40.9184,828.8766],[-5.5681,40.92,827.9587],[-5.5646,40.917,833.8479],[-5.5599,40.9183,832.9807],[-5.5527,40.9157,835.1704],[-5.5523,40.9107,837.7311],[-5.5486,40.9116,838.9718],[-5.5395,40.906,842.8714],[-5.5374,40.9074,841.2843],[-5.5356,40.9051,842.9961],[-5.53,40.9059,839.5687],[-5.5237,40.9024,814.5243],[-5.5252,40.8996,818.3876],[-5.5237,40.8977,832.0425],[-5.5274,40.8924,840.8878],[-5.5406,40.8863,861.4644],[-5.5444,40.8753,891.9608],[-5.5474,40.8753,885.3862],[-5.5533,40.8673,881.3406],[-5.5561,40.8597,911.3408],[-5.5493,40.8562,921.9722],[-5.5347,40.8601,894.391],[-5.53,40.866,896.3253],[-5.5265,40.8662,896.1224],[-5.5101,40.861,858.0123],[-5.5099,40.8594,841.0045],[-5.5058,40.8612,826.9921],[-5.499,40.8614,797.7497],[-5.4958,40.8661,795.5],[-5.4943,40.8858,794.8673],[-5.4924,40.8901,796.1998],[-5.4821,40.8951,810.0284],[-5.4799,40.8993,800.0403],[-5.4811,40.8948,810.0284],[-5.4731,40.8907,846.0861],[-5.4719,40.8876,838.0634],[-5.4616,40.8913,825.5381],[-5.4548,40.8891,812.0831],[-5.4423,40.8998,848.0662],[-5.432,40.9153,833.3093],[-5.4279,40.9156,841.3313],[-5.4239,40.913,862.1087],[-5.4175,40.9207,861.2056],[-5.4053,40.9211,860.293],[-5.3799,40.9363,848.7856],[-5.3793,40.9398,856.6238],[-5.3704,40.9478,854.064],[-5.3724,40.9493,856.5414],[-5.3666,40.9533,854.3152],[-5.3681,40.9561,858.9434],[-5.3771,40.9608,858.9628],[-5.3832,40.9706,833.0704],[-5.3898,40.9712,817.4724],[-5.3925,40.9745,811.3179],[-5.3906,40.9764,810.6116],[-5.3922,40.9941,804.5552],[-5.3849,41.0003,810.7006],[-5.3734,41.0164,864.4294],[-5.3758,41.0221,864.5682],[-5.3603,41.0297,856.4128],[-5.3564,41.0332,849.6004],[-5.3586,41.0359,845.9717],[-5.3559,41.0384,843.3017],[-5.3565,41.0418,840.6664],[-5.3597,41.0425,843.5805],[-5.3651,41.049,841.9668],[-5.3617,41.051,836.0815],[-5.3616,41.0558,828.7748],[-5.3586,41.0566,825.6095],[-5.3605,41.0589,839.4299],[-5.3629,41.0586,830.576],[-5.3659,41.0629,850.107],[-5.3637,41.0638,844.4304],[-5.3665,41.0674,843.1149],[-5.3652,41.0698,839.9182],[-5.3702,41.0754,834.8312],[-5.3814,41.0712,837.0983],[-5.3719,41.0796,826.8755],[-5.3675,41.0915,806.9039],[-5.3682,41.0974,798.2574],[-5.3658,41.1042,792.6241],[-5.3695,41.1053,793.4742],[-5.3684,41.1062,794.7972],[-5.3711,41.1103,791.9952],[-5.3769,41.1105,780.0756],[-5.3806,41.1165,796.823],[-5.3781,41.1176,802.3221],[-5.3787,41.1198,805.3638],[-5.3825,41.1217,808.7371],[-5.381,41.1241,812.2676],[-5.3835,41.127,814.2753],[-5.3816,41.128,808.9805],[-5.384,41.1303,813.1838],[-5.3837,41.1343,816.228],[-5.3853,41.1365,823.0244],[-5.3869,41.1358,828.9577],[-5.391,41.1421,835.718],[-5.4001,41.1454,841.031],[-5.4017,41.1492,831.676],[-5.3999,41.1596,812.1859],[-5.3965,41.163,821.6428],[-5.3982,41.1669,829.9315],[-5.4025,41.17,840.8362],[-5.4041,41.1758,869.6369],[-5.4029,41.1765,869.6369],[-5.4075,41.1856,870.277],[-5.4263,41.1875,851.4149],[-5.4768,41.1783,906.0959],[-5.4749,41.1757,899.98],[-5.4754,41.1686,889.4516],[-5.4697,41.1579,869.8058]]]]}}