{"type":"Feature","properties":{"GID_3":"ESP.2.1.1_1","GID_0":"ESP","country":"Spain","GID_1":"ESP.2_1","province":"Aragón","NL_NAME_1":"NA","GID_2":"ESP.2.1_1","county":"Huesca","NL_NAME_2":"NA","city":"n.a.(125)","VARNAME_3":"NA","NL_NAME_3":"NA","TYPE_3":"Comarca","ENGTYPE_3":"Comarca","CC_3":"NA","HASC_3":"NA","name":"n.a.(125).city"},
"geometry":{"type": "MultiPolygon","coordinates": [[[[0.6171,41.9869,482.0],[0.6238,41.9918,584.348],[0.6386,41.9946,641.826],[0.6421,41.9869,569.2914],[0.642,41.9821,483.8299],[0.6454,41.9871,482.0],[0.6444,41.9924,490.0401],[0.6466,41.9968,482.0],[0.6573,42.0016,481.25],[0.6639,42.0146,504.2817],[0.657,42.0149,474.1661],[0.6517,42.0263,466.0],[0.6565,42.0315,466.0],[0.6568,42.0404,466.0],[0.666,42.0418,467.7787],[0.6712,42.0474,470.9271],[0.6686,42.0489,469.2191],[0.6679,42.0521,468.3872],[0.6688,42.0612,489.8039],[0.6793,42.0761,772.483],[0.6851,42.0918,511.3658],[0.6956,42.0991,496.7697],[0.6949,42.1014,496.6772],[0.6996,42.107,496.3101],[0.7022,42.1219,506.1392],[0.698,42.1265,511.42],[0.6954,42.1386,521.9198],[0.6959,42.152,536.3979],[0.7037,42.1584,665.6016],[0.714,42.1634,711.1326],[0.7016,42.1696,555.7422],[0.6986,42.1727,550.6472],[0.7034,42.185,569.006],[0.7026,42.1901,559.1595],[0.7066,42.1912,565.5167],[0.7094,42.1973,579.406],[0.7084,42.2043,588.1068],[0.7142,42.21,580.3502],[0.7134,42.2155,581.3835],[0.7174,42.2199,615.1727],[0.7142,42.2219,587.6592],[0.7149,42.2248,610.6695],[0.7201,42.2305,597.6042],[0.7249,42.2413,611.598],[0.7285,42.2459,619.7918],[0.7335,42.2487,618.9888],[0.735,42.2522,624.165],[0.7398,42.2691,643.2294],[0.7386,42.2815,652.6757],[0.7439,42.2857,752.3677],[0.7449,42.3012,717.4897],[0.7566,42.3093,931.3362],[0.7551,42.3135,1080.335],[0.7646,42.3225,1319.6199],[0.7592,42.3259,1267.2781],[0.7437,42.3263,834.733],[0.7404,42.3369,801.5],[0.7448,42.3376,805.2368],[0.7495,42.3433,801.5],[0.7536,42.3442,801.5],[0.7543,42.3467,808.4034],[0.7713,42.3507,897.7303],[0.7662,42.3534,869.6793],[0.7655,42.3562,933.3196],[0.7462,42.3569,848.5754],[0.7368,42.3621,945.1587],[0.7233,42.3656,1119.3733],[0.7228,42.3688,1076.0204],[0.7343,42.3715,1004.5752],[0.7353,42.3762,1066.8939],[0.7431,42.3791,811.7002],[0.7461,42.3848,820.4772],[0.7418,42.3919,902.5693],[0.7405,42.3916,902.5693],[0.7382,42.3997,932.7004],[0.7365,42.3993,1013.808],[0.726,42.4053,1015.8212],[0.7283,42.4079,899.9932],[0.7345,42.4079,854.5798],[0.7359,42.414,855.4208],[0.7263,42.4269,887.4537],[0.7192,42.429,884.7465],[0.7102,42.4364,893.96],[0.7107,42.4389,895.0898],[0.7065,42.4493,958.2222],[0.7063,42.4566,965.545],[0.7085,42.4589,985.3286],[0.7061,42.4647,1050.1904],[0.6969,42.4741,1209.76],[0.6905,42.4876,1337.0771],[0.698,42.4864,1304.5281],[0.7008,42.491,1160.5739],[0.6993,42.4952,1370.4419],[0.7005,42.4959,1415.0208],[0.7051,42.4944,1246.9237],[0.7133,42.4873,982.5165],[0.7265,42.4981,1537.1753],[0.7296,42.4973,1585.8185],[0.7333,42.5045,1606.6597],[0.7395,42.5052,1620.4926],[0.73,42.5124,1220.2744],[0.7193,42.5128,1022.2598],[0.7239,42.52,1030.6752],[0.7216,42.5252,1038.0051],[0.7248,42.5305,1045.2339],[0.7351,42.5401,1104.0649],[0.7454,42.5353,1734.9167],[0.7496,42.535,1948.303],[0.7409,42.545,1138.8923],[0.7481,42.5522,1250.5414],[0.7473,42.5566,1302.3218],[0.7586,42.5722,1328.2122],[0.7578,42.5762,1375.8022],[0.7599,42.5806,1422.0],[0.7611,42.5951,1422.0],[0.7659,42.6031,1482.0083],[0.7675,42.6113,1532.7827],[0.7491,42.6128,2326.6121],[0.7439,42.6154,2499.1943],[0.7397,42.6126,2525.1917],[0.7364,42.613,2581.0474],[0.7318,42.6156,2648.1511],[0.7232,42.6165,2779.9233],[0.7174,42.6196,2769.0864],[0.7084,42.6212,2731.4731],[0.6983,42.6293,2947.707],[0.6998,42.6328,2903.9014],[0.6951,42.6587,2627.22],[0.6919,42.6594,2490.897],[0.687,42.6643,2362.2449],[0.6805,42.6663,2546.9241],[0.6797,42.6688,2571.2502],[0.6758,42.6711,2558.116],[0.6734,42.6791,2533.9731],[0.6713,42.6812,2547.6128],[0.6659,42.6827,2453.0332],[0.66,42.6884,2493.2847],[0.6601,42.691,2538.1643],[0.6497,42.6933,2558.1069],[0.6415,42.6925,2445.9875],[0.6162,42.6958,2432.2317],[0.6034,42.7005,2368.0581],[0.597,42.7055,2557.9412],[0.5937,42.704,2622.4329],[0.5888,42.6955,2701.1885],[0.5803,42.6958,2663.6675],[0.5774,42.6937,2615.6694],[0.566,42.698,2799.8774],[0.5259,42.7021,2962.3491],[0.5202,42.696,3069.2104],[0.5193,42.6925,3138.7805],[0.5162,42.6917,3136.4126],[0.4933,42.6931,3031.7371],[0.4768,42.6996,3048.0889],[0.4681,42.6949,2971.373],[0.4469,42.6925,2627.2808],[0.4353,42.6896,2778.1821],[0.4354,42.685,2729.8623],[0.4387,42.6839,2722.0713],[0.4317,42.6743,2668.5195],[0.4364,42.6656,2980.6218],[0.4336,42.6538,3267.2454],[0.4248,42.6487,3150.9695],[0.422,42.6403,2869.3142],[0.4273,42.6357,2865.9172],[0.4253,42.6311,2921.9961],[0.422,42.6332,2864.8662],[0.4151,42.6303,2852.4214],[0.4085,42.625,2969.4819],[0.4064,42.6068,2275.2468],[0.4035,42.6045,2275.4187],[0.4021,42.596,2131.0957],[0.4043,42.5801,1978.4792],[0.4018,42.5776,1949.0397],[0.4007,42.5725,1938.6635],[0.4159,42.5677,1958.1466],[0.4079,42.5613,2314.9292],[0.3916,42.5572,1810.4756],[0.3928,42.5449,1459.4458],[0.397,42.5401,1394.4833],[0.3974,42.5374,1343.277],[0.3947,42.5335,1275.7101],[0.3981,42.526,1255.9365],[0.398,42.5205,1196.3912],[0.3949,42.5227,1239.9116],[0.3833,42.5251,1509.5471],[0.3738,42.5299,1625.6982],[0.3678,42.529,1925.3857],[0.348,42.5406,2312.792],[0.3445,42.5367,2646.4983],[0.3382,42.5381,2468.3372],[0.3367,42.5359,2576.5234],[0.3339,42.5362,2578.0608],[0.3339,42.5306,2545.0583],[0.3193,42.5204,2705.8467],[0.318,42.5134,2865.1973],[0.3195,42.512,2852.239],[0.3198,42.4992,2248.6824],[0.3153,42.489,1947.592],[0.3068,42.4881,1747.5959],[0.3018,42.4797,1472.8738],[0.2965,42.479,1450.1038],[0.2969,42.4763,1582.2678],[0.308,42.4666,1763.8888],[0.3203,42.4589,1757.0044],[0.3319,42.438,1799.0496],[0.3153,42.4289,937.1473],[0.2959,42.4124,847.2098],[0.2835,42.3959,698.0778],[0.2823,42.3914,696.5743],[0.2842,42.389,692.439],[0.2945,42.3908,702.4575],[0.299,42.3897,712.7735],[0.3095,42.3943,777.9722],[0.3153,42.3911,794.1637],[0.3248,42.3906,860.4773],[0.3266,42.3883,874.6337],[0.3398,42.384,983.7121],[0.3614,42.384,1055.2291],[0.3724,42.3757,884.7864],[0.3749,42.3676,835.0293],[0.3714,42.3642,994.8352],[0.3716,42.36,974.1352],[0.3792,42.3494,800.2413],[0.3743,42.3499,952.5256],[0.3685,42.3481,925.3246],[0.3572,42.3402,1044.2063],[0.3358,42.3351,1157.6654],[0.3264,42.3215,996.9597],[0.3246,42.3145,936.7092],[0.321,42.3134,924.3314],[0.3251,42.3045,928.8243],[0.3183,42.2946,990.9407],[0.314,42.2916,959.0545],[0.3087,42.2909,986.4314],[0.3094,42.2846,1086.9657],[0.302,42.2794,1069.991],[0.293,42.2798,1063.0491],[0.2899,42.2775,1028.6006],[0.2841,42.2765,1023.1331],[0.2769,42.2699,901.4766],[0.2691,42.2678,884.752],[0.2652,42.2583,687.4944],[0.2668,42.2555,720.2014],[0.2628,42.251,874.2269],[0.2619,42.2444,873.7639],[0.2591,42.2425,784.1208],[0.2599,42.2397,810.8814],[0.2471,42.2386,581.2452],[0.2441,42.2417,603.6144],[0.2275,42.2447,431.5399],[0.2247,42.2469,425.5],[0.2242,42.2419,425.5],[0.2304,42.228,425.5],[0.2235,42.2155,425.5],[0.2275,42.2042,425.5],[0.2238,42.1967,425.5],[0.226,42.1931,425.5],[0.2244,42.1892,425.5],[0.2289,42.1815,425.5],[0.2288,42.1705,435.7817],[0.2337,42.1648,425.5],[0.2365,42.1526,425.5],[0.2443,42.1552,553.8131],[0.266,42.143,600.0515],[0.2651,42.135,514.8467],[0.2595,42.1314,470.8259],[0.2609,42.1267,493.1942],[0.2673,42.1249,532.1738],[0.2692,42.1226,565.0131],[0.2707,42.1241,570.3716],[0.2759,42.1207,592.675],[0.2773,42.1127,645.4601],[0.2892,42.103,599.4818],[0.307,42.0966,896.4031],[0.3066,42.0883,860.9762],[0.3033,42.0831,914.2375],[0.2988,42.0823,963.6279],[0.3039,42.0782,999.7684],[0.3065,42.0678,1026.0288],[0.3138,42.0636,1079.8136],[0.3155,42.0656,1040.953],[0.3258,42.0689,922.3463],[0.3347,42.0695,942.5004],[0.3433,42.0678,889.0043],[0.3451,42.0576,836.4738],[0.3663,42.0608,931.4268],[0.3805,42.062,959.9543],[0.3833,42.061,986.9814],[0.3876,42.0645,965.5841],[0.3941,42.0652,950.9844],[0.4021,42.0624,962.5214],[0.4084,42.0668,908.6036],[0.4123,42.0639,913.3478],[0.414,42.0588,876.188],[0.4224,42.0525,868.5602],[0.4283,42.0442,837.0466],[0.4304,42.036,841.7643],[0.4371,42.0241,816.962],[0.444,42.0197,849.3633],[0.4489,42.0116,887.2001],[0.4599,42.0065,880.6128],[0.4733,41.9941,1053.6101],[0.4721,41.9931,1050.7001],[0.4735,41.9883,907.5461],[0.4706,41.9865,878.046],[0.467,41.9774,711.3364],[0.4612,41.9729,666.3989],[0.4617,41.9687,635.9628],[0.4586,41.9607,606.1493],[0.471,41.9699,670.7003],[0.4792,41.9727,721.7837],[0.4841,41.9718,791.58],[0.4796,41.9686,705.1542],[0.4916,41.9667,751.4654],[0.4909,41.9709,763.0015],[0.4967,41.9687,757.0438],[0.4962,41.9674,757.0438],[0.5005,41.9649,762.6655],[0.5029,41.967,739.9866],[0.5093,41.9683,661.1677],[0.515,41.9736,725.2425],[0.527,41.9726,744.0319],[0.5452,41.9738,712.6761],[0.5682,41.9663,720.6506],[0.5773,41.9551,678.5593],[0.5782,41.9576,730.0792],[0.586,41.9618,658.2026],[0.587,41.9668,632.5071],[0.5926,41.9689,745.399],[0.6044,41.9607,365.3525],[0.6036,41.9654,372.8235],[0.61,41.9689,449.7701],[0.6164,41.9816,482.0],[0.6192,41.9833,482.0],[0.6171,41.9869,482.0]]]]}}