{"type":"Feature","properties":{"ISO3166-1-Alpha-3":"ESP","country":"Spain","fill":"#FF0","id":"5804","name":"Almería"},
"geometry":{"type": "Polygon","coordinates": [[[-2.1718,37.89645,1220.134],[-2.20965,37.91567,1443.3811],[-2.27165,37.8817,1168.5773],[-2.28032,37.87448,1097.5056],[-2.28592,37.86478,1092.6235],[-2.29049,37.82063,1108.702],[-2.28236,37.76407,1138.158],[-2.28886,37.74644,1122.5754],[-2.31308,37.71501,1007.7651],[-2.32149,37.69774,995.556],[-2.31593,37.62209,1718.4038],[-2.376,37.61214,1228.4226],[-2.35848,37.52223,1368.8252],[-2.49015,37.48937,1327.2701],[-2.64214,37.38322,1058.7321],[-2.64871,37.36873,1105.8298],[-2.65258,37.31229,1330.6896],[-2.65496,37.3046,1418.3597],[-2.66389,37.29074,1587.1776],[-2.66556,37.28441,1661.5419],[-2.66011,37.21201,1985.9888],[-2.71036,37.22955,1932.1648],[-2.75695,37.23237,1900.8035],[-2.76994,37.23804,1913.2207],[-2.79464,37.26348,1958.8979],[-2.80439,37.26853,1988.1029],[-2.83486,37.27299,1770.9741],[-2.8465,37.27161,1663.9985],[-2.85482,37.2671,1555.9723],[-2.85993,37.26091,1473.4233],[-2.88472,37.1794,1065.3477],[-2.89398,37.17014,1129.4368],[-2.91742,37.16322,1214.9534],[-2.92786,37.15737,1445.632],[-2.93607,37.14402,1614.9771],[-2.9439,37.1131,1889.824],[-2.95234,37.10082,2183.1133],[-2.9625,37.09666,2301.4998],[-2.99772,37.09547,2570.3157],[-3.01113,37.08508,2067.8479],[-3.01536,37.06966,1708.5126],[-3.00881,37.03614,1427.7893],[-2.99265,36.99927,987.7703],[-2.9908,36.98618,808.8726],[-2.99691,36.97065,718.466],[-3.06772,36.91469,645.1814],[-3.07266,36.90227,853.6707],[-3.06476,36.89423,710.7548],[-3.05227,36.8875,453.4883],[-3.04344,36.87913,609.4965],[-3.02902,36.84446,721.8312],[-3.14023,36.78785,338.7617],[-3.12822,36.74638,0.0],[-3.07645,36.74976,68.8392],[-2.98772,36.73711,0.0],[-2.93326,36.75165,4.3649],[-2.91397,36.75031,6.5274],[-2.8861,36.7344,5.4945],[-2.85875,36.70494,7.7726],[-2.84826,36.70022,3.7731],[-2.83906,36.70242,8.7471],[-2.82999,36.71174,7.2498],[-2.82099,36.71389,6.2419],[-2.8026,36.7073,1.5636],[-2.78295,36.69461,5.9854],[-2.75666,36.68037,0.0],[-2.7362,36.6874,0.6117],[-2.71825,36.68203,0.0],[-2.68436,36.68598,0.0],[-2.65888,36.69481,0.0],[-2.64757,36.70417,0.3201],[-2.64269,36.70702,0.5326],[-2.61718,36.72842,0.0],[-2.59671,36.7731,0.0],[-2.57689,36.81131,29.7915],[-2.56078,36.81879,227.7012],[-2.48143,36.82994,0.0],[-2.46939,36.82774,0.0],[-2.44233,36.8183,0.0],[-2.43309,36.81627,5.6653],[-2.41271,36.82001,5.7071],[-2.38024,36.83377,0.0],[-2.36168,36.83678,0.0],[-2.33914,36.83426,0.0],[-2.31835,36.82791,0.0],[-2.28279,36.81009,0.0],[-2.25613,36.78738,0.0],[-2.23168,36.76008,0.0],[-2.20364,36.73713,26.2653],[-2.16613,36.72757,52.6531],[-2.14672,36.72993,0.0],[-2.1267,36.7364,54.546],[-2.11107,36.74612,0.0],[-2.10082,36.76516,120.8209],[-2.09142,36.76826,42.2972],[-2.08031,36.77062,60.5945],[-2.07116,36.77534,80.1852],[-2.06591,36.78356,78.099],[-2.06074,36.80244,0.0],[-2.05687,36.81009,0.0],[-2.04048,36.82433,65.0517],[-2.02477,36.83377,1.7156],[-2.01305,36.84577,105.7293],[-2.0028,36.88703,65.4788],[-1.98892,36.9005,244.1314],[-1.95385,36.91995,36.5477],[-1.9414,36.92988,0.0],[-1.93529,36.9322,0.0],[-1.91287,36.93354,0.0],[-1.90522,36.93598,4.8653],[-1.90034,36.94119,0.0],[-1.89867,36.95006,45.2967],[-1.9005,36.95877,53.508],[-1.90416,36.96638,9.3202],[-1.90697,36.97529,21.925],[-1.90612,36.98762,41.0235],[-1.885,37.01549,61.9811],[-1.85521,37.07661,27.6647],[-1.84984,37.10444,76.8524],[-1.83776,37.13162,33.9693],[-1.83035,37.16637,22.1311],[-1.81273,37.20706,4.0091],[-1.78722,37.23522,0.9315],[-1.72851,37.28242,0.0],[-1.69896,37.31643,0.0],[-1.68578,37.33698,0.0],[-1.68017,37.35444,14.2265],[-1.67089,37.36331,9.0367],[-1.65284,37.36126,17.3379],[-1.64591,37.36925,6.938],[-1.64162,37.38104,13.832],[-1.73242,37.43844,223.7983],[-1.74152,37.44133,230.3132],[-1.7927,37.45074,289.4425],[-1.79766,37.44999,293.976],[-1.80224,37.44635,301.7172],[-1.80345,37.44133,276.7913],[-1.8057,37.43746,283.194],[-1.81123,37.4388,292.846],[-1.81893,37.44157,298.0434],[-1.82645,37.44536,325.587],[-1.83841,37.45482,383.4515],[-1.98783,37.63899,949.4688],[-1.99659,37.64783,841.2141],[-2.00073,37.65383,821.1547],[-2.00424,37.66395,713.7744],[-2.00553,37.68085,711.532],[-2.0046,37.6885,739.9028],[-2.00445,37.70455,911.2964],[-2.00297,37.71186,1160.9867],[-1.99871,37.72214,1207.5725],[-1.9952,37.73547,1373.3569],[-1.99613,37.7423,1135.7129],[-1.99998,37.75248,1089.5609],[-2.00282,37.78803,798.8227],[-2.00142,37.79428,763.7996],[-1.99411,37.80968,898.6979],[-1.99334,37.81599,870.9685],[-1.99326,37.83384,730.5999],[-1.99168,37.84115,747.1849],[-1.98737,37.84813,771.8317],[-1.97613,37.86014,802.5917],[-1.97569,37.86585,834.2656],[-1.98279,37.87082,941.8924],[-2.07697,37.8811,1111.3096],[-2.11268,37.89531,1162.803],[-2.12547,37.89875,1189.9369],[-2.1718,37.89645,1220.134]]]}}