{"type":"Feature","properties":{"GID_3":"ESP.5.1.6_1","GID_0":"ESP","country":"Spain","GID_1":"ESP.5_1","province":"CastillayLeón","NL_NAME_1":"NA","GID_2":"ESP.5.1_1","county":"Ávila","NL_NAME_2":"NA","city":"n.a.(28)","VARNAME_3":"NA","NL_NAME_3":"NA","TYPE_3":"Comarca","ENGTYPE_3":"Comarca","CC_3":"NA","HASC_3":"NA","name":"n.a.(28).city"},
"geometry":{"type": "MultiPolygon","coordinates": [[[[-5.3359,40.1158,290.695],[-5.3157,40.107,307.5],[-5.3015,40.1074,307.5],[-5.2967,40.1101,307.5],[-5.2706,40.1097,313.6854],[-5.2671,40.1111,307.5],[-5.2606,40.1079,307.5],[-5.2492,40.1087,307.5],[-5.2128,40.1069,313.7055],[-5.2103,40.1053,311.3091],[-5.2116,40.0927,325.298],[-5.2076,40.0896,317.3439],[-5.2066,40.0856,325.2264],[-5.202,40.0829,321.9391],[-5.1922,40.0835,325.741],[-5.185,40.088,324.2478],[-5.1715,40.0848,333.8376],[-5.1539,40.0929,330.8449],[-5.1491,40.0908,337.1038],[-5.142,40.0915,348.2863],[-5.1401,40.093,344.2776],[-5.1402,40.0967,341.4073],[-5.1247,40.1041,341.0697],[-5.1053,40.1187,413.8791],[-5.1013,40.127,353.2737],[-5.0945,40.1274,381.7995],[-5.0908,40.1236,362.7875],[-5.0889,40.1236,371.3617],[-5.0859,40.1261,360.8552],[-5.085,40.1355,367.0266],[-5.0776,40.1362,369.3875],[-5.0782,40.1412,364.5967],[-5.0737,40.1438,364.6863],[-5.07,40.1488,363.1803],[-5.0627,40.1516,370.2703],[-5.0569,40.1492,369.7554],[-5.0518,40.1515,384.2664],[-5.042,40.1511,373.4741],[-5.0338,40.1567,375.9181],[-5.0184,40.1591,371.06],[-5.0169,40.1458,412.9014],[-5.0137,40.1437,426.8014],[-5.0069,40.1312,446.6508],[-5.0076,40.1217,489.1692],[-5.0132,40.1111,536.2381],[-5.0061,40.1097,550.926],[-4.9891,40.1159,641.4287],[-4.9823,40.1154,630.057],[-4.9708,40.1198,644.3651],[-4.9544,40.1211,550.5721],[-4.9588,40.1261,551.0174],[-4.9553,40.1262,581.1602],[-4.9592,40.1305,584.1101],[-4.9562,40.1334,579.7317],[-4.9457,40.1326,572.9732],[-4.9253,40.136,569.1322],[-4.918,40.1553,471.9279],[-4.9236,40.165,402.2973],[-4.9246,40.17,384.5534],[-4.9102,40.1755,385.0239],[-4.8965,40.1851,385.3577],[-4.8844,40.191,387.0834],[-4.8782,40.1903,391.4957],[-4.8752,40.1978,388.9087],[-4.862,40.2052,393.3821],[-4.8596,40.2035,394.6713],[-4.8493,40.209,399.8922],[-4.8402,40.21,403.0257],[-4.8353,40.2125,398.205],[-4.8208,40.2234,399.6731],[-4.8224,40.2295,402.1813],[-4.8076,40.2353,408.1489],[-4.8101,40.2409,414.4316],[-4.8119,40.2406,414.4316],[-4.811,40.2438,419.5708],[-4.8132,40.2495,425.8702],[-4.8181,40.2548,435.2008],[-4.8099,40.2594,458.384],[-4.8112,40.264,498.6974],[-4.807,40.2678,521.9163],[-4.8076,40.271,578.2311],[-4.8041,40.2751,608.0235],[-4.7888,40.2721,547.3048],[-4.7832,40.2702,483.1627],[-4.7816,40.2674,470.9876],[-4.778,40.2656,440.5177],[-4.7611,40.2609,434.8151],[-4.7532,40.2641,439.1325],[-4.7425,40.2753,472.1677],[-4.7285,40.2705,480.9382],[-4.7274,40.2735,505.4187],[-4.712,40.276,552.4508],[-4.7136,40.2808,490.4745],[-4.698,40.2822,499.9484],[-4.694,40.2664,541.8998],[-4.7025,40.2636,527.2697],[-4.7017,40.2572,536.2023],[-4.6928,40.2539,552.0248],[-4.6871,40.2496,559.2303],[-4.6936,40.2411,599.6085],[-4.6865,40.2358,644.9614],[-4.6895,40.2293,827.2674],[-4.6861,40.2185,602.0098],[-4.6866,40.211,570.8683],[-4.6792,40.207,539.7463],[-4.6737,40.2097,539.5968],[-4.6627,40.2061,584.3825],[-4.6577,40.1997,604.233],[-4.6539,40.1982,633.0088],[-4.64,40.1973,715.9659],[-4.6357,40.2005,730.8668],[-4.6298,40.2018,791.7498],[-4.6168,40.2002,953.7574],[-4.6136,40.2012,986.1467],[-4.6112,40.204,1016.4821],[-4.6068,40.205,1002.0261],[-4.6042,40.2082,1031.4891],[-4.6002,40.2082,1028.5498],[-4.5925,40.2114,1010.3834],[-4.5866,40.2163,1031.8726],[-4.5789,40.2174,1009.3795],[-4.5744,40.2197,1025.1088],[-4.5655,40.218,1003.0691],[-4.5606,40.2228,984.7745],[-4.5589,40.234,790.1335],[-4.5601,40.2364,769.2422],[-4.5658,40.2397,780.3856],[-4.5691,40.2572,639.4922],[-4.5563,40.2645,651.9418],[-4.554,40.2764,734.8928],[-4.5554,40.2771,726.8123],[-4.5467,40.2801,784.0431],[-4.5421,40.2866,867.2211],[-4.5338,40.2888,925.7631],[-4.529,40.2928,1006.0826],[-4.5376,40.3113,769.8688],[-4.5398,40.3278,1169.7166],[-4.5442,40.3302,1262.3024],[-4.5428,40.3308,1279.5613],[-4.5434,40.3335,1341.2188],[-4.5477,40.3394,1592.6575],[-4.5464,40.3421,1662.4941],[-4.5499,40.3442,1738.41],[-4.5735,40.3431,1466.3042],[-4.5778,40.3444,1491.2781],[-4.5858,40.343,1627.4821],[-4.6032,40.3527,1708.3915],[-4.6106,40.3546,1740.8579],[-4.6241,40.3648,1932.7706],[-4.6308,40.3666,1926.2703],[-4.6415,40.3651,1848.2102],[-4.65,40.3662,1830.574],[-4.6957,40.3582,1800.8298],[-4.7087,40.3589,1932.5717],[-4.712,40.3605,1912.6708],[-4.7193,40.3591,1943.8344],[-4.7224,40.3602,1983.282],[-4.7275,40.3574,1912.912],[-4.7337,40.3509,1952.0862],[-4.7534,40.3485,1902.4751],[-4.7637,40.349,1849.1907],[-4.7807,40.3407,1780.7925],[-4.7862,40.3368,1802.6582],[-4.789,40.3324,1785.3757],[-4.7998,40.3299,1885.4866],[-4.804,40.3274,1884.838],[-4.8074,40.3303,1778.5994],[-4.8266,40.338,1957.7814],[-4.8331,40.3364,1880.2831],[-4.8411,40.3301,1952.2618],[-4.8531,40.3277,1945.7311],[-4.8575,40.3236,2005.6708],[-4.867,40.3236,2032.2206],[-4.875,40.3197,2039.8486],[-4.8797,40.3136,2071.4526],[-4.8962,40.3112,2138.1973],[-4.9033,40.3079,2033.673],[-4.9087,40.3003,1943.4504],[-4.9272,40.3041,1630.5652],[-4.9294,40.3281,1541.7518],[-4.9281,40.3298,1544.0879],[-4.9405,40.3443,1466.0857],[-4.9438,40.3551,1358.4078],[-4.9529,40.3546,1420.4126],[-4.9721,40.3594,1450.7871],[-4.9815,40.3658,1411.916],[-4.9969,40.3725,1352.5488],[-5.0064,40.3727,1230.1119],[-5.0155,40.3697,1218.3256],[-5.0147,40.3529,1241.1071],[-5.0126,40.3515,1251.1201],[-5.0149,40.3396,1277.8955],[-5.0132,40.3382,1290.879],[-5.0123,40.3293,1318.3347],[-5.0149,40.3224,1385.3784],[-5.0205,40.3189,1585.2317],[-5.0287,40.3186,1824.9559],[-5.0329,40.3159,1834.6562],[-5.0571,40.3088,1936.1404],[-5.0627,40.3121,1905.115],[-5.0689,40.3077,1824.083],[-5.0745,40.3072,1840.9091],[-5.0854,40.303,1877.0056],[-5.0869,40.3004,1866.0051],[-5.0911,40.3006,1863.6771],[-5.0975,40.2958,1932.293],[-5.097,40.2941,1923.7283],[-5.1034,40.2951,1960.3652],[-5.1096,40.2934,1919.1591],[-5.115,40.2949,2112.4312],[-5.1314,40.2909,2138.3318],[-5.1479,40.2817,2065.4351],[-5.1544,40.2812,2033.0581],[-5.161,40.2776,2068.5461],[-5.1681,40.2717,2147.7473],[-5.1738,40.27,2165.3931],[-5.1755,40.2665,2208.5879],[-5.1808,40.2667,2268.1106],[-5.1824,40.26,2265.0295],[-5.1928,40.267,2196.3325],[-5.1991,40.2678,2197.2847],[-5.2075,40.2627,2069.0928],[-5.2226,40.2589,2107.2339],[-5.2251,40.2539,2064.9883],[-5.2462,40.245,2036.645],[-5.2563,40.2508,2223.6816],[-5.269,40.2517,2307.3911],[-5.2699,40.2492,2321.4575],[-5.2738,40.2484,2189.7061],[-5.283,40.2417,2342.4558],[-5.2935,40.2431,2421.2747],[-5.2981,40.2469,2516.2654],[-5.2997,40.2564,2435.3823],[-5.308,40.2589,2335.1279],[-5.3156,40.264,2216.0898],[-5.3232,40.2607,2282.439],[-5.3431,40.2641,2115.8425],[-5.3583,40.232,973.8221],[-5.3582,40.2283,932.551],[-5.3626,40.223,838.9404],[-5.3696,40.2183,774.3176],[-5.3694,40.211,719.7184],[-5.364,40.2033,627.4705],[-5.3681,40.1991,582.5571],[-5.3664,40.196,554.4363],[-5.3664,40.1835,489.8943],[-5.3646,40.1819,471.2744],[-5.3647,40.1745,444.7339],[-5.3679,40.1641,416.58],[-5.3669,40.1604,394.0762],[-5.3601,40.1569,384.9306],[-5.3601,40.1543,384.855],[-5.3571,40.1528,381.3691],[-5.3567,40.1484,362.0838],[-5.3458,40.1335,322.4163],[-5.3458,40.1297,315.4946],[-5.3419,40.126,308.276],[-5.3369,40.1242,301.2853],[-5.3359,40.1158,290.695]]],
[[[-4.4906,40.3676,1317.6987],[-4.4985,40.3612,1238.6874],[-4.5014,40.3549,1199.2794],[-4.5148,40.3477,1246.3687],[-4.5263,40.3449,1289.574],[-4.5267,40.3382,1129.2185],[-4.5209,40.3358,1023.0911],[-4.5154,40.3288,861.8411],[-4.5129,40.3206,830.3951],[-4.5043,40.3151,710.4857],[-4.4977,40.3167,704.136],[-4.4908,40.3205,693.1694],[-4.4854,40.3211,705.2834],[-4.4647,40.3187,861.5443],[-4.4554,40.3199,804.6909],[-4.4536,40.333,728.424],[-4.4605,40.3403,667.2566],[-4.4663,40.3402,668.5271],[-4.4707,40.3428,697.4939],[-4.4738,40.3482,750.3172],[-4.4717,40.3585,813.2194],[-4.474,40.3624,928.9701],[-4.4735,40.3691,1184.0315],[-4.4804,40.3711,1247.1857],[-4.4906,40.3676,1317.6987]]]]}}