{"type":"Feature","properties":{"GID_3":"ESP.1.6.6_1","GID_0":"ESP","country":"Spain","GID_1":"ESP.1_1","province":"Andalucía","NL_NAME_1":"NA","GID_2":"ESP.1.6_1","county":"Jaén","NL_NAME_2":"NA","city":"SierraDeSegura","VARNAME_3":"NA","NL_NAME_3":"NA","TYPE_3":"Comarca","ENGTYPE_3":"Comarca","CC_3":"NA","HASC_3":"NA","name":"Sierra_De_Segura.city"},
"geometry":{"type": "MultiPolygon","coordinates": [[[[-2.5987,38.5129,892.0671],[-2.6185,38.5126,850.1885],[-2.6361,38.5076,819.7263],[-2.6445,38.5072,813.618],[-2.664,38.5013,778.4586],[-2.6726,38.4967,819.4081],[-2.7024,38.5011,781.9403],[-2.7097,38.5059,789.5488],[-2.7325,38.5142,757.3921],[-2.7389,38.5223,778.9742],[-2.7478,38.5256,802.9725],[-2.7537,38.526,783.6218],[-2.7545,38.5284,739.6721],[-2.762,38.5328,729.6547],[-2.7676,38.5329,694.7731],[-2.7666,38.531,684.54],[-2.7737,38.5283,670.4928],[-2.7703,38.5203,671.4304],[-2.775,38.5194,682.813],[-2.7764,38.5168,671.6149],[-2.7799,38.5161,669.4374],[-2.7788,38.5107,665.8599],[-2.7805,38.5094,660.7386],[-2.7836,38.5144,670.4157],[-2.7869,38.5157,671.7464],[-2.7856,38.5121,663.9067],[-2.7875,38.5096,655.8495],[-2.7937,38.5078,667.1817],[-2.7914,38.5038,650.5406],[-2.7959,38.5015,652.7679],[-2.7992,38.5046,655.758],[-2.8016,38.5039,661.7064],[-2.8003,38.4997,649.1762],[-2.8065,38.5031,649.7985],[-2.81,38.4952,650.4901],[-2.8138,38.4959,638.5006],[-2.8125,38.4917,647.7497],[-2.817,38.494,643.5497],[-2.8251,38.4874,630.9809],[-2.8232,38.485,651.462],[-2.8301,38.4876,632.6534],[-2.8323,38.4861,641.1106],[-2.8298,38.4781,680.1407],[-2.831,38.4765,646.5747],[-2.834,38.4773,622.3957],[-2.8375,38.4844,631.203],[-2.8393,38.4841,622.3977],[-2.84,38.4773,634.2266],[-2.8439,38.4809,617.5931],[-2.8498,38.4805,618.8115],[-2.8546,38.4785,641.4609],[-2.8512,38.4743,614.2512],[-2.8608,38.4752,614.7532],[-2.8606,38.4702,618.7685],[-2.8645,38.4717,601.3978],[-2.8689,38.47,602.1791],[-2.8693,38.4658,599.685],[-2.8788,38.4638,613.819],[-2.8801,38.4627,634.4297],[-2.8777,38.4571,606.5634],[-2.8841,38.4585,616.9995],[-2.8847,38.4566,624.5007],[-2.8814,38.4527,599.2248],[-2.8878,38.449,597.0],[-2.8847,38.4466,597.0],[-2.885,38.4452,597.0],[-2.8897,38.4446,613.2182],[-2.8867,38.4407,597.0],[-2.8919,38.4393,598.9527],[-2.8929,38.4369,612.1763],[-2.8903,38.4333,597.0],[-2.8931,38.427,597.0],[-2.8875,38.4227,597.0],[-2.8873,38.4208,597.0],[-2.8919,38.4209,597.0],[-2.8954,38.4119,597.0],[-2.9007,38.4093,601.7742],[-2.8992,38.4033,597.0],[-2.9063,38.4033,597.0],[-2.905,38.4002,608.4603],[-2.8996,38.3999,597.0],[-2.9011,38.3976,597.0],[-2.9073,38.3957,597.0],[-2.9024,38.3888,597.0],[-2.9105,38.3868,597.0],[-2.9033,38.3846,597.0],[-2.9066,38.3797,605.6342],[-2.9034,38.3759,597.0],[-2.908,38.375,597.0],[-2.9107,38.3659,597.0],[-2.916,38.3605,549.5574],[-2.9144,38.3571,527.2626],[-2.9209,38.358,522.5197],[-2.9247,38.3517,530.8608],[-2.9379,38.3522,544.6501],[-2.9428,38.3477,518.515],[-2.9349,38.3441,519.2052],[-2.9366,38.3416,505.9744],[-2.9425,38.3391,510.1971],[-2.9412,38.3264,488.7442],[-2.9446,38.3233,486.4663],[-2.9444,38.3202,485.1344],[-2.9374,38.3125,484.0134],[-2.9363,38.3084,494.3164],[-2.9388,38.306399999999996,497.9245],[-2.9462,38.3084,479.2368],[-2.9515,38.3068,478.1229],[-2.9484,38.302,478.991],[-2.9486,38.2989,478.7017],[-2.9563,38.2954,475.9914],[-2.9638,38.2862,494.9806],[-2.9624,38.2798,464.2441],[-2.964,38.2765,467.0377],[-2.9733,38.2696,465.9205],[-2.9818,38.2675,458.421],[-2.9836,38.2657,457.8461],[-2.9785,38.2554,474.3074],[-2.9805,38.2526,468.3771],[-2.9837,38.2514,455.5975],[-2.9938,38.2528,454.4336],[-2.9997,38.2495,453.2496],[-3.0,38.2478,451.7542],[-2.9966,38.245,450.6309],[-2.9989,38.243,449.5486],[-3.0106,38.2457,454.95],[-3.0106,38.2436,444.6298],[-3.0078,38.2415,444.3624],[-3.0082,38.2381,444.9655],[-3.0134,38.2334,441.6569],[-3.0125,38.2275,441.6506],[-3.0166,38.222,445.0595],[-3.0064,38.2179,503.9732],[-2.9949,38.2155,541.6287],[-2.9806,38.226,619.1492],[-2.9689,38.2258,663.3986],[-2.9599,38.2287,694.6592],[-2.9415,38.2262,814.369],[-2.9184,38.2157,1076.0884],[-2.9148,38.2155,1047.7004],[-2.9103,38.2181,1090.1978],[-2.9041,38.219,1119.4078],[-2.8773,38.2159,1100.6045],[-2.8729,38.213,1021.922],[-2.8665,38.2161,1004.2191],[-2.8647,38.2191,1073.797],[-2.857,38.2179,1093.8525],[-2.8519,38.2195,1172.0321],[-2.8362,38.2194,1211.6533],[-2.8299,38.2161,1229.2157],[-2.8295,38.2114,1247.658],[-2.824,38.2116,1175.7036],[-2.824,38.2093,1199.4808],[-2.8187,38.2082,1176.24],[-2.8125,38.2096,1159.1155],[-2.8111,38.2081,1175.4292],[-2.802,38.211,1223.2305],[-2.7912,38.2063,1230.0785],[-2.8039,38.193,1209.1249],[-2.7967,38.1812,806.9325],[-2.7958,38.1741,622.7854],[-2.8043,38.1718,967.345],[-2.8197,38.1547,1417.2085],[-2.8235,38.1472,1479.9468],[-2.8221,38.1425,1530.3253],[-2.8366,38.1182,1639.6558],[-2.8407,38.1048,1698.0062],[-2.8479,38.0974,1725.229],[-2.8562,38.0947,1613.9492],[-2.8553,38.0892,1660.0627],[-2.8596,38.0845,1725.0505],[-2.8672,38.0845,1792.9155],[-2.8705,38.081,1705.8566],[-2.8741,38.0728,1574.2062],[-2.8781,38.0726,1474.6075],[-2.8888,38.0648,1474.1049],[-2.8991,38.0625,1601.5601],[-2.9019,38.0597,1573.0715],[-2.9001,38.0552,1503.86],[-2.9028,38.0482,1469.9597],[-2.9002,38.0461,1458.4563],[-2.8997,38.0398,1439.2793],[-2.897,38.0378,1502.4102],[-2.904,38.0237,1458.8427],[-2.902,38.0227,1462.0542],[-2.8977,38.0107,963.8457],[-2.8888,38.0085,818.4181],[-2.8844,38.0051,760.6412],[-2.8819,37.9994,707.4925],[-2.8843,37.9968,699.573],[-2.8806,37.9972,688.5769],[-2.8778,38.0007,683.4097],[-2.8778,38.0033,689.6924],[-2.8728,38.0075,677.983],[-2.8737,38.0097,680.9062],[-2.8675,38.0168,666.8647],[-2.8611,38.0154,719.9393],[-2.8588,38.0092,726.8846],[-2.8512,38.0079,784.251],[-2.8486,38.0057,915.6344],[-2.8498,38.0041,768.3407],[-2.8481,38.0021,877.4626],[-2.8289,37.9943,922.2152],[-2.825,37.9889,998.8782],[-2.8163,37.988,948.6193],[-2.8144,37.9864,952.2965],[-2.8142,37.9797,975.5009],[-2.8185,37.9749,1039.0353],[-2.8191,37.9694,1142.095],[-2.8149,37.9682,1278.6754],[-2.8154,37.9656,1279.1864],[-2.805,37.9588,1431.8464],[-2.8051,37.9563,1412.2651],[-2.8,37.956,1468.2615],[-2.7993,37.9507,1559.1061],[-2.801,37.948,1481.9341],[-2.7942,37.941,1558.9775],[-2.7891,37.9448,1585.1875],[-2.7819,37.9452,1641.8943],[-2.7801,37.9431,1680.5372],[-2.7823,37.9334,1661.6909],[-2.7756,37.93,1763.9852],[-2.7742,37.9256,1932.5228],[-2.7685,37.9228,1789.4198],[-2.7671,37.9194,1906.0715],[-2.7547,37.9275,1741.9777],[-2.7524,37.9312,1722.8198],[-2.743,37.9358,1920.6733],[-2.7358,37.948,1942.7444],[-2.7312,37.9489,1920.2405],[-2.728,37.9553,1804.9331],[-2.7241,37.9559,1781.0332],[-2.7228,37.9625,1807.0378],[-2.7186,37.9637,1849.979],[-2.7155,37.9623,1854.3002],[-2.7101,37.968,1759.082],[-2.706,37.9674,1785.2115],[-2.7022,37.9717,1796.0662],[-2.6942,37.9745,1832.321],[-2.6914,37.9729,1883.1385],[-2.6896,37.9739,1882.484],[-2.6835,37.9681,1820.8224],[-2.6784,37.9652,1788.9186],[-2.6748,37.9651,1850.3107],[-2.6704,37.9614,1858.4797],[-2.6606,37.966,1861.1162],[-2.6556,37.9663,1945.127],[-2.6424,37.9811,1798.3835],[-2.6196,37.9886,1785.0684],[-2.6092,37.9968,1705.619],[-2.6056,37.9978,1681.4873],[-2.6044,38.0014,1721.796],[-2.5993,38.0039,1715.7957],[-2.5976,38.0072,1705.9358],[-2.5998,38.0437,1654.4186],[-2.5958,38.0532,1586.5786],[-2.5989,38.0588,1525.9097],[-2.6066,38.0602,1394.5581],[-2.6062,38.0619,1406.0156],[-2.5939,38.065,1322.0115],[-2.5913,38.0696,1299.4362],[-2.5864,38.0704,1300.2334],[-2.5854,38.0726,1298.2634],[-2.5733,38.0743,1268.7205],[-2.5715,38.0754,1275.0685],[-2.5731,38.0774,1262.9181],[-2.5653,38.0836,1239.3422],[-2.5567,38.0817,1227.8379],[-2.5512,38.0841,1221.1272],[-2.5477,38.0902,1199.5999],[-2.5458,38.0896,1201.4564],[-2.5393,38.0929,1200.8223],[-2.5374,38.0978,1177.9408],[-2.5269,38.1026,1213.2991],[-2.5248,38.1068,1194.0454],[-2.5202,38.1078,1172.5781],[-2.5156,38.1165,1157.4135],[-2.5164,38.1193,1134.5967],[-2.5122,38.1227,1125.9867],[-2.5128,38.1265,1134.8481],[-2.4985,38.1317,1065.4065],[-2.486,38.1485,1013.5612],[-2.4818,38.1505,1003.0283],[-2.4803,38.1534,993.0591],[-2.474,38.1558,997.608],[-2.4684,38.1658,957.5826],[-2.4684,38.1728,1005.5839],[-2.4642,38.1729,942.3907],[-2.4579,38.1763,972.7054],[-2.4558,38.1796,921.3689],[-2.4462,38.1852,906.8576],[-2.4474,38.1908,939.7869],[-2.4454,38.2046,834.0057],[-2.447,38.2076,830.8278],[-2.4529,38.2105,746.476],[-2.4536,38.2183,749.624],[-2.4504,38.2202,747.0612],[-2.4406,38.2324,721.5677],[-2.4425,38.2355,716.7236],[-2.4421,38.2419,723.1916],[-2.4433,38.2443,707.7841],[-2.4463,38.2443,700.874],[-2.4425,38.2481,705.142],[-2.4438,38.253,708.3781],[-2.4397,38.2582,708.2737],[-2.4401,38.2601,720.4337],[-2.4364,38.2599,693.0775],[-2.4365,38.2722,674.2408],[-2.439,38.2738,695.2302],[-2.4407,38.2851,943.4418],[-2.446,38.2877,1038.1006],[-2.4814,38.295,1568.2782],[-2.485,38.3003,1523.0527],[-2.4847,38.3202,1803.4592],[-2.4809,38.3245,1827.9287],[-2.48,38.329,1792.4894],[-2.4811,38.3335,1705.333],[-2.4791,38.3492,1455.4861],[-2.4857,38.3538,1187.6896],[-2.4908,38.3633,1278.6584],[-2.4899,38.3655,1300.1313],[-2.4923,38.3713,1451.9656],[-2.4815,38.3931,1586.2864],[-2.4833,38.3979,1544.3538],[-2.5157,38.4002,1131.4851],[-2.5208,38.4043,1060.667],[-2.5348,38.4063,853.4969],[-2.5455,38.4056,810.4388],[-2.55,38.4031,806.3033],[-2.5581,38.4064,950.6973],[-2.558,38.409,903.9807],[-2.5603,38.4112,954.1611],[-2.5714,38.414,746.9136],[-2.5773,38.4262,809.4443],[-2.5753,38.4317,879.4525],[-2.5769,38.4343,952.784],[-2.5689,38.4419,1102.5642],[-2.5709,38.444,1200.1794],[-2.5669,38.4535,1354.1063],[-2.5673,38.4607,1535.1058],[-2.5732,38.4683,1228.0514],[-2.5767,38.4765,1328.6863],[-2.5756,38.4829,1372.9563],[-2.5725,38.4877,1353.7903],[-2.5665,38.4905,1353.2526],[-2.58,38.5036,1276.9713],[-2.585,38.5035,1261.0869],[-2.5866,38.5066,1145.5635],[-2.5926,38.5108,1021.1835],[-2.5987,38.5129,892.0671]]]]}}