{"type":"Feature","properties":{"GID_2":"ESP.1.7_1","GID_0":"ESP","country":"Spain","GID_1":"ESP.1_1","province":"Andalucía","NL_NAME_1":"NA","county":"Málaga","VARNAME_2":"NA","NL_NAME_2":"NA","TYPE_2":"Provincia","ENGTYPE_2":"Province","CC_2":"29","HASC_2":"ES.AN.MG","name":"Málaga.county"},
"geometry":{"type": "MultiPolygon","coordinates": [[[[-5.3199,36.3251,6.7782],[-5.2897,36.3371,145.9522],[-5.2775,36.3371,165.3148],[-5.2677,36.3242,176.1651],[-5.2594,36.3224,173.7904],[-5.2521,36.3107,14.8794],[-5.2471,36.3104,0.0],[-5.2337,36.3454,0.0],[-5.234,36.3482,6.8432],[-5.2321,36.3493,2.4992],[-5.2326,36.3521,10.221],[-5.2301,36.3546,6.735],[-5.2274,36.3537,0.0],[-5.2287,36.3576,0.1984],[-5.2218,36.3737,2.9997],[-5.2174,36.3793,2.8599],[-5.211,36.3799,0.0],[-5.2093,36.3835,2.0983],[-5.2054,36.386,1.6122],[-5.2038,36.3901,7.6043],[-5.1982,36.3929,0.0],[-5.1888,36.4051,2.6822],[-5.1776,36.414,4.6166],[-5.1657,36.4162,3.1173],[-5.1632,36.4135,0.119],[-5.1571,36.4115,0.0],[-5.1493,36.4212,0.5289],[-5.1407,36.4265,0.7241],[-5.1212,36.4282,0.0],[-5.1101,36.4326,0.9461],[-5.1026,36.4388,5.5216],[-5.0971,36.4404,0.0],[-5.0885,36.4476,6.9117],[-5.0813,36.451,7.5518],[-5.0699,36.4521,11.8175],[-5.0654,36.4499,0.0],[-5.0601,36.4499,0.0],[-5.0549,36.4524,3.8198],[-5.051,36.4524,3.4721],[-5.0446,36.4579,9.2787],[-5.0335,36.4615,3.4889],[-5.0249,36.4607,4.4451],[-5.0163,36.4621,8.0334],[-5.0104,36.4593,1.4804],[-5.006,36.4593,2.3777],[-5.0013,36.4637,0.0],[-4.9957,36.4657,3.0898],[-4.9776,36.4779,3.3971],[-4.971,36.4785,0.0],[-4.9587,36.4851,1.1464],[-4.9557,36.4854,4.068],[-4.956,36.4843,4.068],[-4.9532,36.4837,0.0],[-4.9532,36.4851,0.0],[-4.9482,36.4876,0.9375],[-4.949,36.4907,9.6324],[-4.946,36.4935,4.5818],[-4.9346,36.5001,0.0],[-4.9265,36.4996,1.262],[-4.9104,36.506,6.1625],[-4.8899,36.5068,0.3181],[-4.8913,36.5051,0.0],[-4.8901,36.5046,0.0],[-4.879,36.5076,10.2262],[-4.8596,36.5076,9.6965],[-4.8432,36.5029,0.0],[-4.8149,36.499,6.219],[-4.7663,36.4874,2.514],[-4.7412,36.4846,1.6897],[-4.7393,36.4829,0.0],[-4.7371,36.486,6.6784],[-4.7115,36.4871,8.8999],[-4.7057,36.4904,1.059],[-4.694,36.4904,0.0],[-4.6904,36.4924,0.0],[-4.6885,36.4963,2.1104],[-4.6771,36.5037,0.9019],[-4.6696,36.5037,0.0],[-4.6618,36.5068,0.0],[-4.6543,36.5054,0.0],[-4.6485,36.5071,13.6098],[-4.639,36.5062,0.0],[-4.6293,36.5193,2.0108],[-4.6229,36.5354,2.6268],[-4.6201,36.5382,0.0],[-4.6154,36.5396,0.0],[-4.6143,36.5421,0.0],[-4.6151,36.5421,0.0],[-4.616,36.5396,0.0],[-4.6188,36.5399,1.8766],[-4.6163,36.541,0.0],[-4.6179,36.5449,5.1181],[-4.6093,36.5579,4.7986],[-4.6035,36.5632,0.8525],[-4.5993,36.5635,0.0],[-4.5879,36.5729,23.3829],[-4.5707,36.5771,9.4968],[-4.5643,36.5771,8.0519],[-4.5601,36.5801,1.1388],[-4.5532,36.5793,4.6076],[-4.5482,36.5807,17.2398],[-4.539,36.5785,0.0],[-4.5388,36.5807,22.269],[-4.5335,36.5815,0.0],[-4.5332,36.5849,1.518],[-4.5301,36.5882,0.5507],[-4.5215,36.5921,4.0155],[-4.5188,36.5951,3.3195],[-4.516,36.596,2.743],[-4.5146,36.5943,1.1975],[-4.5104,36.5937,0.0],[-4.5079,36.5968,0.0],[-4.5099,36.5982,5.9569],[-4.5096,36.6001,10.1943],[-4.4996,36.6154,0.935],[-4.4971,36.6162,0.0],[-4.4932,36.6254,8.6231],[-4.4879,36.6326,4.6638],[-4.4646,36.6582,1.0046],[-4.4554,36.6649,0.443],[-4.4437,36.6824,1.1887],[-4.4446,36.6843,1.6604],[-4.4421,36.6899,5.2716],[-4.4326,36.7038,4.3822],[-4.4299,36.7051,0.3944],[-4.431,36.7068,2.9207],[-4.4262,36.7101,1.936],[-4.4237,36.7076,2.4917],[-4.421,36.7079,0.9668],[-4.4212,36.7093,2.2435],[-4.4232,36.7093,2.9637],[-4.4232,36.7113,3.0062],[-4.4168,36.7176,3.8574],[-4.414,36.7177,0.9614],[-4.416,36.7129,0.1082],[-4.4146,36.7118,0.0],[-4.4068,36.7196,13.7225],[-4.3949,36.7229,3.6511],[-4.3813,36.7201,0.0],[-4.3573,36.7185,0.3543],[-4.3471,36.7163,1.5652],[-4.3457,36.7135,0.0],[-4.3301,36.7132,1.6292],[-4.3276,36.7113,0.508],[-4.3257,36.7126,3.2936],[-4.314,36.7126,1.3041],[-4.3038,36.7149,2.6915],[-4.2951,36.7126,5.616],[-4.2935,36.7149,23.0274],[-4.2854,36.7149,2.6521],[-4.2501,36.7104,0.0],[-4.2096,36.7146,3.0296],[-4.1787,36.7154,0.0],[-4.1607,36.7201,0.9035],[-4.1093,36.7249,0.0],[-4.101,36.7282,0.0],[-4.0999,36.7321,1.6794],[-4.0979,36.7321,0.1854],[-4.0837,36.7451,1.5174],[-4.0737,36.7485,0.0],[-4.0682,36.7485,0.0],[-4.0654,36.7463,0.0],[-4.0649,36.7487,0.2535],[-4.0515,36.7449,0.7881],[-4.0329,36.7421,23.4212],[-4.0235,36.744,13.4845],[-3.9968,36.7393,5.0064],[-3.9746,36.7307,0.8408],[-3.9568,36.7262,0.5205],[-3.9268,36.7368,0.0],[-3.921,36.741,21.475],[-3.8957,36.7435,0.3744],[-3.8843,36.7407,3.9145],[-3.8749,36.744,1.218],[-3.8646,36.751,6.4677],[-3.8485,36.7501,0.0],[-3.8443,36.7535,0.0],[-3.8415,36.7518,0.0],[-3.8365,36.7537,0.0],[-3.8299,36.7515,0.0],[-3.8232,36.7524,45.9971],[-3.8088,36.7499,1.1283],[-3.799,36.7454,0.0],[-3.7915,36.746,9.9417],[-3.7885,36.744,20.0168],[-3.7879,36.741,2.0369],[-3.7857,36.7393,0.0],[-3.7804,36.7393,74.8422],[-3.7776,36.7368,0.0],[-3.7772,36.7449,62.8196],[-3.7812,36.751,154.6541],[-3.7796,36.7528,132.1209],[-3.7791,36.7589,250.1867],[-3.7822,36.7645,354.5],[-3.7794,36.7675,502.5088],[-3.7775,36.7748,663.4822],[-3.7746,36.7755,676.5128],[-3.7703,36.7831,720.6526],[-3.7669,36.7847,736.3057],[-3.7659,36.7883,711.9919],[-3.7709,36.7966,783.7434],[-3.768,36.802,849.452],[-3.7864,36.8124,1261.9839],[-3.7863,36.8155,1325.4252],[-3.7905,36.8207,1480.9504],[-3.7952,36.821,1571.7332],[-3.7933,36.8267,1597.8274],[-3.796,36.8316,1674.2373],[-3.8151,36.8419,1804.1136],[-3.8152,36.8469,1725.4092],[-3.8214,36.8494,1578.4646],[-3.8271,36.8556,1479.1305],[-3.8383,36.8564,1544.314],[-3.8422,36.8582,1590.5417],[-3.8587,36.8516,1493.8333],[-3.8609,36.8511,1495.8748],[-3.864,36.853,1542.0138],[-3.8675,36.8507,1454.288],[-3.8756,36.853,1339.6873],[-3.8776,36.8548,1337.3535],[-3.877,36.857,1323.5986],[-3.8824,36.8577,1213.0022],[-3.8807,36.8599,1239.4296],[-3.8904,36.8676,1720.1183],[-3.8954,36.8654,1521.1248],[-3.899,36.8675,1506.8247],[-3.9094,36.8675,1597.2795],[-3.9124,36.8694,1630.6526],[-3.9185,36.8681,1541.0177],[-3.924,36.879,1530.946],[-3.9294,36.8829,1611.1416],[-3.9399,36.8843,1496.6276],[-3.944,36.8865,1508.4968],[-3.9463,36.885,1530.6821],[-3.952,36.8879,1566.5618],[-3.9599,36.8876,1627.3247],[-3.9614,36.8894,1649.0466],[-3.9707,36.8921,1704.658],[-3.9826,36.8926,1593.4926],[-3.9991,36.8899,1581.1235],[-4.0121,36.8961,1661.5322],[-4.014,36.8988,1768.6781],[-4.0355,36.9049,2041.2152],[-4.0473,36.9036,2029.2139],[-4.0536,36.915,1876.4109],[-4.0635,36.9214,1584.8201],[-4.0721,36.9242,1301.8938],[-4.074,36.9266,1299.8236],[-4.0919,36.9333,1055.5554],[-4.099,36.9423,946.8523],[-4.0998,36.9527,1098.3888],[-4.1112,36.9497,1200.6401],[-4.1388,36.9523,1237.261],[-4.1665,36.9571,1244.2975],[-4.169,36.9624,1127.799],[-4.1767,36.9665,1231.6433],[-4.193,36.9805,1446.8112],[-4.207,36.9862,1272.6117],[-4.2153,36.9918,1216.1412],[-4.2205,37.0054,1098.3447],[-4.2243,37.0092,1089.5549],[-4.2232,37.0124,1081.0073],[-4.2312,37.017,1055.8407],[-4.2518,37.023,1111.8015],[-4.2549,37.0226,1044.9644],[-4.26,37.0174,1162.583],[-4.2724,37.0149,1363.0333],[-4.2699,37.0271,1154.8376],[-4.2726,37.0418,860.9993],[-4.2804,37.0549,1119.9691],[-4.2845,37.0889,830.2739],[-4.2833,37.0919,823.5163],[-4.2865,37.0983,866.8465],[-4.2855,37.1086,847.7124],[-4.2871,37.1117,846.3348],[-4.2869,37.1196,786.3591],[-4.2914,37.1303,725.1919],[-4.2968,37.1335,773.3041],[-4.3027,37.1452,741.2273],[-4.3092,37.153,717.546],[-4.3232,37.1808,675.5328],[-4.3321,37.1912,581.2689],[-4.3306,37.1966,547.2898],[-4.326,37.2026,526.6085],[-4.3225,37.2046,536.9952],[-4.3287,37.2053,598.2314],[-4.3449,37.2141,721.0501],[-4.3724,37.2159,755.1052],[-4.3849,37.2383,790.5912],[-4.3773,37.2418,773.2311],[-4.3771,37.2451,763.4415],[-4.3796,37.2458,760.3222],[-4.3798,37.2483,784.6384],[-4.3759,37.2573,733.0551],[-4.3801,37.2603,650.4936],[-4.3807,37.2634,514.7445],[-4.3776,37.2704,417.3267],[-4.3796,37.2753,415.0],[-4.3833,37.2774,415.0],[-4.389,37.274,333.9968],[-4.3917,37.274,345.6669],[-4.3941,37.2763,375.7001],[-4.3974,37.275,329.7061],[-4.4029,37.2766,328.3916],[-4.4064,37.2742,328.2706],[-4.4123,37.2771,330.7138],[-4.4127,37.2796,332.8206],[-4.4178,37.2824,333.0867],[-4.4246,37.2794,321.9395],[-4.4266,37.2762,317.6466],[-4.4334,37.274,317.0925],[-4.435,37.2768,335.015],[-4.4439,37.278,318.1887],[-4.4467,37.2764,317.8503],[-4.4469,37.2735,320.3139],[-4.4509,37.2708,321.6873],[-4.4566,37.2619,313.9515],[-4.456,37.2593,342.9804],[-4.458,37.258,341.8829],[-4.4607,37.2594,316.4368],[-4.4677,37.2579,355.1693],[-4.4656,37.2545,319.0484],[-4.4615,37.2548,316.597],[-4.4668,37.2511,308.2576],[-4.4716,37.2516,312.7318],[-4.4769,37.2574,334.1082],[-4.4856,37.252,349.7813],[-4.4831,37.2483,348.7071],[-4.4773,37.2457,306.3663],[-4.4777,37.2443,306.5826],[-4.48,37.2433,305.7395],[-4.4807,37.2383,309.1478],[-4.4856,37.237,311.3323],[-4.491,37.2386,306.9499],[-4.4893,37.2311,322.6962],[-4.4916,37.2276,363.7367],[-4.4979,37.2234,442.6933],[-4.4993,37.2235,436.7967],[-4.4992,37.2304,375.076],[-4.5088,37.2219,428.2348],[-4.5336,37.2121,483.405],[-4.5393,37.2113,468.9349],[-4.5396,37.2152,482.1311],[-4.5446,37.2174,490.3824],[-4.553,37.217,486.8494],[-4.561,37.2193,494.3595],[-4.5703,37.2161,470.5885],[-4.5701,37.2111,446.345],[-4.5761,37.2092,441.2849],[-4.5848,37.2112,459.6298],[-4.6022,37.2093,435.6602],[-4.6041,37.2151,421.7424],[-4.6015,37.219,420.3056],[-4.5961,37.2215,396.204],[-4.5964,37.2257,391.8505],[-4.6048,37.2381,369.4586],[-4.61,37.2394,363.6958],[-4.6142,37.2432,370.394],[-4.6136,37.2551,325.9116],[-4.6169,37.2562,252.91],[-4.6218,37.254,259.3523],[-4.6301,37.2545,268.2654],[-4.6452,37.2469,276.4532],[-4.6532,37.2559,259.0721],[-4.6586,37.2578,325.2854],[-4.6623,37.2575,332.4342],[-4.6653,37.2537,337.34],[-4.6696,37.2555,370.5328],[-4.6695,37.2528,346.7589],[-4.6758,37.2581,384.349],[-4.6824,37.2564,403.9739],[-4.6825,37.2544,402.0163],[-4.685,37.2543,396.1485],[-4.6844,37.2523,407.5201],[-4.6909,37.2519,407.6459],[-4.6994,37.2568,404.775],[-4.7139,37.2529,420.5306],[-4.7196,37.2597,410.5342],[-4.7333,37.2501,423.2281],[-4.7356,37.2449,427.3085],[-4.7302,37.2422,435.5752],[-4.7178,37.2399,433.1074],[-4.7296,37.2304,413.272],[-4.7322,37.2262,408.5657],[-4.7271,37.2111,421.4615],[-4.7234,37.2122,429.5713],[-4.7206,37.2083,435.3707],[-4.7111,37.2069,473.8015],[-4.7135,37.2035,469.8535],[-4.712,37.2024,472.4763],[-4.7135,37.2017,462.1573],[-4.7085,37.1977,450.2977],[-4.7318,37.1856,462.4943],[-4.7602,37.1771,481.9352],[-4.7615,37.171,473.9867],[-4.7797,37.1667,461.3607],[-4.7813,37.1593,442.5839],[-4.7855,37.1568,459.4357],[-4.791,37.1602,457.0631],[-4.7918,37.1544,450.5841],[-4.7941,37.1535,448.9151],[-4.8011,37.1606,436.3209],[-4.7991,37.1723,447.6103],[-4.804,37.1735,422.2903],[-4.8063,37.1712,419.4045],[-4.8115,37.1751,416.9517],[-4.8145,37.1806,421.7113],[-4.8222,37.1799,472.091],[-4.8273,37.187,473.1908],[-4.8192,37.1921,437.6709],[-4.8222,37.1958,434.6596],[-4.8191,37.1975,428.0036],[-4.8258,37.2007,437.3145],[-4.8432,37.2013,458.2234],[-4.8469,37.1989,459.0037],[-4.8537,37.1986,467.4217],[-4.8536,37.1937,505.6799],[-4.8588,37.1907,512.8207],[-4.8589,37.1841,515.1247],[-4.8567,37.1841,520.4863],[-4.8558,37.1782,552.1993],[-4.86,37.1756,553.8496],[-4.8566,37.1736,580.0132],[-4.8754,37.1582,617.1936],[-4.8807,37.1632,628.9294],[-4.8897,37.1551,625.2437],[-4.8975,37.1561,516.256],[-4.9002,37.1597,511.4923],[-4.8964,37.1633,538.6874],[-4.896,37.1674,519.5749],[-4.9039,37.1753,463.5901],[-4.903,37.1777,448.9786],[-4.905,37.1819,432.7166],[-4.9077,37.1748,458.0672],[-4.9187,37.1739,461.5998],[-4.9218,37.175,443.4972],[-4.925,37.1707,421.7128],[-4.9395,37.1757,402.7003],[-4.9397,37.1678,436.0412],[-4.9413,37.1669,444.8877],[-4.9425,37.1576,430.7586],[-4.9357,37.1562,441.7148],[-4.9245,37.1486,456.0667],[-4.9119,37.1441,462.2812],[-4.9032,37.1388,468.0107],[-4.9082,37.1147,540.6475],[-4.9168,37.111,613.2952],[-4.917,37.108,625.9636],[-4.9218,37.1069,612.6846],[-4.9225,37.1033,572.6624],[-4.9269,37.1035,561.5475],[-4.9306,37.0999,455.6548],[-4.9356,37.1005,434.8896],[-4.9463,37.0966,540.5745],[-4.9544,37.0914,518.0505],[-4.9721,37.0754,616.8848],[-4.9783,37.073,490.9406],[-4.979,37.07,515.391],[-4.9882,37.0646,615.8874],[-5.0095,37.0548,598.2322],[-5.0258,37.0519,601.7231],[-5.0275,37.0499,586.011],[-5.0239,37.046,596.6868],[-5.0278,37.0441,600.4686],[-5.0328,37.049,613.9564],[-5.0479,37.0387,588.2528],[-5.053,37.0306,553.4621],[-5.0552,37.0327,535.418],[-5.0722,37.0318,488.6718],[-5.0742,37.0294,473.8618],[-5.0828,37.0315,446.7972],[-5.0913,37.0275,435.1527],[-5.1025,37.0257,422.7689],[-5.1121,37.0191,402.2866],[-5.1132,37.0243,401.4037],[-5.1174,37.0244,409.2587],[-5.1198,37.0285,403.587],[-5.1227,37.0277,397.4807],[-5.1326,37.0115,501.1804],[-5.1422,37.0059,533.1754],[-5.1422,37.0039,548.9639],[-5.1278,36.9959,486.0229],[-5.1238,36.991,468.7364],[-5.1182,36.9885,451.1409],[-5.115,36.989,445.9014],[-5.1106,36.984,441.8503],[-5.1123,36.9835,444.777],[-5.1103,36.9821,453.3366],[-5.1122,36.9811,446.2327],[-5.1123,36.9765,458.1344],[-5.0981,36.9719,493.7966],[-5.0954,36.9683,502.7923],[-5.1007999999999996,36.964,603.8154],[-5.104,36.9643,645.626],[-5.11,36.9594,833.1324],[-5.1049,36.9531,648.488],[-5.0992,36.9317,663.3379],[-5.0916,36.9211,819.8275],[-5.0928,36.9117,814.5552],[-5.0866,36.9051,796.8326],[-5.0935,36.9008,819.6694],[-5.0995,36.9009,769.1323],[-5.1049,36.898,776.4738],[-5.1024,36.8956,780.8564],[-5.1024,36.8918,769.3933],[-5.1097,36.8894,774.0604],[-5.1123,36.8739,798.2267],[-5.1165,36.8712,800.2399],[-5.1204,36.8589,791.156],[-5.1339,36.8386,791.3541],[-5.1551,36.8318,871.1749],[-5.1703,36.8236,884.7576],[-5.1755,36.8253,858.3066],[-5.1792,36.8287,850.0511],[-5.1865,36.828,814.3546],[-5.1918,36.8334,715.5615],[-5.2001,36.8378,635.2449],[-5.2219,36.8428,772.9092],[-5.222,36.8502,667.5211],[-5.225,36.8563,594.7911],[-5.231,36.8612,552.0095],[-5.2439,36.8628,498.012],[-5.2666,36.8758,658.5621],[-5.2696,36.8842,647.4528],[-5.2772,36.8787,638.905],[-5.3014,36.8697,764.5272],[-5.3056,36.8582,752.3794],[-5.3076,36.8566,727.5835],[-5.3139,36.8563,741.0057],[-5.3324,36.8386,955.4094],[-5.3349,36.8276,507.6534],[-5.3406,36.8194,350.0],[-5.3349,36.8169,350.0],[-5.3331,36.8118,355.8061],[-5.3264,36.8053,382.9021],[-5.3197,36.7868,604.0427],[-5.3071,36.7804,606.0364],[-5.2908,36.7752,775.635],[-5.2951,36.7644,913.9169],[-5.3075,36.751,884.4699],[-5.3124,36.7345,988.3638],[-5.3245,36.724,880.0179],[-5.323,36.7188,1000.7194],[-5.3279,36.7005,941.6769],[-5.3273,36.6946,942.3142],[-5.3214,36.6945,1110.6571],[-5.3188,36.6928,1075.8872],[-5.3187,36.6901,1056.2615],[-5.3195,36.6882,1142.4768],[-5.3295,36.6819,1225.8807],[-5.3302,36.6789,1193.6624],[-5.3239,36.6734,972.5588],[-5.3337,36.6724,1012.1686],[-5.3437,36.6596,1098.9799],[-5.3511,36.6561,1106.3901],[-5.3529,36.6526,1133.7295],[-5.3639,36.6457,1094.6494],[-5.3789,36.6326,1314.7944],[-5.4065,36.6266,734.9883],[-5.409,36.6232,696.562],[-5.4132,36.6212,630.9191],[-5.4341,36.618,750.9698],[-5.4384,36.6142,753.9958],[-5.4558,36.6196,581.7169],[-5.4557,36.6168,562.1558],[-5.4582,36.614,558.7328],[-5.457,36.6021,474.8056],[-5.4607,36.5888,430.994],[-5.4627,36.589,430.1312],[-5.4768,36.5741,518.7357],[-5.4894,36.5705,548.471],[-5.4936,36.5601,472.5813],[-5.5019,36.5476,435.9384],[-5.5126,36.5424,397.825],[-5.522,36.5318,267.5936],[-5.5369,36.5272,203.2216],[-5.5399,36.5365,241.6589],[-5.5434,36.5384,241.5989],[-5.5669,36.5425,335.8479],[-5.5711,36.5474,381.5752],[-5.5741,36.5483,348.145],[-5.5793,36.5475,359.5723],[-5.5996,36.5507,524.6694],[-5.6101,36.5446,693.3536],[-5.6116,36.5416,738.9929],[-5.6093,36.5369,789.8134],[-5.6103,36.5341,809.2888],[-5.6061,36.5253,957.0288],[-5.6081,36.5123,1078.1191],[-5.5982,36.5085,941.4806],[-5.5829,36.5139,823.0067],[-5.5719,36.5126,687.3829],[-5.5599,36.5035,612.5995],[-5.5341,36.5028,369.3497],[-5.5241,36.4977,247.0819],[-5.5162,36.5009,157.3611],[-5.5142,36.5104,320.7516],[-5.5075,36.5157,483.8726],[-5.5081,36.518,465.8709],[-5.5005,36.5275,574.0911],[-5.496,36.5309,601.5293],[-5.4928,36.5361,634.722],[-5.4906,36.5368,694.8368],[-5.474,36.5366,784.9014],[-5.471,36.5355,795.984],[-5.4684,36.5302,778.484],[-5.4651,36.5279,766.0372],[-5.4615,36.5372,644.3681],[-5.453,36.5378,630.3023],[-5.4322,36.5343,407.3108],[-5.4276,36.5309,334.9675],[-5.425,36.5246,251.1383],[-5.4133,36.5207,162.8773],[-5.4144,36.5182,154.7753],[-5.4112,36.5043,96.216],[-5.4088,36.5002,88.5923],[-5.4097,36.4966,72.9221],[-5.404,36.4946,69.8113],[-5.4032,36.4903,52.5902],[-5.3989,36.4844,71.0117],[-5.3952,36.4693,173.8347],[-5.3741,36.4536,149.2029],[-5.3553,36.4338,265.3386],[-5.3579,36.4319,219.6674],[-5.3571,36.4239,196.1197],[-5.347,36.4187,199.0618],[-5.3381,36.3978,25.3251],[-5.3348,36.3949,22.7142],[-5.3363,36.3829,129.4095],[-5.3339,36.3789,134.151],[-5.3347,36.37,70.7319],[-5.3259,36.3576,40.7149],[-5.3205,36.3461,10.5501],[-5.315,36.3434,8.0939],[-5.3154,36.3409,7.7198],[-5.3229,36.3322,7.5181],[-5.3199,36.3251,6.7782]]],
[[[-4.4187,36.711,0.4647],[-4.4168,36.7124,0.1082],[-4.4218,36.7115,1.1155],[-4.4212,36.7104,2.2435],[-4.4187,36.711,0.4647]]]]}}