{"type":"Feature","properties":{"GID_3":"ESP.8.1.3_1","GID_0":"ESP","country":"Spain","GID_1":"ESP.8_1","province":"ComunidaddeMadrid","NL_NAME_1":"NA","GID_2":"ESP.8.1_1","county":"Madrid","NL_NAME_2":"NA","city":"n.a.(177)","VARNAME_3":"NA","NL_NAME_3":"NA","TYPE_3":"Comarca","ENGTYPE_3":"Comarca","CC_3":"NA","HASC_3":"NA","name":"n.a.(177).city"},
"geometry":{"type": "MultiPolygon","coordinates": [[[[-3.6639,40.2209,631.0228],[-3.6442,40.2297,603.0323],[-3.6379,40.2397,592.5057],[-3.6324,40.2604,613.6272],[-3.626,40.2659,612.4889],[-3.5949,40.2745,627.6082],[-3.5966,40.2854,668.8673],[-3.589,40.284,680.3263],[-3.5763,40.2881,655.7399],[-3.5719,40.2873,662.8186],[-3.5659,40.2917,656.4634],[-3.563,40.2912,650.1433],[-3.551,40.2976,613.0282],[-3.5446,40.2941,526.3486],[-3.5453,40.2913,523.8371],[-3.5438,40.2904,521.0079],[-3.5326,40.2938,521.4312],[-3.5269,40.2933,525.3315],[-3.5249,40.2957,522.3027],[-3.5192,40.2933,529.1439],[-3.5169,40.2972,526.2722],[-3.5083,40.3011,532.5486],[-3.5135,40.3043,528.7184],[-3.5129,40.3054,528.7184],[-3.5047,40.3085,529.366],[-3.5141,40.3139,529.0536],[-3.5099,40.3186,532.6448],[-3.5063,40.3169,531.5409],[-3.4928,40.3164,532.6778],[-3.4853,40.3244,531.8685],[-3.4829,40.3242,534.1588],[-3.4769,40.3193,536.855],[-3.4708,40.3197,539.0639],[-3.4718,40.3382,539.3806],[-3.4536,40.3433,570.2189],[-3.4515,40.3576,590.0373],[-3.4548,40.3618,587.7626],[-3.4594,40.3804,604.7218],[-3.4639,40.3839,571.7942],[-3.4626,40.3873,593.0115],[-3.4653,40.3886,598.257],[-3.4587,40.3897,613.3761],[-3.4554,40.3943,648.9555],[-3.4541,40.3934,639.4777],[-3.4485,40.3952,647.4647],[-3.4492,40.3975,656.6443],[-3.4402,40.4055,681.6831],[-3.4409,40.4126,674.6265],[-3.4352,40.4131,628.5578],[-3.4317,40.4155,630.5787],[-3.4376,40.4319,573.2259],[-3.4352,40.4315,575.5096],[-3.4295,40.426,593.2852],[-3.4197,40.4235,624.3953],[-3.4103,40.4266,633.1165],[-3.4139,40.431,601.106],[-3.4125,40.4358,607.9694],[-3.4167,40.4373,591.4478],[-3.4223,40.4424,574.2701],[-3.418,40.4469,582.4347],[-3.419,40.4511,574.6185],[-3.4337,40.454,567.9072],[-3.4451,40.4452,563.4398],[-3.4471,40.4463,564.7577],[-3.4305,40.4616,575.1196],[-3.4332,40.4666,587.0978],[-3.4288,40.4692,584.9903],[-3.4282,40.4721,590.1349],[-3.4251,40.4726,578.3093],[-3.4306,40.4889,597.2529],[-3.4298,40.492,599.3474],[-3.4279,40.4922,596.4785],[-3.4293,40.511,613.6971],[-3.4497,40.5042,613.1634],[-3.4683,40.4931,609.3395],[-3.4798,40.4945,617.3677],[-3.4953,40.517,658.8134],[-3.5077,40.5301,700.8251],[-3.5115,40.5389,734.1827],[-3.5224,40.547,660.2139],[-3.5297,40.5549,656.767],[-3.5504,40.5648,600.9869],[-3.5459,40.5659,616.3403],[-3.5436,40.5722,628.0989],[-3.5391,40.5726,630.8311],[-3.5383,40.5772,627.1519],[-3.5397,40.5789,627.6453],[-3.5378,40.5798,629.4036],[-3.5399,40.5826,626.7039],[-3.5453,40.5839,619.4006],[-3.5495,40.5873,615.7706],[-3.553,40.5864,612.7532],[-3.5614,40.5879,594.3267],[-3.5616,40.5927,602.8767],[-3.5654,40.593,594.8277],[-3.5657,40.5983,596.2823],[-3.5758,40.6019,596.6763],[-3.5776,40.608,601.4627],[-3.5745,40.6109,601.6556],[-3.574,40.618899999999996,603.0135],[-3.5798,40.6193,605.0283],[-3.5807,40.6231,603.5179],[-3.5894,40.6336,609.9854],[-3.5916,40.6403,610.14],[-3.5894,40.6449,626.0101],[-3.5919,40.6489,612.842],[-3.6109,40.6505,644.1133],[-3.6324,40.6395,682.2831],[-3.6382,40.6394,693.8844],[-3.6488,40.643,702.2341],[-3.6524,40.6468,711.037],[-3.6428,40.66,652.9631],[-3.6399,40.6669,695.2582],[-3.6408,40.671,700.2595],[-3.6481,40.674,712.2976],[-3.6507,40.6798,741.9525],[-3.6422,40.6872,699.5595],[-3.6432,40.695,791.9532],[-3.6444,40.6957,778.5785],[-3.6461,40.6937,719.1343],[-3.6531,40.6944,831.2179],[-3.6594,40.6964,858.4761],[-3.6634,40.7007,871.9579],[-3.6751,40.7029,914.1869],[-3.68,40.709,940.4244],[-3.6736,40.7191,988.7256],[-3.6773,40.7216,993.6486],[-3.6763,40.7283,1094.8944],[-3.6837,40.7301,1090.5786],[-3.6905,40.7282,1100.3838],[-3.691,40.7297,1106.9565],[-3.6949,40.7296,1184.3616],[-3.697,40.7274,1188.0544],[-3.7066,40.7255,1271.6638],[-3.7064,40.7272,1299.0439],[-3.7102,40.7295,1399.9999],[-3.7179,40.7285,1237.0355],[-3.7261,40.7309,1123.8997],[-3.7327,40.7305,1037.9623],[-3.736,40.7322,1052.1218],[-3.7484,40.726,1076.0624],[-3.7582,40.7168,1042.0387],[-3.7652,40.714,1012.0212],[-3.7729,40.7045,960.495],[-3.7828,40.7046,935.0936],[-3.7874,40.709,914.54],[-3.8016,40.7118,894.1854],[-3.8029,40.7098,886.4103],[-3.8057,40.711,892.6698],[-3.8103,40.7064,884.796],[-3.8141,40.7049,875.5976],[-3.8318,40.6778,851.3549],[-3.8375,40.6664,924.5936],[-3.852,40.6641,978.123],[-3.8573,40.6612,977.6056],[-3.858,40.6543,985.6284],[-3.8623,40.647,1116.6292],[-3.8647,40.6477,1104.3134],[-3.8651,40.6458,1146.2207],[-3.8602,40.6418,1045.0302],[-3.8534,40.6291,938.6097],[-3.8504,40.6119,858.7172],[-3.8493,40.6107,858.7172],[-3.8443,40.6118,835.5215],[-3.8416,40.5923,805.1665],[-3.8586,40.5881,706.098],[-3.8681,40.5923,802.5542],[-3.874,40.5913,842.3668],[-3.8836,40.5856,844.5471],[-3.8853,40.5745,749.1002],[-3.8902,40.5724,731.4381],[-3.8952,40.5679,738.2799],[-3.9057,40.5632,781.5955],[-3.909,40.5648,788.845],[-3.9198,40.5578,774.9086],[-3.9293,40.5577,726.9454],[-3.9319,40.5599,752.2717],[-3.9301,40.5539,706.9769],[-3.9324,40.5525,738.1344],[-3.9322,40.5505,731.2871],[-3.9344,40.552,726.5333],[-3.936,40.5487,722.6544],[-3.9421,40.548,731.0381],[-3.9454,40.551,699.7782],[-3.9498,40.5396,646.4579],[-3.947,40.5357,633.7529],[-3.9406,40.5316,627.2078],[-3.9398,40.5292,630.1238],[-3.9401,40.5182,619.5],[-3.9422,40.5159,628.8807],[-3.9406,40.5124,619.1628],[-3.9381,40.5119,614.7957],[-3.9398,40.5079,615.1515],[-3.9507,40.5103,648.5566],[-3.9558,40.5144,644.1198],[-3.9624,40.5159,658.8801],[-3.9664,40.519,672.9161],[-3.9844,40.5164,675.3866],[-3.9876,40.5095,685.8288],[-3.9952,40.5013,669.4141],[-3.9965,40.4937,654.5344],[-3.9984,40.4928,640.9244],[-4.0008,40.4857,617.2861],[-3.9991,40.4806,619.0894],[-3.9918,40.4746,621.6171],[-3.9929,40.4727,611.6637],[-4.0148,40.4707,660.8205],[-4.0263,40.4627,628.2399],[-4.0284,40.4594,622.123],[-4.0402,40.4588,618.8507],[-4.0434,40.4536,594.803],[-4.0417,40.4486,617.8179],[-4.0494,40.4456,588.6808],[-4.0566,40.4468,611.0203],[-4.0692,40.4457,672.7384],[-4.0784,40.4412,623.889],[-4.071,40.4239,549.7096],[-4.0787,40.4216,542.0338],[-4.0807,40.4191,538.4993],[-4.0964,40.4167,530.9062],[-4.0977,40.4139,531.0861],[-4.1043,40.4121,560.3671],[-4.1117,40.4056,559.8949],[-4.111,40.4028,554.5305],[-4.0957,40.4031,533.6942],[-4.0929,40.4015,532.2115],[-4.0893,40.4021,545.9149],[-4.087,40.4,541.7086],[-4.0844,40.401,542.4959],[-4.0821,40.3985,549.0662],[-4.0738,40.3985,551.4755],[-4.0571,40.3887,580.1638],[-4.0532,40.3896,571.3494],[-4.0466,40.3883,577.4811],[-4.041,40.3853,599.134],[-4.0344,40.3778,608.3855],[-4.0286,40.3767,632.825],[-4.0272,40.3734,628.9589],[-4.0223,40.3724,632.9178],[-4.0111,40.3645,657.1491],[-4.007,40.3637,648.2451],[-4.0051,40.3591,650.3137],[-4.0027,40.3577,650.4561],[-4.0039,40.3538,652.4485],[-4.0003,40.3512,641.7104],[-3.9986,40.3433,630.4274],[-4.006,40.3392,637.1089],[-4.0015,40.3335,650.0165],[-3.9707,40.3209,627.0315],[-3.9666,40.3141,623.5621],[-3.957,40.3052,604.4561],[-3.9499,40.3015,580.8995],[-3.9415,40.3007,561.0676],[-3.942,40.3062,561.0803],[-3.9452,40.3097,561.5045],[-3.9426,40.3184,565.751],[-3.9453,40.3231,568.2882],[-3.9346,40.3303,629.0789],[-3.9323,40.3335,644.7469],[-3.9342,40.3375,629.3405],[-3.9224,40.3397,656.4183],[-3.9178,40.3388,655.7722],[-3.9133,40.3428,652.3239],[-3.9063,40.3442,650.3748],[-3.8988,40.3496,656.0872],[-3.8967,40.3489,659.0715],[-3.8816,40.3541,694.6206],[-3.8677,40.3535,697.4979],[-3.8668,40.3469,683.7296],[-3.8591,40.3434,677.955],[-3.8542,40.3305,678.3527],[-3.8468,40.3242,667.2808],[-3.8177,40.3277,704.6301],[-3.8121,40.3124,687.6796],[-3.8119,40.3037,690.4698],[-3.8089,40.3016,689.8538],[-3.8032,40.2987,680.0991],[-3.778,40.2957,651.4995],[-3.7744,40.2931,638.7719],[-3.7665,40.295,655.4194],[-3.7614,40.2943,661.3865],[-3.7545,40.2779,618.4866],[-3.7414,40.2715,612.8085],[-3.7472,40.2549,646.6481],[-3.736,40.2531,621.3479],[-3.7393,40.2304,619.0165],[-3.7376,40.2214,614.9789],[-3.739,40.2164,620.9015],[-3.7332,40.2112,615.1082],[-3.7139,40.2056,627.5254],[-3.6998,40.1991,636.2328],[-3.6925,40.2116,642.2917],[-3.6766,40.2202,629.9723],[-3.6639,40.2209,631.0228]]]]}}