{"type":"Feature","properties":{"GID_3":"ESP.11.2.8_1","GID_0":"ESP","country":"Spain","GID_1":"ESP.11_1","province":"Extremadura","NL_NAME_1":"NA","GID_2":"ESP.11.2_1","county":"Cáceres","NL_NAME_2":"NA","city":"n.a.(76)","VARNAME_3":"NA","NL_NAME_3":"NA","TYPE_3":"Comarca","ENGTYPE_3":"Comarca","CC_3":"NA","HASC_3":"NA","name":"n.a.(76).city"},
"geometry":{"type": "MultiPolygon","coordinates": [[[[-7.3904,39.5036,228.4393],[-7.3872,39.5015,214.865],[-7.3864,39.4984,236.4173],[-7.3791,39.4964,199.2753],[-7.3788,39.4945,205.2616],[-7.3819,39.4912,213.3814],[-7.365,39.4862,232.8242],[-7.3647,39.482,263.4321],[-7.3622,39.4814,256.2895],[-7.3605,39.4834,263.1382],[-7.3478,39.488,261.686],[-7.3476,39.4834,267.4352],[-7.3438,39.4781,287.7819],[-7.3381,39.479,286.0319],[-7.3326,39.4762,279.4638],[-7.323,39.4747,282.0706],[-7.3193,39.47,291.6083],[-7.3091,39.4676,286.9238],[-7.3044,39.4639,289.5057],[-7.3001,39.4631,291.2469],[-7.2957,39.4587,294.4557],[-7.2942,39.4566,303.8256],[-7.2959,39.4538,323.1563],[-7.3056,39.4461,331.5138],[-7.3061,39.4392,344.0094],[-7.3049,39.4377,351.0142],[-7.3086,39.4303,377.6846],[-7.3014,39.4227,372.7051],[-7.3029,39.4199,374.9034],[-7.3011,39.4169,381.1087],[-7.3033,39.4152,379.204],[-7.3026,39.4122,380.6108],[-7.3055,39.4111,381.1198],[-7.3085,39.4046,402.3298],[-7.3075,39.4029,413.0526],[-7.3102,39.3985,402.8866],[-7.3135,39.3995,412.7469],[-7.3149,39.3941,468.7784],[-7.3214,39.3866,517.8388],[-7.3229,39.382,556.5875],[-7.3211,39.378,558.3817],[-7.3178,39.3781,646.545],[-7.3156,39.3722,647.6699],[-7.3115,39.371,661.0353],[-7.3104,39.3617,714.5973],[-7.3063,39.3563,702.4766],[-7.306,39.3511,647.0703],[-7.3103,39.341,866.0],[-7.3075,39.3361,947.4146],[-7.302,39.3317,944.2592],[-7.2923,39.3288,832.3317],[-7.2908,39.326,788.1697],[-7.2879,39.3247,719.9568],[-7.288,39.3231,686.9985],[-7.2815,39.3206,757.563],[-7.2726,39.3113,782.3388],[-7.2689,39.3094,787.9799],[-7.2702,39.3042,760.1157],[-7.267,39.301,728.8145],[-7.2356,39.2801,567.3157],[-7.2037,39.2657,505.6555],[-7.1942,39.2754,418.2581],[-7.1886,39.2847,467.4119],[-7.1716,39.2977,333.1759],[-7.1696,39.3059,355.0392],[-7.1612,39.3121,342.1618],[-7.1551,39.3145,332.2413],[-7.1554,39.3174,338.1268],[-7.1519,39.3215,346.8608],[-7.1553,39.3297,421.8921],[-7.1601,39.3306,433.9212],[-7.1657,39.3261,426.2018],[-7.1684,39.3202,357.0165],[-7.1766,39.3274,439.3948],[-7.1771,39.3376,463.2337],[-7.1649,39.3514,516.5699],[-7.1614,39.3571,534.7166],[-7.1613,39.3608,519.7528],[-7.1542,39.3675,496.9539],[-7.1371,39.3768,445.1264],[-7.1337,39.3748,441.8586],[-7.1254,39.3812,429.5833],[-7.1043,39.386,429.4913],[-7.0987,39.3851,435.4303],[-7.0931,39.38,441.7341],[-7.0797,39.3793,460.0151],[-7.0738,39.3812,465.5591],[-7.0701,39.3742,442.0864],[-7.0629,39.3723,442.1615],[-7.0692,39.3667,419.4625],[-7.079,39.3514,438.6894],[-7.0985,39.3591,454.5403],[-7.1027,39.3553,470.2101],[-7.102,39.3464,477.2265],[-7.0882,39.3404,467.4887],[-7.0826,39.3353,474.2956],[-7.0841,39.323,412.0889],[-7.0812,39.3132,366.3549],[-7.077,39.3102,376.8391],[-7.0503,39.3216,404.187],[-7.044,39.3269,408.0396],[-7.0487,39.3294,414.5958],[-7.0479,39.3335,421.1231],[-7.0299,39.3509,370.2681],[-7.0293,39.3592,405.8505],[-7.0325,39.3676,430.7095],[-7.0213,39.3713,398.2964],[-7.0181,39.3786,390.978],[-7.0187,39.3831,406.1052],[-7.0092,39.3885,426.4443],[-7.0174,39.392,425.4812],[-7.0381,39.3965,440.8331],[-7.0496,39.402,479.0065],[-7.0669,39.4143,489.6848],[-7.0493,39.4367,551.9948],[-7.0321,39.4305,502.8231],[-7.0295,39.4318,511.579],[-6.9953,39.4246,514.5361],[-6.9893,39.4198,516.2308],[-6.9825,39.4194,534.2377],[-6.9806,39.4143,645.1348],[-6.9776,39.4125,660.6733],[-6.9357,39.3968,578.3887],[-6.9239,39.3946,587.4068],[-6.9076,39.3889,435.5815],[-6.8969,39.3895,499.1421],[-6.8831,39.3828,402.6866],[-6.8721,39.3824,477.8243],[-6.8566,39.3888,451.9272],[-6.8468,39.3875,430.0325],[-6.8309,39.3884,414.5014],[-6.8113,39.3914,387.698],[-6.802,39.3895,349.7271],[-6.7953,39.397,372.7013],[-6.798,39.4035,366.2386],[-6.797,39.407,353.6565],[-6.791,39.4098,336.2787],[-6.7897,39.4128,337.0587],[-6.7799,39.4211,322.5461],[-6.777,39.4293,311.4642],[-6.7654,39.437,265.4661],[-6.7605,39.4382,252.0179],[-6.7633,39.4422,246.1996],[-6.7625,39.4443,231.5025],[-6.7676,39.4461,226.5204],[-6.7812,39.4434,240.787],[-6.783,39.4397,221.0886],[-6.7948,39.4458,245.3217],[-6.8068,39.4474,212.5342],[-6.809,39.4522,220.6552],[-6.831,39.4607,209.4725],[-6.8381,39.466,216.5241],[-6.8499,39.4672,213.8414],[-6.8559,39.4711,210.9101],[-6.8654,39.4711,204.1118],[-6.8698,39.476,206.4133],[-6.8816,39.484,202.4462],[-6.8992,39.4896,192.451],[-6.9059,39.4947,194.4027],[-6.9194,39.497,189.6733],[-6.9221,39.5001,173.1182],[-6.9348,39.5055,171.1357],[-6.9364,39.5101,168.3791],[-6.9424,39.5133,167.3165],[-6.9421,39.5161,167.9133],[-6.9453,39.5195,225.7878],[-6.9526,39.5223,164.9293],[-6.9543,39.526,175.8228],[-6.9595,39.5305,161.8829],[-6.9601,39.5353,162.5329],[-6.966,39.5355,169.7016],[-6.9686,39.5375,199.1453],[-6.9684,39.5411,163.3429],[-6.9739,39.5484,161.2621],[-6.9853,39.5549,184.1503],[-6.9925,39.5628,156.0721],[-6.9927,39.5674,179.2207],[-6.9964,39.5739,160.6963],[-7.0019,39.5751,183.2023],[-7.014,39.5879,171.0667],[-7.0164,39.5972,143.7694],[-7.0127,39.6076,142.4813],[-7.0197,39.6125,141.4564],[-7.0308,39.6261,139.7534],[-7.0326,39.6276,141.2008],[-7.0365,39.6274,150.3711],[-7.0341,39.6325,169.4319],[-7.0373,39.6347,138.4124],[-7.0399,39.6414,129.2012],[-7.0649,39.6581,114.0],[-7.0732,39.6582,128.824],[-7.0894,39.6634,120.0842],[-7.1228,39.6638,160.2704],[-7.128,39.6627,118.5275],[-7.1428,39.6538,132.0337],[-7.1514,39.6531,114.0],[-7.2015,39.6622,126.031],[-7.2157,39.6599,116.0746],[-7.2515,39.6668,116.5733],[-7.2865,39.6607,113.5],[-7.2952,39.6544,113.5],[-7.3184,39.6485,113.5],[-7.327,39.6427,116.7769],[-7.3337,39.6408,113.5],[-7.3752,39.6508,113.5],[-7.3918,39.6497,113.5],[-7.403,39.6463,117.3535],[-7.4253,39.6511,113.5],[-7.4397,39.6588,151.9072],[-7.4555,39.6624,116.8847],[-7.4769,39.6628,113.5],[-7.4918,39.6658,113.5],[-7.5305,39.6673,123.0247],[-7.5409,39.6646,90.6624],[-7.5417,39.6637,86.4801],[-7.5372,39.6614,124.505],[-7.5321,39.6622,152.3165],[-7.5317,39.6584,115.5902],[-7.5276,39.6559,117.0803],[-7.5276,39.6475,122.1892],[-7.5247,39.6428,116.1573],[-7.5274,39.6349,141.973],[-7.5207,39.6262,134.4625],[-7.5101,39.6188,115.2558],[-7.5078,39.6067,134.1797],[-7.5046,39.6043,128.2643],[-7.5039,39.6008,144.8986],[-7.5001,39.5994,124.4698],[-7.4994,39.5896,133.3676],[-7.4949,39.5861,127.6005],[-7.4883,39.5868,137.831],[-7.4789,39.5788,143.0207],[-7.4669,39.577,182.2571],[-7.4655,39.5739,155.7506],[-7.4612,39.5728,144.9207],[-7.4598,39.5668,152.5615],[-7.4526,39.5627,155.8609],[-7.448,39.5518,159.0084],[-7.4446,39.5513,160.2552],[-7.4465,39.5481,161.5639],[-7.4435,39.5471,196.5381],[-7.4417,39.5432,162.2348],[-7.4303,39.5345,190.6796],[-7.4267,39.5327,168.7879],[-7.422,39.5345,171.6642],[-7.4184,39.5315,170.5446],[-7.4105,39.5323,196.9014],[-7.4062,39.5306,169.9029],[-7.4001,39.5338,219.5567],[-7.3907,39.5297,177.328],[-7.3928,39.5272,190.7276],[-7.3885,39.524,197.1921],[-7.3889,39.5138,218.7468],[-7.3877,39.5104,196.6814],[-7.39,39.5079,199.9074],[-7.3904,39.5036,228.4393]]]]}}