{"type":"Feature","properties":{"GID_3":"ESP.1.6.5_1","GID_0":"ESP","country":"Spain","GID_1":"ESP.1_1","province":"Andalucía","NL_NAME_1":"NA","GID_2":"ESP.1.6_1","county":"Jaén","NL_NAME_2":"NA","city":"LalomayLasvillas","VARNAME_3":"NA","NL_NAME_3":"NA","TYPE_3":"Comarca","ENGTYPE_3":"Comarca","CC_3":"NA","HASC_3":"NA","name":"Lalomay_Lasvillas.city"},
"geometry":{"type": "MultiPolygon","coordinates": [[[[-3.5899,37.8667,486.8666],[-3.5874,37.8657,495.3243],[-3.5867,37.8612,503.3265],[-3.5823,37.8584,513.5211],[-3.5801,37.8533,551.7245],[-3.5738,37.8597,563.4136],[-3.5609,37.8627,552.3251],[-3.5451,37.8625,533.7161],[-3.5297,37.866,498.1569],[-3.5193,37.8622,571.6924],[-3.5107,37.8685,531.9001],[-3.5069,37.8784,548.5164],[-3.5026,37.8844,511.9767],[-3.4938,37.8894,466.9924],[-3.4853,37.8886,464.8382],[-3.4697,37.8916,402.9447],[-3.4557,37.8897,450.5841],[-3.4524,37.8909,472.4414],[-3.4507,37.8997,385.7792],[-3.4515,37.9171,327.7525],[-3.4563,37.919,316.4417],[-3.4543,37.9195,309.8344],[-3.4547,37.9262,302.2401],[-3.4526,37.9273,297.2952],[-3.4485,37.9254,304.8875],[-3.4378,37.9266,303.7071],[-3.4395,37.9316,295.2997],[-3.4351,37.9317,296.7936],[-3.4349,37.9258,299.2569],[-3.429,37.9166,302.2775],[-3.4203,37.9193,301.1653],[-3.4189,37.9181,301.3445],[-3.4197,37.9155,303.9849],[-3.4091,37.9063,319.7982],[-3.4041,37.908,319.9122],[-3.3968,37.9045,323.4641],[-3.3896,37.9072,321.6736],[-3.3825,37.9055,320.2437],[-3.3791,37.9076,320.1545],[-3.381,37.912,320.7169],[-3.3779,37.913,321.5136],[-3.369,37.9108,321.6158],[-3.3624,37.9144,322.3542],[-3.361,37.9177,323.0588],[-3.3578,37.9184,323.0035],[-3.3558,37.9177,323.5894],[-3.3552,37.9135,355.3058],[-3.3398,37.9091,402.4524],[-3.3304,37.9085,418.9801],[-3.3227,37.9054,425.4752],[-3.3107,37.8948,398.9152],[-3.2978,37.8869,418.2459],[-3.2934,37.8757,472.5773],[-3.288,37.8691,563.0019],[-3.281,37.8647,556.1527],[-3.2812,37.8452,522.7724],[-3.2758,37.8367,499.6501],[-3.2735,37.8197,545.9966],[-3.2325,37.8256,463.6781],[-3.2292,37.8273,449.883],[-3.2275,37.8314,433.9108],[-3.2209,37.8356,420.3185],[-3.208,37.8386,398.3403],[-3.2039,37.8461,391.9323],[-3.2065,37.8555,412.1068],[-3.2165,37.8555,385.2845],[-3.2192,37.8613,381.9626],[-3.2085,37.8673,388.5616],[-3.2088,37.8706,383.3175],[-3.2133,37.8731,382.1031],[-3.2094,37.8904,371.7383],[-3.2159,37.8967,369.7665],[-3.2128,37.9027,366.5646],[-3.2171,37.9036,364.8912],[-3.2199,37.9021,364.3437],[-3.2239,37.9026,363.2524],[-3.2255,37.9044,361.9506],[-3.2234,37.9087,362.0884],[-3.2212,37.9096,369.5248],[-3.2222,37.9158,359.5187],[-3.2273,37.9185,358.947],[-3.2343,37.9186,361.1175],[-3.2304,37.9267,354.1466],[-3.2314,37.9282,353.3605],[-3.2361,37.9281,352.4806],[-3.2418,37.9255,351.0984],[-3.2436,37.9266,351.5701],[-3.2435,37.9319,350.335],[-3.2451,37.9327,353.7068],[-3.2466,37.9324,358.7766],[-3.2461,37.9291,348.4977],[-3.2543,37.9251,347.6765],[-3.2537,37.9298,348.1757],[-3.2578,37.9309,351.0446],[-3.2555,37.9352,349.6433],[-3.2501,37.935,355.0863],[-3.25,37.9381,347.3816],[-3.2431,37.943,352.0616],[-3.2414,37.9426,351.8477],[-3.2416,37.9381,352.1207],[-3.2383,37.9349,364.0444],[-3.2363,37.934,348.6822],[-3.2323,37.9353,370.9606],[-3.2324,37.9394,351.894],[-3.2359,37.9404,352.7331],[-3.2364,37.944,353.6849],[-3.2326,37.9473,364.9322],[-3.2291,37.9455,355.2743],[-3.2184,37.9452,375.4327],[-3.2186,37.9492,359.5818],[-3.2211,37.9519,357.3301],[-3.2186,37.9565,357.2274],[-3.2151,37.9562,365.4442],[-3.2128,37.9507,359.238],[-3.1984,37.958,363.3233],[-3.1928,37.9557,362.6066],[-3.1907,37.9587,363.2816],[-3.1855,37.9603,375.6659],[-3.1843,37.9667,376.1189],[-3.1753,37.968,372.6532],[-3.1727,37.9739,378.5812],[-3.1589,37.9799,387.1893],[-3.1606,37.9872,375.5465],[-3.159,37.9962,376.5532],[-3.153,37.9984,387.4368],[-3.1515,38.001,378.9611],[-3.1568,38.0042,383.6025],[-3.1585,38.0088,383.5418],[-3.152,38.0137,385.5638],[-3.1468,38.0111,393.0272],[-3.1436,38.0127,389.0957],[-3.144,38.0165,386.912],[-3.1482,38.0191,388.7269],[-3.1338,38.0246,390.3886],[-3.1332,38.0268,391.583],[-3.1377,38.0326,399.4781],[-3.1354,38.0366,407.727],[-3.1253,38.0318,399.0519],[-3.1184,38.042,398.9123],[-3.116,38.0413,399.8002],[-3.1177,38.0374,401.0424],[-3.1166,38.0356,402.0301],[-3.112,38.0343,401.7253],[-3.1093,38.0346,402.0152],[-3.1034,38.0413,405.5184],[-3.0988,38.0415,404.4274],[-3.0937,38.0353,407.0948],[-3.0896,38.034,405.3236],[-3.0871,38.035,416.9366],[-3.0877,38.0418,410.8937],[-3.0797,38.0462,415.0727],[-3.0738,38.0434,415.4899],[-3.0658,38.0426,442.1295],[-3.0574,38.0357,516.28],[-3.0527,38.0348,594.3512],[-3.0506,38.0313,643.0246],[-3.0446,38.032,640.6147],[-3.0403,38.0373,671.8396],[-3.0282,38.0404,752.649],[-3.0191,38.0413,780.8502],[-3.0096,38.0401,911.3278],[-2.9967,38.0419,991.5097],[-2.9926,38.0408,962.0256],[-2.9784,38.0291,1211.3279],[-2.9729,38.038,1251.9934],[-2.9681,38.0401,1223.7217],[-2.9617,38.0393,1140.2778],[-2.9555,38.0405,1042.5601],[-2.9549,38.0378,1072.6389],[-2.95,38.0338,1093.3009],[-2.9427,38.0335,1212.9032],[-2.937,38.0308,1335.2776],[-2.9329,38.0236,1429.0254],[-2.9193,38.0168,1491.5664],[-2.904,38.0237,1458.8427],[-2.897,38.0378,1502.4102],[-2.8997,38.0398,1439.2793],[-2.9002,38.0461,1458.4563],[-2.9028,38.0482,1469.9597],[-2.9001,38.0552,1503.86],[-2.9019,38.0597,1573.0715],[-2.8991,38.0625,1601.5601],[-2.8888,38.0648,1474.1049],[-2.8781,38.0726,1474.6075],[-2.8741,38.0728,1574.2062],[-2.8705,38.081,1705.8566],[-2.8672,38.0845,1792.9155],[-2.8596,38.0845,1725.0505],[-2.8553,38.0892,1660.0627],[-2.8562,38.0947,1613.9492],[-2.8479,38.0974,1725.229],[-2.8407,38.1048,1698.0062],[-2.8366,38.1182,1639.6558],[-2.8221,38.1425,1530.3253],[-2.8235,38.1472,1479.9468],[-2.8197,38.1547,1417.2085],[-2.8043,38.1718,967.345],[-2.7958,38.1741,622.7854],[-2.7967,38.1812,806.9325],[-2.8039,38.193,1209.1249],[-2.7912,38.2063,1230.0785],[-2.802,38.211,1223.2305],[-2.8111,38.2081,1175.4292],[-2.8125,38.2096,1159.1155],[-2.8187,38.2082,1176.24],[-2.824,38.2093,1199.4808],[-2.824,38.2116,1175.7036],[-2.8295,38.2114,1247.658],[-2.8299,38.2161,1229.2157],[-2.8362,38.2194,1211.6533],[-2.8519,38.2195,1172.0321],[-2.857,38.2179,1093.8525],[-2.8647,38.2191,1073.797],[-2.8665,38.2161,1004.2191],[-2.8729,38.213,1021.922],[-2.8773,38.2159,1100.6045],[-2.9041,38.219,1119.4078],[-2.9103,38.2181,1090.1978],[-2.9148,38.2155,1047.7004],[-2.9184,38.2157,1076.0884],[-2.9415,38.2262,814.369],[-2.9599,38.2287,694.6592],[-2.9689,38.2258,663.3986],[-2.9755,38.2189,643.2568],[-2.975,38.2141,626.8087],[-2.9734,38.2131,629.6421],[-2.9759,38.2124,615.6755],[-2.9761,38.2094,592.168],[-2.9796,38.2072,595.8334],[-2.986,38.2108,596.5907],[-3.0013,38.2153,538.2044],[-3.0082,38.2125,512.8267],[-3.009,38.2108,521.2994],[-3.0107,38.2128,489.978],[-3.022,38.2155,439.2888],[-3.0212,38.2065,514.4386],[-3.0238,38.2021,525.7424],[-3.0334,38.2045,449.8294],[-3.0357,38.1994,532.8397],[-3.0374,38.1991,486.6406],[-3.0408,38.2037,432.9972],[-3.0496,38.2066,432.602],[-3.0555,38.1971,428.7407],[-3.0629,38.197,429.0179],[-3.0657,38.199,433.5743],[-3.07,38.1981,429.0184],[-3.0729,38.1909,422.074],[-3.0773,38.1887,441.9083],[-3.083,38.1886,421.7933],[-3.0974,38.1775,420.088],[-3.1043,38.1777,433.2044],[-3.111,38.1758,425.8332],[-3.1169,38.171,418.1839],[-3.1215,38.1725,432.6281],[-3.1262,38.17,413.497],[-3.1293,38.1716,415.1248],[-3.1284,38.1744,422.8397],[-3.1303,38.1756,428.1747],[-3.1348,38.1755,441.8086],[-3.142,38.1678,419.2545],[-3.1438,38.1627,410.7286],[-3.1509,38.1569,428.1785],[-3.1544,38.1578,426.4044],[-3.1535,38.1634,407.4814],[-3.1552,38.1651,415.1993],[-3.1584,38.1651,414.7708],[-3.1604,38.1635,404.5464],[-3.161,38.1535,417.5698],[-3.1696,38.1554,416.6805],[-3.1833,38.1516,415.7966],[-3.1924,38.1432,406.4178],[-3.1985,38.1329,389.8605],[-3.1993,38.1443,402.6296],[-3.2012,38.1462,401.2418],[-3.2125,38.1446,412.4317],[-3.2109,38.1407,400.4631],[-3.2129,38.1405,397.0327],[-3.2208,38.1452,391.9965],[-3.2221,38.1411,395.3891],[-3.2302,38.14,394.0209],[-3.2382,38.1428,389.5659],[-3.2476,38.143,401.5939],[-3.2499,38.1376,385.2372],[-3.2486,38.1332,386.435],[-3.25,38.1321,386.435],[-3.256,38.1339,411.825],[-3.2586,38.1323,407.9078],[-3.2607,38.1288,401.8826],[-3.26,38.1223,371.0597],[-3.2648,38.1188,382.8655],[-3.2745,38.1225,363.5615],[-3.2838,38.1339,392.1377],[-3.2891,38.1257,357.4142],[-3.2912,38.125,356.6727],[-3.2981,38.127,372.3525],[-3.2962,38.134,353.6661],[-3.2991,38.1391,381.8311],[-3.3088,38.1349,360.7243],[-3.3119,38.1268,359.1279],[-3.3167,38.1286,345.7934],[-3.3267,38.128,357.6088],[-3.3292,38.1255,346.5797],[-3.3395,38.1247,353.8441],[-3.3451,38.131,508.7734],[-3.3442,38.1376,529.3262],[-3.3526,38.1547,581.7405],[-3.366,38.1645,649.8431],[-3.3736,38.1664,616.7581],[-3.3862,38.1593,522.501],[-3.3947,38.1509,468.3367],[-3.3994,38.1492,444.4433],[-3.3994,38.141,410.5134],[-3.406,38.1234,372.1895],[-3.4194,38.1185,341.0],[-3.4248,38.1243,346.7404],[-3.4411,38.1271,341.0],[-3.4497,38.1158,341.0],[-3.4573,38.1126,341.0],[-3.4591,38.1102,341.0],[-3.4584,38.1072,341.0],[-3.4714,38.0978,341.0],[-3.481,38.0964,341.0],[-3.4828,38.0926,341.0],[-3.4942,38.0917,341.0],[-3.4985,38.0934,341.0],[-3.5012,38.0879,341.0],[-3.5033,38.0869,341.0],[-3.5111,38.0894,341.0],[-3.5152,38.0949,283.6099],[-3.52,38.0973,290.9429],[-3.5238,38.0959,278.9138],[-3.5299,38.0857,280.5245],[-3.5331,38.0852,292.0195],[-3.5389,38.0867,287.1459],[-3.546,38.0919,282.5634],[-3.5495,38.0965,271.1247],[-3.5655,38.0925,299.6138],[-3.5679,38.0895,276.7099],[-3.5689,38.0828,264.9295],[-3.5706,38.0814,266.2037],[-3.5796,38.0808,281.1706],[-3.5831,38.0773,273.1666],[-3.5853,38.0716,258.314],[-3.5864,38.0584,258.6754],[-3.5854,38.0463,263.1824],[-3.5873,38.0424,257.4395],[-3.5993,38.0393,267.8997],[-3.6127,38.0384,255.5596],[-3.6284,38.024,254.7214],[-3.6249,38.0194,267.171],[-3.6198,38.0184,273.2098],[-3.6172,38.0152,279.8883],[-3.6151,38.0169,282.2473],[-3.6089,38.0177,293.5781],[-3.5971,38.0151,319.9621],[-3.5974,38.0081,369.1231],[-3.5913,38.0064,409.4722],[-3.5898,38.0002,388.8364],[-3.5837,37.9904,430.8242],[-3.6049,37.985,415.4062],[-3.6221,37.9834,364.5797],[-3.6396,37.9724,361.5614],[-3.6365,37.9609,276.7516],[-3.6379,37.9584,257.6436],[-3.6335,37.9607,264.5146],[-3.6305,37.9538,258.7393],[-3.6274,37.9505,270.3763],[-3.6235,37.9493,271.545],[-3.6118,37.9518,272.5404],[-3.6081,37.9511,268.9369],[-3.6026,37.9556,267.4483],[-3.5956,37.9532,280.2514],[-3.5903,37.9576,276.3513],[-3.5887,37.9569,268.6375],[-3.5909,37.9548,275.6827],[-3.5879,37.948,292.0172],[-3.5735,37.9304,349.1654],[-3.5741,37.9199,372.9495],[-3.5708,37.9138,384.9056],[-3.5801,37.8902,434.823],[-3.5835,37.8884,438.8856],[-3.5833,37.8861,446.0392],[-3.592,37.877,464.3076],[-3.5899,37.8667,486.8666]]]]}}