{"type": "Feature","bbox": [-3.0297,41.4419,-2.3459,41.9021],"geometry": {"type": "MultiPolygon","coordinates": [[[[-2.8781,41.5199,904.4831],[-2.8767,41.5246,936.62],[-2.8694,41.5291,956.8959],[-2.8626,41.5184,896.4517],[-2.8571,41.5174,897.5744],[-2.8525,41.5133,899.6016],[-2.8394,41.5108,895.4066],[-2.8355,41.5146,898.507],[-2.8279,41.5295,972.8371],[-2.8228,41.53,965.2663],[-2.8192,41.5324,943.0352],[-2.8054,41.5314,908.2439],[-2.8022,41.5383,906.1082],[-2.7957,41.5362,918.5227],[-2.7927,41.5331,944.309],[-2.7934,41.5299,951.9961],[-2.7891,41.5271,984.0875],[-2.7813,41.5252,988.9539],[-2.7724,41.5286,984.3929],[-2.7604,41.5259,996.4431],[-2.7477,41.531,988.5594],[-2.7404,41.5239,980.1652],[-2.7235,41.5338,958.2545],[-2.6939,41.5284,1018.4446],[-2.6775,41.5447,1029.6436],[-2.6381,41.5486,958.4686],[-2.6195,41.5481,1037.1272],[-2.5927,41.5566,1062.2109],[-2.5712,41.5699,1059.2333],[-2.5636,41.5729,1082.0107],[-2.5323,41.5764,1078.4735],[-2.5306,41.5794,1082.1389],[-2.5181,41.5811,1097.6858],[-2.5021,41.5762,1087.0156],[-2.4948,41.5766,1079.2026],[-2.4809,41.5733,984.4325],[-2.4696,41.5806,1009.5892],[-2.4678,41.5842,983.139],[-2.459,41.5839,1058.7478],[-2.4567,41.5822,1028.2842],[-2.4556,41.5746,979.1312],[-2.4434,41.5803,974.0327],[-2.4371,41.5815,960.0485],[-2.4337,41.5852,960.1433],[-2.4278,41.5811,960.0881],[-2.4227,41.584,961.673],[-2.418,41.5833,962.0906],[-2.4175,41.5756,1044.8362],[-2.4137,41.5682,1030.9977],[-2.4023,41.5611,1017.0072],[-2.3674,41.5669,996.5285],[-2.3659,41.5702,985.7524],[-2.3637,41.5695,993.5952],[-2.3614,41.5721,1010.5172],[-2.3591,41.5763,988.1273],[-2.36,41.5779,981.3926],[-2.355,41.5792,977.79],[-2.351,41.5823,984.2396],[-2.357,41.5859,985.7488],[-2.3505,41.5931,965.8565],[-2.3519,41.5962,986.0603],[-2.3502,41.5998,989.458],[-2.3459,41.6025,989.7211],[-2.3658,41.6095,965.5289],[-2.3653,41.6178,973.5119],[-2.3733,41.6172,966.7172],[-2.3778,41.6285,971.1745],[-2.3697,41.635,969.5552],[-2.3756,41.6406,985.4404],[-2.3742,41.6443,970.9395],[-2.3758,41.6451,974.9297],[-2.3756,41.6495,973.8782],[-2.3737,41.6526,970.9283],[-2.3748,41.6544,972.4697],[-2.3602,41.6646,1018.2296],[-2.3606,41.6924,1017.4321],[-2.3564,41.6985,1014.1876],[-2.3638,41.6955,1014.843],[-2.385,41.6945,989.4018],[-2.4005,41.6973,1000.5583],[-2.4016,41.7035,1007.3163],[-2.4112,41.7051,1013.5316],[-2.4118,41.7081,1031.8282],[-2.4192,41.7116,1037.2102],[-2.4227,41.7222,1107.0399],[-2.4209,41.7288,1051.7852],[-2.4244,41.7272,1073.3042],[-2.4522,41.7233,1029.6794],[-2.4512,41.7281,999.0],[-2.4535,41.7312,1001.5745],[-2.4511,41.7338,1056.949],[-2.4287,41.736,1080.187],[-2.4187,41.7399,1083.7374],[-2.4166,41.7436,1090.2035],[-2.4185,41.7484,1111.4441],[-2.4086,41.7531,1092.219],[-2.3982,41.7694,1091.698],[-2.4103,41.7701,1084.2451],[-2.4282,41.7794,1073.6777],[-2.4334,41.7806,1058.8256],[-2.435,41.7913,1068.0709],[-2.4298,41.7978,1061.6505],[-2.4293,41.8069,1025.4269],[-2.425,41.8091,1018.0408],[-2.4214,41.8204,1041.4585],[-2.4156,41.8248,1025.4637],[-2.4177,41.8287,1023.2593],[-2.4414,41.8322,1015.0573],[-2.4398,41.8354,1014.0541],[-2.4417,41.8372,1014.516],[-2.4582,41.8395,1018.6781],[-2.4556,41.8483,1020.0765],[-2.457,41.8541,1039.0009],[-2.4686,41.8719,1078.8224],[-2.4757,41.8711,1080.5723],[-2.4756,41.8657,1044.5861],[-2.4812,41.8639,1036.2385],[-2.4931,41.8663,1270.71],[-2.5071,41.8814,1397.7357],[-2.5079,41.8872,1171.3765],[-2.5128,41.8861,1202.3699],[-2.527,41.8876,1196.2017],[-2.5363,41.8928,1236.7546],[-2.5404,41.8981,1218.865],[-2.5445,41.8985,1246.0314],[-2.5474,41.8933,1413.5797],[-2.5503,41.8931,1420.188],[-2.5712,41.9021,1436.7617],[-2.5773,41.8961,1309.2123],[-2.5864,41.8957,1308.9753],[-2.58,41.8838,1127.6121],[-2.5765,41.8429,1034.9949],[-2.586,41.8442,1029.0789],[-2.5907,41.849,1035.3362],[-2.6024,41.8492,1030.0081],[-2.608,41.8532,1031.2148],[-2.6277,41.8536,1066.5522],[-2.641,41.8635,1095.4171],[-2.6661,41.8667,1186.8027],[-2.6734,41.8697,1125.2291],[-2.6907,41.868,1173.2542],[-2.6942,41.8695,1133.3011],[-2.6918,41.8759,1053.1487],[-2.6969,41.8791,1053.6299],[-2.7031,41.8788,1080.4205],[-2.7084,41.8702,1079.0],[-2.7054,41.87,1093.9871],[-2.7063,41.8661,1099.3248],[-2.7182,41.8644,1079.0],[-2.7269,41.8587,1079.0],[-2.7267,41.8563,1079.0],[-2.7188,41.8513,1101.3689],[-2.7194,41.8493,1103.9446],[-2.7251,41.8479,1079.0],[-2.7283,41.8526,1079.0],[-2.7405,41.8503,1079.0],[-2.7343,41.8465,1092.1746],[-2.7461,41.8415,1082.6423],[-2.753,41.8279,1101.7528],[-2.7536,41.8186,1143.0018],[-2.7445,41.8189,1145.7941],[-2.7464,41.8053,1207.2533],[-2.7493,41.8045,1201.5159],[-2.7621,41.7932,1261.9769],[-2.764,41.7867,1190.8595],[-2.7678,41.7814,1217.3148],[-2.7866,41.7707,1153.7567],[-2.7995,41.7692,1149.9279],[-2.8011,41.7605,1135.2559],[-2.7953,41.7592,1129.3516],[-2.7983,41.753,1120.6859],[-2.8116,41.7471,1109.3231],[-2.8135,41.7411,1094.2405],[-2.8175,41.7384,1098.3698],[-2.818,41.7335,1073.0978],[-2.8226,41.733,1066.967],[-2.8243,41.7294,1062.4563],[-2.8314,41.7271,1081.1991],[-2.8307,41.7244,1053.6016],[-2.8435,41.7179,1021.4921],[-2.8442,41.7162,1001.5449],[-2.8472,41.7163,999.2726],[-2.8523,41.7125,999.6973],[-2.864,41.7101,1007.9586],[-2.8655,41.7103,1026.257],[-2.865,41.7118,1030.7236],[-2.8779,41.7166,1077.8553],[-2.8842,41.7159,1076.2971],[-2.8881,41.7125,1000.4456],[-2.9185,41.7184,1022.5038],[-2.9294,41.7,1084.4277],[-2.9296,41.6957,1102.3522],[-2.9339,41.6912,1100.6846],[-2.9427,41.6885,1079.7454],[-2.944,41.6849,1087.1686],[-2.9379,41.679,1078.4076],[-2.9032,41.656,980.4648],[-2.8984,41.6473,952.3192],[-2.8962,41.6381,992.0692],[-2.8975,41.6337,1007.7866],[-2.8941,41.6269,1038.0583],[-2.9072,41.6251,1034.2402],[-2.9173,41.6165,1019.1196],[-2.9389,41.6097,1033.5573],[-2.9418,41.6069,1030.2214],[-2.9433,41.6007,1002.0605],[-2.9553,41.5984,1012.3434],[-2.963,41.5858,1021.1316],[-2.9775,41.5858,1026.0078],[-2.9923,41.5779,990.5494],[-2.9894,41.5705,955.8986],[-2.9899,41.5659,923.6848],[-2.9861,41.5635,945.4387],[-2.9844,41.5597,952.6165],[-2.9985,41.5386,986.8126],[-3.0068,41.5334,927.5166],[-3.024,41.5268,874.8238],[-3.022,41.5215,876.4117],[-3.0185,41.5218,877.6757],[-3.0176,41.5188,875.5139],[-3.02,41.5169,883.1914],[-3.0245,41.5174,880.5381],[-3.0297,41.5126,881.225],[-3.029,41.5059,877.0226],[-3.0245,41.5002,875.4202],[-3.028,41.4908,910.1319],[-3.0248,41.4831,878.9697],[-3.0063,41.4817,889.3433],[-2.9889,41.4903,881.2797],[-2.9854,41.49,883.7379],[-2.9845,41.4866,882.8468],[-2.972,41.4812,883.3308],[-2.9694,41.4813,884.1903],[-2.9692,41.4843,887.827],[-2.972,41.4875,885.3019],[-2.969,41.4898,888.0072],[-2.9657,41.4896,884.763],[-2.9605,41.4848,888.3575],[-2.9504,41.4867,884.4769],[-2.9414,41.4835,891.9495],[-2.9331,41.4856,887.6288],[-2.9245,41.4838,889.3626],[-2.9193,41.4897,888.4576],[-2.9151,41.4763,920.3527],[-2.9225,41.4625,998.3287],[-2.9219,41.4578,978.5795],[-2.9135,41.4429,1042.2922],[-2.9112,41.4419,1062.5964],[-2.9105,41.4542,1013.1943],[-2.8887,41.4641,919.6731],[-2.889,41.4727,947.6671],[-2.8798,41.4808,953.1312],[-2.8804,41.4919,906.6968],[-2.8895,41.4973,892.7115],[-2.8935,41.5023,893.0208],[-2.8854,41.5044,897.5945],[-2.884,41.5096,900.2835],[-2.8762,41.5105,898.6118],[-2.8781,41.5199,904.4831]]]]}
,"properties": {"GID_3": "ESP.5.7.3_1","GID_0": "ESP","country": "Spain","GID_1": "ESP.5_1","province": "CastillayLeón","NL_NAME_1": "NA","GID_2": "ESP.5.7_1","county": "Soria","NL_NAME_2": "NA","city": "n.a.(235)","VARNAME_3": "NA","NL_NAME_3": "NA","TYPE_3": "Comarca","ENGTYPE_3": "Comarca","CC_3": "NA","HASC_3": "NA","name": "n.a.(235).city","area_km2": 1441.544,"hist_schema_id": "Elevation0-9000","hist_area_km2": {"875": 8.639,"900": 29.327,"925": 37.739,"950": 68.599,"975": 141.675,"1000": 168.152,"1025": 184.757,"1050": 167.383,"1075": 197.145,"1100": 142.322,"1125": 98.371,"1150": 84.261,"1175": 36.331,"1200": 17.332,"1225": 13.25,"1250": 14.671,"1275": 10.528,"1300": 7.397,"1325": 4.883,"1350": 3.57,"1375": 2.653,"1400": 1.469,"1425": 0.632,"1450": 0.379,"1475": 0.079}}}