{"type": "Feature","bbox": [-5.841,35.9996,-5.2521,36.5378],"geometry": {"type": "MultiPolygon","coordinates": [[[[-5.431,36.1721,0.0],[-5.426,36.1768,1.4891],[-5.4229,36.1751,0.0],[-5.4204,36.1771,2.1231],[-5.4199,36.1724,0.0],[-5.416,36.1738,0.0],[-5.4162,36.176,0.0],[-5.414,36.1771,1.1408],[-5.4143,36.1804,0.3583],[-5.4115,36.1815,1.085],[-5.3987,36.1801,0.0],[-5.3985,36.1779,0.0],[-5.4001,36.1763,0.0],[-5.3943,36.1771,0.0],[-5.3976,36.179,0.0],[-5.3974,36.1807,4.7426],[-5.3871,36.1807,2.649],[-5.3832,36.1796,2.7401],[-5.3804,36.1765,0.0],[-5.3832,36.1749,0.0],[-5.3821,36.1724,0.0],[-5.3832,36.1696,0.0],[-5.369,36.1682,2.0159],[-5.359,36.1637,2.6818],[-5.3585,36.1607,0.2209],[-5.3554,36.1599,0.3941],[-5.3535,36.1572,0.1108],[-5.3387,36.1549,0.0],[-5.336,36.1776,3.3632],[-5.3204,36.2229,2.0542],[-5.3149,36.2337,1.5999],[-5.3068,36.244,11.1104],[-5.2993,36.2432,0.0],[-5.2971,36.2451,0.0],[-5.2885,36.2643,2.0125],[-5.2787,36.2801,0.0],[-5.2824,36.2846,0.7415],[-5.2901,36.2896,6.1971],[-5.2907,36.294,2.4211],[-5.294,36.2965,3.0737],[-5.2907,36.2957,2.9312],[-5.2871,36.2879,1.0494],[-5.2762,36.2829,0.0],[-5.274,36.289,0.7268],[-5.2724,36.2882,0.0],[-5.2721,36.2896,0.0],[-5.2696,36.2896,0.1174],[-5.2696,36.2921,0.0],[-5.2721,36.2924,0.3221],[-5.2721,36.2951,0.9346],[-5.2696,36.2993,6.45],[-5.2649,36.3007,3.8783],[-5.2632,36.3046,3.291],[-5.259,36.3079,9.0489],[-5.2587,36.311,8.9753],[-5.2521,36.3111,14.8794],[-5.2594,36.3224,173.7904],[-5.2677,36.3242,176.1651],[-5.2775,36.3371,165.3148],[-5.2897,36.3371,145.9522],[-5.3199,36.3251,6.7782],[-5.3229,36.3322,7.5181],[-5.3154,36.3409,7.7198],[-5.315,36.3434,8.0939],[-5.3205,36.3461,10.5501],[-5.3259,36.3576,40.7149],[-5.3347,36.37,70.7319],[-5.3339,36.3789,134.151],[-5.3363,36.3829,129.4095],[-5.3348,36.3949,22.7142],[-5.3381,36.3978,25.3251],[-5.347,36.4187,199.0618],[-5.3571,36.4239,196.1197],[-5.3579,36.4319,219.6674],[-5.3553,36.4338,265.3386],[-5.3741,36.4536,149.2029],[-5.3952,36.4693,173.8347],[-5.3989,36.4844,71.0117],[-5.4032,36.4903,52.5902],[-5.404,36.4946,69.8113],[-5.4097,36.4966,72.9221],[-5.4088,36.5002,88.5923],[-5.4112,36.5043,96.216],[-5.4144,36.5182,154.7753],[-5.4133,36.5207,162.8773],[-5.425,36.5246,251.1383],[-5.4276,36.5309,334.9675],[-5.4322,36.5343,407.3108],[-5.453,36.5378,630.3023],[-5.4615,36.5372,644.3681],[-5.4651,36.5279,766.0372],[-5.4684,36.5302,778.484],[-5.471,36.5355,795.984],[-5.474,36.5366,784.9014],[-5.4906,36.5368,694.8368],[-5.4928,36.5361,634.722],[-5.496,36.5309,601.5293],[-5.5005,36.5275,574.0911],[-5.5081,36.518,465.8709],[-5.5075,36.5157,483.8726],[-5.5142,36.5104,320.7516],[-5.5162,36.5009,157.3611],[-5.5241,36.4977,247.0819],[-5.5341,36.5028,369.3497],[-5.5599,36.5035,612.5995],[-5.5593,36.5002,604.459],[-5.5706,36.4391,336.0186],[-5.5744,36.4342,309.7631],[-5.5738,36.4294,321.9146],[-5.5776,36.4234,355.6994],[-5.5879,36.3887,451.2751],[-5.5786,36.3649,483.0286],[-5.5799,36.36,562.4708],[-5.5767,36.3524,527.011],[-5.5732,36.3505,557.0936],[-5.5736,36.342,491.9225],[-5.5772,36.3409,459.762],[-5.5836,36.3339,308.0636],[-5.5886,36.3331,285.4261],[-5.6054,36.3184,334.4286],[-5.6161,36.3175,362.3058],[-5.6264,36.3016,266.0659],[-5.6271,36.2966,367.6264],[-5.6358,36.2926,375.8372],[-5.6501,36.2746,504.2258],[-5.6457,36.2677,585.3434],[-5.652,36.2555,619.4467],[-5.6495,36.2548,610.5527],[-5.6537,36.2534,545.4952],[-5.6555,36.2495,579.5634],[-5.6716,36.2492,416.1447],[-5.6843,36.2464,227.4813],[-5.6949,36.25,345.5358],[-5.6991,36.2546,375.1897],[-5.7072,36.2475,350.9208],[-5.6984,36.2364,321.6383],[-5.6944,36.222,294.6025],[-5.6949,36.2151,204.62],[-5.7334,36.243,135.4938],[-5.7491,36.2573,65.3147],[-5.766,36.265,63.9544],[-5.7913,36.252,4.6093],[-5.7889,36.2346,5.1504],[-5.7822,36.2201,5.5252],[-5.7898,36.2128,19.9879],[-5.8011,36.1895,47.8574],[-5.8175,36.1746,78.5892],[-5.8229,36.1668,46.3725],[-5.8386,36.136,1.6062],[-5.841,36.1271,3.1629],[-5.8301,36.114,6.1501],[-5.8251,36.1057,1.7109],[-5.8246,36.1021,0.0],[-5.8157,36.1001,13.3302],[-5.8121,36.0929,0.0],[-5.8126,36.0887,0.0],[-5.8046,36.0893,7.4654],[-5.8021,36.0824,0.0],[-5.7968,36.0774,1.6743],[-5.7885,36.0802,0.0],[-5.7843,36.0854,0.6851],[-5.784,36.0882,6.8717],[-5.7774,36.0887,0.0],[-5.7682,36.0857,4.7933],[-5.7512,36.0715,0.0],[-5.7315,36.066,13.4012],[-5.7226,36.061,3.2108],[-5.7157,36.0607,11.3021],[-5.7093,36.0582,0.0],[-5.701,36.0621,12.0592],[-5.6957,36.0671,15.7529],[-5.6893,36.069,1.1723],[-5.6671,36.0563,1.6969],[-5.6587,36.0554,0.0],[-5.6451,36.0499,2.5558],[-5.6346,36.0412,0.4574],[-5.6238,36.0354,0.1821],[-5.6201,36.0313,1.5068],[-5.6151,36.0204,0.1819],[-5.6085,36.0112,0.7665],[-5.6085,36.0068,0.4024],[-5.6137,36.0035,2.5783],[-5.6112,35.9996,0.0],[-5.609,35.9996,0.0],[-5.606,36.0037,0.0],[-5.6079,36.0065,0.0],[-5.6043,36.0076,0.4158],[-5.6043,36.0099,0.0],[-5.6015,36.009,0.0],[-5.6037,36.0065,0.0],[-5.6029,36.0057,0.0],[-5.601,36.0071,0.0],[-5.601,36.011,5.5904],[-5.5813,36.0126,0.0],[-5.5671,36.0171,0.3716],[-5.5454,36.0282,4.5464],[-5.541,36.029,6.0062],[-5.5385,36.0315,4.0039],[-5.5168,36.0368,0.0],[-5.5132,36.0404,0.0],[-5.5029,36.0432,0.0],[-5.4996,36.0482,2.5042],[-5.4863,36.054,11.0588],[-5.4643,36.0499,0.0],[-5.4588,36.0537,2.5928],[-5.4507,36.0554,0.0],[-5.4468,36.0579,0.0],[-5.4482,36.0604,19.1641],[-5.4443,36.0615,0.0],[-5.4429,36.0649,0.0],[-5.4307,36.0704,0.0],[-5.4276,36.076,22.62],[-5.4246,36.0765,0.0],[-5.4254,36.0829,1.954],[-5.4351,36.0863,0.3917],[-5.4401,36.086,11.9869],[-5.4418,36.089,0.0],[-5.4435,36.089,0.0],[-5.4446,36.0938,2.3251],[-5.4399,36.1029,19.6649],[-5.4351,36.1057,8.1208],[-5.4307,36.1049,0.0],[-5.4315,36.1093,3.0912],[-5.4365,36.111,0.8796],[-5.4365,36.1154,0.0],[-5.4415,36.1168,11.2654],[-5.4429,36.1204,1.6346],[-5.4404,36.1199,0.0],[-5.436,36.1224,1.712],[-5.4363,36.1188,0.0],[-5.434,36.1207,2.1049],[-5.4299,36.1312,1.8722],[-5.4299,36.1407,0.0],[-5.4307,36.1415,0.0],[-5.4318,36.1285,2.3041],[-5.4385,36.1271,0.0],[-5.4401,36.1282,1.1334],[-5.4368,36.1296,0.0],[-5.4376,36.1338,4.7945],[-5.4351,36.1362,0.0],[-5.4365,36.1387,1.2015],[-5.4351,36.1393,0.0],[-5.4343,36.1437,0.0],[-5.436,36.1479,1.4177],[-5.4412,36.1463,1.4387],[-5.4432,36.1315,0.7991],[-5.4471,36.1401,0.0],[-5.4451,36.1476,0.0],[-5.4462,36.1526,12.4618],[-5.4446,36.1563,0.9928],[-5.4357,36.1688,1.5836],[-5.431,36.1721,0.0]]]]}
,"properties": {"GID_3": "ESP.1.2.3_1","GID_0": "ESP","country": "Spain","GID_1": "ESP.1_1","province": "Andalucía","NL_NAME_1": "NA","GID_2": "ESP.1.2_1","county": "Cádiz","NL_NAME_2": "NA","city": "CampodeGibraltar","VARNAME_3": "NA","NL_NAME_3": "NA","TYPE_3": "Comarca","ENGTYPE_3": "Comarca","CC_3": "NA","HASC_3": "NA","name": "Campode_Gibraltar.city","area_km2": 1525.893,"hist_schema_id": "Elevation0-9000","hist_area_km2": {"0": 105.861,"25": 189.338,"50": 150.679,"75": 141.259,"100": 110.406,"125": 95.872,"150": 86.267,"175": 71.287,"200": 62.994,"225": 56.627,"250": 52.244,"275": 46.428,"300": 45.395,"325": 43.067,"350": 41.2,"375": 37.2,"400": 32.723,"425": 28.315,"450": 24.695,"475": 20.492,"500": 16.288,"525": 13.69,"550": 10.016,"575": 9.041,"600": 6.699,"625": 5.658,"650": 4.718,"675": 4.084,"700": 3.962,"725": 3.536,"750": 2.766,"775": 1.74,"800": 0.785,"825": 0.562}}}