{"type": "Feature","id": "5820","bbox": [1.71217,41.64558,3.31772,42.49371],"geometry": {"type": "MultiPolygon","coordinates": [[[[1.98616,42.44126,1247.3542],[1.99608,42.44284,1261.5123],[1.9995,42.4439,1288.1089],[1.98844,42.45818,1211.1194],[1.97831,42.47498,1351.3164],[1.96797,42.4857,1394.4408],[1.9566,42.48178,1356.0573],[1.94565,42.46382,1259.8384],[1.94751,42.45123,1169.6255],[1.96063,42.44372,1159.1483],[1.98337,42.44126,1237.213],[1.98616,42.44126,1247.3542]]],
[[[1.99567,42.34868,1782.9364],[1.98337,42.35455,1746.3103],[1.96373,42.36723,1692.3394],[1.95423,42.38269,1654.0771],[1.9411,42.4201,1124.4331],[1.92746,42.43689,1210.9315],[1.91196,42.44196,1172.5881],[1.89325,42.44273,1251.7545],[1.86979,42.44679,1465.1621],[1.81367,42.47524,2228.2776],[1.79269,42.48172,2417.5837],[1.73057,42.48805,2643.54],[1.71217,42.49371,2240.7207],[1.71407,42.47704,2495.9961],[1.71937,42.46094,2474.9719],[1.72875,42.44683,2595.0283],[1.74283,42.43616,2354.1313],[1.80717,42.41855,1511.4742],[1.81086,42.41281,1434.5359],[1.81113,42.38363,1169.2192],[1.81561,42.37596,1043.863],[1.83303,42.35865,1216.5569],[1.83653,42.35068,1249.5599],[1.83756,42.34303,1300.3832],[1.83648,42.33534,1323.8398],[1.83365,42.32724,1370.6556],[1.84255,42.30631,2232.3062],[1.91391,42.31837,2238.0027],[1.93824,42.31429,2132.7295],[1.97309,42.29496,1805.9614],[1.98732,42.29416,1853.7437],[2.01595,42.2994,1868.8177],[2.02997,42.29872,1720.8984],[2.03613,42.2966,1770.8398],[2.04065,42.29352,1824.6705],[2.04388,42.28911,1717.3359],[2.04617,42.28293,1510.5779],[2.04672,42.27273,1267.7297],[2.04311,42.26483,1290.8245],[2.02918,42.25132,1050.519],[2.02389,42.22734,1016.446],[2.02525,42.22344,1005.6575],[2.04575,42.20414,1144.4504],[2.05087,42.19681,1020.3186],[2.05419,42.1853,1049.6808],[2.05561,42.15296,816.2265],[2.05884,42.14344,854.3416],[2.06555,42.13715,962.2622],[2.07354,42.13596,1033.1918],[2.0909,42.13837,1077.6917],[2.09804,42.13729,1078.5845],[2.12408,42.12095,892.329],[2.12933,42.11959,823.3206],[2.15889,42.12763,817.6822],[2.20417,42.128,615.4293],[2.20861,42.12991,618.3568],[2.2199,42.13829,725.3466],[2.23129,42.14215,706.6736],[2.28015,42.14345,1215.97],[2.28639,42.13833,1146.9252],[2.29408,42.12344,1021.4716],[2.3078,42.11296,1062.335],[2.32717,42.11264,1073.9077],[2.36589,42.12135,1150.3777],[2.40544,42.08108,1130.1007],[2.41955,42.07324,1076.5801],[2.45914,42.07336,923.1805],[2.47843,42.06382,1028.2705],[2.4943,42.04677,1066.3252],[2.50265,42.02594,975.5579],[2.49931,42.00506,588.0477],[2.48938,41.99087,434.934],[2.43985,41.94942,786.3115],[2.43928,41.94343,813.5396],[2.44416,41.93802,879.0347],[2.45235,41.93219,943.8012],[2.46297,41.9209,979.3857],[2.46226,41.91061,902.9641],[2.44275,41.88764,960.733],[2.42443,41.88902,907.1646],[2.39351,41.87381,825.5565],[2.38285,41.87147,686.5984],[2.33755,41.88909,769.2636],[2.33175,41.88672,738.6696],[2.3246,41.87938,778.8967],[2.31531,41.86485,735.1556],[2.31795,41.84619,701.503],[2.32968,41.82548,1110.4495],[2.34605,41.80792,1142.5717],[2.3627,41.79867,1146.5264],[2.3709,41.7983,1271.4982],[2.39454,41.80431,1568.95],[2.4366,41.80287,1216.0522],[2.54743,41.71916,96.0158],[2.63699,41.73322,64.0932],[2.66784,41.74719,85.7894],[2.68399,41.74968,112.6982],[2.7015,41.74885,60.6336],[2.74793,41.73573,139.9321],[2.76777,41.72134,157.0533],[2.77403,41.70038,63.1621],[2.77153,41.69549,43.2691],[2.76226,41.68736,24.9779],[2.7596,41.68282,12.4135],[2.76078,41.67354,9.8422],[2.7785,41.64558,0.0],[2.792,41.66901,0.0],[2.80372,41.66865,0.0],[2.81316,41.67031,0.0],[2.81707,41.67764,0.0],[2.82016,41.68195,0.0],[2.83546,41.69257,0.0],[2.84018,41.69465,45.4125],[2.85108,41.69717,0.0],[2.87725,41.70196,16.894],[2.90087,41.70671,0.0],[2.93299,41.71246,0.0],[2.95094,41.73428,20.0327],[3.04034,41.78689,55.5554],[3.06906,41.79908,0.0],[3.07863,41.82662,39.5802],[3.11683,41.84757,0.0],[3.15017,41.84535,0.0],[3.17856,41.87523,22.1619],[3.19492,41.88829,0.0],[3.20745,41.91393,7.1028],[3.23219,41.94603,0.0],[3.23569,41.96552,0.0],[3.23056,41.97301,0.0],[3.21184,41.98461,0.0],[3.20786,41.99002,0.0],[3.20696,41.99669,0.0],[3.20159,42.01744,0.0],[3.1959,42.03312,0.0],[3.19986,42.04619,0.0],[3.21301,42.05599,56.249],[3.2145,42.06833,0.0],[3.1923,42.09292,0.0],[3.17311,42.11201,64.5997],[3.1386,42.12763,0.0],[3.12249,42.14049,0.0],[3.11647,42.15843,0.0],[3.11744,42.18285,0.0],[3.11883,42.21833,0.0],[3.1303,42.23973,0.0],[3.15162,42.25682,0.0],[3.17018,42.25967,0.0],[3.17872,42.2497,0.0],[3.21013,42.23973,22.6068],[3.24716,42.24571,43.6665],[3.26303,42.23985,107.0755],[3.27036,42.25011,0.0],[3.27939,42.25564,13.484],[3.28704,42.26293,19.376],[3.29038,42.27806,0.0],[3.29404,42.28803,10.5671],[3.31772,42.32298,2.5226],[3.29371,42.33499,0.0],[3.28061,42.33686,4.4847],[3.26987,42.32921,98.5488],[3.26303,42.32921,89.7875],[3.24985,42.34321,0.0],[3.22649,42.34252,106.0586],[3.20419,42.33959,3.3792],[3.18735,42.34951,4.9298],[3.17449,42.3638,0.0],[3.17449,42.38089,0.0],[3.17018,42.39659,0.0],[3.17872,42.418,0.0],[3.18097,42.43148,0.0],[3.13782,42.42594,82.1527],[3.11168,42.42501,424.4238],[3.08615,42.42718,591.9652],[3.06558,42.43201,504.7001],[3.05359,42.43764,327.972],[3.04388,42.44527,257.3618],[3.03602,42.45462,349.6864],[3.02961,42.46565,652.4053],[3.023,42.46705,703.4113],[2.99375,42.46762,830.4886],[2.9831,42.46932,1004.4628],[2.96605,42.461,846.1464],[2.9337,42.47023,935.364],[2.90084,42.45126,580.8315],[2.88409,42.44919,570.358],[2.86694,42.44963,208.5935],[2.85081,42.44837,298.7221],[2.83479,42.44131,552.9188],[2.80461,42.41956,634.6935],[2.78859,42.41201,612.223],[2.76772,42.40956,816.356],[2.72855,42.41403,984.7104],[2.70808,42.41289,1258.9152],[2.69041,42.40617,1046.7738],[2.64824,42.38147,969.4685],[2.64028,42.37284,866.7985],[2.64938,42.35372,605.1701],[2.66178,42.34336,523.8672],[2.66219,42.33902,507.7169],[2.63543,42.33788,658.7504],[2.61341,42.34096,798.1116],[2.56742,42.35264,1213.1633],[2.54809,42.35225,985.3773],[2.54034,42.34698,948.8167],[2.53197,42.33078,1385.8381],[2.52525,42.32589,1176.2577],[2.51481,42.32566,1005.2252],[2.50365,42.32845,927.0566],[2.48339,42.33698,1053.9205],[2.46489,42.34062,1139.8667],[2.44557,42.35196,1188.328],[2.42986,42.36754,1342.4414],[2.42252,42.38369,1444.6716],[2.4066,42.38426,1448.457],[2.37549,42.38933,1440.5083],[2.31731,42.40961,1968.5908],[2.30532,42.41697,2006.509],[2.27741,42.42863,2375.3257],[2.24599,42.42612,2487.7188],[2.18419,42.41181,2526.3071],[2.13695,42.41622,2772.303],[2.12104,42.41062,2465.7842],[2.11628,42.4054,2479.6614],[2.10874,42.39064,2531.6519],[2.10398,42.38483,2465.0908],[2.08011,42.37126,2451.2539],[2.06326,42.35791,2400.3816],[2.05169,42.35235,2210.4932],[2.03526,42.34925,2070.416],[2.00921,42.34708,1984.8645],[1.99567,42.34868,1782.9364]]]]}
,"properties": {"ISO3166-1-Alpha-3": "ESP","country": "Spain","fill": "#FF0","name": "Gerona","area_km2": 5862.292,"hist_schema_id": "Elevation0-9000","hist_area_km2": {"0": 319.378,"25": 280.884,"50": 250.901,"75": 283.036,"100": 363.215,"125": 375.276,"150": 290.876,"175": 232.576,"200": 187.981,"225": 170.661,"250": 145.707,"275": 126.819,"300": 109.426,"325": 100.338,"350": 90.679,"375": 84.764,"400": 80.354,"425": 78.623,"450": 81.758,"475": 84.381,"500": 71.296,"525": 65.529,"550": 59.387,"575": 57.747,"600": 53.589,"625": 53.213,"650": 49.373,"675": 50.224,"700": 50.064,"725": 52.253,"750": 54.542,"775": 53.021,"800": 53.559,"825": 55.773,"850": 53.427,"875": 54.706,"900": 52.374,"925": 50.861,"950": 48.363,"975": 48.516,"1000": 45.795,"1025": 43.633,"1050": 47.027,"1075": 48.011,"1100": 48.558,"1125": 46.66,"1150": 38.258,"1175": 35.113,"1200": 32.632,"1225": 29.952,"1250": 27.783,"1275": 27.076,"1300": 23.814,"1325": 22.713,"1350": 20.8,"1375": 19.717,"1400": 17.783,"1425": 17.423,"1450": 16.778,"1475": 16.793,"1500": 16.477,"1525": 15.411,"1550": 16.115,"1575": 15.455,"1600": 14.921,"1625": 14.999,"1650": 15.328,"1675": 15.123,"1700": 14.307,"1725": 14.511,"1750": 13.242,"1775": 12.521,"1800": 11.643,"1825": 12.834,"1850": 11.815,"1875": 12.176,"1900": 11.752,"1925": 10.373,"1950": 8.994,"1975": 9.025,"2000": 7.629,"2025": 7.253,"2050": 6.391,"2075": 6.045,"2100": 5.842,"2125": 6.531,"2150": 6.138,"2175": 6.342,"2200": 5.997,"2225": 5.887,"2250": 5.37,"2275": 5.152,"2300": 5.057,"2325": 4.666,"2350": 5.057,"2375": 4.885,"2400": 4.446,"2425": 4.728,"2450": 4.681,"2475": 4.728,"2500": 4.133,"2525": 3.679,"2550": 3.741,"2575": 3.146,"2600": 3.099,"2625": 2.489,"2650": 2.488,"2675": 1.941,"2700": 1.534,"2725": 1.737,"2750": 1.08,"2775": 0.704,"2800": 0.485,"2825": 0.172,"2850": 0.157,"2875": 0.047,"2900": 0.047}}}