{"type":"Feature","properties":{"GID_2":"ESP.6.2_1","GID_0":"ESP","country":"Spain","GID_1":"ESP.6_1","province":"Cataluña","NL_NAME_1":"NA","county":"Girona","VARNAME_2":"NA","NL_NAME_2":"NA","TYPE_2":"Provincia","ENGTYPE_2":"Province","CC_2":"17","HASC_2":"ES.CT.GN","name":"Girona.county"},
"geometry":{"type": "MultiPolygon","coordinates": [[[[2.7769,41.7355,288.0883],[2.7772,41.7311,251.3819],[2.7658,41.7257,274.1659],[2.7743,41.7003,63.1621],[2.7699,41.6874,25.167],[2.7579,41.6792,13.6051],[2.7614,41.6693,6.469],[2.7771,41.6506,0.0],[2.7813,41.6554,0.0],[2.7857,41.666,4.0428],[2.7929,41.6738,13.1604],[2.7954,41.6743,8.6177],[2.7979,41.6721,0.0],[2.8035,41.6735,0.0],[2.8038,41.6754,0.0],[2.8082,41.6771,0.0],[2.8079,41.6787,0.0],[2.8154,41.6818,0.0],[2.8188,41.6885,0.0],[2.8293,41.6907,10.4025],[2.8312,41.6937,0.0],[2.8363,41.6946,1.1602],[2.8418,41.6929,0.0],[2.8487,41.6987,0.0],[2.8563,41.6999,0.0],[2.8665,41.6985,0.0],[2.8735,41.701,29.5736],[2.8793,41.701,8.4416],[2.8824,41.704,12.7003],[2.8885,41.7012,4.1728],[2.9004,41.7051,0.0],[2.8993,41.7074,43.1995],[2.9024,41.7101,1.7039],[2.9129,41.7074,1.2808],[2.9199,41.7126,19.6953],[2.9249,41.7121,57.8412],[2.9293,41.7143,17.7396],[2.9349,41.7146,9.0417],[2.9337,41.7193,2.2104],[2.9376,41.7218,0.2987],[2.9407,41.7196,0.0],[2.9407,41.7238,25.8106],[2.946,41.7254,0.0],[2.949,41.7307,30.3791],[2.954,41.7313,0.0],[2.9546,41.7368,0.0],[2.9582,41.7351,0.0],[2.9599,41.7374,10.461],[2.9585,41.7399,0.0],[2.9657,41.7449,0.7967],[2.9715,41.7526,0.5689],[2.9749,41.7535,0.0],[2.9776,41.7576,34.6746],[2.9976,41.7626,0.0],[2.9985,41.7649,0.0],[3.0013,41.7651,0.0],[3.0096,41.7718,0.0],[3.0265,41.7735,0.0],[3.0293,41.7707,8.1919],[3.0321,41.7713,0.0],[3.0329,41.7726,0.0],[3.0301,41.7754,10.7577],[3.0296,41.7796,8.9012],[3.0332,41.7807,8.1604],[3.0385,41.7779,1.7073],[3.0443,41.7785,0.0],[3.0457,41.7813,2.0547],[3.0487,41.7818,0.0],[3.0457,41.7885,6.0117],[3.0493,41.7907,3.8358],[3.0532,41.7904,1.7568],[3.0546,41.7871,0.0],[3.0565,41.7865,0.0],[3.0568,41.7893,2.1942],[3.0618,41.7951,0.0],[3.0613,41.7979,0.0],[3.0668,41.8007,1.359],[3.0651,41.8049,1.2642],[3.071,41.8193,6.0888],[3.084,41.8262,3.3921],[3.0876,41.8315,5.096],[3.0929,41.8329,6.4497],[3.0937,41.8385,19.5271],[3.096,41.841,1.1704],[3.1051,41.8465,2.154],[3.1132,41.8485,0.0],[3.1243,41.8479,1.1753],[3.126,41.8457,0.0],[3.1229,41.8449,0.0],[3.1237,41.8426,0.0],[3.121,41.8413,0.0],[3.1307,41.8413,0.0],[3.139,41.8485,0.0],[3.146,41.8504,0.0],[3.1457,41.8537,0.0],[3.1429,41.8557,5.6926],[3.1443,41.8582,3.8552],[3.1499,41.8579,0.0],[3.1515,41.8615,0.0],[3.1574,41.8621,3.0305],[3.1576,41.8599,0.0],[3.1599,41.8593,0.0],[3.1665,41.8629,0.0],[3.1724,41.8629,0.0],[3.1768,41.8674,8.8388],[3.1793,41.8671,0.0],[3.1782,41.8726,3.534],[3.1821,41.8763,0.0],[3.1788,41.8793,13.8386],[3.1829,41.8812,0.0],[3.1829,41.8874,5.3613],[3.1913,41.8879,0.0],[3.1938,41.8904,0.0],[3.1943,41.8937,0.0],[3.1982,41.8915,0.0],[3.2026,41.8913,5.9443],[3.2054,41.8982,10.9787],[3.2099,41.9018,0.0],[3.211,41.9049,0.0],[3.2085,41.9085,0.0],[3.2118,41.9087,0.0],[3.2121,41.9101,0.0],[3.2085,41.9129,2.784],[3.2093,41.9157,0.0],[3.2082,41.9174,7.9993],[3.2165,41.9179,0.0],[3.2171,41.9212,0.3637],[3.2201,41.9215,0.0],[3.2185,41.924,0.0],[3.219,41.9276,0.0],[3.2165,41.9293,0.0],[3.2199,41.9318,0.0],[3.2199,41.9349,0.0],[3.2157,41.9368,0.0],[3.2176,41.9379,0.0],[3.2188,41.9426,17.6964],[3.2338,41.9496,0.0],[3.2299,41.9554,2.1307],[3.234,41.9585,0.0],[3.234,41.9621,0.0],[3.2307,41.9604,35.3828],[3.2299,41.9646,0.0],[3.2318,41.9657,0.0],[3.2318,41.9688,0.0],[3.2218,41.9746,1.9112],[3.2132,41.9749,0.0],[3.2104,41.9724,10.004],[3.2115,41.9762,0.0],[3.2054,41.9832,2.2172],[3.1971,42.0015,1.0746],[3.1935,42.0229,0.0],[3.1707,42.0238,2.7412],[3.1938,42.024,0.2116],[3.1949,42.036,0.0],[3.1968,42.0407,0.0],[3.196,42.0462,0.0276],[3.1993,42.0526,0.1844],[3.2096,42.0526,2.5297],[3.2118,42.054,5.5778],[3.2146,42.0612,3.9657],[3.2104,42.0618,48.1382],[3.2099,42.0663,0.0],[3.2126,42.069,0.0],[3.209,42.0696,41.5064],[3.2063,42.0743,0.0],[3.1985,42.0779,130.5264],[3.1999,42.0801,0.0],[3.2032,42.0804,0.0],[3.2029,42.0824,0.0],[3.1993,42.0832,2.8303],[3.1949,42.0871,0.0],[3.1932,42.091,0.0],[3.1904,42.0929,99.7138],[3.1893,42.0976,0.0],[3.1846,42.0999,9.1861],[3.1851,42.1015,0.0],[3.1826,42.1049,0.0],[3.1726,42.1032,14.6844],[3.1699,42.1051,50.5942],[3.1688,42.1082,1.7244],[3.1751,42.1071,4.3326],[3.1768,42.1115,0.0],[3.1732,42.1121,0.0],[3.1712,42.1149,9.3635],[3.1646,42.1135,9.1162],[3.1632,42.1157,0.0],[3.1543,42.1179,7.9191],[3.1493,42.1215,0.0],[3.1462,42.121,0.2704],[3.1454,42.1179,0.0],[3.1401,42.1146,2.8031],[3.1368,42.116,8.9062],[3.139,42.1204,0.0],[3.1368,42.1271,0.0],[3.124,42.1279,3.0542],[3.1249,42.131,0.0],[3.1224,42.1315,6.6753],[3.1232,42.1335,0.0],[3.1218,42.1365,0.7355],[3.1199,42.1374,2.0561],[3.1199,42.1404,5.0866],[3.1182,42.141,4.828],[3.1143,42.149,1.2473],[3.1113,42.1676,0.0],[3.1096,42.1937,0.2468],[3.1121,42.211,0.1149],[3.119,42.229,0.4462],[3.1299,42.2429,0.5794],[3.136,42.2463,0.0],[3.1368,42.251,0.2657],[3.1468,42.2585,0.3134],[3.1507,42.259,0.359],[3.1512,42.2571,0.0],[3.1529,42.261,3.372],[3.1629,42.2649,1.4169],[3.1707,42.2649,0.8995],[3.1737,42.2635,0.3287],[3.1751,42.2607,1.7388],[3.1799,42.2593,0.8866],[3.1807,42.2565,6.3209],[3.1782,42.2554,0.0957],[3.1793,42.2526,0.0],[3.1804,42.2549,10.3064],[3.1796,42.251,0.0],[3.1818,42.2493,6.726],[3.1804,42.2471,22.554],[3.1829,42.2451,0.0],[3.1971,42.2471,22.1386],[3.1982,42.2429,0.0],[3.2037,42.2404,0.0],[3.2076,42.241,17.4773],[3.209,42.2393,2.946],[3.2074,42.2371,8.8523],[3.2124,42.2368,0.0],[3.2179,42.2321,11.635],[3.2215,42.2337,0.0],[3.2218,42.2365,0.0],[3.2268,42.2374,0.0],[3.2254,42.2396,38.0159],[3.229,42.2401,0.0],[3.2265,42.2429,0.0],[3.231,42.2451,5.2565],[3.2276,42.2485,0.0],[3.2285,42.2513,1.1021],[3.2374,42.2471,11.0052],[3.2387,42.2501,1.6993],[3.2437,42.2496,3.2494],[3.2488,42.2401,0.0],[3.2646,42.2371,35.6634],[3.2665,42.2426,38.1485],[3.264,42.2443,0.0],[3.2554,42.244,0.0],[3.2546,42.2465,0.0],[3.2565,42.2493,0.0],[3.2537,42.2526,3.1313],[3.2621,42.2507,10.2561],[3.271,42.2543,85.648],[3.2763,42.2524,14.328],[3.2818,42.254,0.0],[3.2812,42.2574,7.2999],[3.2879,42.2657,0.0],[3.2868,42.2674,61.5239],[3.2876,42.2707,0.0],[3.2837,42.2707,0.0],[3.2832,42.2738,0.0],[3.2804,42.2751,21.9536],[3.2807,42.2774,0.0],[3.2774,42.2799,0.0],[3.2801,42.2818,0.0],[3.276,42.284,6.6197],[3.2776,42.2876,0.0],[3.2796,42.2888,22.5839],[3.2812,42.286,2.2796],[3.2871,42.2851,0.0],[3.2876,42.2824,1.0607],[3.2921,42.2829,1.3995],[3.2924,42.2801,0.0],[3.2938,42.2807,0.8664],[3.2932,42.2829,1.3995],[3.2976,42.2835,0.0],[3.2968,42.2854,0.3077],[3.2999,42.2849,0.0],[3.2971,42.2899,0.7251],[3.2968,42.2951,0.0],[3.2938,42.2932,2.2148],[3.2943,42.2904,22.7469],[3.2921,42.2924,0.0],[3.2871,42.2924,17.7106],[3.2876,42.294,7.0278],[3.2921,42.2951,1.9006],[3.2899,42.2979,0.0],[3.2921,42.2985,0.0],[3.2932,42.3018,17.3734],[3.2888,42.3026,0.8975],[3.2904,42.3043,1.8369],[3.2901,42.3065,0.0],[3.2943,42.3068,0.0],[3.296,42.304,10.8927],[3.3007,42.3043,0.0],[3.301,42.306,0.0],[3.2993,42.3068,9.3757],[3.3032,42.3079,3.8569],[3.3029,42.3107,10.1191],[3.3121,42.3118,0.0],[3.3135,42.3138,0.0],[3.3129,42.3163,4.3087],[3.3157,42.3138,5.5364],[3.3188,42.3143,0.0],[3.3174,42.3165,3.0961],[3.3213,42.3165,0.0],[3.3226,42.3193,0.0],[3.3168,42.3238,0.0],[3.3115,42.3251,0.0],[3.3099,42.3251,0.0],[3.3099,42.3207,2.2999],[3.3082,42.3224,0.0],[3.3087,42.3268,0.0],[3.3057,42.3285,1.7798],[3.3024,42.3268,6.5309],[3.2976,42.3296,0.0],[3.2957,42.3288,0.0],[3.2926,42.3301,1.6057],[3.289,42.3299,0.0],[3.2876,42.3282,5.149],[3.2865,42.334,0.0],[3.2804,42.3321,0.0],[3.281,42.3357,4.4847],[3.269,42.339,0.0],[3.2682,42.3404,28.1817],[3.2629,42.3407,0.0],[3.2613,42.3357,15.5716],[3.2499,42.3351,0.0],[3.2501,42.3299,8.2905],[3.2471,42.3349,5.7277],[3.2474,42.3371,0.0],[3.2415,42.3357,18.4251],[3.2421,42.3382,0.0],[3.2374,42.3421,14.0245],[3.2385,42.349,0.0],[3.2304,42.3521,0.0],[3.224,42.3493,0.7485],[3.2151,42.3496,0.0],[3.2151,42.3476,0.0],[3.2118,42.3476,0.0],[3.2101,42.3446,4.0535],[3.204,42.3476,0.0],[3.1999,42.3418,0.0],[3.2035,42.3404,3.3792],[3.2026,42.3363,0.3606],[3.1971,42.3349,2.9774],[3.1857,42.3432,4.0379],[3.1879,42.3518,8.7128],[3.1821,42.3515,5.4882],[3.1807,42.3537,0.0],[3.174,42.3551,25.5314],[3.1718,42.3579,5.2673],[3.1632,42.3604,46.499],[3.1654,42.3624,0.0],[3.1638,42.3649,0.0],[3.1674,42.3662,0.0],[3.1657,42.3743,0.0],[3.1626,42.3746,0.0],[3.1613,42.371,1.7939],[3.1588,42.3718,5.5279],[3.159,42.3746,0.5578],[3.1557,42.3785,0.7001],[3.1554,42.3812,9.3066],[3.1674,42.3885,0.0],[3.1674,42.3899,1.5923],[3.1629,42.3913,0.0],[3.1585,42.3896,3.4064],[3.1537,42.3915,9.3264],[3.1526,42.3935,11.1652],[3.1649,42.4004,0.0],[3.164,42.4038,0.0],[3.1571,42.4046,1.5053],[3.1565,42.4068,0.0],[3.1599,42.4074,0.0],[3.1621,42.4107,3.7351],[3.1657,42.4104,0.0],[3.1654,42.4135,0.0],[3.171,42.416,7.3177],[3.169,42.421,24.4581],[3.1707,42.4246,1.7733],[3.161,42.4282,10.7678],[3.1685,42.4296,0.0],[3.1707,42.4313,6.7059],[3.171,42.434,158.2928],[3.1737,42.4338,45.8062],[3.1743,42.4351,0.0],[3.1446,42.4331,305.0731],[3.1246,42.4351,470.5085],[3.1208,42.438,602.3066],[3.1081,42.4336,546.749],[3.1026,42.4266,634.2697],[3.0956,42.425,606.5052],[3.0858,42.4258,683.137],[3.0724,42.4358,642.1282],[3.07,42.4362,686.2588],[3.0474,42.4568,520.0532],[3.0409,42.4726,914.0756],[3.0325,42.4744,914.2964],[3.0132,42.4664,964.7333],[3.0005,42.4729,1101.1987],[2.9868,42.4731,1062.4749],[2.9804,42.4677,1049.7228],[2.9675,42.4655,993.5513],[2.9471,42.4818,1230.1907],[2.9329,42.4744,1113.4348],[2.9247,42.4589,894.3729],[2.9184,42.4562,890.0446],[2.8822,42.4606,631.1126],[2.8708,42.4669,391.211],[2.8665,42.4654,327.3771],[2.8619,42.4556,338.7267],[2.8576,42.4542,334.0073],[2.8399,42.459,478.8954],[2.8277,42.4394,717.0265],[2.821,42.4397,703.2233],[2.8159,42.4379,743.9429],[2.8012,42.4231,712.7728],[2.7993,42.4183,769.4444],[2.7802,42.4145,725.4233],[2.7768,42.4117,782.41],[2.7712,42.4122,875.8385],[2.7596,42.4186,1029.4994],[2.7566,42.4248,1207.2734],[2.7519,42.4254,1273.1377],[2.724,42.4227,1390.1707],[2.6932,42.4064,1078.7649],[2.6739,42.4045,1129.8701],[2.6712,42.3869,924.9666],[2.6655,42.3855,961.7231],[2.6538,42.3877,1107.1155],[2.6529,42.3844,1070.5447],[2.6592,42.3797,1011.655],[2.6632,42.3724,857.6929],[2.6617,42.3688,777.2348],[2.6624,42.3659,672.6661],[2.6675,42.3618,635.6617],[2.6701,42.362,588.2897],[2.6752,42.3572,556.1759],[2.6753999999999998,42.3423,607.0865],[2.6716,42.3408,583.2905],[2.66,42.3408,449.6245],[2.6118,42.3461,654.6595],[2.5822,42.3571,1171.505],[2.5668,42.3571,1230.2661],[2.5552,42.3527,1200.8484],[2.5516,42.3411,1143.3955],[2.5486,42.3402,1124.99],[2.542,42.3339,1332.4226],[2.5261,42.3334,1513.9559],[2.4984,42.3426,1341.9683],[2.4832,42.3399,1189.6792],[2.4756,42.3461,1352.0425],[2.4669,42.3595,1405.1011],[2.4568,42.3635,1596.9974],[2.4561,42.3667,1530.4142],[2.4529,42.3688,1538.0585],[2.4429,42.3711,1606.0255],[2.4355,42.3753,1587.6437],[2.433,42.3814,1625.5166],[2.4346,42.3849,1605.7067],[2.4333,42.392,1620.1133],[2.4103,42.3922,1548.969],[2.396,42.3951,1605.2225],[2.3841,42.4002,1664.0049],[2.3718,42.4006,1649.9153],[2.3608,42.4029,1820.2489],[2.346,42.4094,2168.3213],[2.3449,42.4144,2354.9758],[2.3309,42.4158,2347.0522],[2.3241,42.418,2391.8638],[2.3183,42.4225,2455.3376],[2.3187,42.425,2482.3674],[2.3106,42.4284,2356.0015],[2.3011,42.4244,2436.1372],[2.2912,42.4229,2470.0303],[2.2571,42.4385,2673.1797],[2.2458,42.4286,2553.1895],[2.2263,42.4258,2726.6919],[2.207,42.4187,2716.5686],[2.2068,42.4172,2770.3396],[2.1869,42.4177,2757.9209],[2.1848,42.4192,2727.2996],[2.1569,42.4234,2754.8335],[2.1332,42.4143,2804.5527],[2.1244,42.4076,2593.6123],[2.1217,42.3972,2810.5251],[2.1151,42.3944,2780.8337],[2.1141,42.3857,2758.0317],[2.1164,42.3834,2888.4775],[2.0895,42.3737,2630.0112],[2.0859,42.3637,2538.4841],[2.084,42.3622,2527.4736],[2.0819,42.364,2502.1602],[2.0767,42.3644,2476.0815],[2.0599,42.3586,2394.4905],[2.049,42.3576,2218.7075],[2.0476,42.3561,2200.2019],[2.0461,42.3573,2197.7529],[2.0235,42.3552,2183.0813],[2.0152,42.3474,1974.9419],[1.9858,42.3622,1965.5679],[1.9825,42.3664,1910.7424],[1.9717,42.374,1774.7483],[1.9644,42.3826,1655.7653],[1.9647,42.3879,1559.1974],[1.9613,42.3903,1495.1884],[1.9606,42.3988,1283.6469],[1.9552,42.4121,1155.1843],[1.9582,42.4236,1183.1697],[1.9412,42.4305,1134.0068],[1.9429,42.4445,1156.6873],[1.9338,42.4542,1237.5801],[1.922,42.4477,1187.7412],[1.9157,42.4462,1191.6377],[1.8996,42.45,1242.7278],[1.8961,42.4496,1259.4224],[1.8956,42.4476,1273.397],[1.8908,42.4481,1286.0226],[1.8899,42.4499,1306.093],[1.8844,42.4499,1369.7976],[1.881,42.459,1447.4613],[1.8677,42.4644,1524.5974],[1.8562,42.4637,1755.9624],[1.8473,42.4683,1754.6475],[1.8469,42.4708,1773.3585],[1.8444,42.4721,1810.8151],[1.8457,42.473,1798.8885],[1.8389,42.479,1890.5482],[1.8303,42.4832,2237.4592],[1.8191,42.4842,2394.144],[1.817,42.4831,2393.8853],[1.8052,42.4887,2578.7891],[1.8003,42.4884,2580.1016],[1.7925,42.4853,2622.3928],[1.7799,42.4874,2677.4814],[1.7676,42.4868,2816.5249],[1.7466,42.4948,2705.4346],[1.7309,42.4925,2846.79],[1.7243,42.487,2759.4438],[1.7331,42.4738,2768.1777],[1.7263,42.4615,2646.0935],[1.7271,42.453,2727.7874],[1.7284,42.4482,2635.5317],[1.7321,42.4449,2562.1995],[1.7319,42.4404,2493.5527],[1.7452,42.4332,2287.7766],[1.7576,42.4331,2087.905],[1.7695,42.4281,1893.7153],[1.777,42.4316,1734.7368],[1.7946,42.4309,1324.5627],[1.7977,42.4261,1502.703],[1.8016,42.4249,1531.0333],[1.8071,42.4186,1511.4742],[1.811,42.4111,1405.9612],[1.8053,42.4086,1210.3689],[1.8085,42.3938,1166.9841],[1.8001,42.378,1179.6787],[1.8015,42.3752,1119.4558],[1.8046,42.3754,1054.0483],[1.8061,42.3701,1071.4214],[1.8106,42.3699,1082.8782],[1.83,42.3814,1038.2546],[1.8332,42.3758,1061.8799],[1.8401,42.3737,1088.4877],[1.8446,42.3749,1092.5598],[1.851,42.3735,1114.9893],[1.8551,42.3697,1131.2178],[1.8478,42.3643,1132.2322],[1.8446,42.3549,1272.2605],[1.8352,42.3556,1293.5176],[1.8387,42.3505,1238.582],[1.836,42.341,1220.567],[1.8398,42.3396,1221.8262],[1.8349,42.333,1318.8286],[1.8362,42.3311,1351.7651],[1.8332,42.3268,1378.3076],[1.8351,42.3245,1511.6948],[1.8353,42.3185,1778.875],[1.8426,42.3064,2232.3062],[1.8506,42.3107,2127.9646],[1.8578,42.3107,2132.825],[1.8614,42.3132,2152.572],[1.8639,42.311,2086.2156],[1.8737,42.3136,2095.752],[1.8792,42.3127,2143.6758],[1.8831,42.3149,2226.5825],[1.8835,42.3172,2242.2244],[1.8911,42.3174,2408.574],[1.8931,42.3187,2486.3389],[1.8929,42.3209,2517.8254],[1.9031,42.3233,2378.2844],[1.9212,42.317,2018.5254],[1.9329,42.3187,2055.6519],[1.9393,42.3165,2138.5303],[1.9433,42.3085,2295.8052],[1.9487,42.3157,2176.7969],[1.9703,42.3033,1866.9149],[1.9838,42.2981,1972.0205],[1.9873,42.3004,1975.437],[1.9921,42.3003,1936.79],[1.9933,42.3026,1937.4357],[2.0058,42.3076,2007.623],[2.014,42.3075,2016.4868],[2.0185,42.3103,1951.9407],[2.0283,42.3063,1952.4971],[2.038,42.3052,1890.5798],[2.0401,42.3021,1886.0948],[2.0477,42.2977,1947.8527],[2.057,42.2956,1853.4674],[2.0664,42.2902,1899.3662],[2.0699,42.2916,1884.3993],[2.0669,42.2839,1702.8125],[2.0598,42.2826,1578.8589],[2.0524,42.2788,1436.5072],[2.0515,42.2753,1317.791],[2.0484,42.275,1320.9692],[2.0421,42.2694,1218.2366],[2.0433,42.268,1214.2793],[2.0399,42.2606,1162.9858],[2.0304,42.257,1079.8202],[2.0271,42.2533,1107.611],[2.0287,42.2535,1053.9404],[2.0292,42.2514,1050.519],[2.0274,42.2495,1064.264],[2.0296,42.245,994.8364],[2.0268,42.2422,1017.1467],[2.0278,42.2413,976.5897],[2.0247,42.2399,977.2072],[2.0248,42.2333,962.6483],[2.0206,42.2319,949.9909],[2.0167,42.2327,935.6177],[2.0194,42.2284,985.6375],[2.0232,42.2274,1000.9908],[2.0302,42.2159,1197.5651],[2.0395,42.2212,1336.3765],[2.0489,42.2214,1461.0641],[2.0533,42.2196,1414.6071],[2.0501,42.2159,1466.5592],[2.0515,42.2136,1320.2891],[2.0505,42.2084,1236.1086],[2.0536,42.2006,1064.7384],[2.0525,42.1958,1020.3186],[2.0603,42.1953,1003.2878],[2.0636,42.1916,1016.8933],[2.0616,42.189,1049.0934],[2.061,42.1798,949.4935],[2.0592,42.1791,951.895],[2.0605,42.1779,935.165],[2.0556,42.1756,1008.0974],[2.0453,42.176,955.2392],[2.037,42.179,976.6672],[2.0314,42.177,1103.2798],[2.0315,42.1722,1181.4172],[2.0279,42.1695,1251.8271],[2.0275,42.1666,1254.2532],[2.0228,42.1641,1215.6367],[2.0129,42.164,1075.4434],[2.0048,42.1621,980.5584],[2.0039,42.1663,1128.6021],[1.9956,42.1723,1196.1398],[2.0016,42.177,1093.7434],[2.0062,42.1838,1143.7725],[1.999,42.1885,1202.9374],[1.998,42.1921,1452.1729],[2.0073,42.1941,1345.4342],[1.9877,42.1948,1457.7205],[1.9764,42.1991,1492.3582],[1.97,42.1975,1602.8328],[1.9652,42.1991,1536.6528],[1.9659,42.1788,946.0299],[1.9706,42.1782,989.2613],[1.9707,42.1802,991.8148],[1.9788,42.1829,1027.3539],[1.9837,42.1811,1086.4834],[1.9915,42.1826,1156.0742],[1.9892,42.1767,1212.0515],[1.9922,42.1724,1253.6656],[1.9908,42.1716,1268.3534],[1.9969,42.1621,1134.6384],[2.0054,42.155,921.9416],[2.0036,42.1528,904.0286],[2.0059,42.1517,1062.0278],[2.004,42.1495,1001.3937],[2.0128,42.1493,1122.6038],[2.0269,42.1526,1189.2429],[2.0333,42.1498,975.6687],[2.0371,42.1433,956.9338],[2.046,42.1444,865.2808],[2.0517,42.1431,840.777],[2.0546,42.1375,789.8647],[2.061,42.1357,938.9851],[2.0656,42.1387,962.2622],[2.0699,42.1388,974.5947],[2.0708,42.1419,970.1187],[2.0858,42.1417,1084.1396],[2.0903,42.1423,1126.4275],[2.0923,42.1443,1154.2135],[2.0955,42.1421,1146.515],[2.0951,42.1405,1168.8812],[2.101,42.1402,1156.9979],[2.0976,42.1303,1006.1345],[2.1003,42.1298,939.6902],[2.1011,42.1238,865.9603],[2.1051,42.1228,845.1003],[2.1134,42.1174,791.9668],[2.1238,42.1154,749.0615],[2.1259,42.1131,727.4034],[2.1377,42.1216,839.501],[2.1406,42.1278,899.3025],[2.1447,42.1314,932.9824],[2.1641,42.1353,980.8256],[2.1814,42.1353,968.8219],[2.1876,42.134,924.4653],[2.1884,42.1315,837.5217],[2.1865,42.1286,829.9623],[2.1892,42.1248,801.7716],[2.2011,42.1243,676.4449],[2.2049,42.1259,605.2459],[2.2024,42.1283,599.243],[2.2038,42.1319,604.8141],[2.2097,42.1277,603.8167],[2.2119,42.1277,619.5128],[2.2129,42.1293,607.9563],[2.2056,42.1335,630.0825],[2.2106,42.137,626.0356],[2.2101,42.1397,624.3268],[2.2152,42.139,645.6628],[2.2151,42.1421,714.3884],[2.2377,42.1441,729.8597],[2.2403,42.1431,785.2956],[2.243,42.1379,946.5891],[2.2487,42.1394,959.9069],[2.2579,42.1388,936.7596],[2.2606,42.1413,1072.3313],[2.2688,42.1431,1119.3589],[2.27,42.1452,1090.7507],[2.2711,42.1428,1143.6514],[2.2731,42.1425,1150.588],[2.2727,42.1394,1097.1958],[2.2809,42.1407,1168.123],[2.2764,42.1379,997.2997],[2.2795,42.1339,1091.0181],[2.2867,42.1337,1039.3711],[2.2916,42.1293,936.1899],[2.2936,42.1319,950.2272],[2.2996,42.1342,1036.0646],[2.3009,42.1279,1163.3127],[2.3029,42.1273,1185.1035],[2.3012,42.1261,1112.3618],[2.3021,42.1225,1119.1005],[2.3001,42.122,1016.1191],[2.3016,42.119,999.2884],[2.2983,42.1171,979.3563],[2.3034,42.1125,1075.5873],[2.294,42.1058,1106.8965],[2.2949,42.1027,1159.6118],[2.3097,42.1097,971.3921],[2.317,42.1109,824.9739],[2.3183,42.1133,879.3894],[2.3162,42.1142,850.1631],[2.3187,42.1136,879.3894],[2.3199,42.1159,888.0643],[2.3368,42.1165,982.3621],[2.342,42.1202,955.4407],[2.3475,42.1213,1000.6865],[2.356,42.1192,1057.6415],[2.366,42.1214,1150.3777],[2.3693,42.1162,1259.0603],[2.374,42.1168,1324.4487],[2.3768,42.1059,1169.5371],[2.3799,42.1037,1234.2344],[2.3948,42.1043,1177.34],[2.4001,42.1022,1165.7892],[2.395,42.0952,930.0349],[2.3949,42.0912,1021.1779],[2.3973,42.088,1090.8142],[2.395,42.0868,1026.7943],[2.4058,42.0788,1235.1829],[2.411,42.0686,1173.6844],[2.4146,42.0689,1215.3203],[2.4172,42.0649,1238.441],[2.4206,42.0654,1282.9039],[2.4254,42.0625,1275.7725],[2.4435,42.0732,902.126],[2.4481,42.074,872.2267],[2.4496,42.0774,864.1749],[2.4535,42.0767,883.8594],[2.4546,42.078,859.3129],[2.4582,42.0752,929.2948],[2.4637,42.076,925.8222],[2.4667,42.0738,916.5645],[2.4719,42.0645,1034.8137],[2.4741,42.0637,1051.1907],[2.4773,42.0674,1002.8275],[2.4811,42.069,985.9418],[2.4904,42.0673,1023.6703],[2.4963,42.0589,1098.7891],[2.4822,42.0524,1000.4105],[2.4822,42.0493,994.463],[2.4837,42.0465,1020.853],[2.4875,42.0456,1002.4146],[2.4923,42.0379,1140.0411],[2.4966,42.0368,1116.2062],[2.4998,42.0331,1088.1609],[2.5062,42.0323,856.1841],[2.5031,42.0247,937.7216],[2.4979,42.0212,849.607],[2.494,42.0212,883.3968],[2.4959,42.0164,532.5602],[2.4952,42.0117,462.3665],[2.5033,42.0097,481.1951],[2.4999,42.0081,569.942],[2.4989,42.0015,623.971],[2.4932,42.0016,585.7098],[2.4883,41.9991,578.2941],[2.4846,41.9992,591.139],[2.4829,41.9967,513.0024],[2.4795,41.9983,580.9672],[2.4793,42.0014,651.7707],[2.4765,42.0013,658.4971],[2.4766,41.9974,640.1234],[2.4688,41.993899999999996,792.3874],[2.488,41.9847,761.7284],[2.4795,41.9825,910.1628],[2.4802,41.9794,899.3348],[2.4724,41.9753,778.2468],[2.4717,41.9721,790.9507],[2.4743,41.9694,679.3877],[2.4568,41.9661,589.8875],[2.4558,41.9679,478.0179],[2.452,41.9661,432.0309],[2.4492,41.9701,598.7013],[2.4416,41.9682,371.6642],[2.4425,41.9718,341.0131],[2.4381,41.9734,345.7329],[2.4337,41.9725,377.3179],[2.4311,41.9692,380.8735],[2.4291,41.969,400.1662],[2.4294,41.9654,606.7015],[2.4324,41.9658,545.797],[2.4395,41.9632,459.0372],[2.4415,41.9599,595.6351],[2.4421,41.9546,703.4789],[2.438,41.9515,768.3894],[2.437,41.948,657.5474],[2.4402,41.9467,723.3938],[2.44,41.9437,780.7938],[2.4422,41.9414,804.4263],[2.4451,41.9421,853.843],[2.4461,41.944,858.7723],[2.451,41.9437,903.2316],[2.4549,41.9409,763.9196],[2.4592,41.9444,635.2081],[2.4622,41.9413,736.0251],[2.4625,41.9378,861.556],[2.4708,41.9393,655.0538],[2.4801,41.9291,952.2723],[2.4785,41.9204,1155.0275],[2.4812,41.916,1185.5511],[2.4748,41.915,1143.3486],[2.4726,41.9095,1073.0601],[2.468,41.9058,975.4335],[2.4687,41.9047,960.4174],[2.4599,41.9026,1014.8997],[2.459,41.8983,1005.4542],[2.4567,41.8967,968.4969],[2.4463,41.8948,1022.9988],[2.4459,41.8896,946.6364],[2.4433,41.888,960.733],[2.4308,41.8904,908.8007],[2.4312,41.8944,934.7089],[2.4286,41.8944,913.1171],[2.427,41.8961,906.8756],[2.4176,41.8933,755.2769],[2.4153,41.896,698.1212],[2.4071,41.8957,702.4026],[2.4044,41.8863,788.1795],[2.3965,41.886,656.2208],[2.3926,41.8805,738.7204],[2.3937,41.879,780.082],[2.3872,41.8792,633.0425],[2.3872,41.8777,641.0228],[2.3845,41.877,683.9926],[2.3826,41.8715,686.5984],[2.3781,41.8742,809.7323],[2.3772,41.8728,843.2994],[2.3703,41.8805,663.1234],[2.3697,41.8855,624.0986],[2.3679,41.8847,643.5616],[2.3666,41.8802,721.0235],[2.3615,41.8834,599.1079],[2.3553,41.8813,592.2388],[2.3495,41.887,622.3773],[2.3446,41.8862,677.4908],[2.3375,41.8892,769.2636],[2.3342,41.8839,765.4121],[2.3299,41.8822,790.6375],[2.328,41.8831,782.2844],[2.3238,41.8755,752.1243],[2.3245,41.8722,737.0936],[2.3324,41.8635,702.1566],[2.3298,41.8593,708.0135],[2.3302,41.8559,736.7744],[2.326,41.8557,749.1906],[2.333,41.8443,839.7266],[2.3449,41.8374,1129.6694],[2.3473,41.8324,1240.2273],[2.3438,41.8217,1253.5674],[2.3464,41.8174,1267.585],[2.3495,41.8157,1274.2295],[2.3516,41.8097,1358.858],[2.3543,41.8071,1378.3289],[2.3643,41.8067,1421.5242],[2.3705,41.8041,1516.7661],[2.3766,41.805,1554.7427],[2.3827,41.8087,1664.2922],[2.3882,41.8051,1601.1577],[2.3963,41.8057,1583.4607],[2.4038,41.8019,1494.934],[2.4104,41.8016,1381.3177],[2.4118,41.8034,1273.9043],[2.4266,41.8046,1146.7598],[2.437,41.8026,1216.0522],[2.4429,41.799,1345.8406],[2.4438,41.7892,1574.5366],[2.4558,41.7842,1239.8789],[2.4722,41.7896,1081.0635],[2.4692,41.7778,1120.8633],[2.4819,41.7716,1275.7623],[2.4899,41.7655,923.1577],[2.5158,41.7621,529.0757],[2.5187,41.7558,347.5105],[2.5154,41.7535,385.3135],[2.5156,41.7487,314.8229],[2.5236,41.7421,277.5965],[2.5315,41.7386,203.6174],[2.5333,41.7348,187.3362],[2.5307,41.7305,150.311],[2.5336,41.7288,150.1792],[2.5376,41.7218,130.1938],[2.5473,41.7191,96.0158],[2.569,41.7267,84.0461],[2.5773,41.7244,78.7848],[2.59,41.7287,80.0868],[2.6052,41.7277,70.4645],[2.6121,41.7308,71.9717],[2.6292,41.731,66.1996],[2.6375,41.7337,83.4455],[2.6394,41.7429,60.4065],[2.6471,41.744,56.1226],[2.6563,41.7428,51.7223],[2.6576,41.7477,57.94],[2.6637,41.7475,60.9083],[2.6806,41.7396,44.7235],[2.6866,41.7413,47.6015],[2.6855,41.7457,59.8258],[2.6807,41.7444,52.0687],[2.6818,41.7483,106.8337],[2.689,41.7464,53.8516],[2.6898,41.7415,49.2402],[2.7006,41.7429,101.2336],[2.703,41.7448,82.1667],[2.7074,41.741,54.9905],[2.7248,41.7443,165.5567],[2.7448,41.735,123.4339],[2.7769,41.7355,288.0883]]],
[[[3.1849,41.8621,0.0],[3.1879,41.8618,0.0],[3.1882,41.8629,0.0],[3.1846,41.8629,0.0],[3.1849,41.8621,0.0]]],
[[[3.2293,42.041,0.0],[3.2282,42.0424,0.0],[3.2262,42.0415,-0.0931],[3.2262,42.0407,-0.0931],[3.2293,42.041,0.0]]],
[[[3.2262,42.0435,0.0],[3.2279,42.0449,0.0],[3.2238,42.0438,0.0],[3.2254,42.0424,0.0],[3.2262,42.0435,0.0]]],
[[[3.2265,42.0482,0.0],[3.2249,42.0504,6.4882],[3.219,42.049,0.0],[3.219,42.0468,0.0],[3.2238,42.0446,0.0],[3.2265,42.0482,0.0]]],
[[[3.3218,42.3232,3.1582],[3.3188,42.3243,2.0035],[3.3218,42.3213,0.0],[3.3246,42.3213,0.0],[3.3246,42.3235,0.0],[3.3238,42.3224,0.0],[3.3218,42.3232,3.1582]]],
[[[2.0013,42.1203,880.0361],[2.0066,42.1159,871.3306],[2.0076,42.1073,698.4835],[2.0149,42.1084,704.9223],[2.0176,42.1103,699.3524],[2.0209,42.117,847.9706],[2.0197,42.1211,793.735],[2.0298,42.1213,774.6832],[2.0314,42.127,872.7067],[2.026,42.1309,853.0009],[2.0204,42.1313,887.1429],[2.0218,42.1277,842.0305],[2.0175,42.1262,902.3176],[2.0025,42.1256,938.1146],[2.006,42.1213,801.2978],[2.0013,42.1203,880.0361]]],
[[[1.9767,42.4862,1418.9203],[1.9627,42.4768,1307.2845],[1.9569,42.4581,1192.4653],[1.9602,42.4535,1167.7057],[1.9692,42.4521,1171.5828],[1.9818,42.4476,1215.7261],[2.0102,42.4492,1273.1084],[2.0128,42.4527,1273.3904],[1.9918,42.4626,1204.0729],[1.9866,42.4727,1274.5908],[1.9858,42.4751,1280.1223],[1.991,42.4847,1380.7825],[1.9967,42.4867,1472.9509],[1.9872,42.4932,1564.9054],[1.9804,42.4944,1537.828],[1.9767,42.4862,1418.9203]]]]}}