{"type": "Feature","bbox": [-5.1898,37.5465,-4.2588,38.0315],"geometry": {"type": "MultiPolygon","coordinates": [[[[-4.5532,37.5765,503.9743],[-4.5486,37.5715,618.321],[-4.5438,37.5705,599.7993],[-4.5297,37.5618,599.7264],[-4.5297,37.5537,577.8051],[-4.5261,37.5465,485.417],[-4.5162,37.5477,516.784],[-4.5083,37.5594,628.9827],[-4.5076,37.5649,684.8186],[-4.503,37.5692,791.9584],[-4.502,37.5727,748.0266],[-4.5129,37.5827,645.5808],[-4.5111,37.5925,482.6913],[-4.5081,37.5977,460.1919],[-4.4831,37.6159,487.5521],[-4.472,37.6197,517.0822],[-4.4528,37.6327,506.2194],[-4.4447,37.6452,448.7744],[-4.4217,37.6595,304.3549],[-4.4117,37.6696,249.243],[-4.3973,37.6896,333.2449],[-4.3928,37.6894,303.6987],[-4.3903,37.6935,330.0953],[-4.39,37.6953,330.0115],[-4.3961,37.6949,368.7546],[-4.3975,37.6993,408.9406],[-4.3956,37.7046,379.7245],[-4.3977,37.706,396.4869],[-4.3945,37.7123,426.8959],[-4.3925,37.7115,444.3522],[-4.3887,37.7183,377.9328],[-4.3873,37.7297,264.2497],[-4.3834,37.7327,321.4906],[-4.3762,37.7453,455.9382],[-4.3769,37.7578,530.363],[-4.383,37.7614,547.8037],[-4.3834,37.7661,539.3782],[-4.374,37.766,435.9667],[-4.3642,37.7785,358.1776],[-4.3593,37.782,345.8019],[-4.3587,37.7856,339.283],[-4.351,37.7849,319.696],[-4.346,37.7916,305.0451],[-4.3369,37.7968,330.0498],[-4.3185,37.8114,292.7245],[-4.3054,37.8183,304.8134],[-4.3011,37.8201,274.8111],[-4.2844,37.8185,284.2538],[-4.2804,37.8307,335.7004],[-4.2776,37.857,372.8012],[-4.2798,37.8761,367.3297],[-4.2732,37.8967,352.8255],[-4.2747,37.9028,361.1455],[-4.2708,37.9055,352.2086],[-4.273,37.91,350.7975],[-4.2709,37.9114,302.7264],[-4.266,37.911,322.501],[-4.2623,37.9151,315.4437],[-4.2588,37.9348,327.2226],[-4.2598,37.9578,254.6979],[-4.2642,37.9735,210.8593],[-4.2795,38.0025,178.7275],[-4.2843,38.0039,177.2307],[-4.2947,37.9972,160.6887],[-4.2997,37.9963,161.6454],[-4.3027,38.0055,173.7472],[-4.324,38.0131,166.6247],[-4.3148,37.9824,177.2749],[-4.3315,37.9802,206.5016],[-4.3285,37.9677,252.7953],[-4.3359,37.9575,295.2004],[-4.3395,37.9587,307.3592],[-4.345,37.9574,252.0043],[-4.3506,37.9454,293.304],[-4.3599,37.9413,314.8794],[-4.3664,37.9482,303.7596],[-4.3781,37.9392,221.382],[-4.3889,37.9439,198.0858],[-4.4015,37.9556,189.3809],[-4.4042,37.9568,178.9666],[-4.4133,37.9553,169.9912],[-4.419,37.9712,196.1999],[-4.4375,37.984,143.106],[-4.4492,37.9762,167.1141],[-4.456,37.9837,154.6228],[-4.4544,37.9846,141.4725],[-4.4647,37.9943,140.7503],[-4.4822,37.9901,145.2533],[-4.4897,37.9915,142.6942],[-4.4967,37.9842,138.003],[-4.502,37.9859,140.3614],[-4.5063,37.9837,137.0],[-4.5132,37.9891,144.3923],[-4.5209,37.9896,190.4005],[-4.5248,37.9858,315.4338],[-4.5393,37.9886,337.4064],[-4.5402,37.9901,338.9565],[-4.5433,37.989,330.9521],[-4.5485,37.9904,346.7346],[-4.5522,37.9877,346.8817],[-4.5683,37.9974,359.6056],[-4.5719,37.9981,378.5169],[-4.5761,38.0027,361.4935],[-4.5828,38.0062,372.6668],[-4.5933,38.0023,241.3882],[-4.5947,38.0002,229.9493],[-4.6027,38.0029,265.5467],[-4.6072,38.0075,253.7328],[-4.6062,38.0081,207.0872],[-4.6288,38.0225,450.2481],[-4.6337,38.0237,449.1214],[-4.6404,38.023,475.7308],[-4.6437,38.0246,481.1382],[-4.6482,38.0223,519.0051],[-4.6512,38.0244,521.3224],[-4.6546,38.0312,504.0126],[-4.6597,38.0315,421.9108],[-4.6714,38.0269,167.1768],[-4.668,38.0257,165.2196],[-4.6671,38.0236,167.6004],[-4.6763,38.0143,195.717],[-4.6763,38.0117,205.1613],[-4.6719,38.0043,157.9011],[-4.6713,37.9944,153.5],[-4.6755,37.9932,153.5],[-4.6793,37.9884,153.5],[-4.6765,37.9859,153.5],[-4.6668,37.9926,157.8191],[-4.6569,37.9932,153.5],[-4.6519,37.9869,153.5],[-4.6554,37.9822,153.5],[-4.6627,37.9786,215.1285],[-4.6654,37.975,360.8245],[-4.6686,37.9745,401.7806],[-4.678,37.9788,356.8726],[-4.7065,37.9843,373.5569],[-4.724,37.9945,309.2572],[-4.7433,37.9996,369.9368],[-4.7683,38.0032,519.1611],[-4.7718,38.005,524.0663],[-4.776,38.0114,495.8839],[-4.7788,38.0126,493.2549],[-4.7805,38.0107,491.9979],[-4.7866,38.0187,502.4598],[-4.7944,38.0224,510.5],[-4.8005,38.0213,531.861],[-4.7986,38.0205,514.2228],[-4.7987,38.0144,492.5089],[-4.7995,38.0115,488.7564],[-4.8024,38.0118,477.9633],[-4.8024,38.0107,477.9633],[-4.7981,38.0076,472.9336],[-4.8004,38.0066,483.4581],[-4.7989,38.0043,472.291],[-4.8015,38.0045,468.2583],[-4.8034,38.0024,457.1814],[-4.8093,38.0046,448.1879],[-4.8173,38.0013,449.9814],[-4.8151,37.9892,428.9434],[-4.8223,37.9857,417.8918],[-4.8313,37.9864,398.4869],[-4.8337,37.9888,385.6617],[-4.8391,37.9895,358.5584],[-4.847,37.9865,341.8385],[-4.8514,37.9885,337.2117],[-4.8855,37.9701,437.0252],[-4.9005,37.9671,561.8721],[-4.915,37.9666,497.246],[-4.9237,37.9681,326.2166],[-4.9441,37.9593,197.8494],[-4.9524,37.9571,188.7753],[-4.9557,37.958,212.0256],[-4.9642,37.9502,232.7854],[-4.9722,37.9462,176.8326],[-4.9777,37.9466,171.0],[-4.9852,37.9391,224.4749],[-4.9903,37.9276,328.2083],[-4.9903,37.9221,171.0],[-4.996,37.9182,282.3111],[-4.9985,37.9099,398.1494],[-5.0067,37.9135,406.6841],[-5.0247,37.9271,294.7741],[-5.0319,37.9259,305.3825],[-5.0535,37.9272,452.8711],[-5.088,37.9328,497.339],[-5.1042,37.9211,485.1756],[-5.1118,37.9206,413.4876],[-5.1379,37.9079,312.0205],[-5.1426,37.9082,284.4092],[-5.1543,37.9045,393.3617],[-5.1733,37.8926,268.0851],[-5.1794,37.8748,238.5186],[-5.1736,37.8641,257.9373],[-5.1715,37.8403,249.7915],[-5.1732,37.8364,254.8312],[-5.1712,37.8331,269.8329],[-5.1768,37.8275,269.0159],[-5.1772,37.8198,150.0414],[-5.1898,37.8061,110.9505],[-5.1852,37.8014,112.388],[-5.1884,37.7982,109.7724],[-5.1845,37.7882,84.6509],[-5.1652,37.7736,61.6368],[-5.1589,37.7717,60.352],[-5.1548,37.7749,60.8241],[-5.1569,37.7766,56.9912],[-5.1529,37.7804,58.9356],[-5.1443,37.7833,61.7184],[-5.1402,37.7812,60.3344],[-5.1395,37.7767,61.7517],[-5.1314,37.768,61.3859],[-5.1188,37.7671,61.2738],[-5.1145,37.7703,93.6941],[-5.1037,37.7598,114.3351],[-5.0937,37.756,108.1632],[-5.0804,37.7384,140.3634],[-5.0718,37.7358,143.7766],[-5.0697,37.7367,148.1985],[-5.0669,37.7494,140.6867],[-5.0705,37.7708,121.2078],[-5.0699,37.7791,89.9703],[-5.0648,37.7823,86.1963],[-5.051,37.7808,93.2606],[-5.0438,37.7856,77.9535],[-5.0429,37.79,73.436],[-5.0416,37.7901,72.0527],[-5.041,37.7871,72.1511],[-5.0364,37.7858,74.4834],[-5.038,37.7824,73.3709],[-5.0313,37.7743,78.9168],[-5.0304,37.7687,90.1696],[-5.0357,37.7618,120.6071],[-5.0326,37.7573,122.6511],[-5.0288,37.7594,124.7852],[-5.0275,37.745,147.7895],[-5.025,37.7387,147.3182],[-4.9965,37.7565,159.2373],[-4.9938,37.76,157.8204],[-4.9915,37.7686,156.0334],[-4.9876,37.7721,114.5613],[-4.9913,37.78,94.550299999999993],[-4.9914,37.7861,108.5935],[-4.9757999999999996,37.7868,119.189],[-4.9663,37.7833,161.6498],[-4.9574,37.7775,175.0614],[-4.945,37.7768,191.7933],[-4.9404,37.7823,175.5528],[-4.9334,37.7839,123.5614],[-4.9269,37.7833,131.7007],[-4.9192,37.7958,194.6369],[-4.914,37.7938,194.257],[-4.9057,37.7949,187.19],[-4.903,37.7967,179.5452],[-4.8971,37.7955,178.4354],[-4.8839,37.7976,218.1547],[-4.8777,37.8041,191.2036],[-4.875,37.8032,202.6563],[-4.8799,37.7965,222.8438],[-4.8809,37.7858,184.0587],[-4.878,37.7744,230.3866],[-4.8934,37.7771,217.1897],[-4.8995,37.7753,218.4227],[-4.9078,37.777,212.7849],[-4.91,37.7761,215.7381],[-4.9063,37.7637,211.5804],[-4.9032,37.7638,210.4771],[-4.922,37.7482,198.7808],[-4.9415,37.7347,182.717],[-4.9266,37.7298,186.5042],[-4.9241,37.7254,200.3214],[-4.9185,37.7232,211.353],[-4.9136,37.7241,205.5589],[-4.9067,37.7171,232.6012],[-4.9023,37.7157,233.2418],[-4.9008,37.7161,233.2418],[-4.9007,37.7187,239.0796],[-4.8916,37.72,241.8015],[-4.8821,37.7181,255.3747],[-4.8721,37.7139,269.4818],[-4.8672,37.7138,270.5089],[-4.8631,37.7158,281.5331],[-4.8531,37.7314,200.854],[-4.837,37.7309,207.9255],[-4.8337,37.7285,219.1311],[-4.8263,37.7282,222.2669],[-4.819,37.7299,220.6476],[-4.8197,37.726,254.3927],[-4.8156,37.7249,245.7319],[-4.8133,37.7284,249.8159],[-4.8082,37.7279,258.2301],[-4.8044,37.7242,271.1342],[-4.7925,37.7271,252.5659],[-4.7928,37.731,237.2947],[-4.7865,37.729,242.1607],[-4.7865,37.724,277.0344],[-4.7793,37.7231,287.6771],[-4.7764,37.7278,248.7709],[-4.7668,37.7285,271.1638],[-4.7614,37.7349,297.7389],[-4.7535,37.7375,267.8481],[-4.7515,37.7345,321.3404],[-4.7438,37.7346,314.2176],[-4.7405,37.7378,290.1536],[-4.7395,37.7419,308.8487],[-4.741,37.7432,316.5214],[-4.7366,37.7451,340.0871],[-4.7305,37.7437,317.2426],[-4.7309,37.7447,318.5342],[-4.729,37.7449,327.5347],[-4.716,37.7403,345.1411],[-4.7171,37.7385,341.2695],[-4.7149,37.7381,349.899],[-4.719,37.7332,325.2052],[-4.7116,37.7194,223.527],[-4.7141,37.718,248.0563],[-4.7055,37.709,205.7727],[-4.7023,37.7099,186.8639],[-4.7032,37.7026,254.8258],[-4.7053,37.7,258.5218],[-4.6934,37.7013,231.4779],[-4.6932,37.6999,242.6275],[-4.6997,37.6961,274.8229],[-4.6978,37.6926,227.1674],[-4.6933,37.6904,206.9661],[-4.6911,37.6944,188.8336],[-4.6824,37.6946,180.1282],[-4.6749,37.6993,172.419],[-4.6694,37.6999,171.7155],[-4.6697,37.6886,181.5196],[-4.6666,37.6807,193.0891],[-4.6615,37.6712,196.3156],[-4.6544,37.6659,209.7725],[-4.6457,37.6758,232.8462],[-4.6326,37.6749,179.3452],[-4.6276,37.6761,175.5553],[-4.6214,37.6839,181.7327],[-4.6206,37.6861,190.324],[-4.6224,37.6883,171.3048],[-4.6208,37.6901,170.7764],[-4.6058,37.6827,202.4713],[-4.6041,37.6788,198.0211],[-4.6056,37.6779,224.2621],[-4.5962,37.6672,237.6009],[-4.5961,37.6599,272.5518],[-4.594,37.6567,259.767],[-4.5937,37.6479,237.1596],[-4.5979,37.6393,226.7247],[-4.5918,37.6333,256.6959],[-4.5954,37.628,235.8857],[-4.5905,37.6257,239.713],[-4.5941,37.6217,250.911],[-4.594,37.6108,278.9106],[-4.5801,37.6046,286.0148],[-4.5747,37.6002,320.7852],[-4.5692,37.5861,383.0102],[-4.5532,37.5765,503.9743]]],
[[[-4.8742,37.6695,266.6212],[-4.8714,37.6681,272.7742],[-4.8682,37.6689,261.9975],[-4.8641,37.6663,239.9586],[-4.8624,37.6674,235.4297],[-4.8703,37.6803,253.4836],[-4.8751,37.6836,229.8411],[-4.8822,37.6677,243.8267],[-4.8767,37.6643,260.078],[-4.8742,37.6695,266.6212]]]]}
,"properties": {"GID_3": "ESP.1.3.4_1","GID_0": "ESP","country": "Spain","GID_1": "ESP.1_1","province": "Andalucía","NL_NAME_1": "NA","GID_2": "ESP.1.3_1","county": "Córdoba","NL_NAME_2": "NA","city": "n.a.(88)","VARNAME_3": "NA","NL_NAME_3": "NA","TYPE_3": "Comarca","ENGTYPE_3": "Comarca","CC_3": "NA","HASC_3": "NA","name": "n.a.(88).city","area_km2": 2240.282,"hist_schema_id": "Elevation0-9000","hist_area_km2": {"50": 3.553,"75": 79.2,"100": 125.182,"125": 158.247,"150": 175.161,"175": 228.906,"200": 201.321,"225": 208.109,"250": 208.507,"275": 202.199,"300": 172.319,"325": 147.098,"350": 85.44,"375": 53.166,"400": 39.644,"425": 31.57,"450": 28.854,"475": 25.436,"500": 21.682,"525": 15.223,"550": 11.141,"575": 8.399,"600": 4.993,"625": 2.765,"650": 1.041,"675": 0.605,"700": 0.302,"725": 0.084,"750": 0.05,"775": 0.084}}}