{"type":"Feature","properties":{"ISO3166-1-Alpha-3":"ESP","country":"Spain","fill":"#FF0","id":"5834","name":"Málaga"},
"geometry":{"type": "Polygon","coordinates": [[[-4.3203,37.18657,635.3784],[-4.32627,37.20271,526.6085],[-4.3722,37.21551,755.1052],[-4.38351,37.27755,415.0],[-4.44494,37.27755,318.1887],[-4.48062,37.23876,303.4479],[-4.53931,37.21131,468.9349],[-4.59627,37.22161,396.204],[-4.61378,37.25524,325.9116],[-4.65323,37.25593,259.0721],[-4.71982,37.25971,410.5342],[-4.7356,37.24493,427.3085],[-4.71843,37.21462,436.8523],[-4.72171,37.19565,450.7762],[-4.73809,37.18124,477.7354],[-4.77727,37.16225,453.4877],[-4.79635,37.15852,447.5977],[-4.83989,37.19178,487.8674],[-4.84813,37.19266,485.186],[-4.85353,37.18811,497.5979],[-4.86159,37.17416,593.1387],[-4.87017,37.16684,599.3876],[-4.87834,37.16603,577.2422],[-4.92084,37.17956,435.9236],[-4.93354,37.17958,413.6224],[-4.94536,37.17666,383.728],[-4.95217,37.17281,398.5479],[-4.95483,37.17015,402.0082],[-4.95693,37.16677,412.4308],[-4.94641,37.15533,416.517],[-4.9021,37.13421,434.0895],[-4.91659,37.11304,586.5891],[-5.14224,37.0037,548.1955],[-5.09703,36.9559,539.89],[-5.08466,36.92538,707.7762],[-5.08808,36.89357,747.8407],[-5.10549,36.86628,814.9382],[-5.13115,36.84378,785.2169],[-5.16177,36.83004,878.1565],[-5.19408,36.82906,731.4526],[-5.26271,36.87388,614.6467],[-5.29072,36.87236,511.9698],[-5.30491,36.86507,713.5917],[-5.33502,36.83967,745.7095],[-5.34139,36.82557,455.7474],[-5.33269,36.80565,412.4933],[-5.2974,36.7707,812.2346],[-5.30071,36.75027,851.4478],[-5.32097,36.72873,854.8549],[-5.33928,36.66635,1092.2341],[-5.35562,36.64885,1109.6666],[-5.38374,36.6346,1087.0574],[-5.44494,36.61817,653.7548],[-5.45454,36.61034,508.0282],[-5.47279,36.58281,483.3934],[-5.48347,36.57314,514.447],[-5.50922,36.55996,265.7439],[-5.5927,36.53864,568.5739],[-5.60194,36.53322,754.7897],[-5.60784,36.51967,1024.3538],[-5.6001,36.50796,941.4806],[-5.58565,36.49896,627.7341],[-5.57141,36.49357,468.2958],[-5.55015,36.4932,337.6763],[-5.51319,36.51178,373.637],[-5.4771,36.52183,533.5585],[-5.4413,36.52365,592.9232],[-5.42621,36.51805,403.5015],[-5.41535,36.507,220.0549],[-5.39147,36.46584,97.1219],[-5.35536,36.43369,268.0856],[-5.33511,36.39526,22.7142],[-5.32,36.32491,6.7782],[-5.27779,36.33691,154.4324],[-5.25365,36.29711,0.0],[-5.2447,36.31208,0.0],[-5.22794,36.34854,0.0],[-5.22712,36.35794,0.0],[-5.19966,36.39716,25.4807],[-5.18655,36.4112,32.7713],[-5.17365,36.41743,17.9963],[-5.15762,36.42194,29.2841],[-5.12104,36.42556,0.0],[-5.10871,36.42902,0.0],[-5.06249,36.45222,9.9752],[-4.99417,36.45709,0.0],[-4.92353,36.49685,0.0],[-4.91218,36.50401,0.0],[-4.90266,36.50654,4.622],[-4.88032,36.50568,0.0],[-4.76423,36.49396,17.2846],[-4.72277,36.49299,45.5452],[-4.68029,36.5008,0.0],[-4.65925,36.50764,21.2493],[-4.64981,36.51211,38.4743],[-4.61502,36.53056,0.0],[-4.5878,36.57382,46.635],[-4.52483,36.58072,0.0],[-4.49535,36.62055,17.4524],[-4.4911199999999996,36.63666,10.9502],[-4.48046,36.65119,5.416],[-4.46687,36.66303,2.9291],[-4.46117,36.67145,2.6361],[-4.43326,36.71068,13.5163],[-4.42032,36.71988,19.6063],[-4.40319,36.72386,78.4494],[-4.22472,36.71239,0.783],[-4.19701,36.7154,0.2567],[-4.11017,36.72573,1.0815],[-4.07996,36.74356,0.0],[-4.05671,36.74799,6.4811],[-3.96096,36.72679,0.0],[-3.88944,36.74339,3.614],[-3.83854,36.75197,0.0],[-3.80343,36.74247,0.0],[-3.77724,36.7358,0.0],[-3.78228,36.76451,354.5],[-3.7682,36.80192,849.452],[-3.82723,36.85546,1479.1305],[-3.87562,36.85305,1339.6873],[-4.14847,36.94847,1027.7998],[-4.26096,37.02397,1089.1602],[-4.27332,37.03805,840.8059],[-4.28063,37.05669,1161.0597],[-4.28708,37.11968,786.3591],[-4.3203,37.18657,635.3784]]]}}