{"type":"Feature","properties":{"GID_3":"ESP.6.4.4_1","GID_0":"ESP","country":"Spain","GID_1":"ESP.6_1","province":"Cataluña","NL_NAME_1":"NA","GID_2":"ESP.6.4_1","county":"Tarragona","NL_NAME_2":"NA","city":"n.a.(243)","VARNAME_3":"NA","NL_NAME_3":"NA","TYPE_3":"Comarca","ENGTYPE_3":"Comarca","CC_3":"NA","HASC_3":"NA","name":"n.a.(243).city"},
"geometry":{"type": "MultiPolygon","coordinates": [[[[0.7653,41.0935,170.8297],[0.7678,41.0952,169.5],[0.771,41.088,233.6454],[0.7703,41.0839,331.4733],[0.7872,41.0779,421.4105],[0.7919,41.0709,575.9363],[0.8009,41.0698,593.6154],[0.8058,41.066,679.7991],[0.8155,41.067,451.4192],[0.8157,41.0713,432.4678],[0.819,41.0716,386.1557],[0.8204,41.0746,395.5576],[0.8246,41.0774,499.0968],[0.8232,41.0842,576.8518],[0.8245,41.087,581.9089],[0.822,41.0881,657.953],[0.8203,41.0866,588.9566],[0.8268,41.0984,734.9863],[0.8307,41.0968,687.2006],[0.8431,41.0998,781.5432],[0.8392,41.1057,576.3633],[0.837,41.1135,452.264],[0.8342,41.1154,459.3358],[0.831,41.1141,387.1694],[0.8269,41.1199,283.2187],[0.8323,41.1223,308.3431],[0.841,41.1161,409.0274],[0.8512,41.1129,622.2684],[0.8533,41.11,683.9839],[0.8637,41.1109,661.3127],[0.8652,41.1123,605.1832],[0.8774,41.1106,723.4427],[0.8845,41.117,570.3531],[0.8908,41.1409,666.9856],[0.8957,41.1458,698.6464],[0.9061,41.1652,750.3401],[0.9018,41.1704,698.2232],[0.9011,41.1749,582.6088],[0.903,41.1751,578.8737],[0.9063,41.1799,591.9331],[0.8909,41.1805,536.5878],[0.8794,41.1833,581.8165],[0.8771,41.1879,522.278],[0.8793,41.1906,447.6099],[0.8786,41.1936,400.7415],[0.904,41.1943,674.6566],[0.9161,41.1975,650.1699],[0.9229,41.2031,761.7054],[0.9212,41.2051,779.0581],[0.9211,41.2132,871.4471],[0.923,41.2168,841.9819],[0.9298,41.2192,768.2706],[0.9346,41.2237,651.9912],[0.9398,41.2223,707.7049],[0.9393,41.2212,617.4981],[0.9425,41.2223,689.671],[0.9525,41.2209,648.6637],[0.9558,41.2213,632.9578],[0.9569,41.2236,615.3796],[0.9615,41.2233,649.8818],[0.9677,41.2273,688.4489],[0.9711,41.2272,671.9406],[0.973,41.2293,675.3091],[0.9803,41.2263,594.319],[0.9883,41.2272,714.8433],[0.9886,41.2288,622.6329],[0.9858,41.2296,663.635],[0.9859,41.2314,640.717],[0.9836,41.2315,662.6008],[0.981,41.2357,698.1779],[0.9888,41.2336,562.5972],[0.9928,41.241,717.0199],[1.0007,41.2494,958.3897],[0.9996,41.2504,958.3897],[1.0011,41.2537,926.2769],[0.9963,41.2579,830.2864],[0.9971,41.2594,842.8666],[1.0044,41.2595,854.9135],[1.0063,41.2636,948.907],[1.0153,41.2596,993.4776],[1.0171,41.2653,989.48],[1.0271,41.265,1020.7342],[1.0356,41.271,986.1309],[1.0396,41.2712,1002.1243],[1.0401,41.2752,994.5965],[1.0534,41.268,1058.9219],[1.0887,41.2638,912.7794],[1.0997,41.2663,895.2633],[1.1015,41.2677,897.5355],[1.0986,41.2719,840.099],[1.1093,41.2765,451.581],[1.1229,41.2693,369.1654],[1.1312,41.2726,616.547],[1.1332,41.27,538.8816],[1.1388,41.2714,533.9292],[1.1402,41.2742,534.5693],[1.1378,41.277,571.1228],[1.1365,41.2855,687.9138],[1.1305,41.2854,739.8328],[1.1252,41.2905,832.9366],[1.1344,41.2934,813.4689],[1.1439,41.3026,541.3181],[1.1458,41.3069,474.8903],[1.1447,41.3092,463.2162],[1.1385,41.3086,462.7566],[1.1335,41.3058,458.4947],[1.1265,41.3054,486.815],[1.114,41.3083,517.4742],[1.1068,41.3082,521.2496],[1.1028,41.3098,529.814],[1.1079,41.3134,553.1945],[1.1059,41.3149,564.1157],[1.0778,41.3188,832.0612],[1.0747,41.3213,982.4882],[1.0649,41.3203,1006.9181],[1.0671,41.3235,1029.2549],[1.0643,41.3261,1119.9307],[1.0412,41.3253,1012.3247],[1.0371,41.3266,1098.5464],[1.0344,41.3296,1133.3114],[1.027,41.3262,1128.0393],[1.0191,41.3306,1136.6565],[1.0196,41.3327,1130.5048],[1.0135,41.3281,1193.3406],[1.0106,41.3284,1154.1785],[1.0052,41.3256,1166.9893],[1.0018,41.331,1122.1708],[1.005,41.3463,1059.4012],[1.0004,41.3492,977.1948],[0.9988,41.3525,1010.7],[0.9939,41.3529,975.048],[0.9914,41.3579,824.8011],[0.971,41.3614,840.3804],[0.9669,41.3596,896.6902],[0.9643,41.3555,964.6249],[0.9518,41.3518,993.8785],[0.9482,41.3522,993.4479],[0.9449,41.35,976.259],[0.9342,41.3504,921.8788],[0.9219,41.3486,871.5389],[0.9118,41.3499,883.5665],[0.9016,41.3476,863.6008],[0.8931,41.3435,823.5281],[0.8721,41.3408,848.468],[0.8633,41.3381,812.4417],[0.8467,41.3549,653.8651],[0.8448,41.362,640.2149],[0.8322,41.3588,630.3789],[0.8195,41.3288,764.9674],[0.813,41.3273,779.3066],[0.802,41.3304,723.5556],[0.7948,41.3287,708.3575],[0.7921,41.3314,704.8049],[0.7613,41.3338,680.3567],[0.7505,41.3248,684.4967],[0.7516,41.3179,631.8402],[0.7536,41.3149,639.2835],[0.7501,41.3116,635.6642],[0.7453,41.3118,585.8736],[0.7389,41.3088,584.3026],[0.7287,41.3092,554.8738],[0.7214,41.3071,542.1249],[0.7198,41.304,531.165],[0.7034,41.3028,478.1163],[0.7015,41.3014,487.6151],[0.6886,41.3048,430.8571],[0.6758,41.3023,400.5851],[0.6647,41.2969,374.1741],[0.6533,41.2944,356.9642],[0.6498,41.292,365.0293],[0.6496,41.2878,366.9185],[0.6449,41.2884,346.3706],[0.6399,41.2853,339.4222],[0.6372,41.2813,359.4296],[0.633,41.2812,341.0833],[0.6167,41.2754,327.4338],[0.6181,41.2736,305.2865],[0.6157,41.2692,302.5329],[0.6185,41.2628,296.2455],[0.6154,41.2596,304.4391],[0.6159,41.2566,301.6046],[0.6199,41.2555,285.4711],[0.6271,41.2501,269.2092],[0.6266,41.2449,233.7024],[0.6299,41.2337,184.5634],[0.6378,41.238,235.0417],[0.6465,41.2388,266.9188],[0.6559,41.2444,294.681],[0.6685,41.2448,382.0851],[0.6735,41.247,381.9269],[0.6849,41.2455,459.4168],[0.6858,41.2369,429.0662],[0.688,41.2351,416.6689],[0.6879,41.232,445.0826],[0.6856,41.2301,437.2631],[0.6856,41.2247,374.77],[0.6905,41.222,372.2343],[0.6939,41.2225,367.9655],[0.7011,41.2171,452.1108],[0.706,41.2162,524.5],[0.7037,41.2159,504.8257],[0.695,41.2073,457.1302],[0.6874,41.2034,436.5277],[0.6863,41.2005,457.9667],[0.6813,41.201,448.4652],[0.6713,41.1938,408.3151],[0.67,41.1912,490.4731],[0.66,41.1885,445.1236],[0.6584,41.1855,460.3153],[0.6772,41.1719,316.611],[0.6761,41.1642,164.1035],[0.6831,41.1534,182.1237],[0.6877,41.1508,218.8408],[0.6919,41.1439,143.0059],[0.6946,41.1423,113.9286],[0.6976,41.1343,44.6379],[0.6906,41.1338,42.2775],[0.6936,41.1315,49.9279],[0.6932,41.1287,73.8159],[0.6957,41.1294,61.3211],[0.6976,41.1272,66.35],[0.7008,41.1266,76.7229],[0.7003,41.1243,73.9786],[0.7052,41.1237,78.0213],[0.7073,41.1197,88.7221],[0.7128,41.1169,110.6177],[0.7111,41.115,146.101],[0.7175,41.1093,148.5108],[0.7125,41.1051,94.7472],[0.7206,41.1027,103.0201],[0.7327,41.1032,118.0566],[0.7374,41.0973,156.9366],[0.749,41.0911,222.8304],[0.7517,41.0852,237.5166],[0.7609,41.0847,286.657],[0.7648,41.0887,266.6176],[0.7653,41.0935,170.8297]]]]}}