{"type":"Feature","properties":{"GID_3":"ESP.12.3.2_1","GID_0":"ESP","country":"Spain","GID_1":"ESP.12_1","province":"Galicia","NL_NAME_1":"NA","GID_2":"ESP.12.3_1","county":"Ourense","NL_NAME_2":"NA","city":"n.a.(198)","VARNAME_3":"NA","NL_NAME_3":"NA","TYPE_3":"Comarca","ENGTYPE_3":"Comarca","CC_3":"NA","HASC_3":"NA","name":"n.a.(198).city"},
"geometry":{"type": "MultiPolygon","coordinates": [[[[-8.0552,41.8168,1362.8674],[-8.0534,41.8206,1487.2185],[-8.0508,41.8194,1475.3529],[-8.0457,41.8241,1424.7886],[-8.0413,41.8252,1511.5376],[-8.0416,41.8278,1512.3918],[-8.039,41.8298,1484.634],[-8.0301,41.8296,1410.4346],[-8.0193,41.8321,1267.5437],[-8.0131,41.8295,1314.3291],[-8.0121,41.8346,1322.6881],[-8.0058,41.8446,1294.2968],[-8.006,41.8471,1282.2915],[-8.003,41.8503,1308.1257],[-7.9957,41.8525,1344.6566],[-7.9944,41.8542,1352.3972],[-7.9956,41.858,1381.0011],[-7.9894,41.8595,1381.0133],[-7.9899,41.8625,1373.4196],[-7.9877,41.8692,1345.2214],[-7.9745,41.8753,1359.5608],[-7.9715,41.8764,1279.8934],[-7.9692,41.8744,1237.1365],[-7.962,41.8742,1315.4567],[-7.961,41.8756,1302.7795],[-7.9581,41.8755,1269.3282],[-7.9561,41.8732,1255.7083],[-7.9488,41.871,1196.9312],[-7.9285,41.8778,1367.6511],[-7.9212,41.8778,1360.9421],[-7.9197,41.8802,1361.4192],[-7.9213,41.8818,1355.5518],[-7.9101,41.9073,931.3359],[-7.9097,41.9225,838.7499],[-7.9063,41.9271,849.6119],[-7.8879,41.9268,870.43],[-7.8847,41.9243,873.2864],[-7.8837,41.9184,861.8823],[-7.8874,41.9073,853.1924],[-7.8844,41.8891,1022.7664],[-7.8848,41.8809,1002.1303],[-7.8884,41.8697,1119.3938],[-7.8882,41.8661,1184.5861],[-7.8922,41.8595,1260.0088],[-7.8879,41.8556,1256.4724],[-7.8816,41.8561,1266.1631],[-7.8728,41.8449,1386.2949],[-7.8719,41.8501,1368.7642],[-7.8663,41.8589,1305.4766],[-7.859,41.8605,1352.7637],[-7.8584,41.8626,1364.0386],[-7.8494,41.8617,1315.9379],[-7.8415,41.8665,1354.0378],[-7.8452,41.8813,1306.7948],[-7.8028,41.8819,1122.0007],[-7.7869,41.8841,1221.2454],[-7.7783,41.8869,1176.2449],[-7.7635,41.899,1231.0411],[-7.7532,41.8982,1173.6901],[-7.7498,41.8948,1122.9285],[-7.745,41.8931,1087.1191],[-7.7333,41.8923,1272.6125],[-7.7221,41.9004,1346.6824],[-7.7008,41.9077,1336.6136],[-7.6878,41.9022,1210.3503],[-7.6781,41.8932,831.9382],[-7.6682,41.8933,788.9729],[-7.6654,41.8878,754.6096],[-7.6538,41.8812,741.2955],[-7.6254,41.8799,652.8783],[-7.6184,41.8851,667.7419],[-7.6076,41.8795,581.8631],[-7.5915,41.8807,581.1855],[-7.5872,41.8795,583.9048],[-7.5858,41.8819,573.4231],[-7.5833,41.8787,611.9944],[-7.5841,41.8757,609.5279],[-7.5886,41.8735,612.6252],[-7.5893,41.8711,611.5252],[-7.5983,41.8693,648.8186],[-7.6018,41.8665,658.0264],[-7.5994,41.8647,664.9127],[-7.6001,41.8604,674.3554],[-7.6072,41.8526,704.5438],[-7.6061,41.8487,715.9272],[-7.6096,41.8487,707.2021],[-7.6115,41.8467,718.978],[-7.6147,41.8326,770.4109],[-7.6139,41.8297,752.2487],[-7.6114,41.8292,758.1635],[-7.5988,41.8331,840.4973],[-7.5739,41.8297,858.3107],[-7.5662,41.8329,847.9995],[-7.559,41.8344,814.6909],[-7.5509,41.8337,797.3535],[-7.5491,41.8358,783.0646],[-7.5441,41.8354,761.6812],[-7.544,41.8368,750.9823],[-7.5406,41.8375,730.6591],[-7.5385,41.8366,648.8729],[-7.521,41.842,677.8216],[-7.5056,41.8508,533.5366],[-7.5076,41.8556,643.6135],[-7.5133,41.8621,807.5149],[-7.5113,41.8653,795.3839],[-7.5022,41.8694,726.0727],[-7.4913,41.8712,678.4385],[-7.4852,41.8613,542.7062],[-7.4742,41.8638,433.1166],[-7.4525,41.8651,365.3174],[-7.4456,41.8578,365.4502],[-7.4488,41.8528,364.1566],[-7.4475,41.8449,376.9325],[-7.4437,41.8394,390.8703],[-7.4272,41.8331,360.9568],[-7.4258,41.8302,361.1303],[-7.4264,41.8263,359.8265],[-7.4303,41.8248,360.8363],[-7.4309,41.8229,360.6088],[-7.4247,41.8165,363.2625],[-7.4295,41.8124,374.2704],[-7.4276,41.8074,358.3216],[-7.4211,41.8113,366.124],[-7.4163,41.8116,365.9279],[-7.4157,41.8135,366.288],[-7.4088,41.8167,369.9874],[-7.4027,41.8218,381.277],[-7.4026,41.8255,379.3411],[-7.3976,41.8264,383.5883],[-7.3952,41.8295,382.6259],[-7.3948,41.8332,389.0081],[-7.3916,41.835,389.7019],[-7.3904,41.8423,401.2947],[-7.3862,41.8413,442.6737],[-7.3726,41.849,564.9973],[-7.3696,41.8488,624.5328],[-7.3658,41.8528,654.9526],[-7.3639,41.8528,678.6087],[-7.3564,41.8405,757.8528],[-7.3349,41.8451,1038.9198],[-7.3153,41.8425,935.7664],[-7.3051,41.8473,806.6605],[-7.301,41.8516,807.4335],[-7.2838,41.8522,691.8037],[-7.272,41.8596,752.1861],[-7.2622,41.8628,800.6614],[-7.2578,41.8659,803.1307],[-7.245,41.8688,595.5873],[-7.232,41.8673,644.6799],[-7.2195,41.8728,667.7866],[-7.2083,41.88,625.8039],[-7.2049,41.879,650.4164],[-7.1967,41.88,692.3254],[-7.1852,41.8964,726.9479],[-7.1816,41.9084,587.6255],[-7.182,41.9129,523.6537],[-7.1735,41.9193,545.3814],[-7.1787,41.921,565.4482],[-7.1755,41.9226,568.7334],[-7.1783,41.9253,557.0784],[-7.18,41.9317,553.7794],[-7.1838,41.933,561.7686],[-7.1852,41.9354,611.3729],[-7.1833,41.9377,586.4722],[-7.1858,41.9379,579.1847],[-7.1871,41.9415,571.4816],[-7.1895,41.9416,578.9827],[-7.1838,41.9447,604.3234],[-7.1874,41.9475,584.8997],[-7.1821,41.9518,612.4702],[-7.1833,41.9567,586.8704],[-7.1877,41.9567,603.2896],[-7.1853,41.9599,598.2296],[-7.1869,41.9663,582.6843],[-7.1848,41.9725,586.7473],[-7.1926,41.9756,597.4282],[-7.1947,41.9798,612.3229],[-7.1966,41.979,604.2784],[-7.1965,41.9814,611.7314],[-7.2051,41.9853,644.5538],[-7.2102,41.9828,770.5178],[-7.2152,41.9833,826.541],[-7.2228,41.9785,832.2246],[-7.2345,41.9805,665.0481],[-7.2349,41.9856,719.4335],[-7.2289,41.9903,762.2983],[-7.2295,41.9934,750.8666],[-7.2318,41.9943,755.881],[-7.2313,42.0002,757.5447],[-7.2363,42.005,793.1123],[-7.2357,42.007,804.7163],[-7.2404,42.0102,701.9272],[-7.2525,42.0118,880.9994],[-7.2641,42.0188,1095.7128],[-7.2672,42.0262,1122.5573],[-7.2715,42.0292,1094.3123],[-7.2744,42.0377,1099.1573],[-7.2677,42.0544,874.3639],[-7.2679,42.067,1097.0114],[-7.2755,42.0703,1147.521],[-7.283,42.0807,951.575],[-7.2891,42.0861,946.3635],[-7.2938,42.0873,898.2796],[-7.2959,42.0916,878.33],[-7.2954,42.1027,1085.4961],[-7.3165,42.1045,1055.8175],[-7.3332,42.1118,1163.8239],[-7.3365,42.1106,1184.4139],[-7.3464,42.1111,1214.9515],[-7.3507,42.1087,1305.9087],[-7.3534,42.1091,1316.335],[-7.3687,42.1167,1335.7756],[-7.3699,42.1246,1387.0852],[-7.3766,42.1317,1373.4761],[-7.375,42.1425,1392.4401],[-7.3795,42.1536,1535.1572],[-7.3858,42.161,1478.4098],[-7.382,42.1689,1469.0044],[-7.3773,42.173,1534.8745],[-7.3883,42.1924,1506.3225],[-7.4048,42.1858,1233.7405],[-7.4142,42.1843,1140.8279],[-7.4196,42.1798,1056.9871],[-7.4458,42.1924,1161.0275],[-7.447,42.1958,1193.302],[-7.457,42.204,1272.9998],[-7.4643,42.1899,1477.4491],[-7.4785,42.1927,1515.4637],[-7.4842,42.1966,1515.5507],[-7.4841,42.2031,1536.2455],[-7.4995,42.2113,1587.165],[-7.5081,42.2225,1380.0887],[-7.51,42.2366,1282.4081],[-7.5293,42.2404,1080.9806],[-7.5302,42.2457,1119.8013],[-7.5562,42.2583,913.6023],[-7.5565,42.268,981.3527],[-7.5589,42.272,983.0675],[-7.5735,42.2724,973.2025],[-7.574,42.2814,965.244],[-7.5809,42.2967,966.7134],[-7.5729,42.3126,917.2457],[-7.5896,42.3113,946.493],[-7.5938,42.3165,965.8101],[-7.6196,42.2963,595.2035],[-7.6311,42.2915,555.7297],[-7.634,42.2929,559.0159],[-7.6531,42.2911,602.3666],[-7.6616,42.298,619.2349],[-7.6702,42.3136,727.6711],[-7.6744,42.3136,714.684],[-7.6833,42.3075,704.678],[-7.6917,42.3067,759.9805],[-7.7067,42.3004,753.976],[-7.6994,42.2984,748.1113],[-7.6963,42.293,741.5897],[-7.6912,42.2917,742.0359],[-7.6949,42.2825,696.7592],[-7.7049,42.2768,669.6819],[-7.7057,42.2748,668.2792],[-7.7013,42.2746,673.2137],[-7.7046,42.2691,674.5239],[-7.7044,42.2648,692.8758],[-7.7245,42.262,668.8089],[-7.7417,42.2486,552.194],[-7.7476,42.2482,491.5852],[-7.7575,42.2523,436.4929],[-7.7632,42.2424,559.9191],[-7.7735,42.2379,649.0784],[-7.7677,42.2237,599.6589],[-7.769,42.2208,591.1312],[-7.7656,42.2209,594.6847],[-7.7613,42.2181,593.8225],[-7.758,42.2151,595.3873],[-7.7588,42.2117,590.0388],[-7.7495,42.2061,461.2141],[-7.7454,42.2068,464.0773],[-7.744,42.2056,457.2788],[-7.7544,42.1728,751.2173],[-7.766,42.1683,719.9399],[-7.7702,42.1588,735.6901],[-7.771,42.1439,680.3857],[-7.7662,42.136,644.7762],[-7.7695,42.1251,726.4343],[-7.7782,42.1218,771.2624],[-7.7875,42.1237,855.0812],[-7.7966,42.1361,819.6276],[-7.8042,42.1411,872.7218],[-7.809,42.138,835.7688],[-7.8138,42.1432,863.8987],[-7.8133,42.1524,876.3687],[-7.821,42.1542,862.9747],[-7.8511,42.1516,847.5734],[-7.857,42.1532,899.7957],[-7.8612,42.1452,854.1332],[-7.8756,42.1274,802.0096],[-7.8768,42.1229,808.7874],[-7.8908,42.1124,836.7673],[-7.911,42.1102,789.4506],[-7.9141,42.1069,775.2111],[-7.9209,42.1139,708.5693],[-7.9329,42.1193,539.895],[-7.9346,42.1226,553.7663],[-7.9492,42.1293,648.7745],[-7.9751,42.1179,855.4302],[-7.9803,42.118,847.8845],[-7.9816,42.1226,818.3302],[-7.9876,42.1262,806.5633],[-7.9897,42.1353,763.756],[-7.995,42.1462,716.4186],[-8.0111,42.1398,679.5753],[-8.0055,42.1239,728.2703],[-8.0058,42.1216,714.948],[-8.0134,42.119,788.099],[-8.03,42.1228,787.0585],[-8.0414,42.1153,818.0766],[-8.0608,42.1193,810.4991],[-8.0749,42.112,619.5277],[-8.0805,42.1015,853.0166],[-8.0939,42.0907,1170.9924],[-8.0926,42.0892,1172.4958],[-8.0973,42.0809,1218.0742],[-8.1037,42.0751,1248.3223],[-8.0966,42.0723,1259.3971],[-8.0882,42.0576,1247.4038],[-8.0844,42.0473,1280.8776],[-8.0827,42.0282,1328.1449],[-8.086,42.0165,1279.0295],[-8.0931,42.0118,1164.0518],[-8.115,42.0049,1215.7368],[-8.1247,42.0066,1222.4757],[-8.1278,42.0056,1175.0424],[-8.1407,41.9887,975.5577],[-8.163,41.9827,718.7139],[-8.1628,41.9756,714.571],[-8.1692,41.9662,708.5414],[-8.1695,41.963,669.9155],[-8.1736,41.9624,646.1115],[-8.1762,41.9589,634.9516],[-8.1749,41.955,605.0814],[-8.1801,41.9537,586.5618],[-8.1979,41.9395,503.2556],[-8.1978,41.9375,491.2449],[-8.2025,41.9324,472.2114],[-8.2043,41.927,366.9405],[-8.2102,41.9236,357.7448],[-8.212,41.9186,335.2953],[-8.2167,41.9136,339.2727],[-8.2168,41.9053,325.0],[-8.2143,41.9012,325.0],[-8.2149,41.8979,325.0],[-8.2055,41.8937,334.4381],[-8.2013,41.8881,331.7338],[-8.2005,41.8828,325.0],[-8.1979,41.8795,325.0],[-8.2007,41.8782,325.0],[-8.2,41.8737,331.021],[-8.1925,41.8766,325.0],[-8.1829,41.875,325.0],[-8.1717,41.8791,325.0],[-8.1693,41.8765,339.7647],[-8.1664,41.8624,571.3135],[-8.1617,41.861,777.5137],[-8.165,41.8181,1207.7711],[-8.1543,41.818,1106.2001],[-8.1309,41.8089,770.4236],[-8.1244,41.8086,911.7842],[-8.1166,41.8127,1107.115],[-8.1045,41.8118,1231.6505],[-8.0939,41.808,1302.6683],[-8.0933,41.8111,1303.5865],[-8.0904,41.8124,1308.5708],[-8.0873,41.8129,1390.1155],[-8.0839,41.8107,1398.6368],[-8.0789,41.8136,1369.9844],[-8.0734,41.8132,1446.968],[-8.0655,41.8174,1394.7891],[-8.0605,41.8157,1341.3896],[-8.0552,41.8168,1362.8674]]]]}}