{"type": "Feature","bbox": [-0.7744,38.4742,-0.3165,38.7595],"geometry": {"type": "MultiPolygon","coordinates": [[[[-0.6261,38.4854,635.5162],[-0.6214,38.4823,637.8979],[-0.6196,38.4785,769.663],[-0.6147,38.4764,861.8168],[-0.595,38.4742,444.4888],[-0.5621,38.481,641.7294],[-0.5536,38.5035,583.6285],[-0.5569,38.5108,739.1857],[-0.5451,38.5249,736.271],[-0.5411,38.5351,1181.3835],[-0.5449,38.5357,1094.7136],[-0.5481,38.5431,1080.5792],[-0.5518,38.5448,1041.308],[-0.5503,38.5499,1104.5697],[-0.5526,38.5519,1104.6943],[-0.5547,38.5645,909.9852],[-0.5568,38.5657,882.5306],[-0.5604,38.573,957.6234],[-0.5566,38.5789,1004.4985],[-0.5583,38.5824,957.9216],[-0.557,38.5869,844.4222],[-0.5673,38.5869,816.3015],[-0.5749,38.5898,788.7916],[-0.5709,38.5917,828.2386],[-0.5645,38.5912,895.5796],[-0.5473,38.5973,1027.1521],[-0.537,38.5989,1079.5255],[-0.5103,38.6087,1134.8894],[-0.4844,38.6306,1016.1006],[-0.4831,38.6426,806.9567],[-0.4732,38.6467,783.3671],[-0.4686,38.6509,764.8834],[-0.4669,38.6495,770.8011],[-0.4672,38.6413,795.1667],[-0.4645,38.6425,843.1799],[-0.4597,38.6401,864.783],[-0.4601,38.6365,834.5992],[-0.4506,38.628,1026.3362],[-0.4448,38.6259,1136.4888],[-0.4373,38.6277,1209.5222],[-0.4286,38.636,1285.9933],[-0.4273,38.6342,1255.7742],[-0.4202,38.6346,1178.1758],[-0.4173,38.6379,1088.7759],[-0.4122,38.6342,992.2828],[-0.4078,38.6357,1033.5693],[-0.4069,38.6347,984.3877],[-0.4096,38.6331,942.2295],[-0.4069,38.6302,895.884],[-0.4002,38.6284,833.9229],[-0.3859,38.6162,786.5797],[-0.3636,38.6178,676.1289],[-0.3516,38.6153,619.3481],[-0.3495,38.6123,594.9211],[-0.344,38.6178,645.1649],[-0.333,38.6218,789.8993],[-0.3315,38.6239,788.8987],[-0.3338,38.6303,902.4771],[-0.3295,38.6374,872.028],[-0.3243,38.6372,843.5956],[-0.3165,38.6416,841.9375],[-0.3184,38.6433,925.9002],[-0.3255,38.6445,1021.9349],[-0.3275,38.6466,1082.5023],[-0.3261,38.6487,1027.8755],[-0.3287,38.652,980.6508],[-0.3356,38.654,954.6838],[-0.3534,38.6493,1011.6048],[-0.3543,38.6613,931.5133],[-0.3517,38.663,911.3034],[-0.3512,38.6672,936.4401],[-0.3494,38.6689,919.692],[-0.347,38.6675,943.0029],[-0.3452,38.6726,925.1385],[-0.3434,38.6728,903.3924],[-0.346,38.6803,716.7366],[-0.3449,38.6827,656.2128],[-0.3427,38.6819,675.8655],[-0.342,38.6841,644.8691],[-0.348,38.6859,636.6949],[-0.3493,38.6847,609.6516],[-0.3548,38.6855,607.5255],[-0.3545,38.6913,677.4202],[-0.357,38.6911,673.809],[-0.3571,38.6983,574.4785],[-0.36,38.7021,537.3977],[-0.3594,38.7041,514.5943],[-0.3654,38.7087,515.0784],[-0.3698,38.7091,481.7071],[-0.371,38.7118,492.3885],[-0.3779,38.71,539.2029],[-0.3797,38.7068,580.2808],[-0.3743,38.7011,554.3477],[-0.3805,38.6948,543.3247],[-0.384,38.6956,523.6926],[-0.3866,38.692,551.0253],[-0.3917,38.6903,553.493],[-0.4061,38.6907,596.2575],[-0.4172,38.6887,675.2025],[-0.4294,38.6914,968.1835],[-0.4363,38.6881,1014.8004],[-0.4439,38.7016,672.2634],[-0.4493,38.7029,629.3731],[-0.4478,38.7058,548.3783],[-0.4505,38.7139,465.3228],[-0.4587,38.7162,516.3522],[-0.4648,38.7157,543.6136],[-0.4666,38.7181,564.5231],[-0.4737,38.7215,636.0599],[-0.4743,38.7234,673.9202],[-0.4942,38.734,1013.7769],[-0.4939,38.7384,1031.364],[-0.5122,38.7435,995.0029],[-0.5158,38.7397,978.5757],[-0.5233,38.7381,954.8303],[-0.5245,38.7356,951.3981],[-0.5349,38.7331,875.4933],[-0.5512,38.7171,1003.9969],[-0.5841,38.7086,1066.4418],[-0.5937,38.6999,1068.09],[-0.6089,38.6945,976.1548],[-0.6169,38.6894,933.7928],[-0.618,38.6867,913.8989],[-0.6286,38.6866,871.6471],[-0.6296,38.6899,857.4353],[-0.6381,38.6977,763.4467],[-0.6425,38.7044,732.4888],[-0.6399,38.7065,732.5408],[-0.6435,38.7184,848.6047],[-0.6434,38.7278,945.0348],[-0.6531,38.7306,747.8694],[-0.671,38.7317,684.0471],[-0.6778,38.7294,676.3933],[-0.6887,38.7413,751.6234],[-0.7071,38.7339,702.1923],[-0.7082,38.7385,702.7122],[-0.7171,38.7506,801.5533],[-0.7222,38.7537,824.7504],[-0.7332,38.7517,839.5614],[-0.736,38.7536,852.4899],[-0.7319,38.7563,864.2838],[-0.7349,38.7595,874.0309],[-0.7371,38.7567,834.9966],[-0.7447,38.7593,881.9182],[-0.7457,38.7587,855.1584],[-0.7268,38.7275,675.3511],[-0.6927,38.686,1034.8171],[-0.6784,38.6581,1154.1444],[-0.6901,38.6489,1124.172],[-0.6947,38.6401,1091.993],[-0.7129,38.6302,1084.2693],[-0.7178,38.6251,1156.2584],[-0.7254,38.6129,797.8054],[-0.7325,38.5961,736.049],[-0.7744,38.5754,633.5907],[-0.7491,38.5518,859.5641],[-0.7441,38.5516,1030.4438],[-0.7168,38.5384,1052.9086],[-0.6979,38.5255,903.9563],[-0.6681,38.5127,982.1563],[-0.6594,38.5069,1055.354],[-0.6538,38.4952,691.4022],[-0.6354,38.498,1083.679],[-0.6314,38.5023,1221.4276],[-0.6303,38.4937,780.2517],[-0.6267,38.4893,711.1177],[-0.6261,38.4854,635.5162]]]]}
,"properties": {"GID_3": "ESP.10.1.2_1","GID_0": "ESP","country": "Spain","GID_1": "ESP.10_1","province": "ComunidadValenciana","NL_NAME_1": "NA","GID_2": "ESP.10.1_1","county": "Alicante","NL_NAME_2": "NA","city": "Alcoia","VARNAME_3": "NA","NL_NAME_3": "NA","TYPE_3": "Comarca","ENGTYPE_3": "Comarca","CC_3": "NA","HASC_3": "NA","name": "Alcoia.city","area_km2": 539.3429,"hist_schema_id": "Elevation0-9000","hist_area_km2": {"350": 0.0166,"375": 0.2489,"400": 0.7135,"425": 1.2776,"450": 2.4887,"475": 4.0469,"500": 5.7044,"525": 8.1896,"550": 13.0105,"575": 16.2911,"600": 18.7249,"625": 23.2479,"650": 31.8552,"675": 32.2302,"700": 26.4833,"725": 23.9491,"750": 25.6866,"775": 25.982,"800": 27.0249,"825": 24.2107,"850": 27.5061,"875": 24.5591,"900": 23.7146,"925": 24.8735,"950": 24.840699999999998,"975": 22.2428,"1000": 19.3794,"1025": 13.5328,"1050": 11.48,"1075": 9.1608,"1100": 7.1895,"1125": 5.1524,"1150": 3.8102,"1175": 3.6119,"1200": 2.3192,"1225": 2.0869,"1250": 0.9605,"1275": 0.6623,"1300": 0.6126,"1325": 0.2484,"1350": 0.0166}}}