{"type": "Feature","bbox": [-5.3913,41.6735,-4.8671,42.3118],"geometry": {"type": "MultiPolygon","coordinates": [[[[-5.2834,41.6735,824.7772],[-5.2591,41.6773,815.4892],[-5.2527,41.6823,820.8499],[-5.2435,41.6843,825.2266],[-5.2265,41.6823,828.0319],[-5.2105,41.6849,826.0302],[-5.198,41.6904,828.5623],[-5.1841,41.6917,828.9844],[-5.1533,41.7118,832.325],[-5.1491,41.7089,833.0365],[-5.1454,41.7106,832.1019],[-5.1376,41.7086,833.4598],[-5.1308,41.7264,835.0266],[-5.1381,41.7345,833.4811],[-5.135,41.7342,835.254],[-5.1276,41.7414,835.9773],[-5.1029,41.7532,836.7729],[-5.0784,41.7691,839.9344],[-5.0731,41.7703,838.4392],[-5.0783,41.7743,840.9644],[-5.0679,41.7756,840.5959],[-5.0632,41.7814,840.5585],[-5.065,41.7889,841.5956],[-5.0636,41.8035,840.1953],[-5.0569,41.8173,834.1422],[-5.0441,41.8165,827.6713],[-5.0483,41.802,842.3519],[-5.0456,41.7936,841.7742],[-5.0358,41.795,842.353],[-5.0143,41.8056,845.054],[-5.0057,41.8058,844.8821],[-4.9988,41.8106,844.7275],[-5.0054,41.8143,846.1614],[-5.002,41.8135,845.3736],[-4.9906,41.8156,845.4329],[-4.9829,41.8082,846.6051],[-4.9813,41.8092,845.9116],[-4.982,41.8158,846.0309],[-4.976,41.8111,846.049],[-4.9525,41.8,846.8805],[-4.9428,41.7991,848.3492],[-4.9281,41.8004,847.9976],[-4.9167,41.804,849.3105],[-4.9308,41.8105,849.1553],[-4.9426,41.8188,848.7205],[-4.9419,41.8345,850.1818],[-4.9371,41.8422,849.1738],[-4.9228,41.8553,834.2012],[-4.915,41.8577,838.6929],[-4.8992,41.8672,846.2671],[-4.8953,41.8732,849.841],[-4.8892,41.8741,847.1392],[-4.8864,41.877,847.4172],[-4.884,41.884,831.23],[-4.8729,41.8983,800.2615],[-4.8762,41.9149,771.0317],[-4.8671,41.9158,767.7695],[-4.869,41.9317,757.3608],[-4.8739,41.933,756.4211],[-4.8897,41.9328,754.8348],[-4.8998,41.9282,752.1925],[-4.9117,41.9156,758.2147],[-4.9157,41.9162,757.8963],[-4.9165,41.9178,756.9318],[-4.9278,41.915,757.2549],[-4.9299,41.918,754.852],[-4.928,41.919,755.093],[-4.9324,41.9266,748.5316],[-4.9495,41.9338,750.6995],[-4.9553,41.9311,757.0316],[-4.9571,41.9283,761.2719],[-4.9669,41.9247,769.7845],[-4.9718,41.9194,775.0626],[-4.9773,41.9185,792.1011],[-4.9757,41.918,798.2798],[-4.9764,41.9136,803.0034],[-4.983,41.9119,774.6934],[-4.9836,41.91,778.3639],[-4.9868,41.9134,775.1772],[-4.987,41.9218,765.4979],[-4.9899,41.9256,752.4094],[-4.9972,41.9289,745.329],[-5.0048,41.9379,735.3185],[-5.0014,41.9432,739.5236],[-5.005,41.9472,747.7892],[-5.0024,41.948,749.7762],[-4.9953,41.958,750.4885],[-4.994,41.9626,749.1913],[-4.9832,41.9667,754.7644],[-4.9829,41.9699,757.4236],[-4.976,41.9736,751.3722],[-4.9714,41.989,759.7323],[-4.9754,41.9935,759.7438],[-4.9702,41.9985,765.8055],[-4.9697,41.9976,765.8055],[-4.9654,42.007,767.9006],[-4.9359,42.0179,768.1576],[-4.938,42.0199,770.7339],[-4.9496,42.051,763.8815],[-4.9276,42.0735,790.5428],[-4.9167,42.0783,787.1039],[-4.9041,42.0784,769.1407],[-4.9177,42.0908,784.0456],[-4.912,42.0913,780.3644],[-4.9201,42.0965,789.1118],[-4.9242,42.1105,799.4482],[-4.9286,42.1183,798.0773],[-4.925,42.1207,800.977],[-4.9289,42.1305,798.0662],[-4.9297,42.1446,799.3615],[-4.9274,42.1502,803.4418],[-4.9441,42.1527,782.5328],[-4.9608,42.1515,770.0223],[-4.9623,42.1496,768.2146],[-4.9655,42.1515,768.6542],[-4.9663,42.1557,769.5151],[-4.9803,42.1507,772.8137],[-4.9822,42.1488,773.754],[-4.9811,42.1468,771.9711],[-4.9884,42.1444,776.1437],[-4.9942,42.1449,783.8207],[-4.995,42.1478,780.9969],[-4.9991,42.1465,783.3011],[-5.0023,42.1491,788.1691],[-5.0084,42.1486,793.3726],[-5.0152,42.1538,796.9674],[-5.0149,42.1568,791.4146],[-5.0269,42.1539,798.6482],[-5.0262,42.1656,806.3035],[-5.0318,42.1736,811.1184],[-5.0194,42.1788,805.1945],[-5.0123,42.1897,806.0195],[-5.0145,42.1934,806.842],[-5.0128,42.1946,803.8407],[-5.0203,42.2056,814.4857],[-5.0248,42.2173,826.7094],[-5.0246,42.2199,827.7662],[-5.0102,42.2281,809.8619],[-5.0089,42.2422,814.7158],[-5.0187,42.2538,828.7521],[-5.0164,42.2589,826.0764],[-5.0086,42.2614,819.1481],[-5.0098,42.2665,825.7061],[-5.002,42.2891,828.8099],[-5.0382,42.2971,777.7754],[-5.0414,42.2928,775.5366],[-5.0368,42.2891,786.5495],[-5.0388,42.2772,784.2004],[-5.0422,42.2715,791.9283],[-5.0415,42.2675,795.6959],[-5.0451,42.262,794.525],[-5.0547,42.2575,779.0336],[-5.0681,42.2612,765.8477],[-5.0621,42.2779,769.8891],[-5.066,42.2762,777.2873],[-5.0706,42.2791,787.2498],[-5.0718,42.2778,791.3748],[-5.075,42.2789,793.0155],[-5.0753,42.285,787.4198],[-5.0789,42.2897,776.8317],[-5.0778,42.2916,777.2057],[-5.0823,42.2937,777.3287],[-5.0861,42.2922,777.4081],[-5.0869,42.2975,778.8765],[-5.0936,42.3093,787.6616],[-5.1119,42.3118,797.1049],[-5.1137,42.3097,797.0814],[-5.1195,42.3077,796.282],[-5.1232,42.3018,794.965],[-5.1261,42.301,796.4211],[-5.1442,42.2815,787.1801],[-5.156,42.2777,787.7707],[-5.156,42.2739,785.0955],[-5.1641,42.2711,782.2034],[-5.1781,42.2711,791.932],[-5.1834,42.268,790.8422],[-5.1826,42.2642,788.2333],[-5.1978,42.2605,787.9568],[-5.2002,42.2647,791.389],[-5.2166,42.278,801.3906],[-5.2202,42.2779,810.0107],[-5.2283,42.2624,802.4971],[-5.2313,42.2636,802.2031],[-5.2302,42.2756,805.9377],[-5.2364,42.2733,804.053],[-5.2353,42.2713,803.9449],[-5.2386,42.2662,792.8636],[-5.2446,42.2639,784.0822],[-5.2459,42.2508,767.4139],[-5.2484,42.2454,767.2068],[-5.2539,42.2398,774.5696],[-5.2515,42.2361,765.3997],[-5.2446,42.2352,760.7726],[-5.2424,42.2317,781.9202],[-5.2355,42.2303,777.2122],[-5.2294,42.2313,774.0898],[-5.2277,42.2299,773.4023],[-5.2267,42.2251,766.9409],[-5.2309,42.2239,770.1419],[-5.2339,42.2189,767.361],[-5.2414,42.2145,753.171],[-5.2456,42.2147,753.6626],[-5.257,42.2107,775.8709],[-5.2655,42.2109,778.7492],[-5.2735,42.2162,779.5132],[-5.2766,42.2164,783.8022],[-5.2868,42.2299,795.4333],[-5.3018,42.2221,794.7188],[-5.2997,42.2198,791.3979],[-5.2997,42.2154,788.6802],[-5.3063,42.2073,781.319],[-5.3074,42.1992,774.5846],[-5.3115,42.1996,770.7248],[-5.3172,42.2053,786.473],[-5.3242,42.2082,794.7731],[-5.3267,42.2068,796.3387],[-5.332,42.2086,795.6012],[-5.3373,42.2135,798.5853],[-5.3355,42.2167,800.8091],[-5.3404,42.2163,801.4308],[-5.3491,42.2204,810.0531],[-5.3528,42.2192,808.6393],[-5.3611,42.2251,824.739],[-5.3755,42.2224,790.7192],[-5.3807,42.2254,796.0721],[-5.388,42.2214,824.0583],[-5.3884,42.2053,819.2332],[-5.3801,42.1979,788.6345],[-5.387,42.1894,791.4399],[-5.3888,42.1754,781.4527],[-5.3866,42.1686,771.9122],[-5.3795,42.1633,764.0121],[-5.3813,42.1593,759.8932],[-5.381,42.1507,751.9999],[-5.3714,42.13,730.3076],[-5.3751,42.1267,732.9384],[-5.3751,42.1214,748.3962],[-5.3726,42.1183,751.267],[-5.3778,42.1142,757.4088],[-5.3775,42.1129,760.0788],[-5.3799,42.1128,759.3788],[-5.3806,42.1072,758.0466],[-5.3763,42.0995,755.942],[-5.39,42.0898,740.6174],[-5.3896,42.0873,745.3474],[-5.3779,42.075,758.312],[-5.3743,42.0681,764.4142],[-5.3711,42.0514,777.0485],[-5.3755,42.0468,782.4628],[-5.3743,42.0432,788.6458],[-5.3763,42.0396,780.683],[-5.3682,42.0333,773.7784],[-5.3488,42.0226,752.3041],[-5.3254,42.0204,725.1783],[-5.3232,42.0189,721.0212],[-5.3177,42.0066,729.9584],[-5.3132,42.0026,712.2935],[-5.3094,42.0028,710.9431],[-5.3021,41.9928,701.7542],[-5.3031,41.9911,700.9913],[-5.2805,41.9788,741.6441],[-5.2604,41.9846,759.2867],[-5.2546,41.9816,775.5071],[-5.2545,41.9803,776.8824],[-5.2632,41.9819,754.74],[-5.2728,41.9801,746.3378],[-5.2852,41.9741,730.9144],[-5.2889,41.9709,722.9899],[-5.2883,41.968,735.3662],[-5.2995,41.9613,724.8616],[-5.3066,41.9528,725.1209],[-5.3314,41.9426,694.8882],[-5.3347,41.9401,694.1628],[-5.3351,41.9375,693.8503],[-5.3208,41.9375,701.6787],[-5.3098,41.9322,716.285],[-5.2987,41.9221,734.084],[-5.2936,41.9199,730.3177],[-5.2958,41.9112,728.0733],[-5.3103,41.8933,711.4125],[-5.3114,41.8827,704.9804],[-5.3052,41.8671,708.0915],[-5.3093,41.8639,718.9133],[-5.3064,41.8578,730.4095],[-5.3217,41.8408,725.5598],[-5.3199,41.8398,723.872],[-5.3271,41.8353,728.0892],[-5.3294,41.8311,727.5695],[-5.3264,41.8291,726.8199],[-5.3076,41.8257,717.3276],[-5.3063,41.8268,717.3276],[-5.2983,41.8255,716.1427],[-5.2948,41.8275,715.006],[-5.2904,41.8262,720.2434],[-5.287,41.8277,717.4126],[-5.2767,41.8229,712.4404],[-5.2795,41.8134,710.335],[-5.3225,41.7882,713.2308],[-5.3262,41.7898,713.7296],[-5.3414,41.7892,716.7458],[-5.3494,41.7809,731.338],[-5.3701,41.7778,746.1609],[-5.3913,41.7605,746.5227],[-5.3906,41.7526,744.2238],[-5.3755,41.728,712.6477],[-5.3751,41.7198,696.0616],[-5.3714,41.7213,695.8006],[-5.3699,41.727,696.9379],[-5.3655,41.7294,697.0809],[-5.3616,41.7288,698.7418],[-5.3561,41.717,723.2061],[-5.358,41.6997,726.2291],[-5.3456,41.702,725.3042],[-5.3407,41.6991,725.5228],[-5.3396,41.7038,723.5707],[-5.3199,41.7093,715.9407],[-5.3184,41.7061,719.775],[-5.3144,41.7042,722.5276],[-5.3131,41.6987,730.1078],[-5.3078,41.6984,733.8294],[-5.3034,41.6866,763.9732],[-5.3007,41.6881,764.8109],[-5.2847,41.6813,825.8132],[-5.2825,41.676,825.3623],[-5.2834,41.6735,824.7772]]],
[[[-5.346,42.2512,830.4174],[-5.3405,42.2467,825.7427],[-5.3412,42.2327,815.0486],[-5.3355,42.2308,813.3347],[-5.3361,42.2335,813.8574],[-5.3327,42.2387,809.2883],[-5.3163,42.2411,818.4724],[-5.3167,42.2495,820.8756],[-5.3089,42.2521,820.261],[-5.306,42.2494,818.1835],[-5.3032,42.252,820.5264],[-5.3038,42.2569,822.5377],[-5.3006,42.2653,824.8666],[-5.3016,42.2692,825.8297],[-5.3063,42.2716,826.6076],[-5.3202,42.2672,831.5597],[-5.3284,42.2741,836.0057],[-5.3371,42.2697,822.9575],[-5.3452,42.2678,834.4649],[-5.3471,42.2592,832.4074],[-5.346,42.2512,830.4174]]]]}
,"properties": {"GID_3": "ESP.5.8.1_1","GID_0": "ESP","country": "Spain","GID_1": "ESP.5_1","province": "CastillayLeón","NL_NAME_1": "NA","GID_2": "ESP.5.8_1","county": "Valladolid","NL_NAME_2": "NA","city": "n.a.(263)","VARNAME_3": "NA","NL_NAME_3": "NA","TYPE_3": "Comarca","ENGTYPE_3": "Comarca","CC_3": "NA","HASC_3": "NA","name": "n.a.(263).city","area_km2": 1891.282,"hist_schema_id": "Elevation0-9000","hist_area_km2": {"700": 81.413,"725": 340.428,"750": 513.681,"775": 570.541,"800": 188.491,"825": 126.183,"850": 70.545}}}