{"type": "Feature","bbox": [1.8269,41.2643,2.2276,41.5924],"geometry": {"type": "MultiPolygon","coordinates": [[[[2.1729,41.3376,0.0],[2.1729,41.3396,0.0],[2.1707,41.339,0.0],[2.171,41.3374,0.0],[2.1729,41.3376,0.0]]],
[[[2.1426,41.3196,3.0295],[2.1432,41.3215,3.8412],[2.1493,41.321,4.4299],[2.1524,41.3229,2.5735],[2.1526,41.3271,5.6653],[2.1588,41.3382,4.8221],[2.1635,41.3371,2.9205],[2.1646,41.341,1.5774],[2.1576,41.3426,1.6709],[2.1493,41.3315,0.0],[2.1476,41.3315,0.0],[2.1454,41.3351,2.0148],[2.1504,41.3374,0.0],[2.1512,41.3432,2.2658],[2.1563,41.3438,1.2429],[2.161,41.3465,0.0],[2.1626,41.351,3.527],[2.1679,41.349,1.2379],[2.1707,41.3515,0.0],[2.1726,41.3563,0.0],[2.1704,41.359,3.2518],[2.1762,41.3596,0.0],[2.1732,41.3638,3.4869],[2.1743,41.3651,0.7364],[2.1799,41.3643,2.9474],[2.1807,41.3654,0.961],[2.1774,41.3674,1.132],[2.1771,41.371,3.7439],[2.1821,41.3707,2.8533],[2.1824,41.3718,0.0],[2.1785,41.3749,0.7431],[2.1863,41.3776,0.0],[2.1843,41.3693,2.339],[2.186,41.366,0.732],[2.1832,41.3654,0.0],[2.1771,41.3576,0.0],[2.1754,41.3518,2.9919],[2.1713,41.3457,0.0],[2.1729,41.3418,0.6236],[2.1749,41.3496,1.3785],[2.1826,41.3632,0.0],[2.1868,41.3657,1.1938],[2.1888,41.3737,6.2791],[2.1951,41.3835,1.4953],[2.1971,41.3854,1.2835],[2.201,41.384,0.0],[2.2037,41.3876,0.0],[2.201,41.3904,0.0],[2.2049,41.3915,0.0],[2.2076,41.396,2.8363],[2.2118,41.3946,0.0],[2.211,41.3985,5.6384],[2.2149,41.3993,0.4304],[2.2146,41.4018,5.6089],[2.2276,41.4124,2.3739],[2.2208,41.4126,7.1305],[2.21,41.4247,9.7704],[2.2062,41.4257,12.2444],[2.2075,41.4281,13.8102],[2.2059,41.433,15.244],[2.2106,41.4337,11.1918],[2.2075,41.4419,8.2361],[2.2009,41.4495,12.9015],[2.1885,41.4596,18.853],[2.187,41.4675,25.8406],[2.1787,41.468,51.815],[2.1804,41.4646,42.318],[2.1746,41.4636,81.0354],[2.1659,41.4586,162.849],[2.1642,41.4499,271.3667],[2.1561,41.4503,257.9351],[2.1524,41.4472,267.2966],[2.135,41.4476,337.7552],[2.1299,41.4431,409.799],[2.1279,41.4337,420.9034],[2.1195,41.4257,469.8296],[2.1132,41.4287,444.2899],[2.1032,41.4283,399.3644],[2.096,41.4334,349.4939],[2.0882,41.4282,211.256],[2.0822,41.4319,193.6674],[2.0805,41.4306,185.8873],[2.0751,41.4332,226.0777],[2.0731,41.4364,188.7064],[2.0712,41.4359,188.7064],[2.0723,41.4312,274.8401],[2.0766,41.4286,289.9436],[2.0732,41.4276,218.7229],[2.0727,41.4251,239.2348],[2.0802,41.4242,376.6414],[2.08,41.423,380.3372],[2.0751,41.4222,268.0575],[2.0773,41.4188,309.9321],[2.0788,41.419,309.9321],[2.0785,41.4151,425.6185],[2.0709,41.4186,384.1958],[2.0696,41.4251,275.3338],[2.0669,41.4265,245.0396],[2.0676,41.4296,185.9937],[2.0643,41.4303,269.0478],[2.0631,41.4335,231.2342],[2.0595,41.4354,216.9884],[2.0597,41.4379,142.4941],[2.0618,41.4376,143.8966],[2.0642,41.4423,185.7184],[2.0614,41.445,216.676],[2.0468,41.445,230.5797],[2.0328,41.4417,259.8347],[2.0309,41.4459,225.6935],[2.0271,41.4468,234.3275],[2.0234,41.4509,263.2563],[2.0228,41.4577,172.6883],[2.0156,41.4589,97.7112],[2.0103,41.4566,129.4684],[1.9997,41.4601,50.9985],[2.0055,41.4631,65.798],[2.0058,41.4687,77.9496],[2.0028,41.4732,82.1069],[1.998,41.4729,110.4474],[1.996,41.4843,144.1257],[1.991,41.4867,139.9321],[1.988,41.4943,140.8054],[1.9859,41.5126,203.2001],[1.9851,41.5147,209.7423],[1.9812,41.5157,254.1554],[1.9785,41.5232,282.618],[1.9742,41.5198,272.8323],[1.9692,41.5119,242.6112],[1.961,41.5132,247.2908],[1.9584,41.5109,222.6485],[1.9407,41.507,156.929],[1.9372,41.5077,95.8236],[1.9367,41.5095,93.7809],[1.9512,41.5103,194.1892],[1.9512,41.5228,272.5293],[1.949,41.5256,262.7168],[1.9388,41.5285,127.2129],[1.9322,41.5367,156.7085],[1.9324,41.5419,164.2527],[1.9297,41.5441,187.8001],[1.9293,41.5481,210.6873],[1.9256,41.551,200.334],[1.9277,41.5525,201.6129],[1.9242,41.5554,215.0844],[1.9186,41.5568,252.9795],[1.9224,41.5598,226.0003],[1.9204,41.5621,255.3184],[1.9222,41.5637,255.9365],[1.9205,41.5643,266.2651],[1.9235,41.5678,273.9842],[1.9202,41.57,281.5336],[1.9204,41.5715,286.7553],[1.9092,41.5708,522.6481],[1.8847,41.579,351.6169],[1.8909,41.5813,428.127],[1.8865,41.5861,484.3305],[1.8825,41.5859,488.0447],[1.8765,41.59,471.6176],[1.8685,41.589,431.4816],[1.8675,41.5909,391.6105],[1.8634,41.5924,426.3698],[1.8518,41.591,117.7861],[1.857,41.5834,209.8298],[1.8606,41.581,112.6622],[1.8604,41.5739,107.7175],[1.8461,41.5693,172.2691],[1.8324,41.5484,270.4917],[1.8336,41.5459,244.7282],[1.8297,41.5444,269.192],[1.8306,41.5428,284.8821],[1.8269,41.539,300.5027],[1.8309,41.5324,254.7583],[1.8382,41.5281,197.1607],[1.84,41.525,182.606],[1.8541,41.5199,172.3688],[1.8549,41.5163,155.2935],[1.8537,41.514,190.9725],[1.8556,41.5087,237.9251],[1.8641,41.506,223.3355],[1.8862,41.508,137.2305],[1.9028,41.5044,106.4429],[1.905,41.5019,98.1546],[1.9022,41.5012,117.7414],[1.8943,41.5034,126.3319],[1.8897,41.5012,163.7382],[1.8982,41.4958,123.3419],[1.8981,41.493,121.4337],[1.8934,41.4929,147.1184],[1.8948,41.491,146.1806],[1.8924,41.4897,124.9719],[1.895,41.4862,94.6949],[1.8992,41.4862,88.3141],[1.8973,41.4779,143.6034],[1.9058,41.4754,113.8117],[1.9066,41.4696,75.2311],[1.9113,41.4683,61.3357],[1.9093,41.4655,59.5275],[1.8922,41.4622,60.896],[1.8838,41.459,81.8331],[1.8817,41.4553,70.9969],[1.877,41.4552,71.9283],[1.894,41.4383,416.194],[1.897,41.4334,475.3557],[1.8948,41.4302,565.4258],[1.8916,41.4304,538.2695],[1.8872,41.424,548.5341],[1.8894,41.4225,580.4775],[1.8878,41.418,491.9287],[1.8825,41.4147,532.9456],[1.881,41.4118,594.658],[1.8851,41.4082,622.2891],[1.8825,41.4056,589.6248],[1.8776,41.4041,591.3938],[1.8747,41.395,545.1826],[1.8764,41.3895,500.0392],[1.8694,41.3872,493.0243],[1.8706,41.3807,431.7784],[1.8816,41.3732,588.3669],[1.8881,41.3708,468.8469],[1.8909,41.3629,414.6736],[1.8979,41.3548,557.2909],[1.8959,41.3515,595.3657],[1.8919,41.3505,553.2258],[1.8824,41.3439,617.2924],[1.8737,41.3443,500.5945],[1.8698,41.3427,502.8779],[1.8716,41.3386,403.97],[1.8608,41.3334,325.5912],[1.8526,41.32,506.6025],[1.8478,41.3194,521.4324],[1.8504,41.3162,495.3842],[1.8468,41.306399999999996,290.8353],[1.851,41.3018,222.4908],[1.8551,41.2988,223.1575],[1.8585,41.2981,226.0278],[1.8597,41.2993,239.5831],[1.8636,41.2962,237.2876],[1.8692,41.2962,241.2774],[1.8729,41.2935,373.7239],[1.8693,41.2812,391.9943],[1.8714,41.2789,371.4221],[1.8828,41.2783,426.8171],[1.8858,41.28,421.925],[1.8856,41.2819,418.2482],[1.8892,41.2835,421.1701],[1.9014,41.2802,441.6626],[1.9056,41.2827,484.7657],[1.9084,41.2825,476.6141],[1.9149,41.2889,522.1049],[1.9258,41.2907,458.3381],[1.9316,41.2851,422.6103],[1.9427,41.2803,284.1249],[1.9433,41.2793,284.1249],[1.9373,41.2748,224.1802],[1.9395,41.2693,94.9603],[1.944,41.2643,1.8234],[1.9982,41.2643,0.9499],[1.9987,41.2654,0.9499],[2.0274,41.2668,0.0],[2.0743,41.2771,1.2792],[2.1129,41.2893,0.0],[2.1396,41.3082,3.4971],[2.144,41.316,5.4076],[2.1426,41.3196,3.0295]]]]}
,"properties": {"GID_3": "ESP.6.1.11_1","GID_0": "ESP","country": "Spain","GID_1": "ESP.6_1","province": "Cataluña","NL_NAME_1": "NA","GID_2": "ESP.6.1_1","county": "Barcelona","NL_NAME_2": "NA","city": "n.a.(37)","VARNAME_3": "NA","NL_NAME_3": "NA","TYPE_3": "Comarca","ENGTYPE_3": "Comarca","CC_3": "NA","HASC_3": "NA","name": "n.a.(37).city","area_km2": 591.9549,"hist_schema_id": "Elevation0-9000","hist_area_km2": {"0": 106.7191,"25": 55.9697,"50": 43.8761,"75": 42.3856,"100": 39.7389,"125": 35.4781,"150": 32.518,"175": 29.3881,"200": 25.2096,"225": 23.7166,"250": 21.0639,"275": 17.489,"300": 14.1524,"325": 14.1074,"350": 13.1388,"375": 15.3704,"400": 14.9736,"425": 12.7948,"450": 10.9966,"475": 8.4659,"500": 6.1906,"525": 4.0903,"550": 2.6737,"575": 1.0659,"600": 0.2545,"625": 0.1273}}}