{"type":"Feature","properties":{"GID_3":"ESP.12.1.3_1","GID_0":"ESP","country":"Spain","GID_1":"ESP.12_1","province":"Galicia","NL_NAME_1":"NA","GID_2":"ESP.12.1_1","county":"ACoruña","NL_NAME_2":"NA","city":"n.a.(147)","VARNAME_3":"NA","NL_NAME_3":"NA","TYPE_3":"Comarca","ENGTYPE_3":"Comarca","CC_3":"NA","HASC_3":"NA","name":"n.a.(147).city"},
"geometry":{"type": "MultiPolygon","coordinates": [[[[-8.344,42.8146,101.3239],[-8.3369,42.8149,117.3787],[-8.3367,42.8096,117.8141],[-8.3399,42.8063,121.7215],[-8.3387,42.8041,116.1212],[-8.3322,42.8018,76.5238],[-8.33,42.8111,81.3463],[-8.331,42.8148,74.0147],[-8.3339,42.8172,76.4257],[-8.3296,42.8234,78.1545],[-8.3303,42.8273,109.0767],[-8.334,42.8302,84.3216],[-8.3425,42.8284,91.3992],[-8.3459,42.8322,87.6401],[-8.3455,42.8359,94.3784],[-8.3393,42.8406,94.9481],[-8.3349,42.8392,88.2728],[-8.3296,42.8421,100.4135],[-8.3259,42.8312,100.8681],[-8.3219,42.8334,119.3696],[-8.3213,42.8393,95.9602],[-8.3153,42.8459,139.4618],[-8.3137,42.8415,110.3689],[-8.3104,42.8389,111.209],[-8.3118,42.8339,107.1345],[-8.3102,42.8304,153.9432],[-8.3075,42.8297,119.3187],[-8.3027,42.8318,105.692],[-8.2933,42.8296,107.4522],[-8.2931,42.8281,115.1967],[-8.2983,42.8254,118.571],[-8.2994,42.8189,113.73779999999999],[-8.2884,42.8179,121.438],[-8.2793,42.8109,120.0655],[-8.274,42.813,116.1075],[-8.2767,42.8165,120.1996],[-8.2767,42.8216,125.0961],[-8.2634,42.8287,135.6691],[-8.2625,42.8322,131.7269],[-8.2551,42.8364,150.9196],[-8.2458,42.8334,153.8338],[-8.2478,42.8291,132.6113],[-8.2465,42.8278,154.5143],[-8.244,42.8276,144.0148],[-8.2362,42.8328,161.9042],[-8.2331,42.8322,164.3772],[-8.2326,42.8289,148.5],[-8.2286,42.8267,165.6063],[-8.2102,42.8237,188.7506],[-8.206,42.826,154.261],[-8.2058,42.8322,166.5222],[-8.2123,42.834,156.9416],[-8.2161,42.8406,182.3072],[-8.2212,42.8424,166.5],[-8.2206,42.8443,178.0143],[-8.2148,42.8462,170.2897],[-8.2105,42.8456,222.1907],[-8.2074,42.8429,181.265],[-8.2032,42.8443,187.0963],[-8.1978,42.8515,186.5544],[-8.1835,42.86,242.5],[-8.1805,42.858,242.5],[-8.1751,42.8583,242.5],[-8.1647,42.8547,242.5],[-8.1637,42.8517,242.5],[-8.1597,42.8499,242.5],[-8.1554,42.8505,245.7868],[-8.1518,42.8468,251.0862],[-8.1429,42.8478,242.5],[-8.1393,42.846,244.696],[-8.1399,42.8436,252.9829],[-8.1379,42.843,242.5],[-8.1349,42.8432,245.3148],[-8.1262,42.85,246.4053],[-8.12,42.8503,242.5],[-8.1207,42.8464,242.5],[-8.1162,42.8411,242.5],[-8.1112,42.847,242.5],[-8.1047,42.845,247.11],[-8.1049,42.8484,242.5],[-8.1029,42.8498,242.5],[-8.1009,42.8472,242.5],[-8.0887,42.8536,242.5],[-8.0831,42.8547,253.107],[-8.0809,42.8532,249.9485],[-8.0716,42.8524,266.5402],[-8.0679,42.8455,275.9334],[-8.0601,42.8431,295.5704],[-8.0606,42.8407,300.2837],[-8.0645,42.8406,294.7374],[-8.063,42.8361,292.0882],[-8.0542,42.8371,306.5994],[-8.0549,42.8333,295.9227],[-8.0458,42.8315,308.1013],[-8.0413,42.838,305.1369],[-8.0352,42.8381,311.477],[-8.0308,42.8403,308.4117],[-8.0241,42.8471,314.6802],[-8.0159,42.847,318.6138],[-8.0134,42.8502,316.7632],[-8.0106,42.8486,319.6494],[-7.9996,42.8489,327.7765],[-7.9949,42.8506,344.5015],[-7.9953,42.8532,343.8071],[-7.9917,42.8573,359.1805],[-7.9935,42.8588,376.4682],[-7.9875,42.8649,387.9727],[-7.9874,42.8682,392.8348],[-7.9831,42.8707,399.7961],[-7.9777,42.8774,413.201],[-7.9646,42.8799,444.3047],[-7.956,42.8844,471.1205],[-7.9539,42.8893,512.0648],[-7.9353,42.9034,694.5674],[-7.9432,42.9173,688.3971],[-7.9384,42.9229,718.6316],[-7.9161,42.9323,792.7505],[-7.908,42.9512,707.6622],[-7.9051,42.9854,753.4257],[-7.9138,42.9989,741.7905],[-7.914,43.0079,715.3008],[-7.9266,43.0324,703.5266],[-7.926,43.0357,718.3438],[-7.9291,43.0357,718.8019],[-7.9311,43.0429,781.3064],[-7.9308,43.0487,796.5613],[-7.9395,43.0602,704.211],[-7.9428,43.0676,708.4364],[-7.9219,43.0823,719.687],[-7.9167,43.0882,760.9904],[-7.918,43.0924,760.199],[-7.9278,43.0998,644.8375],[-7.9369,43.1118,612.4512],[-7.9506,43.1643,575.0881],[-7.9501,43.1772,543.2867],[-7.958,43.183,511.3087],[-7.9612,43.1898,488.5217],[-7.9446,43.2162,721.0042],[-7.9426,43.2251,710.8544],[-7.9322,43.2424,689.0338],[-7.9217,43.2694,662.224],[-7.9257,43.2751,639.3198],[-7.9397,43.2776,620.3965],[-7.9469,43.286,637.0286],[-7.942,43.2889,635.1899],[-7.931,43.3017,671.6477],[-7.9172,43.3092,676.5098],[-7.9094,43.3154,661.2373],[-7.9053,43.3226,669.1456],[-7.8994,43.3274,608.1212],[-7.8925,43.33,593.8718],[-7.8876,43.3363,667.3617],[-7.8814,43.3524,642.9693],[-7.8862,43.3693,592.2786],[-7.8854,43.3754,596.6387],[-7.8922,43.3855,430.4656],[-7.8969,43.3861,322.6321],[-7.898,43.3897,364.1183],[-7.894,43.3925,356.7805],[-7.8908,43.3984,329.3833],[-7.8798,43.4073,370.8907],[-7.8714,43.4061,466.1874],[-7.8695,43.4082,487.5044],[-7.8575,43.4052,505.5504],[-7.8457,43.3994,477.0152],[-7.8367,43.4017,469.5166],[-7.8229,43.4007,459.2132],[-7.8112,43.4157,465.6458],[-7.8052,43.4266,439.3586],[-7.8102,43.4283,429.0555],[-7.808,43.4299,455.3533],[-7.8098,43.4312,463.5126],[-7.8071,43.4373,566.3336],[-7.7942,43.446,566.0526],[-7.7934,43.4445,571.7599],[-7.7838,43.4461,499.3566],[-7.7799,43.4489,472.1973],[-7.7752,43.4598,434.2022],[-7.7752,43.4666,420.0746],[-7.7729,43.4681,431.4079],[-7.7727,43.4709,442.3203],[-7.7695,43.4727,428.2729],[-7.7708,43.4756,438.6724],[-7.7662,43.485,475.5829],[-7.7681,43.4876,563.0268],[-7.757,43.4981,525.4099],[-7.7617,43.5023,526.184],[-7.7581,43.5091,454.3411],[-7.7539,43.5095,449.5357],[-7.7514,43.5076,442.444],[-7.7463,43.5088,465.9896],[-7.7443,43.512,481.1049],[-7.7445,43.5136,443.7401],[-7.7485,43.5134,446.0628],[-7.7474,43.5155,443.5572],[-7.749,43.5162,415.7984],[-7.7465,43.5174,422.8852],[-7.7494,43.5196,427.6949],[-7.746,43.521,511.6368],[-7.749,43.5236,414.9342],[-7.7435,43.5262,451.4485],[-7.7441,43.5286,430.5111],[-7.7462,43.5293,380.0108],[-7.7442,43.5299,411.5032],[-7.748,43.533,385.1951],[-7.749,43.5318,384.8537],[-7.7549,43.532,365.4882],[-7.7478,43.5419,353.6016],[-7.7519,43.5458,362.6716],[-7.7537,43.5448,348.6095],[-7.7572,43.5482,312.4335],[-7.76,43.5482,304.9286],[-7.7527,43.55,326.9033],[-7.7568,43.5518,328.6987],[-7.7521,43.5527,321.9975],[-7.7549,43.5554,297.9936],[-7.7606,43.5534,320.2301],[-7.762,43.5495,336.8363],[-7.772,43.5491,423.9641],[-7.7803,43.5558,459.94],[-7.795,43.5594,489.4611],[-7.8012,43.5574,510.7223],[-7.802,43.5529,565.6971],[-7.8052,43.5549,545.7469],[-7.8015,43.5611,550.7615],[-7.8032,43.5641,563.2183],[-7.8074,43.5661,530.0143],[-7.8122,43.5642,524.5836],[-7.8147,43.5648,498.7017],[-7.816,43.5673,471.6266],[-7.832,43.5705,498.4125],[-7.8421,43.5678,459.8222],[-7.8381,43.5606,321.229],[-7.8431,43.5584,333.3096],[-7.8424,43.5553,352.0707],[-7.8458,43.5532,299.9598],[-7.8621,43.5577,243.0561],[-7.8674,43.5553,304.1211],[-7.8738,43.5562,232.3205],[-7.8771,43.5537,235.1585],[-7.8762,43.5551,215.3744],[-7.878,43.5552,215.3744],[-7.874,43.558,202.6919],[-7.8737,43.5602,243.9971],[-7.8774,43.5626,201.0751],[-7.8761,43.5651,189.8567],[-7.8781,43.565,208.2792],[-7.878,43.5667,198.5819],[-7.8756,43.5673,195.2097],[-7.8758,43.5692,201.1293],[-7.8715,43.5689,188.3419],[-7.8683,43.5711,183.3701],[-7.8699,43.5739,257.0637],[-7.8633,43.5757,204.7841],[-7.8658,43.5778,172.5464],[-7.8736,43.5785,179.3983],[-7.8752,43.5769,209.5809],[-7.8805,43.5792,199.7502],[-7.8816,43.5774,163.927],[-7.8897,43.576,145.3381],[-7.888,43.5734,157.6125],[-7.8911,43.5715,160.5665],[-7.8919,43.5736,151.9457],[-7.8991,43.5761,132.009],[-7.9019,43.5787,127.7601],[-7.9078,43.5662,197.5842],[-7.9159,43.5661,299.1103],[-7.9195,43.5569,358.0955],[-7.9236,43.555,324.6161],[-7.9244,43.5528,304.8838],[-7.9324,43.5511,275.9778],[-7.9416,43.5464,244.1541],[-7.9452,43.5489,188.7093],[-7.9506,43.5476,164.6618],[-7.9523,43.5486,157.5363],[-7.9547,43.5478,156.8944],[-7.9555,43.5447,159.3555],[-7.9592,43.5434,141.6556],[-7.9666,43.5452,140.5562],[-7.9756,43.5437,147.804],[-7.9803,43.5418,130.172],[-7.9841,43.5379,108.2715],[-7.9843,43.5295,103.6596],[-7.9876,43.525,120.3547],[-7.9831,43.5245,129.1821],[-7.9808,43.5263,131.5428],[-7.9792,43.5236,152.2891],[-7.9787,43.5264,129.5347],[-7.977,43.5264,129.5347],[-7.9734,43.522,160.7283],[-7.9732,43.519,190.6351],[-7.9714,43.5189,165.8374],[-7.9729,43.5173,206.3672],[-7.9676,43.5154,161.9306],[-7.9706,43.5149,155.7346],[-7.9687,43.5119,159.7354],[-7.9744,43.5112,152.3182],[-7.9776,43.5091,157.5789],[-7.978,43.5001,224.0717],[-7.976,43.4988,256.0375],[-7.975,43.4943,274.3682],[-7.9795,43.4899,421.1638],[-7.977,43.4855,442.6511],[-7.9839,43.4839,337.7011],[-7.9769,43.4803,379.4532],[-7.9796,43.4779,445.3408],[-7.9906,43.477,470.571],[-8.0039,43.4728,463.6051],[-8.0137,43.4736,453.1996],[-8.029,43.48,520.8138],[-8.0348,43.4742,507.1191],[-8.0736,43.4757,414.4474],[-8.0801,43.4732,467.2703],[-8.0938,43.473,437.4494],[-8.0996,43.4687,332.6831],[-8.1014,43.4664,299.845],[-8.1003,43.4622,257.2123],[-8.0924,43.458,311.0121],[-8.0963,43.4518,387.5478],[-8.0963,43.4461,405.5455],[-8.0757,43.4124,79.8898],[-8.0808,43.4107,60.4379],[-8.0871,43.4051,100.5227],[-8.0912,43.4068,65.9225],[-8.0925,43.4134,56.0349],[-8.0985,43.4113,94.0426],[-8.1009,43.4122,49.2694],[-8.1052,43.4078,273.3179],[-8.1101,43.4057,328.5137],[-8.109,43.3999,345.379],[-8.1028,43.3941,346.7705],[-8.0975,43.3842,415.0497],[-8.0897,43.3812,337.6549],[-8.0878,43.375,305.9377],[-8.0934,43.3703,302.1776],[-8.1064,43.3668,170.5723],[-8.1246,43.3666,85.4099],[-8.1214,43.3653,120.9303],[-8.1201,43.3599,170.4029],[-8.1148,43.3553,216.042],[-8.1079,43.3564,250.2343],[-8.0999,43.3547,271.6722],[-8.0937,43.3552,282.7718],[-8.0895,43.353,284.4973],[-8.0907,43.3483,352.7454],[-8.086,43.3403,321.008],[-8.0863,43.331,304.4793],[-8.0948,43.33,268.2834],[-8.096,43.3311,256.7508],[-8.1004,43.3291,236.7437],[-8.106,43.3305,227.9747],[-8.1086,43.3295,244.4276],[-8.1143,43.3227,175.2378],[-8.1152,43.3245,159.6222],[-8.1167,43.3238,159.6222],[-8.1226,43.326,139.933],[-8.1239,43.3235,128.6822],[-8.1347,43.3165,67.3492],[-8.1476,43.3151,46.5124],[-8.143,43.3107,111.522],[-8.1367,43.3105,159.5133],[-8.1319,43.2949,326.548],[-8.1279,43.2957,335.3984],[-8.1264,43.2978,348.0688],[-8.1053,43.2928,438.1938],[-8.1175,43.2795,298.7321],[-8.1197,43.2731,209.4514],[-8.1184,43.2726,207.2661],[-8.1196,43.2698,226.4429],[-8.1168,43.2689,222.9937],[-8.1164,43.2669,254.6203],[-8.1143,43.2669,264.9101],[-8.113,43.2627,333.0981],[-8.1108,43.2623,346.2478],[-8.1127,43.257,265.4604],[-8.1084,43.2591,308.2644],[-8.1153,43.2524,166.3369],[-8.1067,43.2507,199.4005],[-8.11,43.2471,173.6022],[-8.1082,43.2456,189.9283],[-8.0954,43.2449,200.734],[-8.0939,43.2366,364.1636],[-8.0838,43.2282,493.7856],[-8.0792,43.215,505.3423],[-8.0744,43.2111,498.1123],[-8.0861,43.2109,501.6737],[-8.0945,43.2149,492.1296],[-8.1159,43.2125,483.842],[-8.11,43.2057,469.3351],[-8.1084,43.1992,505.6172],[-8.1024,43.1914,543.0464],[-8.0975,43.1883,530.4568],[-8.0934,43.1803,518.0389],[-8.0885,43.1805,514.5469],[-8.0861,43.1783,501.3763],[-8.0712,43.1784,501.613],[-8.0681,43.1845,509.8621],[-8.0647,43.1853,515.194],[-8.0628,43.1803,517.4836],[-8.0517,43.1771,494.63869999999997],[-8.0532,43.1737,496.608],[-8.0635,43.17,493.9406],[-8.0647,43.1674,491.6518],[-8.0726,43.1622,485.5004],[-8.0698,43.1586,488.6165],[-8.0736,43.1581,491.3089],[-8.0815,43.152,486.8208],[-8.0883,43.1578,485.2505],[-8.1007,43.16,491.9225],[-8.1082,43.1638,495.9211],[-8.1201,43.155,514.1156],[-8.1305,43.1548,512.9386],[-8.1368,43.151,518.3201],[-8.1539,43.1333,534.4661],[-8.1592,43.1191,533.0829],[-8.175,43.1365,495.0101],[-8.1933,43.1312,447.6908],[-8.2007,43.1315,449.1535],[-8.2065,43.1254,469.2672],[-8.2318,43.1416,365.5382],[-8.2437,43.1426,274.7028],[-8.2479,43.1421,247.5663],[-8.2536,43.1313,385.4675],[-8.2795,43.1259,391.3168],[-8.2878,43.1319,383.3748],[-8.2862,43.1473,196.2165],[-8.3006,43.1555,182.5564],[-8.3112,43.1582,234.4446],[-8.3137,43.1574,240.2636],[-8.3133,43.153,326.1085],[-8.3188,43.1462,343.5312],[-8.3215,43.1478,360.4177],[-8.3243,43.1455,374.2953],[-8.3286,43.1459,381.8194],[-8.3405,43.1371,371.1533],[-8.3464,43.1378,364.9529],[-8.3556,43.1433,378.8259],[-8.3581,43.1472,387.9313],[-8.3571,43.1516,404.2821],[-8.3601,43.1617,415.8561],[-8.3746,43.1699,387.6643],[-8.4087,43.1662,405.6332],[-8.3971,43.1933,387.2947],[-8.3959,43.2143,450.274],[-8.4073,43.2251,475.3285],[-8.4421,43.2265,451.2247],[-8.4519,43.2239,354.6198],[-8.459,43.2141,279.1848],[-8.4601,43.2093,289.6614],[-8.4631,43.2082,305.8824],[-8.4667,43.2032,328.0276],[-8.4846,43.2057,413.2036],[-8.5098,43.199,452.6683],[-8.5173,43.193,493.5113],[-8.5184,43.1884,528.9974],[-8.5286,43.1771,527.4574],[-8.5383,43.1831,498.2894],[-8.5461,43.178,537.1049],[-8.5522,43.178,523.5161],[-8.5582,43.1748,477.8669],[-8.5616,43.1692,512.9125],[-8.5795,43.1688,459.7619],[-8.597,43.1632,268.1204],[-8.595,43.159,282.4408],[-8.5837,43.1527,331.4447],[-8.5967,43.1402,393.5645],[-8.6021,43.1404,396.1702],[-8.6094,43.1378,404.3304],[-8.6133,43.127,426.4901],[-8.6194,43.1226,436.3108],[-8.6214,43.1139,463.534],[-8.6363,43.1017,474.8498],[-8.638,43.1066,459.5518],[-8.6504,43.1154,397.9038],[-8.6514,43.1193,374.4855],[-8.6569,43.1187,369.7759],[-8.6635,43.1216,351.6041],[-8.6665,43.1211,350.1528],[-8.676,43.1241,238.9708],[-8.6933,43.1142,300.4857],[-8.6959,43.1147,321.8549],[-8.6975,43.1118,400.6733],[-8.69,43.1002,480.582],[-8.6909,43.0949,529.1621],[-8.6882,43.0856,557.3355],[-8.683,43.077,466.9126],[-8.6873,43.061,446.5329],[-8.6873,43.054,510.2828],[-8.71,43.0475,419.4799],[-8.7179,43.0401,437.4861],[-8.7169,43.0384,434.6524],[-8.72,43.0337,438.1761],[-8.7113,43.029,471.1701],[-8.7076,43.0251,453.9884],[-8.7151,43.0153,450.1225],[-8.7187,43.015,464.3333],[-8.7191,43.0069,480.2262],[-8.7159,43.0008,473.6426],[-8.7201,42.995,471.9044],[-8.7066,42.9928,419.8671],[-8.6977,42.9855,429.6841],[-8.6956,42.986,440.3858],[-8.6934,42.9821,344.4138],[-8.6884,42.9797,372.0604],[-8.6901,42.9771,348.2613],[-8.683,42.9657,370.5375],[-8.6838,42.9641,370.6824],[-8.6794,42.9641,328.5335],[-8.6771,42.9616,303.2754],[-8.6613,42.9562,166.0342],[-8.6603,42.9577,161.8705],[-8.6531,42.9556,194.6546],[-8.6477,42.9565,222.0406],[-8.6434,42.9536,271.6039],[-8.6306,42.9496,297.902],[-8.6271,42.951,295.6389],[-8.6283,42.9526,285.9124],[-8.6161,42.9665,189.2334],[-8.6095,42.9673,178.2176],[-8.6071,42.9702,178.7867],[-8.6028,42.9684,196.009],[-8.5971,42.9746,187.6135],[-8.5923,42.9749,186.6646],[-8.5925,42.9792,191.634],[-8.5886,42.9837,186.1408],[-8.5776,42.9858,230.1661],[-8.5781,42.9809,196.4051],[-8.5726,42.9697,207.1778],[-8.5694,42.9687,213.0055],[-8.5688,42.9661,204.0035],[-8.5626,42.9624,211.1619],[-8.5535,42.9619,198.5654],[-8.5509,42.9583,199.7133],[-8.5431,42.9549,206.3882],[-8.5404,42.9514,205.2878],[-8.5394,42.9439,209.6532],[-8.5368,42.943,211.3864],[-8.5241,42.9489,214.646],[-8.5229,42.9581,208.8494],[-8.5095,42.9621,207.0568],[-8.5078,42.9665,214.6733],[-8.5189,42.9674,206.8547],[-8.523,42.9814,209.1952],[-8.5148,42.9816,291.3471],[-8.513,42.9896,223.4801],[-8.5024,42.9826,215.5794],[-8.4942,42.9862,215.9249],[-8.491,42.9856,218.0745],[-8.4857,42.9812,215.7047],[-8.4853,42.977,233.7971],[-8.4751,42.9794,224.4486],[-8.4605,42.9729,226.929],[-8.4521,42.9714,229.654],[-8.4449,42.9649,225.8485],[-8.4331,42.9699,249.3709],[-8.4308,42.9655,231.5351],[-8.4279,42.9705,236.6372],[-8.4192,42.9692,236.1974],[-8.4159,42.9665,229.4838],[-8.4099,42.9657,232.3941],[-8.4049,42.9674,229.2158],[-8.3999,42.974,232.9007],[-8.3895,42.9711,332.2766],[-8.3952,42.9654,352.2542],[-8.4013,42.9493,337.6569],[-8.4186,42.9307,328.1635],[-8.4194,42.9282,371.493],[-8.4158,42.9255,382.2687],[-8.4164,42.9234,381.2472],[-8.4144,42.9229,388.0258],[-8.4126,42.9177,381.7867],[-8.4165,42.9038,360.6085],[-8.415,42.8901,369.1756],[-8.4189,42.8839,385.7042],[-8.4088,42.8848,367.8484],[-8.3981,42.8823,321.492],[-8.3986,42.8766,302.3943],[-8.3944,42.8752,303.7716],[-8.3922,42.8699,281.9152],[-8.3976,42.8673,274.169],[-8.3991,42.8626,283.666],[-8.4029,42.8596,245.5054],[-8.4008,42.8564,245.4878],[-8.4081,42.8498,291.1006],[-8.405,42.8462,263.8927],[-8.4066,42.8383,248.5202],[-8.4048,42.8369,212.4302],[-8.4054,42.8177,300.2764],[-8.3979,42.8172,214.7228],[-8.3931,42.8209,255.9085],[-8.3854,42.8135,243.1818],[-8.3828,42.8145,251.226],[-8.3819,42.8125,251.5054],[-8.3752,42.8129,236.4618],[-8.3744,42.8106,227.0193],[-8.3658,42.8104,209.7671],[-8.3628,42.8155,171.1752],[-8.3571,42.8147,102.5131],[-8.3562,42.8111,181.7141],[-8.3495,42.8111,198.9455],[-8.3483,42.8156,88.7214],[-8.3442,42.8171,109.906],[-8.344,42.8146,101.3239]]]]}}