{"type":"Feature","properties":{"GID_3":"ESP.18.1.2_1","GID_0":"ESP","country":"Spain","GID_1":"ESP.18_1","province":"RegióndeMurcia","NL_NAME_1":"NA","GID_2":"ESP.18.1_1","county":"Murcia","NL_NAME_2":"NA","city":"AltoGuadalentin","VARNAME_3":"NA","NL_NAME_3":"NA","TYPE_3":"Comarca","ENGTYPE_3":"Comarca","CC_3":"NA","HASC_3":"NA","name":"Alto_Guadalentin.city"},
"geometry":{"type": "MultiPolygon","coordinates": [[[[-1.5451,37.4096,0.0],[-1.5484,37.4096,0.0],[-1.549,37.4068,0.0],[-1.544,37.4079,0.0],[-1.5451,37.4096,0.0]]],
[[[-1.63,37.3751,1.9432],[-1.6299,37.3737,0.0],[-1.626,37.374,9.9861],[-1.6262,37.3757,0.0],[-1.6282,37.3754,14.2756],[-1.6265,37.3796,0.3975],[-1.6224,37.3804,0.0],[-1.6199,37.384,5.5744],[-1.6121,37.3843,0.0],[-1.6107,37.3871,1.7458],[-1.6124,37.3882,8.2847],[-1.6104,37.3899,4.2223],[-1.6085,37.3893,3.5592],[-1.6049,37.3954,2.4175],[-1.5968,37.3965,0.0],[-1.5974,37.3979,0.3423],[-1.589,37.4026,3.6832],[-1.5854,37.4023,4.1265],[-1.5824,37.3999,0.0],[-1.5751,37.4018,0.0],[-1.5771,37.4054,0.0],[-1.576,37.4068,0.0],[-1.5676,37.4074,3.6981],[-1.5654,37.4049,0.0],[-1.5662,37.4032,0.0],[-1.5599,37.4043,11.594],[-1.5585,37.4057,0.0],[-1.5613,37.4074,2.6238],[-1.5585,37.4076,0.0],[-1.5601,37.4096,0.0],[-1.5576,37.4118,0.0],[-1.5482,37.4113,1.2328],[-1.5415,37.4169,0.0],[-1.5412,37.419,45.5432],[-1.5299,37.4221,8.297],[-1.526,37.4276,3.788],[-1.5179,37.4319,0.0],[-1.5107,37.4327,4.0508],[-1.5068,37.4307,3.9019],[-1.5032,37.4327,3.0471],[-1.4974,37.4218,0.0],[-1.4901,37.421,5.9344],[-1.4846,37.4251,0.0],[-1.4821,37.4249,0.0],[-1.481,37.4276,43.7834],[-1.4779,37.4282,0.0],[-1.4763,37.431,0.0],[-1.4768,37.4332,28.8608],[-1.4835,37.4337,33.7554],[-1.4846,37.4365,0.0],[-1.4799,37.451,0.1928],[-1.4812,37.4535,1.7123],[-1.4776,37.4557,2.5415],[-1.4776,37.4582,2.8512],[-1.476,37.4588,0.0],[-1.4732,37.4668,0.0],[-1.4718,37.4671,1.7628],[-1.4724,37.4696,7.9919],[-1.4685,37.471,3.803],[-1.4671,37.4785,9.8912],[-1.4646,37.481,8.2972],[-1.4601,37.4815,6.1783],[-1.4607,37.4857,15.2077],[-1.4535,37.4915,1.234],[-1.4426,37.4949,0.0],[-1.4407,37.4985,16.1678],[-1.4376,37.4999,19.0443],[-1.4307,37.5004,0.0],[-1.4274,37.5035,0.0],[-1.4226,37.5021,6.3894],[-1.416,37.5071,21.8238],[-1.414,37.5054,0.0],[-1.4104,37.5071,42.1583],[-1.4018,37.5068,0.0],[-1.4013,37.5082,5.4757999999999996],[-1.4029,37.5096,3.4492],[-1.4013,37.5096,0.0],[-1.3965,37.5182,2.8382],[-1.4327,37.5413,135.7688],[-1.4409,37.5397,155.0259],[-1.4475,37.5525,179.2379],[-1.4543,37.5547,407.3843],[-1.4618,37.5625,336.3683],[-1.4576,37.5723,361.4971],[-1.4529,37.5731,329.3709],[-1.4463,37.5829,344.4081],[-1.4499,37.5953,506.6852],[-1.4613,37.6209,422.0927],[-1.4757,37.6291,633.0161],[-1.4541,37.6349,480.1361],[-1.4521,37.6463,411.021],[-1.4531,37.6499,389.7338],[-1.449,37.6513,421.783],[-1.4512,37.6522,366.1596],[-1.4502,37.6545,376.079],[-1.4522,37.6539,363.3761],[-1.4552,37.6565,342.5152],[-1.4569,37.6609,311.1714],[-1.4544,37.6615,304.3508],[-1.453,37.6659,284.2419],[-1.4621,37.6797,328.6149],[-1.4712,37.6794,373.0146],[-1.4759,37.6808,426.5428],[-1.5112,37.6676,505.6868],[-1.5137,37.6683,469.5612],[-1.5442,37.7076,246.3416],[-1.5506,37.7255,246.2073],[-1.5664,37.7391,311.1163],[-1.6069,37.7501,930.2129],[-1.6136,37.7492,964.1656],[-1.624,37.7426,945.5842],[-1.6299,37.7461,935.8934],[-1.6351,37.7399,890.0569],[-1.6452,37.7367,887.8813],[-1.6589,37.7538,583.5932],[-1.6628,37.7627,561.1956],[-1.664,37.7755,549.2252],[-1.6609,37.7818,559.2652],[-1.6626,37.7845,574.6418],[-1.6593,37.7883,571.5836],[-1.6606,37.7979,606.195],[-1.6639,37.8073,605.3375],[-1.667,37.8101,618.4159],[-1.6713,37.8248,659.8889],[-1.6652,37.8641,723.3715],[-1.6795,37.8807,892.9171],[-1.675,37.8985,1066.0521],[-1.6911,37.9091,1130.5615],[-1.6993,37.9225,1463.6873],[-1.7056,37.9286,1361.7844],[-1.7115,37.9306,1232.7771],[-1.7201,37.9385,1222.9314],[-1.7204,37.9408,1062.701],[-1.733,37.9492,891.0986],[-1.7458,37.945,894.4353],[-1.78,37.95,947.0973],[-1.7926,37.9542,956.8256],[-1.8081,37.9621,882.1838],[-1.8194,37.9699,892.0944],[-1.8225,37.9702,902.6257],[-1.8494,37.9598,878.7284],[-1.894,37.9274,789.1052],[-1.9351,37.9039,920.0485],[-1.9733,37.8796,832.2982],[-1.9725,37.871,821.9664],[-1.9773,37.8604,810.1087],[-1.9883,37.8535,771.5489],[-1.9952,37.8414,730.6379],[-1.9994,37.8232,714.7622],[-1.9964,37.819,859.901],[-2.0016,37.805,973.311],[-2.0087,37.775,1041.5381],[-2.0046,37.7662,952.3013],[-2.0024,37.7478,1071.8121],[-1.9957,37.7281,1246.9919],[-1.9998,37.723,1253.6837],[-2.004,37.7226,1293.6124],[-2.0076,37.7198,1476.5809],[-2.0081,37.7115,1201.4742],[-2.0125,37.7009,900.0625],[-2.0103,37.6988,856.738],[-2.0114,37.6925,791.1307],[-2.0097,37.6868,738.8944],[-2.0118,37.6735,712.7179],[-2.0076,37.6692,679.7132],[-2.0019,37.6556,778.933],[-1.9957,37.6503,856.9805],[-1.9927,37.6433,1019.8217],[-1.9874,37.6452,1005.9963],[-1.9817,37.6368,983.1495],[-1.9812,37.6284,927.8474],[-1.9784,37.6255,916.8149],[-1.9767,37.6188,891.7762],[-1.97,37.6142,860.5501],[-1.9651,37.6051,831.697],[-1.9556,37.601,807.276],[-1.9539,37.5975,789.9985],[-1.9556,37.5915,764.4276],[-1.9539,37.5883,753.9291],[-1.8708,37.4897,479.972],[-1.8646,37.4866,442.7317],[-1.8586,37.4791,414.2375],[-1.8452,37.4549,378.1122],[-1.8089,37.4335,259.3047],[-1.8117,37.4516,355.6517],[-1.7962,37.4522,299.7473],[-1.7797,37.447,248.6614],[-1.737,37.4427,226.8883],[-1.7049,37.4211,301.6372],[-1.6659,37.4009,78.3747],[-1.63,37.3751,1.9432]]]]}}