{"type":"Feature","properties":{"GID_3":"ESP.1.3.1_1","GID_0":"ESP","country":"Spain","GID_1":"ESP.1_1","province":"Andalucía","NL_NAME_1":"NA","GID_2":"ESP.1.3_1","county":"Córdoba","NL_NAME_2":"NA","city":"CampiñaSur","VARNAME_3":"NA","NL_NAME_3":"NA","TYPE_3":"Comarca","ENGTYPE_3":"Comarca","CC_3":"NA","HASC_3":"NA","name":"Campiña_Sur.city"},
"geometry":{"type": "MultiPolygon","coordinates": [[[[-4.6243,37.4169,342.9358],[-4.6133,37.4299,392.9627],[-4.6055,37.4335,367.0942],[-4.5928,37.4325,366.8145],[-4.5673,37.4418,459.9362],[-4.5561,37.4441,418.6491],[-4.5497,37.4562,378.0407],[-4.5482,37.4639,335.9262],[-4.5516,37.4661,322.3409],[-4.5568,37.4665,319.9812],[-4.5609,37.472,317.0867],[-4.5684,37.4716,309.6163],[-4.5623,37.4738,312.9022],[-4.5638,37.4821,332.4437],[-4.5593,37.5001,359.0597],[-4.5601,37.5118,372.0854],[-4.5571,37.5203,365.4698],[-4.546,37.5301,403.5464],[-4.5375,37.5414,468.2076],[-4.5342,37.5501,538.7849],[-4.5297,37.5537,577.8051],[-4.5297,37.5618,599.7264],[-4.5438,37.5705,599.7993],[-4.5486,37.5715,618.321],[-4.5532,37.5765,503.9743],[-4.5692,37.5861,383.0102],[-4.5747,37.6002,320.7852],[-4.5801,37.6046,286.0148],[-4.594,37.6108,278.9106],[-4.5941,37.6217,250.911],[-4.5905,37.6257,239.713],[-4.5954,37.628,235.8857],[-4.5918,37.6333,256.6959],[-4.5979,37.6393,226.7247],[-4.5937,37.6479,237.1596],[-4.594,37.6567,259.767],[-4.5961,37.6599,272.5518],[-4.5962,37.6672,237.6009],[-4.6056,37.6779,224.2621],[-4.6041,37.6788,198.0211],[-4.6058,37.6827,202.4713],[-4.6208,37.6901,170.7764],[-4.6224,37.6883,171.3048],[-4.6206,37.6861,190.324],[-4.6214,37.6839,181.7327],[-4.6276,37.6761,175.5553],[-4.6326,37.6749,179.3452],[-4.6457,37.6758,232.8462],[-4.6544,37.6659,209.7725],[-4.6615,37.6712,196.3156],[-4.6666,37.6807,193.0891],[-4.6697,37.6886,181.5196],[-4.6694,37.6999,171.7155],[-4.6749,37.6993,172.419],[-4.6824,37.6946,180.1282],[-4.6911,37.6944,188.8336],[-4.6933,37.6904,206.9661],[-4.6978,37.6926,227.1674],[-4.6997,37.6961,274.8229],[-4.6932,37.6999,242.6275],[-4.6934,37.7013,231.4779],[-4.7053,37.7,258.5218],[-4.7032,37.7026,254.8258],[-4.7023,37.7099,186.8639],[-4.7055,37.709,205.7727],[-4.7135,37.7169,243.4813],[-4.7209,37.7128,225.0291],[-4.7203,37.7108,227.3808],[-4.7272,37.709,216.9794],[-4.7343,37.7114,225.42],[-4.7367,37.7164,251.853],[-4.7414,37.7178,264.0988],[-4.7426,37.7061,263.6801],[-4.7528,37.7046,332.299],[-4.7574,37.7025,308.741],[-4.7726,37.6874,332.0844],[-4.7702,37.6833,339.6007],[-4.7703,37.6791,337.8602],[-4.7468,37.6729,240.9613],[-4.7469,37.6634,257.1655],[-4.7418,37.6615,319.6748],[-4.7324,37.6622,330.8845],[-4.7304,37.6594,330.5279],[-4.7233,37.6578,359.8981],[-4.7239,37.6562,364.9913],[-4.7203,37.6544,377.1989],[-4.7163,37.644,365.5172],[-4.7129,37.64,369.2404],[-4.7121,37.6314,369.8145],[-4.7096,37.6281,376.3255],[-4.704,37.6284,370.994],[-4.6984,37.6247,364.5931],[-4.694,37.6146,349.6447],[-4.6966,37.6128,355.8871],[-4.7089,37.6141,363.2367],[-4.7235,37.6049,319.7889],[-4.733,37.6031,333.9841],[-4.7438,37.5959,340.4729],[-4.748,37.5957,303.8557],[-4.7543,37.5987,250.6277],[-4.771,37.591,180.8668],[-4.7807,37.5896,171.0919],[-4.7807,37.5923,173.8182],[-4.7842,37.5955,172.1775],[-4.785,37.6036,175.176],[-4.7909,37.6045,188.5925],[-4.7887,37.6097,183.0402],[-4.8101,37.61,218.9067],[-4.8143,37.6085,202.9376],[-4.817,37.6137,225.9772],[-4.8163,37.6199,258.7992],[-4.8144,37.6202,265.0023],[-4.8194,37.6285,261.0243],[-4.8186,37.6326,291.4988],[-4.8144,37.6379,306.5165],[-4.815,37.6403,292.4622],[-4.8337,37.6492,279.2378],[-4.8401,37.6499,269.582],[-4.8566,37.6481,293.3792],[-4.8789,37.6547,273.1171],[-4.8873,37.6586,244.244],[-4.8899,37.6493,252.6015],[-4.8999,37.6469,252.9194],[-4.9031,37.6449,250.6385],[-4.9046,37.6415,247.9],[-4.9097,37.6399,251.8813],[-4.9142,37.6352,244.6393],[-4.9258,37.6311,218.96],[-4.9283,37.6367,222.7574],[-4.933,37.6388,216.6687],[-4.9316,37.6174,240.6079],[-4.9348,37.5999,251.4439],[-4.9302,37.5899,188.6186],[-4.9349,37.5875,183.4466],[-4.9349,37.583,178.4496],[-4.9302,37.5757,172.5395],[-4.9325,37.5729,166.0547],[-4.9375,37.5719,163.5291],[-4.9354,37.568,167.3128],[-4.9368,37.5671,157.4184],[-4.9314,37.5631,152.1563],[-4.9321,37.5607,151.3038],[-4.9307,37.5596,160.7612],[-4.9333,37.5559,147.4721],[-4.9323,37.5537,145.6815],[-4.9358,37.5512,144.3791],[-4.9319,37.5459,139.7407],[-4.9342,37.541,137.6929],[-4.9408,37.5366,133.7407],[-4.9401,37.5276,126.4152],[-4.9488,37.522,118.6618],[-4.9475,37.5208,118.8095],[-4.9338,37.5199,120.6868],[-4.9344,37.5115,123.6292],[-4.9331,37.5111,122.5094],[-4.9309,37.5136,121.6257],[-4.9275,37.5125,122.5161],[-4.9307,37.5098,121.7822],[-4.931,37.5056,121.5257],[-4.9245,37.5004,135.2555],[-4.9127,37.4991,134.4813],[-4.9081,37.502,136.0308],[-4.9059,37.4999,130.7677],[-4.9076,37.495,126.9139],[-4.9132999999999996,37.4953,124.2563],[-4.916,37.4927,124.4426],[-4.9143,37.4872,125.9333],[-4.9153,37.4849,128.513],[-4.9143,37.4832,132.0918],[-4.91,37.489,127.5987],[-4.9084,37.4881,126.341],[-4.9048,37.4899,126.9192],[-4.9034,37.4878,130.6814],[-4.91,37.4803,127.042],[-4.9044,37.4682,130.6229],[-4.8942,37.4595,132.2844],[-4.8884,37.4609,133.8384],[-4.8834,37.454,136.9429],[-4.8752,37.4505,145.5929],[-4.8794,37.4461,137.4595],[-4.8825,37.4453,134.2678],[-4.8824,37.4401,136.3235],[-4.8846,37.438,135.5198],[-4.8586,37.438,236.4697],[-4.8542,37.4394,236.0004],[-4.8422,37.4369,187.5327],[-4.8401,37.4349,183.2024],[-4.8397,37.4266,165.8056],[-4.8375,37.4233,149.2095],[-4.8432,37.4141,152.6583],[-4.8497,37.4107,146.3285],[-4.8451,37.4036,198.5344],[-4.8421,37.405,211.322],[-4.8408,37.404,220.8775],[-4.8437,37.3996,202.9501],[-4.8397,37.3996,222.7728],[-4.8371,37.3976,243.2884],[-4.8306,37.3899,256.8833],[-4.8309,37.3857,263.3893],[-4.8294,37.3837,255.8755],[-4.8275,37.3823,252.0743],[-4.8251,37.3834,236.1295],[-4.8259,37.3791,237.1643],[-4.8148,37.3778,300.0508],[-4.8146,37.3726,299.9443],[-4.8235,37.3688,257.3581],[-4.822,37.3582,283.3499],[-4.7961,37.3415,272.7182],[-4.7821,37.3285,288.1469],[-4.78,37.3354,283.4432],[-4.7773,37.3352,281.5037],[-4.7755,37.3331,273.2106],[-4.773,37.3363,265.3614],[-4.7663,37.3379,244.9593],[-4.7486,37.3309,312.008],[-4.73,37.3353,317.976],[-4.7262,37.3383,304.0709],[-4.7259,37.3419,299.4276],[-4.7328,37.3428,296.0371],[-4.722,37.3471,212.6443],[-4.7213,37.3494,207.8836],[-4.725,37.3526,209.5],[-4.7195,37.3583,211.9185],[-4.7171,37.3584,210.1797],[-4.7142,37.3532,219.5325],[-4.7038,37.3508,213.7795],[-4.7034,37.3453,219.0811],[-4.6968,37.3464,213.004],[-4.6915,37.3415,214.6025],[-4.6869,37.3414,212.9684],[-4.6842,37.3383,218.1506],[-4.6866,37.3312,252.5098],[-4.6848,37.33,264.6883],[-4.682,37.3303,240.9358],[-4.6802,37.336,217.8368],[-4.6718,37.335,215.867],[-4.6714,37.3315,266.673],[-4.6783,37.3314,223.7696],[-4.6792,37.3296,229.4122],[-4.6696,37.3258,219.4557],[-4.6679,37.3236,223.7931],[-4.6639,37.3254,241.1385],[-4.6423,37.3573,228.4542],[-4.6374,37.3869,299.5686],[-4.6243,37.4169,342.9358]]],
[[[-4.9322,37.7307,180.4893],[-4.9415,37.7347,182.717],[-4.941,37.7286,183.4804],[-4.9446,37.7207,182.9298],[-4.916,37.7048,214.0039],[-4.9023,37.7157,233.2418],[-4.9067,37.7171,232.6012],[-4.9136,37.7241,205.5589],[-4.9185,37.7232,211.353],[-4.9241,37.7254,200.3214],[-4.9266,37.7298,186.5042],[-4.9322,37.7307,180.4893]]]]}}