{"type": "Feature","bbox": [-8.9496,41.8699,-7.8613,42.86],"geometry": {"type": "MultiPolygon","coordinates": [[[[-8.851,41.8771,0.0],[-8.8282,41.8991,0.0],[-8.8246,41.9059,0.0],[-8.8184,41.9113,0.0],[-8.8034,41.9151,2.1965],[-8.7937,41.915,0.0],[-8.7859,41.9173,0.0],[-8.7563,41.9331,0.5006],[-8.7477,41.9431,0.0],[-8.7466,41.9504,0.0],[-8.7485,41.9608,0.0],[-8.7441,41.9659,0.0],[-8.7161,41.9802,0.0],[-8.6987,41.9838,0.0],[-8.6887,41.9901,0.0],[-8.6786,41.9913,0.0],[-8.6703,41.9991,2.4582],[-8.6622,42.0026,0.0],[-8.6573,42.0184,3.3987],[-8.6591,42.0255,0.0],[-8.6576,42.0301,10.0119],[-8.654,42.0333,0.0],[-8.6464,42.0365,0.0],[-8.6413,42.0443,0.0],[-8.6359,42.0479,0.0],[-8.6283,42.0506,0.0],[-8.6009,42.0546,1.9866],[-8.5953,42.0569,0.9667],[-8.5919,42.056399999999996,1.275],[-8.5865,42.0526,5.354],[-8.5812,42.0519,9.281],[-8.546,42.0542,5.5678],[-8.5264,42.0625,17.0185],[-8.5254,42.0652,2.5],[-8.5281,42.0747,3.0],[-8.5264,42.0771,24.5994],[-8.5198,42.0796,11.2229],[-8.5037,42.0777,4.0],[-8.4861,42.0819,4.5],[-8.4782,42.0807,9.9148],[-8.443,42.0824,15.4629],[-8.4342,42.0774,13.5353],[-8.4316,42.0732,9.5576],[-8.4289,42.0723,10.9688],[-8.4194,42.0731,19.8678],[-8.4048,42.0804,20.8814],[-8.393,42.08,9.4311],[-8.3906,42.0752,17.2446],[-8.3816,42.0764,18.8769],[-8.371,42.0883,10.5],[-8.3631,42.0904,23.6553],[-8.3533,42.0898,19.2611],[-8.3427,42.0847,27.9978],[-8.3319,42.0838,23.1951],[-8.3252,42.0895,28.4563],[-8.3248,42.097,41.3638],[-8.3223,42.1017,41.3705],[-8.3194,42.1021,24.9174],[-8.3167,42.1047,36.7376],[-8.3134,42.103,31.9257],[-8.3039,42.1039,32.2171],[-8.2963,42.1078,28.5228],[-8.2949,42.1111,28.056],[-8.2907,42.1119,29.4303],[-8.2891,42.1145,28.1865],[-8.2736,42.1241,44.7102],[-8.263,42.1209,32.7352],[-8.2591,42.1213,30.8471],[-8.2557,42.1267,36.1128],[-8.2561,42.1346,38.8313],[-8.2455,42.1398,46.2848],[-8.2401,42.1391,47.6141],[-8.2334,42.1338,71.0439],[-8.2257,42.1329,39.2689],[-8.2219,42.1341,63.9803],[-8.2179,42.1386,55.1911],[-8.2076,42.1405,60.0014],[-8.2003,42.1488,65.296],[-8.2005,42.1537,57.0058],[-8.1806,42.1584,60.5],[-8.1752,42.1657,60.5],[-8.1741,42.1711,68.9399],[-8.1662,42.1727,69.956],[-8.161,42.1791,61.0],[-8.1614,42.1809,61.5],[-8.1744,42.1838,104.6039],[-8.1759,42.1857,133.5406],[-8.1771,42.1961,80.486],[-8.1746,42.2038,80.4683],[-8.1792,42.2076,62.5],[-8.1795,42.2099,69.515],[-8.1859,42.2098,62.5],[-8.1893,42.2075,63.0],[-8.1921,42.2091,63.0],[-8.1896,42.2133,83.1681],[-8.1829,42.2169,90.5578],[-8.1736,42.22,94.977],[-8.1667,42.2201,69.8528],[-8.1639,42.2221,73.6045],[-8.1622,42.2273,70.8585],[-8.1726,42.2328,74.4139],[-8.1717,42.2376,67.7335],[-8.1617,42.2441,67.1187],[-8.1649,42.246,145.8137],[-8.1835,42.2434,437.4967],[-8.2033,42.2445,701.8716],[-8.212,42.2358,719.6755],[-8.2228,42.2332,660.3865],[-8.2329,42.2336,609.1941],[-8.2391,42.2398,686.2847],[-8.2415,42.245,740.5173],[-8.2503,42.2453,926.8171],[-8.2602,42.2523,908.2902],[-8.2644,42.2528,957.9863],[-8.2684,42.2635,967.0056],[-8.2678,42.2719,1015.0131],[-8.2727,42.2824,1046.0466],[-8.2674,42.286,1044.3647],[-8.2666,42.2997,1107.3301],[-8.2621,42.3066,1109.6653],[-8.2618,42.315,1035.611],[-8.2727,42.3144,949.7273],[-8.2783,42.3176,802.0026],[-8.2819,42.3165,773.4045],[-8.2846,42.3176,761.9468],[-8.2849,42.3203,761.1829],[-8.2886,42.3221,747.6538],[-8.2913,42.327,782.914],[-8.3028,42.3349,913.4766],[-8.3051,42.34,911.4689],[-8.311,42.3438,885.5475],[-8.3245,42.345,993.7095],[-8.3249,42.352,1017.4354],[-8.3204,42.3524,977.925],[-8.3173,42.3563,963.9315],[-8.3243,42.3692,935.3623],[-8.3171,42.3753,932.9768],[-8.3145,42.381,975.3329],[-8.317,42.3828,997.3164],[-8.3301,42.4206,915.7651],[-8.3381,42.4334,896.0915],[-8.339,42.4414,891.6736],[-8.3357,42.448,865.1464],[-8.3393,42.4529,831.4153],[-8.3389,42.4574,796.578],[-8.342,42.4659,765.3304],[-8.3478,42.4688,748.7567],[-8.3662,42.4873,937.0934],[-8.3525,42.4807,755.1924],[-8.3419,42.4844,796.8602],[-8.3403,42.4924,782.3121],[-8.3341,42.4912,775.098],[-8.3227,42.4949,857.6769],[-8.3121,42.4954,829.7217],[-8.3026,42.4902,691.1661],[-8.2912,42.496,822.3133],[-8.2884,42.5031,857.2037],[-8.2844,42.5061,831.4003],[-8.2746,42.5084,750.5175],[-8.2745,42.5137,738.8021],[-8.2724,42.5152,782.2197],[-8.2712,42.5207,864.304],[-8.2668,42.521,917.767],[-8.2636,42.5257,886.6901],[-8.2504,42.5309,762.2147],[-8.2393,42.5382,624.3095],[-8.2254,42.5382,759.2443],[-8.2174,42.5338,936.9687],[-8.1992,42.5518,803.4702],[-8.1841,42.5569,860.7776],[-8.1882,42.5621,788.1577],[-8.1863,42.5651,735.5289],[-8.1802,42.5672,617.6978],[-8.1737,42.572,711.6571],[-8.1675,42.5672,731.3478],[-8.1613,42.5573,756.252],[-8.1467,42.5487,809.8345],[-8.1365,42.5541,773.3536],[-8.1301,42.5524,760.3489],[-8.1113,42.5558,761.0496],[-8.0953,42.5537,742.9564],[-8.0893,42.5577,761.2232],[-8.0774,42.5533,785.4459],[-8.0647,42.5523,773.9922],[-8.0592,42.5487,826.8254],[-8.0525,42.551,842.2832],[-8.0483,42.5549,844.0065],[-8.0412,42.5509,765.1325],[-8.0385,42.5517,789.3031],[-8.0342,42.5503,801.7145],[-8.0313,42.5456,790.8088],[-8.0274,42.544,775.713],[-8.0162,42.5427,701.338],[-8.0132,42.5448,696.1957],[-8.0117,42.5519,735.8833],[-8.0023,42.5586,754.9169],[-8.0005,42.5665,792.5858],[-7.992,42.5725,837.4475],[-7.9731,42.5664,793.8892],[-7.9647,42.5666,817.1266],[-7.9491,42.5709,907.814],[-7.9191,42.5843,1096.3635],[-7.9126,42.5917,925.7189],[-7.9122,42.6009,1034.5469],[-7.9073,42.6041,1053.8491],[-7.9015,42.6184,1140.4214],[-7.8988,42.6196,1157.4069],[-7.8924,42.6296,1060.5068],[-7.8932,42.6384,1054.6292],[-7.8874,42.6609,956.5815],[-7.8919,42.6705,865.9594],[-7.8924,42.6776,925.2018],[-7.8872,42.6864,828.678],[-7.8746,42.6895,845.7208],[-7.8765,42.6955,813.1512],[-7.8737,42.6994,788.6278],[-7.866,42.6989,730.9629],[-7.8613,42.7062,801.5513],[-7.8665,42.7133,841.9081],[-7.8662,42.7206,857.4564],[-7.8727,42.7202,883.1528],[-7.9021,42.7333,885.1221],[-7.9179,42.7342,717.3671],[-7.9352,42.7397,767.1382],[-7.9426,42.7495,816.6953],[-7.9481,42.7532,926.1722],[-7.9523,42.7539,908.689],[-7.9652,42.7693,667.4418],[-7.9784,42.7789,750.6603],[-7.9818,42.7879,705.6523],[-7.9803,42.8113,586.4327],[-7.9754,42.8172,560.1353],[-7.9707,42.828,606.4091],[-7.9562,42.8397,449.7742],[-7.9638,42.842,423.0494],[-7.9687,42.8496,341.6069],[-7.9785,42.8473,341.1345],[-7.9792,42.845,335.9667],[-7.9842,42.8423,339.7966],[-7.9925,42.8471,345.9597],[-7.9967,42.8461,333.9155],[-7.9996,42.8489,327.7765],[-8.0106,42.8486,319.6494],[-8.0134,42.8502,316.7632],[-8.0159,42.847,318.6138],[-8.0241,42.8471,314.6802],[-8.0308,42.8403,308.4117],[-8.0352,42.8381,311.477],[-8.0413,42.838,305.1369],[-8.0458,42.8315,308.1013],[-8.0549,42.8333,295.9227],[-8.0542,42.8371,306.5994],[-8.063,42.8361,292.0882],[-8.0645,42.8406,294.7374],[-8.0606,42.8407,300.2837],[-8.0601,42.8431,295.5704],[-8.0679,42.8455,275.9334],[-8.0716,42.8524,266.5402],[-8.0809,42.8532,249.9485],[-8.0831,42.8547,253.107],[-8.0887,42.8536,242.5],[-8.1009,42.8472,242.5],[-8.1029,42.8498,242.5],[-8.1049,42.8484,242.5],[-8.1047,42.845,247.11],[-8.1112,42.847,242.5],[-8.1162,42.8411,242.5],[-8.1207,42.8464,242.5],[-8.12,42.8503,242.5],[-8.1262,42.85,246.4053],[-8.1349,42.8432,245.3148],[-8.1379,42.843,242.5],[-8.1399,42.8436,252.9829],[-8.1393,42.846,244.696],[-8.1429,42.8478,242.5],[-8.1518,42.8468,251.0862],[-8.1554,42.8505,245.7868],[-8.1597,42.8499,242.5],[-8.1637,42.8517,242.5],[-8.1647,42.8547,242.5],[-8.1751,42.8583,242.5],[-8.1805,42.858,242.5],[-8.1835,42.86,242.5],[-8.1978,42.8515,186.5544],[-8.2032,42.8443,187.0963],[-8.2074,42.8429,181.265],[-8.2105,42.8456,222.1907],[-8.2148,42.8462,170.2897],[-8.2206,42.8443,178.0143],[-8.2212,42.8424,166.5],[-8.2161,42.8406,182.3072],[-8.2123,42.834,156.9416],[-8.2058,42.8322,166.5222],[-8.206,42.826,154.261],[-8.2102,42.8237,188.7506],[-8.2286,42.8267,165.6063],[-8.2326,42.8289,148.5],[-8.2331,42.8322,164.3772],[-8.2362,42.8328,161.9042],[-8.244,42.8276,144.0148],[-8.2465,42.8278,154.5143],[-8.2478,42.8291,132.6113],[-8.2458,42.8334,153.8338],[-8.2551,42.8364,150.9196],[-8.2625,42.8322,131.7269],[-8.2634,42.8287,135.6691],[-8.2767,42.8216,125.0961],[-8.2767,42.8165,120.1996],[-8.274,42.813,116.1075],[-8.2793,42.8109,120.0655],[-8.2884,42.8179,121.438],[-8.2994,42.8189,113.73779999999999],[-8.2983,42.8254,118.571],[-8.2931,42.8281,115.1967],[-8.2933,42.8296,107.4522],[-8.3027,42.8318,105.692],[-8.3075,42.8297,119.3187],[-8.3102,42.8304,153.9432],[-8.3118,42.8339,107.1345],[-8.3104,42.8389,111.209],[-8.3137,42.8415,110.3689],[-8.3153,42.8459,139.4618],[-8.3213,42.8393,95.9602],[-8.3219,42.8334,119.3696],[-8.3259,42.8312,100.8681],[-8.3296,42.8421,100.4135],[-8.3349,42.8392,88.2728],[-8.3393,42.8406,94.9481],[-8.3455,42.8359,94.3784],[-8.3459,42.8322,87.6401],[-8.3425,42.8284,91.3992],[-8.334,42.8302,84.3216],[-8.3303,42.8273,109.0767],[-8.3296,42.8234,78.1545],[-8.3339,42.8172,76.4257],[-8.331,42.8148,74.0147],[-8.33,42.8111,81.3463],[-8.3334,42.7999,88.7196],[-8.3319,42.7942,66.4425],[-8.34,42.7932,66.9136],[-8.348,42.7885,64.0846],[-8.3476,42.7839,67.927],[-8.3542,42.7788,72.0432],[-8.3608,42.7836,72.0532],[-8.3687,42.7854,69.1531],[-8.3787,42.7841,75.4451],[-8.3826,42.7851,71.8291],[-8.3828,42.7895,66.2661],[-8.3921,42.7891,62.7136],[-8.3923,42.7861,75.8984],[-8.3886,42.7808,199.5509],[-8.3913,42.7767,225.5412],[-8.3981,42.7812,56.9993],[-8.4,42.7804,73.8901],[-8.4041,42.7723,51.4516],[-8.41,42.7684,55.2308],[-8.4133,42.7681,61.7004],[-8.4153,42.7642,77.4115],[-8.4064,42.7563,45.8167],[-8.4068,42.7542,46.7172],[-8.4104,42.7532,64.6554],[-8.4221,42.7544,61.7642],[-8.4302,42.7466,52.7714],[-8.4329,42.7459,50.1743],[-8.4449,42.7482,45.5553],[-8.4697,42.7436,53.4213],[-8.4879,42.7516,52.4041],[-8.493,42.7564,39.6379],[-8.5072,42.7561,40.2162],[-8.512,42.755,40.0769],[-8.5169,42.7513,42.9388],[-8.5226,42.7518,46.0621],[-8.5268,42.7554,33.986],[-8.5306,42.7561,33.9419],[-8.5333,42.7519,40.1537],[-8.5459,42.7537,31.1264],[-8.5485,42.7607,30.3133],[-8.5564,42.7606,28.8435],[-8.5594,42.7556,25.840699999999998],[-8.5545,42.7467,29.4048],[-8.5635,42.7462,45.7134],[-8.5716,42.7421,42.3952],[-8.579,42.7435,38.2453],[-8.5812,42.7414,31.2738],[-8.5934,42.7437,31.7225],[-8.5998,42.7431,18.6781],[-8.6074,42.7255,312.5563],[-8.604,42.7168,260.7607],[-8.6065,42.7151,292.7672],[-8.6141,42.7147,195.515],[-8.6163,42.7188,147.4078],[-8.6229,42.7163,177.8044],[-8.6238,42.7142,205.4742],[-8.631,42.7202,173.6311],[-8.643,42.7238,60.0132],[-8.6448,42.7261,49.8731],[-8.6499,42.7272,2.888],[-8.6508,42.7291,5.7441],[-8.6543,42.7267,0.0],[-8.6548,42.7205,0.5109],[-8.6762,42.7175,1.6757],[-8.6775,42.7118,3.202],[-8.7033,42.7072,0.8499],[-8.7172,42.7063,0.0],[-8.7249,42.699,0.0],[-8.7224,42.6949,0.2261],[-8.7266,42.6883,0.1975],[-8.7256,42.6877,4.8198],[-8.7299,42.6864,0.0],[-8.7303,42.6844,0.2039],[-8.726,42.6794,0.0],[-8.7257,42.6757,1.8147],[-8.7265,42.6729,3.0011],[-8.729,42.6721,0.0],[-8.729,42.666,2.1541],[-8.7343,42.6646,1.086],[-8.739,42.661,0.4047],[-8.7418,42.6515,3.8104],[-8.7413,42.649,2.5102],[-8.7487,42.6424,0.0],[-8.7535,42.6415,3.7529],[-8.7568,42.639,0.0],[-8.7568,42.6368,1.8306],[-8.7593,42.6365,0.5395],[-8.761,42.6335,4.867],[-8.7635,42.6326,0.0507],[-8.7651,42.6285,1.2135],[-8.7701,42.6257,0.0],[-8.7699,42.6232,7.3008],[-8.774,42.6218,0.9736],[-8.7765,42.6171,1.1245],[-8.7774,42.6129,0.0],[-8.7718,42.611,0.735],[-8.766,42.6024,4.7038],[-8.7679,42.6004,2.1058],[-8.7707,42.6004,0.0],[-8.7721,42.5971,0.0],[-8.769,42.5971,4.1681],[-8.7712,42.5962,0.0],[-8.7715,42.5935,5.5601],[-8.774,42.5935,4.1441],[-8.774,42.5974,0.0],[-8.7796,42.5951,0.6273],[-8.7799,42.5965,0.0],[-8.784,42.5976,2.0956],[-8.7851,42.5971,2.0956],[-8.7843,42.5932,3.731],[-8.7862,42.5932,1.9417],[-8.7868,42.591,5.0343],[-8.7901,42.589,0.2425],[-8.7915,42.5899,0.2425],[-8.7912,42.5857,0.5921],[-8.7965,42.5863,1.1812],[-8.7971,42.5824,3.662],[-8.7957,42.5801,8.1265],[-8.7996,42.5818,6.5258],[-8.8029,42.5799,4.8651],[-8.8054,42.5807,0.0],[-8.8051,42.5782,6.1053],[-8.8076,42.576,1.3817],[-8.8249,42.5782,0.7096],[-8.8271,42.5757,0.0],[-8.8296,42.5754,2.7859],[-8.8296,42.5679,3.0638],[-8.8318,42.5621,1.5332],[-8.8285,42.5618,4.5675],[-8.8279,42.5599,0.5825],[-8.8254,42.559,1.147],[-8.8204,42.5624,4.8049],[-8.819,42.5612,1.6939],[-8.8201,42.5565,8.6421],[-8.8221,42.5546,5.6407],[-8.8246,42.5557,0.0],[-8.8235,42.554,1.8271],[-8.8251,42.5532,4.143],[-8.8257,42.5576,2.14],[-8.8301,42.5588,0.0],[-8.8304,42.5604,0.0],[-8.834,42.5601,0.6181],[-8.8343,42.5565,3.6793],[-8.8365,42.554,2.0893],[-8.8363,42.5521,1.9024],[-8.8335,42.5507,0.5456],[-8.8315,42.5449,0.7045],[-8.8265,42.5407,3.2066],[-8.826,42.5262,1.0068],[-8.8274,42.5207,0.0],[-8.8296,42.5196,0.6816],[-8.8263,42.5185,0.0],[-8.8226,42.5204,0.0],[-8.8213,42.5185,0.0],[-8.8215,42.5229,0.6989],[-8.8151,42.5249,1.3601],[-8.8162,42.5204,7.7634],[-8.8151,42.5196,7.7634],[-8.8174,42.5193,-0.0834],[-8.8154,42.5165,5.465],[-8.8174,42.5132,0.3426],[-8.8165,42.5093,1.2345],[-8.8196,42.5088,0.3179],[-8.8162,42.5062,8.3361],[-8.8179,42.5024,1.4094],[-8.8146,42.5015,0.4968],[-8.8132,42.4979,1.1536],[-8.8071,42.5013,0.5445],[-8.8057,42.5004,1.8043],[-8.8093,42.4979,0.2598],[-8.8101,42.4946,0.0],[-8.8124,42.4946,0.0],[-8.8132,42.4929,2.0187],[-8.8118,42.4918,9.4922],[-8.8149,42.4935,3.3862],[-8.8185,42.491,5.6037],[-8.8251,42.4957,0.0],[-8.8276,42.491,0.0],[-8.8271,42.4887,1.8065],[-8.831,42.4849,0.0],[-8.8304,42.4804,0.9349],[-8.8263,42.4785,3.0083],[-8.826,42.4743,1.7295],[-8.829,42.4724,0.0],[-8.8293,42.4701,0.0],[-8.8213,42.4676,1.3058],[-8.8226,42.4646,0.2943],[-8.8207,42.4526,0.2345],[-8.8254,42.4538,0.4497],[-8.8279,42.4571,0.0],[-8.8335,42.4582,0.3174],[-8.8351,42.456,0.0],[-8.8335,42.4529,3.5705],[-8.8354,42.4518,7.8694],[-8.8368,42.4585,0.1466],[-8.8387,42.4596,0.1647],[-8.8421,42.4554,2.7936],[-8.8482,42.454,0.989],[-8.8443,42.4565,0.7011],[-8.8465,42.4596,0.0],[-8.8488,42.4599,0.5296],[-8.8496,42.4582,0.1285],[-8.8479,42.456,0.4447],[-8.8554,42.4535,1.8125],[-8.8582,42.4501,5.7349],[-8.869,42.4476,2.0408],[-8.871,42.4526,0.4453],[-8.8729,42.4538,2.0226],[-8.8721,42.4626,5.6926],[-8.8696,42.4649,1.1655],[-8.866,42.4649,0.0],[-8.8621,42.4699,5.1718],[-8.8574,42.4699,0.0],[-8.8557,42.4712,0.6087],[-8.8585,42.4743,0.1121],[-8.8562,42.4774,0.0],[-8.8601,42.4826,4.4697],[-8.8574,42.4868,0.0],[-8.8576,42.4912,3.7038],[-8.8596,42.494,0.0],[-8.8574,42.4957,0.0],[-8.8621,42.4957,2.6476],[-8.8621,42.4971,1.3943],[-8.8579,42.4974,0.0],[-8.8585,42.4982,0.0],[-8.8676,42.499,0.0],[-8.8718,42.4957,0.696],[-8.8735,42.4974,1.7978],[-8.871,42.4985,0.0],[-8.8715,42.501,1.0233],[-8.8782,42.4976,0.6196],[-8.8837,42.499,0.1811],[-8.884,42.4968,2.0349],[-8.8899,42.4963,0.0],[-8.8918,42.4935,0.8733],[-8.8907,42.4912,0.0],[-8.8918,42.489,0.5885],[-8.8857,42.4921,4.2983],[-8.8832,42.4882,7.9354],[-8.8871,42.486,0.0],[-8.8885,42.4826,2.0092],[-8.8899,42.4832,2.0092],[-8.8896,42.4863,1.2927],[-8.8924,42.486,5.25],[-8.8957,42.4799,6.5433],[-8.8999,42.4801,4.0599],[-8.9082,42.4746,5.1248],[-8.9137,42.4752,9.735],[-8.9185,42.4776,0.6905],[-8.9218,42.4771,2.9668],[-8.9224,42.4785,2.9668],[-8.9312,42.4776,4.3132],[-8.9382,42.4793,0.0],[-8.9379,42.4763,0.809],[-8.9399,42.4771,0.0],[-8.9404,42.476,0.0],[-8.9368,42.4729,4.7226],[-8.936,42.4685,3.8057],[-8.9393,42.4679,0.0],[-8.9415,42.4646,1.9024],[-8.9449,42.4649,0.0],[-8.9451,42.4635,0.0],[-8.9401,42.4607,0.0],[-8.9354,42.4554,1.5779],[-8.9357,42.4532,0.0],[-8.9338,42.4532,0.0],[-8.9343,42.4518,0.0],[-8.931,42.4551,0.5717],[-8.931,42.4507,0.0],[-8.9293,42.449,0.0],[-8.9276,42.4515,0.0],[-8.9237,42.4512,0.6133],[-8.9232,42.4546,0.0],[-8.9182,42.4574,0.0],[-8.9199,42.459,4.4908],[-8.9162,42.459,0.0],[-8.9132,42.4629,10.5439],[-8.9046,42.4607,4.3089],[-8.8968,42.4615,2.3445],[-8.8918,42.4574,4.5816],[-8.8865,42.4574,7.0171],[-8.8821,42.4554,4.3264],[-8.874,42.4449,4.2128],[-8.8707,42.4351,0.0],[-8.8721,42.4324,0.0],[-8.8757,42.4338,0.0],[-8.8754,42.4321,1.7299],[-8.8738,42.4321,0.0],[-8.8746,42.4301,9.0142],[-8.8807,42.4307,0.0],[-8.8796,42.429,0.5606],[-8.874,42.4282,18.3151],[-8.8738,42.4265,16.264],[-8.8765,42.4254,0.0],[-8.8765,42.4226,8.4736],[-8.8821,42.424,0.0],[-8.8813,42.4212,0.0],[-8.8785,42.4204,4.1809],[-8.8804,42.4199,0.0],[-8.8801,42.4165,12.4514],[-8.8818,42.4146,0.0],[-8.8785,42.4135,0.0],[-8.8757,42.4149,2.1875],[-8.8718,42.4132,0.0],[-8.8682,42.4143,6.4074],[-8.859,42.404,13.5008],[-8.8585,42.4015,20.2435],[-8.8599,42.3999,0.0],[-8.8587,42.3979,10.7347],[-8.8568,42.396,0.5789],[-8.8546,42.3985,0.0],[-8.8479,42.3976,7.8348],[-8.8457,42.3954,2.3868],[-8.8474,42.3937,0.0],[-8.8465,42.3907,0.8926],[-8.8424,42.3899,0.0],[-8.8429,42.3865,0.0],[-8.839,42.3838,5.0587],[-8.8351,42.3854,0.0],[-8.834,42.3887,6.8741],[-8.8321,42.3896,3.1999],[-8.8265,42.386,0.0],[-8.826,42.3913,8.1165],[-8.8229,42.391,2.9212],[-8.8215,42.3935,0.0],[-8.8185,42.394,1.3709],[-8.8246,42.3957,0.0],[-8.824,42.3982,0.5978],[-8.8199,42.3993,10.5996],[-8.8187,42.3963,0.0],[-8.8168,42.396,2.1515],[-8.8149,42.4012,6.3711],[-8.8082,42.4001,0.0],[-8.8054,42.3957,0.0],[-8.8013,42.3963,0.4377],[-8.8035,42.3996,0.0],[-8.801,42.4004,0.0],[-8.7918,42.396,0.0],[-8.7871,42.3974,12.1854],[-8.7846,42.3951,0.0],[-8.7807,42.3957,17.603],[-8.7774,42.3935,0.0],[-8.7771,42.3893,10.5465],[-8.7738,42.3879,2.8023],[-8.7712,42.3893,15.2605],[-8.7704,42.3937,0.0],[-8.7607,42.3949,0.0],[-8.7579,42.3974,2.0602],[-8.7582,42.4018,1.4684],[-8.7485,42.4026,3.5412],[-8.7485,42.4046,20.4681],[-8.7401,42.4137,0.0],[-8.7346,42.4135,0.0],[-8.7301,42.4174,15.4557],[-8.7257,42.4176,0.0],[-8.7232,42.421,5.2344],[-8.7193,42.4226,5.3202],[-8.714,42.4212,0.8416],[-8.7065,42.4271,0.0],[-8.704,42.4313,2.5082],[-8.7046,42.4343,6.7887],[-8.6974,42.4351,0.0],[-8.6954,42.4371,14.874],[-8.6896,42.4382,1.0738],[-8.6869,42.4332,0.2715],[-8.6882,42.4299,0.9759],[-8.6851,42.4279,0.0],[-8.6854,42.4238,0.0],[-8.6815,42.4212,3.2738],[-8.6751,42.4207,2.9344],[-8.6721,42.4215,0.0],[-8.6712,42.4263,5.1556],[-8.6651,42.424,2.251],[-8.6637,42.4254,0.4962],[-8.661,42.424,1.5046],[-8.6599,42.426,1.9111],[-8.6565,42.4257,2.4495],[-8.6551,42.4279,0.0],[-8.6562,42.4307,3.5883],[-8.6515,42.4349,0.4469],[-8.6546,42.4296,0.0],[-8.6518,42.4276,1.8992],[-8.6554,42.4235,13.6863],[-8.6654,42.4204,4.4334],[-8.6815,42.4071,2.0047],[-8.6851,42.4076,0.0],[-8.6857,42.4051,0.358],[-8.6888,42.4032,6.079],[-8.6987,42.4029,0.4809],[-8.6985,42.3993,1.5468],[-8.6915,42.4004,2.9109],[-8.6943,42.3974,0.5906],[-8.6985,42.3979,0.0],[-8.6974,42.3943,1.4122],[-8.7015,42.3993,0.0],[-8.7026,42.396,0.3667],[-8.7065,42.3957,0.3256],[-8.7062,42.3976,0.444],[-8.7101,42.3965,0.0],[-8.7101,42.3937,15.6437],[-8.7146,42.3921,0.0],[-8.7149,42.3899,17.9642],[-8.719,42.3893,2.8382],[-8.7201,42.3854,6.0117],[-8.7262,42.3849,0.0],[-8.7299,42.3757,2.5494],[-8.7354,42.374,0.0],[-8.734,42.3763,0.0],[-8.7368,42.376,0.0],[-8.7401,42.371,3.3899],[-8.7401,42.3679,5.0619],[-8.7437,42.3685,10.644],[-8.7457,42.3662,28.7361],[-8.7468,42.3576,0.0],[-8.7518,42.3499,5.4714],[-8.7521,42.3424,13.2133],[-8.7549,42.3404,10.823],[-8.7626,42.3401,26.9173],[-8.7643,42.3365,2.5375],[-8.7679,42.3357,0.0],[-8.7699,42.3329,5.3776],[-8.7754,42.3304,23.7195],[-8.7774,42.3312,1.879],[-8.7846,42.3274,0.0],[-8.7868,42.3293,0.3788],[-8.7879,42.3271,0.3857],[-8.7921,42.3271,6.1055],[-8.7999,42.3318,9.5831],[-8.7982,42.3368,12.7265],[-8.7999,42.339,0.0],[-8.8068,42.3382,16.9979],[-8.8113,42.3396,0.0],[-8.8135,42.3371,1.1994],[-8.8185,42.3382,2.5884],[-8.8226,42.3371,0.0],[-8.826,42.3421,0.0],[-8.8301,42.341,0.0],[-8.8335,42.3424,0.0],[-8.8374,42.3404,1.2951],[-8.8382,42.3379,1.7996],[-8.8346,42.3368,0.7218],[-8.8329,42.3326,0.0],[-8.8274,42.3329,0.0],[-8.8271,42.3299,0.0],[-8.8293,42.3276,0.0],[-8.8268,42.326,0.0],[-8.8282,42.3226,0.0],[-8.8254,42.3232,0.0],[-8.8271,42.321,0.0],[-8.824,42.3199,19.7941],[-8.8235,42.3138,0.3609],[-8.8182,42.314,5.6678],[-8.8196,42.3124,0.0],[-8.8185,42.3068,0.0],[-8.8196,42.3035,2.4113],[-8.8221,42.3032,1.366],[-8.8232,42.3013,1.1455],[-8.8235,42.2968,1.0254],[-8.8204,42.2957,11.7394],[-8.8199,42.2901,11.2188],[-8.8229,42.2871,0.0],[-8.8229,42.2818,0.0],[-8.821,42.279,0.5017],[-8.8182,42.2801,1.0165],[-8.8168,42.2788,1.0165],[-8.8193,42.2774,0.0],[-8.8201,42.2743,5.0579],[-8.8299,42.2776,0.0],[-8.8315,42.2832,0.0],[-8.8343,42.2865,1.8421],[-8.8379,42.2876,2.3299],[-8.8382,42.2915,1.7656],[-8.8471,42.2921,0.0],[-8.8465,42.2971,0.0],[-8.8543,42.3065,15.0889],[-8.8538,42.3096,4.5712],[-8.8576,42.3093,0.0],[-8.8601,42.3037,0.0],[-8.8582,42.2985,21.4557],[-8.8587,42.2935,59.5505],[-8.8607,42.2907,0.0],[-8.8601,42.2868,0.0],[-8.8646,42.2782,0.0],[-8.8646,42.2721,0.0],[-8.8629,42.2682,7.3842],[-8.8665,42.2643,0.0],[-8.8671,42.2596,35.7451],[-8.871,42.2543,0.0],[-8.8743,42.254,0.0],[-8.8726,42.2496,0.0],[-8.8663,42.2513,3.3465],[-8.866,42.2476,1.1296],[-8.8638,42.2457,2.2924],[-8.8585,42.2588,9.4376],[-8.8551,42.2618,1.7755],[-8.8363,42.2588,15.3108],[-8.834,42.2565,0.0],[-8.8343,42.2535,0.0],[-8.8315,42.2513,0.9595],[-8.8271,42.2507,1.8435],[-8.816,42.2565,0.0],[-8.816,42.261,6.9566],[-8.8143,42.2618,11.9413],[-8.8118,42.2585,0.0],[-8.8101,42.259,18.201],[-8.806,42.2518,1.6434],[-8.7949,42.2496,2.3863],[-8.7949,42.2476,0.9059],[-8.7924,42.2463,0.407],[-8.7904,42.2482,0.7373],[-8.7876,42.2476,0.0],[-8.7879,42.256,11.3651],[-8.7854,42.2557,0.0],[-8.7849,42.2593,0.0],[-8.7824,42.2599,0.0],[-8.7846,42.2607,0.7184],[-8.784,42.2626,4.1789],[-8.771,42.2624,9.1295],[-8.7649,42.2582,0.0],[-8.7543,42.2635,0.0],[-8.7515,42.2679,3.2067],[-8.7401,42.2705,0.0],[-8.7393,42.2732,1.2403],[-8.7354,42.2729,0.0],[-8.7357,42.2824,0.8499],[-8.7321,42.2865,3.2786],[-8.7215,42.2851,2.3935],[-8.7212,42.2821,0.6338],[-8.7193,42.281,0.0],[-8.7199,42.2854,2.3935],[-8.7171,42.2887,9.5805],[-8.7126,42.2796,4.0488],[-8.7143,42.2782,0.0],[-8.7138,42.276,0.0],[-8.7113,42.276,1.0129],[-8.7071,42.2768,0.0],[-8.7063,42.279,15.6444],[-8.7018,42.2785,0.0],[-8.7004,42.2815,0.0],[-8.6949,42.279,14.9998],[-8.6899,42.2799,0.0],[-8.6824,42.2837,0.0],[-8.676,42.2907,5.9581],[-8.6707,42.2907,15.5643],[-8.669,42.2893,1.3818],[-8.6668,42.2912,13.2],[-8.661,42.2907,23.7184],[-8.6518,42.2982,20.0604],[-8.6551,42.3026,0.0],[-8.6574,42.3029,0.0],[-8.6585,42.3079,12.2469],[-8.6621,42.3107,14.486],[-8.6618,42.3121,1.8989],[-8.6599,42.316,4.923],[-8.6554,42.3196,0.4331],[-8.6493,42.319,0.0],[-8.6488,42.3221,7.2118],[-8.6465,42.3221,0.6436],[-8.6454,42.3246,7.4651],[-8.6363,42.3262,1.6152],[-8.6368,42.3326,0.0],[-8.6443,42.3365,13.8119],[-8.6446,42.3382,3.0361],[-8.641,42.3396,2.3396],[-8.6368,42.3471,17.0099],[-8.634,42.3479,7.5389],[-8.6324,42.3537,0.3177],[-8.6293,42.3532,7.2801],[-8.6299,42.3504,0.0],[-8.6279,42.3504,2.4386],[-8.6254,42.3457,13.6763],[-8.6204,42.349,3.4395],[-8.6132,42.346,3.013],[-8.6104,42.3474,6.6953],[-8.609,42.346,0.3937],[-8.6024,42.3454,0.0],[-8.5965,42.3462,13.9099],[-8.6018,42.3426,9.9221],[-8.606,42.3449,24.5242],[-8.6121,42.3443,6.0906],[-8.6157,42.3399,0.0],[-8.6157,42.3393,0.0],[-8.614,42.3399,4.0592],[-8.6118,42.3365,14.0851],[-8.6146,42.3351,24.5929],[-8.6162,42.3307,0.0],[-8.6112,42.3282,13.1163],[-8.6112,42.3265,6.9701],[-8.614,42.3262,4.9531],[-8.6143,42.324,19.7698],[-8.616,42.3235,2.5339],[-8.616,42.3201,8.1421],[-8.6196,42.3149,3.1069],[-8.6187,42.3121,15.1917],[-8.6218,42.3088,1.7248],[-8.6165,42.3046,3.4993],[-8.614,42.2982,18.7499],[-8.6176,42.2921,0.8272],[-8.6213,42.291,3.3274],[-8.6129,42.2876,3.8295],[-8.614,42.2857,18.5114],[-8.624,42.2899,0.0],[-8.6249,42.2893,0.0],[-8.6226,42.2871,0.935],[-8.6274,42.2885,0.0],[-8.6285,42.2851,16.9001],[-8.6335,42.2857,2.783],[-8.644,42.2907,0.0],[-8.6468,42.2907,0.0],[-8.6507,42.2879,1.4435],[-8.654,42.2885,0.0],[-8.6543,42.2874,0.0],[-8.6524,42.2868,9.1001],[-8.6554,42.2851,25.8374],[-8.6613,42.2851,4.121],[-8.6629,42.2807,5.7235],[-8.669,42.279,0.0],[-8.671,42.274,3.4135],[-8.6735,42.2724,0.0],[-8.6729,42.2693,8.5264],[-8.676,42.2649,2.8768],[-8.6824,42.2637,4.1377],[-8.6874,42.2593,0.0],[-8.6893,42.2613,0.0],[-8.6932,42.2582,1.5827],[-8.6954,42.2582,24.1965],[-8.6968,42.2604,2.5579],[-8.7035,42.2596,0.0],[-8.7043,42.2568,21.2306],[-8.7071,42.2554,0.0],[-8.7057,42.2529,0.0],[-8.711,42.2507,0.0],[-8.7104,42.2457,0.0],[-8.7126,42.241,1.7024],[-8.7149,42.2407,2.299],[-8.716,42.2438,0.0],[-8.7179,42.2413,2.5302],[-8.726,42.2432,1.4581],[-8.7337,42.2404,1.7878],[-8.7376,42.2349,0.0],[-8.7365,42.2315,0.0],[-8.7415,42.2274,0.0],[-8.7493,42.2263,1.5161],[-8.751,42.2307,1.7497],[-8.7449,42.2293,0.0],[-8.7426,42.2318,1.2234],[-8.746,42.2329,3.1819],[-8.7485,42.2313,3.3476],[-8.7532,42.2315,3.4606],[-8.7535,42.2326,0.0],[-8.751,42.2335,0.0],[-8.7512,42.2351,0.7782],[-8.7629,42.2315,0.0],[-8.761,42.2257,0.601],[-8.7551,42.2271,8.4546],[-8.7543,42.2257,5.6835],[-8.7593,42.2232,15.3362],[-8.7612,42.2243,0.7445],[-8.7671,42.2235,8.5275],[-8.7707,42.2254,2.0198],[-8.7751,42.2226,0.148],[-8.7757,42.2204,8.1044],[-8.7782,42.219,0.1588],[-8.7757,42.2146,0.0],[-8.7757,42.2096,3.0125],[-8.7804,42.2032,9.4899],[-8.7949,42.1974,0.0],[-8.7988,42.1999,0.0],[-8.8001,42.2038,0.0],[-8.8051,42.2001,1.1952],[-8.8029,42.1988,6.434],[-8.8004,42.1999,1.3672],[-8.796,42.1971,0.0],[-8.7965,42.194,3.957],[-8.8004,42.1946,0.6864],[-8.8024,42.1921,0.0],[-8.8085,42.1904,9.926],[-8.8124,42.1915,0.0],[-8.8149,42.1893,0.0],[-8.8165,42.1865,0.0],[-8.8121,42.1815,21.1241],[-8.8143,42.179,5.9043],[-8.8165,42.1685,5.5326],[-8.819,42.1682,0.0],[-8.8187,42.161,0.2718],[-8.8207,42.1607,0.0],[-8.8201,42.159,4.4923],[-8.824,42.1554,12.8701],[-8.8326,42.1532,4.9715],[-8.8379,42.1587,3.1534],[-8.8504,42.1568,3.9477],[-8.8512,42.1521,31.2123],[-8.8474,42.1482,0.0],[-8.844,42.1471,7.6968],[-8.8293,42.1479,3.4711],[-8.8263,42.146,1.6316],[-8.8254,42.1415,0.0],[-8.8238,42.1418,0.0],[-8.824,42.1432,0.0],[-8.8207,42.1424,2.0886],[-8.8168,42.1351,1.8076],[-8.8204,42.1268,9.1723],[-8.8218,42.1254,11.7309],[-8.8249,42.126,0.0],[-8.8274,42.1215,0.0],[-8.8246,42.1193,0.4176],[-8.8185,42.1215,0.0],[-8.8149,42.1154,5.9583],[-8.8182,42.1171,0.0],[-8.8243,42.1135,1.4945],[-8.8224,42.1168,0.0],[-8.8237,42.1176,1.6312],[-8.8274,42.1135,2.9918],[-8.8363,42.1124,4.1068],[-8.8363,42.1162,0.0],[-8.8379,42.1146,1.8439],[-8.841,42.1146,1.3142],[-8.8462,42.1185,11.1255],[-8.8443,42.1251,0.0],[-8.8526,42.1282,0.0],[-8.854,42.1224,0.0],[-8.8593,42.1229,0.0],[-8.8632,42.1215,1.5981],[-8.8676,42.1162,29.1934],[-8.8746,42.1154,0.5928],[-8.8782,42.1113,1.9776],[-8.8874,42.1138,0.0],[-8.8921,42.1121,1.6905],[-8.8951,42.114,0.0],[-8.9004,42.1126,0.0],[-8.9007,42.1099,1.5377],[-8.8985,42.1063,6.922],[-8.8996,42.1032,0.0],[-8.896,42.0996,0.0],[-8.8943,42.0882,9.1686],[-8.8957,42.0851,0.0],[-8.8918,42.0824,18.6702],[-8.8971,42.0771,0.0],[-8.894,42.0721,19.6703],[-8.8976,42.0674,0.0],[-8.8938,42.0635,1.534],[-8.894,42.0621,1.534],[-8.8915,42.0615,1.3272],[-8.8932,42.0593,0.0],[-8.8924,42.0576,0.5789],[-8.8888,42.0557,1.1685],[-8.8912,42.051,0.0],[-8.8854,42.0507,6.0426],[-8.8854,42.0474,5.2923],[-8.8885,42.0454,0.0],[-8.8885,42.0438,0.0],[-8.8871,42.041,0.0],[-8.8832,42.0401,3.0396],[-8.8846,42.0379,0.0],[-8.8843,42.0326,8.678],[-8.8888,42.0257,0.0],[-8.886,42.0249,11.532],[-8.8871,42.0218,0.0],[-8.8854,42.0207,8.1558],[-8.8857,42.0135,2.3872],[-8.8835,42.0121,12.3148],[-8.8835,42.0057,1.0391],[-8.881,42.0029,0.0],[-8.8771,42.0024,1.6011],[-8.8849,41.9946,0.4579],[-8.8882,41.9782,2.6623],[-8.8882,41.9715,0.7701],[-8.8865,41.9676,0.0],[-8.8876,41.9663,0.0],[-8.886,41.9649,30.0954],[-8.8879,41.9615,0.0],[-8.8857,41.9607,25.8142],[-8.8871,41.956,0.0],[-8.8851,41.9529,2.4852],[-8.8868,41.9512,0.0],[-8.8854,41.9429,20.8106],[-8.8885,41.9362,0.0],[-8.8843,41.9299,25.2252],[-8.8857,41.9282,3.3319],[-8.886,41.9207,2.9428],[-8.8829,41.9121,0.163],[-8.8771,41.9104,0.3205],[-8.8807,41.9049,0.0],[-8.8749,41.8993,7.2315],[-8.8804,41.8915,0.0],[-8.8821,41.881,2.8266],[-8.8735,41.8699,0.0],[-8.8654,41.8741,1.228],[-8.863,41.872,0.0],[-8.851,41.8771,0.0]]],
[[[-8.8621,42.1465,2.259],[-8.864,42.1476,0.5907],[-8.8665,42.1451,0.0],[-8.8629,42.1449,0.0],[-8.8621,42.1465,2.259]]],
[[[-8.8543,42.1476,2.6881],[-8.8565,42.149,0.0],[-8.8579,42.146,0.0],[-8.8543,42.144,2.2495],[-8.8529,42.1457,0.0],[-8.8543,42.1476,2.6881]]],
[[[-8.9087,42.1796,0.0],[-8.9112,42.1801,0.0],[-8.9112,42.1782,0.0],[-8.9087,42.1779,0.0],[-8.9087,42.1796,0.0]]],
[[[-8.9079,42.2071,0.0],[-8.9099,42.2076,0.0],[-8.9104,42.206,16.0783],[-8.9132,42.2057,0.0],[-8.9101,42.1988,28.1146],[-8.9126,42.1949,0.8622],[-8.9063,42.1907,1.0155],[-8.9024,42.1937,0.0],[-8.8993,42.1926,0.3888],[-8.8971,42.1937,0.0],[-8.8937,42.1904,0.0],[-8.8893,42.1907,7.6995],[-8.891,42.1951,20.519],[-8.8962,42.1993,0.0],[-8.9054,42.2015,31.8894],[-8.9079,42.2071,0.0]]],
[[[-8.9115,42.2504,0.0],[-8.9187,42.251,0.0],[-8.9157,42.2449,0.0],[-8.9118,42.2435,0.0],[-8.9112,42.2407,0.0],[-8.9071,42.2376,0.0],[-8.9093,42.2332,0.0],[-8.9071,42.2246,0.3564],[-8.9096,42.224,0.0],[-8.9093,42.219,0.0],[-8.9171,42.2174,0.0],[-8.9174,42.2137,0.0],[-8.9146,42.211,0.0],[-8.9063,42.2124,0.0],[-8.9038,42.2154,0.0],[-8.9001,42.2157,0.0],[-8.9001,42.2174,0.0],[-8.9029,42.2193,12.6463],[-8.9026,42.2226,0.0],[-8.9035,42.221,0.478],[-8.906,42.2232,0.0],[-8.9007,42.2268,1.7785],[-8.8951,42.2274,4.1191],[-8.9004,42.2304,5.8246],[-8.8993,42.2354,0.0],[-8.9018,42.239,0.0],[-8.9021,42.2438,0.0],[-8.9057,42.2449,23.6452],[-8.9115,42.2504,0.0]]],
[[[-8.9326,42.3485,15.4085],[-8.9379,42.3485,0.0],[-8.939,42.346,0.0],[-8.9382,42.341,0.0],[-8.9318,42.3451,3.3622],[-8.9326,42.3485,15.4085]]],
[[[-8.9199,42.3988,0.0],[-8.921,42.4021,0.0],[-8.9254,42.3949,24.6598],[-8.9321,42.3982,1.2695],[-8.9354,42.3876,5.8086],[-8.941,42.3868,2.2424],[-8.9462,42.3807,0.0],[-8.9465,42.3788,0.0],[-8.9404,42.3707,0.0],[-8.9412,42.3682,5.5203],[-8.9449,42.3696,0.0],[-8.9468,42.3674,4.92],[-8.9496,42.3676,2.0427],[-8.9454,42.3549,0.0],[-8.9435,42.3549,0.0],[-8.9412,42.3574,14.8798],[-8.9385,42.3554,0.0],[-8.9362,42.3565,0.0],[-8.9326,42.3701,0.0],[-8.9329,42.3746,6.6171],[-8.9293,42.3774,0.0],[-8.9262,42.3893,4.4618],[-8.9207,42.3932,0.0],[-8.9199,42.3988,0.0]]],
[[[-8.8549,42.4549,0.0],[-8.8512,42.4571,0.1285],[-8.851,42.4585,0.1285],[-8.8546,42.4579,0.0],[-8.8549,42.4549,0.0]]],
[[[-8.8587,42.4657,0.0],[-8.861,42.4663,0.0],[-8.8612,42.4643,0.0],[-8.8557,42.4615,0.0],[-8.8568,42.4646,0.0],[-8.8587,42.4657,0.0]]],
[[[-8.8482,42.466,0.0],[-8.8493,42.4674,0.0],[-8.8515,42.4674,0.0],[-8.8485,42.4651,0.0],[-8.8482,42.466,0.0]]],
[[[-8.834,42.4929,2.3639],[-8.8335,42.4971,0.0],[-8.8346,42.4974,0.0],[-8.8362,42.4899,0.2293],[-8.8335,42.4899,1.3281],[-8.834,42.4929,2.3639]]],
[[[-8.8415,42.4985,1.8225],[-8.8421,42.501,0.0],[-8.8457,42.5004,0.1929],[-8.8465,42.494,1.7772],[-8.8529,42.4899,1.1099],[-8.8535,42.4835,0.0],[-8.8524,42.4824,0.8185],[-8.846,42.4824,2.575],[-8.844,42.4849,1.6547],[-8.8454,42.4879,8.997],[-8.8437,42.4912,6.1795],[-8.8424,42.489,0.1814],[-8.841,42.4921,0.0],[-8.8407,42.4951,0.0],[-8.8432,42.4965,3.9317],[-8.8415,42.4985,1.8225]]],
[[[-8.8987,42.541,0.0],[-8.8996,42.544,0.0],[-8.9015,42.5438,0.0],[-8.9038,42.5393,0.0],[-8.901,42.5371,0.0],[-8.9018,42.5393,0.4628],[-8.8987,42.541,0.0]]],
[[[-8.914,42.5454,2.1376],[-8.9171,42.5474,0.0],[-8.9174,42.5451,0.0],[-8.9157,42.5435,0.0],[-8.9121,42.544,0.0],[-8.914,42.5454,2.1376]]],
[[[-8.8754,42.5743,0.0],[-8.8788,42.5743,0.0],[-8.8801,42.5726,4.8048],[-8.8843,42.5732,0.2426],[-8.884,42.5699,22.4756],[-8.8857,42.5687,23.6553],[-8.8899,42.5676,0.4629],[-8.8924,42.569,0.0],[-8.8924,42.5679,0.7905],[-8.8887,42.5646,0.0],[-8.8874,42.5607,0.0],[-8.8857,42.561,9.5366],[-8.8826,42.5579,0.0],[-8.8782,42.5574,1.4061],[-8.8743,42.5629,0.8868],[-8.8729,42.5629,0.0],[-8.8726,42.5596,0.0],[-8.8707,42.5604,0.0],[-8.8693,42.556,0.0],[-8.8732,42.5557,0.0],[-8.8726,42.5529,0.6876],[-8.8749,42.5554,0.0],[-8.8738,42.5533,0.6876],[-8.8757,42.5513,1.6343],[-8.8738,42.5499,0.4024],[-8.8754,42.5474,0.0],[-8.8729,42.5468,0.0],[-8.8729,42.5451,1.1598],[-8.8782,42.5457,0.0],[-8.8807,42.5404,0.0],[-8.8738,42.5368,0.0],[-8.8735,42.5354,0.0],[-8.8751,42.5363,0.0],[-8.876,42.5349,0.0],[-8.8732,42.5349,0.0],[-8.8724,42.5374,1.7985],[-8.8718,42.5324,2.2553],[-8.8793,42.5351,0.0],[-8.8821,42.5337,0.7209],[-8.8824,42.5293,0.0],[-8.8779,42.5288,1.8188],[-8.8788,42.5276,0.0],[-8.8774,42.5271,0.0],[-8.876,42.5296,4.6078],[-8.876,42.5282,0.0837],[-8.8729,42.5276,3.9807],[-8.8751,42.5257,0.0],[-8.8715,42.5254,0.0],[-8.8718,42.5244,0.0],[-8.8687,42.5274,2.688],[-8.8643,42.5251,0.0],[-8.8643,42.5276,0.0],[-8.8687,42.5304,3.3414],[-8.8668,42.5349,0.0],[-8.8682,42.5365,5.4547],[-8.8671,42.5418,0.0],[-8.8682,42.5435,3.8647],[-8.8646,42.5454,0.0],[-8.8549,42.5465,0.0],[-8.8612,42.5488,0.1995],[-8.8632,42.5515,2.2425],[-8.8626,42.5546,2.8557],[-8.8576,42.5579,0.7443],[-8.8601,42.5629,5.4713],[-8.856,42.5643,1.3605],[-8.856,42.5657,1.4047],[-8.8632,42.5685,1.0904],[-8.8629,42.5657,2.8243],[-8.8671,42.564,4.2632],[-8.869,42.5657,0.0],[-8.8685,42.5635,5.0919],[-8.8712,42.564,1.2549],[-8.8746,42.5665,6.283],[-8.874,42.5715,0.0],[-8.8754,42.5743,0.0]]],
[[[-8.7793,42.6213,0.0],[-8.7812,42.6224,0.0],[-8.7843,42.6205,0.0],[-8.7876,42.621,0.0],[-8.791,42.6162,0.0],[-8.7868,42.6135,0.0],[-8.7837,42.6146,0.2765],[-8.7776,42.6185,0.0],[-8.7793,42.6213,0.0]]],
[[[-8.7079,42.4132,54.9625],[-8.7101,42.4138,0.0],[-8.7124,42.4118,0.0],[-8.7085,42.4076,9.2901],[-8.7057,42.4113,37.2164],[-8.7079,42.4132,54.9625]]]]}
,"properties": {"GID_2": "ESP.12.4_1","GID_0": "ESP","country": "Spain","GID_1": "ESP.12_1","province": "Galicia","NL_NAME_1": "NA","county": "Pontevedra","VARNAME_2": "NA","NL_NAME_2": "NA","TYPE_2": "Provincia","ENGTYPE_2": "Province","CC_2": "36","HASC_2": "ES.GA.PV","name": "Pontevedra.county","area_km2": 4492.024,"hist_schema_id": "Elevation0-9000","hist_area_km2": {"0": 126.05,"25": 248.254,"50": 247.292,"75": 205.212,"100": 175.381,"125": 155.524,"150": 147.673,"175": 141.936,"200": 140.094,"225": 134.329,"250": 137.427,"275": 131.622,"300": 132.746,"325": 134.288,"350": 142.182,"375": 147.417,"400": 144.214,"425": 135.726,"450": 125.461,"475": 123.361,"500": 125.661,"525": 128.672,"550": 130.717,"575": 135.365,"600": 129.652,"625": 118.203,"650": 100.854,"675": 90.875,"700": 77.245,"725": 67.745,"750": 60.662,"775": 52.481,"800": 45.983,"825": 36.614,"850": 29.189,"875": 25.74,"900": 18.438,"925": 13.586,"950": 11.236,"975": 7.137,"1000": 3.349,"1025": 2.396,"1050": 1.581,"1075": 1.126,"1100": 0.61,"1125": 0.47,"1150": 0.187,"1175": 0.062}}}