{"type": "Feature","bbox": [-3.6375,42.3474,-2.858,42.7976],"geometry": {"type": "MultiPolygon","coordinates": [[[[-3.0632,42.4249,818.2076],[-3.0576,42.4339,778.9443],[-3.0459,42.4451,738.139],[-3.0609,42.462,695.7269],[-3.0641,42.4709,685.3615],[-3.0733,42.4765,737.236],[-3.0822,42.4745,757.6902],[-3.0892,42.4789,654.2322],[-3.0904,42.4779,652.3542],[-3.0914,42.4863,653.0728],[-3.0939,42.4863,654.4518],[-3.0946,42.4881,634.0016],[-3.0932,42.4915,621.3647],[-3.0792,42.4991,634.0759],[-3.0753,42.5065,636.5959],[-3.0739,42.5157,616.114],[-3.076,42.5202,618.9977],[-3.0717,42.5277,626.5059],[-3.0764,42.5322,649.5476],[-3.0812,42.5312,637.4644],[-3.084,42.5322,639.9181],[-3.0826,42.5337,638.1492],[-3.0892,42.5383,647.1971],[-3.0967,42.5346,711.7939],[-3.0999,42.5362,764.3668],[-3.1074,42.5288,770.8455],[-3.1173,42.5323,773.9539],[-3.1253,42.5331,778.6979],[-3.1342,42.542,791.9277],[-3.1263,42.5438,772.6734],[-3.1149,42.5513,722.6579],[-3.1054,42.5539,669.3427],[-3.1037,42.5531,679.6189],[-3.1042,42.5568,676.376],[-3.1024,42.5594,689.6267],[-3.0882,42.5671,764.7432],[-3.0823,42.574,776.9696],[-3.0861,42.5822,788.0087],[-3.0793,42.5837,750.8157],[-3.068,42.5889,694.252],[-3.0598,42.5892,684.3403],[-3.0649,42.5935,689.0687],[-3.0646,42.5983,682.8532],[-3.0603,42.6006,666.4055],[-3.0604,42.6026,672.7826],[-3.0652,42.6065,688.6669],[-3.0704,42.6214,854.2138],[-3.0781,42.6237,916.775],[-3.0795,42.6261,989.6027],[-3.0863,42.6277,967.5623],[-3.081,42.6313,890.5387],[-3.0847,42.6353,949.0745],[-3.0841,42.6407,820.2519],[-3.0693,42.6388,845.556],[-3.0407,42.64,766.8885],[-3.0294,42.6382,673.2245],[-3.018,42.6322,660.1016],[-3.0144,42.6404,693.4518],[-3.0087,42.6408,704.8193],[-3.0047,42.6443,671.8878],[-2.9951,42.6419,661.3395],[-2.9899,42.6423,667.2931],[-2.9859,42.6363,877.7427],[-2.98,42.6353,704.2764],[-2.9758,42.6391,659.1761],[-2.9703,42.6411,633.8911],[-2.9526,42.6386,829.9005],[-2.9464,42.6393,838.5242],[-2.9334,42.6345,762.0209],[-2.9241,42.6217,839.1718],[-2.916,42.6195,839.8167],[-2.9044,42.6202,795.7711],[-2.9044,42.6265,813.2582],[-2.8927,42.6277,644.9118],[-2.8904,42.6257,666.6235],[-2.8939,42.6213,721.1281],[-2.8821,42.6207,762.1083],[-2.8835,42.6244,731.3414],[-2.8762,42.631,516.0133],[-2.864,42.6332,485.5875],[-2.858,42.6382,449.4298],[-2.8717,42.6402,449.8438],[-2.8744,42.643,447.3064],[-2.8891,42.6492,448.1546],[-2.896,42.655,452.4363],[-2.9006,42.6678,451.2975],[-2.8972,42.6694,454.245],[-2.8998,42.6729,455.4008],[-2.895,42.6793,455.5141],[-2.898,42.6823,461.6044],[-2.9013,42.6826,460.4653],[-2.9037,42.6864,469.7192],[-2.9024,42.6936,522.9611],[-2.9184,42.6979,477.3491],[-2.9216,42.7012,472.001],[-2.9303,42.6996,462.7234],[-2.928,42.7047,465.9518],[-2.9305,42.7082,466.7316],[-2.9563,42.7104,477.8904],[-2.9634,42.708,473.4632],[-2.9739,42.7087,473.6744],[-2.9806,42.7038,463.194],[-2.987,42.7088,465.2656],[-2.9893,42.7193,464.4016],[-2.9943,42.7215,464.5083],[-3.0074,42.7232,467.7584],[-3.0107,42.7284,463.885],[-3.0058,42.7324,464.4203],[-3.0071,42.7336,464.4203],[-3.0163,42.7339,467.2701],[-3.0163,42.7405,471.5113],[-3.0178,42.7412,467.9506],[-3.033,42.7371,471.5594],[-3.0407,42.7385,475.8627],[-3.043,42.7437,467.15],[-3.0487,42.7486,478.1696],[-3.0503,42.7559,469.3167],[-3.0474,42.7609,478.9978],[-3.0496,42.7656,472.8257],[-3.0641,42.7601,475.9436],[-3.0808,42.7672,501.002],[-3.0823,42.7661,536.0297],[-3.0813,42.7619,474.4026],[-3.0844,42.7571,479.1909],[-3.0891,42.7602,486.298],[-3.091,42.7642,487.231],[-3.1006,42.7672,526.6847],[-3.1097,42.7635,519.7248],[-3.1154,42.7593,513.1018],[-3.1312,42.7581,508.0],[-3.1409,42.7402,1084.8379],[-3.1398,42.733,1038.1873],[-3.1445,42.7339,983.9067],[-3.1475,42.7321,871.3484],[-3.1504,42.7335,814.0695],[-3.1541,42.7292,973.316],[-3.1822,42.7275,1299.635],[-3.1911,42.7332,1370.2787],[-3.1985,42.7349,1352.9666],[-3.2098,42.7315,1253.2633],[-3.2261,42.7382,1065.9619],[-3.2301,42.7432,969.8876],[-3.2454,42.7516,926.1828],[-3.2746,42.7587,600.4621],[-3.2828,42.7665,558.1746],[-3.2778,42.7803,543.7507],[-3.2797,42.7815,555.645],[-3.288,42.7839,553.0485],[-3.2921,42.7811,558.9459],[-3.3095,42.7815,559.2234],[-3.3122,42.7784,528.227],[-3.3308,42.7766,529.5898],[-3.3373,42.7804,537.4014],[-3.3379,42.7884,530.5004],[-3.3454,42.7923,544.1464],[-3.3571,42.7873,531.2032],[-3.3596,42.7807,532.2833],[-3.367,42.7784,533.9787],[-3.3749,42.7788,542.1317],[-3.3814,42.7837,534.4246],[-3.3812,42.7881,535.3842],[-3.3755,42.7922,546.2739],[-3.38,42.7976,539.036],[-3.3902,42.797,540.8696],[-3.4072,42.7929,558.5494],[-3.4105,42.789,558.4359],[-3.427,42.7836,555.071],[-3.4301,42.7775,651.0114],[-3.4403,42.7754,921.4075],[-3.4423,42.7719,746.1262],[-3.4559,42.7789,792.0381],[-3.4569,42.7809,777.8992],[-3.4675,42.7836,580.0217],[-3.49,42.7938,837.2801],[-3.4938,42.7879,717.1703],[-3.4911,42.7871,691.0874],[-3.4957,42.7764,1193.2651],[-3.512,42.7792,1155.6519],[-3.5511,42.7791,1174.8337],[-3.5625,42.7822,1121.8904],[-3.5659,42.7871,1060.8132],[-3.5764,42.784,1074.224],[-3.5827,42.7767,1053.5309],[-3.5752,42.7678,1086.5281],[-3.5716,42.7658,1093.0673],[-3.5714,42.7603,1088.791],[-3.5683,42.7547,1019.871],[-3.5537,42.7494,1113.6973],[-3.5512,42.7395,1068.8961],[-3.5483,42.7364,1033.5823],[-3.5571,42.7264,1014.8694],[-3.5575,42.7237,1032.687],[-3.5621,42.7243,1031.1881],[-3.5753,42.7201,993.9443],[-3.579,42.7127,989.8605],[-3.5891,42.7047,1060.5573],[-3.6074,42.6835,1060.9523],[-3.6146,42.683,1064.4279],[-3.6159,42.6668,1081.4625],[-3.6198,42.6565,1067.2369],[-3.6058,42.6591,1070.7158],[-3.6,42.6546,1065.0842],[-3.5992,42.6468,1072.3075],[-3.6023,42.6401,1079.5414],[-3.6235,42.6268,981.0258],[-3.6316,42.6128,948.6301],[-3.6334,42.6125,955.0015],[-3.6326,42.6154,949.0388],[-3.6375,42.6146,993.8806],[-3.6307,42.6024,938.92],[-3.6223,42.6013,956.9326],[-3.622,42.595,947.4384],[-3.6196,42.592,941.4605],[-3.5858,42.5978,858.2081],[-3.5724,42.5957,800.3191],[-3.5734,42.5907,791.165],[-3.5686,42.5922,763.608],[-3.5636,42.5874,751.7844],[-3.5643,42.5834,748.9686],[-3.5675,42.5818,763.5933],[-3.5653,42.5721,796.7144],[-3.5691,42.5675,818.6326],[-3.5694,42.5554,863.8323],[-3.5616,42.5502,853.5385],[-3.5544,42.552,796.9742],[-3.5494,42.5497,787.4727],[-3.5415,42.5489,752.9202],[-3.5414,42.5464,752.8538],[-3.537,42.5428,776.8798],[-3.5361,42.535,810.5397],[-3.5383,42.5277,860.844],[-3.5447,42.519,979.3448],[-3.5357,42.5161,912.7596],[-3.5308,42.5065,927.4009],[-3.5311,42.5036,948.4888],[-3.5276,42.4996,948.0171],[-3.5273,42.4904,922.9955],[-3.5316,42.4722,914.2485],[-3.5289,42.4679,928.2065],[-3.5205,42.4706,993.3771],[-3.5176,42.469,987.4614],[-3.53,42.4388,959.7906],[-3.5262,42.4309,992.85],[-3.5027,42.4301,974.9421],[-3.4861,42.4369,992.733],[-3.4753,42.4364,998.7571],[-3.4707,42.4389,993.5136],[-3.461,42.4334,915.1066],[-3.4579,42.4291,916.8854],[-3.4507,42.4265,884.4129],[-3.4522,42.4232,896.9174],[-3.4505,42.4227,890.5152],[-3.4487,42.4165,896.051],[-3.4455,42.4176,948.7916],[-3.4438,42.4163,953.7639],[-3.4451,42.4151,946.4196],[-3.4424,42.4023,962.7858],[-3.4377,42.4047,963.3458],[-3.4311,42.4033,946.5278],[-3.4285,42.3955,967.5513],[-3.4243,42.3917,1018.7596],[-3.4242,42.3827,1048.4955],[-3.4197,42.3788,1055.5393],[-3.3915,42.3742,1100.6755],[-3.3675,42.367,1141.0826],[-3.3698,42.3773,1120.959],[-3.3789,42.3891,1094.9607],[-3.3781,42.3933,1079.3887],[-3.3769,42.3898,1083.4407],[-3.3678,42.3869,1067.988],[-3.361,42.3797,1078.542],[-3.3593,42.3809,1069.5764],[-3.3574,42.3909,1066.5596],[-3.3517,42.3939,1094.8185],[-3.3464,42.4026,1019.7006],[-3.3415,42.4042,1090.3016],[-3.3394,42.4007,1101.2593],[-3.3315,42.3962,1112.0117],[-3.3187,42.4152,925.0594],[-3.3193,42.4187,930.3674],[-3.3067,42.4208,955.083],[-3.2956,42.4204,962.9307],[-3.2938,42.4235,1004.9281],[-3.2838,42.4264,996.0594],[-3.2911,42.4063,901.5747],[-3.2942,42.4026,936.2739],[-3.2916,42.3923,981.7919],[-3.2938,42.3886,1032.6217],[-3.2923,42.3833,1071.092],[-3.2848,42.3784,1070.6774],[-3.2795,42.3785,1075.0642],[-3.2768,42.3807,1094.7366],[-3.2664,42.3838,1060.8334],[-3.2622,42.3821,1012.8403],[-3.2645,42.3745,1102.4026],[-3.2706,42.368,1127.1682],[-3.2717,42.3619,1130.0573],[-3.2711,42.3593,1127.8751],[-3.2638,42.358,1114.9861],[-3.2604,42.3552,1113.1958],[-3.2583,42.3474,1152.998],[-3.2443,42.3522,1172.4235],[-3.2413,42.3501,1165.7623],[-3.2397,42.3518,1168.611],[-3.2429,42.3526,1159.5454],[-3.2445,42.3553,1157.3018],[-3.2428,42.3605,1127.403],[-3.2361,42.3677,1090.2985],[-3.2319,42.3683,1029.6646],[-3.2297,42.3718,1015.137],[-3.2176,42.3797,879.9048],[-3.2125,42.3769,820.8558],[-3.2119,42.3822,809.6721],[-3.2009,42.3763,1059.626],[-3.197,42.3758,1055.4077],[-3.2005,42.3809,1019.5647],[-3.1942,42.3792,1111.6957],[-3.1813,42.3878,1030.7303],[-3.1765,42.3886,964.7469],[-3.1667,42.388,1038.7903],[-3.1607,42.3854,1089.9308],[-3.1474,42.3872,1041.6364],[-3.1422,42.3757,1103.7598],[-3.1362,42.3816,980.0914],[-3.1338,42.3802,974.4305],[-3.1239,42.3804,1124.4198],[-3.1126,42.385,950.7931],[-3.1105,42.3801,970.691],[-3.1087,42.3807,1001.9973],[-3.1084,42.3846,1023.1483],[-3.1043,42.3854,942.2651],[-3.1034,42.3903,924.8675],[-3.0969,42.3986,873.5208],[-3.0957,42.4052,850.0343],[-3.0988,42.4085,873.3993],[-3.1013,42.4168,814.0975],[-3.0963,42.4169,849.864],[-3.0905,42.4199,827.8474],[-3.0903,42.4224,851.41],[-3.0781,42.4157,815.3568],[-3.0785,42.4075,920.6714],[-3.0826,42.3974,1061.7211],[-3.0786,42.3914,1097.5115],[-3.075,42.3916,1128.8699],[-3.0735,42.3856,1145.103],[-3.0678,42.38,1164.6436],[-3.0644,42.3733,1191.2841],[-3.0576,42.3701,1220.6552],[-3.0531,42.3734,1215.595],[-3.0559,42.3851,1169.7574],[-3.064,42.4043,972.6297],[-3.0589,42.4099,892.172],[-3.0573,42.4171,844.1848],[-3.0632,42.4249,818.2076]]]]}
,"properties": {"GID_3": "ESP.5.2.5_1","GID_0": "ESP","country": "Spain","GID_1": "ESP.5_1","province": "CastillayLeón","NL_NAME_1": "NA","GID_2": "ESP.5.2_1","county": "Burgos","NL_NAME_2": "NA","city": "n.a.(63)","VARNAME_3": "NA","NL_NAME_3": "NA","TYPE_3": "Comarca","ENGTYPE_3": "Comarca","CC_3": "NA","HASC_3": "NA","name": "n.a.(63).city","area_km2": 1810.546,"hist_schema_id": "Elevation0-9000","hist_area_km2": {"450": 11.332,"475": 34.438,"500": 29.856,"525": 32.376,"550": 26.763,"575": 19.911,"600": 24.884,"625": 41.858,"650": 101.201,"675": 112.767,"700": 103.757,"725": 109.35,"750": 110.154,"775": 133.719,"800": 143.752,"825": 113.89,"850": 94.035,"875": 89.736,"900": 76.304,"925": 69.207,"950": 73.18,"975": 62.765,"1000": 52.356,"1025": 32.434,"1050": 25.757,"1075": 34.052,"1100": 26.507,"1125": 10.534,"1150": 5.271,"1175": 3.212,"1200": 1.59,"1225": 1.013,"1250": 0.826,"1275": 0.685,"1300": 0.561,"1325": 0.343,"1350": 0.156,"1375": 0.016}}}