{"type": "Feature","bbox": [-7.1821,43.1318,-6.2591,43.5782],"geometry": {"type": "MultiPolygon","coordinates": [[[[-6.9733,43.1495,1022.6048],[-6.9649,43.1487,1009.9538],[-6.9614,43.1456,1142.6348],[-6.957,43.1397,1180.9053],[-6.9572,43.1354,1153.918],[-6.9414,43.1318,998.7542],[-6.9385,43.1329,1027.5436],[-6.9372,43.1393,785.9821],[-6.9295,43.1428,744.183],[-6.9267,43.1405,799.9935],[-6.9193,43.141,983.2039],[-6.9142,43.1469,949.113],[-6.9057,43.1497,821.2881],[-6.902,43.1551,712.5153],[-6.8927,43.1549,720.3586],[-6.8853,43.1568,611.4104],[-6.882,43.1605,622.9309],[-6.8861,43.1667,645.6971],[-6.8802,43.1702,607.369],[-6.8764,43.1758,459.7418],[-6.8745,43.1868,340.673],[-6.8703,43.1878,236.9154],[-6.8681,43.19,220.986],[-6.8716,43.1798,214.0],[-6.8672,43.1819,331.5654],[-6.8617,43.1822,461.7913],[-6.8558,43.1722,504.4244],[-6.8469,43.167,508.3887],[-6.8388,43.1661,233.4568],[-6.8292,43.1798,797.1712],[-6.83,43.189,790.0735],[-6.8281,43.195,659.3381],[-6.8212,43.2058,1011.3555],[-6.794,43.2076,1061.9426],[-6.7882,43.2229,1021.7092],[-6.7951,43.2296,792.4387],[-6.7999,43.2209,856.3925],[-6.8129,43.2252,1046.6467],[-6.8208,43.2302,983.5941],[-6.838,43.2318,646.7931],[-6.8446,43.2336,408.6964],[-6.8479,43.2364,188.375],[-6.8452,43.237,149.3215],[-6.8397,43.2433,134.6983],[-6.8399,43.248,136.3818],[-6.8438,43.2482,175.6162],[-6.8442,43.2498,123.0477],[-6.8404,43.2583,131.4971],[-6.8357,43.2617,116.3832],[-6.8316,43.2677,132.7269],[-6.8304,43.2765,116.7666],[-6.8156,43.2838,620.9807],[-6.8017,43.2861,627.5996],[-6.7913,43.2903,686.7698],[-6.7732,43.3077,1061.6807],[-6.7564,43.3183,1138.6503],[-6.7434,43.3204,1121.1338],[-6.7395,43.3254,1118.6746],[-6.7276,43.3335,1086.0372],[-6.7201,43.3435,1054.5876],[-6.7057,43.3553,839.8519],[-6.7061,43.3597,735.8831],[-6.7023,43.3676,520.5098],[-6.6938,43.3741,518.4541],[-6.6837,43.3745,741.3356],[-6.6818,43.3723,688.8553],[-6.6658,43.3672,1002.7159],[-6.663,43.3688,959.5861],[-6.6621,43.3743,884.9281],[-6.6566,43.3784,843.7885],[-6.6565,43.3841,873.8444],[-6.6431,43.4002,850.1437],[-6.6453,43.4006,840.34],[-6.64,43.4078,840.582],[-6.6411,43.4099,833.3191],[-6.6444,43.4097,833.7712],[-6.6461,43.4113,839.3683],[-6.6454,43.4132,865.0656],[-6.6425,43.4126,922.0579],[-6.6335,43.4244,895.2062],[-6.6102,43.4358,843.8288],[-6.6071,43.4417,847.6304],[-6.602,43.4447,890.4056],[-6.5986,43.4548,965.0648],[-6.5758,43.459,740.3113],[-6.563,43.4562,802.4561],[-6.5586,43.4599,819.9933],[-6.5529,43.4586,708.8013],[-6.546,43.4531,734.2745],[-6.5458,43.4497,704.9011],[-6.5386,43.4458,562.0966],[-6.5312,43.4389,608.0687],[-6.5255,43.4365,570.024],[-6.5174,43.436,378.4946],[-6.5147,43.4335,278.2926],[-6.5093,43.4384,282.0854],[-6.5101,43.4358,246.8247],[-6.506,43.4338,391.9458],[-6.4942,43.4322,402.6639],[-6.4832,43.4379,345.158],[-6.4766,43.439,527.1251],[-6.4773,43.4404,461.8942],[-6.4738,43.4419,622.5099],[-6.4656,43.436,734.5015],[-6.4532,43.4391,759.3533],[-6.4495,43.436,747.6873],[-6.4493,43.4289,748.4092],[-6.4391,43.4276,725.2159],[-6.4333,43.4237,579.6555],[-6.4272,43.4138,715.0798],[-6.4293,43.4082,743.9912],[-6.4183,43.4038,812.434],[-6.3949,43.3982,1006.8065],[-6.3906,43.3986,1002.8466],[-6.393,43.3998,994.6183],[-6.39,43.4078,905.923],[-6.3861,43.4114,870.6989],[-6.3847,43.4197,759.0349],[-6.3812,43.4229,763.955],[-6.3736,43.4248,696.0751],[-6.3625,43.4318,305.9377],[-6.3605,43.4374,393.2654],[-6.3528,43.4401,256.0818],[-6.3557,43.4435,306.0829],[-6.3514,43.446,253.4502],[-6.3492,43.4516,262.642],[-6.3366,43.4674,363.077],[-6.339,43.4711,533.2211],[-6.3435,43.4733,681.7072],[-6.3271,43.4834,804.272],[-6.3159,43.4801,848.046],[-6.3061,43.4808,834.267],[-6.2971,43.4856,751.3827],[-6.2951,43.492,673.6923],[-6.2893,43.4951,673.681],[-6.2877,43.4998,667.079],[-6.2697,43.4976,774.7996],[-6.2655,43.5066,759.6089],[-6.2708,43.5092,643.4142],[-6.2726,43.5132,647.3953],[-6.2645,43.53,355.3524],[-6.2691,43.5353,165.279],[-6.2668,43.5368,129.2101],[-6.2665,43.5403,89.9289],[-6.2622,43.5394,88.8129],[-6.2591,43.5426,61.9895],[-6.2636,43.5448,131.6416],[-6.2712,43.5451,203.975],[-6.2735,43.5492,311.8523],[-6.2787,43.5448,321.9661],[-6.2927,43.5386,420.3518],[-6.3089,43.5364,404.7499],[-6.3167,43.5313,444.7745],[-6.3233,43.531,523.9066],[-6.3244,43.5274,451.5233],[-6.3275,43.525,476.4103],[-6.3348,43.525,566.3257],[-6.3491,43.5208,673.1732],[-6.3519,43.523,614.183],[-6.3524,43.528,502.7487],[-6.3469,43.5307,344.0617],[-6.3465,43.5339,253.6672],[-6.3342,43.5415,119.11279999999999],[-6.334,43.5448,113.552],[-6.3447,43.5543,3.3762],[-6.3465,43.5526,31.4242],[-6.3521,43.5526,0.0],[-6.3554,43.551,12.7364],[-6.361,43.5518,48.5889],[-6.3621,43.5535,6.5085],[-6.3657,43.5515,21.2309],[-6.3718,43.5524,36.7171],[-6.3663,43.5593,0.0],[-6.3765,43.5557,0.0],[-6.3785,43.5574,0.0],[-6.3818,43.556,20.3582],[-6.3862,43.5565,22.2089],[-6.3962,43.5601,20.6157],[-6.3993,43.5599,0.0],[-6.4029,43.5563,16.0654],[-6.4171,43.559,0.0964],[-6.421,43.5532,65.9169],[-6.4299,43.5526,45.5694],[-6.4371,43.5593,0.0],[-6.4435,43.5596,0.0],[-6.4451,43.5626,0.0],[-6.4485,43.561,3.807],[-6.454,43.564,0.0],[-6.4587,43.5643,5.2249],[-6.4601,43.5654,5.2249],[-6.4601,43.5693,0.0],[-6.466,43.569,2.7959],[-6.4701,43.5707,-0.2846],[-6.4738,43.5682,11.3248],[-6.4735,43.5646,7.1426],[-6.476,43.5643,0.0],[-6.4718,43.5493,3.1082],[-6.4751,43.549,6.4236],[-6.4815,43.5526,0.0],[-6.4893,43.5513,0.0],[-6.491,43.5493,0.0],[-6.5026,43.5518,0.0],[-6.5046,43.5493,8.374],[-6.5076,43.551,0.0],[-6.5126,43.5471,0.0],[-6.5226,43.551,0.0],[-6.5299,43.5488,0.0],[-6.5324,43.5504,11.1718],[-6.5338,43.5488,11.1718],[-6.5363,43.5493,0.0],[-6.5346,43.5474,0.5998],[-6.5363,43.546,3.0735],[-6.5385,43.5504,0.0438],[-6.5421,43.5493,0.0],[-6.539,43.5518,0.0],[-6.5418,43.5557,0.0],[-6.554,43.5526,0.0],[-6.559,43.5563,0.0],[-6.5779,43.5585,0.6152],[-6.5813,43.5554,14.9485],[-6.5862,43.554,0.0],[-6.5974,43.5538,0.0],[-6.5987,43.5568,3.1654],[-6.6029,43.5565,0.0],[-6.601,43.564,0.0],[-6.6029,43.5662,0.0],[-6.6051,43.5662,0.0],[-6.6087,43.5624,0.0],[-6.6163,43.5621,0.0],[-6.6154,43.5665,1.8858],[-6.6196,43.5662,0.0],[-6.6221,43.5715,0.0],[-6.6262,43.5729,0.3577],[-6.626,43.5751,0.0],[-6.6279,43.5713,0.0],[-6.6321,43.571,0.0],[-6.6337,43.569,0.0],[-6.6451,43.5693,0.0],[-6.6454,43.5665,5.8713],[-6.6507,43.5682,3.4002],[-6.6549,43.5665,10.1262],[-6.6607,43.569,0.0],[-6.6604,43.5674,0.0],[-6.6721,43.564,0.0],[-6.6776,43.5593,0.0],[-6.6793,43.5604,0.0],[-6.6849,43.5596,3.6799],[-6.6907,43.5629,0.0],[-6.6965,43.5612,0.0],[-6.6971,43.5643,0.0],[-6.7015,43.5629,4.3904],[-6.7104,43.5643,0.0],[-6.7126,43.5615,10.5664],[-6.7143,43.5621,0.0],[-6.7176,43.5588,0.0],[-6.7196,43.5588,0.0],[-6.7215,43.5549,5.7318],[-6.7251,43.5551,1.4013],[-6.7243,43.5315,0.3568],[-6.7268,43.5354,0.1434],[-6.7263,43.5426,1.0164],[-6.7293,43.5499,11.9621],[-6.726,43.5515,0.0],[-6.7254,43.5579,0.0],[-6.7318,43.5615,0.0],[-6.7326,43.5651,1.7531],[-6.7404,43.5629,2.1424],[-6.7451,43.5676,0.0],[-6.7513,43.5654,11.2146],[-6.7518,43.5676,0.0],[-6.7535,43.5676,0.0],[-6.7535,43.5643,2.3812],[-6.7551,43.5649,0.0],[-6.7585,43.5621,0.0],[-6.7621,43.5638,0.0],[-6.7626,43.5685,0.0],[-6.7651,43.5704,0.0],[-6.771,43.5671,0.0],[-6.7751,43.5687,4.4688],[-6.7776,43.5668,0.0],[-6.7776,43.5649,15.3741],[-6.7818,43.566,0.0],[-6.7835,43.5626,0.0],[-6.7813,43.5596,0.0],[-6.7851,43.5565,6.4287],[-6.7954,43.5576,0.0],[-6.8001,43.5554,55.2908],[-6.8035,43.5593,0.0],[-6.811,43.5546,9.1901],[-6.8168,43.5565,25.2223],[-6.8185,43.5624,0.0],[-6.824,43.5654,0.0],[-6.8376,43.5676,0.0],[-6.8399,43.5665,4.2183],[-6.8396,43.5646,1.673],[-6.8449,43.566,0.0],[-6.8501,43.5638,0.0],[-6.8504,43.5662,0.0],[-6.8543,43.5682,11.6848],[-6.854,43.571,0.0],[-6.8563,43.5701,1.0485],[-6.8565,43.5682,20.4353],[-6.866,43.5671,3.4882],[-6.8654,43.5701,0.0],[-6.8668,43.5715,0.0],[-6.8718,43.566,7.2803],[-6.8729,43.5671,0.0],[-6.8754,43.5662,6.3093],[-6.8732,43.5649,2.5581],[-6.8749,43.5629,2.7357],[-6.8832,43.5663,1.3312],[-6.8899,43.5713,0.0],[-6.8924,43.5693,0.7314],[-6.9021,43.5707,0.0],[-6.9082,43.5679,0.0],[-6.9101,43.5701,0.0],[-6.9129,43.5702,1.0003],[-6.9149,43.5732,0.6341],[-6.9232,43.5718,5.8676],[-6.9249,43.576,0.0],[-6.9307,43.571,0.0],[-6.9376,43.5715,0.0904],[-6.9421,43.5746,1.2386],[-6.946,43.5751,3.412],[-6.9474,43.5746,3.412],[-6.9465,43.5726,0.0],[-6.9507,43.5707,0.0],[-6.949,43.5687,0.0],[-6.949,43.5654,17.5258],[-6.9504,43.5676,2.7443],[-6.9546,43.569,0.0],[-6.9568,43.5638,0.0],[-6.961,43.5643,0.0],[-6.9635,43.561,1.8687],[-6.966,43.5629,0.0],[-6.9715,43.5621,0.0],[-6.9737,43.5579,3.5739],[-6.9826,43.5593,0.3016],[-6.9865,43.5563,0.0],[-6.9971,43.5551,0.0],[-7.0037,43.5582,3.0467],[-7.0057,43.5563,0.346],[-7.016,43.5565,9.4114],[-7.0182,43.5593,0.2786],[-7.0229,43.5604,1.1651],[-7.0232,43.5565,7.9139],[-7.0293,43.5574,0.0],[-7.0257,43.5532,0.0],[-7.024,43.5537,2.9753],[-7.0221,43.5521,2.9753],[-7.0218,43.5485,17.0324],[-7.0304,43.544,0.0],[-7.0301,43.5412,15.8276],[-7.0246,43.5379,2.0319],[-7.0215,43.5337,0.0],[-7.0132,43.5313,3.7435],[-7.0076,43.5318,3.7684],[-7.0074,43.5301,20.949],[-7.0135,43.5246,8.9104],[-7.0154,43.5262,0.0],[-7.019,43.5249,15.4431],[-7.0268,43.5254,12.0799],[-7.0299,43.529,1.8977],[-7.0321,43.5282,13.7957],[-7.0396,43.5163,0.0],[-7.0393,43.5129,0.0],[-7.0413,43.5118,5.3205],[-7.0429,43.5032,0.0],[-7.0413,43.4993,0.0],[-7.0382,43.4976,11.6447],[-7.034,43.499,2.4663],[-7.0338,43.4976,2.4855],[-7.0429,43.4932,0.0],[-7.0457,43.4901,1.2526],[-7.0474,43.4851,0.0],[-7.0463,43.4774,4.408],[-7.0558,43.4724,0.6967],[-7.0617,43.474,20.0916],[-7.0692,43.4701,8.5236],[-7.0715,43.4658,1.0243],[-7.0779,43.4649,1.2802],[-7.0902,43.4539,12.8291],[-7.0897,43.4478,59.6713],[-7.0853,43.4445,91.9492],[-7.0861,43.4433,20.8425],[-7.0892,43.4453,2.226],[-7.0978,43.4417,3.54],[-7.0991,43.4399,3.4731],[-7.097,43.4329,18.6235],[-7.1047,43.4325,12.6927],[-7.1004,43.4295,35.0089],[-7.1027,43.427,19.0415],[-7.1085,43.429,62.5161],[-7.1126,43.4253,40.9756],[-7.1176,43.4262,33.6037],[-7.1293,43.4237,23.5721],[-7.1297,43.4252,35.5726],[-7.1419,43.4307,70.347],[-7.152,43.4287,219.2351],[-7.1618,43.432,351.2331],[-7.1728,43.4304,397.7591],[-7.1746,43.4246,263.1952],[-7.1696,43.4221,229.6615],[-7.1767,43.4146,352.9817],[-7.1712,43.409,100.6027],[-7.1689,43.4088,86.3747],[-7.1684,43.4035,54.0862],[-7.1744,43.4053,52.0946],[-7.1725,43.4018,54.2222],[-7.1801,43.3962,73.2777],[-7.1821,43.392,87.4237],[-7.1774,43.3921,77.3058],[-7.1785,43.388,83.1159],[-7.1752,43.3862,87.3642],[-7.1766,43.3825,89.2173],[-7.1723,43.3834,70.3237],[-7.1671,43.3793,104.5399],[-7.1628,43.3802,129.6899],[-7.1594,43.3747,175.9731],[-7.1561,43.3745,202.6839],[-7.1503,43.3796,252.7221],[-7.1389,43.3833,417.9155],[-7.1369,43.3827,429.9988],[-7.1342,43.3774,546.9522],[-7.1274,43.3726,464.9862],[-7.1313,43.3634,438.8284],[-7.1281,43.3556,175.1761],[-7.1326,43.3477,162.6012],[-7.1302,43.3415,378.5131],[-7.1306,43.3302,498.1317],[-7.1255,43.3317,597.3663],[-7.1151,43.3261,580.8381],[-7.1114,43.3163,788.791],[-7.1071,43.3141,780.3645],[-7.1011,43.3041,851.6313],[-7.0973,43.3014,913.0829],[-7.0785,43.3004,910.0416],[-7.0738,43.3057,916.9156],[-7.0675,43.3069,887.5891],[-7.0596,43.3053,859.8615],[-7.0651,43.2991,811.8293],[-7.0645,43.2887,790.2269],[-7.0681,43.2832,758.4931],[-7.0663,43.2796,772.4926],[-7.0696,43.2794,745.7729],[-7.069,43.2754,748.9711],[-7.0704,43.2758,745.7971],[-7.0714,43.2712,805.2315],[-7.0651,43.2494,810.8176],[-7.0614,43.244,852.7102],[-7.0505,43.2378,772.8976],[-7.0464,43.2312,746.4479],[-7.0411,43.2286,774.1978],[-7.034,43.2281,843.1058],[-7.0199,43.2132,699.5663],[-7.0168,43.2148,702.3888],[-7.0171,43.2216,634.247],[-7.0094,43.2228,600.5427],[-7.0013,43.2072,722.9226],[-6.9926,43.2086,710.7258],[-6.9862,43.2021,609.0404],[-6.9709,43.2042,328.5467],[-6.9657,43.1947,431.7918],[-6.965,43.187,595.9439],[-6.9739,43.1789,740.3356],[-6.9806,43.1668,742.0911],[-6.9733,43.1495,1022.6048]]],
[[[-6.9868,43.5615,1.6891],[-6.9887,43.5624,0.0],[-6.9879,43.5601,0.0],[-6.9896,43.5599,0.0],[-6.9896,43.5579,0.0],[-6.9871,43.5576,4.0896],[-6.9849,43.5601,0.0],[-6.9849,43.5618,0.4757],[-6.9868,43.5615,1.6891]]],
[[[-6.9496,43.5751,0.0],[-6.9479,43.5754,3.412],[-6.9476,43.5782,0.0],[-6.9504,43.5765,0.0],[-6.9496,43.5751,0.0]]]]}
,"properties": {"GID_3": "ESP.17.1.3_1","GID_0": "ESP","country": "Spain","GID_1": "ESP.17_1","province": "PrincipadodeAsturias","NL_NAME_1": "NA","GID_2": "ESP.17.1_1","county": "Asturias","NL_NAME_2": "NA","city": "Eo-Navia","VARNAME_3": "NA","NL_NAME_3": "NA","TYPE_3": "Comarca","ENGTYPE_3": "Comarca","CC_3": "NA","HASC_3": "NA","name": "Eo-Navia.city","area_km2": 1639.486,"hist_schema_id": "Elevation0-9000","hist_area_km2": {"0": 18.644,"25": 41.43,"50": 60.273,"75": 84.195,"100": 56.568,"125": 43.009,"150": 43.6,"175": 46.084,"200": 52.048,"225": 54.273,"250": 53.273,"275": 52.371,"300": 53.128,"325": 53.459,"350": 50.967,"375": 50.788,"400": 50.176,"425": 47.438,"450": 46.149,"475": 44.461,"500": 43.078,"525": 42.038,"550": 41.502,"575": 40.616,"600": 40.069,"625": 40.619,"650": 39.004,"675": 38.7,"700": 39.582,"725": 36.341,"750": 34.058,"775": 32.745,"800": 31.374,"825": 25.911,"850": 22.117,"875": 18.939,"900": 15.207,"925": 11.583,"950": 10.134,"975": 8.731,"1000": 7.822,"1025": 5.353,"1050": 4.119,"1075": 3.147,"1100": 1.836,"1125": 1.434,"1150": 0.833,"1175": 0.185,"1200": 0.077}}}