{"type": "Feature","bbox": [-0.7451,39.0119,-0.3032,39.4138],"geometry": {"type": "MultiPolygon","coordinates": [[[[-0.4754,39.0341,104.0816],[-0.4697,39.0287,155.4644],[-0.458,39.0271,102.2647],[-0.4503,39.0287,114.0918],[-0.4436,39.0262,128.5573],[-0.4322,39.0322,147.8241],[-0.4176,39.034,177.1403],[-0.4164,39.037,165.3383],[-0.4075,39.0354,241.2274],[-0.4076,39.0341,241.2274],[-0.3903,39.0329,317.9965],[-0.388,39.0368,315.0266],[-0.383,39.0384,273.0991],[-0.4072,39.043,149.4379],[-0.4074,39.0399,202.5606],[-0.4144,39.0481,113.2521],[-0.4257,39.052,83.8158],[-0.4349,39.0517,66.2453],[-0.4318,39.0714,58.3263],[-0.4142,39.0681,118.3966],[-0.3914,39.0567,362.0483],[-0.3858,39.0584,389.8976],[-0.3815,39.0574,368.597],[-0.3805,39.0654,274.1932],[-0.3765,39.0695,318.4675],[-0.3618,39.0783,362.6836],[-0.3527,39.0752,345.7146],[-0.3445,39.0753,196.0404],[-0.334,39.0695,93.6756],[-0.3266,39.0689,98.0836],[-0.3278,39.0753,147.2002],[-0.3232,39.0841,197.5069],[-0.3205,39.0859,186.3163],[-0.3177,39.0932,460.4375],[-0.3078,39.0948,380.0393],[-0.3032,39.0982,556.8194],[-0.3247,39.1119,476.943],[-0.3451,39.1222,493.3261],[-0.3475,39.1273,475.1132],[-0.3711,39.1445,324.1245],[-0.3808,39.1559,43.3284],[-0.3788,39.1595,28.295],[-0.381,39.1662,31.496],[-0.3965,39.181399999999996,13.4804],[-0.411,39.1861,12.9626],[-0.4081,39.1938,12.5664],[-0.4096,39.1991,12.406],[-0.4079,39.201,13.6212],[-0.4046,39.1989,12.9051],[-0.4024,39.1997,13.0092],[-0.4037,39.2033,14.4097],[-0.3955,39.2155,11.2542],[-0.393,39.2149,11.3775],[-0.3887,39.2251,8.0206],[-0.3755,39.2425,3.1798],[-0.3837,39.2412,4.4008],[-0.3952,39.2432,5.9949],[-0.4011,39.2421,7.9891],[-0.4131,39.2432,10.7191],[-0.414,39.2823,6.9558],[-0.4164,39.2838,7.6983],[-0.4172,39.2872,8.7273],[-0.4196,39.2882,11.0707],[-0.4188,39.2948,12.8676],[-0.4248,39.3065,27.2329],[-0.4295,39.302,18.807],[-0.443,39.3008,24.4426],[-0.4871,39.3023,142.3956],[-0.4959,39.3043,180.0366],[-0.5039,39.311,177.5549],[-0.519,39.3196,220.4339],[-0.5387,39.324,244.9837],[-0.5523,39.3325,252.4088],[-0.5386,39.3614,144.8213],[-0.5365,39.3869,169.3542],[-0.5499,39.3891,212.3141],[-0.574,39.3869,178.1984],[-0.5906,39.3919,225.6894],[-0.5933,39.4041,172.3332],[-0.5993,39.4101,170.3722],[-0.6256,39.4107,226.9073],[-0.654,39.4074,250.5232],[-0.6875,39.409,298.7788],[-0.7177,39.4138,361.4822],[-0.7278,39.4137,383.5121],[-0.734,39.407,318.4688],[-0.7384,39.3969,293.793],[-0.7365,39.3788,245.3714],[-0.7391,39.3754,237.1537],[-0.7393,39.3581,257.0438],[-0.7422,39.3347,433.0726],[-0.7451,39.3252,521.0852],[-0.7127,39.323,363.1574],[-0.6948,39.3152,424.8813],[-0.68,39.2897,461.4383],[-0.6767,39.2883,446.3714],[-0.6756,39.286,462.9286],[-0.678,39.2785,442.5545],[-0.6901,39.2626,766.4763],[-0.7061,39.2576,720.2867],[-0.7081,39.2365,414.2766],[-0.711,39.229,317.5347],[-0.7162,39.2232,122.8782],[-0.7158,39.219,98.0],[-0.7081,39.2179,102.2043],[-0.7078,39.2149,148.4846],[-0.7013,39.2099,96.5],[-0.6989,39.2025,96.0],[-0.7073,39.2038,257.8727],[-0.7124,39.2021,344.7609],[-0.7171,39.1942,473.1343],[-0.7278,39.1862,357.647],[-0.7325,39.1799,268.2205],[-0.7317,39.1726,264.7846],[-0.7257,39.1691,230.2681],[-0.7263,39.1675,225.906],[-0.7293,39.1668,242.0845],[-0.726,39.1585,203.8662],[-0.7236,39.1588,238.2382],[-0.7099,39.1524,370.16],[-0.6907,39.1302,321.8264],[-0.6736,39.1185,312.3523],[-0.657,39.0954,290.5477],[-0.6606,39.0867,251.4766],[-0.6513,39.0773,231.5972],[-0.6252,39.0566,297.1551],[-0.6225,39.0456,411.4711],[-0.6237,39.0437,371.9397],[-0.6185,39.0383,237.7902],[-0.6214,39.0301,274.8794],[-0.604,39.0253,216.6603],[-0.5958,39.0178,83.9147],[-0.5991,39.0163,107.6984],[-0.5999,39.0136,155.96],[-0.5947,39.015,181.0357],[-0.5904,39.0142,222.4345],[-0.5903,39.0119,162.1987],[-0.5705,39.0184,147.3415],[-0.5662,39.0266,173.3383],[-0.5675,39.0415,86.7269],[-0.5505,39.0472,87.9472],[-0.5449,39.0445,132.8569],[-0.5418,39.0464,145.3824],[-0.5383,39.0405,205.5052],[-0.529,39.0412,184.9747],[-0.5204,39.0398,177.2862],[-0.5186,39.0423,143.5694],[-0.5093,39.0456,105.2166],[-0.511,39.0494,104.1834],[-0.5058,39.0456,78.5704],[-0.4997,39.045,59.678],[-0.4959,39.0398,55.6043],[-0.4962,39.0374,60.8075],[-0.4944,39.0403,47.6749],[-0.4864,39.0375,52.043],[-0.4821,39.0404,91.5198],[-0.4754,39.0341,104.0816]]]]}
,"properties": {"GID_3": "ESP.10.3.13_1","GID_0": "ESP","country": "Spain","GID_1": "ESP.10_1","province": "ComunidadValenciana","NL_NAME_1": "NA","GID_2": "ESP.10.3_1","county": "Valencia","NL_NAME_2": "NA","city": "RiberaAlta","VARNAME_3": "NA","NL_NAME_3": "NA","TYPE_3": "Comarca","ENGTYPE_3": "Comarca","CC_3": "NA","HASC_3": "NA","name": "Ribera_Alta.city","area_km2": 969.6422,"hist_schema_id": "Elevation0-9000","hist_area_km2": {"0": 10.0015,"25": 222.0236,"50": 113.789,"75": 63.4762,"100": 58.3167,"125": 44.454,"150": 51.2905,"175": 57.471,"200": 68.7899,"225": 66.7906,"250": 53.8306,"275": 37.9393,"300": 26.3529,"325": 18.7234,"350": 14.7833,"375": 13.7479,"400": 10.8908,"425": 8.5739,"450": 9.2312,"475": 6.3077,"500": 3.7284,"525": 2.3487,"550": 1.5601,"575": 1.1822,"600": 0.9195,"625": 0.8373,"650": 0.706,"675": 0.5746,"700": 0.394,"725": 0.4104,"750": 0.1806,"775": 0.0164}}}