{"type":"Feature","properties":{"ISO3166-1-Alpha-3":"ESP","country":"Spain","fill":"#00F","id":"5822","name":"Guadalajara"},
"geometry":{"type": "Polygon","coordinates": [[[-2.8059,41.25994,1207.8149],[-2.84408,41.26792,1204.1917],[-2.85576,41.2727,1147.4821],[-2.86385,41.27875,1142.623],[-2.86977,41.29273,1233.9143],[-2.87147,41.29993,1205.6598],[-2.87426,41.30753,1207.0024],[-2.87964,41.31458,1177.902],[-2.89716,41.32141,1197.3589],[-2.90971,41.32213,1218.239],[-2.92113,41.31965,1218.2925],[-2.92982,41.31629,1216.7841],[-2.93571,41.31092,1237.6035],[-2.94093,41.30521,1245.8976],[-2.944,41.29908,1227.2209],[-2.95999,41.29143,1263.4932],[-2.98227,41.28725,1381.4165],[-3.0489,41.28092,1305.019],[-3.08381,41.28076,1493.1968],[-3.19879,41.3012,1433.7712],[-3.21982,41.29304,1389.251],[-3.24918,41.26663,1424.7412],[-3.27987,41.26601,1543.1691],[-3.29109,41.26069,1639.1108],[-3.33976,41.25355,1710.4213],[-3.38971,41.25557,1782.6711],[-3.41689,41.2641,1804.4471],[-3.41976,41.2612,1792.9362],[-3.4164,41.2564,1843.8964],[-3.4111,41.25061,1649.6733],[-3.40653,41.24405,1843.7937],[-3.40619,41.23717,1935.3562],[-3.40875,41.2218,1611.0894],[-3.41131,41.21361,1783.6863],[-3.41922,41.21071,1657.5582],[-3.44211,41.20653,1782.3351],[-3.51962,41.16222,1825.2426],[-3.52792,41.16005,1812.6538],[-3.54577,41.16175,1977.8545],[-3.54161,41.14421,1949.5996],[-3.50386,41.11568,1466.9014],[-3.49317,41.10217,1340.7217],[-3.48405,41.09501,1243.8181],[-3.47666,41.09083,1353.8809],[-3.45327,41.08199,1214.9315],[-3.44575,41.08039,1219.8743],[-3.43645,41.07742,1315.3219],[-3.42467,41.04323,1527.5913],[-3.40979,41.0122,1596.8119],[-3.40945,40.99848,1489.8804],[-3.41227,40.98918,1574.8423],[-3.42015,40.97621,1462.9449],[-3.42353,40.96856,1398.5137],[-3.42792,40.96132,1416.9565],[-3.43637,40.93843,951.7621],[-3.44004,40.93084,1053.175],[-3.44487,40.9235,921.6794],[-3.44816,40.91401,819.4949],[-3.45164,40.90704,741.3197],[-3.45265,40.89911,760.1658],[-3.44774,40.89073,819.4211],[-3.44738,40.88045,768.4798],[-3.45149,40.87513,697.6393],[-3.45717,40.8711,698.0367],[-3.46146,40.86952,698.2755],[-3.46611,40.86665,697.8652],[-3.46978,40.86301,692.9208],[-3.47237,40.85815,689.1609],[-3.47815,40.82908,677.4492],[-3.48004,40.82317,676.1096],[-3.48521,40.81291,673.4647],[-3.49138,40.80371,669.442],[-3.49472,40.79958,666.1919],[-3.49844,40.79622,671.1904],[-3.49844,40.79255,671.8364],[-3.49588,40.78904,680.8048],[-3.48875,40.78552,708.6154],[-3.45991,40.7788,753.1523],[-3.45288,40.77234,769.7058],[-3.44637,40.76144,822.4962],[-3.44402,40.75141,789.3785],[-3.44296,40.7379,739.5712],[-3.43942,40.73087,784.5948],[-3.43966,40.7232,785.5629],[-3.44312,40.71687,764.439],[-3.45521,40.70377,733.4413],[-3.4588,40.69496,742.208],[-3.45505,40.68899,745.5656],[-3.44875,40.68305,784.4513],[-3.44211,40.67819,762.4105],[-3.43431,40.67548,776.8459],[-3.41883,40.6784,818.7025],[-3.40464,40.67731,826.9508],[-3.39961,40.68129,808.6309],[-3.39635,40.68641,807.8502],[-3.38919,40.68641,830.1744],[-3.38074,40.67819,768.6651],[-3.36677,40.65891,706.9262],[-3.35547,40.64972,736.1456],[-3.34493,40.64439,728.8413],[-3.33703,40.64326,713.1676],[-3.32984,40.64574,737.6275],[-3.32465,40.64832,751.5693],[-3.31816,40.64625,751.973],[-3.32413,40.62494,747.6245],[-3.32597,40.59778,754.0399],[-3.32147,40.58936,730.105],[-3.31579,40.58264,708.2445],[-3.30695,40.57845,685.738],[-3.29308,40.56853,651.1158],[-3.29005,40.56171,639.0483],[-3.28798,40.5537,625.8871],[-3.28881,40.5491,624.3854],[-3.29067,40.5459,623.1754],[-3.29315,40.54324,621.9745],[-3.29496,40.53882,616.6964],[-3.293,40.53551,607.5909],[-3.28951,40.53313,606.8918],[-3.28256,40.53339,601.7382],[-3.27669,40.53463,601.2891],[-3.2706,40.53804,602.4055],[-3.26375,40.54091,604.8502],[-3.25752,40.54277,605.3845],[-3.24853,40.54153,630.0715],[-3.24024,40.53856,656.7909],[-3.23326,40.53339,696.0518],[-3.2254,40.52864,812.2063],[-3.20453,40.51303,897.3596],[-3.20153,40.50714,894.5977],[-3.20081,40.50264,894.4724],[-3.20086,40.49872,886.8821],[-3.19879,40.47882,879.6316],[-3.20024,40.4505,865.7682],[-3.19647,40.44353,852.9486],[-3.18954,40.43939,865.1649],[-3.18058,40.43787,871.8872],[-3.16923,40.43306,862.6338],[-3.15714,40.42539,726.6285],[-3.14195,40.40591,649.7383],[-3.13867,40.39474,750.8964],[-3.14022,40.38679,683.9333],[-3.1427,40.3826,647.7526],[-3.14347,40.37929,689.9633],[-3.14223,40.36989,703.146],[-3.14208,40.36498,642.3683],[-3.14337,40.36017,635.7871],[-3.14634,40.35586,646.0623],[-3.1505,40.34656,629.8888],[-3.1512,40.3417,632.2424],[-3.15306,40.33625,710.9951],[-3.15768,40.33061,782.0616],[-3.17195,40.31971,815.1687],[-3.17797,40.31258,810.1165],[-3.18073,40.30157,802.6155],[-3.18197,40.29253,803.1495],[-3.18541,40.28382,796.0957],[-3.18794,40.27434,786.7667],[-3.18851,40.26369,673.1833],[-3.18592,40.24946,770.1699],[-3.17864,40.24227,794.1808],[-3.17109,40.24251,782.357],[-3.16396,40.24767,764.2219],[-3.15786,40.25403,749.1506],[-3.15073,40.26023,771.3419],[-3.12484,40.27485,805.3067],[-3.11539,40.27609,807.6545],[-3.10376,40.26989,755.6381],[-3.09534,40.25721,760.3855],[-3.08652,40.23933,753.8204],[-3.08311,40.22767,695.7089],[-3.08218,40.21822,619.7874],[-3.08273,40.19762,649.7636],[-3.07275,40.1576,560.0137],[-3.06368,40.16838,558.2048],[-3.01428,40.15534,632.1495],[-3.01977,40.19308,564.7852],[-2.99813,40.20921,565.6806],[-2.94701,40.16976,733.1981],[-2.91277,40.15757,817.907],[-2.90148,40.15932,902.5933],[-2.89232,40.1647,839.5703],[-2.88518,40.17274,876.6601],[-2.87385,40.19261,907.8042],[-2.86618,40.19792,883.817],[-2.82374,40.20408,1055.7329],[-2.81629,40.20988,915.6028],[-2.80101,40.26653,1085.0869],[-2.81538,40.32539,747.8737],[-2.80769,40.40687,638.0],[-2.76994,40.42131,1027.6309],[-2.72291,40.39727,694.0],[-2.67951,40.43323,694.0],[-2.62688,40.45306,723.802],[-2.60191,40.45336,721.906],[-2.5753,40.44793,694.0],[-2.5128,40.41972,702.7669],[-2.50738,40.42079,704.8104],[-2.50306,40.42492,717.4945],[-2.50098,40.43086,751.1313],[-2.50072,40.43733,753.8022],[-2.50191,40.44306,770.4319],[-2.50814,40.45114,776.6736],[-2.52751,40.4619,754.1713],[-2.53498,40.46979,737.7823],[-2.53506,40.47656,743.8395],[-2.52925,40.49415,801.6691],[-2.52869,40.49886,741.7665],[-2.54447,40.5164,793.5646],[-2.54878,40.52667,824.2411],[-2.54536,40.53725,932.5062],[-2.54137,40.54046,954.3759],[-2.52777,40.54409,1059.1406],[-2.50048,40.5162,807.7205],[-2.49438,40.5136,804.8301],[-2.488,40.51302,820.649],[-2.43208,40.53562,1137.4545],[-2.39786,40.52869,859.7664],[-2.39151,40.53106,833.4966],[-2.38758,40.53924,922.6932],[-2.39009,40.55023,931.9945],[-2.41611,40.58005,1132.1307],[-2.41664,40.58907,1135.1045],[-2.41358,40.59849,1136.3661],[-2.40784,40.60637,1095.6843],[-2.40037,40.61079,1127.0178],[-2.38899,40.61081,1126.7753],[-2.367,40.60031,1062.3401],[-2.33092,40.57329,1095.9219],[-2.32018,40.57236,969.2869],[-2.30903,40.57687,1226.7773],[-2.29952,40.58465,1232.7808],[-2.29288,40.5948,1194.3307],[-2.29036,40.60632,1156.4021],[-2.29143,40.63331,1220.2178],[-2.28704,40.6442,1294.0083],[-2.27421,40.64619,1216.021],[-2.24607,40.63237,1230.9089],[-2.21191,40.62345,1246.4386],[-2.19467,40.62381,1299.8181],[-2.17727,40.62858,1342.3142],[-2.16939,40.63375,1358.5205],[-2.16416,40.64092,1375.1411],[-2.15705,40.65876,1366.6229],[-2.14571,40.65979,1361.5312],[-2.08571,40.64114,1386.1758],[-2.0311,40.5994,1426.6886],[-1.99355,40.58751,1450.4229],[-1.98283,40.58721,1484.7339],[-1.95546,40.59907,1148.6036],[-1.94097,40.59891,1154.1124],[-1.9299,40.59265,1156.9103],[-1.8916,40.53299,1327.0203],[-1.85643,40.42885,1456.6968],[-1.80826,40.40203,1497.637],[-1.79596,40.41469,1692.9843],[-1.78963,40.41596,1712.9027],[-1.78255,40.42105,1639.4965],[-1.75004,40.45921,1550.929],[-1.74141,40.46735,1584.165],[-1.73247,40.4729,1563.4761],[-1.71371,40.48022,1683.5999],[-1.70563,40.48536,1680.7926],[-1.69976,40.49334,1588.5544],[-1.69999,40.52895,1768.0663],[-1.6986,40.54238,1588.6997],[-1.68276,40.57902,1730.1969],[-1.6778,40.58527,1595.9814],[-1.67106,40.58928,1703.0557],[-1.64599,40.58445,1490.2031],[-1.63687,40.58434,1365.424],[-1.62023,40.57892,1409.2363],[-1.61248,40.57416,1414.8379],[-1.60432,40.57062,1438.8969],[-1.59571,40.56977,1441.8114],[-1.58675,40.5706,1471.0494],[-1.5699,40.57814,1407.5529],[-1.56173,40.58295,1412.0244],[-1.55564,40.58915,1443.5654],[-1.55119,40.59509,1457.8936],[-1.55522,40.61416,1438.9639],[-1.55424,40.62579,1393.5297],[-1.54861,40.64171,1359.8055],[-1.54055,40.65512,1364.0649],[-1.53745,40.663,1355.3651],[-1.53706,40.68413,1569.2002],[-1.53967,40.69436,1539.9904],[-1.54698,40.70749,1388.1554],[-1.55308,40.71633,1520.2141],[-1.55701,40.72516,1430.147],[-1.5567,40.7354,1394.8544],[-1.5554,40.74395,1270.0548],[-1.55119,40.75229,1199.1313],[-1.54179,40.76723,1251.7921],[-1.53876,40.77684,1131.6145],[-1.53962,40.80071,1177.4702],[-1.5414,40.80976,1171.181],[-1.54455,40.81738,1155.2235],[-1.5537,40.82511,1166.0857],[-1.57982,40.83854,1203.8844],[-1.59362,40.85084,1183.7789],[-1.60103,40.85875,1165.2483],[-1.60884,40.87187,1171.0526],[-1.61411,40.8867,1159.3582],[-1.61194,40.91921,1104.5566],[-1.61015,40.92773,1130.7567],[-1.62189,40.94675,1127.1196],[-1.65635,40.97011,1113.8663],[-1.66261,40.97641,1092.111],[-1.67307,40.9845,1084.196],[-1.67927,40.99075,1068.0614],[-1.73281,41.02602,1147.1938],[-1.7473,41.03881,1170.2531],[-1.75307,41.04551,1079.4453],[-1.7564,41.05227,1012.662],[-1.7611,41.05855,1087.2324],[-1.76733,41.06499,1076.2439],[-1.81691,41.09698,1057.8741],[-1.85042,41.11113,1055.2689],[-1.89117,41.13516,978.1735],[-1.91623,41.14302,989.8062],[-1.92887,41.15015,974.0391],[-1.93866,41.15723,953.8397],[-1.94486,41.16441,980.2924],[-1.97186,41.16994,965.3742],[-2.05323,41.15036,1097.8544],[-2.05266,41.13553,1148.7527],[-2.06178,41.11,1170.752],[-2.06008,41.09114,1161.1771],[-2.05728,41.08499,1159.188],[-2.05938,41.07946,1210.3079],[-2.06527,41.07687,1199.4978],[-2.07294,41.07889,1175.8484],[-2.0793,41.0838,1163.5184],[-2.08439,41.08969,1179.8993],[-2.09121,41.09444,1206.1594],[-2.11586,41.10633,1287.3566],[-2.12315,41.11147,1281.5242],[-2.12896,41.116459999999996,1231.4799],[-2.1371,41.11832,1232.0128],[-2.14519,41.11439,1266.7551],[-2.17761,41.09067,1305.972],[-2.18707,41.08881,1291.4376],[-2.19648,41.0884,1319.3652],[-2.21911,41.09111,1292.2458],[-2.23704,41.08897,1265.4667],[-2.24906,41.08354,1269.7688],[-2.26055,41.07605,1314.1445],[-2.27327,41.07129,1227.2188],[-2.28836,41.06752,1251.0526],[-2.31332,41.0638,1229.6445],[-2.32688,41.06525,1208.2562],[-2.34458,41.07318,1194.1812],[-2.35241,41.07796,1185.2987],[-2.36448,41.08067,1184.3721],[-2.37652,41.07757,1195.1315],[-2.4092,41.06499,1183.7412],[-2.42248,41.06543,1134.4586],[-2.44972,41.0746,1206.3585],[-2.46039,41.07974,1203.2241],[-2.46762,41.08607,1212.7954],[-2.47188,41.09346,1185.7869],[-2.47749,41.1079,1218.0508],[-2.48145,41.11382,1274.9041],[-2.48814,41.11723,1246.1007],[-2.50038,41.12193,1169.9001],[-2.5056,41.12473,1186.1074],[-2.50814,41.12752,1168.5941],[-2.51149,41.13258,1214.7449],[-2.51372,41.13909,1160.7057],[-2.5179,41.14617,1211.2942],[-2.52279,41.15263,1220.265],[-2.53206,41.15723,1224.4901],[-2.5408,41.15485,1221.2955],[-2.55087,41.15038,1225.1147],[-2.56718,41.14555,1207.6694],[-2.57824,41.14638,1195.5536],[-2.58632,41.14958,1191.7814],[-2.58885,41.15485,1200.5829],[-2.58022,41.16576,1135.8312],[-2.5795,41.17237,1200.1727],[-2.58482,41.1794,1185.599],[-2.60216,41.18666,1225.4437],[-2.61004,41.1917,1217.1254],[-2.60836,41.19557,1216.8944],[-2.59335,41.20358,1139.8652],[-2.5886,41.20997,1180.9941],[-2.58599,41.21552,1136.7908],[-2.59193,41.22198,1173.3199],[-2.59991,41.22257,1174.6519],[-2.60953,41.22188,1184.6915],[-2.61826,41.22009,1198.8442],[-2.62591,41.22265,1190.8326],[-2.63141,41.22836,1168.0245],[-2.63947,41.23487,1148.554],[-2.6558,41.24095,1134.0216],[-2.68022,41.24374,1161.4229],[-2.69812,41.24797,1142.8157],[-2.70923,41.25252,1146.9199],[-2.71513,41.25903,1134.2308],[-2.72014,41.26596,1142.2998],[-2.7281,41.27278,1146.708],[-2.74135,41.27423,1139.6992],[-2.75182,41.27394,1140.4996],[-2.76099,41.27056,1160.9977],[-2.77006,41.26554,1172.158],[-2.7813,41.26105,1192.704],[-2.8059,41.25994,1207.8149]]]}}