{"type": "Feature","bbox": [-5.3031,39.0318,-4.6475,39.4518],"geometry": {"type": "MultiPolygon","coordinates": [[[[-4.8386,39.1639,681.8298],[-4.8314,39.1642,702.0696],[-4.8313,39.1761,676.5975],[-4.8211,39.1809,682.2272],[-4.8131,39.191,695.7262],[-4.8091,39.1979,779.5955],[-4.8102,39.1994,819.7574],[-4.7735,39.1895,692.6182],[-4.7424,39.1945,654.2868],[-4.7143,39.1876,647.0286],[-4.6764,39.1696,729.9618],[-4.6752,39.1707,720.4601],[-4.6615,39.1662,695.0716],[-4.6489,39.1649,504.5593],[-4.6475,39.1687,440.722],[-4.6492,39.172,435.5603],[-4.6632999999999996,39.1793,427.8327],[-4.6632,39.1842,425.2932],[-4.6651,39.1861,425.3788],[-4.6723,39.1873,427.1912],[-4.6776,39.1918,424.9262],[-4.6825,39.193,423.0],[-4.6872,39.2024,422.5],[-4.6896,39.204,426.0491],[-4.7081,39.2099,422.5],[-4.7051,39.2138,507.4032],[-4.7108,39.2271,546.4481],[-4.7143,39.2422,667.3201],[-4.7134,39.2443,691.7032],[-4.7336,39.2526,759.4514],[-4.7315,39.2549,754.0037],[-4.7545,39.3115,630.1184],[-4.7609,39.3208,530.4995],[-4.7347,39.3267,504.2541],[-4.7137,39.3287,582.2457],[-4.7066,39.3277,579.2079],[-4.7059,39.3306,520.6356],[-4.7099,39.3458,600.4423],[-4.7041,39.3645,620.9863],[-4.6942,39.3736,620.2072],[-4.6953,39.3764,625.9098],[-4.693,39.3824,494.6162],[-4.6878,39.3858,498.3077],[-4.6877,39.3928,530.4357],[-4.6831,39.4007,531.8425],[-4.6721,39.4127,540.8171],[-4.6694,39.4245,573.4292],[-4.6728,39.4267,668.3225],[-4.6777,39.4354,674.2637],[-4.6817,39.4368,675.6393],[-4.6862,39.4415,672.9425],[-4.6876,39.4503,679.5923],[-4.6902,39.4518,624.2787],[-4.7146,39.4348,576.0914],[-4.7382,39.4236,541.9193],[-4.7415,39.4238,575.1191],[-4.7553,39.4157,526.4087],[-4.7639,39.4051,525.8527],[-4.7756,39.3969,527.4361],[-4.7887,39.3988,490.2848],[-4.7958,39.3969,496.1031],[-4.8106,39.3965,472.6391],[-4.8133,39.3944,475.0079],[-4.8319,39.3894,452.9056],[-4.8445,39.3796,440.3058],[-4.8463,39.3791,442.2804],[-4.8492,39.3816,438.0605],[-4.8531,39.3791,430.5041],[-4.8555,39.3789,433.2602],[-4.8564,39.381,438.2035],[-4.8612,39.3793,426.1352],[-4.8633,39.375,424.0098],[-4.8681,39.375,418.5],[-4.8708,39.3683,418.5],[-4.8765,39.3718,418.5],[-4.882,39.3729,418.0],[-4.8865,39.3706,418.0],[-4.903,39.3752,418.0],[-4.903,39.3788,418.0],[-4.9057,39.3798,418.0],[-4.9091,39.3785,418.0],[-4.9123,39.38,418.0],[-4.9214,39.3875,418.0],[-4.932,39.388,418.0],[-4.9338,39.3954,418.0],[-4.9496,39.3931,416.75],[-4.9524,39.395,416.0],[-4.9731,39.395,413.0],[-4.9749,39.3938,413.0],[-4.9695,39.3829,413.0],[-4.9786,39.3797,413.0],[-4.9841,39.3718,413.0],[-4.9919,39.3707,413.0],[-5.0088,39.3783,413.0],[-5.0151,39.3745,413.0],[-5.0195,39.3683,358.0096],[-5.0411,39.3665,480.5917],[-5.0537,39.3624,512.5832],[-5.0745,39.38,556.7173],[-5.0905,39.3906,569.4537],[-5.1136,39.3873,567.1122],[-5.1108,39.3677,552.6391],[-5.1117,39.3575,541.544],[-5.1169,39.3435,523.891],[-5.1234,39.3365,462.8527],[-5.1502,39.321,392.9786],[-5.1718,39.3155,372.2015],[-5.1755,39.317,373.1353],[-5.1862,39.3159,382.8804],[-5.2475,39.3018,438.6666],[-5.283,39.3195,489.8655],[-5.3031,39.3196,586.6449],[-5.2899,39.3124,576.5298],[-5.2839,39.297,517.2246],[-5.2813,39.2965,520.5504],[-5.2443,39.2686,556.799],[-5.2149,39.24,577.7192],[-5.2125,39.2417,601.9945],[-5.1742,39.2156,685.5862],[-5.1708,39.2041,352.0],[-5.1608,39.194,662.0229],[-5.1559,39.1929,638.8712],[-5.1415,39.1777,657.2901],[-5.1336,39.176,648.7928],[-5.1209,39.1655,666.0547],[-5.0947,39.1525,693.452],[-5.0787,39.1519,616.8926],[-5.0712,39.1476,610.4634],[-5.061,39.1455,675.0442],[-5.0491,39.1492,712.9875],[-5.0404,39.155,667.0936],[-5.0389,39.1595,642.0336],[-5.0296,39.1612,644.8148],[-5.0033,39.1523,689.9912],[-4.9947,39.1419,683.4056],[-4.9742,39.1324,607.4402],[-4.9591,39.1159,644.6885],[-4.9569,39.1103,528.2327],[-4.9576,39.1063,536.2814],[-4.9441,39.0909,468.9055],[-4.9438,39.0686,555.6874],[-4.9413,39.0565,544.9059],[-4.9361,39.0568,656.8403],[-4.9145,39.0486,817.4161],[-4.9027,39.041,775.1266],[-4.8822,39.0329,762.4484],[-4.875,39.032,781.5611],[-4.8685,39.034,783.8264],[-4.8609,39.0318,729.6464],[-4.8525,39.0388,712.9161],[-4.8491,39.0455,758.0378],[-4.8424,39.0476,782.5669],[-4.8386,39.0448,777.5352],[-4.8327,39.0462,723.3513],[-4.8322,39.0515,618.363],[-4.8257,39.0626,646.3044],[-4.8357,39.0709,608.4037],[-4.8583,39.0769,570.2059],[-4.8743,39.099,524.6536],[-4.8696,39.1135,532.5718],[-4.8571,39.1227,526.8151],[-4.856,39.1317,533.2731],[-4.858,39.1347,535.4398],[-4.8536,39.141,548.2771],[-4.8549,39.1473,558.9196],[-4.8535,39.1517,558.6003],[-4.8451,39.1614,612.6625],[-4.8386,39.1639,681.8298]]]]}
,"properties": {"GID_3": "ESP.11.1.4_1","GID_0": "ESP","country": "Spain","GID_1": "ESP.11_1","province": "Extremadura","NL_NAME_1": "NA","GID_2": "ESP.11.1_1","county": "Badajoz","NL_NAME_2": "NA","city": "n.a.(42)","VARNAME_3": "NA","NL_NAME_3": "NA","TYPE_3": "Comarca","ENGTYPE_3": "Comarca","CC_3": "NA","HASC_3": "NA","name": "n.a.(42).city","area_km2": 1122.528,"hist_schema_id": "Elevation0-9000","hist_area_km2": {"350": 27.4039,"375": 46.7144,"400": 69.5827,"425": 140.676,"450": 109.8317,"475": 98.4112,"500": 105.5478,"525": 100.2211,"550": 84.4679,"575": 67.734,"600": 69.4859,"625": 54.5473,"650": 43.0742,"675": 33.3333,"700": 25.4936,"725": 17.5779,"750": 14.1125,"775": 7.6249,"800": 3.8124,"825": 2.136,"850": 0.6408,"875": 0.0986}}}