{"type": "Feature","bbox": [-3.5405,40.1525,-1.5356,41.3276],"geometry": {"type": "MultiPolygon","coordinates": [[[[-2.8189,40.2169,1029.4],[-2.8203,40.2197,1036.8374],[-2.8145,40.2243,1089.251],[-2.8074,40.2425,1112.9181],[-2.8083,40.2454,1109.5444],[-2.8025,40.264,1096.1404],[-2.8052,40.2667,1095.7183],[-2.8065,40.2794,1082.549],[-2.8048,40.2814,1074.741],[-2.8046,40.288,1063.499],[-2.8091,40.3119,942.9841],[-2.8084,40.3269,703.1575],[-2.8166,40.3347,704.5665],[-2.8105,40.3401,654.7896],[-2.8103,40.3432,641.3978],[-2.8116,40.3444,641.0872],[-2.8148,40.3418,641.5439],[-2.8151,40.3456,669.0216],[-2.8178,40.348,638.0],[-2.8153,40.3592,638.0],[-2.8168,40.3638,646.6608],[-2.8121,40.3723,669.3718],[-2.8111,40.3869,648.3568],[-2.8058,40.391,641.5205],[-2.8102,40.3933,698.7522],[-2.8044,40.3987,638.0],[-2.8072,40.4073,639.4525],[-2.8026,40.4105,644.1188],[-2.798,40.4172,638.0],[-2.7975,40.4202,638.0],[-2.7996,40.4233,669.6077],[-2.7866,40.4268,659.8134],[-2.7858,40.4279,638.0],[-2.79,40.4317,638.0],[-2.7844,40.435,645.1654],[-2.7809,40.4442,643.7814],[-2.7768,40.4466,642.978],[-2.769,40.4429,863.1035],[-2.7624,40.4431,1030.7203],[-2.7599,40.4417,1033.3729],[-2.7618,40.4342,1018.4165],[-2.7698,40.4214,1027.6309],[-2.7599,40.4124,694.0],[-2.7501,40.4085,713.5702],[-2.737,40.4004,702.0685],[-2.7228,40.3971,694.0],[-2.7196,40.4016,694.0],[-2.7279,40.4114,694.0],[-2.7252,40.4115,694.0],[-2.7196,40.4073,694.0],[-2.7168,40.4075,694.0],[-2.7119,40.4139,694.0],[-2.7188,40.4181,694.0],[-2.7174,40.4198,694.0],[-2.7044,40.4154,726.1664],[-2.6906,40.3952,753.2177],[-2.6862,40.3971,771.3467],[-2.6807,40.4027,781.1144],[-2.7039,40.4226,694.0],[-2.7017,40.4296,721.1645],[-2.6961,40.4299,694.0],[-2.6912,40.4271,694.0],[-2.6844,40.4283,694.0],[-2.6763,40.4358,694.0],[-2.6846,40.4415,697.1116],[-2.6851,40.4433,700.5104],[-2.6803,40.4434,694.0],[-2.6758,40.448,694.0],[-2.6707,40.4478,694.0],[-2.6706,40.4427,695.7493],[-2.6675,40.4385,694.0],[-2.6633,40.4361,694.0],[-2.6609,40.4394,702.3499],[-2.6512,40.44,694.0],[-2.642,40.4487,694.0],[-2.6335,40.4439,694.0],[-2.6264,40.4495,701.0916],[-2.6196,40.4455,694.0],[-2.6143,40.4472,694.0],[-2.6059,40.4468,694.0],[-2.5986,40.4435,694.0],[-2.5933,40.4451,694.0],[-2.5916,40.4498,694.0],[-2.5854,40.4501,694.0],[-2.5795,40.4448,694.0],[-2.5759,40.4457,694.0],[-2.568,40.4426,694.0],[-2.5678,40.4389,694.0],[-2.5658,40.4381,696.9932],[-2.5609,40.4393,694.0],[-2.5563,40.4348,696.989],[-2.5463,40.4347,694.0],[-2.548,40.431,694.0],[-2.5444,40.4264,711.6923],[-2.5416,40.4253,712.52],[-2.5337,40.4275,696.8124],[-2.5252,40.4238,698.7672],[-2.5154,40.4243,720.1467],[-2.5104,40.4289,741.9816],[-2.5045,40.4487,828.6131],[-2.511,40.4584,781.2168],[-2.5161,40.4601,783.6916],[-2.5219,40.4663,771.7596],[-2.5286,40.4699,745.9973],[-2.5444,40.4746,716.5881],[-2.5364,40.4861,729.8608],[-2.5366,40.4923,733.9602],[-2.5287,40.4984,743.6529],[-2.5399,40.507,770.3251],[-2.5462,40.519,799.6726],[-2.5391,40.5332,835.8023],[-2.5272,40.5443,1059.1406],[-2.5215,40.5314,815.3882],[-2.518,40.528,775.7994],[-2.5135,40.5158,793.5437],[-2.4959,40.5088,850.3712],[-2.4871,40.5112,829.9021],[-2.4731,40.5194,899.5592],[-2.4626,40.5233,924.191],[-2.4486,40.5245,1109.1542],[-2.4372,40.5309,1135.9575],[-2.4353,40.5345,1136.394],[-2.4262,40.5407,1136.6996],[-2.4214,40.5383,1105.6241],[-2.417,40.5303,986.0518],[-2.4117,40.5256,984.8615],[-2.4075,40.5293,959.6874],[-2.3966,40.5335,850.8317],[-2.3799,40.5436,948.7612],[-2.3831,40.5536,982.503],[-2.3896,40.5563,1006.9172],[-2.3939,40.5643,1015.7523],[-2.4005,40.5659,1125.7239],[-2.4072,40.574,1137.5382],[-2.4163,40.5806,1132.8302],[-2.4162,40.5884,1134.7136],[-2.4124,40.6021,1119.5847],[-2.3987,40.6138,1138.9662],[-2.3807,40.6073,1112.2958],[-2.3725,40.6072,1146.5581],[-2.3671,40.6013,1067.8513],[-2.3543,40.5927,1205.0605],[-2.354,40.5892,1196.3877],[-2.3598,40.5807,1170.228],[-2.3528,40.5752,1213.1063],[-2.3455,40.5726,1099.2004],[-2.3434,40.5694,1055.6184],[-2.3314,40.5672,1043.5276],[-2.3259,40.57,907.1127],[-2.3181,40.5702,1001.2712],[-2.3082,40.574,1230.2051],[-2.2976,40.5729,1239.6155],[-2.2919,40.5796,1248.0924],[-2.286,40.5922,1210.6663],[-2.2869,40.5976,1215.5787],[-2.2941,40.6117,1216.4022],[-2.2947,40.6229,1251.2419],[-2.2903,40.6303,1204.6781],[-2.2799,40.6338,1252.5961],[-2.2766,40.6378,1297.1428],[-2.2745,40.6448,1223.5747],[-2.2532,40.6316,1224.3112],[-2.2354,40.627,1248.3206],[-2.2256,40.6194,1266.0212],[-2.2137,40.6192,1243.3608],[-2.1897,40.6303,1316.9885],[-2.1849,40.629,1333.9999],[-2.1703,40.6299,1351.6476],[-2.1668,40.6324,1354.6265],[-2.1627,40.6508,1386.4794],[-2.1569,40.6587,1377.8894],[-2.1337,40.6559,1369.4373],[-2.1207,40.651,1372.735],[-2.11,40.6514,1366.6421],[-2.0911,40.6464,1417.5278],[-2.0917,40.6433,1363.9102],[-2.0841,40.6353,1383.1001],[-2.0709,40.6285,1385.53],[-2.0634,40.6275,1388.0879],[-2.0575,40.6241,1352.3594],[-2.0574,40.6183,1353.4121],[-2.0474,40.6092,1370.2107],[-2.0345,40.601,1432.1586],[-2.0205,40.5978,1426.5427],[-2.0062,40.5917,1440.001],[-1.9923,40.5894,1466.4832],[-1.9855,40.5854,1517.5314],[-1.9658,40.592,1358.95],[-1.9638,40.5992,1441.4104],[-1.9681,40.6086,1141.4945],[-1.9649,40.6114,1133.6826],[-1.9617,40.6116,1123.7468],[-1.9535,40.6,1151.4686],[-1.9418,40.6001,1156.3789],[-1.9384,40.5971,1202.0267],[-1.929,40.5934,1152.5077],[-1.9266,40.5941,1177.1599],[-1.9236,40.592,1156.0071],[-1.9205,40.5857,1186.4814],[-1.9164,40.5828,1170.0372],[-1.9149,40.5682,1219.2346],[-1.9098,40.5616,1230.6179],[-1.91,40.5539,1217.6261],[-1.9081,40.5531,1240.6523],[-1.9081,40.5495,1232.2573],[-1.9044,40.5465,1364.0837],[-1.9093,40.5429,1238.4554],[-1.909,40.5413,1244.5906],[-1.8994,40.5408,1294.3668],[-1.8989,40.5343,1257.8888],[-1.889,40.5295,1254.269],[-1.8814,40.5175,1289.9022],[-1.8837,40.5146,1291.5865],[-1.8838,40.51,1340.8336],[-1.8877,40.5057,1377.994],[-1.8794,40.494,1477.2764],[-1.8802,40.4921,1384.266],[-1.8779,40.4914,1451.1161],[-1.8808,40.4895,1420.3326],[-1.8774,40.4871,1505.2111],[-1.8755,40.4787,1461.6636],[-1.8711,40.4765,1418.6158],[-1.8732,40.477,1419.1467],[-1.8728,40.473,1406.9784],[-1.8608,40.4648,1546.0447],[-1.8616,40.4626,1428.8273],[-1.8599,40.4609,1526.3118],[-1.865,40.4547,1433.2605],[-1.8599,40.4473,1570.0106],[-1.8623,40.4441,1472.8455],[-1.8573,40.4414,1527.843],[-1.8564,40.4288,1456.6968],[-1.8507,40.4263,1560.7638],[-1.853,40.4235,1501.8921],[-1.8443,40.419,1480.374],[-1.8396,40.4255,1501.8043],[-1.8363,40.4274,1584.0564],[-1.8327,40.42,1496.6346],[-1.8229,40.4103,1491.0173],[-1.8142,40.4045,1503.9652],[-1.8116,40.4,1511.6405],[-1.8063,40.3983,1509.7502],[-1.8038,40.4007,1603.002],[-1.8044,40.404,1692.9098],[-1.8006,40.4142,1705.4905],[-1.7967,40.4178,1709.1194],[-1.7933,40.4179,1707.7197],[-1.7854,40.4132,1772.8071],[-1.7764,40.4305,1639.5731],[-1.7696,40.4349,1590.7588],[-1.7652,40.4433,1619.1628],[-1.7485,40.4629,1542.3096],[-1.7338,40.4725,1564.5105],[-1.6924,40.4868,1653.7434],[-1.6951,40.4937,1602.296],[-1.6955,40.5114,1748.5952],[-1.7018,40.5382,1698.7588],[-1.6896,40.5665,1701.4641],[-1.6932,40.5777,1767.7657],[-1.6858,40.5799,1711.5004],[-1.678,40.591,1699.4548],[-1.6743,40.5922,1724.661],[-1.6664,40.5821,1647.5645],[-1.6342,40.5798,1383.6003],[-1.6296,40.5761,1487.4021],[-1.5987,40.5621,1470.5293],[-1.5871,40.5694,1462.8931],[-1.5828,40.5695,1470.5936],[-1.5556,40.586,1435.6584],[-1.5496,40.5931,1474.4763],[-1.5454,40.5952,1501.1195],[-1.5549,40.6048,1470.7971],[-1.5553,40.6072,1458.553],[-1.5648,40.6148,1436.9309],[-1.5547,40.6304,1395.2438],[-1.5519,40.6431,1352.9528],[-1.5389,40.6581,1363.015],[-1.5403,40.681399999999996,1566.5653],[-1.5356,40.687,1567.5237],[-1.5434,40.6972,1517.3342],[-1.5533,40.7059,1506.9561],[-1.5541,40.7156,1520.2141],[-1.5588,40.7193,1479.8246],[-1.562,40.7398,1432.7422],[-1.5552,40.7501,1229.3563],[-1.5398,40.7607,1254.7266],[-1.5429,40.7684,1245.7883],[-1.5421,40.7771,1156.5336],[-1.5393,40.7808,1173.5736],[-1.5409,40.7851,1209.8431],[-1.5392,40.7927,1203.6328],[-1.5423,40.8112,1154.083],[-1.5446,40.8162,1161.7194],[-1.5533,40.8235,1170.9712],[-1.5539,40.8267,1161.3928],[-1.5567,40.8288,1138.89],[-1.5636,40.8315,1186.4841],[-1.5704,40.8301,1204.7621],[-1.5887,40.845,1194.7542],[-1.5936,40.8533,1178.0789],[-1.5963,40.8539,1171.4738],[-1.6034,40.8598,1162.8887],[-1.6202,40.8795,1154.2825],[-1.6259,40.8987,1152.6306],[-1.6156,40.9082,1136.8594],[-1.6104,40.9168,1127.2898],[-1.6078,40.9276,1138.0145],[-1.6118,40.9376,1120.2607],[-1.6174,40.9437,1118.26],[-1.6349,40.9527,1114.6204],[-1.654,40.969,1112.8699],[-1.657,40.9694,1113.8663],[-1.661,40.9783,1096.897],[-1.6664,40.9817,1090.1973],[-1.6747,40.984,1073.1664],[-1.6792,40.9893,1070.7056],[-1.6918,40.9956,1100.8601],[-1.7147,41.0121,1142.2437],[-1.7376,41.0313,1148.6385],[-1.7471,41.0339,1166.7563],[-1.7485,41.0413,1175.2983],[-1.7593,41.0482,1031.5099],[-1.7593,41.052,1028.7537],[-1.7569,41.0527,1012.662],[-1.7577,41.0551,1011.1666],[-1.7711,41.0666,1058.4584],[-1.7907,41.0759,1091.3578],[-1.796,41.0801,1054.8604],[-1.8025,41.0892,1024.674],[-1.814,41.093,1073.4688],[-1.8164,41.0953,1056.6227],[-1.8254,41.0949,1069.9231],[-1.8352,41.0992,1074.8198],[-1.8556,41.1025,1135.8726],[-1.8692,41.1079,1097.4878],[-1.879,41.1238,1006.0588],[-1.8905,41.1333,990.9912],[-1.9009,41.1355,982.4689],[-1.9057,41.1341,1029.0773],[-1.9216,41.1343,1024.6244],[-1.9324,41.1386,979.569],[-1.9391,41.1474,961.9556],[-1.9391,41.1525,961.1116],[-1.9477,41.1615,972.017],[-1.9483,41.1669,937.0395],[-1.959,41.1725,947.6259],[-1.9827,41.1651,985.8748],[-1.9877,41.1612,995.3223],[-2.0084,41.1564,1063.9758],[-2.0383,41.1551,1144.4507],[-2.0476,41.1527,1122.1615],[-2.0516,41.1469,1098.5841],[-2.0505,41.1259,1188.8535],[-2.0591,41.1198,1181.3621],[-2.0627,41.1131,1181.4569],[-2.0603,41.1052,1171.567],[-2.0636,41.1035,1189.7159],[-2.0656,41.0958,1172.4031],[-2.0575,41.0847,1159.188],[-2.0481,41.0784,1211.454],[-2.0564,41.0697,1195.4919],[-2.0716,41.0725,1185.2144],[-2.0786,41.0774,1190.7654],[-2.0766,41.082,1143.1763],[-2.0814,41.0864,1162.2053],[-2.0871,41.0901,1176.9458],[-2.0974,41.0925,1186.6658],[-2.1094,41.0976,1236.4033],[-2.1174,41.103,1294.7141],[-2.1318,41.1181,1212.4651],[-2.1358,41.1167,1254.8202],[-2.1434,41.1026,1264.3888],[-2.1673,41.0954,1316.9463],[-2.1757,41.0866,1307.5569],[-2.1752,41.0838,1314.7583],[-2.2225,41.0934,1293.8406],[-2.2321,41.097,1274.1543],[-2.2635,41.0675,1283.9216],[-2.2844,41.0653,1249.6356],[-2.291,41.0709,1259.3333],[-2.2935,41.0713,1270.907],[-2.3032,41.065,1258.3633],[-2.3155,41.0616,1225.7278],[-2.3233,41.0565,1224.7046],[-2.3306,41.0668,1194.9731],[-2.3338,41.0674,1188.8344],[-2.3492,41.0774,1185.8628],[-2.3553,41.0865,1179.6882],[-2.3813,41.077,1195.6722],[-2.383,41.0742,1212.1721],[-2.4021,41.0617,1116.1506],[-2.4142,41.0609,1177.5547],[-2.4188,41.0577,1147.8741],[-2.4204,41.0602,1154.7041],[-2.4297,41.0659,1140.2986],[-2.4297,41.0723,1113.2653],[-2.4409,41.0714,1146.304],[-2.4399,41.0732,1141.8226],[-2.4422,41.0773,1130.6185],[-2.4479,41.0749,1206.3585],[-2.4494,41.0777,1201.8113],[-2.4694,41.0781,1206.4788],[-2.4694,41.0898,1201.2903],[-2.4803,41.1136,1251.7156],[-2.4854,41.1179,1283.7452],[-2.5036,41.1175,1174.3682],[-2.5088,41.118899999999996,1190.6576],[-2.5116,41.1315,1210.4404],[-2.5173,41.137,1158.0425],[-2.5169,41.1465,1205.8726],[-2.5364,41.1625,1231.7529],[-2.5418,41.1511,1220.6685],[-2.5551,41.1467,1216.3141],[-2.5675,41.1449,1207.8088],[-2.5755,41.1395,1183.7455],[-2.5812,41.1408,1182.2086],[-2.596,41.1516,1106.6562],[-2.5936,41.1566,1125.8557],[-2.5848,41.1614,1112.1008],[-2.5826,41.1644,1153.9016],[-2.5771,41.1778,1158.5824],[-2.5781,41.1793,1197.4943],[-2.6025,41.1887,1221.8145],[-2.6193,41.1833,1174.6737],[-2.622,41.188,1212.9414],[-2.6199,41.1954,1210.9327],[-2.6057,41.1936,1221.5586],[-2.6008,41.1948,1224.1099],[-2.5931,41.2009,1140.719],[-2.5873,41.2138,1138.7727],[-2.5894,41.2245,1156.8678],[-2.6169,41.2194,1198.8442],[-2.6238,41.2237,1182.4983],[-2.6291,41.2152,1218.4839],[-2.6362,41.2238,1172.8025],[-2.6346,41.2319,1133.9983],[-2.6451,41.2379,1105.785],[-2.6459,41.2402,1121.4067],[-2.6548,41.2407,1134.8507],[-2.6692,41.2371,1166.1213],[-2.6953,41.2456,1134.1438],[-2.7095,41.252,1117.9003],[-2.714,41.2611,1138.8904],[-2.7167,41.2757,1161.6711],[-2.73,41.2717,1144.3529],[-2.7609,41.274,1147.3818],[-2.7673,41.2692,1164.6169],[-2.7764,41.2575,1183.6758],[-2.7754,41.2501,1212.3386],[-2.7824,41.2538,1203.9146],[-2.8035,41.2565,1237.1891],[-2.8222,41.2566,1215.6082],[-2.8217,41.2584,1211.8074],[-2.8324,41.2636,1238.0146],[-2.8668,41.2745,1133.7234],[-2.8636,41.2813,1176.2628],[-2.864,41.2874,1253.1885],[-2.8658,41.2918,1257.637],[-2.873,41.2985,1215.3838],[-2.8668,41.3131,1206.0317],[-2.8689,41.3171,1173.598],[-2.8754,41.3214,1168.2731],[-2.8826,41.3218,1177.6434],[-2.8884,41.3252,1194.5376],[-2.8979,41.3248,1172.2834],[-2.9066,41.3276,1202.5461],[-2.9109,41.3212,1223.2502],[-2.9242,41.3186,1211.0637],[-2.934,41.3134,1227.5939],[-2.9411,41.3139,1238.4343],[-2.94,41.306,1243.0231],[-2.944,41.2975,1247.0066],[-2.9501,41.2926,1249.5725],[-2.966,41.2932,1266.7252],[-2.9674,41.2919,1264.5896],[-2.9792,41.2908,1350.4728],[-3.0059,41.2844,1361.6401],[-3.0113,41.2854,1357.7285],[-3.0179,41.2891,1442.2594],[-3.0355,41.2812,1455.1183],[-3.0606,41.2765,1519.23],[-3.0618,41.2734,1521.5833],[-3.0729,41.2778,1509.5856],[-3.0834,41.2797,1497.3076],[-3.0899,41.2834,1477.0785],[-3.0938,41.284,1467.0258],[-3.0978,41.2799,1476.059],[-3.1001,41.2801,1461.9271],[-3.1086,41.2879,1483.3914],[-3.125,41.2909,1486.8514],[-3.13,41.2882,1420.1201],[-3.1412,41.2922,1441.1606],[-3.1483,41.292,1430.7628],[-3.1648,41.2954,1483.9419],[-3.1708,41.299,1502.756],[-3.1785,41.2998,1485.1633],[-3.1885,41.3039,1491.0779],[-3.1921,41.3027,1481.1826],[-3.1997,41.3044,1484.9635],[-3.2036,41.3032,1464.3657],[-3.2073,41.3042,1491.5121],[-3.215,41.2984,1406.6886],[-3.2262,41.2981,1398.3378],[-3.2389,41.2879,1289.6538],[-3.2378,41.2855,1342.2068],[-3.24,41.2851,1311.6794],[-3.2398,41.283,1297.4127],[-3.2378,41.2794,1343.0764],[-3.2548,41.2577,1439.4495],[-3.259,41.2697,1447.1536],[-3.2667,41.2719,1517.0144],[-3.271,41.2752,1584.178],[-3.2757,41.275,1656.8995],[-3.2878,41.2659,1600.7731],[-3.2901,41.2579,1643.5634],[-3.2978,41.257,1604.0957],[-3.3027,41.2577,1574.3645],[-3.3063,41.2606,1576.0894],[-3.3128,41.2617,1546.0972],[-3.321,41.2606,1512.9841],[-3.3227,41.2618,1540.4146],[-3.3299,41.2588,1572.8286],[-3.3304,41.2555,1619.3519],[-3.3363,41.253,1697.724],[-3.3456,41.256,1737.9137],[-3.3564,41.2562,1731.1243],[-3.3693,41.2604,1762.3679],[-3.3942,41.257,1781.4305],[-3.4061,41.2618,1939.2112],[-3.4097,41.2606,1893.1018],[-3.4151,41.2732,1559.5497],[-3.4142,41.265,1730.8888],[-3.4106,41.2599,1890.7667],[-3.4057,41.2596,1973.1346],[-3.3994,41.2545,2020.4067],[-3.4002,41.2493,1943.5288],[-3.3979,41.2433,1947.0306],[-3.4062,41.2336,1901.4266],[-3.4029,41.2282,1889.5691],[-3.4041,41.218,1828.1409],[-3.4024,41.2136,1909.8793],[-3.4091,41.2118,1819.4537],[-3.42,41.2164,1709.7493],[-3.4251,41.2142,1767.4286],[-3.4441,41.2153,1840.7079],[-3.4602,41.191,2179.7261],[-3.4665,41.1888,2068.0344],[-3.4687,41.1862,2131.0195],[-3.4668,41.1833,2215.9019],[-3.4745,41.1837,2180.2852],[-3.4816,41.1803,2166.9424],[-3.4869,41.181,2064.0718],[-3.4936,41.1775,2062.6304],[-3.5006,41.1791,1975.7883],[-3.5072,41.1688,1898.1415],[-3.5095,41.1686,1867.4792],[-3.5158,41.1624,1832.808],[-3.527,41.1662,1859.2235],[-3.5397,41.165,2120.4976],[-3.5365,41.1604,2046.0344],[-3.5405,41.1505,1976.1637],[-3.5334,41.1471,1838.6495],[-3.5292,41.1407,1573.9531],[-3.5111,41.1342,1485.6208],[-3.4995,41.1237,1355.27],[-3.4921,41.1135,1367.0222],[-3.4923,41.1075,1303.9487],[-3.4894,41.1047,1272.6559],[-3.4907,41.1005,1272.0881],[-3.488,41.0941,1233.4167],[-3.4833,41.0929,1283.9263],[-3.4755,41.0957,1248.7263],[-3.4566,41.0874,1193.5436],[-3.4556,41.0845,1181.079],[-3.4485,41.0817,1172.5852],[-3.4323,41.0849,1161.9255],[-3.4258,41.0834,1135.5806],[-3.4278,41.0822,1142.2567],[-3.4257,41.0733,1148.4241],[-3.4274,41.0658,1214.9911],[-3.4328,41.0628,1266.4648],[-3.4316,41.0586,1260.6249],[-3.4354,41.0535,1317.9863],[-3.4345,41.0493,1357.8495],[-3.4379,41.0467,1454.691],[-3.4382,41.0426,1601.7992],[-3.4308,41.0415,1668.3481],[-3.4289,41.0399,1655.1257],[-3.422,41.026,1671.7673],[-3.3976,41.0074,1723.9263],[-3.3945,41.0003,1754.095],[-3.4004,40.9957,1743.7413],[-3.4181,40.9876,1643.7299],[-3.4166,40.9773,1509.1492],[-3.4215,40.9673,1463.2368],[-3.4277,40.9603,1431.0607],[-3.4313,40.9493,1173.0328],[-3.4349,40.9461,1126.1311],[-3.4336,40.9376,954.6084],[-3.4356,40.9337,1049.5863],[-3.4471,40.9224,944.0695],[-3.4464,40.9188,885.1508],[-3.4494,40.9129,755.9279],[-3.4445,40.9082,746.1274],[-3.4516,40.9064,741.3197],[-3.458,40.9092,752.6954],[-3.46,40.9083,734.5611],[-3.4604,40.9052,771.4862],[-3.4583,40.9023,748.353],[-3.4607,40.9006,769.9856],[-3.4601,40.8986,781.6969],[-3.4543,40.899,740.9509],[-3.4506,40.8952,753.8611],[-3.4474,40.8961,731.2103],[-3.4402,40.8919,743.1011],[-3.4441,40.8879,725.4921],[-3.4408,40.8761,699.5673],[-3.4463,40.8779,713.156],[-3.4491,40.8772,734.7229],[-3.4731,40.8644,701.3196],[-3.4739,40.8625,692.7761],[-3.4677,40.8565,687.3622],[-3.4711,40.8515,687.2578],[-3.4767,40.8515,694.1827],[-3.4703,40.8443,683.6567],[-3.4711,40.8418,684.6284],[-3.4789,40.8385,684.8249],[-3.4762,40.8263,685.645],[-3.4814,40.8196,673.1002],[-3.4815,40.8156,689.7485],[-3.4908,40.8077,675.4711],[-3.4911,40.7994,669.7816],[-3.4945,40.7975,665.974],[-3.4987,40.7993,665.9591],[-3.5019,40.7972,663.9747],[-3.5026,40.7891,663.4248],[-3.5083,40.7909,661.7167],[-3.5106,40.7886,724.2341],[-3.4971,40.7886,686.7419],[-3.4852,40.7846,714.8138],[-3.4658,40.7843,790.8896],[-3.4594,40.7814,760.4448],[-3.4558,40.7763,757.0236],[-3.45,40.7722,781.5201],[-3.4467,40.7633,810.7394],[-3.4433,40.7608,851.3284],[-3.4432,40.7538,792.4562],[-3.4467,40.7411,753.2845],[-3.4495,40.7409,744.0215],[-3.4509,40.738,737.5117],[-3.4484,40.7329,726.2502],[-3.4416,40.7379,739.5712],[-3.4341,40.7308,821.9443],[-3.4378,40.7224,808.1287],[-3.4421,40.72,785.3473],[-3.4463,40.7147,756.4699],[-3.4557,40.7093,752.724],[-3.4567,40.7042,732.0117],[-3.4629,40.6977,739.6522],[-3.4616,40.6927,736.3104],[-3.4674,40.6926,736.2348],[-3.4674,40.6897,727.5497],[-3.4559,40.6879,755.4725],[-3.4487,40.6825,784.4513],[-3.4483,40.6784,786.5148],[-3.4422,40.6781,762.4105],[-3.4418,40.6743,756.6363],[-3.4357,40.6752,770.4574],[-3.4271,40.6726,822.5397],[-3.4259,40.6827,822.2109],[-3.4247,40.6808,825.6808],[-3.4207,40.6813,825.8088],[-3.4151,40.6713,783.2713],[-3.4105,40.6722,810.8093],[-3.4049,40.6701,812.8433],[-3.4047,40.6777,826.9508],[-3.3999,40.6917,831.9027],[-3.3932,40.6927,831.2241],[-3.3892,40.6875,830.6121],[-3.3728,40.6779,757.6471],[-3.3727,40.6694,734.4307],[-3.3678,40.664,718.2656],[-3.3677,40.6607,711.7279],[-3.3632,40.655,690.2574],[-3.3654,40.6514,687.5746],[-3.3654,40.6479,708.064],[-3.3449,40.6416,732.6321],[-3.3465,40.6385,732.9226],[-3.3388,40.6366,706.6334],[-3.3374,40.6409,711.2492],[-3.3338,40.6396,735.7216],[-3.3243,40.6436,740.3908],[-3.3177,40.6513,775.9828],[-3.3174,40.6543,778.7267],[-3.3149,40.6492,761.1486],[-3.3228,40.6408,754.769],[-3.3233,40.6301,729.4471],[-3.3312,40.6264,720.7706],[-3.3367,40.6268,709.7513],[-3.3375,40.6254,713.7179],[-3.3275,40.6202,765.7107],[-3.322,40.6122,770.6164],[-3.3304,40.6073,765.5192],[-3.3288,40.6061,766.3176],[-3.3307,40.6046,765.6497],[-3.3294,40.6036,765.6814],[-3.3308,40.6007,764.6438],[-3.3288,40.5989,763.2108],[-3.3304,40.5974,761.1775],[-3.3105,40.5796,698.7001],[-3.2833,40.5715,646.3051],[-3.2826,40.5693,641.9761],[-3.2866,40.5652,638.9242],[-3.2833,40.5638,636.3011],[-3.2882,40.5583,629.6582],[-3.2817,40.5524,626.1371],[-3.2853,40.5496,624.477],[-3.2838,40.5489,624.2041],[-3.2969,40.5373,615.462],[-3.2896,40.5317,607.8762],[-3.2835,40.5367,607.5012],[-3.2777,40.534,599.6376],[-3.2719,40.5351,606.2672],[-3.2497,40.5437,621.6962],[-3.2439,40.5368,667.5885],[-3.2356,40.5328,691.8974],[-3.2302,40.532,710.9834],[-3.2329,40.5379,679.9132],[-3.2318,40.5387,679.9132],[-3.2278,40.5355,700.2122],[-3.224,40.5267,860.3755],[-3.2006,40.5147,897.0323],[-3.1989,40.5039,899.7273],[-3.202,40.4954,885.3547],[-3.1953,40.4784,878.8612],[-3.2002,40.4633,862.004],[-3.1985,40.4599,865.9828],[-3.2004,40.4462,859.0605],[-3.1986,40.4423,848.1446],[-3.1782,40.4393,874.0771],[-3.1725,40.4362,866.3581],[-3.1685,40.4386,867.7204],[-3.1559,40.4392,839.0489],[-3.1511,40.4311,864.7722],[-3.1512,40.4265,860.2742],[-3.1476,40.4226,847.8101],[-3.1475,40.4196,851.0652],[-3.1418,40.4121,685.4347],[-3.1304,40.4051,856.4241],[-3.1344,40.3979,815.1413],[-3.1356,40.39,791.3932],[-3.1442,40.3875,648.5231],[-3.1387,40.376,646.5229],[-3.1502,40.3734,824.7727],[-3.1494,40.3717,831.7458],[-3.1533,40.3674,824.9257],[-3.1496,40.3609,680.5405],[-3.1437,40.3579,635.6461],[-3.1442,40.3537,648.1885],[-3.1414,40.3526,635.626],[-3.1415,40.3508,636.0417],[-3.1467,40.3501,632.274],[-3.1474,40.3474,631.0034],[-3.1561,40.3419,632.0424],[-3.1514,40.3385,690.0109],[-3.1533,40.3317,833.7747],[-3.1623,40.3274,798.7554],[-3.1621,40.326,816.0676],[-3.1778,40.3151,806.5519],[-3.1824,40.3068,793.4966],[-3.1802,40.3013,808.501],[-3.1818,40.2951,809.262],[-3.1806,40.2911,802.5626],[-3.1865,40.2786,800.3737],[-3.1835,40.2693,791.0737],[-3.1961,40.2577,799.839],[-3.1956,40.2478,796.9573],[-3.1831,40.2434,793.6639],[-3.1795,40.2406,802.7256],[-3.178,40.2361,793.7487],[-3.1731,40.234,756.1368],[-3.1729,40.2389,780.3522],[-3.1601,40.2565,732.3677],[-3.1516,40.2619,764.7632],[-3.1533,40.2641,774.5266],[-3.1438,40.2661,756.1427],[-3.1274,40.2782,811.2931],[-3.112,40.2856,806.3066],[-3.1094,40.2852,818.9855],[-3.1076,40.2803,814.6275],[-3.1023,40.2786,791.1028],[-3.0982,40.2751,773.4963],[-3.0958,40.2689,784.5448],[-3.099,40.2605,798.5846],[-3.0886,40.2482,787.4327],[-3.0868,40.244,776.8632],[-3.0892,40.2387,761.1319],[-3.0865,40.234,757.733],[-3.0806,40.2297,746.3554],[-3.079,40.224,665.1854],[-3.0832,40.2152,611.6937],[-3.0792,40.2091,605.2656],[-3.083,40.2028,613.4254],[-3.0883,40.2006,648.1033],[-3.0842,40.1985,677.8697],[-3.0866,40.1938,666.4625],[-3.0842,40.1892,647.173],[-3.0854,40.1865,632.4554],[-3.0771,40.1731,571.6055],[-3.0785,40.1652,596.2489],[-3.0691,40.1601,558.1611],[-3.0677,40.1575,557.2344],[-3.0675,40.1613,556.3549],[-3.0637,40.1683,558.2048],[-3.0379,40.1609,641.1609],[-3.0309,40.157,640.326],[-3.0208,40.1558,651.763],[-3.0164,40.1525,657.9542],[-3.0144,40.1553,632.1495],[-3.0157,40.165,657.5446],[-3.0123,40.1707,627.2846],[-3.0124,40.1742,651.2345],[-3.018,40.1762,607.2971],[-3.0211,40.1844,619.2605],[-3.0197,40.1932,563.714],[-3.0164,40.193,563.7173],[-3.0103,40.1977,566.0984],[-3.0075,40.201,566.3461],[-3.0061,40.2085,563.6135],[-2.9981,40.2091,565.6806],[-2.9881,40.2027,586.4312],[-2.9887,40.2011,595.6874],[-2.981,40.194,610.0437],[-2.966,40.1852,671.2505],[-2.9594,40.183,763.5414],[-2.9469,40.1696,733.1981],[-2.9347,40.1633,795.5565],[-2.913,40.1572,817.907],[-2.9048,40.1579,896.608],[-2.8875,40.1646,803.1597],[-2.8798,40.1709,836.1246],[-2.8737,40.1736,846.0485],[-2.875,40.1758,860.6262],[-2.863,40.2001,892.515],[-2.8483,40.2026,918.8599],[-2.8259,40.2023,1060.7076],[-2.8214,40.2052,1058.9202],[-2.8227,40.2092,1050.558],[-2.8189,40.2169,1029.4]]],
[[[-3.3693,40.6303,780.8953],[-3.3684,40.6334,784.3262],[-3.3665,40.6324,773.7322],[-3.3642,40.6351,781.1609],[-3.3654,40.6393,777.049],[-3.3734,40.6412,692.9489],[-3.375,40.6386,703.4677],[-3.3733,40.6358,723.9834],[-3.382,40.6298,675.8217],[-3.371,40.625,791.868],[-3.3672,40.6303,773.3382],[-3.3693,40.6303,780.8953]]]]}
,"properties": {"GID_2": "ESP.4.4_1","GID_0": "ESP","country": "Spain","GID_1": "ESP.4_1","province": "Castilla-LaMancha","NL_NAME_1": "NA","county": "Guadalajara","VARNAME_2": "NA","NL_NAME_2": "NA","TYPE_2": "Provincia","ENGTYPE_2": "Province","CC_2": "19","HASC_2": "ES.CM.GJ","name": "Guadalajara.county","area_km2": 12199.281,"hist_schema_id": "Elevation0-9000","hist_area_km2": {"550": 2.965,"575": 22.566,"600": 40.871,"625": 63.411,"650": 94.417,"675": 111.368,"700": 189.299,"725": 240.317,"750": 290.485,"775": 328.597,"800": 362.572,"825": 369.817,"850": 356.637,"875": 412.813,"900": 440.904,"925": 412.528,"950": 417.762,"975": 451.879,"1000": 448.535,"1025": 513.122,"1050": 496.549,"1075": 458.4,"1100": 563.211,"1125": 605.044,"1150": 603.337,"1175": 507.514,"1200": 437.817,"1225": 395.849,"1250": 349.514,"1275": 302.441,"1300": 259.092,"1325": 225.548,"1350": 213.193,"1375": 189.142,"1400": 159.952,"1425": 133.234,"1450": 99.702,"1475": 78.998,"1500": 65.008,"1525": 66.144,"1550": 64.647,"1575": 66.762,"1600": 65.331,"1625": 50.088,"1650": 40.005,"1675": 26.747,"1700": 20.389,"1725": 16.423,"1750": 12.349,"1775": 10.858,"1800": 8.68,"1825": 6.552,"1850": 5.078,"1875": 4.422,"1900": 3.719,"1925": 3.495,"1950": 2.649,"1975": 2.043,"2000": 2.33,"2025": 1.676,"2050": 1.277,"2075": 0.686,"2100": 0.734,"2125": 0.654,"2150": 0.335,"2175": 0.479,"2200": 0.287}}}