{"type": "Feature","bbox": [0.0113,41.6881,0.6083,42.0695],"geometry": {"type": "MultiPolygon","coordinates": [[[[0.4599,42.0065,880.6128],[0.4489,42.0116,887.2001],[0.444,42.0197,849.3633],[0.4371,42.0241,816.962],[0.4304,42.036,841.7643],[0.4283,42.0442,837.0466],[0.4224,42.0525,868.5602],[0.414,42.0588,876.188],[0.4123,42.0639,913.3478],[0.4084,42.0668,908.6036],[0.4021,42.0624,962.5214],[0.3941,42.0652,950.9844],[0.3876,42.0645,965.5841],[0.3833,42.061,986.9814],[0.3805,42.062,959.9543],[0.3663,42.0608,931.4268],[0.3451,42.0576,836.4738],[0.3433,42.0678,889.0043],[0.3347,42.0695,942.5004],[0.3258,42.0689,922.3463],[0.3155,42.0656,1040.953],[0.3138,42.0636,1079.8136],[0.3166,42.0552,1014.8754],[0.3223,42.0469,788.6282],[0.3171,42.0341,730.2099],[0.298,42.0381,797.3336],[0.2957,42.0192,674.4299],[0.3052,42.0109,630.0323],[0.3025,41.9992,514.3163],[0.2987,41.9949,534.1838],[0.2802,41.9926,481.7507],[0.2764,41.9899,444.809],[0.272,41.9774,466.6841],[0.2541,41.9802,433.6429],[0.2517,41.9782,405.8917],[0.2457,41.9794,375.0412],[0.2382,41.9698,412.6592],[0.234,41.9681,414.9234],[0.1931,41.9767,294.1628],[0.1937,41.9787,288.6302],[0.1734,41.9781,273.8688],[0.1745,41.9695,270.1583],[0.1833,41.9558,271.9772],[0.1758,41.9508,260.8007],[0.1695,41.9437,258.4793],[0.1681,41.9357,262.1248],[0.1623,41.9369,303.2426],[0.16,41.935,301.0792],[0.1325,41.9515,314.8639],[0.1145,41.9586,322.3513],[0.1126,41.9484,312.3114],[0.108,41.9461,283.5958],[0.1021,41.9497,292.1013],[0.0997,41.9469,285.0656],[0.0966,41.9472,283.6413],[0.0907,41.949,285.8097],[0.0852,41.9531,292.7986],[0.0776,41.9334,300.2079],[0.0832,41.9307,293.7288],[0.0897,41.9195,272.6654],[0.0864,41.906,266.7261],[0.0708,41.9125,282.3314],[0.0608,41.9067,288.9349],[0.049,41.8868,298.2199],[0.0438,41.8843,310.6532],[0.0329,41.8843,332.5313],[0.0259,41.8678,337.1362],[0.0274,41.8604,471.8224],[0.0316,41.8574,465.5185],[0.032,41.8516,382.5629],[0.024,41.8477,436.0809],[0.0346,41.836,313.8745],[0.0264,41.8308,317.2826],[0.0169,41.8304,347.2979],[0.0418,41.8075,277.0989],[0.0338,41.8003,261.5356],[0.0184,41.7769,252.9141],[0.0113,41.7722,258.1312],[0.0373,41.765,241.4378],[0.0507,41.7667,233.9046],[0.066,41.7639,228.0096],[0.097,41.768,206.3997],[0.1025,41.7642,202.2412],[0.1183,41.7591,196.2918],[0.1296,41.76,185.7149],[0.134,41.7708,191.4259],[0.1315,41.7783,193.8276],[0.1404,41.7771,208.3433],[0.181,41.7791,307.131],[0.18,41.7751,294.9718],[0.1874,41.7669,303.4694],[0.1909,41.7668,303.7553],[0.21,41.7749,363.9723],[0.2154,41.7743,371.512],[0.2183,41.7685,365.0941],[0.2225,41.7654,329.3529],[0.2274,41.7659,326.278],[0.2312,41.7728,330.8024],[0.2471,41.7719,337.7475],[0.2493,41.7665,333.243],[0.2618,41.7528,301.3962],[0.2595,41.7429,288.3978],[0.261,41.7391,299.7574],[0.2748,41.7293,231.6192],[0.2981,41.7205,202.382],[0.292,41.7112,207.2777],[0.2848,41.7058,212.5986],[0.3043,41.6941,184.6986],[0.3344,41.6881,166.4829],[0.3421,41.6966,175.7832],[0.3687,41.7142,185.0036],[0.3693,41.7247,200.0386],[0.3728,41.7239,199.9191],[0.3848,41.7403,200.8792],[0.3955,41.732,183.9863],[0.395,41.7379,185.5648],[0.3994,41.7527,191.4218],[0.3987,41.7578,192.4284],[0.4006,41.7567,193.5476],[0.4089,41.7593,196.9382],[0.4383,41.7613,207.4845],[0.448,41.7647,221.688],[0.4647,41.7632,245.9249],[0.4697,41.7656,227.6082],[0.4738,41.7872,250.9904],[0.4833,41.8015,248.826],[0.4891,41.8052,246.6815],[0.4952,41.8045,254.4734],[0.499,41.807,255.6302],[0.5022,41.8144,266.2419],[0.5106,41.8206,272.4944],[0.5155,41.8224,277.4982],[0.5195,41.8209,280.162],[0.5251,41.8226,286.6659],[0.5424,41.8204,369.8906],[0.5494,41.8265,380.5785],[0.5534,41.8351,385.4098],[0.5536,41.8402,375.7674],[0.5516,41.8407,385.6163],[0.5525,41.8494,423.5551],[0.5574,41.8542,449.0753],[0.5622,41.8522,456.1346],[0.5622,41.8536,456.1346],[0.5801,41.8509,287.8765],[0.5822,41.8577,297.8322],[0.5801,41.8635,294.9301],[0.5908,41.8653,360.6483],[0.594,41.8681,431.7556],[0.6034,41.8691,434.7234],[0.6073,41.8723,459.6641],[0.6083,41.8783,505.865],[0.5928,41.8844,364.0],[0.5958,41.889,364.0],[0.601,41.9086,364.0],[0.5952,41.9153,364.0],[0.5949,41.918,364.0],[0.6075,41.9193,377.1057],[0.6029,41.9223,529.5632],[0.577,41.9292,724.8077],[0.5757,41.9307,756.517],[0.5625,41.9327,826.6177],[0.5619,41.9382,834.6765],[0.5658,41.9444,795.2086],[0.5773,41.9551,678.5593],[0.5682,41.9663,720.6506],[0.5452,41.9738,712.6761],[0.527,41.9726,744.0319],[0.515,41.9736,725.2425],[0.5093,41.9683,661.1677],[0.5029,41.967,739.9866],[0.5005,41.9649,762.6655],[0.4962,41.9674,757.0438],[0.4967,41.9687,757.0438],[0.4909,41.9709,763.0015],[0.4916,41.9667,751.4654],[0.4796,41.9686,705.1542],[0.4841,41.9718,791.58],[0.4792,41.9727,721.7837],[0.471,41.9699,670.7003],[0.4586,41.9607,606.1493],[0.4617,41.9687,635.9628],[0.4612,41.9729,666.3989],[0.467,41.9774,711.3364],[0.4706,41.9865,878.046],[0.4735,41.9883,907.5461],[0.4721,41.9931,1050.7001],[0.4733,41.9941,1053.6101],[0.4599,42.0065,880.6128]]]]}
,"properties": {"GID_3": "ESP.2.1.4_1","GID_0": "ESP","country": "Spain","GID_1": "ESP.2_1","province": "Aragón","NL_NAME_1": "NA","GID_2": "ESP.2.1_1","county": "Huesca","NL_NAME_2": "NA","city": "n.a.(128)","VARNAME_3": "NA","NL_NAME_3": "NA","TYPE_3": "Comarca","ENGTYPE_3": "Comarca","CC_3": "NA","HASC_3": "NA","name": "n.a.(128).city","area_km2": 1125.9782,"hist_schema_id": "Elevation0-9000","hist_area_km2": {"175": 12.5355,"200": 55.2339,"225": 94.6795,"250": 128.0658,"275": 136.0802,"300": 120.5234,"325": 81.6691,"350": 48.6067,"375": 35.7966,"400": 34.924,"425": 40.8013,"450": 41.6648,"475": 32.5619,"500": 35.0685,"525": 25.8021,"550": 21.9021,"575": 21.6646,"600": 22.1844,"625": 20.2289,"650": 19.2502,"675": 16.4093,"700": 13.0968,"725": 12.2124,"750": 11.1392,"775": 10.4597,"800": 8.9935,"825": 7.2135,"850": 4.9135,"875": 3.8264,"900": 2.8812,"925": 2.1254,"950": 1.4956,"975": 0.8503,"1000": 0.5039,"1025": 0.3937,"1050": 0.1417,"1075": 0.063,"1100": 0.0157}}}