{"type":"Feature","properties":{"GID_3":"ESP.6.3.4_1","GID_0":"ESP","country":"Spain","GID_1":"ESP.6_1","province":"Cataluña","NL_NAME_1":"NA","GID_2":"ESP.6.3_1","county":"Lleida","NL_NAME_2":"NA","city":"n.a.(162)","VARNAME_3":"NA","NL_NAME_3":"NA","TYPE_3":"Comarca","ENGTYPE_3":"Comarca","CC_3":"NA","HASC_3":"NA","name":"n.a.(162).city"},
"geometry":{"type": "MultiPolygon","coordinates": [[[[1.4983,42.1702,2228.8848],[1.5209,42.1845,2377.1768],[1.5231,42.1868,2370.052],[1.5218,42.19,2357.5032],[1.5278,42.192,2324.4937],[1.5271,42.2041,2099.6777],[1.5558,42.2106,1664.5793],[1.5966,42.2004,1846.0046],[1.6139,42.2014,2275.8682],[1.6161,42.203,2266.9761],[1.621,42.202,2140.7217],[1.6251,42.1983,2236.6443],[1.6329,42.1986,2101.6091],[1.6414,42.1966,2212.0786],[1.6417,42.1926,2108.1021],[1.6465,42.1881,2061.3125],[1.6507,42.1779,1858.1577],[1.6554,42.1743,1706.3285],[1.6563,42.1701,1486.3717],[1.6523,42.1694,1530.3894],[1.6565,42.1655,1441.9531],[1.6636,42.1655,1384.7385],[1.664,42.1638,1390.0837],[1.6694,42.1631,1442.0374],[1.6694,42.1698,1238.2502],[1.6715,42.1737,1320.1804],[1.674,42.1746,1350.3956],[1.6752,42.1693,1309.8308],[1.6765,42.1715,1402.6632],[1.6781,42.1692,1324.3297],[1.6783,42.1732,1409.5623],[1.6808,42.175,1410.121],[1.6841,42.1729,1412.2031],[1.684,42.1672,1373.5391],[1.6845,42.1751,1405.2668],[1.6888,42.1752,1410.0814],[1.701,42.1697,1259.2168],[1.7084,42.1608,1654.0388],[1.7163,42.1654,1580.3916],[1.7256,42.1659,1619.7999],[1.7275,42.1721,1619.5922],[1.7258,42.173,1652.1206],[1.7261,42.1757,1694.4719],[1.7302,42.1786,1791.3269],[1.7314,42.1839,1923.541],[1.7363,42.1835,1844.8295],[1.738,42.185,2090.0403],[1.7368,42.1852,2080.6704],[1.7377,42.1895,2285.4253],[1.7215,42.1962,1980.8529],[1.7145,42.1928,1849.7574],[1.7132,42.1905,1869.2457],[1.7074,42.1901,1725.4629],[1.6896,42.1991,1417.9834],[1.6863,42.2064,1498.4272],[1.6804,42.2064,1576.5312],[1.6854,42.2208,1377.2407],[1.681,42.2243,1406.6543],[1.7003,42.2307,2016.7391],[1.7013,42.2348,2216.6072],[1.7042,42.2362,2361.1475],[1.7032,42.2399,2432.4883],[1.6988,42.2411,2376.6768],[1.6967,42.245,2247.7637],[1.6898,42.2476,2161.957],[1.688,42.2545,1965.7212],[1.6846,42.2565,2002.1412],[1.6854,42.2605,1828.7444],[1.6951,42.2639,1847.959],[1.6902,42.2771,2259.8511],[1.6842,42.2763,2108.1299],[1.6703,42.2817,2544.9949],[1.6751,42.2859,2354.0081],[1.7024,42.2849,2436.5803],[1.7156,42.2881,2440.6416],[1.7192,42.284,2441.9807],[1.7343,42.284,2395.8833],[1.7407,42.2906,2323.4609],[1.7624,42.2938,2108.8472],[1.7755,42.2909,2001.7379],[1.7868,42.2945,1819.2383],[1.7973,42.2948,1831.845],[1.797,42.2975,1804.1868],[1.8045,42.3021,1978.3501],[1.8146,42.3023,2000.3301],[1.8184,42.2995,1996.5007],[1.8265,42.2993,1980.3511],[1.8328,42.3013,2051.1101],[1.8373,42.3056,2099.4946],[1.8426,42.3064,2232.3062],[1.8353,42.3185,1778.875],[1.8351,42.3245,1511.6948],[1.8332,42.3268,1378.3076],[1.8362,42.3311,1351.7651],[1.8349,42.333,1318.8286],[1.8398,42.3396,1221.8262],[1.836,42.341,1220.567],[1.8387,42.3505,1238.582],[1.8352,42.3556,1293.5176],[1.8446,42.3549,1272.2605],[1.8478,42.3643,1132.2322],[1.8551,42.3697,1131.2178],[1.851,42.3735,1114.9893],[1.8446,42.3749,1092.5598],[1.8401,42.3737,1088.4877],[1.8332,42.3758,1061.8799],[1.83,42.3814,1038.2546],[1.8106,42.3699,1082.8782],[1.8061,42.3701,1071.4214],[1.8046,42.3754,1054.0483],[1.8015,42.3752,1119.4558],[1.8001,42.378,1179.6787],[1.8085,42.3938,1166.9841],[1.8053,42.4086,1210.3689],[1.811,42.4111,1405.9612],[1.8016,42.4249,1531.0333],[1.7977,42.4261,1502.703],[1.7946,42.4309,1324.5627],[1.777,42.4316,1734.7368],[1.7695,42.4281,1893.7153],[1.7576,42.4331,2087.905],[1.7452,42.4332,2287.7766],[1.7319,42.4404,2493.5527],[1.7321,42.4449,2562.1995],[1.7284,42.4482,2635.5317],[1.7271,42.453,2727.7874],[1.7263,42.4615,2646.0935],[1.7331,42.4738,2768.1777],[1.7243,42.487,2759.4438],[1.7309,42.4925,2846.79],[1.7263,42.5049,2476.8906],[1.7115,42.4923,2240.7207],[1.7036,42.4898,2276.1606],[1.691,42.4948,2389.4441],[1.6789,42.4955,2478.1809],[1.6704,42.5042,2794.3389],[1.6626,42.4936,2557.8167],[1.6609,42.479,2676.7314],[1.6625,42.474,2809.0037],[1.6559,42.4682,2894.7346],[1.6458,42.4688,2731.012],[1.6405,42.4667,2733.0625],[1.6351,42.4672,2759.0781],[1.63,42.4636,2809.4333],[1.6234,42.4655,2708.5044],[1.6053,42.4648,2681.9529],[1.5976,42.4676,2599.2261],[1.5867,42.4618,2665.5593],[1.583,42.457,2516.5308],[1.5809,42.45,2741.1191],[1.5755,42.4518,2663.0659],[1.567,42.459,2613.125],[1.5612,42.4587,2607.325],[1.557,42.4539,2576.366],[1.5597,42.4483,2521.6426],[1.5549,42.4461,2497.8999],[1.5531,42.4435,2417.8909],[1.5526,42.4335,2201.4932],[1.5258,42.4322,2022.4368],[1.5123,42.4296,1748.7139],[1.4946,42.4332,1373.8762],[1.4566,42.4359,1202.4446],[1.4516,42.4375,1177.047],[1.4441,42.4437,1338.2273],[1.4468,42.4438,1436.5321],[1.4462,42.4482,1613.989],[1.4418,42.4535,1802.9097],[1.4475,42.4601,1921.2786],[1.4401,42.4644,2030.9983],[1.441,42.4755,1930.728],[1.4334,42.4818,2147.7529],[1.4192,42.4838,2117.8667],[1.4258,42.4935,1733.877],[1.4434,42.4952,1431.3643],[1.4692,42.5108,2310.7966],[1.4653,42.5138,2132.979],[1.46,42.5235,2222.4441],[1.4539,42.5271,2321.3618],[1.4518,42.5344,2307.9077],[1.4526,42.5382,2257.3103],[1.4397,42.5437,1846.6511],[1.4231,42.5379,2415.9238],[1.4142,42.5377,2568.292],[1.4089,42.5277,2726.2808],[1.395,42.526,2731.0752],[1.3937,42.5204,2674.5996],[1.3851,42.5146,2752.1924],[1.3757,42.5148,2521.9419],[1.3717,42.5188,2461.668],[1.3636,42.519,2428.7144],[1.3669,42.5136,2250.5461],[1.3683,42.5067,2162.3174],[1.373,42.5037,1994.6602],[1.3709,42.4996,1833.3638],[1.3718,42.4979,1796.7889],[1.3674,42.4968,1817.4143],[1.3619,42.4913,1723.4916],[1.3593,42.4836,1673.9731],[1.3558,42.4812,1784.4451],[1.3463,42.481,1851.2764],[1.3454,42.4743,1827.0171],[1.3413,42.4668,1621.089],[1.3279,42.4545,1538.6538],[1.3212,42.4448,1568.135],[1.3175,42.4448,1532.3818],[1.3115,42.4499,1520.9786],[1.3087,42.4501,1535.1639],[1.3027,42.4485,1516.5928],[1.2936,42.449,1440.8605],[1.2853,42.447,1443.1831],[1.2821,42.4438,1380.5632],[1.2723,42.4435,1346.8525],[1.2709,42.4421,1346.8525],[1.2662,42.4477,1331.4973],[1.2592,42.4494,1332.4764],[1.2561,42.452,1349.3215],[1.2535,42.4473,1517.5084],[1.2537,42.4429,1678.4043],[1.2518,42.4417,1708.6229],[1.2599,42.4201,1987.387],[1.2473,42.4182,2169.1904],[1.2442,42.4155,2173.0496],[1.2459,42.4101,2037.3553],[1.2445,42.3837,2044.9581],[1.2367,42.3746,1834.5642],[1.2354,42.3696,1720.5383],[1.2281,42.3683,1757.335],[1.2097,42.3591,1729.6743],[1.1996,42.3507,1613.3734],[1.1969,42.3513,1568.4249],[1.1883,42.3486,1645.9441],[1.184,42.3422,1718.4524],[1.1836,42.337,1777.1635],[1.1719,42.3285,1844.6974],[1.1755,42.3278,1771.3214],[1.1728,42.3269,1827.3362],[1.1638,42.3149,1678.5868],[1.1668,42.3104,1606.9624],[1.1658,42.309,1606.9624],[1.1581,42.3068,1546.7097],[1.1417,42.306,1261.2512],[1.1353,42.3074,1167.0781],[1.1289,42.2991,1151.5538],[1.1227,42.2951,1044.7744],[1.1376,42.2895,1340.6919],[1.1569,42.2779,1541.217],[1.1578,42.2706,1640.6691],[1.157,42.2681,1703.8995],[1.1545,42.2677,1733.2643],[1.153,42.2655,1793.839],[1.1517,42.259,1856.5046],[1.1589,42.2467,1922.6327],[1.1485,42.24,1921.182],[1.1449,42.2403,2039.5507],[1.1397,42.2379,2056.1116],[1.1429,42.2291,1985.5679],[1.1416,42.2282,1993.6655],[1.1537,42.2238,1815.5645],[1.1543,42.2205,1896.6907],[1.165,42.2193,1856.6541],[1.1675,42.212,1859.2135],[1.1677,42.2026,1549.9962],[1.1625,42.1967,1524.9043],[1.1611,42.1902,1657.1013],[1.1738,42.1832,1319.5549],[1.1827,42.1818,1234.2017],[1.1863,42.171,1316.5076],[1.1821,42.168,1386.144],[1.1824,42.1623,1308.6389],[1.1763,42.1582,1214.9473],[1.1736,42.1535,1086.0696],[1.168,42.154,1092.5889],[1.1608,42.1517,919.8281],[1.1615,42.1415,993.8226],[1.1555,42.1356,1016.2322],[1.1581,42.1227,1099.8979],[1.1669,42.1229,822.8148],[1.1683,42.1198,831.5551],[1.1627,42.104,712.8897],[1.1645,42.1041,823.4132],[1.1655,42.1015,751.0137],[1.1643,42.1009,751.0137],[1.1655,42.0951,680.1776],[1.162,42.0913,923.7247],[1.1604,42.0915,940.5244],[1.1639,42.0859,767.1135],[1.1598,42.0857,802.3937],[1.1621,42.0792,740.4879],[1.1644,42.0797,653.0979],[1.1649,42.0771,630.7555],[1.169,42.0801,770.2084],[1.1682,42.0814,789.2976],[1.1715,42.0813,805.2294],[1.1733,42.0829,818.8348],[1.1757,42.0811,885.0833],[1.1791,42.0818,858.3978],[1.1946,42.0902,1009.3347],[1.2112,42.0914,1094.199],[1.2155,42.0967,1189.4742],[1.2214,42.0985,1258.5455],[1.2244,42.1022,1264.2527],[1.2383,42.1053,1470.9088],[1.2426,42.1165,1468.1537],[1.2528,42.119,1408.0303],[1.2601,42.1165,1542.057],[1.2718,42.12,1539.7379],[1.2766,42.1195,1531.0553],[1.2802,42.1249,1441.9274],[1.2953,42.1235,931.6894],[1.2987,42.124,1049.1976],[1.3008,42.1275,1130.3571],[1.316,42.1298,578.5892],[1.3227,42.1334,808.8732],[1.3268,42.1391,1269.9371],[1.3387,42.1442,1269.0815],[1.3493,42.1534,1477.6614],[1.3537,42.1498,1384.1987],[1.3591,42.1487,1403.3341],[1.3615,42.1499,1370.6849],[1.3662,42.1494,1386.5905],[1.3778,42.1548,1371.4004],[1.3872,42.151,1303.9651],[1.3947,42.1501,1395.5132],[1.4135,42.1581,1652.8214],[1.4239,42.1597,1670.3514],[1.4306,42.1591,1660.6631],[1.4345,42.1536,1682.0742],[1.4459,42.1479,1784.6735],[1.4461,42.145,1768.0247],[1.4865,42.1634,2109.3931],[1.4926,42.1686,2207.1221],[1.4983,42.1702,2228.8848]]]]}}