{"type":"Feature","properties":{"GID_3":"ESP.10.2.1_1","GID_0":"ESP","country":"Spain","GID_1":"ESP.10_1","province":"ComunidadValenciana","NL_NAME_1":"NA","GID_2":"ESP.10.2_1","county":"Castellón","NL_NAME_2":"NA","city":"Alcalaten","VARNAME_3":"NA","NL_NAME_3":"NA","TYPE_3":"Comarca","ENGTYPE_3":"Comarca","CC_3":"NA","HASC_3":"NA","name":"Alcalaten.city"},
"geometry":{"type": "MultiPolygon","coordinates": [[[[-0.1536,40.086,160.7896],[-0.1431,40.0899,167.524],[-0.1476,40.1031,172.6846],[-0.1421,40.1046,180.7548],[-0.141,40.1073,176.088],[-0.1435,40.1094,227.5482],[-0.1427,40.1108,180.5058],[-0.1377,40.111,180.489],[-0.138,40.1128,181.308],[-0.1428,40.1162,194.8514],[-0.1379,40.1206,191.411],[-0.1343,40.128,194.9038],[-0.1301,40.1296,197.8608],[-0.1074,40.1302,210.6865],[-0.0974,40.1434,222.2859],[-0.0964,40.1498,226.011],[-0.0812,40.1699,250.5216],[-0.0819,40.1727,247.2789],[-0.0761,40.1868,258.5273],[-0.0808,40.2023,277.4831],[-0.0802,40.207,276.9839],[-0.0836,40.2103,296.5347],[-0.0845,40.2137,286.0034],[-0.0799,40.2168,295.158],[-0.0808,40.2187,290.6141],[-0.0973,40.2224,306.2157],[-0.0983,40.2244,316.5972],[-0.094,40.2281,307.7778],[-0.0935,40.2329,318.8833],[-0.0945,40.2368,320.4533],[-0.0995,40.2404,318.3405],[-0.1035,40.2391,318.5536],[-0.1049,40.2326,322.2682],[-0.1103,40.2341,339.8509],[-0.113,40.2386,379.9616],[-0.1221,40.2428,481.4054],[-0.1189,40.2473,455.0032],[-0.1187,40.2517,507.5876],[-0.1111,40.2617,643.9398],[-0.1133,40.2699,604.7054],[-0.1107,40.2742,547.9164],[-0.1388,40.2851,668.961],[-0.1418,40.2809,637.7198],[-0.1561,40.2739,546.5924],[-0.1607,40.2662,517.4738],[-0.1596,40.257,417.3451],[-0.1621,40.2576,411.4774],[-0.1624,40.2614,384.2422],[-0.1697,40.2656,412.764],[-0.1703,40.2706,441.6303],[-0.1685,40.2735,413.0819],[-0.1711,40.2747,407.1089],[-0.1698,40.2773,400.7798],[-0.1721,40.2776,432.7174],[-0.169,40.2803,473.5397],[-0.1684,40.2834,431.5725],[-0.1717,40.2843,428.5171],[-0.1732,40.2812,433.3738],[-0.1813,40.2886,429.8378],[-0.1812,40.2866,432.3869],[-0.1848,40.2841,441.259],[-0.1872,40.2866,481.2456],[-0.1866,40.2896,444.7755],[-0.189,40.2896,453.1466],[-0.1888,40.288,448.0119],[-0.1915,40.2868,465.2913],[-0.1956,40.2883,495.8409],[-0.1931,40.2941,468.0328],[-0.196,40.2954,514.3531],[-0.1933,40.3002,477.5362],[-0.1971,40.3006,490.5825],[-0.1953,40.3042,475.6752],[-0.1983,40.3072,489.0874],[-0.194,40.3076,535.0866],[-0.1947,40.3091,490.3507],[-0.1978,40.3092,487.0265],[-0.1983,40.3125,499.0059],[-0.203,40.3119,513.8832],[-0.201,40.3175,521.5206],[-0.2061,40.316,520.3531],[-0.2042,40.3221,559.4365],[-0.2094,40.3227,523.3773],[-0.2042,40.3303,584.8315],[-0.2067,40.33,548.0711],[-0.2056,40.3322,577.7319],[-0.2022,40.3339,552.715],[-0.2031,40.336,553.9814],[-0.1988,40.3352,555.3716],[-0.1975,40.3372,576.6821],[-0.1993,40.3369,552.2972],[-0.1995,40.3385,558.0117],[-0.203,40.3378,568.81],[-0.2033,40.3392,579.2513],[-0.2064,40.3401,606.5828],[-0.203,40.3433,578.5438],[-0.2034,40.346,581.6978],[-0.2062,40.344,570.6144],[-0.2092,40.3451,613.8568],[-0.2043,40.3478,620.8832],[-0.2031,40.3511,590.4551],[-0.2048,40.3535,607.7869],[-0.2129,40.3524,648.3572],[-0.2144,40.3576,625.3046],[-0.219,40.3588,645.9253],[-0.2198,40.3613,631.6576],[-0.2145,40.3603,643.056],[-0.217,40.3622,649.41],[-0.2147,40.3615,633.9829],[-0.2128,40.3655,687.9102],[-0.2164,40.3648,635.5641],[-0.2173,40.3683,641.3863],[-0.2232,40.3691,654.8127],[-0.2221,40.3712,663.334],[-0.2276,40.3729,685.1672],[-0.2278,40.3707,664.5583],[-0.234,40.3707,698.7476],[-0.2327,40.3725,683.0687],[-0.2373,40.3746,702.0277],[-0.2403,40.3735,713.2883],[-0.2436,40.375,711.3991],[-0.2452,40.3733,723.0253],[-0.2486,40.3757,759.5139],[-0.2497,40.3735,740.0515],[-0.2523,40.3755,764.6331],[-0.2519,40.3724,721.7778],[-0.2557,40.3732,726.3802],[-0.261,40.3677,735.6249],[-0.2715,40.3695,755.0939],[-0.2714,40.3721,847.386],[-0.2739,40.3719,783.141],[-0.276,40.3672,777.2145],[-0.2825,40.3702,781.0673],[-0.2839,40.3687,843.5006],[-0.2823,40.3651,797.1318],[-0.2854,40.3665,825.8947],[-0.2891,40.3655,815.3239],[-0.2892,40.3681,828.835],[-0.298,40.3617,822.2719],[-0.3045,40.3627,864.3011],[-0.3086,40.3577,844.9251],[-0.3144,40.3584,858.6357],[-0.319,40.3547,912.9183],[-0.3212,40.3501,915.6799],[-0.3316,40.3448,913.3961],[-0.3324,40.3415,925.8122],[-0.3368,40.341,1020.0966],[-0.3376,40.3394,944.4682],[-0.3406,40.34,990.3077],[-0.343,40.3343,961.132],[-0.341,40.329,966.2902],[-0.3437,40.3271,978.4388],[-0.3431,40.3254,997.2026],[-0.3465,40.3251,987.6307],[-0.3477,40.3283,991.6987],[-0.3497,40.328,996.3633],[-0.3485,40.3207,1015.5684],[-0.3535,40.318,1080.5544],[-0.352,40.3176,1023.904],[-0.3529,40.3134,1100.5315],[-0.3548,40.3148,1027.4885],[-0.3582,40.313,1043.036],[-0.3631,40.3166,1039.9021],[-0.37,40.3099,1075.2837],[-0.3672,40.3083,1085.0537],[-0.3662,40.3051,1095.4836],[-0.37,40.3066,1086.3419],[-0.3703,40.3044,1103.0209],[-0.3724,40.3041,1105.176],[-0.3725,40.3086,1120.1145],[-0.3764,40.305,1145.5881],[-0.3789,40.31,1170.5518],[-0.3845,40.3057,1141.4122],[-0.3877,40.3073,1213.0264],[-0.3914,40.3025,1170.9291],[-0.3899,40.2999,1176.5082],[-0.3927,40.2987,1191.5398],[-0.3946,40.3004,1171.7686],[-0.3939,40.2976,1191.5398],[-0.4001,40.2957,1184.7664],[-0.4001,40.2942,1186.4075],[-0.3903,40.288,1244.2659],[-0.3828,40.2783,1523.0635],[-0.385,40.2744,1591.7848],[-0.3836,40.2649,1642.9781],[-0.3885,40.2616,1537.3723],[-0.382,40.2579,1429.4413],[-0.3756,40.2466,1232.295],[-0.3717,40.244,1331.8887],[-0.3718,40.2383,1495.4952],[-0.3567,40.2302,1525.1144],[-0.3497,40.2227,1760.2617],[-0.3381,40.2205,1475.7793],[-0.3211,40.2091,1385.1935],[-0.3199,40.2035,1353.7804],[-0.322,40.1995,1331.54],[-0.3221,40.19,1264.614],[-0.3315,40.1848,1094.5508],[-0.3371,40.1859,1047.5608],[-0.34,40.1836,1034.3717],[-0.3463,40.1827,1031.6863],[-0.3497,40.1791,1012.2119],[-0.3575,40.1785,1004.1632],[-0.3625,40.1732,897.0621],[-0.3601,40.1653,949.4579],[-0.3604,40.1452,992.8359],[-0.3506,40.1426,1001.4634],[-0.3448,40.1382,962.6494],[-0.3389,40.1362,973.8143],[-0.3365,40.1321,916.78],[-0.3299,40.128,861.3713],[-0.3201,40.1082,810.4153],[-0.3177,40.099,773.898],[-0.3212,40.0948,756.9867],[-0.3222,40.0851,776.8026],[-0.3242,40.0836,746.593],[-0.3203,40.0758,760.0404],[-0.3218,40.0699,751.821],[-0.3204,40.0672,751.2889],[-0.3102,40.0673,714.0779],[-0.309,40.0614,606.3037],[-0.2939,40.055,493.2238],[-0.2926,40.0473,498.0244],[-0.2837,40.0486,465.1256],[-0.2719,40.0411,300.97],[-0.2637,40.039,261.4351],[-0.2552,40.0337,222.8937],[-0.245,40.0317,187.5355],[-0.2333,40.0264,177.8811],[-0.225,40.0259,234.3962],[-0.2194,40.0229,228.1381],[-0.2136,40.0227,234.9972],[-0.2106,40.0209,223.2133],[-0.2073,40.0115,270.0779],[-0.1717,40.0224,131.3464],[-0.1611,40.0198,92.4494],[-0.1612,40.0254,97.5907],[-0.1643,40.0287,121.9653],[-0.1579,40.0331,123.0],[-0.1606,40.0361,123.0],[-0.158,40.0453,123.0],[-0.1548,40.0488,123.0],[-0.1569,40.0529,127.3202],[-0.1519,40.0556,127.6547],[-0.1517,40.0587,128.4005],[-0.1536,40.0612,131.19],[-0.1641,40.0659,134.8481],[-0.1658,40.0709,138.4054],[-0.1628,40.0756,145.184],[-0.1555,40.0807,157.1831],[-0.1536,40.086,160.7896]]]]}}