{"type": "Feature","bbox": [-0.1637,41.863,0.3223,42.3606],"geometry": {"type": "MultiPolygon","coordinates": [[[[0.0776,41.9334,300.2079],[0.0852,41.9531,292.7986],[0.0907,41.949,285.8097],[0.0966,41.9472,283.6413],[0.0997,41.9469,285.0656],[0.1021,41.9497,292.1013],[0.108,41.9461,283.5958],[0.1126,41.9484,312.3114],[0.1145,41.9586,322.3513],[0.1325,41.9515,314.8639],[0.16,41.935,301.0792],[0.1623,41.9369,303.2426],[0.1681,41.9357,262.1248],[0.1695,41.9437,258.4793],[0.1758,41.9508,260.8007],[0.1833,41.9558,271.9772],[0.1745,41.9695,270.1583],[0.1734,41.9781,273.8688],[0.1937,41.9787,288.6302],[0.1931,41.9767,294.1628],[0.234,41.9681,414.9234],[0.2382,41.9698,412.6592],[0.2457,41.9794,375.0412],[0.2517,41.9782,405.8917],[0.2541,41.9802,433.6429],[0.272,41.9774,466.6841],[0.2764,41.9899,444.809],[0.2802,41.9926,481.7507],[0.2987,41.9949,534.1838],[0.3025,41.9992,514.3163],[0.3052,42.0109,630.0323],[0.2957,42.0192,674.4299],[0.298,42.0381,797.3336],[0.3171,42.0341,730.2099],[0.3223,42.0469,788.6282],[0.3166,42.0552,1014.8754],[0.3138,42.0636,1079.8136],[0.3065,42.0678,1026.0288],[0.3039,42.0782,999.7684],[0.2988,42.0823,963.6279],[0.3033,42.0831,914.2375],[0.3066,42.0883,860.9762],[0.307,42.0966,896.4031],[0.2892,42.103,599.4818],[0.2773,42.1127,645.4601],[0.2759,42.1207,592.675],[0.2707,42.1241,570.3716],[0.2692,42.1226,565.0131],[0.2673,42.1249,532.1738],[0.2609,42.1267,493.1942],[0.2595,42.1314,470.8259],[0.2651,42.135,514.8467],[0.266,42.143,600.0515],[0.2443,42.1552,553.8131],[0.2365,42.1526,425.5],[0.2337,42.1648,425.5],[0.2288,42.1705,435.7817],[0.2289,42.1815,425.5],[0.2244,42.1892,425.5],[0.226,42.1931,425.5],[0.2238,42.1967,425.5],[0.2275,42.2042,425.5],[0.2235,42.2155,425.5],[0.228,42.2224,425.5],[0.2179,42.224,445.8137],[0.2019,42.2229,674.0289],[0.1872,42.2164,821.801],[0.1783,42.2192,832.7739],[0.1726,42.2277,933.9829],[0.1524,42.2397,979.4356],[0.1503,42.2399,964.3236],[0.1479,42.2357,943.4775],[0.1396,42.2335,853.5015],[0.1469,42.2426,965.149],[0.1353,42.2357,801.4311],[0.125,42.2349,888.7811],[0.1043,42.2426,994.9117],[0.0994,42.247,875.8004],[0.0956,42.2476,833.4102],[0.0984,42.2546,816.4529],[0.1053,42.2574,797.1596],[0.1074,42.2726,635.436],[0.1093,42.2749,617.0695],[0.0935,42.2862,723.7922],[0.098,42.307,664.6653],[0.0935,42.3057,751.7725],[0.0826,42.3064,821.7412],[0.0787,42.3041,841.0958],[0.0792,42.3017,842.538],[0.0728,42.3007,831.2933],[0.071,42.2951,841.6923],[0.0718,42.2901,837.9595],[0.0623,42.2833,818.4517],[0.062,42.2859,835.4789],[0.0639,42.2861,815.9124],[0.062,42.29,834.0732],[0.0576,42.2924,845.9506],[0.048,42.2838,866.6017],[0.0448,42.2827,809.8337],[0.0456,42.2836,809.8337],[0.0433,42.285,817.4745],[0.0409,42.2845,850.3965],[0.0419,42.2867,869.7008],[0.04,42.2917,825.7609],[0.0421,42.2972,828.879],[0.0398,42.3016,834.0939],[0.0371,42.3028,834.9065],[0.0287,42.2999,878.3947],[0.0201,42.2999,938.2313],[0.0108,42.2966,1058.3003],[0.0082,42.2927,1238.5571],[0.0112,42.2899,1387.4663],[0.0101,42.2864,1409.9812],[0.0025,42.284,1189.3743],[0.0031,42.279,1145.074],[-0.0003,42.2771,1138.4211],[0.005,42.2616,1033.8148],[-0.0109,42.2632,1322.3879],[-0.0213,42.2626,1376.8633],[-0.0236,42.265,1396.5078],[-0.0383,42.2644,825.8721],[-0.0386,42.27,796.8383],[-0.0331,42.278,763.9778],[-0.03,42.2796,776.7506],[-0.0409,42.2842,1066.4386],[-0.0425,42.287,1142.2881],[-0.0405,42.3047,1528.7723],[-0.0359,42.3116,1492.9017],[-0.0369,42.3153,1464.903],[-0.0445,42.3217,1280.8636],[-0.0506,42.3299,1101.2155],[-0.0593,42.3304,1005.5154],[-0.055,42.3346,998.5245],[-0.057,42.3377,1004.8978],[-0.0552,42.3389,1010.0778],[-0.058,42.3483,1023.5367],[-0.0521,42.35,1077.9724],[-0.0482,42.354,1116.6295],[-0.0554,42.3549,1063.8096],[-0.062,42.3606,1250.0553],[-0.0761,42.3531,1097.4115],[-0.0836,42.3462,1253.9299],[-0.0791,42.3397,1111.329],[-0.0834,42.333,1206.6292],[-0.0878,42.3317,1222.3855],[-0.0933,42.3355,1190.0679],[-0.0992,42.3333,1169.4443],[-0.1218,42.3187,1022.5542],[-0.1311,42.3155,917.4784],[-0.1368,42.3076,1281.8812],[-0.1576,42.2986,1644.343],[-0.1637,42.2917,1677.9596],[-0.1637,42.2873,1662.7288],[-0.1521,42.2774,1614.4862],[-0.1485,42.2795,1546.3949],[-0.1422,42.2751,1534.1736],[-0.1385,42.2679,1410.8242],[-0.1228,42.251,1212.1313],[-0.1248,42.2475,1149.574],[-0.1229,42.2304,1155.3145],[-0.1252,42.228,1135.1036],[-0.1247,42.2178,1000.0505],[-0.1345,42.2084,687.296],[-0.1418,42.2042,571.5149],[-0.1442,42.1954,539.7],[-0.1424,42.1945,530.316],[-0.1393,42.186,519.0247],[-0.1305,42.1819,592.0141],[-0.1242,42.1812,627.9232],[-0.1237,42.1794,602.2211],[-0.1313,42.1752,531.4731],[-0.1296,42.1723,511.2615],[-0.1318,42.1691,473.0571],[-0.1302,42.1668,468.5141],[-0.1187,42.1616,468.8064],[-0.1181,42.1565,459.8716],[-0.1052,42.144,486.3391],[-0.106,42.1423,436.3783],[-0.1011,42.1386,445.5452],[-0.1016,42.137,442.5652],[-0.0972,42.1349,490.1042],[-0.0998,42.1323,472.4189],[-0.1022,42.1245,423.1644],[-0.109,42.1208,428.2927],[-0.1048,42.1139,435.8361],[-0.1075,42.1031,419.3619],[-0.1069,42.0977,419.1265],[-0.1087,42.0933,410.2392],[-0.1114,42.0919,414.3164],[-0.1071,42.0904,423.1361],[-0.1101,42.0862,422.2645],[-0.1068,42.0844,414.3715],[-0.1118,42.0822,399.341],[-0.1134,42.0781,402.2248],[-0.119,42.0766,419.6987],[-0.1149,42.0688,393.6383],[-0.1052,42.0708,443.0333],[-0.101,42.0664,464.2227],[-0.1001,42.0619,460.8259],[-0.0972,42.0597,485.0916],[-0.095,42.0407,476.2359],[-0.0929,42.0379,477.0358],[-0.0709,42.0345,474.3081],[-0.0664,42.0312,506.22],[-0.0675,42.0183,476.121],[-0.0689,42.0163,465.4409],[-0.0715,42.016,464.152],[-0.0694,42.0141,462.6268],[-0.0718,42.0128,456.2573],[-0.0747,42.0052,439.7982],[-0.0722,42.0044,449.5568],[-0.0769,42.0009,449.6602],[-0.0763,41.9986,443.5105],[-0.0786,41.9988,432.8273],[-0.0862,41.9887,403.8367],[-0.0839,41.986,403.1412],[-0.0846,41.9821,401.5157],[-0.0703,41.9828,438.7828],[-0.0579,41.9797,434.1168],[-0.0649,41.9604,440.1971],[-0.0407,41.9362,394.2577],[-0.0339,41.927,420.6436],[-0.0244,41.9386,418.1238],[0.0109,41.9296,498.0784],[0.0109,41.922,497.3834],[0.014,41.9209,491.6357],[0.0128,41.9138,487.8301],[0.0174,41.9098,488.3],[0.0207,41.8968,469.4183],[0.0098,41.8827,469.4344],[0.0038,41.8712,467.0679],[0.0078,41.863,440.6718],[0.0166,41.8636,360.5312],[0.0259,41.8678,337.1362],[0.0329,41.8843,332.5313],[0.0438,41.8843,310.6532],[0.049,41.8868,298.2199],[0.0608,41.9067,288.9349],[0.0708,41.9125,282.3314],[0.0864,41.906,266.7261],[0.0897,41.9195,272.6654],[0.0832,41.9307,293.7288],[0.0776,41.9334,300.2079]]]]}
,"properties": {"GID_3": "ESP.2.1.3_1","GID_0": "ESP","country": "Spain","GID_1": "ESP.2_1","province": "Aragón","NL_NAME_1": "NA","GID_2": "ESP.2.1_1","county": "Huesca","NL_NAME_2": "NA","city": "n.a.(127)","VARNAME_3": "NA","NL_NAME_3": "NA","TYPE_3": "Comarca","ENGTYPE_3": "Comarca","CC_3": "NA","HASC_3": "NA","name": "n.a.(127).city","area_km2": 1156.7259,"hist_schema_id": "Elevation0-9000","hist_area_km2": {"250": 0.3627,"275": 10.9882,"300": 33.545,"325": 50.1186,"350": 59.4888,"375": 71.498,"400": 72.8235,"425": 83.9615,"450": 78.7573,"475": 64.8644,"500": 61.0805,"525": 50.0624,"550": 43.225,"575": 40.1053,"600": 35.2584,"625": 31.3381,"650": 29.8716,"675": 28.3124,"700": 27.5218,"725": 26.7006,"750": 24.6571,"775": 23.3057,"800": 20.7599,"825": 19.6587,"850": 17.8982,"875": 13.8015,"900": 12.1528,"925": 9.5144,"950": 7.9443,"975": 7.6938,"1000": 8.0858,"1025": 8.0831,"1050": 8.8809,"1075": 9.0517,"1100": 7.6234,"1125": 7.608,"1150": 7.3889,"1175": 5.601,"1200": 5.0678,"1225": 4.0633,"1250": 3.4987,"1275": 3.7182,"1300": 3.1692,"1325": 3.0592,"1350": 2.8711,"1375": 2.3217,"1400": 1.2861,"1425": 0.7999,"1450": 0.6901,"1475": 0.5019,"1500": 0.5646,"1525": 0.4078,"1550": 0.549,"1575": 0.4392,"1600": 0.6745,"1625": 0.5333,"1650": 0.5803,"1675": 0.6901,"1700": 0.4862,"1725": 0.3451,"1750": 0.2353,"1775": 0.2196,"1800": 0.0941,"1825": 0.1255,"1850": 0.1412}}}