{"type":"Feature","properties":{"featurecla":"River","scalerank":6,"rivernum":304,"dissolve":"304River","name":"Duero1","name_alt":null,"note":null,"min_zoom":5.0,"strokeweig":0.2,"name_en":"Duero","min_label":6.0},
"geometry":{"type": "LineString","coordinates": [[-2.3571044921874891,41.60529205936912,974.8519],[-2.3697265624999768,41.59943268436912,964.7393],[-2.415283203125,41.58759186405662,966.5265],[-2.4533203124999829,41.58222077030662,1025.9497],[-2.4678710937499768,41.572870184369116,974.5228],[-2.4776367187499768,41.557879949994117,1023.1995],[-2.4874023437499768,41.53766510624412,951.8159],[-2.512451171875,41.50739166874412,938.9828],[-2.54541015625,41.49347565311912,939.0092],[-2.5836669921874891,41.491083074994116,955.5316],[-2.6893798828124891,41.502948309369117,964.1091],[-2.69970703125,41.50629303593162,960.5891],[-2.7114746093749891,41.516864324994117,983.3669],[-2.738037109375,41.51605866093162,951.2894],[-2.7828857421874891,41.50971100468162,925.5969],[-2.8116210937499768,41.53339264530662,922.5648],[-2.8309082031249768,41.53961823124412,958.1809],[-2.854248046875,41.52704498905662,921.5792],[-2.869384765625,41.51605866093162,898.1077],[-2.8892578124999768,41.50629303593162,904.9018],[-2.90966796875,41.499042059369117,890.1843],[-2.9263183593749891,41.49542877811912,890.585],[-2.9695312499999891,41.49750397343162,897.1277],[-2.9917968749999768,41.501239324994117,902.4236],[-3.0013183593749768,41.50629303593162,906.0493],[-3.0049804687499768,41.53180573124412,948.3416],[-3.0149902343749768,41.53961823124412,916.4822],[-3.0301269531249768,41.53693268436912,906.0833],[-3.0686523437499891,41.52435944218162,877.7363],[-3.0791015625,41.52240631718162,876.8436],[-3.0907470703124891,41.52338287968162,872.7698],[-3.0957519531249891,41.52741119999412,876.4469],[-3.0994628906249768,41.53436920780662,876.8058],[-3.1048339843749768,41.54096100468162,876.8585],[-3.1226562499999768,41.546991278119116,865.4391],[-3.136962890625,41.56110260624412,906.5333],[-3.1487792968749768,41.564325262494116,886.5081],[-3.1602050781249891,41.56549713749412,897.9875],[-3.1671630859374891,41.56867096561912,902.8733],[-3.18017578125,41.57794830936912,943.718],[-3.22998046875,41.60175202030662,914.6366],[-3.2446777343749891,41.60529205936912,960.272],[-3.3089355468749768,41.598260809369116,895.8777],[-3.330322265625,41.59906647343162,908.8727],[-3.3460449218749768,41.60455963749412,924.0516],[-3.3802246093749768,41.62250397343162,891.9521],[-3.3958007812499891,41.62641022343162,930.1546],[-3.4192382812499891,41.62787506718162,908.9783],[-3.43798828125,41.631854559369117,908.3403],[-3.4925292968749768,41.65363190311912,904.9296],[-3.5083984374999768,41.65729401249412,864.9057],[-3.5242187499999891,41.655389715619116,855.0227],[-3.5425781249999768,41.646258856244117,836.6992],[-3.5591796874999768,41.655780340619117,848.6364],[-3.5767578124999768,41.66229889530662,838.8452],[-3.5953857421874891,41.666131903119116,841.8463],[-3.65625,41.667352606244116,812.5591],[-3.6658203124999891,41.670038153119116,802.4815],[-3.6770996093749768,41.68305084843162,807.7678],[-3.6866210937499768,41.68781159061912,820.1373],[-3.697998046875,41.68842194218162,836.4579],[-3.70703125,41.685907293744116,824.6069],[-3.7145263671874891,41.68268463749412,816.9313],[-3.7213623046874891,41.681024481244116,803.6394],[-3.747314453125,41.686786199994117,823.3698],[-3.7818359374999768,41.68952057499412,802.5806],[-3.8010742187499891,41.69403717655662,801.3646],[-3.8573242187499939,41.71527741093162,796.9432],[-3.8748535156249768,41.71686432499412,820.7165],[-3.9097656249999768,41.71515534061912,792.2983],[-3.9229492187499768,41.71295807499412,788.1881],[-3.9282714843749891,41.707294012494117,776.5777],[-3.9310791015624891,41.699579168744116,811.7042],[-3.936767578125,41.69122955936912,800.4492],[-4.0147460937499773,41.63043854374412,876.3861],[-4.032958984375,41.62641022343162,892.9208],[-4.1111816406249773,41.63263580936912,783.4503],[-4.1304687499999773,41.64313385624412,855.0408],[-4.1390869140624886,41.646258856244117,761.7118],[-4.1509765624999773,41.648456121869117,756.9736],[-4.1575683593749773,41.64813873905662,752.0952],[-4.1645019531249829,41.646991278119117,757.7145],[-4.2557861328124886,41.65143463749412,779.417],[-4.265869140625,41.654169012494116,822.2939],[-4.2801269531249773,41.66254303593162,779.349],[-4.2898925781249773,41.66510651249412,884.9011],[-4.3023437499999773,41.66461823124412,836.9187],[-4.42724609375,41.64130280155662,870.0468],[-4.4854492187499773,41.64398834843162,750.3651],[-4.5059570312499773,41.64069244999412,732.5676],[-4.5439941406249886,41.62384674686912,721.5309],[-4.6720458984374886,41.58820221561912,733.6257],[-4.708251953125,41.58258698124412,713.6788],[-4.7307617187499886,41.58234284061912,701.8978],[-4.7935546874999773,41.58942291874412,686.4348],[-4.8201660156249773,41.588153387494117,683.2895],[-4.8341796874999829,41.583270574994117,681.0966],[-4.8590820312499829,41.55524323124412,678.4644],[-4.8887695312499773,41.53461334843162,678.8187],[-4.925537109375,41.52460358280662,691.9186],[-5.0481933593749773,41.515497137494116,704.9512],[-5.0732910156249886,41.50995514530662,689.8995],[-5.0884277343749886,41.50372955936912,701.189],[-5.1061279296874886,41.49091217655662,688.4532],[-5.123291015625,41.48456452030662,692.9691],[-5.1669189453124886,41.48016998905662,689.4694],[-5.1898925781249829,41.47443268436912,684.7076],[-5.2217285156249886,41.45612213749412,706.9174],[-5.2389404296874886,41.45221588749412,720.8505],[-5.2587890625,41.44135162968162,678.1487],[-5.271240234375,41.43732330936912,667.326],[-5.2767822265624886,41.44257233280662,666.2264],[-5.2815429687499886,41.452997137494116,650.4506],[-5.292236328125,41.461932684369117,655.21],[-5.3108886718749773,41.47333405155662,653.8401],[-5.329833984375,41.49310944218162,650.4677],[-5.338134765625,41.49982330936912,649.7544],[-5.3984375,41.53143952030662,713.9493],[-5.4139160156249773,41.54218170780662,706.6403],[-5.4362060546874886,41.53327057499412,698.0817],[-5.488037109375,41.52252838749412,752.8146],[-5.5393554687499886,41.52033112186912,637.1759],[-5.5523437499999773,41.52313873905662,634.9698],[-5.5579589843749773,41.53168366093162,680.1613],[-5.5625,41.541620184369116,675.0142],[-5.573486328125,41.53986237186912,654.8021],[-5.5989746093749773,41.528583074994117,635.7089],[-5.6121093749999886,41.52814362186912,633.4986],[-5.6473144531249773,41.534784246869116,632.4092],[-5.7412597656249886,41.53107330936912,655.3793],[-5.783935546875,41.521112371869116,685.0145],[-5.7852539062499773,41.52106354374412,685.0145],[-5.7895019531249829,41.51996491093162,689.6427],[-5.7961914062499886,41.516229559369116,696.0013],[-5.805419921875,41.508417059369116,674.8521],[-5.8223632812499773,41.48627350468162,615.7771],[-5.8301757812499773,41.483172918744117,664.6855],[-5.83935546875,41.49335358280662,732.4445],[-5.8479980468749773,41.508417059369116,672.4665],[-5.8543457031249773,41.516620184369117,619.6045],[-5.85986328125,41.51911041874412,605.4304],[-5.86572265625,41.517206121869116,607.426],[-5.871826171875,41.51154205936912,617.3646],[-5.8771240234374886,41.502948309369117,625.233],[-5.8857910156249886,41.48212311405662,605.3708],[-5.8911621093749886,41.46320221561912,649.5626],[-5.8971435546874886,41.458368231244116,695.0298],[-6.011474609375,41.475360418744117,761.6061],[-6.01806640625,41.47785065311912,756.1398],[-6.0264648437499773,41.485858465619117,723.933],[-6.037109375,41.494012762494116,697.7065],[-6.0556640625,41.50031159061912,737.0063],[-6.1052734374999886,41.55621979374412,702.5381],[-6.1600830078124886,41.594598699994116,728.3389],[-6.1739990234374886,41.596307684369116,721.1068],[-6.1922363281249773,41.586297918744116,667.09]]}}