{"type":"Feature","properties":{"GID_3":"ESP.2.2.2_1","GID_0":"ESP","country":"Spain","GID_1":"ESP.2_1","province":"Aragón","NL_NAME_1":"NA","GID_2":"ESP.2.2_1","county":"Teruel","NL_NAME_2":"NA","city":"n.a.(249)","VARNAME_3":"NA","NL_NAME_3":"NA","TYPE_3":"Comarca","ENGTYPE_3":"Comarca","CC_3":"NA","HASC_3":"NA","name":"n.a.(249).city"},
"geometry":{"type": "MultiPolygon","coordinates": [[[[-0.7361,40.5846,1446.1406],[-0.7346,40.5873,1436.0857],[-0.7256,40.5912,1439.464],[-0.7258,40.595,1430.976],[-0.7213,40.5989,1423.8091],[-0.7154,40.5962,1332.2781],[-0.7079,40.5974,1209.2356],[-0.6939,40.5956,1218.447],[-0.6875,40.5979,1243.3368],[-0.6738,40.5851,1433.0201],[-0.6617,40.5617,1463.6012],[-0.662,40.5562,1455.8276],[-0.6578,40.558,1424.8535],[-0.6555,40.5555,1429.3135],[-0.6472,40.552,1434.5499],[-0.6389,40.5578,1590.5793],[-0.6367,40.5611,1592.5018],[-0.6374,40.5651,1576.7482],[-0.6298,40.571,1446.5171],[-0.6302,40.5761,1437.8687],[-0.6392,40.5868,1418.3635],[-0.6419,40.5875,1423.2667],[-0.6515,40.5961,1498.3639],[-0.6512,40.5996,1494.9396],[-0.6478,40.6027,1497.0898],[-0.6473,40.6124,1450.2732],[-0.644,40.6115,1409.6094],[-0.6419,40.6195,1409.906],[-0.6355,40.6239,1466.7791],[-0.6372,40.6276,1461.8518],[-0.6359,40.6326,1459.3595],[-0.6276,40.6383,1460.8524],[-0.6293,40.6482,1496.4734],[-0.6229,40.6567,1506.8324],[-0.6206,40.6634,1479.6917],[-0.624,40.6686,1421.1306],[-0.6192,40.6745,1364.3334],[-0.6208,40.6768,1353.4849],[-0.6093,40.6813,1233.095],[-0.6055,40.6861,1048.9532],[-0.6087,40.6917,924.2582],[-0.6081,40.697,1112.687],[-0.6138,40.7036,1318.2402],[-0.608,40.7087,1315.644],[-0.6018,40.7259,1459.1791],[-0.5791,40.714,1181.4121],[-0.5486,40.7128,1139.0939],[-0.5619,40.6893,1145.8542],[-0.5547,40.6909,1038.0276],[-0.5327,40.6906,1015.8572],[-0.513,40.6955,1079.3513],[-0.506,40.7019,1217.371],[-0.4775,40.7121,1154.7393],[-0.4832,40.7129,1149.3118],[-0.4894,40.7233,1161.38],[-0.4901,40.7275,1152.6609],[-0.4903,40.7315,1160.8677],[-0.4868,40.739,1207.3721],[-0.4815,40.7452,1146.8623],[-0.4795,40.7513,1211.0908],[-0.4884,40.7618,1227.9521],[-0.4961,40.7672,1134.4958],[-0.4954,40.7722,1119.9028],[-0.493,40.7746,1095.9441],[-0.4972,40.7795,1148.646],[-0.5035,40.7808,1137.7908],[-0.504,40.7882,1118.6865],[-0.5208,40.8135,997.1013],[-0.5233,40.8157,895.5524],[-0.5322,40.8167,929.5469],[-0.5499,40.8258,1062.6901],[-0.5551,40.8256,1066.8842],[-0.5571,40.8233,1075.6863],[-0.5507,40.8352,1040.6974],[-0.5461,40.8396,1058.5883],[-0.5466,40.8436,1028.6549],[-0.5513,40.8474,975.4539],[-0.5572,40.8471,1078.3071],[-0.5594,40.8662,960.1506],[-0.5498,40.8726,929.1443],[-0.5431,40.8818,895.4855],[-0.5348,40.8993,843.8481],[-0.5221,40.9118,905.0505],[-0.5197,40.9172,884.2685],[-0.5439,40.9264,790.6395],[-0.552,40.9317,821.1952],[-0.5797,40.9387,765.5125],[-0.5869,40.9422,727.6106],[-0.5938,40.9482,621.5],[-0.6111,40.939,757.5712],[-0.6249,40.9402,807.8418],[-0.6274,40.9364,812.4529],[-0.6297,40.9368,803.9834],[-0.634,40.9345,800.1709],[-0.6324,40.9377,789.405],[-0.6409,40.9446,794.2303],[-0.6558,40.9506,797.604],[-0.6612,40.9562,793.3121],[-0.6614,40.96,790.6194],[-0.6639,40.9623,798.9011],[-0.66,40.9701,793.6683],[-0.6655,40.973,800.9881],[-0.666,40.9755,745.1252],[-0.6767,40.9799,681.8741],[-0.6908,40.981,625.3351],[-0.7003,40.9848,621.0353],[-0.7014,40.9869,716.0564],[-0.7297,40.9905,684.187],[-0.7333,40.9942,645.116],[-0.7442,40.9962,616.0914],[-0.7591,40.9941,638.2299],[-0.7734,40.995,662.8448],[-0.7781,40.9918,701.2711],[-0.7903,40.9926,729.6616],[-0.7996,40.9955,777.5796],[-0.801,40.9976,784.5928],[-0.8075,41.0001,836.4374],[-0.8074,41.0125,842.1302],[-0.8114,41.0158,822.1254],[-0.8138,41.0137,837.1005],[-0.8311,41.0228,809.8012],[-0.835,41.0227,818.769],[-0.8437,41.0288,843.8505],[-0.8458,41.0258,838.3763],[-0.8576,41.0194,884.4047],[-0.8885,41.0326,879.2354],[-0.8901,41.0358,877.6144],[-0.9053,41.0447,887.0549],[-0.917,41.0492,887.4411],[-0.9246,41.0554,926.1581],[-0.9343,41.0585,911.7336],[-0.9506,41.0493,936.8348],[-0.951,41.0452,949.9512],[-0.9588,41.0325,957.1078],[-0.9641,41.0189,986.5184],[-0.9719,41.0235,971.7389],[-0.9717,41.0262,974.5688],[-0.9659,41.0329,956.8786],[-0.9621,41.0344,962.4578],[-0.9571,41.0462,921.8976],[-0.9601,41.0569,902.1234],[-0.9583,41.0616,895.3593],[-0.9613,41.064,864.4475],[-0.9588,41.0669,862.9165],[-0.958,41.0714,863.2153],[-0.9594,41.0744,846.6917],[-0.9572,41.0764,867.4966],[-0.9606,41.0781,833.2252],[-0.9627,41.0821,854.3447],[-0.9818,41.0922,867.8491],[-0.9895,41.0912,861.1151],[-0.9985,41.0952,919.4708],[-1.0005,41.1147,915.9951],[-0.9956,41.1192,901.2508],[-0.9842,41.1391,866.4374],[-0.9724,41.1535,819.3928],[-0.9807,41.1451,850.1712],[-0.9857,41.1438,864.9509],[-1.0008,41.134,934.5296],[-1.0125,41.1347,925.2955],[-1.0281,41.1382,886.0112],[-1.0352,41.1371,899.2673],[-1.0393,41.1347,907.1764],[-1.0445,41.1408,872.2765],[-1.0612,41.1517,839.197],[-1.0861,41.1641,944.9509],[-1.0964,41.1628,1041.4956],[-1.1004,41.1639,1181.4797],[-1.1047,41.1677,1304.8065],[-1.117,41.1555,1048.1085],[-1.1176,41.1509,997.1902],[-1.1131,41.1428,944.7953],[-1.1212,41.1389,967.8376],[-1.1215,41.1349,999.7028],[-1.1563,41.129,1115.4556],[-1.1547,41.1277,1160.4198],[-1.1669,41.1264,1150.6514],[-1.1739,41.1237,1216.0127],[-1.177,41.1281,1165.5283],[-1.1924,41.127,1020.2977],[-1.2099,41.1388,1094.7544],[-1.2152,41.1375,1026.9756],[-1.2271,41.1302,967.9337],[-1.2493,41.1256,933.277],[-1.2546,41.1226,954.7451],[-1.267,41.1055,957.233],[-1.2713,41.1033,962.7252],[-1.2568,41.0867,992.7317],[-1.2532,41.0773,1012.3771],[-1.2637,41.0615,1017.7041],[-1.2709,41.0548,1037.6805],[-1.2814,41.0559,1031.2954],[-1.2874,41.0489,1025.3649],[-1.2679,41.032,1048.0898],[-1.239,41.032,1057.9451],[-1.2318,41.0236,1055.9583],[-1.2203,41.0158,1070.937],[-1.2158,41.0098,1083.7623],[-1.2082,41.0064,1098.6002],[-1.1868,41.0075,1149.6252],[-1.1758,41.0169,1307.7755],[-1.1686,41.0172,1344.2218],[-1.1491,41.0108,1452.2047],[-1.1456,41.0075,1467.4987],[-1.1458,41.0006,1443.9722],[-1.1382,40.9995,1447.848],[-1.138,41.0056,1487.244],[-1.1246,41.0017,1477.4481],[-1.1124,40.9936,1490.9254],[-1.1129,40.9922,1490.9254],[-1.1065,40.9894,1455.6985],[-1.0987,40.9752,1380.647],[-1.1001,40.9638,1357.8385],[-1.1092,40.9322,1260.7109],[-1.1167,40.9242,1164.8345],[-1.1243,40.9102,1084.3281],[-1.1213,40.8985,1117.0212],[-1.1072,40.8789,1105.3962],[-1.123,40.8683,1164.5984],[-1.1286,40.8618,1182.6373],[-1.1391,40.8625,1161.7468],[-1.1448,40.8569,1180.011],[-1.1598,40.8518,1177.825],[-1.1669,40.8455,1221.2584],[-1.1634,40.8335,1267.4871],[-1.1667,40.8218,1285.5067],[-1.1646,40.806,1302.0662],[-1.1731,40.794,1373.5183],[-1.1688,40.7917,1399.3296],[-1.1481,40.7869,1333.1274],[-1.1438,40.7779,1335.1561],[-1.1438,40.7602,1327.5051],[-1.1246,40.7599,1293.3002],[-1.0963,40.7523,1307.4036],[-1.081,40.7459,1326.0127],[-1.0526,40.7232,1287.1135],[-1.0379,40.7013,1214.6104],[-1.0336,40.6887,1186.181],[-1.0332,40.6773,1162.3425],[-1.0284,40.6801,1167.4148],[-1.0204,40.6817,1184.8445],[-1.0174,40.6897,1196.8159],[-0.9976,40.6997,1225.816],[-0.9912,40.7087,1234.7327],[-0.9786,40.7129,1237.7567],[-0.9664,40.7116,1289.129],[-0.951,40.7136,1408.0182],[-0.9469,40.7154,1417.4724],[-0.9429,40.7205,1405.11],[-0.9432,40.724,1414.5167],[-0.9377,40.7297,1385.6604],[-0.924,40.7331,1348.1331],[-0.9029,40.7151,1377.939],[-0.8939,40.7118,1412.9443],[-0.8888,40.7038,1409.2875],[-0.8815,40.6983,1424.6703],[-0.8658,40.6956,1433.1658],[-0.8569,40.6821,1416.7358],[-0.8511,40.6816,1402.6521],[-0.8465,40.6792,1402.9739],[-0.8471,40.6761,1393.5833],[-0.845,40.6729,1407.5907],[-0.8359,40.6627,1424.6907],[-0.8316,40.6597,1404.3701],[-0.8246,40.6588,1408.8142],[-0.8194,40.6519,1437.8856],[-0.8268,40.6424,1397.8374],[-0.8251,40.6366,1371.2129],[-0.8287,40.6317,1207.1438],[-0.8258,40.6261,1255.45],[-0.8264,40.6175,1367.3792],[-0.8191,40.6176,1326.9988],[-0.8033,40.6094,1340.8328],[-0.7901,40.6093,1329.7382],[-0.781,40.6039,1335.2766],[-0.7704,40.6008,1306.4491],[-0.7578,40.5864,1415.1995],[-0.75,40.583,1429.2955],[-0.7361,40.5846,1446.1406]]]]}}