{"type": "Feature","bbox": [-7.0339,41.8709,-6.1023,42.2542],"geometry": {"type": "MultiPolygon","coordinates": [[[[-6.1577,41.874,1102.3947],[-6.1519,41.8709,1103.5731],[-6.144,41.8732,1119.0215],[-6.1364,41.8974,862.5008],[-6.1679,41.9135,1063.2649],[-6.1632,41.9205,974.775],[-6.1551,41.9225,1041.7697],[-6.1521,41.9267,1005.6413],[-6.1489,41.9281,992.0945],[-6.1336,41.9244,952.1628],[-6.1301,41.9221,939.99],[-6.1157,41.9234,985.5534],[-6.1112,41.931,823.6693],[-6.1023,41.9291,819.3313],[-6.1109,41.9484,808.3384],[-6.1364,41.9667,805.298],[-6.1474,41.9704,804.1145],[-6.1582,41.9762,780.5],[-6.1454,41.976,780.0],[-6.1474,41.9828,795.4343],[-6.1454,41.9844,791.6385],[-6.1549,41.9881,830.5647],[-6.1684,41.987,816.6251],[-6.176,41.9906,797.6481],[-6.176,41.9892,799.8798],[-6.1992,41.994,848.8767],[-6.1988,42.0018,814.3232],[-6.1952,42.0046,807.1426],[-6.2017,42.0128,814.9684],[-6.2051,42.0138,841.5986],[-6.209,42.0204,831.696],[-6.2067,42.022,833.4526],[-6.1988,42.0387,833.0027],[-6.1796,42.045,819.3408],[-6.1704,42.0558,798.4601],[-6.1703,42.07,806.811],[-6.1646,42.0752,794.762],[-6.1696,42.1024,812.113],[-6.178,42.1065,814.6782],[-6.2137,42.1122,855.0981],[-6.2146,42.1179,849.7466],[-6.213,42.1212,833.8029],[-6.2069,42.1231,842.8507],[-6.2019,42.1331,844.6348],[-6.2123,42.1481,890.1335],[-6.2186,42.151,904.1876],[-6.2257,42.1619,962.3549],[-6.2421,42.1676,1039.5],[-6.254,42.167,1100.9532],[-6.2518,42.173,1221.6222],[-6.2777,42.1789,1095.7654],[-6.2936,42.178,1130.8925],[-6.2941,42.1822,1058.0338],[-6.2983,42.1836,1066.8572],[-6.3029,42.1921,1164.6149],[-6.3068,42.2029,1297.3694],[-6.3125,42.2066,1498.8649],[-6.3208,42.2024,1477.2186],[-6.3234,42.2035,1467.5552],[-6.3293,42.1998,1476.0663],[-6.3416,42.2051,1515.4685],[-6.347,42.2005,1534.2852],[-6.3804,42.2015,1656.64],[-6.3815,42.2031,1669.743],[-6.3974,42.2008,1744.1938],[-6.3983,42.1979,1729.5427],[-6.4101,42.1957,1677.8813],[-6.4228,42.1989,1778.9236],[-6.4278,42.2019,1803.5339],[-6.4379,42.1983,1803.7849],[-6.4421,42.1935,1820.7261],[-6.4597,42.1971,1873.748],[-6.4613,42.1952,1872.2806],[-6.4687,42.1929,1885.2379],[-6.4781,42.1822,1877.8491],[-6.4903,42.1841,1840.8116],[-6.4919,42.1824,1900.0803],[-6.4974,42.182,1913.3049],[-6.4997,42.1838,1912.505],[-6.5082,42.1843,1984.4974],[-6.5041,42.1892,2016.5979],[-6.5065,42.1907,2047.3713],[-6.5059,42.194,2103.8066],[-6.5259,42.2033,1905.0791],[-6.5295,42.2027,1887.5974],[-6.5576,42.2071,1869.3916],[-6.5736,42.2049,1824.0972],[-6.5875,42.208,1896.2549],[-6.5935,42.2064,1834.8108],[-6.597,42.2035,1868.8119],[-6.6037,42.204,1891.7363],[-6.607,42.2059,1928.4475],[-6.6131,42.2032,1950.1213],[-6.6161,42.2044,1941.4591],[-6.6187,42.2094,1903.6538],[-6.6233,42.2122,1978.0022],[-6.6298,42.212,1998.3176],[-6.6385,42.2173,1982.1074],[-6.6478,42.2169,1992.0927],[-6.6546,42.213,2002.9467],[-6.6708,42.2125,1900.8718],[-6.6742,42.2144,1915.9551],[-6.6892,42.2147,1955.1459],[-6.699,42.2098,1948.4524],[-6.7037,42.2094,1910.9785],[-6.7113,42.214,1955.3568],[-6.7196,42.2133,2014.6061],[-6.7236,42.2169,2003.6608],[-6.7227,42.2197,1945.91],[-6.7251,42.2234,1970.1367],[-6.7331,42.224,2016.5631],[-6.7353,42.2279,1978.7837],[-6.7353,42.2302,1944.8286],[-6.7329,42.2317,1945.4264],[-6.7347,42.2356,1996.8071],[-6.7428,42.2402,2054.04],[-6.759,42.2386,2038.2559],[-6.7658,42.2455,1850.2003],[-6.7874,42.2542,1985.8877],[-6.794,42.2494,2091.6934],[-6.7928,42.2466,2064.2571],[-6.7957,42.2423,2097.449],[-6.8013,42.2408,2023.7168],[-6.803,42.2387,2031.4871],[-6.8017,42.2345,2007.4873],[-6.7949,42.2277,2007.1577],[-6.7949,42.2245,1951.6108],[-6.7908,42.2183,1889.6243],[-6.787,42.2157,1936.5812],[-6.7946,42.2122,1936.5544],[-6.7966,42.209,1894.5441],[-6.8022,42.2184,1795.7256],[-6.8158,42.2208,1761.8771],[-6.8296,42.2261,1683.8307],[-6.8435,42.2283,1625.6562],[-6.8566,42.2271,1721.45],[-6.8678,42.2231,1637.0892],[-6.8697,42.2237,1637.0892],[-6.8867,42.2143,1738.4387],[-6.8931,42.2072,1745.8828],[-6.8887,42.2018,1673.7828],[-6.9009,42.1896,1685.9089],[-6.9109,42.1884,1642.772],[-6.9146,42.1894,1601.2982],[-6.9382,42.1774,1486.8943],[-6.9434,42.1722,1520.9575],[-6.9409,42.1668,1487.2026],[-6.9465,42.1456,1215.1709],[-6.9444,42.1417,1330.9109],[-6.9563,42.1294,1405.2377],[-6.9652,42.1285,1425.8987],[-6.9732,42.1247,1325.0146],[-6.9814,42.1233,1216.0723],[-6.9863,42.1242,1042.5421],[-6.9897,42.1213,1041.3353],[-6.989,42.1165,1048.8247],[-6.9908,42.1151,1034.5],[-6.9887,42.1119,1034.5],[-6.9893,42.1077,1034.5],[-6.9917,42.1066,1067.5883],[-6.9921,42.1047,1047.0032],[-6.9899,42.1025,1034.5],[-6.9913,42.0995,1017.2858],[-6.9945,42.0997,1008.0562],[-6.995,42.1016,1006.5812],[-6.9978,42.1008,1015.8009],[-7.0027,42.0963,1006.3821],[-7.002,42.091,1009.11],[-7.0002,42.0897,992.6849],[-7.003,42.0877,984.0842],[-7.0031,42.0839,984.5519],[-7.0123,42.0851,976.9111],[-7.0168,42.0812,981.1778],[-7.0199,42.0831,960.8871],[-7.0334,42.0742,1391.1766],[-7.0339,42.0715,1413.2279],[-7.0309,42.0633,1456.5173],[-7.0219,42.0609,1353.9661],[-7.0125,42.0527,1105.5365],[-6.9945,42.0514,1306.5232],[-6.9746,42.0551,1635.1083],[-6.973,42.0391,1343.3248],[-6.9645,42.0337,1240.1316],[-6.961,42.0272,1457.9175],[-6.9663,42.0238,1373.1157],[-6.9695,42.0153,1142.9873],[-6.9762,42.009,1052.5121],[-6.9794,42.0002,1013.5721],[-6.9869,41.997,1000.4512],[-6.9863,41.9948,993.632],[-6.9915,41.9859,957.0869],[-6.9834,41.9729,979.7968],[-6.9793,41.9738,979.3336],[-6.9578,41.9689,989.7329],[-6.9503,41.9538,846.2949],[-6.9472,41.951,766.6367],[-6.9443,41.9446,925.7932],[-6.9415,41.9439,937.5082],[-6.9332,41.9464,994.6267],[-6.9259,41.9439,1021.7256],[-6.9116,41.9441,1063.3461],[-6.892,41.9398,1138.547],[-6.8851,41.9403,1113.1129],[-6.8747,41.9438,1057.9927],[-6.8695,41.9484,1058.1603],[-6.8488,41.9424,947.705],[-6.8337,41.9443,1083.6943],[-6.8305,41.9435,1187.9084],[-6.8216,41.946,1266.5837],[-6.81,41.9695,1286.5793],[-6.8113,41.9925,1470.2642],[-6.7979,41.9886,1440.9238],[-6.7855,41.9887,1405.6011],[-6.7687,41.9841,1332.2118],[-6.7673,41.9747,1287.5974],[-6.7506,41.9436,1180.7526],[-6.7262,41.937,809.3236],[-6.7148,41.9388,737.4727],[-6.7145,41.9376,739.757],[-6.7,41.9333,848.0024],[-6.6357,41.942,856.6151],[-6.6214,41.9397,810.9522],[-6.617,41.9412,724.592],[-6.6152,41.945,726.1985],[-6.6097,41.9481,749.3575],[-6.5994,41.9483,814.2606],[-6.5891,41.9629,1033.3204],[-6.5883,41.9675,1062.8843],[-6.5701,41.9581,1001.4583],[-6.5494,41.9445,949.0767],[-6.5465,41.9394,857.9258],[-6.5462,41.9305,732.2117],[-6.5389,41.9252,862.186],[-6.504,41.9236,1011.3821],[-6.4874,41.9245,1048.3411],[-6.4658,41.9227,1210.1771],[-6.4673,41.9259,1191.8302],[-6.4663,41.9308,1132.0181],[-6.4444,41.9263,1100.6536],[-6.4341,41.9205,1049.6841],[-6.423,41.9204,1138.9628],[-6.4213,41.9229,1113.2458],[-6.4122,41.9225,1089.6263],[-6.406,41.924,983.2354],[-6.4012,41.921,1025.2841],[-6.388,41.937,850.8897],[-6.3807,41.9335,855.8813],[-6.3743,41.9336,849.7274],[-6.3749,41.9523,913.7782],[-6.374,41.9537,913.7782],[-6.3672,41.9554,926.2052],[-6.3522,41.9402,862.1505],[-6.3432,41.9342,855.4493],[-6.3399,41.9329,834.0378],[-6.3372,41.9353,832.235],[-6.326,41.9302,840.988],[-6.3249,41.9286,849.2507],[-6.3274,41.9004,1130.3621],[-6.3176,41.8964,1137.724],[-6.3024,41.8963,1149.3066],[-6.2823,41.8882,1147.6379],[-6.2769,41.8898,1120.1665],[-6.2742,41.8927,1169.2224],[-6.2559,41.891,1118.801],[-6.2532,41.8932,1163.9027],[-6.2146,41.8769,1096.6879],[-6.214,41.879,1048.9618],[-6.2105,41.8808,1007.9029],[-6.2021,41.8832,1060.7344],[-6.1901,41.8841,1157.0035],[-6.1778,41.8789,1122.9677],[-6.1577,41.874,1102.3947]]]]}
,"properties": {"GID_3": "ESP.5.9.2_1","GID_0": "ESP","country": "Spain","GID_1": "ESP.5_1","province": "CastillayLeón","NL_NAME_1": "NA","GID_2": "ESP.5.9_1","county": "Zamora","NL_NAME_2": "NA","city": "n.a.(269)","VARNAME_3": "NA","NL_NAME_3": "NA","TYPE_3": "Comarca","ENGTYPE_3": "Comarca","CC_3": "NA","HASC_3": "NA","name": "n.a.(269).city","area_km2": 1993.808,"hist_schema_id": "Elevation0-9000","hist_area_km2": {"700": 0.016,"725": 0.899,"750": 3.248,"775": 10.703,"800": 44.355,"825": 105.197,"850": 108.023,"875": 121.787,"900": 124.92,"925": 132.303,"950": 118.999,"975": 104.891,"1000": 95.115,"1025": 78.585,"1050": 67.704,"1075": 59.772,"1100": 49.094,"1125": 41.288,"1150": 37.051,"1175": 32.013,"1200": 32.594,"1225": 29.055,"1250": 28.631,"1275": 27.653,"1300": 27.057,"1325": 24.227,"1350": 23.879,"1375": 24.034,"1400": 23.139,"1425": 21.644,"1450": 21.991,"1475": 21.501,"1500": 21.454,"1525": 22.585,"1550": 23.764,"1575": 26.514,"1600": 28.334,"1625": 29.889,"1650": 29.793,"1675": 29.147,"1700": 24.084,"1725": 20.201,"1750": 16.411,"1775": 14.083,"1800": 13.012,"1825": 11.11,"1850": 7.556,"1875": 7.272,"1900": 6.392,"1925": 5.088,"1950": 4.601,"1975": 4.272,"2000": 4.538,"2025": 1.775,"2050": 0.393,"2075": 0.141,"2100": 0.031}}}