{"type":"Feature","properties":{"GID_3":"ESP.11.1.1_1","GID_0":"ESP","country":"Spain","GID_1":"ESP.11_1","province":"Extremadura","NL_NAME_1":"NA","GID_2":"ESP.11.1_1","county":"Badajoz","NL_NAME_2":"NA","city":"n.a.(39)","VARNAME_3":"NA","NL_NAME_3":"NA","TYPE_3":"Comarca","ENGTYPE_3":"Comarca","CC_3":"NA","HASC_3":"NA","name":"n.a.(39).city"},
"geometry":{"type": "MultiPolygon","coordinates": [[[[-6.5684,39.1207,436.32619999999997],[-6.58,39.1195,347.5943],[-6.5803,39.1246,332.9056],[-6.5777,39.1268,330.7684],[-6.5755,39.1422,316.4954],[-6.5772,39.1551,336.9253],[-6.5741,39.1584,358.1493],[-6.574,39.1677,374.5081],[-6.5781,39.1704,378.4362],[-6.5843,39.1711,386.4638],[-6.5832,39.1754,392.2855],[-6.5791,39.179,409.3328],[-6.58,39.1798,418.9269],[-6.6057,39.188,458.1778],[-6.6147,39.1888,540.4315],[-6.6193,39.1918,506.4468],[-6.6267,39.1919,425.3828],[-6.6268,39.1941,394.5546],[-6.6333,39.1969,376.8777],[-6.6451,39.1934,359.2416],[-6.6596,39.1991,331.2006],[-6.6809,39.1772,476.773],[-6.6891,39.1783,450.0031],[-6.7071,39.1846,412.275],[-6.7399,39.19,409.8565],[-6.7505,39.194,353.6683],[-6.7531,39.1939,360.1316],[-6.7612,39.1885,323.324],[-6.7674,39.1884,337.7179],[-6.7848,39.2015,296.5602],[-6.7877,39.2091,332.1036],[-6.7917,39.2106,301.6526],[-6.7978,39.22,257.3098],[-6.7968,39.2263,276.6331],[-6.8007,39.2311,251.0743],[-6.8007,39.2394,286.7859],[-6.7927,39.2476,270.6509],[-6.7842,39.2529,285.4283],[-6.7788,39.2654,336.424],[-6.7668,39.2697,348.0767],[-6.7617,39.2758,321.6446],[-6.7512,39.3036,307.3381],[-6.7503,39.3124,331.2739],[-6.7471,39.3158,338.4865],[-6.7466,39.3218,366.8577],[-6.7486,39.3258,401.6191],[-6.7706,39.3286,360.597],[-6.7789,39.336,355.906],[-6.7971,39.3448,295.9736],[-6.7948,39.3521,342.2096],[-6.7948,39.3617,343.5302],[-6.7909,39.3675,380.5091],[-6.8014,39.3839,403.6395],[-6.802,39.3895,349.7271],[-6.8113,39.3914,387.698],[-6.8309,39.3884,414.5014],[-6.8468,39.3875,430.0325],[-6.8566,39.3888,451.9272],[-6.8721,39.3824,477.8243],[-6.8831,39.3828,402.6866],[-6.8969,39.3895,499.1421],[-6.9076,39.3889,435.5815],[-6.9239,39.3946,587.4068],[-6.9357,39.3968,578.3887],[-6.9776,39.4125,660.6733],[-6.9806,39.4143,645.1348],[-6.9825,39.4194,534.2377],[-6.9893,39.4198,516.2308],[-6.9953,39.4246,514.5361],[-7.0295,39.4318,511.579],[-7.0321,39.4305,502.8231],[-7.0493,39.4367,551.9948],[-7.0669,39.4143,489.6848],[-7.0496,39.402,479.0065],[-7.0381,39.3965,440.8331],[-7.0174,39.392,425.4812],[-7.0092,39.3885,426.4443],[-7.0187,39.3831,406.1052],[-7.0181,39.3786,390.978],[-7.0213,39.3713,398.2964],[-7.0325,39.3676,430.7095],[-7.0293,39.3592,405.8505],[-7.0299,39.3509,370.2681],[-7.0479,39.3335,421.1231],[-7.0487,39.3294,414.5958],[-7.044,39.3269,408.0396],[-7.0503,39.3216,404.187],[-7.077,39.3102,376.8391],[-7.0812,39.3132,366.3549],[-7.0841,39.323,412.0889],[-7.0826,39.3353,474.2956],[-7.0882,39.3404,467.4887],[-7.102,39.3464,477.2265],[-7.1027,39.3553,470.2101],[-7.0985,39.3591,454.5403],[-7.079,39.3514,438.6894],[-7.0692,39.3667,419.4625],[-7.0629,39.3723,442.1615],[-7.0701,39.3742,442.0864],[-7.0738,39.3812,465.5591],[-7.0797,39.3793,460.0151],[-7.0931,39.38,441.7341],[-7.0987,39.3851,435.4303],[-7.1043,39.386,429.4913],[-7.1188,39.3837,436.2126],[-7.1254,39.3812,429.5833],[-7.1337,39.3748,441.8586],[-7.1371,39.3768,445.1264],[-7.1542,39.3675,496.9539],[-7.1613,39.3608,519.7528],[-7.1614,39.3571,534.7166],[-7.1649,39.3514,516.5699],[-7.1771,39.3376,463.2337],[-7.1766,39.3274,439.3948],[-7.1684,39.3202,357.0165],[-7.1657,39.3261,426.2018],[-7.1601,39.3306,433.9212],[-7.1553,39.3297,421.8921],[-7.1519,39.3215,346.8608],[-7.1554,39.3174,338.1268],[-7.1551,39.3145,332.2413],[-7.1612,39.3121,342.1618],[-7.1696,39.3059,355.0392],[-7.1716,39.2977,333.1759],[-7.1886,39.2847,467.4119],[-7.1942,39.2754,418.2581],[-7.2037,39.2657,505.6555],[-7.2321,39.2789,570.734],[-7.248,39.2534,482.8784],[-7.2458,39.2457,527.0834],[-7.242,39.2422,498.8934],[-7.2417,39.2344,570.9369],[-7.2447,39.2319,536.0776],[-7.2453,39.2276,485.4935],[-7.24,39.2179,550.9777],[-7.2415,39.2083,509.5977],[-7.2281,39.2007,440.4489],[-7.2207,39.1925,402.6682],[-7.2046,39.1865,382.3738],[-7.1937,39.1873,370.9111],[-7.1878,39.1833,360.7499],[-7.1812,39.181399999999996,355.258],[-7.1666,39.1812,345.6469],[-7.156,39.1753,348.7058],[-7.1508,39.1747,338.1954],[-7.1484,39.1722,329.0619],[-7.1406,39.1726,333.4092],[-7.1345,39.171,322.9051],[-7.1341,39.1667,323.6179],[-7.1322,39.1647,316.4589],[-7.1344,39.163,329.2835],[-7.1329,39.161,311.5144],[-7.1404,39.1502,297.6804],[-7.1362,39.1447,279.167],[-7.138,39.1414,273.1225],[-7.1421,39.1392,275.1473],[-7.1437,39.1274,257.8355],[-7.1494,39.1216,254.5677],[-7.148,39.1145,247.5],[-7.144,39.1086,247.5],[-7.1053,39.0992,251.7672],[-7.1001,39.105,271.8915],[-7.0782,39.1093,237.3491],[-7.0678,39.1132,231.5309],[-7.0647,39.1128,246.8832],[-7.0557,39.1155,252.7743],[-7.0535,39.1177,248.355],[-7.0388,39.1184,212.3791],[-7.0304,39.1166,226.6341],[-7.0158,39.1093,226.7043],[-7.009,39.1042,225.8796],[-6.996,39.0993,225.7947],[-6.9809,39.0878,217.8669],[-6.9771,39.0806,212.0493],[-6.9704,39.0726,207.4843],[-6.9689,39.0668,208.0497],[-6.963,39.0612,205.5878],[-6.9594,39.0545,200.2154],[-6.9653,39.0424,192.3558],[-6.9539,39.0443,194.1127],[-6.9396,39.0403,197.8872],[-6.9252,39.0398,205.4504],[-6.9124,39.0493,201.0783],[-6.9032,39.0523,187.2062],[-6.9006,39.0557,190.0774],[-6.899,39.061,187.7527],[-6.8999,39.0645,190.7097],[-6.8956,39.0729,188.4422],[-6.8985,39.0825,193.8569],[-6.898,39.0918,194.4254],[-6.8941,39.0972,202.0315],[-6.8909,39.1072,198.3691],[-6.8798,39.1007,225.5847],[-6.8854,39.0842,200.7277],[-6.8832,39.0825,205.9701],[-6.8717,39.0838,214.0536],[-6.8643,39.0823,211.1634],[-6.8669,39.0799,215.9126],[-6.8697,39.0694,243.1224],[-6.8658,39.064,257.4223],[-6.8468,39.0558,236.9736],[-6.8199,39.0584,218.8377],[-6.8203,39.0627,224.8444],[-6.8287,39.0642,214.4765],[-6.828,39.0657,217.0625],[-6.8158,39.066,214.5229],[-6.8082,39.0601,209.4571],[-6.8023,39.0604,214.9],[-6.7979,39.0657,222.667],[-6.8012,39.0775,230.3412],[-6.7965,39.0809,237.8003],[-6.7946,39.0806,242.0993],[-6.7913,39.0851,254.5578],[-6.7882,39.0838,261.7428],[-6.7868,39.086,267.399],[-6.7888,39.087,261.8506],[-6.7868,39.0888,267.2081],[-6.7821,39.0849,246.2656],[-6.7699,39.1015,240.9552],[-6.7744,39.1055,258.004],[-6.7776,39.1027,249.581],[-6.7851,39.1058,271.9698],[-6.7838,39.1081,271.6409],[-6.7882,39.1106,266.3643],[-6.7876,39.1134,271.5567],[-6.7832,39.1124,278.7502],[-6.7812,39.1169,261.3557],[-6.7844,39.1176,251.0507],[-6.786,39.1205,255.4458],[-6.7853,39.1231,259.2276],[-6.7709,39.1232,243.0004],[-6.7634,39.1284,271.0949],[-6.7636,39.1296,253.038],[-6.7695,39.1311,264.4728],[-6.77,39.1337,272.8156],[-6.7648,39.1336,281.2819],[-6.7644,39.1371,278.6779],[-6.7606,39.1397,292.1245],[-6.7522,39.1405,303.1679],[-6.747,39.1405,301.8953],[-6.7449,39.1388,306.0383],[-6.7437,39.1323,314.0281],[-6.7348,39.1253,314.0162],[-6.7344,39.1222,331.7802],[-6.747,39.0756,215.3045],[-6.7432,39.0753,214.7599],[-6.74,39.0718,219.4825],[-6.7394,39.0681,223.6897],[-6.7272,39.0644,247.743],[-6.7212,39.0573,248.4893],[-6.6371,39.0453,246.7394],[-6.6271,39.0541,264.7192],[-6.6235,39.0596,273.9769],[-6.6175,39.0625,276.4785],[-6.6175,39.0656,277.5589],[-6.6,39.0742,287.1103],[-6.5846,39.0858,286.2773],[-6.5722,39.1026,292.715],[-6.5684,39.1207,436.32619999999997]]]]}}