{"type":"Feature","properties":{"GID_3":"ESP.11.1.2_1","GID_0":"ESP","country":"Spain","GID_1":"ESP.11_1","province":"Extremadura","NL_NAME_1":"NA","GID_2":"ESP.11.1_1","county":"Badajoz","NL_NAME_2":"NA","city":"n.a.(40)","VARNAME_3":"NA","NL_NAME_3":"NA","TYPE_3":"Comarca","ENGTYPE_3":"Comarca","CC_3":"NA","HASC_3":"NA","name":"n.a.(40).city"},
"geometry":{"type": "MultiPolygon","coordinates": [[[[-4.9345,38.8649,427.5282],[-4.9279,38.87,428.1198],[-4.9241,38.8768,388.1854],[-4.9191,38.8802,400.7231],[-4.9148,38.8875,411.4504],[-4.8997,38.8891,641.6731],[-4.8896,38.8866,738.4586],[-4.8652,38.887,757.9939],[-4.8477,38.8821,746.3939],[-4.8425,38.8953,521.9063],[-4.8458,38.8997,497.2768],[-4.841,38.9202,454.9799],[-4.837,38.9297,516.2701],[-4.831,38.9356,532.3656],[-4.8329,38.9393,573.5359],[-4.8437,38.9402,715.9353],[-4.8429,38.9451,791.2946],[-4.8518,38.9473,752.7647],[-4.8728,38.9488,733.7083],[-4.8765,38.9478,749.6797],[-4.8916,38.9529,841.6348],[-4.8903,38.9569,710.4501],[-4.8935,38.96,620.8818],[-4.905,38.9633,563.6401],[-4.9132999999999996,38.9607,554.6295],[-4.9181,38.9571,537.4548],[-4.9336,38.9756,533.5707],[-4.9368,38.9857,537.2263],[-4.9371,38.9972,544.9173],[-4.9452,39.0088,485.6775],[-4.9512,39.0307,512.3639],[-4.9618,39.0524,462.0471],[-4.9624,39.0587,454.4454],[-4.9485,39.0563,628.8998],[-4.9413,39.0565,544.9059],[-4.9438,39.0686,555.6874],[-4.9441,39.0909,468.9055],[-4.9576,39.1063,536.2814],[-4.9569,39.1103,528.2327],[-4.9591,39.1159,644.6885],[-4.9742,39.1324,607.4402],[-4.9947,39.1419,683.4056],[-5.0033,39.1523,689.9912],[-5.0296,39.1612,644.8148],[-5.0389,39.1595,642.0336],[-5.0404,39.155,667.0936],[-5.0491,39.1492,712.9875],[-5.061,39.1455,675.0442],[-5.0712,39.1476,610.4634],[-5.0787,39.1519,616.8926],[-5.0947,39.1525,693.452],[-5.1209,39.1655,666.0547],[-5.1336,39.176,648.7928],[-5.1415,39.1777,657.2901],[-5.1559,39.1929,638.8712],[-5.1608,39.194,662.0229],[-5.1708,39.2041,352.0],[-5.1742,39.2156,685.5862],[-5.2125,39.2417,601.9945],[-5.2149,39.24,577.7192],[-5.2443,39.2686,556.799],[-5.2813,39.2965,520.5504],[-5.2839,39.297,517.2246],[-5.2899,39.3124,576.5298],[-5.3102,39.3252,604.9086],[-5.3231,39.3314,609.0332],[-5.3308,39.3313,616.6653],[-5.3399,39.3333,619.181],[-5.3529,39.2833,554.1257],[-5.3551,39.2603,499.3712],[-5.3527,39.2542,439.0149],[-5.347,39.248,414.2254],[-5.347,39.2392,400.8332],[-5.3533,39.2243,375.8587],[-5.3671,39.213,366.0574],[-5.376,39.1866,343.0707],[-5.3839,39.1742,330.9661],[-5.3939,39.169,325.899],[-5.3976,39.1686,324.4326],[-5.3989,39.1659,323.0985],[-5.4137,39.1567,315.4966],[-5.4245,39.1586,312.0165],[-5.4238,39.1601,312.4608],[-5.4278,39.1625,313.3223],[-5.4412,39.1596,308.0841],[-5.4536,39.161,303.7027],[-5.4597,39.1584,302.1893],[-5.465,39.1607,305.6988],[-5.4695,39.169,311.8851],[-5.4787,39.1781,316.5676],[-5.4934,39.1825,335.4552],[-5.5001,39.1876,345.7303],[-5.5113,39.199,418.63],[-5.5145,39.2097,433.7999],[-5.5184,39.2042,421.8106],[-5.524,39.2018,397.8966],[-5.528,39.1915,373.3956],[-5.5413,39.2064,343.3601],[-5.5477,39.2107,332.4184],[-5.5507,39.2157,323.3186],[-5.5566,39.2087,326.9237],[-5.5641,39.2106,320.2082],[-5.5704,39.2048,313.5037],[-5.5839,39.2001,313.9656],[-5.5896,39.201,316.1038],[-5.6052,39.1907,308.0],[-5.6131,39.1882,308.4183],[-5.6056,39.1758,303.5992],[-5.5936,39.1666,299.9377],[-5.5872,39.1581,294.9298],[-5.5764,39.1509,307.9888],[-5.5793,39.1431,301.8633],[-5.5747,39.1312,299.3992],[-5.5707,39.1286,291.9983],[-5.5687,39.1163,284.006],[-5.5699,39.1137,284.0319],[-5.5645,39.1094,282.5881],[-5.5615,39.1044,282.1344],[-5.5643,39.1012,281.7],[-5.5651,39.0901,282.4046],[-5.5549,39.0858,298.8118],[-5.5429,39.0837,329.4513],[-5.5398,39.0884,320.7245],[-5.5297,39.0819,366.0628],[-5.5143,39.0677,462.8077],[-5.5186,39.063,578.1781],[-5.5174,39.0607,576.8104],[-5.5214,39.0573,613.6978],[-5.5234,39.0525,634.9587],[-5.5183,39.0486,585.2783],[-5.519,39.0439,575.6566],[-5.5152,39.0407,635.157],[-5.5115,39.04,692.235],[-5.5076,39.0411,677.8614],[-5.5054,39.0448,690.8372],[-5.4967,39.0441,704.1541],[-5.4879,39.0347,501.1078],[-5.489,39.0296,386.5084],[-5.4843,39.0214,326.2912],[-5.4845,39.0186,320.5858],[-5.4887,39.0163,310.867],[-5.4915,39.0092,311.0901],[-5.4894,39.0037,310.0],[-5.4896,38.9973,310.0],[-5.4989,38.9958,310.0],[-5.5075,38.9974,310.0],[-5.5103,38.9924,310.0],[-5.5209,38.9889,310.0],[-5.51,38.9789,315.6033],[-5.497,38.9462,375.7856],[-5.4928,38.9403,338.1146],[-5.4889,38.9246,296.2041],[-5.4842,38.915,280.1512],[-5.4819,38.9147,277.6387],[-5.4712,38.9216,312.0],[-5.4682,38.9291,312.0],[-5.4622,38.9354,312.0],[-5.419,38.9187,312.0],[-5.4084,38.9098,346.0],[-5.4062,38.9019,346.0],[-5.3982,38.8989,346.0],[-5.3831,38.907,346.0],[-5.3658,38.9014,346.0],[-5.3492,38.9042,346.0],[-5.3377,38.9125,346.0],[-5.3347,38.9274,346.0],[-5.3234,38.9347,346.0],[-5.3168,38.9347,346.0],[-5.2992,38.9252,346.0],[-5.2878,38.9225,346.0],[-5.2852,38.9228,346.0],[-5.2827,38.9255,346.0],[-5.2826,38.9303,346.0],[-5.2755,38.9359,346.0],[-5.2722,38.935,346.0],[-5.2676,38.9201,346.0],[-5.2637,38.92,346.0],[-5.2599,38.9224,346.0],[-5.2569,38.9272,346.0],[-5.2513,38.9281,346.0],[-5.2476,38.9262,346.0],[-5.243,38.9266,346.0],[-5.2395,38.9293,346.0],[-5.2301,38.9308,346.0],[-5.2201,38.9296,346.0],[-5.2091,38.914,346.0],[-5.2082,38.908,346.0],[-5.2037,38.9047,346.0],[-5.1988,38.9036,346.0],[-5.1951,38.8949,346.0],[-5.1908,38.891,346.0],[-5.1845,38.889,346.0],[-5.1724,38.8894,346.0],[-5.1673,38.8875,346.0],[-5.1594,38.8827,346.0],[-5.1562,38.871,346.0],[-5.1531,38.8688,346.0],[-5.144,38.8658,346.0],[-5.1246,38.8677,346.0],[-5.1209,38.8657,346.0],[-5.1179,38.8573,346.0],[-5.0878,38.8639,387.1197],[-5.0315,38.8445,353.9623],[-5.0291,38.8458,359.4537],[-5.0257,38.8442,368.9338],[-5.0221,38.8463,389.5959],[-5.018,38.8425,447.6323],[-4.9792,38.8373,349.313],[-4.9619,38.8339,532.9927],[-4.9535,38.83,630.509],[-4.9444,38.8472,440.9728],[-4.9434,38.8544,488.0951],[-4.9345,38.8649,427.5282]]]]}}