{"type":"Feature","properties":{"GID_3":"ESP.10.3.5_1","GID_0":"ESP","country":"Spain","GID_1":"ESP.10_1","province":"ComunidadValenciana","NL_NAME_1":"NA","GID_2":"ESP.10.3_1","county":"Valencia","NL_NAME_2":"NA","city":"Costera","VARNAME_3":"NA","NL_NAME_3":"NA","TYPE_3":"Comarca","ENGTYPE_3":"Comarca","CC_3":"NA","HASC_3":"NA","name":"Costera.city"},
"geometry":{"type": "MultiPolygon","coordinates": [[[[-0.9248,38.8234,651.9377],[-0.9277,38.8158,798.1024],[-0.9327,38.8113,978.4497],[-0.9338,38.794,716.7825],[-0.9289,38.7868,692.4911],[-0.9289,38.7839,736.4655],[-0.9148,38.7814,634.4333],[-0.9175,38.7762,662.1096],[-0.9132,38.7696,686.3462],[-0.9042,38.7671,684.069],[-0.8872,38.7693,655.3163],[-0.8825,38.7721,665.1578],[-0.8616,38.7709,622.6766],[-0.8601,38.7694,614.9332],[-0.8538,38.7732,621.5952],[-0.8479,38.7819,621.2575],[-0.8319,38.7888,612.0212],[-0.8142,38.8018,683.8301],[-0.7551,38.8246,747.678],[-0.7528,38.8237,741.5539],[-0.7426,38.8269,814.6865],[-0.7354,38.8329,793.7854],[-0.7211,38.8368,720.2556],[-0.691,38.8487,866.5571],[-0.6914,38.8507,862.8544],[-0.6884,38.85,859.1528],[-0.6715,38.8586,871.582],[-0.661,38.8617,833.6021],[-0.6545,38.8731,669.9179],[-0.6475,38.8794,685.1923],[-0.6372,38.8802,668.338],[-0.6234,38.8902,649.2443],[-0.6175,38.8964,642.7388],[-0.6138,38.9033,563.4171],[-0.6074,38.9037,513.982],[-0.6007,38.9102,530.1049],[-0.5844,38.9185,498.011],[-0.5847,38.9207,522.0717],[-0.5821,38.9226,478.1895],[-0.5767,38.9236,448.1284],[-0.5729,38.9266,389.6635],[-0.5721,38.9308,402.1187],[-0.5647,38.9345,495.3586],[-0.5628,38.9374,388.0156],[-0.5305,38.9502,440.4994],[-0.5286,38.9484,420.5717],[-0.5195,38.9513,373.0353],[-0.5183,38.9537,391.9279],[-0.5097,38.9562,238.6095],[-0.5077,38.9591,225.52],[-0.5013,38.9619,200.8485],[-0.4999,38.9591,288.3516],[-0.4965,38.9593,276.1146],[-0.491,38.9631,132.6176],[-0.4912,38.9653,110.07],[-0.467,38.9716,397.2449],[-0.4598,38.9755,376.2912],[-0.4459,38.9775,356.7444],[-0.4393,38.9803,346.3962],[-0.4335,38.9802,286.6321],[-0.4273,38.9852,376.7743],[-0.4077,38.9871,414.4059],[-0.4039,38.9843,356.925],[-0.3959,38.9995,240.7871],[-0.38,39.0216,137.3882],[-0.3814,39.0219,137.3882],[-0.3849,39.0337,202.6992],[-0.383,39.0384,273.0991],[-0.388,39.0368,315.0266],[-0.3903,39.0329,317.9965],[-0.4076,39.0341,241.2274],[-0.4075,39.0354,241.2274],[-0.4164,39.037,165.3383],[-0.4176,39.034,177.1403],[-0.4322,39.0322,147.8241],[-0.4436,39.0262,128.5573],[-0.4503,39.0287,114.0918],[-0.458,39.0271,102.2647],[-0.4697,39.0287,155.4644],[-0.4821,39.0404,91.5198],[-0.4864,39.0375,52.043],[-0.4944,39.0403,47.6749],[-0.4962,39.0374,60.8075],[-0.4959,39.0398,55.6043],[-0.4997,39.045,59.678],[-0.5058,39.0456,78.5704],[-0.511,39.0494,104.1834],[-0.5093,39.0456,105.2166],[-0.5186,39.0423,143.5694],[-0.5204,39.0398,177.2862],[-0.529,39.0412,184.9747],[-0.5383,39.0405,205.5052],[-0.5418,39.0464,145.3824],[-0.5449,39.0445,132.8569],[-0.5505,39.0472,87.9472],[-0.5675,39.0415,86.7269],[-0.5662,39.0266,173.3383],[-0.5705,39.0184,147.3415],[-0.5903,39.0119,162.1987],[-0.5904,39.0142,222.4345],[-0.5947,39.015,181.0357],[-0.5999,39.0136,155.96],[-0.5991,39.0163,107.6984],[-0.5958,39.0178,83.9147],[-0.604,39.0253,216.6603],[-0.6214,39.0301,274.8794],[-0.6318,39.029,139.2006],[-0.6331,39.0269,263.8167],[-0.629,39.0171,281.3896],[-0.6298,39.006,221.1024],[-0.6257,39.002,205.3839],[-0.6312,38.999,228.8563],[-0.636,38.9883,307.6386],[-0.6399,38.988,351.6824],[-0.6448,38.9851,551.6592],[-0.6437,38.9807,545.2961],[-0.6529,38.9819,609.5949],[-0.6675,38.9739,585.369],[-0.6728,38.9678,582.2913],[-0.6833,38.9637,574.7498],[-0.6989,38.9468,625.1201],[-0.7102,38.9399,610.7345],[-0.7275,38.9252,552.548],[-0.739,38.9245,473.29],[-0.7607,38.92,509.5096],[-0.7636,38.917,380.2343],[-0.767,38.917,431.6311],[-0.7694,38.9201,384.5551],[-0.7718,38.9176,441.5475],[-0.7821,38.9193,463.6733],[-0.7914,38.9185,646.0195],[-0.8131,38.9124,733.3193],[-0.8359,38.9173,805.8273],[-0.8525,38.9108,815.654],[-0.863,38.9097,744.7163],[-0.9026,38.9,819.1279],[-0.9086,38.8966,818.6269],[-0.9245,38.8918,824.1434],[-0.9319,38.8797,837.2196],[-0.9325,38.8679,794.2297],[-0.9307,38.8636,782.105],[-0.9356,38.856,747.4581],[-0.9311,38.8298,735.9169],[-0.9248,38.8234,651.9377]]],
[[[-0.4074,39.0399,202.5606],[-0.4072,39.043,149.4379],[-0.383,39.0384,273.0991],[-0.3742,39.0464,409.0169],[-0.3743,39.0503,397.4501],[-0.3815,39.0574,368.597],[-0.3858,39.0584,389.8976],[-0.3914,39.0567,362.0483],[-0.4142,39.0681,118.3966],[-0.4318,39.0714,58.3263],[-0.4349,39.0517,66.2453],[-0.4257,39.052,83.8158],[-0.4144,39.0481,113.2521],[-0.4074,39.0399,202.5606]]]]}}