{"type":"Feature","properties":{"GID_3":"ESP.4.4.3_1","GID_0":"ESP","country":"Spain","GID_1":"ESP.4_1","province":"Castilla-LaMancha","NL_NAME_1":"NA","GID_2":"ESP.4.4_1","county":"Guadalajara","NL_NAME_2":"NA","city":"n.a.(121)","VARNAME_3":"NA","NL_NAME_3":"NA","TYPE_3":"Comarca","ENGTYPE_3":"Comarca","CC_3":"NA","HASC_3":"NA","name":"n.a.(121).city"},
"geometry":{"type": "MultiPolygon","coordinates": [[[[-2.7196,40.4016,694.0],[-2.7279,40.4114,694.0],[-2.7252,40.4115,694.0],[-2.7196,40.4073,694.0],[-2.7168,40.4075,694.0],[-2.7119,40.4139,694.0],[-2.7188,40.4181,694.0],[-2.7174,40.4198,694.0],[-2.7044,40.4154,726.1664],[-2.6906,40.3952,753.2177],[-2.6862,40.3971,771.3467],[-2.6807,40.4027,781.1144],[-2.7039,40.4226,694.0],[-2.7017,40.4296,721.1645],[-2.6961,40.4299,694.0],[-2.6912,40.4271,694.0],[-2.6844,40.4283,694.0],[-2.6763,40.4358,694.0],[-2.6846,40.4415,697.1116],[-2.6851,40.4433,700.5104],[-2.6803,40.4434,694.0],[-2.6758,40.448,694.0],[-2.6707,40.4478,694.0],[-2.6706,40.4427,695.7493],[-2.6675,40.4385,694.0],[-2.6633,40.4361,694.0],[-2.6609,40.4394,702.3499],[-2.6512,40.44,694.0],[-2.642,40.4487,694.0],[-2.6335,40.4439,694.0],[-2.6264,40.4495,701.0916],[-2.6196,40.4455,694.0],[-2.6143,40.4472,694.0],[-2.6059,40.4468,694.0],[-2.5986,40.4435,694.0],[-2.5933,40.4451,694.0],[-2.5916,40.4498,694.0],[-2.5854,40.4501,694.0],[-2.5795,40.4448,694.0],[-2.5759,40.4457,694.0],[-2.568,40.4426,694.0],[-2.5678,40.4389,694.0],[-2.5658,40.4381,696.9932],[-2.5609,40.4393,694.0],[-2.5563,40.4348,696.989],[-2.5463,40.4347,694.0],[-2.548,40.431,694.0],[-2.5444,40.4264,711.6923],[-2.5416,40.4253,712.52],[-2.5337,40.4275,696.8124],[-2.5252,40.4238,698.7672],[-2.5154,40.4243,720.1467],[-2.5104,40.4289,741.9816],[-2.5045,40.4487,828.6131],[-2.511,40.4584,781.2168],[-2.5161,40.4601,783.6916],[-2.5219,40.4663,771.7596],[-2.5286,40.4699,745.9973],[-2.5444,40.4746,716.5881],[-2.5364,40.4861,729.8608],[-2.5366,40.4923,733.9602],[-2.5287,40.4984,743.6529],[-2.5399,40.507,770.3251],[-2.5462,40.519,799.6726],[-2.5391,40.5332,835.8023],[-2.5272,40.5443,1059.1406],[-2.5215,40.5314,815.3882],[-2.518,40.528,775.7994],[-2.5135,40.5158,793.5437],[-2.4959,40.5088,850.3712],[-2.4871,40.5112,829.9021],[-2.4731,40.5194,899.5592],[-2.4626,40.5233,924.191],[-2.4486,40.5245,1109.1542],[-2.4372,40.5309,1135.9575],[-2.4353,40.5345,1136.394],[-2.4262,40.5407,1136.6996],[-2.4214,40.5383,1105.6241],[-2.417,40.5303,986.0518],[-2.4117,40.5256,984.8615],[-2.4075,40.5293,959.6874],[-2.3966,40.5335,850.8317],[-2.3799,40.5436,948.7612],[-2.3831,40.5536,982.503],[-2.3896,40.5563,1006.9172],[-2.3939,40.5643,1015.7523],[-2.4005,40.5659,1125.7239],[-2.4072,40.574,1137.5382],[-2.4163,40.5806,1132.8302],[-2.4162,40.5884,1134.7136],[-2.4124,40.6021,1119.5847],[-2.3987,40.6138,1138.9662],[-2.3807,40.6073,1112.2958],[-2.3725,40.6072,1146.5581],[-2.3671,40.6013,1067.8513],[-2.359,40.5969,1178.8728],[-2.3543,40.5927,1205.0605],[-2.354,40.5892,1196.3877],[-2.3598,40.5807,1170.228],[-2.3528,40.5752,1213.1063],[-2.3455,40.5726,1099.2004],[-2.3434,40.5694,1055.6184],[-2.3314,40.5672,1043.5276],[-2.3259,40.57,907.1127],[-2.3181,40.5702,1001.2712],[-2.3082,40.574,1230.2051],[-2.2976,40.5729,1239.6155],[-2.2919,40.5796,1248.0924],[-2.286,40.5922,1210.6663],[-2.2869,40.5976,1215.5787],[-2.2941,40.6117,1216.4022],[-2.2947,40.6229,1251.2419],[-2.2903,40.6303,1204.6781],[-2.2799,40.6338,1252.5961],[-2.2766,40.6378,1297.1428],[-2.2745,40.6448,1223.5747],[-2.2532,40.6316,1224.3112],[-2.2354,40.627,1248.3206],[-2.2256,40.6194,1266.0212],[-2.2137,40.6192,1243.3608],[-2.1897,40.6303,1316.9885],[-2.1849,40.629,1333.9999],[-2.1703,40.6299,1351.6476],[-2.1668,40.6324,1354.6265],[-2.1627,40.6508,1386.4794],[-2.1569,40.6587,1377.8894],[-2.1337,40.6559,1369.4373],[-2.1207,40.651,1372.735],[-2.11,40.6514,1366.6421],[-2.0911,40.6464,1417.5278],[-2.0917,40.6433,1363.9102],[-2.0841,40.6353,1383.1001],[-2.0709,40.6285,1385.53],[-2.0634,40.6275,1388.0879],[-2.0575,40.6241,1352.3594],[-2.0574,40.6183,1353.4121],[-2.0474,40.6092,1370.2107],[-2.0345,40.601,1432.1586],[-2.0205,40.5978,1426.5427],[-2.0062,40.5917,1440.001],[-1.9923,40.5894,1466.4832],[-1.9855,40.5854,1517.5314],[-1.9658,40.592,1358.95],[-1.9638,40.5992,1441.4104],[-1.9681,40.6086,1141.4945],[-1.9708,40.61,1132.5404],[-1.9699,40.6144,1145.9895],[-1.9729,40.6169,1125.9568],[-1.9716,40.619,1188.7015],[-1.9756,40.6199,1132.0005],[-1.976,40.6244,1118.6576],[-1.9793,40.6247,1149.7085],[-1.9754,40.6278,1134.7449],[-1.9802,40.6384,1114.4155],[-1.9745,40.6459,1131.9307],[-1.9751,40.6475,1099.3688],[-1.9852,40.6526,1084.1487],[-1.9907,40.6534,1073.3463],[-2.0045,40.6624,1069.5699],[-2.0053,40.6648,1070.156],[-2.0097,40.6623,1074.959],[-2.0168,40.6624,1061.7057],[-2.0211,40.6658,1053.1084],[-2.0267,40.6638,1048.5841],[-2.0307,40.6694,1053.8848],[-2.0342,40.6705,1045.092],[-2.0391,40.6761,1067.2395],[-2.0432,40.6757,1043.8665],[-2.0479,40.6803,1032.7346],[-2.046,40.6829,1046.3301],[-2.0479,40.6873,1030.0887],[-2.0472,40.6897,1032.5503],[-2.0499,40.6919,1027.2603],[-2.0464,40.6961,1043.1005],[-2.0472,40.6977,1053.0331],[-2.0494,40.6977,1024.3047],[-2.0496,40.7005,1031.5968],[-2.0536,40.701,1020.0156],[-2.0534,40.7042,1024.7166],[-2.0606,40.7057,1052.6215],[-2.0628,40.709,1017.9143],[-2.0687,40.7089,1040.0093],[-2.0717,40.7154,1096.3322],[-2.0744,40.7163,1080.8589],[-2.0744,40.7233,1028.5104],[-2.071,40.7259,1142.0463],[-2.0727,40.7293,1003.8907],[-2.0783,40.729,1011.379],[-2.0781,40.7344,1060.3049],[-2.0813,40.7409,1057.3733],[-2.0863,40.7394,1005.2039],[-2.0896,40.7466,1004.8792],[-2.0854,40.7457,1121.1074],[-2.0848,40.7481,1068.8],[-2.0886,40.7533,992.8805],[-2.0934,40.7556,972.7234],[-2.1019,40.7554,1066.449],[-2.0999,40.7606,1103.5411],[-2.1049,40.7637,986.7815],[-2.1052,40.767,1062.4833],[-2.1097,40.7693,979.5806],[-2.1101,40.7795,967.9883],[-2.1159,40.7824,1001.2368],[-2.1339,40.7817,975.7825],[-2.1523,40.7836,993.0951],[-2.1569,40.789,926.1469],[-2.1534,40.7939,942.303],[-2.1546,40.7967,909.4957],[-2.1415,40.8027,923.124],[-2.1385,40.8104,945.7649],[-2.1391,40.8152,918.0887],[-2.1176,40.824,986.0729],[-2.1203,40.8285,964.8714],[-2.124,40.8303,976.8446],[-2.1351,40.833,1096.0593],[-2.1637,40.8462,1184.8083],[-2.1766,40.8421,1235.9934],[-2.1945,40.8401,1200.2708],[-2.2077,40.8411,1168.3024],[-2.2084,40.8395,1182.4482],[-2.1987,40.8332,1118.9287],[-2.2045,40.8196,1104.4625],[-2.2027,40.8155,1115.2429],[-2.2033,40.8108,1038.1462],[-2.2065,40.8054,989.1945],[-2.211,40.8032,895.6186],[-2.2179,40.8052,871.3892],[-2.2251,40.799,869.0176],[-2.2328,40.7979,865.655],[-2.2408,40.7926,918.4302],[-2.2433,40.7933,890.9521],[-2.2437,40.7964,871.483],[-2.2497,40.7973,908.1173],[-2.2491,40.7894,900.672],[-2.2604,40.7904,867.7621],[-2.2624,40.7922,980.3009],[-2.2673,40.7907,942.718],[-2.2746,40.7936,866.6105],[-2.2769,40.792,863.9216],[-2.2844,40.7918,844.0443],[-2.2873,40.7967,851.9492],[-2.2899,40.7974,909.8431],[-2.3001,40.7913,829.3275],[-2.319,40.7907,835.6995],[-2.3238,40.7888,824.8092],[-2.3287,40.7895,824.7438],[-2.3386,40.7861,830.623],[-2.358,40.7869,833.4608],[-2.3608,40.7844,844.0697],[-2.3609,40.7809,865.5842],[-2.3685,40.7725,827.9473],[-2.3799,40.7649,810.6547],[-2.3806,40.7616,827.1903],[-2.3865,40.7561,808.5197],[-2.3854,40.7517,818.1115],[-2.3941,40.7506,801.6374],[-2.3968,40.7433,794.4006],[-2.4009,40.7442,794.7485],[-2.3991,40.737,784.1046],[-2.4155,40.7301,881.9583],[-2.4204,40.725,783.0515],[-2.4272,40.7297,771.0377],[-2.432,40.7294,781.2809],[-2.4382,40.7263,772.1968],[-2.4381,40.7206,769.42],[-2.4567,40.7232,769.2213],[-2.462,40.7147,783.7525],[-2.4584,40.7107,763.4893],[-2.4607,40.7084,762.7743],[-2.4735,40.7065,760.4807],[-2.4817,40.7011,754.0735],[-2.4842,40.7039,766.9203],[-2.4839,40.7079,767.3565],[-2.4864,40.7086,752.2204],[-2.4995,40.7014,758.6534],[-2.5062,40.7087,742.415],[-2.5149,40.7085,765.5989],[-2.5265,40.7158,800.3393],[-2.5626,40.7184,791.8777],[-2.5672,40.7157,830.7921],[-2.573,40.718,849.226],[-2.5867,40.7296,890.9996],[-2.5909,40.7367,875.5291],[-2.6032,40.7306,839.8408],[-2.6328,40.7057,855.8416],[-2.6347,40.7026,874.0085],[-2.6389,40.701,890.2759],[-2.6407,40.6905,891.5712],[-2.6374,40.6865,886.4089],[-2.6392,40.685,874.1501],[-2.6409,40.676,898.7905],[-2.6283,40.6647,707.4207],[-2.6325,40.6626,708.2159],[-2.6338,40.6562,709.9711],[-2.6388,40.657,706.0],[-2.6455,40.6616,706.0],[-2.6519,40.6605,734.2294],[-2.6545,40.6562,706.0],[-2.6566,40.6557,713.43],[-2.6605,40.6595,706.0],[-2.6614,40.6632,706.0],[-2.667,40.662,706.0],[-2.669,40.6565,712.2107],[-2.6716,40.655,708.606],[-2.6795,40.6564,705.5],[-2.6838,40.6544,705.5],[-2.6825,40.6507,705.5],[-2.6795,40.6518,705.5],[-2.677,40.6466,709.3254],[-2.6955,40.6497,792.811],[-2.7126,40.6567,1041.5842],[-2.7136,40.6637,1061.1624],[-2.7098,40.6669,950.1944],[-2.7177,40.676,909.8824],[-2.717,40.678,858.1014],[-2.7235,40.6898,931.5322],[-2.7169,40.699,833.3339],[-2.7257,40.7053,830.3264],[-2.7262,40.7147,848.5815],[-2.7338,40.7183,891.9348],[-2.7382,40.723,911.9362],[-2.7398,40.7225,911.9362],[-2.7456,40.7345,1056.1495],[-2.7484,40.7337,1061.0068],[-2.7503,40.7306,1063.3136],[-2.7505,40.7251,1059.4172],[-2.7473,40.7205,1050.5946],[-2.7548,40.7127,1055.9016],[-2.7666,40.7077,1052.8302],[-2.7742,40.7131,1045.5029],[-2.7849,40.7126,1032.5393],[-2.7997,40.7044,1054.3514],[-2.8046,40.6982,1045.1562],[-2.8104,40.6948,1033.9343],[-2.7941,40.6703,1044.2301],[-2.7912,40.6576,1043.5674],[-2.7972,40.651,1032.9993],[-2.7957,40.6385,1019.957],[-2.8051,40.6109,1022.4299],[-2.8144,40.5995,1029.7709],[-2.8227,40.596,1028.3643],[-2.8246,40.597,1027.0813],[-2.8256,40.5909,1024.274],[-2.8297,40.5868,1014.2701],[-2.8355,40.5879,1007.9088],[-2.8403,40.5858,1009.2057],[-2.8401,40.5819,1010.3773],[-2.8373,40.5806,1011.9591],[-2.85,40.5711,999.322],[-2.8491,40.5679,999.2091],[-2.8594,40.5559,990.8646],[-2.858,40.5527,991.6719],[-2.8534,40.5496,989.379],[-2.8493,40.5306,968.3345],[-2.8513,40.5144,970.2393],[-2.8549,40.5119,889.6091],[-2.8561,40.5085,944.0467],[-2.8517,40.5025,878.0261],[-2.8431,40.4977,773.9185],[-2.8342,40.4831,977.7917],[-2.8241,40.4794,978.176],[-2.8262,40.4737,906.0343],[-2.8188,40.473,893.9215],[-2.813,40.4702,795.9218],[-2.7992,40.4691,718.9641],[-2.7919,40.4638,662.5593],[-2.7885,40.4646,638.0],[-2.7833,40.4582,638.0],[-2.783,40.4553,682.6045],[-2.7755,40.4541,642.3245],[-2.7743,40.4523,642.8143],[-2.7768,40.4466,642.978],[-2.769,40.4429,863.1035],[-2.7624,40.4431,1030.7203],[-2.7599,40.4417,1033.3729],[-2.7618,40.4342,1018.4165],[-2.7698,40.4214,1027.6309],[-2.7599,40.4124,694.0],[-2.7501,40.4085,713.5702],[-2.737,40.4004,702.0685],[-2.7228,40.3971,694.0],[-2.7196,40.4016,694.0]]]]}}