{"type": "Feature","bbox": [-0.8959,38.1284,-0.4551,38.3448],"geometry": {"type": "MultiPolygon","coordinates": [[[[-0.4563,38.1618,0.0],[-0.4582,38.1621,0.0],[-0.4599,38.161,0.0],[-0.4551,38.1607,0.0],[-0.4563,38.1618,0.0]]],
[[[-0.4832,38.1674,0.0],[-0.4876,38.1665,0.0],[-0.4849,38.1665,0.0],[-0.4835,38.1649,0.0],[-0.4787,38.166,2.4043],[-0.476,38.1626,2.9212],[-0.4638,38.1626,0.0],[-0.4715,38.1665,0.0],[-0.4832,38.1674,0.0]]],
[[[-0.5107,38.2246,0.0],[-0.5107,38.2299,0.0],[-0.5143,38.2357,1.1712],[-0.5154,38.2518,0.0],[-0.519,38.2649,0.0],[-0.5196,38.2749,7.4661],[-0.5246,38.275,7.2284],[-0.5356,38.2997,14.6867],[-0.5416,38.3058,81.9465],[-0.543,38.3065,80.8462],[-0.5505,38.3033,78.9012],[-0.568,38.3018,98.9429],[-0.5768,38.306,78.0019],[-0.6008,38.3247,183.678],[-0.6117,38.3346,129.2479],[-0.6129,38.3373,145.3098],[-0.6235,38.3429,152.5988],[-0.6404,38.3448,192.3292],[-0.6452,38.3413,219.9585],[-0.6746,38.3348,264.5977],[-0.6793,38.3312,248.7923],[-0.706,38.3269,378.6556],[-0.735,38.3126,270.7672],[-0.7409,38.3122,313.5577],[-0.7457,38.3079,224.6363],[-0.7613,38.2988,267.1664],[-0.7817,38.2949,330.6544],[-0.7961,38.2897,365.6327],[-0.8023,38.2932,417.8114],[-0.8254,38.2906,525.8331],[-0.8656,38.2816,627.0022],[-0.8753,38.2778,613.3848],[-0.8959,38.264,744.7009],[-0.8892,38.2599,616.2815],[-0.8705,38.2384,187.9478],[-0.8642,38.2355,158.5686],[-0.8542,38.2224,98.6057],[-0.8406,38.2089,43.9167],[-0.8353,38.2056,32.9427],[-0.8246,38.1846,4.9908],[-0.8182,38.1639,4.2537],[-0.8344,38.1585,7.7455],[-0.8266,38.156,6.8356],[-0.8143,38.1587,6.6192],[-0.8156,38.1613,5.8691],[-0.8059,38.1663,7.1406],[-0.8014,38.1723,3.847],[-0.786,38.1762,2.933],[-0.7726,38.1729,1.0],[-0.7606,38.1652,2.3988],[-0.7518,38.1635,2.397],[-0.7157,38.1366,1.3072],[-0.6975,38.136,18.3705],[-0.6788,38.1421,73.6752],[-0.6705,38.1436,64.455],[-0.6607,38.1428,73.8688],[-0.6581,38.1391,74.2646],[-0.6555,38.1284,38.6469],[-0.6399,38.1284,1.9518],[-0.6385,38.1368,2.5398],[-0.6349,38.1407,3.5033],[-0.6332,38.1468,5.6017],[-0.6285,38.151,0.0],[-0.6262,38.1565,2.454],[-0.6182,38.1654,0.0],[-0.6182,38.1688,0.9522],[-0.6146,38.174,0.3093],[-0.5951,38.189,0.102],[-0.5663,38.1918,-0.4722],[-0.5629,38.1862,0.0],[-0.5618,38.1868,0.0],[-0.5624,38.1907,3.9242],[-0.5607,38.1907,2.4431],[-0.5604,38.1882,0.0],[-0.5582,38.1901,0.0],[-0.5571,38.1893,0.0],[-0.5626,38.1854,0.6636],[-0.5612,38.1846,0.6636],[-0.5565,38.1874,0.0],[-0.5562,38.1893,2.129],[-0.5401,38.189,5.6159],[-0.5393,38.1871,0.2271],[-0.5376,38.1871,0.0],[-0.5376,38.1893,6.6523],[-0.5288,38.1896,1.2296],[-0.5176,38.194,5.1673],[-0.5104,38.201,0.0],[-0.5076,38.2104,1.4671],[-0.5076,38.2196,0.7742],[-0.5107,38.2246,0.0]]]]}
,"properties": {"GID_3": "ESP.10.1.9_1","GID_0": "ESP","country": "Spain","GID_1": "ESP.10_1","province": "ComunidadValenciana","NL_NAME_1": "NA","GID_2": "ESP.10.1_1","county": "Alicante","NL_NAME_2": "NA","city": "Vinalopo","VARNAME_3": "NA","NL_NAME_3": "NA","TYPE_3": "Comarca","ENGTYPE_3": "Comarca","CC_3": "NA","HASC_3": "NA","name": "Vinalopo.city","area_km2": 488.13,"hist_schema_id": "Elevation0-9000","hist_area_km2": {"0": 129.4085,"25": 90.5455,"50": 63.9292,"75": 44.7218,"100": 35.308,"125": 24.0521,"150": 20.5855,"175": 18.6037,"200": 15.0087,"225": 11.4316,"250": 6.8068,"275": 4.9596,"300": 3.7282,"325": 3.2454,"350": 2.563,"375": 1.8475,"400": 1.215,"425": 1.1151,"450": 0.8988,"475": 0.6991,"500": 0.6825,"525": 0.6325,"550": 0.799,"575": 0.9821,"600": 0.8156,"625": 0.5992,"650": 0.5659,"675": 0.5826,"700": 0.466,"725": 0.4327,"750": 0.3329,"775": 0.4327,"800": 0.1165,"825": 0.0166}}}