{"type": "Feature","bbox": [-4.2931,42.4996,-3.5483,42.8793],"geometry": {"type": "MultiPolygon","coordinates": [[[[-3.8348,42.5585,1001.8474],[-3.8382,42.5574,992.6127],[-3.8395,42.5548,985.7888],[-3.8484,42.5488,974.0565],[-3.8476,42.5384,1014.1093],[-3.8383,42.5363,1003.0433],[-3.8296,42.5376,1006.9814],[-3.8138,42.5319,1014.3873],[-3.8002,42.534,1020.1232],[-3.7955,42.5261,1015.7252],[-3.7917,42.524,998.3561],[-3.7899,42.5194,1007.0905],[-3.7909,42.5051,973.4524],[-3.7848,42.5018,877.6309],[-3.7728,42.4996,884.9071],[-3.7644,42.5019,948.3364],[-3.7409,42.5002,1015.9795],[-3.7425,42.5075,1007.122],[-3.7415,42.5129,1034.8364],[-3.7381,42.5167,1020.834],[-3.7376,42.5339,957.714],[-3.741,42.54,972.2305],[-3.7491,42.5484,1002.2992],[-3.755,42.5515,1001.7153],[-3.748,42.5555,992.3265],[-3.7495,42.5671,1033.7463],[-3.7389,42.5922,992.5078],[-3.7441,42.6032,1015.8458],[-3.7381,42.6069,1041.105],[-3.7464,42.616,1026.6127],[-3.7406,42.6202,1007.2728],[-3.7378999999999998,42.6282,966.245],[-3.745,42.6511,1034.7708],[-3.743,42.6521,1032.8044],[-3.743,42.6545,1032.0828],[-3.7398,42.6538,1030.875],[-3.731,42.6565,1015.962],[-3.7319,42.6603,1007.5834],[-3.7183,42.6698,974.9154],[-3.7121,42.6695,989.8811],[-3.7096,42.6635,985.5716],[-3.7042,42.6602,996.319],[-3.6987,42.6592,1004.311],[-3.6901,42.6511,1033.7224],[-3.6787,42.654,997.4935],[-3.6721,42.6581,1042.8981],[-3.6697,42.6584,1041.4022],[-3.6678,42.6559,1026.1372],[-3.651,42.6617,1013.2277],[-3.6471,42.6716,1018.5983],[-3.633,42.6801,1034.4929],[-3.6261,42.6768,1056.8596],[-3.6144,42.6805,1068.3129],[-3.6146,42.683,1064.4279],[-3.6074,42.6835,1060.9523],[-3.5891,42.7047,1060.5573],[-3.579,42.7127,989.8605],[-3.5753,42.7201,993.9443],[-3.5621,42.7243,1031.1881],[-3.5575,42.7237,1032.687],[-3.5571,42.7264,1014.8694],[-3.5483,42.7364,1033.5823],[-3.5512,42.7395,1068.8961],[-3.5537,42.7494,1113.6973],[-3.5683,42.7547,1019.871],[-3.5714,42.7603,1088.791],[-3.5716,42.7658,1093.0673],[-3.5752,42.7678,1086.5281],[-3.5827,42.7767,1053.5309],[-3.5764,42.784,1074.224],[-3.5818,42.7869,1075.6685],[-3.5925,42.7867,1041.1367],[-3.6094,42.7817,1006.1552],[-3.6211,42.7885,996.6311],[-3.6153,42.8024,981.252],[-3.6164,42.807,978.4092],[-3.6317,42.8242,1209.8761],[-3.6475,42.8335,1211.0999],[-3.6504,42.8373,1217.0466],[-3.6466,42.8526,1134.4758],[-3.6483,42.8617,1131.8134],[-3.6439,42.8651,1178.3918],[-3.6437,42.8764,1184.6803],[-3.6477,42.8754,1194.139],[-3.6477,42.8703,1206.887],[-3.6534,42.8668,1113.5757],[-3.6728,42.8732,1013.6616],[-3.6706,42.876,1027.6147],[-3.6746,42.8787,995.9584],[-3.692,42.8793,977.3278],[-3.7071,42.8775,864.2423],[-3.7108,42.8723,746.2526],[-3.7161,42.8714,623.2111],[-3.7136,42.8653,790.582],[-3.7163,42.8645,835.0864],[-3.7145,42.8599,674.6313],[-3.7108,42.8576,651.0682],[-3.712,42.8554,628.3109],[-3.7209,42.8515,617.2628],[-3.7227,42.8482,618.9313],[-3.7218,42.8429,619.4998],[-3.7272,42.8427,617.995],[-3.7305,42.8404,623.8029],[-3.7298,42.8376,634.2538],[-3.7256,42.8351,620.6024],[-3.7244,42.8282,625.4156],[-3.7267,42.8259,636.0252],[-3.7388,42.8357,877.2578],[-3.7726,42.8518,899.8521],[-3.7857,42.8641,965.4663],[-3.7878,42.8751,966.9368],[-3.8103,42.8709,911.7305],[-3.8183,42.8726,904.9649],[-3.8174,42.8712,893.8351],[-3.8253,42.8686,921.1046],[-3.8341,42.8557,903.0333],[-3.8337,42.8521,911.1208],[-3.8164,42.8359,828.2637],[-3.8166,42.8302,781.2838],[-3.8196,42.8278,698.1534],[-3.8162,42.8193,885.6402],[-3.816,42.8105,946.3417],[-3.8205,42.8063,967.5678],[-3.8216,42.8003,983.2191],[-3.8232,42.7988,983.4194],[-3.829,42.7987,993.3043],[-3.8542,42.7875,1033.9342],[-3.8633,42.7864,1052.0979],[-3.886,42.7982,1097.3368],[-3.8944,42.8045,1145.451],[-3.8995,42.7907,1103.5099],[-3.9014,42.7886,1092.4019],[-3.9096,42.7864,1082.2449],[-3.9087,42.777,1067.3989],[-3.9109,42.7684,1062.6345],[-3.9264,42.7701,1065.4692],[-3.9305,42.7745,1070.7908],[-3.9487,42.7675,1074.1704],[-3.9465,42.7619,1086.2178],[-3.9565,42.7622,1084.7571],[-3.9656,42.7586,1066.5419],[-3.9788,42.7581,1066.4047],[-3.9815,42.7683,1009.6285],[-3.9906,42.771,975.8469],[-3.9945,42.7686,1062.613],[-4.0024,42.7684,1067.5298],[-4.003,42.7633,1071.9187],[-4.0093,42.7657,1073.7933],[-4.0167,42.764,1082.3206],[-4.0408,42.7673,1085.8907],[-4.0546,42.763,1087.5361],[-4.0717,42.7605,1086.5881],[-4.0813,42.7614,1107.3015],[-4.0852,42.7641,1138.0444],[-4.0887,42.7517,1069.192],[-4.1095,42.7339,940.9412],[-4.1239,42.7361,932.1202],[-4.1199,42.7451,994.1987],[-4.1259,42.7482,1048.3518],[-4.1247,42.7516,1142.4436],[-4.1399,42.7533,1112.1686],[-4.1461,42.7521,1042.9932],[-4.1513,42.7479,934.1078],[-4.1646,42.746,909.3113],[-4.1667,42.7419,911.608],[-4.1738,42.7371,928.5339],[-4.1804,42.7379,980.4644],[-4.1853,42.7362,1024.5717],[-4.201,42.721,1053.9236],[-4.2014,42.7176,1046.6925],[-4.2151,42.714,989.7838],[-4.2165,42.7113,941.0386],[-4.2151,42.7088,941.7424],[-4.2185,42.7047,986.9686],[-4.2257,42.7034,1053.0068],[-4.237,42.6976,1041.7437],[-4.246,42.6971,1035.0057],[-4.2488,42.6984,1031.7668],[-4.2476,42.6941,995.9559],[-4.257,42.6881,895.2396],[-4.2638,42.6942,908.6565],[-4.2676,42.6943,959.1614],[-4.2666,42.7053,1001.4115],[-4.2809,42.6995,930.2532],[-4.284,42.6956,903.462],[-4.2931,42.6909,864.1082],[-4.2866,42.6864,858.826],[-4.2859,42.6835,867.1977],[-4.2898,42.6835,866.1433],[-4.2899,42.6792,917.0426],[-4.2848,42.6754,978.4597],[-4.276,42.673,1007.0433],[-4.2684,42.6741,980.118],[-4.2596,42.6697,990.9691],[-4.257,42.6713,963.7535],[-4.2506,42.6702,938.6991],[-4.252,42.6722,928.8709],[-4.2489,42.6712,964.6021],[-4.2437,42.669,993.024],[-4.2408,42.6642,1032.0271],[-4.2147,42.6517,1093.1268],[-4.2108,42.6579,1084.2737],[-4.2016,42.6657,1295.7483],[-4.1667,42.6666,1322.7307],[-4.1666,42.6644,1233.9532],[-4.1591,42.6593,1168.4641],[-4.1507,42.6595,1310.1838],[-4.1444,42.6619,1358.1057],[-4.1417,42.658,1348.7007],[-4.1381,42.6573,1207.8125],[-4.1426,42.653,1164.6677],[-4.1349,42.6471,1041.9644],[-4.131,42.6461,1067.006],[-4.1129,42.6479,1052.1233],[-4.1113,42.6455,1037.594],[-4.1221,42.6423,1056.6755],[-4.1244,42.6344,999.3781],[-4.1176,42.6269,963.0696],[-4.1215,42.6218,951.7241],[-4.1199,42.6203,942.6733],[-4.107,42.6192,954.7294],[-4.1012,42.6169,909.0765],[-4.098,42.6138,887.2157],[-4.0916,42.6164,922.0735],[-4.0871,42.6233,986.3857],[-4.0882,42.6294,1027.1675],[-4.0849,42.6313,985.5377],[-4.0837,42.6344,935.8379],[-4.078,42.6313,1029.9492],[-4.0771,42.6286,1047.8704],[-4.0835,42.6234,1016.0182],[-4.0811,42.6208,1011.1716],[-4.064,42.6145,955.6454],[-4.0633,42.6159,984.399],[-4.0703,42.6205,1031.1703],[-4.0736,42.6251,1064.7686],[-4.0736,42.6272,1043.337],[-4.0683,42.6269,1067.4707],[-4.0586,42.6201,1029.895],[-4.0576,42.6162,976.1932],[-4.0469,42.6092,1022.8471],[-4.0407,42.6095,1007.3062],[-4.0339,42.6122,1002.3942],[-4.0294,42.6174,999.3336],[-4.0105,42.6199,978.5615],[-4.007,42.6227,974.822],[-4.0057,42.6267,985.8344],[-4.0023,42.6256,977.5476],[-4.0013,42.6341,1094.8442],[-3.9727,42.6364,1079.2452],[-3.9718,42.6313,1072.1639],[-3.9524,42.6313,1049.9955],[-3.9453,42.6292,1058.4272],[-3.9232,42.627,1064.5264],[-3.921,42.6286,1055.4185],[-3.9077,42.6271,1034.6117],[-3.895,42.6176,979.554],[-3.8954,42.6111,1092.1434],[-3.9008,42.6096,1074.286],[-3.8542,42.5962,1053.8638],[-3.852,42.5942,1025.4346],[-3.8483,42.5944,1016.8144],[-3.8383,42.5815,1089.59],[-3.836,42.5809,1097.7053],[-3.8397,42.5698,1009.7188],[-3.8363,42.5652,1017.8041],[-3.8373,42.5596,997.3176],[-3.8348,42.5585,1001.8474]]]]}
,"properties": {"GID_3": "ESP.5.2.3_1","GID_0": "ESP","country": "Spain","GID_1": "ESP.5_1","province": "CastillayLeón","NL_NAME_1": "NA","GID_2": "ESP.5.2_1","county": "Burgos","NL_NAME_2": "NA","city": "n.a.(61)","VARNAME_3": "NA","NL_NAME_3": "NA","TYPE_3": "Comarca","ENGTYPE_3": "Comarca","CC_3": "NA","HASC_3": "NA","name": "n.a.(61).city","area_km2": 1020.5512,"hist_schema_id": "Elevation0-9000","hist_area_km2": {"600": 0.0777,"625": 2.6898,"650": 3.3283,"675": 5.7396,"700": 6.2392,"725": 6.7701,"750": 8.2183,"775": 9.2158,"800": 11.2084,"825": 16.8393,"850": 23.9996,"875": 31.5625,"900": 43.1946,"925": 83.3884,"950": 116.7736,"975": 125.5181,"1000": 157.5908,"1025": 150.8265,"1050": 96.8321,"1075": 57.0235,"1100": 22.5383,"1125": 14.0356,"1150": 10.8609,"1175": 8.9747,"1200": 2.7108,"1225": 1.1526,"1250": 0.6856,"1275": 0.7171,"1300": 0.7327,"1325": 0.873,"1350": 0.2339}}}