{"type":"Feature","properties":{"GID_3":"ESP.2.1.2_1","GID_0":"ESP","country":"Spain","GID_1":"ESP.2_1","province":"Aragón","NL_NAME_1":"NA","GID_2":"ESP.2.1_1","county":"Huesca","NL_NAME_2":"NA","city":"n.a.(126)","VARNAME_3":"NA","NL_NAME_3":"NA","TYPE_3":"Comarca","ENGTYPE_3":"Comarca","CC_3":"NA","HASC_3":"NA","name":"n.a.(126).city"},
"geometry":{"type": "MultiPolygon","coordinates": [[[[0.2179,42.224,445.8137],[0.228,42.2224,425.5],[0.2304,42.228,425.5],[0.2242,42.2419,425.5],[0.2247,42.2469,425.5],[0.2275,42.2447,431.5399],[0.2441,42.2417,603.6144],[0.2471,42.2386,581.2452],[0.2599,42.2397,810.8814],[0.2591,42.2425,784.1208],[0.2619,42.2444,873.7639],[0.2628,42.251,874.2269],[0.2668,42.2555,720.2014],[0.2652,42.2583,687.4944],[0.2691,42.2678,884.752],[0.2769,42.2699,901.4766],[0.2841,42.2765,1023.1331],[0.2899,42.2775,1028.6006],[0.293,42.2798,1063.0491],[0.302,42.2794,1069.991],[0.3094,42.2846,1086.9657],[0.3087,42.2909,986.4314],[0.314,42.2916,959.0545],[0.3183,42.2946,990.9407],[0.3251,42.3045,928.8243],[0.321,42.3134,924.3314],[0.3246,42.3145,936.7092],[0.3264,42.3215,996.9597],[0.3358,42.3351,1157.6654],[0.3572,42.3402,1044.2063],[0.3685,42.3481,925.3246],[0.3743,42.3499,952.5256],[0.3792,42.3494,800.2413],[0.3716,42.36,974.1352],[0.3714,42.3642,994.8352],[0.3749,42.3676,835.0293],[0.3724,42.3757,884.7864],[0.3614,42.384,1055.2291],[0.3398,42.384,983.7121],[0.3266,42.3883,874.6337],[0.3248,42.3906,860.4773],[0.3153,42.3911,794.1637],[0.3095,42.3943,777.9722],[0.299,42.3897,712.7735],[0.2945,42.3908,702.4575],[0.2842,42.389,692.439],[0.2823,42.3914,696.5743],[0.2835,42.3959,698.0778],[0.2959,42.4124,847.2098],[0.3153,42.4289,937.1473],[0.3319,42.438,1799.0496],[0.3203,42.4589,1757.0044],[0.308,42.4666,1763.8888],[0.2969,42.4763,1582.2678],[0.2965,42.479,1450.1038],[0.3018,42.4797,1472.8738],[0.3068,42.4881,1747.5959],[0.3153,42.489,1947.592],[0.3198,42.4992,2248.6824],[0.3195,42.512,2852.239],[0.318,42.5134,2865.1973],[0.3193,42.5204,2705.8467],[0.3339,42.5306,2545.0583],[0.3339,42.5362,2578.0608],[0.3367,42.5359,2576.5234],[0.3382,42.5381,2468.3372],[0.3445,42.5367,2646.4983],[0.348,42.5406,2312.792],[0.3678,42.529,1925.3857],[0.3738,42.5299,1625.6982],[0.3833,42.5251,1509.5471],[0.3949,42.5227,1239.9116],[0.398,42.5205,1196.3912],[0.3981,42.526,1255.9365],[0.3947,42.5335,1275.7101],[0.3974,42.5374,1343.277],[0.397,42.5401,1394.4833],[0.3928,42.5449,1459.4458],[0.3916,42.5572,1810.4756],[0.4079,42.5613,2314.9292],[0.4159,42.5677,1958.1466],[0.4007,42.5725,1938.6635],[0.4018,42.5776,1949.0397],[0.4043,42.5801,1978.4792],[0.4021,42.596,2131.0957],[0.4035,42.6045,2275.4187],[0.4064,42.6068,2275.2468],[0.4085,42.625,2969.4819],[0.4151,42.6303,2852.4214],[0.422,42.6332,2864.8662],[0.4253,42.6311,2921.9961],[0.4273,42.6357,2865.9172],[0.422,42.6403,2869.3142],[0.4248,42.6487,3150.9695],[0.4336,42.6538,3267.2454],[0.4364,42.6656,2980.6218],[0.4317,42.6743,2668.5195],[0.4387,42.6839,2722.0713],[0.4354,42.685,2729.8623],[0.4353,42.6896,2778.1821],[0.4341,42.6907,2768.8213],[0.422,42.6903,2669.7412],[0.4194,42.6927,2722.615],[0.4111,42.6951,2615.8782],[0.3961,42.6939,3033.187],[0.3923,42.7119,2963.7534],[0.3905,42.7127,2942.0764],[0.3837,42.7109,2854.7925],[0.3754,42.714,2544.4524],[0.3604,42.7237,2885.1675],[0.3584,42.7195,2834.9531],[0.3533,42.7184,2697.3555],[0.345,42.7111,2782.2417],[0.3277,42.7053,2801.5645],[0.3262,42.701,2576.8188],[0.3269,42.6973,2596.5642],[0.324,42.6948,2537.8499],[0.327,42.6909,2441.5525],[0.3209,42.6832,2624.0212],[0.3184,42.6842,2605.9727],[0.295,42.6734,2494.5295],[0.2932,42.6762,2449.9141],[0.2635,42.6938,2738.7637],[0.2664,42.6975,2635.74],[0.2669,42.7028,2603.4722],[0.2596,42.7158,2691.2104],[0.227,42.7174,2638.5718],[0.206,42.7293,2578.4983],[0.176,42.7356,2477.7896],[0.1754,42.7334,2296.9329],[0.1629,42.7265,2661.5825],[0.1623,42.7224,2658.9346],[0.1563,42.7235,2620.2915],[0.1421,42.7219,2734.2908],[0.1346,42.7178,2998.4204],[0.1341,42.7155,3051.4807],[0.112,42.7103,2759.873],[0.1071,42.71,2692.8909],[0.087,42.7164,2676.502],[0.0794,42.7147,2701.3499],[0.0704,42.7034,2673.5068],[0.0583,42.697,2436.5068],[0.0527,42.6975,2551.355],[0.0495,42.6957,2768.7856],[0.0266,42.7018,2885.8799],[0.021,42.7018,2940.9617],[0.0153,42.7008,2944.9102],[0.0118,42.6928,3224.8711],[0.0007,42.6852,2995.4028],[-0.0146,42.6848,2925.6135],[-0.0616,42.6947,2932.217],[-0.0688,42.7161,2462.1362],[-0.1031,42.7216,2384.5181],[-0.106,42.7209,2469.2305],[-0.1105,42.7254,2473.8962],[-0.1095,42.7318,2362.728],[-0.1125,42.7361,2573.425],[-0.1175,42.7382,2572.7485],[-0.1181,42.7436,2439.0332],[-0.1232,42.7504,2535.8542],[-0.1378,42.765,3017.5044],[-0.1453,42.7686,3143.4131],[-0.15,42.769,3202.0615],[-0.15,42.7728,3199.9971],[-0.1477,42.7739,3170.6492],[-0.1595,42.7807,2561.0654],[-0.1558,42.7859,2670.7236],[-0.1586,42.7957,2779.1575],[-0.1779,42.7853,2706.3091],[-0.1797,42.7801,2785.1921],[-0.1843,42.7792,2643.0425],[-0.1875,42.7751,2785.3267],[-0.193,42.7728,2792.249],[-0.1956,42.7684,2772.8389],[-0.2,42.7693,2828.8245],[-0.204,42.762,2625.0659],[-0.2019,42.7581,2557.4702],[-0.2032,42.7555,2600.9702],[-0.1971,42.7527,2682.4961],[-0.2003,42.7406,2677.801],[-0.2059,42.7375,2624.6777],[-0.2032,42.7287,2630.25],[-0.1977,42.7285,2570.0796],[-0.192,42.7252,2478.915],[-0.1885,42.7183,2541.5383],[-0.1908,42.7099,2485.8237],[-0.1903,42.7002,2553.4197],[-0.193,42.6964,2509.1775],[-0.188,42.6906,2348.3257],[-0.1912,42.6891,2376.1899],[-0.2013,42.6779,2633.8032],[-0.1996,42.675,2361.7253],[-0.2005,42.6702,2192.4775],[-0.194,42.652,2222.1389],[-0.1972,42.6468,2029.0459],[-0.2009,42.6327,1783.3376],[-0.2068,42.623,1637.0022],[-0.2054,42.6168,1586.9036],[-0.2076,42.6128,1602.3467],[-0.205,42.6041,1722.5199],[-0.2065,42.6005,1885.7281],[-0.2135,42.6019,1781.3518],[-0.2272,42.6014,1937.1276],[-0.2303,42.5985,1981.1742],[-0.2312,42.5892,1940.3551],[-0.2291,42.5864,1826.9802],[-0.2294,42.5782,1774.0012],[-0.2264,42.5721,1701.423],[-0.2181,42.5692,1530.5199],[-0.2233,42.5692,1557.3381],[-0.226,42.5676,1487.4951],[-0.2227,42.562,1488.2043],[-0.2248,42.5602,1555.6976],[-0.2299,42.5613,1544.5472],[-0.2317,42.5587,1522.7916],[-0.237,42.5587,1468.2816],[-0.2388,42.5525,1268.5714],[-0.2444,42.5499,1408.0631],[-0.2461,42.5464,1591.4517],[-0.2134,42.5372,1450.3333],[-0.2066,42.5366,1387.7428],[-0.197,42.5409,1333.8137],[-0.1853,42.5358,1219.259],[-0.1847,42.5345,1205.7778],[-0.1884,42.5306,1354.2737],[-0.1899,42.5231,1121.2239],[-0.1875,42.5184,1208.3452],[-0.1821,42.5142,1304.0109],[-0.1798,42.5053,1617.6528],[-0.1747,42.5028,1626.4883],[-0.1754,42.4935,1307.4305],[-0.1829,42.4916,1431.3335],[-0.1795,42.4844,1563.0565],[-0.1824,42.4773,1555.6461],[-0.1769,42.4765,1589.1997],[-0.1762,42.4735,1547.3958],[-0.179,42.4687,1464.9872],[-0.174,42.4727,1618.3743],[-0.1639,42.4679,1808.6019],[-0.1608,42.4679,1844.9131],[-0.1537,42.4715,1886.3134],[-0.1392,42.4657,1852.4963],[-0.1341,42.4651,1865.0306],[-0.1313,42.4611,1716.9683],[-0.1327,42.4565,1559.2068],[-0.1286,42.4491,1550.0267],[-0.1288,42.443,1650.6689],[-0.1234,42.4369,1724.8708],[-0.0859,42.4286,1741.6787],[-0.0721,42.4274,1573.8301],[-0.0714,42.4254,1628.1359],[-0.0658,42.422,1630.7168],[-0.0709,42.4131,1425.4338],[-0.0785,42.4058,1209.4501],[-0.089,42.4048,1215.8022],[-0.0883,42.4037,1186.2423],[-0.0974,42.4,1207.0959],[-0.1025,42.4008,1199.0667],[-0.1048,42.3989,1196.6709],[-0.1066,42.3905,1222.0767],[-0.0977,42.389,1148.9839],[-0.1004,42.3848,1142.3811],[-0.1095,42.3778,1280.6676],[-0.1147,42.3763,1323.8706],[-0.1139,42.375,1361.4415],[-0.1292,42.3737,1326.3185],[-0.13,42.372,1314.2869],[-0.1142,42.3691,1152.1117],[-0.1135,42.3654,1096.1062],[-0.1268,42.3588,1074.2069],[-0.1255,42.3562,1064.5836],[-0.1234,42.3563,1050.3231],[-0.122,42.3542,1045.5741],[-0.0986,42.3417,1085.3721],[-0.0791,42.3397,1111.329],[-0.0836,42.3462,1253.9299],[-0.0761,42.3531,1097.4115],[-0.062,42.3606,1250.0553],[-0.0554,42.3549,1063.8096],[-0.0482,42.354,1116.6295],[-0.0521,42.35,1077.9724],[-0.058,42.3483,1023.5367],[-0.0552,42.3389,1010.0778],[-0.057,42.3377,1004.8978],[-0.055,42.3346,998.5245],[-0.0593,42.3304,1005.5154],[-0.0506,42.3299,1101.2155],[-0.0445,42.3217,1280.8636],[-0.0369,42.3153,1464.903],[-0.0359,42.3116,1492.9017],[-0.0405,42.3047,1528.7723],[-0.0425,42.287,1142.2881],[-0.0409,42.2842,1066.4386],[-0.03,42.2796,776.7506],[-0.0331,42.278,763.9778],[-0.0386,42.27,796.8383],[-0.0383,42.2644,825.8721],[-0.0236,42.265,1396.5078],[-0.0213,42.2626,1376.8633],[-0.0109,42.2632,1322.3879],[0.005,42.2616,1033.8148],[-0.0003,42.2771,1138.4211],[0.0031,42.279,1145.074],[0.0025,42.284,1189.3743],[0.0101,42.2864,1409.9812],[0.0112,42.2899,1387.4663],[0.0082,42.2927,1238.5571],[0.0108,42.2966,1058.3003],[0.0201,42.2999,938.2313],[0.0287,42.2999,878.3947],[0.0371,42.3028,834.9065],[0.0398,42.3016,834.0939],[0.0421,42.2972,828.879],[0.04,42.2917,825.7609],[0.0419,42.2867,869.7008],[0.0409,42.2845,850.3965],[0.0433,42.285,817.4745],[0.0456,42.2836,809.8337],[0.0448,42.2827,809.8337],[0.048,42.2838,866.6017],[0.0576,42.2924,845.9506],[0.062,42.29,834.0732],[0.0639,42.2861,815.9124],[0.062,42.2859,835.4789],[0.0623,42.2833,818.4517],[0.0718,42.2901,837.9595],[0.071,42.2951,841.6923],[0.0728,42.3007,831.2933],[0.0792,42.3017,842.538],[0.0787,42.3041,841.0958],[0.0826,42.3064,821.7412],[0.0935,42.3057,751.7725],[0.098,42.307,664.6653],[0.0935,42.2862,723.7922],[0.1093,42.2749,617.0695],[0.1074,42.2726,635.436],[0.1053,42.2574,797.1596],[0.0984,42.2546,816.4529],[0.0956,42.2476,833.4102],[0.0994,42.247,875.8004],[0.1043,42.2426,994.9117],[0.125,42.2349,888.7811],[0.1353,42.2357,801.4311],[0.1469,42.2426,965.149],[0.1396,42.2335,853.5015],[0.1479,42.2357,943.4775],[0.1503,42.2399,964.3236],[0.1524,42.2397,979.4356],[0.1726,42.2277,933.9829],[0.1783,42.2192,832.7739],[0.1872,42.2164,821.801],[0.2019,42.2229,674.0289],[0.2179,42.224,445.8137]]]]}}