{"type": "Feature","bbox": [-2.73758237044774,40.502262758372723,-2.5768595570338562,40.725685130865656],"geometry": {"type": "Polygon","coordinates": [[[-2.602027689903593,40.718914755941626,819.2941],[-2.6283732792819019,40.699781087678076,838.5884],[-2.65486605072374,40.676820685761811,860.5311],[-2.6588399664400129,40.670344674964895,777.1111],[-2.661930789774885,40.667989761947837,744.8485],[-2.6751771754958331,40.651211006701345,797.9279],[-2.67620744994079,40.646795544794372,709.3254],[-2.6926918410601668,40.636198436217626,772.1701],[-2.7150635147221749,40.61147184953856,705.5],[-2.727132443934551,40.583801621588179,748.0325],[-2.7140332402772169,40.56378486094323,705.5],[-2.7324309982229238,40.532876627594419,705.5],[-2.73758237044774,40.511976774568069,705.5],[-2.7238944385361208,40.502262758372723,705.5],[-2.7091762321795438,40.509916225678154,756.3638],[-2.6906312921702238,40.548183562205253,762.9948],[-2.672969444542332,40.56378486094323,748.7503],[-2.69534111820434,40.581741072698264,767.7521],[-2.6934277513779818,40.600874740961814,863.6207],[-2.6776792705764478,40.620597137479649,772.8159],[-2.6588399664400129,40.639436441616084,888.1307],[-2.656632235486541,40.645912452412972,885.5204],[-2.6576625099314981,40.652977191464146,778.5658],[-2.6576625099314981,40.660336294642434,709.5653],[-2.6519224094524252,40.666812305439322,817.9626],[-2.6310225564260752,40.685357245448614,821.8629],[-2.624693727692744,40.689772707355587,818.1346],[-2.609681157209025,40.696543082279618,757.195],[-2.5995255948229778,40.703313457203649,810.126],[-2.5768595570338562,40.72421331023,825.7967],[-2.5868679373563168,40.725685130865656,862.8258],[-2.602027689903593,40.718914755941626,819.2941]]]}
,"properties": {"featurecla": "Reservoir","scalerank": 7,"name": "Embalse de Entrepeas","name_abb": "Emb. de Entrepeas","name_alt": null,"note": null,"delta": null,"dam_name": null,"year": -99,"admin": null,"min_zoom": 5.7,"min_label": 6.7,"area_km2": 53.73545,"hist_schema_id": "Elevation0-9000","hist_area_km2": {"700": 16.83006,"725": 8.10068,"750": 8.56681,"775": 5.8751,"800": 5.34076,"825": 4.2451,"850": 2.09085,"875": 1.44735,"900": 0.72388,"925": 0.35397,"950": 0.1448,"975": 0.01609}}}