{"type":"Feature","properties":{"GID_3":"ESP.4.3.5_1","GID_0":"ESP","country":"Spain","GID_1":"ESP.4_1","province":"Castilla-LaMancha","NL_NAME_1":"NA","GID_2":"ESP.4.3_1","county":"Cuenca","NL_NAME_2":"NA","city":"n.a.(97)","VARNAME_3":"NA","NL_NAME_3":"NA","TYPE_3":"Comarca","ENGTYPE_3":"Comarca","CC_3":"NA","HASC_3":"NA","name":"n.a.(97).city"},
"geometry":{"type": "MultiPolygon","coordinates": [[[[-2.2233,39.4989,885.6271],[-2.2176,39.5009,884.9564],[-2.2133,39.5063,885.4812],[-2.2054,39.5267,893.2523],[-2.1989,39.5328,880.4604],[-2.1982,39.5368,865.9734],[-2.1957,39.5351,872.4577],[-2.187,39.5362,879.034],[-2.1804,39.5524,874.5302],[-2.169,39.5563,895.2355],[-2.1685,39.5591,895.1216],[-2.123,39.5815,794.5],[-2.1248,39.5854,794.5],[-2.1284,39.5841,794.5],[-2.1359,39.5846,819.3256],[-2.1437,39.5797,833.5654],[-2.1643,39.5745,843.7064],[-2.1768,39.5784,845.5763],[-2.179,39.582,847.4954],[-2.1784,39.5863,847.9137],[-2.1832,39.5868,847.7869],[-2.1736,39.5956,823.5609],[-2.1714,39.6032,794.5],[-2.2058,39.6096,801.1225],[-2.2103,39.6125,846.275],[-2.2104,39.6138,833.391],[-2.1973,39.6225,794.5],[-2.1995,39.6237,794.5],[-2.1982,39.6259,794.5],[-2.2007,39.6338,794.5],[-2.2035,39.634,794.5],[-2.2035,39.6321,794.5],[-2.2051,39.6318,794.5],[-2.2056,39.6348,794.5],[-2.2141,39.6374,794.5],[-2.214,39.6435,794.5],[-2.2108,39.648,809.2445],[-2.2136,39.6491,794.5],[-2.2182,39.6563,794.5],[-2.2306,39.6625,794.5],[-2.2284,39.6643,794.5],[-2.2292,39.6665,794.5],[-2.2362,39.6763,794.5],[-2.2339,39.6859,794.5],[-2.2008,39.7078,813.1851],[-2.1967,39.7082,824.0514],[-2.1806,39.7191,872.4604],[-2.1837,39.7195,867.84],[-2.1731,39.7253,861.358],[-2.1709,39.7251,869.1216],[-2.1847,39.7373,853.3895],[-2.1878,39.7457,816.0823],[-2.1862,39.7484,829.4175],[-2.1983,39.7583,847.6696],[-2.2067,39.7609,827.798],[-2.2097,39.7667,834.5553],[-2.2143,39.768,839.4668],[-2.2375,39.7604,898.4271],[-2.2402,39.7615,901.8977],[-2.2506,39.7745,884.6827],[-2.2599,39.7813,892.171],[-2.2688,39.7918,867.8374],[-2.2776,39.7946,854.294],[-2.2811,39.7991,815.8363],[-2.2845,39.7988,794.5],[-2.2851,39.8037,798.3663],[-2.2798,39.8067,801.5925],[-2.279,39.8087,798.3575],[-2.285,39.8211,801.4751],[-2.2835,39.8256,831.2446],[-2.2765,39.8302,807.7479],[-2.2721,39.8401,819.4136],[-2.29,39.8486,815.4945],[-2.2878,39.8525,811.1913],[-2.2738,39.8589,824.0657],[-2.2733,39.864,824.1854],[-2.2677,39.8636,842.0096],[-2.2662,39.8659,822.5282],[-2.2699,39.8709,823.2399],[-2.2706,39.878,833.4382],[-2.2791,39.8769,885.9668],[-2.2986,39.8846,923.4261],[-2.312,39.8919,916.6298],[-2.321,39.903,929.9953],[-2.3212,39.9065,926.3224],[-2.3251,39.9126,949.2743],[-2.3365,39.9233,957.0637],[-2.3385,39.9293,973.8896],[-2.3459,39.9323,958.4102],[-2.3533,39.9393,961.8752],[-2.3616,39.9434,972.8038],[-2.3734,39.9601,1046.0688],[-2.3781,39.9624,1047.6985],[-2.3898,39.9456,937.2648],[-2.4014,39.963,987.7004],[-2.4117,39.9733,971.3708],[-2.4174,39.9779,931.4287],[-2.4318,39.9834,954.6857],[-2.4337,39.9856,954.2734],[-2.429,39.9913,985.6793],[-2.4263,39.9997,946.1821],[-2.4416,40.0118,1027.7642],[-2.4486,40.0358,1050.9119],[-2.4155,40.0421,1050.8994],[-2.4039,40.0476,1066.4443],[-2.4016,40.0616,1100.9144],[-2.3981,40.0639,1133.9905],[-2.4185,40.0762,1130.3752],[-2.4449,40.086,1098.9204],[-2.4587,40.0859,1081.8347],[-2.4711,40.0901,1091.8242],[-2.4889,40.0879,1073.7295],[-2.4927,40.077,1075.261],[-2.4971,40.0778,1080.0353],[-2.5299,40.0668,926.804],[-2.5508,40.0666,1060.2267],[-2.5747,40.0708,1034.1294],[-2.5775,40.0742,1043.5654],[-2.5753,40.0813,1035.6377],[-2.5761,40.0852,1053.4141],[-2.5805,40.0923,1053.8658],[-2.6089,40.0979,1042.0377],[-2.6371,40.096,1049.2902],[-2.6377,40.0918,1036.817],[-2.6423,40.0853,1042.7471],[-2.6421,40.0783,1039.9532],[-2.6541,40.0754,1022.8247],[-2.6589,40.0698,971.4467],[-2.6772,40.0732,1012.5911],[-2.6768,40.0768,1006.2955],[-2.6804,40.081,1028.9001],[-2.6865,40.0838,1028.5278],[-2.6888,40.0892,938.9074],[-2.6923,40.0864,953.1039],[-2.6951,40.0867,944.7321],[-2.7094,40.0988,911.8984],[-2.7312,40.1063,932.5002],[-2.7418,40.1132,903.7183],[-2.7543,40.113,896.7886],[-2.7644,40.0989,918.7156],[-2.7801,40.0916,931.3877],[-2.7844,40.0944,913.8253],[-2.7895,40.0941,918.3893],[-2.8381,40.0874,926.8282],[-2.8405,40.0879,907.8015],[-2.8421,40.0945,954.7401],[-2.8383,40.1024,968.9784],[-2.8398,40.1061,1001.3702],[-2.8381,40.109,1025.3782],[-2.8387,40.1173,1069.7272],[-2.8547,40.1166,973.3755],[-2.8628,40.0936,960.9872],[-2.866,40.0893,949.629],[-2.87,40.0871,945.7932],[-2.8718,40.0833,931.2263],[-2.8851,40.0845,855.9094],[-2.8905,40.0821,868.5903],[-2.8981,40.0821,879.7619],[-2.9014,40.0688,893.6699],[-2.9086,40.0673,838.4255],[-2.9149,40.0628,837.4077],[-2.936,40.0663,787.0619],[-2.9453,40.066,834.5024],[-2.9503,40.0796,844.4549],[-2.9537,40.0791,840.1863],[-2.9567,40.0814,847.1998],[-2.9665,40.0836,849.5709],[-2.9695,40.0906,856.0658],[-2.9772,40.0898,837.1373],[-2.9831,40.0877,837.5958],[-2.9831,40.0862,856.4362],[-3.0042,40.0813,784.9851],[-3.0094,40.0832,776.2089],[-3.0143,40.083,765.7169],[-3.0187,40.0888,736.3755],[-3.0228,40.0902,725.3881],[-3.0455,40.0895,648.6068],[-3.0507,40.0917,612.7972],[-3.0516,40.0985,610.4641],[-3.0532,40.0991,609.9186],[-3.0607,40.0904,657.1926],[-3.0886,40.0705,680.9301],[-3.0952,40.0684,686.5467],[-3.1066,40.0662,685.7214],[-3.1178,40.0617,692.6695],[-3.1393,40.0632,645.1155],[-3.1486,40.0662,618.2087],[-3.1613,40.0651,652.1467],[-3.1613,40.0619,650.2186],[-3.1663,40.052,684.14],[-3.1701,40.0482,683.9272],[-3.1653,40.0393,722.1944],[-3.1654,40.0282,753.8353],[-3.1607,40.0263,747.8115],[-3.1504,40.0108,767.7565],[-3.1425,39.985,789.2263],[-3.1318,39.9841,794.0371],[-3.11,39.9876,813.0039],[-3.0965,39.987,807.5861],[-3.0985,39.9752,799.1536],[-3.0948,39.9717,800.1118],[-3.0974,39.9695,796.6193],[-3.0961,39.9661,801.3694],[-3.0973,39.9594,791.5639],[-3.0947,39.956,793.7135],[-3.0988,39.9526,789.0477],[-3.0966,39.9472,790.494],[-3.0982,39.9436,781.7958],[-3.097,39.9335,775.0348],[-3.1003,39.9217,766.3575],[-3.1068,39.9164,771.5657],[-3.1068,39.9032,761.2478],[-3.1132,39.8995,759.0111],[-3.1128,39.8943,757.0088],[-3.1221,39.886,758.1411],[-3.1271,39.8747,749.8554],[-3.122,39.8761,766.2811],[-3.1185,39.8745,763.7747],[-3.112,39.875,760.3626],[-3.1068,39.8711,756.2754],[-3.0962,39.8691,753.2509],[-3.0822,39.8579,752.1923],[-3.0762,39.8557,752.5071],[-3.0596,39.8375,735.286],[-3.0556,39.8292,742.7775],[-3.0556,39.8237,737.2944],[-3.0517,39.8126,726.7379],[-3.0376,39.7902,758.687],[-3.0404,39.7876,757.4585],[-3.0296,39.7771,762.3954],[-3.0208,39.7711,757.7971],[-3.0105,39.7789,764.5486],[-3.004,39.7747,762.8412],[-2.9937,39.7736,763.3842],[-2.9878,39.7771,770.1339],[-2.9753,39.7725,750.2238],[-2.9721,39.7778,730.7053],[-2.9701,39.7793,732.7529],[-2.9678,39.7775,729.0199],[-2.9631,39.7838,730.627],[-2.9569,39.788,731.7682],[-2.9438,39.7945,734.5634],[-2.9413,39.7942,737.3356],[-2.9345,39.8036,737.563],[-2.9284,39.8075,739.1211],[-2.9213,39.805,749.9583],[-2.9189,39.8013,759.9463],[-2.9133,39.7976,772.5069],[-2.9152,39.793,774.9574],[-2.9124,39.7888,801.9297],[-2.9061,39.7902,802.9899],[-2.8947,39.7864,818.2344],[-2.8859,39.7877,835.9489],[-2.8844,39.7899,835.1611],[-2.871,39.7889,833.4329],[-2.8591,39.7911,874.8161],[-2.8541,39.7939,894.7236],[-2.843,39.795,948.0781],[-2.8461,39.7912,937.5253],[-2.8471,39.7821,946.2472],[-2.8459,39.7795,943.0054],[-2.8411,39.7786,944.9513],[-2.8379,39.7813,969.6462],[-2.8359,39.7753,995.2917],[-2.8389,39.7598,1011.2468],[-2.8099,39.7605,859.3066],[-2.7958,39.759,857.7067],[-2.787,39.7502,868.5405],[-2.7857,39.7422,863.0771],[-2.7749,39.7461,867.5959],[-2.7504,39.7476,845.5744],[-2.7424,39.7463,860.9967],[-2.7348,39.743,830.1219],[-2.7203,39.7285,904.5984],[-2.6974,39.714,927.1288],[-2.6922,39.7046,914.3517],[-2.6829,39.6973,910.6152],[-2.6725,39.6976,852.8243],[-2.6373,39.7069,787.5559],[-2.6311,39.7111,783.6045],[-2.6229,39.7122,782.9913],[-2.612,39.7069,826.9987],[-2.6085,39.7004,818.679],[-2.6087,39.691,811.1759],[-2.5978,39.6819,818.1493],[-2.5776,39.6809,837.8882],[-2.5528,39.6725,832.8577],[-2.5429,39.6816,842.9133],[-2.5305,39.6599,812.4512],[-2.4881,39.6584,910.2643],[-2.4869,39.6527,905.7972],[-2.4923,39.6411,883.9504],[-2.4906,39.6265,871.6461],[-2.5008,39.6206,834.6096],[-2.4853,39.6014,823.7397],[-2.489,39.5976,834.3748],[-2.4808,39.5922,818.2245],[-2.4636,39.5874,805.4049],[-2.4379,39.5876,816.7666],[-2.4229,39.5961,841.368],[-2.4085,39.5967,860.7146],[-2.3969,39.5939,855.4238],[-2.3899,39.5969,873.2464],[-2.3771,39.5909,892.2021],[-2.3702,39.584,870.1333],[-2.3636,39.5811,860.6031],[-2.3546,39.5725,845.3727],[-2.3483,39.569,839.9698],[-2.3564,39.5695,838.7153],[-2.3586,39.5619,814.7288],[-2.3662,39.5542,821.3634],[-2.3677,39.5487,819.0309],[-2.3656,39.5408,811.6698],[-2.3624,39.5389,800.7637],[-2.3611,39.5244,772.5206],[-2.3365,39.5126,770.3439],[-2.3264,39.5113,757.5562],[-2.2975,39.5027,844.0616],[-2.298,39.4988,815.4321],[-2.2902,39.4884,816.9606],[-2.2904,39.4852,814.4148],[-2.2866,39.4818,835.3291],[-2.2798,39.4828,840.4033],[-2.2753,39.4797,849.2742],[-2.2514,39.4806,863.7031],[-2.2334,39.4759,875.2773],[-2.2298,39.4768,877.2529],[-2.2309,39.4912,878.493],[-2.2233,39.4989,885.6271]]]]}}