{"type":"Feature","properties":{"GID_3":"ESP.5.9.1_1","GID_0":"ESP","country":"Spain","GID_1":"ESP.5_1","province":"CastillayLeón","NL_NAME_1":"NA","GID_2":"ESP.5.9_1","county":"Zamora","NL_NAME_2":"NA","city":"n.a.(268)","VARNAME_3":"NA","NL_NAME_3":"NA","TYPE_3":"Comarca","ENGTYPE_3":"Comarca","CC_3":"NA","HASC_3":"NA","name":"n.a.(268).city"},
"geometry":{"type": "MultiPolygon","coordinates": [[[[-5.7697,41.8553,715.1642],[-5.7673,41.8478,727.6526],[-5.7693,41.8425,739.3887],[-5.7575,41.8324,729.5273],[-5.7387,41.8286,736.2299],[-5.733,41.829,732.0886],[-5.7122,41.835,728.9383],[-5.6898,41.8362,719.1035],[-5.6795,41.8399,718.9536],[-5.6673,41.8472,715.3118],[-5.6703,41.8496,712.09],[-5.6534,41.862,707.476],[-5.6459,41.8696,708.3223],[-5.65,41.8903,716.0708],[-5.6543,41.8993,718.1596],[-5.6406,41.8898,713.6944],[-5.6352,41.8967,714.084],[-5.6452,41.9023,716.5135],[-5.6428,41.9033,716.7675],[-5.6442,41.9059,716.9382],[-5.6397,41.9119,717.4479],[-5.6274,41.908,712.046],[-5.6284,41.9113,713.5934],[-5.6094,41.9224,707.8541],[-5.6068,41.9477,714.1606],[-5.5913,41.9524,715.3105],[-5.5847,41.9517,717.3945],[-5.5589,41.9584,737.0521],[-5.5591,41.9659,735.5676],[-5.5521,41.9705,737.9563],[-5.5351,41.9654,743.8501],[-5.5257,41.9686,742.6732],[-5.5285,41.9736,736.5242],[-5.5232,41.9766,740.5293],[-5.5164,41.984,738.6418],[-5.5141,41.9831,740.5566],[-5.5076,41.99,737.7714],[-5.4992,41.9904,741.6219],[-5.484,41.9962,746.7442],[-5.479,41.9992,746.4485],[-5.4783,42.0044,743.5298],[-5.4716,42.0063,746.8757],[-5.4727,42.0136,745.6882],[-5.4876,42.0258,739.0129],[-5.4882,42.03,731.0098],[-5.4926,42.0333,736.2465],[-5.4864,42.0388,741.2678],[-5.4957,42.0456,729.8364],[-5.4961,42.0492,756.2508],[-5.5076,42.0575,718.3254],[-5.5028,42.0625,719.6354],[-5.5015,42.0665,717.1235],[-5.5089,42.077,754.4368],[-5.5183,42.0847,748.0518],[-5.5178,42.0906,765.1237],[-5.5208,42.0971,760.9906],[-5.5269,42.1043,773.3619],[-5.5433,42.0994,783.4596],[-5.5417,42.0981,783.3589],[-5.5442,42.0924,783.181],[-5.5439,42.0862,780.9844],[-5.5481,42.0791,778.2106],[-5.5493,42.0703,770.8451],[-5.5527,42.0637,769.2809],[-5.5573,42.0607,766.5618],[-5.5606,42.056,751.0406],[-5.5647,42.0592,767.1622],[-5.5697,42.0578,768.8682],[-5.5746,42.0646,770.3854],[-5.5776,42.0654,743.5507],[-5.5793,42.0644,743.5507],[-5.5801,42.0584,716.0411],[-5.5865,42.0509,717.7513],[-5.5888,42.0529,711.5292],[-5.5834,42.066,722.3348],[-5.5864,42.0712,714.894],[-5.5893,42.0725,731.5312],[-5.5884,42.0773,713.1678],[-5.5913,42.0786,712.834],[-5.5938,42.076,713.1453],[-5.5972,42.0765,711.8304],[-5.5967,42.0791,712.6519],[-5.6037,42.0794,714.6442],[-5.6043,42.0806,716.5157],[-5.6061,42.0795,714.6461],[-5.6248,42.0835,720.4407],[-5.6341,42.0814,725.5311],[-5.6383,42.0851,733.1394],[-5.6242,42.0926,735.1085],[-5.6194,42.105,728.2408],[-5.6215,42.1087,737.7476],[-5.6381,42.1221,745.7423],[-5.6451,42.1321,755.6014],[-5.6658,42.1369,778.1036],[-5.6652,42.1411,766.2417],[-5.6674,42.1421,766.8159],[-5.6795,42.1402,780.3489],[-5.6808,42.1417,778.4723],[-5.6869,42.1382,777.4769],[-5.6855,42.1357,776.8298],[-5.6796,42.1326,775.8373],[-5.6767,42.1203,764.6876],[-5.6967,42.1208,763.3459],[-5.7174,42.115,746.8828],[-5.7431,42.1134,746.6072],[-5.752,42.1213,748.8693],[-5.7509,42.1243,748.8373],[-5.7551,42.1366,751.0172],[-5.7594,42.1343,750.1737],[-5.7699,42.1359,750.4019],[-5.7878,42.1334,749.1105],[-5.7911,42.1273,748.851],[-5.798,42.1276,743.3586],[-5.8052,42.1246,729.4005],[-5.8062,42.1277,730.6232],[-5.8045,42.1298,731.6512],[-5.8064,42.1305,732.2131],[-5.812,42.1265,736.3151],[-5.832,42.1194,763.6935],[-5.838,42.1188,759.2941],[-5.8407,42.1126,741.0226],[-5.8447,42.1107,742.6914],[-5.8667,42.1201,795.4415],[-5.8847,42.1384,802.7871],[-5.8809,42.1453,836.0682],[-5.8904,42.15,844.6432],[-5.8973,42.1561,824.2336],[-5.9059,42.1439,788.4872],[-5.9115,42.1406,773.0933],[-5.9265,42.1407,775.0016],[-5.9315,42.1394,788.6318],[-5.9356,42.1412,792.9152],[-5.948,42.1419,819.6857],[-5.9521,42.135,806.8205],[-5.9533,42.1237,853.4058],[-5.9608,42.1272,856.2284],[-5.9742,42.1302,866.783],[-5.9897,42.1434,869.9059],[-6.0287,42.1576,901.9358],[-6.0755,42.1619,868.7132],[-6.0774,42.159,861.4769],[-6.0895,42.1616,870.6869],[-6.1054,42.162,897.6154],[-6.1246,42.1589,908.3198],[-6.1371,42.1647,914.7164],[-6.1433,42.1588,916.6799],[-6.1539,42.1613,949.2574],[-6.1601,42.1658,943.1135],[-6.1703,42.1582,878.8872],[-6.2123,42.1481,890.1335],[-6.2019,42.1331,844.6348],[-6.2069,42.1231,842.8507],[-6.213,42.1212,833.8029],[-6.2146,42.1179,849.7466],[-6.2137,42.1122,855.0981],[-6.178,42.1065,814.6782],[-6.1696,42.1024,812.113],[-6.1646,42.0752,794.762],[-6.1703,42.07,806.811],[-6.1704,42.0558,798.4601],[-6.1796,42.045,819.3408],[-6.1988,42.0387,833.0027],[-6.2067,42.022,833.4526],[-6.209,42.0204,831.696],[-6.2051,42.0138,841.5986],[-6.2017,42.0128,814.9684],[-6.1952,42.0046,807.1426],[-6.1988,42.0018,814.3232],[-6.1992,41.994,848.8767],[-6.176,41.9892,799.8798],[-6.176,41.9906,797.6481],[-6.1684,41.987,816.6251],[-6.1549,41.9881,830.5647],[-6.1454,41.9844,791.6385],[-6.1474,41.9828,795.4343],[-6.1454,41.976,780.0],[-6.1582,41.9762,780.5],[-6.1474,41.9704,804.1145],[-6.1364,41.9667,805.298],[-6.1109,41.9484,808.3384],[-6.1023,41.9291,819.3313],[-6.0798,41.9292,793.8986],[-6.0339,41.9202,806.2602],[-6.0269,41.9232,798.5281],[-6.0159,41.9315,794.2943],[-6.0105,41.9303,798.9669],[-6.0024,41.9332,799.0756],[-5.999,41.9317,792.8646],[-5.9919,41.922,750.4283],[-5.9927,41.9053,868.0573],[-5.9879,41.9028,844.8403],[-5.9872,41.8991,863.0435],[-5.9623,41.896,808.9537],[-5.9582,41.8939,821.833],[-5.9523,41.8982,799.4826],[-5.9427,41.8979,768.003],[-5.9289,41.891,812.9148],[-5.9286,41.8881,798.2715],[-5.9224,41.8869,786.9242],[-5.9054,41.8879,794.9881],[-5.9046,41.8853,796.6976],[-5.8905,41.888,770.4955],[-5.8474,41.8787,785.9097],[-5.838,41.8752,783.4186],[-5.7862,41.8663,687.0162],[-5.7791,41.8673,754.0246],[-5.7781,41.8639,739.2079],[-5.7697,41.8553,715.1642]]]]}}