{"type": "Feature","bbox": [-4.3813,43.0464,-4.0751,43.3795],"geometry": {"type": "MultiPolygon","coordinates": [[[[-4.2342,43.0868,1110.7153],[-4.2332,43.0893,1090.4769],[-4.2279,43.0906,1121.9166],[-4.228,43.0989,1161.1338],[-4.2125,43.1003,915.2257],[-4.2028,43.0944,913.7397],[-4.1846,43.0956,1257.2449],[-4.1632,43.1009,1073.416],[-4.1315,43.1157,1173.0498],[-4.1252,43.1222,1208.5526],[-4.1531,43.1317,1027.6332],[-4.1582,43.1345,998.6228],[-4.1618,43.1402,1020.8792],[-4.1675,43.1426,1059.4825],[-4.1619,43.1522,973.5253],[-4.1634,43.1581,1006.2998],[-4.1615,43.1617,1019.5825],[-4.1755,43.1702,1013.1761],[-4.1778,43.1753,938.822],[-4.1824,43.1796,912.0579],[-4.1826,43.1851,902.8788],[-4.1869,43.1898,914.5075],[-4.1822,43.202,699.3955],[-4.1853,43.2049,744.7831],[-4.1795,43.2168,655.5934],[-4.1806,43.2242,714.6116],[-4.177,43.2284,714.8376],[-4.1798,43.2465,878.2352],[-4.1591,43.25,793.5246],[-4.1552,43.251,845.246],[-4.1531,43.2543,853.5959],[-4.1474,43.2545,806.0693],[-4.1427,43.2644,549.3002],[-4.1478,43.2789,473.8249],[-4.1388,43.2906,728.7264],[-4.1265,43.2933,618.9152],[-4.1295,43.2987,498.575],[-4.1287,43.3029,340.6187],[-4.1209,43.3103,292.1979],[-4.1176,43.3183,279.6148],[-4.1137,43.3208,310.414],[-4.1134,43.3244,289.9366],[-4.1076,43.3278,293.0318],[-4.0935,43.3303,164.6431],[-4.0885,43.3334,164.8715],[-4.08,43.3429,63.1581],[-4.0818,43.3469,43.0],[-4.0751,43.3619,93.604],[-4.0819,43.3635,48.8675],[-4.0899,43.3727,108.1928],[-4.0972,43.367,81.1616],[-4.1114,43.3745,151.5078],[-4.1441,43.3795,284.8178],[-4.1516,43.3743,255.8187],[-4.1372,43.3662,86.9652],[-4.1372,43.3629,70.3707],[-4.1395,43.3612,58.7926],[-4.1398,43.3645,78.1228],[-4.1437,43.3653,58.0322],[-4.1528,43.3559,68.8553],[-4.1481,43.3529,83.3602],[-4.1517,43.3483,78.0829],[-4.1529,43.3496,91.8553],[-4.1578,43.3482,161.2512],[-4.1662,43.3489,128.6241],[-4.1693,43.3441,127.7529],[-4.1825,43.3416,146.887],[-4.1953,43.3503,359.8011],[-4.2056,43.3463,239.3737],[-4.217,43.3464,392.063],[-4.2226,43.3379,324.5734],[-4.2197,43.331,251.3615],[-4.2241,43.3272,157.6714],[-4.2238,43.3236,215.2429],[-4.2266,43.3219,222.2002],[-4.2509,43.3179,197.2585],[-4.2581,43.3218,196.8099],[-4.267,43.3217,171.1698],[-4.2719,43.3127,325.2957],[-4.278,43.3082,336.2608],[-4.2783,43.3039,353.3239],[-4.2754,43.3006,351.9884],[-4.2749,43.2969,389.0605],[-4.2834,43.2941,384.5988],[-4.2826,43.2916,352.9519],[-4.2842,43.2901,338.1659],[-4.2829,43.2859,360.9413],[-4.2745,43.2831,399.2345],[-4.2741,43.275,644.8826],[-4.3237,43.2723,799.3932],[-4.334,43.2744,817.3947],[-4.3463,43.272,818.4615],[-4.3649,43.2727,825.0861],[-4.3676,43.2702,760.8801],[-4.3641,43.2679,611.2057],[-4.3645,43.266,526.362],[-4.3812,43.2548,263.0194],[-4.3813,43.2475,308.3397],[-4.3766,43.2454,507.4172],[-4.3813,43.2377,710.7976],[-4.3768,43.235,747.4729],[-4.3733,43.2355,727.2054],[-4.3611,43.2322,731.8092],[-4.3576,43.2281,770.2853],[-4.3433,43.2224,867.2861],[-4.3424,43.218,841.1846],[-4.3382,43.2138,824.0738],[-4.3313,43.2012,881.0679],[-4.3327,43.1988,848.1383],[-4.3304,43.1891,863.8965],[-4.3328,43.1842,913.0823],[-4.3297,43.1772,992.3878],[-4.3349,43.1735,988.0339],[-4.3379,43.1676,1066.1047],[-4.3338,43.1579,1058.7039],[-4.335,43.1535,1068.2418],[-4.3379,43.1509,1093.1141],[-4.3347,43.1334,1094.8987],[-4.331,43.1301,1116.9114],[-4.3267,43.129,1105.2002],[-4.326,43.1269,1084.3243],[-4.3298,43.1101,1445.8542],[-4.3273,43.1036,1622.9496],[-4.3398,43.0979,1782.9678],[-4.3535,43.0863,1558.1313],[-4.3506,43.0779,1493.1545],[-4.354,43.0641,1618.9758],[-4.3531,43.0508,1867.0947],[-4.3493,43.053,1845.1689],[-4.346,43.0506,1958.6528],[-4.3373,43.0537,2053.7114],[-4.3318,43.0497,1888.7993],[-4.3232,43.0479,2023.1792],[-4.3153,43.0503,1822.2629],[-4.2959,43.0464,1877.1169],[-4.2895,43.0472,1949.0802],[-4.2915,43.053,1758.2627],[-4.2857,43.0738,1718.7433],[-4.2797,43.0756,1651.8781],[-4.2688,43.0744,1539.5624],[-4.2637,43.0762,1422.8365],[-4.2442,43.0717,1453.2202],[-4.2394,43.0668,1366.693],[-4.2334,43.0646,1253.8468],[-4.2366,43.0779,1183.4934],[-4.232,43.0822,1141.4517],[-4.2342,43.0868,1110.7153]]]]}
,"properties": {"GID_3": "ESP.3.1.9_1","GID_0": "ESP","country": "Spain","GID_1": "ESP.3_1","province": "Cantabria","NL_NAME_1": "NA","GID_2": "ESP.3.1_1","county": "Cantabria","NL_NAME_2": "NA","city": "n.a.(222)","VARNAME_3": "NA","NL_NAME_3": "NA","TYPE_3": "Comarca","ENGTYPE_3": "Comarca","CC_3": "NA","HASC_3": "NA","name": "n.a.(222).city","area_km2": 430.9412,"hist_schema_id": "Elevation0-9000","hist_area_km2": {"25": 1.2024,"50": 5.1026,"75": 5.3035,"100": 9.1759,"125": 14.7155,"150": 11.6926,"175": 11.9104,"200": 11.9576,"225": 10.9409,"250": 10.2025,"275": 9.1079,"300": 8.4612,"325": 9.0327,"350": 9.4814,"375": 10.4861,"400": 10.1936,"425": 9.8703,"450": 10.6902,"475": 10.7993,"500": 11.5106,"525": 11.8671,"550": 11.2648,"575": 11.2345,"600": 11.0968,"625": 11.345,"650": 9.4603,"675": 10.095,"700": 10.2502,"725": 10.0036,"750": 9.4937,"775": 10.4689,"800": 9.8665,"825": 9.0167,"850": 8.2594,"875": 7.1005,"900": 6.7914,"925": 6.1888,"950": 5.7403,"975": 4.9363,"1000": 4.6425,"1025": 4.2714,"1050": 4.38,"1075": 3.4514,"1100": 3.173,"1125": 3.0184,"1150": 3.0341,"1175": 2.5232,"1200": 2.1054,"1225": 1.703,"1250": 1.7496,"1275": 1.378,"1300": 1.7652,"1325": 1.2698,"1350": 1.1769,"1375": 1.6105,"1400": 1.4557,"1425": 1.4712,"1450": 1.3938,"1475": 1.6571,"1500": 1.4558,"1525": 1.6572,"1550": 1.5023,"1575": 1.8277,"1600": 1.3785,"1625": 1.3785,"1650": 1.1152,"1675": 1.1307,"1700": 1.0997,"1725": 1.1463,"1750": 0.7745,"1775": 0.6506,"1800": 0.3873,"1825": 0.4338,"1850": 0.3408,"1875": 0.2324,"1900": 0.3563,"1925": 0.1394,"1950": 0.1549,"1975": 0.1394,"2000": 0.031,"2025": 0.062}}}