{"type":"Feature","properties":{"ISO3166-1-Alpha-3":"ESP","country":"Spain","fill":"#F00","id":"5850","name":"Valladolid"},
"geometry":{"type": "MultiPolygon","coordinates": [[[[-5.42158,42.03075,775.9933],[-5.52076,42.09698,759.2321],[-5.50771,42.05751,718.3254],[-5.47169,42.00638,746.8757],[-5.48474,41.98441,743.3867],[-5.43839,41.96725,754.9091],[-5.42158,42.03075,775.9933]]],
[[[-5.30319,42.25208,820.5264],[-5.30197,42.27318,826.5687],[-5.30922,42.29317,841.1061],[-5.33014,42.28961,839.4711],[-5.34834,42.27815,838.2039],[-5.34836,42.26097,832.5434],[-5.33716,42.24656,824.8229],[-5.31929,42.24499,816.8155],[-5.30319,42.25208,820.5264]]],
[[[-5.06401,42.27371,766.9803],[-5.09385,42.3094,787.6616],[-5.11242,42.3062,791.2267],[-5.12397,42.30025,794.7159],[-5.14811,42.27999,787.2059],[-5.17037,42.2679,783.4185],[-5.1948,42.26208,782.7823],[-5.21949,42.27077,802.8405],[-5.22985,42.26933,804.1774],[-5.23816,42.26434,789.8117],[-5.25044,42.2483,771.1284],[-5.25937,42.22477,783.6965],[-5.26174,42.22107,783.6899],[-5.26533,42.21818,783.3643],[-5.26752,42.21798,783.6944],[-5.27003,42.21895,787.5663],[-5.27452,42.21961,781.9443],[-5.28681,42.21634,789.5814],[-5.30922,42.20409,784.2891],[-5.32166,42.20423,787.5542],[-5.35247,42.22269,812.4434],[-5.36119,42.22498,824.739],[-5.38146,42.21477,801.7291],[-5.38721,42.19516,803.6533],[-5.37688,42.13427,734.1143],[-5.38738,42.08304,747.9998],[-5.3763,42.04139,793.9349],[-5.28055,41.97893,741.6441],[-5.30393,41.95532,724.4111],[-5.30483,41.94436,712.48],[-5.2967,41.92137,732.6827],[-5.29686,41.90908,727.2079],[-5.30537,41.89302,707.2875],[-5.30791,41.87115,704.64],[-5.30182,41.85097,727.5222],[-5.27959,41.81333,710.335],[-5.39122,41.76099,746.5227],[-5.3692,41.71943,728.9271],[-5.33711,41.68652,740.3584],[-5.32692,41.67027,792.3356],[-5.32298,41.63083,756.6622],[-5.31399,41.61424,739.9362],[-5.28292,41.6047,756.2239],[-5.27886,41.59724,796.0223],[-5.28287,41.58834,746.2488],[-5.2901,41.58054,723.6063],[-5.29444,41.57253,701.5418],[-5.2898,41.56301,694.6308],[-5.22873,41.52836,706.1282],[-5.25458,41.5073,701.0072],[-5.26439,41.5034,703.6903],[-5.3065,41.49809,666.4042],[-5.31968,41.4923,682.5306],[-5.33146,41.48091,648.5485],[-5.33862,41.46601,646.8763],[-5.34122,41.4495,674.144],[-5.33934,41.43319,684.7697],[-5.33337,41.42213,717.1727],[-5.32629,41.41719,707.7092],[-5.32123,41.41138,726.7578],[-5.329,41.35727,797.8828],[-5.32789,41.34355,796.5504],[-5.32347,41.33276,790.5027],[-5.30237,41.30553,793.6512],[-5.29784,41.29278,797.8352],[-5.29441,41.25282,808.5585],[-5.29697,41.2335,818.1719],[-5.30827,41.21818,736.8776],[-5.34026,41.19411,813.5173],[-5.32548,41.17798,814.4781],[-5.28878,41.18209,809.306],[-5.26211,41.19586,787.3622],[-5.25308,41.19676,785.1562],[-5.24409,41.19252,779.0012],[-5.23078,41.17635,771.868],[-5.22282,41.17034,774.2835],[-5.21118,41.16786,777.0519],[-5.18675,41.16806,775.2392],[-5.17449,41.16538,770.1281],[-5.1251,41.13199,785.623],[-5.1075,41.1409,782.1707],[-5.09366,41.14394,777.557],[-5.0599,41.13852,778.905],[-5.01868,41.15843,770.585],[-4.99861,41.16079,775.2835],[-4.97473,41.15533,765.5714],[-4.88532,41.10599,774.17],[-4.85662,41.09751,788.6573],[-4.83668,41.10403,793.8823],[-4.79406,41.13603,817.6837],[-4.70152,41.155,796.087],[-4.6505,41.19994,847.8055],[-4.65084,41.22155,841.8521],[-4.57914,41.27885,765.0454],[-4.60699,41.29802,757.564],[-4.59696,41.32074,759.9009],[-4.55751,41.30255,763.429],[-4.53416,41.31938,756.0812],[-4.47136,41.29157,771.8431],[-4.47033,41.30263,770.2532],[-4.47229,41.30918,768.0234],[-4.49224,41.33431,754.3313],[-4.49555,41.34106,751.2178],[-4.49607,41.36398,745.6532],[-4.51493,41.40962,859.2801],[-4.48646,41.40895,863.0306],[-4.40753,41.44187,860.0552],[-4.36496,41.43879,875.8376],[-4.32421,41.45096,883.6885],[-4.25237,41.45205,893.5901],[-4.16625,41.47754,900.7809],[-4.13375,41.47996,900.6424],[-4.01495,41.51391,871.7872],[-3.99915,41.5277,922.1168],[-3.99146,41.54023,927.0909],[-3.98061,41.58325,842.4993],[-3.993,41.60866,771.8803],[-4.03038,41.63062,895.0325],[-4.02758,41.684,909.9407],[-4.03138,41.70107,912.0657],[-4.05579,41.74078,898.5135],[-4.04103,41.76822,901.3892],[-4.09938,41.7744,829.9272],[-4.12304,41.80736,920.8096],[-4.15154,41.79842,904.9991],[-4.24013,41.80435,858.1307],[-4.25731,41.80136,894.5568],[-4.2911,41.77867,889.2991],[-4.31214,41.77163,847.5099],[-4.39974,41.78103,874.6381],[-4.41337,41.77741,867.9958],[-4.4351,41.76476,876.2396],[-4.44346,41.76326,875.244],[-4.46196,41.76681,872.6487],[-4.49367,41.78023,855.4581],[-4.49195,41.83857,870.4809],[-4.52111,41.82313,737.4995],[-4.57225,41.81593,707.6925],[-4.63264,41.86329,848.1755],[-4.64062,41.8865,852.3414],[-4.64595,41.89126,855.7108],[-4.66013,41.89738,859.9901],[-4.66697,41.89828,858.7318],[-4.67559,41.89691,858.1569],[-4.69342,41.88969,858.254],[-4.70928,41.8788,857.2559],[-4.7289,41.85209,854.995],[-4.75859,41.82587,854.8254],[-4.78913,41.81799,854.0939],[-4.8382,41.89863,844.9273],[-4.86909,41.93158,757.3608],[-4.92777,41.9151,757.2549],[-4.94973,41.93397,750.6995],[-4.98681,41.91339,775.1772],[-5.00505,41.93802,735.3185],[-4.97131,41.9867,756.4926],[-4.96669,42.00199,765.0582],[-4.96391,42.0066,768.6879],[-4.95763,42.01098,768.1776],[-4.95026,42.01411,768.7288],[-4.9441,42.01835,772.1317],[-4.9415,42.02604,769.5381],[-4.94744,42.04703,771.9581],[-4.94547,42.0543,772.1434],[-4.92798,42.07162,788.981],[-4.92404,42.08144,787.1086],[-4.92207,42.09187,789.1218],[-4.92743,42.15017,803.4418],[-5.02695,42.15395,798.6482],[-5.01455,42.18463,801.2212],[-5.01909,42.23027,820.6777],[-5.00223,42.28915,828.8099],[-5.03827,42.29705,777.0734],[-5.04171,42.26754,795.6959],[-5.06401,42.27371,766.9803]]]]}}