{"type": "Feature","bbox": [-5.5208,41.094,-3.9806,42.3118],"geometry": {"type": "MultiPolygon","coordinates": [[[[-5.4358,42.0084,752.75],[-5.443,42.0119,756.8276],[-5.4477,42.0107,755.3696],[-5.4473,42.0136,758.3806],[-5.4215,42.0307,775.9933],[-5.4247,42.0356,778.9451],[-5.4304,42.0351,786.9878],[-5.4386,42.0315,764.2476],[-5.4545,42.0407,751.6219],[-5.4641,42.0436,750.2444],[-5.4808,42.0524,744.4818],[-5.477,42.056399999999996,750.348],[-5.4833,42.0598,763.1055],[-5.4898,42.0738,718.8018],[-5.4984,42.0837,755.9989],[-5.5101,42.0911,776.0654],[-5.5103,42.0929,777.0697],[-5.5166,42.0934,765.3642],[-5.5208,42.0971,760.9906],[-5.5178,42.0906,765.1237],[-5.5183,42.0847,748.0518],[-5.5089,42.077,754.4368],[-5.5015,42.0665,717.1235],[-5.5028,42.0625,719.6354],[-5.5076,42.0575,718.3254],[-5.4961,42.0492,756.2508],[-5.4957,42.0456,729.8364],[-5.4864,42.0388,741.2678],[-5.4926,42.0333,736.2465],[-5.4882,42.03,731.0098],[-5.4876,42.0258,739.0129],[-5.4727,42.0136,745.6882],[-5.4716,42.0063,746.8757],[-5.4783,42.0044,743.5298],[-5.479,41.9992,746.4485],[-5.4883,41.9955,745.9023],[-5.4847,41.9846,743.3867],[-5.4627,41.9776,731.6951],[-5.463,41.9754,726.6978],[-5.4607,41.9747,734.9172],[-5.456,41.9757,739.9761],[-5.4448,41.9719,744.9316],[-5.4382,41.9674,754.9091],[-5.4334,41.9831,752.3173],[-5.4311,42.0024,755.0399],[-5.4358,42.0084,752.75]]],
[[[-4.8808,41.1045,777.9019],[-4.8788,41.1053,777.8331],[-4.8745,41.1035,777.547],[-4.8701,41.1003,780.5623],[-4.8726,41.0992,779.8512],[-4.872,41.0979,781.7178],[-4.8636,41.094,788.9821],[-4.8555,41.1007,785.5479],[-4.8279,41.0992,805.5306],[-4.8149,41.1034,859.5851],[-4.8188,41.1079,842.0176],[-4.8169,41.1168,845.8332],[-4.8122,41.1264,799.7748],[-4.8134,41.1294,794.4535],[-4.8057,41.1352,795.1616],[-4.796,41.1358,809.4992],[-4.7889,41.1399,809.5046],[-4.7861,41.1436,802.5433],[-4.7787,41.145,799.2669],[-4.767,41.1424,790.8469],[-4.7488,41.1497,791.2758],[-4.7391,41.149,798.7938],[-4.7373,41.1504,796.051],[-4.7289,41.1508,797.6669],[-4.722,41.1493,798.9316],[-4.7212,41.157,794.3074],[-4.7089,41.1669,794.2187],[-4.7022,41.1745,785.2366],[-4.6843,41.1807,789.072],[-4.6829,41.1845,785.2019],[-4.6805,41.1857,780.7483],[-4.6658,41.1803,791.6701],[-4.6436,41.1681,812.2622],[-4.635,41.1681,852.0578],[-4.6277,41.1708,861.7186],[-4.6318,41.1848,851.989],[-4.6363,41.1906,854.1657],[-4.6383,41.1899,854.6138],[-4.6403,41.1937,853.5745],[-4.6505,41.2001,847.8055],[-4.6464,41.2083,855.8256],[-4.6508,41.2214,841.8521],[-4.6477,41.2241,840.0692],[-4.6372,41.2273,810.0787],[-4.629,41.2329,795.0983],[-4.6238,41.2343,779.489],[-4.6151,41.2414,777.6964],[-4.6032,41.254,767.2498],[-4.6039,41.2559,764.9507],[-4.5986,41.2642,768.6383],[-4.5878,41.2705,761.9851],[-4.5738,41.2752,764.504],[-4.5765,41.277,753.1667],[-4.5755,41.2837,744.1858],[-4.5804,41.2882,747.5187],[-4.5901,41.2919,761.4205],[-4.5933,41.2964,734.5715],[-4.6019,41.3027,729.7424],[-4.6009,41.3076,734.9145],[-4.6051,41.3131,733.9307],[-4.5968,41.3206,759.9009],[-4.5866,41.3171,759.9917],[-4.5728,41.3061,762.7044],[-4.5652,41.3028,762.746],[-4.5594,41.3022,764.8124],[-4.5435,41.3124,760.1142],[-4.5387,41.3134,759.227],[-4.5339,41.3193,756.0812],[-4.5285,41.3211,762.5219],[-4.5053,41.3113,764.8721],[-4.5,41.3009,763.6754],[-4.4961,41.3024,764.4278],[-4.4902,41.3012,764.7521],[-4.4825,41.2973,771.2161],[-4.4816,41.2949,769.9772],[-4.4714,41.2916,771.8431],[-4.4677,41.2959,769.6075],[-4.4705,41.3185,761.8155],[-4.4738,41.3223,759.7112],[-4.4822,41.3262,758.2974],[-4.4938,41.3264,759.9725],[-4.5021,41.3428,755.5978],[-4.5022,41.3469,751.4418],[-4.5044,41.3472,753.7183],[-4.4997,41.3502,750.5489],[-4.4993,41.3471,749.2454],[-4.4966,41.3496,752.0087],[-4.5,41.3576,745.999],[-4.4958,41.3639,745.6532],[-4.4839,41.3657,751.2236],[-4.4839,41.3668,751.2236],[-4.5152,41.3941,743.1779],[-4.5159,41.4014,775.4358],[-4.5142,41.406,859.9758],[-4.5164,41.4085,860.7589],[-4.5145,41.4096,859.2801],[-4.5017,41.4109,839.9833],[-4.4999,41.4139,866.5769],[-4.4951,41.4115,865.7123],[-4.4952,41.41,856.2722],[-4.4836,41.4091,842.6498],[-4.4846,41.4104,842.6498],[-4.4827,41.412,839.2019],[-4.4681,41.4131,840.9539],[-4.4657,41.4144,807.3961],[-4.4658,41.4166,837.9945],[-4.4625,41.4168,830.3475],[-4.4636,41.4191,855.2348],[-4.4586,41.4213,861.0339],[-4.4555,41.4204,824.6572],[-4.4534,41.4214,829.2222],[-4.4529,41.4237,837.563],[-4.4502,41.4233,832.2037],[-4.4407,41.4276,860.0798],[-4.4363,41.427,825.7509],[-4.4305,41.4286,827.5234],[-4.4347,41.4305,857.1981],[-4.4318,41.431,852.5912],[-4.4301,41.4339,867.4518],[-4.4255,41.4328,870.161],[-4.4188,41.4398,865.0973],[-4.4177,41.4389,865.0973],[-4.4074,41.4418,860.0552],[-4.3939,41.4397,863.6445],[-4.3937,41.4378,870.2697],[-4.3908,41.4378,873.5546],[-4.3885,41.4405,858.1061],[-4.3824,41.4382,875.0054],[-4.379,41.4416,876.4714],[-4.3767,41.4417,877.6611],[-4.3728,41.4387,877.1606],[-4.3678,41.4392,867.1335],[-4.3648,41.436,872.6788],[-4.3613,41.4447,878.2177],[-4.3623,41.4499,877.9186],[-4.3484,41.4505,882.0858],[-4.3466,41.4481,877.3635],[-4.3374,41.449,880.5327],[-4.3316,41.445,883.6642],[-4.3278,41.4448,883.7903],[-4.3203,41.4484,882.0164],[-4.3191,41.4533,882.5036],[-4.3005,41.4577,886.6776],[-4.2941,41.455,888.1776],[-4.2901,41.4553,887.4653],[-4.2877,41.4582,889.3616],[-4.2741,41.4579,887.054],[-4.27,41.4613,890.5568],[-4.2643,41.4562,891.1145],[-4.261,41.4506,890.6623],[-4.2598,41.4564,893.9397],[-4.2471,41.4623,892.8812],[-4.2334,41.4557,895.8889],[-4.2277,41.46,897.4993],[-4.1974,41.4711,898.3071],[-4.1783,41.4754,900.9813],[-4.1693,41.4758,901.7134],[-4.1582,41.4821,901.6242],[-4.1424,41.4699,902.5482],[-4.1364,41.477,898.4154],[-4.1086,41.4833,902.4044],[-4.0786,41.4954,903.6917],[-4.0652,41.4947,906.7243],[-4.0579,41.4973,897.1059],[-4.0564,41.5006,903.2728],[-4.0524,41.5026,901.636],[-4.0485,41.5079,888.9989],[-4.0363,41.5099,785.0752],[-4.0273,41.5178,870.8489],[-4.0182,41.5187,887.5735],[-4.0114,41.5175,917.195],[-4.0103,41.5158,901.1494],[-4.0066,41.5172,921.3258],[-4.0054,41.5157,913.2897],[-3.9998,41.5161,921.4083],[-3.9957,41.5211,924.9298],[-3.9936,41.5311,924.6485],[-3.9938,41.556,926.1935],[-3.9854,41.5649,816.2271],[-3.9806,41.5745,826.7434],[-3.9806,41.5834,842.4993],[-3.9835,41.586,848.8691],[-3.9849,41.5905,852.9147],[-3.9849,41.5983,869.4686],[-3.99,41.5984,865.6942],[-3.9924,41.6004,865.6467],[-3.9928,41.6086,771.8803],[-4.0086,41.61,758.9536],[-4.0084,41.6119,761.6509],[-4.0032,41.616,758.5377],[-4.0058,41.6194,757.4819],[-4.0116,41.617,755.5398],[-4.0165,41.6204,751.474],[-4.0225,41.616,752.9324],[-4.0286,41.6144,761.4817],[-4.0352,41.6206,892.2625],[-4.0348,41.6256,893.1064],[-4.0303,41.6305,895.0325],[-4.0258,41.6595,899.9098],[-4.0242,41.6755,906.6378],[-4.026,41.6924,911.4062],[-4.042,41.7111,909.6663],[-4.0512,41.7169,908.2258],[-4.0529,41.7196,910.0424],[-4.0588,41.7211,910.6383],[-4.068,41.7265,904.2892],[-4.0763,41.7261,895.5878],[-4.0746,41.7287,891.44],[-4.0759,41.7354,875.7528],[-4.069,41.7412,846.6834],[-4.0656,41.7394,853.55],[-4.0557,41.7407,898.5135],[-4.0495,41.7682,846.2186],[-4.0408,41.7683,901.3892],[-4.0614,41.7747,882.7808],[-4.064,41.7702,860.6404],[-4.0715,41.7706,845.7795],[-4.0851,41.7791,804.6733],[-4.09,41.7795,809.7805],[-4.0965,41.7748,806.4628],[-4.0994,41.7744,829.9272],[-4.1085,41.7853,898.1237],[-4.1106,41.7947,911.0676],[-4.1178,41.8003,922.1429],[-4.1231,41.8073,920.8096],[-4.1507,41.7989,914.3419],[-4.1538,41.7962,903.9545],[-4.1634,41.8012,894.015],[-4.1702,41.8002,889.5984],[-4.1755,41.8028,885.9552],[-4.1903,41.8016,858.8634],[-4.1943,41.804,847.4084],[-4.215,41.7996,833.6984],[-4.2328,41.8081,821.2579],[-4.2359,41.814,813.2367],[-4.2363,41.8114,826.9974],[-4.2474,41.8029,880.2096],[-4.2562,41.806399999999996,855.9641],[-4.2602,41.8052,873.2217],[-4.2712,41.792,880.4969],[-4.2787,41.7886,882.4487],[-4.2865,41.7749,870.4792],[-4.3067,41.7759,821.1135],[-4.3134,41.7695,854.1427],[-4.3172,41.7685,856.8295],[-4.3176,41.7634,882.7103],[-4.3338,41.7721,850.1904],[-4.3525,41.7738,884.2889],[-4.3813,41.7823,876.0763],[-4.3825,41.7837,877.7045],[-4.3802,41.7864,876.3085],[-4.3916,41.7873,876.5204],[-4.4039,41.7832,875.1945],[-4.4213,41.7681,877.6183],[-4.4421,41.7586,875.0657],[-4.4468,41.7582,873.3218],[-4.4542,41.7592,869.7815],[-4.4845,41.7695,867.0834],[-4.5011,41.7714,868.8963],[-4.4923,41.7786,808.2001],[-4.4936,41.7803,855.4581],[-4.4873,41.8201,843.2566],[-4.4836,41.8203,860.3008],[-4.4791,41.8183,853.1335],[-4.4685,41.8206,871.6843],[-4.4657,41.8193,872.125],[-4.4611,41.8203,872.5612],[-4.4782,41.8286,872.8663],[-4.4733,41.832,861.5011],[-4.4717,41.8405,857.5709],[-4.4732,41.843,864.6983],[-4.4783,41.8433,867.8064],[-4.4793,41.8382,870.1089],[-4.4918,41.8384,870.4809],[-4.4994,41.8332,873.2839],[-4.5085,41.8323,856.8148],[-4.5052,41.83,870.9404],[-4.5055,41.8268,863.6373],[-4.509,41.8263,864.4915],[-4.512,41.8233,815.7439],[-4.5209,41.8232,737.4995],[-4.5294,41.8278,722.7178],[-4.5491,41.831,699.8292],[-4.5501,41.8288,699.1846],[-4.5454,41.8261,700.0354],[-4.548,41.819,704.305],[-4.5509,41.8167,706.4669],[-4.5549,41.8164,703.9379],[-4.5646,41.8184,703.5078],[-4.5672,41.8162,704.84],[-4.566,41.8126,699.0222],[-4.582,41.8224,717.6381],[-4.591,41.8368,744.1885],[-4.6037,41.8386,765.5569],[-4.618,41.8512,801.5299],[-4.624,41.854,802.9429],[-4.6263,41.8582,804.2566],[-4.6327,41.8632,848.1755],[-4.6294,41.8683,824.7604],[-4.6319,41.8682,816.2812],[-4.6349,41.871,828.8319],[-4.6336,41.8758,834.9495],[-4.6364,41.8791,832.6247],[-4.6348,41.8836,839.3115],[-4.6372,41.8881,848.7603],[-4.6438,41.8912,855.6122],[-4.6498,41.891,859.9707],[-4.6581,41.8946,859.8668],[-4.6583,41.8968,860.196],[-4.6696,41.9005,858.9562],[-4.6783,41.8998,858.1292],[-4.6778,41.898,857.9976],[-4.686,41.891,857.6919],[-4.701,41.8873,857.6547],[-4.7187,41.8734,857.8667],[-4.7282,41.8688,856.1505],[-4.7322,41.8618,854.6428],[-4.7263,41.8545,854.7177],[-4.748,41.8405,852.8184],[-4.7543,41.8335,853.3679],[-4.7583,41.8258,854.0627],[-4.7691,41.8258,854.8179],[-4.77,41.8231,852.3257],[-4.7892,41.818,854.0939],[-4.7888,41.8195,856.2733],[-4.7933,41.822,853.2762],[-4.7948,41.8288,856.2406],[-4.7991,41.8341,856.2657],[-4.8137,41.863,856.0997],[-4.8228,41.8674,855.6015],[-4.8292,41.875,856.2397],[-4.8323,41.8804,855.2692],[-4.8324,41.8868,850.1083],[-4.8382,41.8985,844.9273],[-4.856,41.9132,770.4471],[-4.8578,41.9131,770.2446],[-4.8558,41.9156,767.1163],[-4.8591,41.9151,768.7991],[-4.8629,41.9183,766.5341],[-4.8676,41.9176,766.4029],[-4.869,41.9317,757.3608],[-4.8739,41.933,756.4211],[-4.8897,41.9328,754.8348],[-4.8998,41.9282,752.1925],[-4.9117,41.9156,758.2147],[-4.9157,41.9162,757.8963],[-4.9165,41.9178,756.9318],[-4.9278,41.915,757.2549],[-4.9299,41.918,754.852],[-4.928,41.919,755.093],[-4.9324,41.9266,748.5316],[-4.9495,41.9338,750.6995],[-4.9553,41.9311,757.0316],[-4.9571,41.9283,761.2719],[-4.9669,41.9247,769.7845],[-4.9718,41.9194,775.0626],[-4.9773,41.9185,792.1011],[-4.9757,41.918,798.2798],[-4.9764,41.9136,803.0034],[-4.983,41.9119,774.6934],[-4.9836,41.91,778.3639],[-4.9868,41.9134,775.1772],[-4.987,41.9218,765.4979],[-4.9899,41.9256,752.4094],[-4.9972,41.9289,745.329],[-5.0048,41.9379,735.3185],[-5.0014,41.9432,739.5236],[-5.005,41.9472,747.7892],[-5.0024,41.948,749.7762],[-4.9953,41.958,750.4885],[-4.994,41.9626,749.1913],[-4.9832,41.9667,754.7644],[-4.9829,41.9699,757.4236],[-4.976,41.9736,751.3722],[-4.9714,41.989,759.7323],[-4.9754,41.9935,759.7438],[-4.9702,41.9985,765.8055],[-4.9697,41.9976,765.8055],[-4.9654,42.007,767.9006],[-4.9359,42.0179,768.1576],[-4.938,42.0199,770.7339],[-4.9496,42.051,763.8815],[-4.9276,42.0735,790.5428],[-4.9167,42.0783,787.1039],[-4.9041,42.0784,769.1407],[-4.9177,42.0908,784.0456],[-4.912,42.0913,780.3644],[-4.9201,42.0965,789.1118],[-4.9242,42.1105,799.4482],[-4.9286,42.1183,798.0773],[-4.925,42.1207,800.977],[-4.9289,42.1305,798.0662],[-4.9297,42.1446,799.3615],[-4.9274,42.1502,803.4418],[-4.9441,42.1527,782.5328],[-4.9608,42.1515,770.0223],[-4.9623,42.1496,768.2146],[-4.9655,42.1515,768.6542],[-4.9663,42.1557,769.5151],[-4.9803,42.1507,772.8137],[-4.9822,42.1488,773.754],[-4.9811,42.1468,771.9711],[-4.9884,42.1444,776.1437],[-4.9942,42.1449,783.8207],[-4.995,42.1478,780.9969],[-4.9991,42.1465,783.3011],[-5.0023,42.1491,788.1691],[-5.0084,42.1486,793.3726],[-5.0152,42.1538,796.9674],[-5.0149,42.1568,791.4146],[-5.0269,42.1539,798.6482],[-5.0262,42.1656,806.3035],[-5.0318,42.1736,811.1184],[-5.0194,42.1788,805.1945],[-5.0123,42.1897,806.0195],[-5.0145,42.1934,806.842],[-5.0128,42.1946,803.8407],[-5.0203,42.2056,814.4857],[-5.0248,42.2173,826.7094],[-5.0246,42.2199,827.7662],[-5.0102,42.2281,809.8619],[-5.0089,42.2422,814.7158],[-5.0187,42.2538,828.7521],[-5.0164,42.2589,826.0764],[-5.0086,42.2614,819.1481],[-5.0098,42.2665,825.7061],[-5.002,42.2891,828.8099],[-5.0382,42.2971,777.7754],[-5.0414,42.2928,775.5366],[-5.0368,42.2891,786.5495],[-5.0388,42.2772,784.2004],[-5.0422,42.2715,791.9283],[-5.0415,42.2675,795.6959],[-5.0451,42.262,794.525],[-5.0547,42.2575,779.0336],[-5.0681,42.2612,765.8477],[-5.0621,42.2779,769.8891],[-5.066,42.2762,777.2873],[-5.0706,42.2791,787.2498],[-5.0718,42.2778,791.3748],[-5.075,42.2789,793.0155],[-5.0753,42.285,787.4198],[-5.0789,42.2897,776.8317],[-5.0778,42.2916,777.2057],[-5.0823,42.2937,777.3287],[-5.0861,42.2922,777.4081],[-5.0869,42.2975,778.8765],[-5.0936,42.3093,787.6616],[-5.1119,42.3118,797.1049],[-5.1137,42.3097,797.0814],[-5.1195,42.3077,796.282],[-5.1232,42.3018,794.965],[-5.1261,42.301,796.4211],[-5.1442,42.2815,787.1801],[-5.156,42.2777,787.7707],[-5.156,42.2739,785.0955],[-5.1641,42.2711,782.2034],[-5.1781,42.2711,791.932],[-5.1834,42.268,790.8422],[-5.1826,42.2642,788.2333],[-5.1978,42.2605,787.9568],[-5.2002,42.2647,791.389],[-5.2166,42.278,801.3906],[-5.2202,42.2779,810.0107],[-5.2283,42.2624,802.4971],[-5.2313,42.2636,802.2031],[-5.2302,42.2756,805.9377],[-5.2364,42.2733,804.053],[-5.2353,42.2713,803.9449],[-5.2386,42.2662,792.8636],[-5.2446,42.2639,784.0822],[-5.2459,42.2508,767.4139],[-5.2484,42.2454,767.2068],[-5.2539,42.2398,774.5696],[-5.2515,42.2361,765.3997],[-5.2446,42.2352,760.7726],[-5.2424,42.2317,781.9202],[-5.2355,42.2303,777.2122],[-5.2294,42.2313,774.0898],[-5.2277,42.2299,773.4023],[-5.2267,42.2251,766.9409],[-5.2309,42.2239,770.1419],[-5.2339,42.2189,767.361],[-5.2414,42.2145,753.171],[-5.2456,42.2147,753.6626],[-5.257,42.2107,775.8709],[-5.2655,42.2109,778.7492],[-5.2735,42.2162,779.5132],[-5.2766,42.2164,783.8022],[-5.2868,42.2299,795.4333],[-5.3018,42.2221,794.7188],[-5.2997,42.2198,791.3979],[-5.2997,42.2154,788.6802],[-5.3063,42.2073,781.319],[-5.3074,42.1992,774.5846],[-5.3115,42.1996,770.7248],[-5.3172,42.2053,786.473],[-5.3242,42.2082,794.7731],[-5.3267,42.2068,796.3387],[-5.332,42.2086,795.6012],[-5.3373,42.2135,798.5853],[-5.3355,42.2167,800.8091],[-5.3404,42.2163,801.4308],[-5.3491,42.2204,810.0531],[-5.3528,42.2192,808.6393],[-5.3611,42.2251,824.739],[-5.3755,42.2224,790.7192],[-5.3807,42.2254,796.0721],[-5.388,42.2214,824.0583],[-5.3889,42.2179,822.1717],[-5.3884,42.2053,819.2332],[-5.3801,42.1979,788.6345],[-5.387,42.1894,791.4399],[-5.3888,42.1754,781.4527],[-5.3866,42.1686,771.9122],[-5.3795,42.1633,764.0121],[-5.3813,42.1593,759.8932],[-5.381,42.1507,751.9999],[-5.3714,42.13,730.3076],[-5.3751,42.1267,732.9384],[-5.3751,42.1214,748.3962],[-5.3726,42.1183,751.267],[-5.3778,42.1142,757.4088],[-5.3775,42.1129,760.0788],[-5.3799,42.1128,759.3788],[-5.3806,42.1072,758.0466],[-5.3763,42.0995,755.942],[-5.39,42.0898,740.6174],[-5.3896,42.0873,745.3474],[-5.3779,42.075,758.312],[-5.3743,42.0681,764.4142],[-5.3711,42.0514,777.0485],[-5.3755,42.0468,782.4628],[-5.3743,42.0432,788.6458],[-5.3763,42.0396,780.683],[-5.3682,42.0333,773.7784],[-5.3488,42.0226,752.3041],[-5.3254,42.0204,725.1783],[-5.3232,42.0189,721.0212],[-5.3177,42.0066,729.9584],[-5.3132,42.0026,712.2935],[-5.3094,42.0028,710.9431],[-5.3021,41.9928,701.7542],[-5.3031,41.9911,700.9913],[-5.2805,41.9788,741.6441],[-5.2604,41.9846,759.2867],[-5.2546,41.9816,775.5071],[-5.2545,41.9803,776.8824],[-5.2632,41.9819,754.74],[-5.2728,41.9801,746.3378],[-5.2852,41.9741,730.9144],[-5.2889,41.9709,722.9899],[-5.2883,41.968,735.3662],[-5.2995,41.9613,724.8616],[-5.3066,41.9528,725.1209],[-5.3314,41.9426,694.8882],[-5.3347,41.9401,694.1628],[-5.3351,41.9375,693.8503],[-5.3208,41.9375,701.6787],[-5.3098,41.9322,716.285],[-5.2987,41.9221,734.084],[-5.2936,41.9199,730.3177],[-5.2958,41.9112,728.0733],[-5.3103,41.8933,711.4125],[-5.3114,41.8827,704.9804],[-5.3052,41.8671,708.0915],[-5.3093,41.8639,718.9133],[-5.3064,41.8578,730.4095],[-5.3217,41.8408,725.5598],[-5.3199,41.8398,723.872],[-5.3271,41.8353,728.0892],[-5.3294,41.8311,727.5695],[-5.3264,41.8291,726.8199],[-5.3076,41.8257,717.3276],[-5.3063,41.8268,717.3276],[-5.2983,41.8255,716.1427],[-5.2948,41.8275,715.006],[-5.2904,41.8262,720.2434],[-5.287,41.8277,717.4126],[-5.2767,41.8229,712.4404],[-5.2795,41.8134,710.335],[-5.3225,41.7882,713.2308],[-5.3262,41.7898,713.7296],[-5.3414,41.7892,716.7458],[-5.3494,41.7809,731.338],[-5.3701,41.7778,746.1609],[-5.3913,41.7605,746.5227],[-5.3906,41.7526,744.2238],[-5.3755,41.728,712.6477],[-5.3751,41.7198,696.0616],[-5.3714,41.7213,695.8006],[-5.3699,41.727,696.9379],[-5.3655,41.7294,697.0809],[-5.3616,41.7288,698.7418],[-5.3561,41.717,723.2061],[-5.358,41.6997,726.2291],[-5.3456,41.702,725.3042],[-5.3407,41.6991,725.5228],[-5.3383,41.6868,740.3584],[-5.3281,41.6818,772.7751],[-5.3223,41.6626,794.7197],[-5.3246,41.6434,747.7404],[-5.3194,41.6368,741.4188],[-5.3233,41.6342,747.085],[-5.3252,41.6301,755.1888],[-5.3241,41.6251,750.533],[-5.3288,41.6159,734.8344],[-5.3201,41.6108,730.9095],[-5.3085,41.6117,729.6685],[-5.3056,41.6083,724.2899],[-5.2924,41.6089,730.4544],[-5.2774,41.6051,782.3476],[-5.2704,41.6011,790.0898],[-5.2718,41.5964,792.835],[-5.2706,41.5939,781.2577],[-5.2665,41.593,793.4413],[-5.2678,41.59,777.9648],[-5.2808,41.5847,753.4338],[-5.293,41.5744,719.9905],[-5.2831,41.5686,718.5334],[-5.2792,41.5642,713.123],[-5.2804,41.5621,708.4921],[-5.2725,41.5592,719.8336],[-5.2741,41.5527,722.1913],[-5.2725,41.5502,711.9252],[-5.2639,41.5516,725.1661],[-5.2568,41.5481,722.9494],[-5.2573,41.5471,722.9494],[-5.2477,41.5468,713.3336],[-5.2475,41.5451,714.4751],[-5.2394,41.5405,714.2986],[-5.2342,41.535,716.7006],[-5.233,41.5308,707.2034],[-5.2288,41.5284,706.1282],[-5.2337,41.5177,696.1423],[-5.2416,41.5198,696.769],[-5.2618,41.5037,703.3845],[-5.277,41.5063,671.7248],[-5.2906,41.5008,665.1897],[-5.2991,41.5002,663.2737],[-5.3236,41.4801,651.0527],[-5.3321,41.4779,649.4839],[-5.3319,41.4759,650.3462],[-5.337,41.4763,646.074],[-5.342,41.4813,654.2205],[-5.3446,41.4792,643.6271],[-5.3374,41.4613,643.0],[-5.3296,41.4596,651.9832],[-5.3247,41.4553,645.3098],[-5.3321,41.4502,651.9404],[-5.3271,41.4472,651.6508],[-5.3327,41.4441,680.7599],[-5.3332,41.4362,693.3358],[-5.3391,41.4256,707.5339],[-5.3182,41.4208,704.53],[-5.3074,41.414,707.7979],[-5.311,41.4087,721.2999],[-5.3204,41.4014,741.3561],[-5.3214,41.3959,740.3619],[-5.3329,41.3815,762.6481],[-5.3345,41.3706,792.2004],[-5.333,41.3582,802.5879],[-5.3243,41.3404,790.3174],[-5.322,41.3263,783.6515],[-5.3158,41.3204,794.2415],[-5.3054,41.3182,773.4784],[-5.3034,41.316,776.826],[-5.3064,41.3116,768.1373],[-5.3031,41.3084,784.9451],[-5.3036,41.3003,802.3852],[-5.2972,41.2923,796.0356],[-5.2948,41.2825,794.1936],[-5.2965,41.2707,812.6127],[-5.2916,41.2692,811.9783],[-5.3014,41.2628,802.6262],[-5.3021,41.2593,781.5912],[-5.2949,41.2406,820.5386],[-5.2967,41.2374,818.1525],[-5.2946,41.2363,819.9503],[-5.2968,41.236,814.3591],[-5.2984,41.2318,818.7176],[-5.2977,41.2298,808.2861],[-5.2953,41.2293,806.7624],[-5.2979,41.226,762.7733],[-5.2935,41.2262,768.8826],[-5.3026,41.2241,735.5748],[-5.3046,41.2265,736.2592],[-5.3075,41.2248,730.7643],[-5.3083,41.2221,740.0884],[-5.3114,41.2214,742.68],[-5.31,41.2197,737.3368],[-5.3111,41.2165,746.3987],[-5.3153,41.2119,750.5663],[-5.3297,41.2041,782.3583],[-5.3402,41.1941,813.5173],[-5.3361,41.19,814.1713],[-5.3385,41.1884,815.9545],[-5.3295,41.1843,792.9703],[-5.3277,41.1816,800.022],[-5.3312,41.1785,821.1278],[-5.3269,41.1776,815.6464],[-5.3083,41.1844,755.918],[-5.3073,41.1833,752.7177],[-5.3016,41.1854,742.2921],[-5.2969,41.1812,747.7836],[-5.2886,41.182,798.8179],[-5.2915,41.1839,777.9039],[-5.2903,41.1865,776.8632],[-5.2918,41.1873,757.7533],[-5.2884,41.1956,782.0795],[-5.2827,41.1962,795.427],[-5.2824,41.195,777.3702],[-5.2739,41.1972,794.1696],[-5.2705,41.1955,781.986],[-5.2718,41.198,788.606],[-5.2685,41.1992,790.7256],[-5.2641,41.1973,785.0962],[-5.2555,41.1976,785.2526],[-5.2529,41.1998,783.8506],[-5.2477,41.1981,782.4587],[-5.2486,41.1961,783.2808],[-5.2424,41.1971,780.3251],[-5.2387,41.1939,779.5714],[-5.2292,41.1898,772.1812],[-5.2275,41.1867,771.1791],[-5.2283,41.1833,771.6257],[-5.2248,41.1815,774.773],[-5.2256,41.1784,774.9898],[-5.2235,41.1782,772.2272],[-5.2245,41.1765,776.3242],[-5.2222,41.1706,773.8478],[-5.2172,41.1675,794.6049],[-5.2223,41.1621,788.0013],[-5.2181,41.1596,783.3972],[-5.2078,41.1668,779.9833],[-5.207,41.1649,779.1417],[-5.2004,41.1664,781.486],[-5.1963,41.1632,791.2224],[-5.1912,41.1621,787.2163],[-5.185,41.1667,781.0132],[-5.1815,41.166,778.3148],[-5.1796,41.1673,779.5441],[-5.1765,41.1652,771.119],[-5.1785,41.1646,771.9359],[-5.1778,41.1631,770.0255],[-5.1745,41.1633,769.283],[-5.1744,41.1613,769.0692],[-5.166,41.1603,769.1519],[-5.1615,41.1567,768.5623],[-5.16,41.1572,768.3757],[-5.1486,41.1512,772.8276],[-5.145,41.1476,769.7761],[-5.1361,41.144,774.4769],[-5.1363,41.1412,790.3356],[-5.1282,41.1336,784.7538],[-5.1284,41.1324,784.7538],[-5.1248,41.132,781.4452],[-5.1239,41.1356,780.3115],[-5.1129,41.1364,777.0608],[-5.1113,41.135,777.1417],[-5.1022,41.1427,782.0757],[-5.1,41.1471,776.973],[-5.0759,41.1394,782.4749],[-5.0598,41.1386,778.905],[-5.0217,41.1535,774.119],[-5.0238,41.1568,774.3616],[-5.0138,41.1622,768.627],[-5.0138,41.1642,775.8782],[-5.0108,41.162,766.3427],[-5.0074,41.1619,768.2518],[-5.0043,41.1589,775.8982],[-4.9896,41.1608,767.3471],[-4.9876,41.156,766.5851],[-4.9825,41.1549,768.1903],[-4.9844,41.1522,769.1544],[-4.9772,41.1512,768.7018],[-4.9675,41.1523,765.5004],[-4.9646,41.1497,769.3858],[-4.9629,41.1401,773.7003],[-4.9579,41.139,774.6801],[-4.9507,41.1407,772.1069],[-4.9392,41.1319,776.0001],[-4.9309,41.1293,771.8414],[-4.9237,41.1241,779.1136],[-4.9089,41.1188,776.2946],[-4.9049,41.1187,772.0819],[-4.9018,41.1145,775.2271],[-4.894,41.1131,773.1783],[-4.8808,41.1045,777.9019]]],
[[[-5.3454,42.2671,834.4649],[-5.3471,42.2592,832.4074],[-5.3459,42.251,830.4174],[-5.3405,42.2467,825.7427],[-5.3412,42.2327,815.0486],[-5.337,42.2308,813.5957],[-5.3355,42.2308,813.3347],[-5.3361,42.2335,813.8574],[-5.3327,42.2387,809.2883],[-5.3163,42.2411,818.4724],[-5.3167,42.2495,820.8756],[-5.3089,42.2521,820.261],[-5.306,42.2494,818.1835],[-5.3032,42.252,820.5264],[-5.3038,42.2569,822.5377],[-5.3006,42.2653,824.8666],[-5.3016,42.2692,825.8297],[-5.3063,42.2716,826.6076],[-5.3202,42.2672,831.5597],[-5.3284,42.2741,836.0057],[-5.3454,42.2671,834.4649]]]]}
,"properties": {"GID_2": "ESP.5.8_1","GID_0": "ESP","country": "Spain","GID_1": "ESP.5_1","province": "CastillayLeón","NL_NAME_1": "NA","county": "Valladolid","VARNAME_2": "NA","NL_NAME_2": "NA","TYPE_2": "Provincia","ENGTYPE_2": "Province","CC_2": "47","HASC_2": "ES.CL.VD","name": "Valladolid.county","area_km2": 8098.859,"hist_schema_id": "Elevation0-9000","hist_area_km2": {"650": 52.003,"675": 190.593,"700": 757.678,"725": 1236.501,"750": 1681.814,"775": 1368.456,"800": 564.081,"825": 517.249,"850": 871.167,"875": 450.509,"900": 390.045,"925": 18.763}}}