{"type": "Feature","bbox": [-3.382,40.625,-3.3642,40.6412],"geometry": {"type": "MultiPolygon","coordinates": [[[[-3.371,40.625,791.868],[-3.3672,40.6303,773.3382],[-3.3693,40.6303,780.8953],[-3.3684,40.6334,784.3262],[-3.3665,40.6324,773.7322],[-3.3642,40.6351,781.1609],[-3.3654,40.6393,777.049],[-3.3734,40.6412,692.9489],[-3.375,40.6386,703.4677],[-3.3733,40.6358,723.9834],[-3.382,40.6298,675.8217],[-3.371,40.625,791.868]]]]}
,"properties": {"GID_3": "ESP.4.4.6_1","GID_0": "ESP","country": "Spain","GID_1": "ESP.4_1","province": "Castilla-LaMancha","NL_NAME_1": "NA","GID_2": "ESP.4.4_1","county": "Guadalajara","NL_NAME_2": "NA","city": "n.a.(176)","VARNAME_3": "NA","NL_NAME_3": "NA","TYPE_3": "Comarca","ENGTYPE_3": "Comarca","CC_3": "NA","HASC_3": "NA","name": "n.a.(176).city","area_km2": 1.30331,"hist_schema_id": "Elevation0-9000","hist_area_km2": {"675": 0.016091,"700": 0.209168,"725": 0.402251,"750": 0.482706,"775": 0.12873,"800": 0.064363}}}