{"type": "Feature","bbox": [-1.8131,41.2309,-0.9456,41.7377],"geometry": {"type": "MultiPolygon","coordinates": [[[[-1.1812,41.2502,835.9999],[-1.1822,41.2524,856.9641],[-1.179,41.2599,762.0479],[-1.1709,41.2664,790.7346],[-1.15,41.2724,817.1472],[-1.1465,41.2721,813.7838],[-1.1303,41.2637,816.512],[-1.1284,41.2608,812.681],[-1.1226,41.2596,808.9054],[-1.1214,41.2568,750.4681],[-1.1147,41.255,691.4534],[-1.1098,41.2571,727.8589],[-1.1045,41.2549,781.1707],[-1.0929,41.255,846.4059],[-1.0896,41.2569,860.8956],[-1.0861,41.2638,839.7051],[-1.0753,41.2686,829.5456],[-1.0728,41.2602,858.9316],[-1.0509,41.2543,855.3122],[-1.0309,41.2561,812.672],[-0.9934,41.2655,760.0154],[-0.9625,41.279,689.1858],[-0.9553,41.2836,670.2276],[-0.9499,41.3054,716.3705],[-0.9456,41.3059,732.5441],[-0.949,41.3159,746.5344],[-0.9762,41.3222,727.929],[-0.981,41.3281,724.3093],[-0.9788,41.3322,701.6733],[-0.9801,41.3353,725.7333],[-0.9882,41.3452,726.0237],[-0.9776,41.3525,737.7916],[-0.9732,41.3528,717.1051],[-0.9645,41.3624,705.845],[-0.9566,41.3811,739.7939],[-0.9594,41.3905,730.5383],[-0.9829,41.402,742.1569],[-0.994,41.4029,729.0787],[-0.9941,41.4046,721.2072],[-1.0048,41.4092,701.1153],[-1.0122,41.4154,674.8856],[-1.0182,41.4166,689.9127],[-1.0241,41.4206,704.2987],[-1.0258,41.4377,640.8858],[-1.0299,41.4506,647.5151],[-1.0334,41.452,646.4544],[-1.0382,41.4584,638.3482],[-1.04,41.4588,638.8932],[-1.0395,41.4568,641.2065],[-1.0462,41.4607,582.1913],[-1.0492,41.4602,612.8602],[-1.0506,41.4645,565.5225],[-1.0644,41.474,434.4683],[-1.0694,41.4795,404.5387],[-1.0781,41.4805,398.7377],[-1.0934,41.4868,431.7654],[-1.1146,41.5042,555.5471],[-1.1205,41.5059,607.2836],[-1.1243,41.5134,614.8661],[-1.1281,41.5167,615.2394],[-1.1298,41.5236,584.2972],[-1.1276,41.5242,611.4464],[-1.1277,41.529,604.9111],[-1.1261,41.531,618.2607],[-1.1389,41.5339,541.0652],[-1.1406,41.5383,539.9275],[-1.1447,41.5418,512.8895],[-1.1522,41.5436,492.9594],[-1.1568,41.5417,479.9614],[-1.1622,41.5335,466.2889],[-1.1638,41.5487,471.9068],[-1.1747,41.5665,481.6918],[-1.1749,41.5778,471.5002],[-1.1859,41.5915,454.7288],[-1.1972,41.6004,452.9713],[-1.2094,41.6213,405.5404],[-1.1807,41.6425,395.0923],[-1.1935,41.6488,393.6306],[-1.2091,41.6641,352.5728],[-1.2138,41.6655,360.1099],[-1.2235,41.6759,276.5983],[-1.2203,41.6788,274.014],[-1.2249,41.6868,270.774],[-1.2242,41.69,268.7134],[-1.2271,41.692,267.0313],[-1.2298,41.6904,272.6891],[-1.2326,41.692,278.6622],[-1.2127,41.708,263.3628],[-1.247,41.7154,343.7063],[-1.2587,41.7211,335.504],[-1.2687,41.7212,334.5957],[-1.2945,41.7071,359.3054],[-1.2983,41.7084,366.394],[-1.3105,41.7177,385.9139],[-1.3112,41.7211,388.1839],[-1.3199,41.7249,376.3219],[-1.3237,41.7284,366.037],[-1.3286,41.737,348.2394],[-1.3799,41.7292,399.2503],[-1.3896,41.7169,412.4996],[-1.397,41.7114,429.0779],[-1.404,41.7103,440.5311],[-1.4105,41.7062,462.093],[-1.4207,41.7042,474.1707],[-1.4251,41.6977,484.208],[-1.4324,41.6959,513.4375],[-1.4436,41.6889,540.4152],[-1.4534,41.6891,564.7902],[-1.4601,41.6851,592.5421],[-1.4789,41.6873,709.8323],[-1.4893,41.6947,795.3],[-1.4985,41.7071,629.5118],[-1.5082,41.7106,714.3019],[-1.5253,41.7294,585.9572],[-1.5314,41.7272,608.3358],[-1.5396,41.7301,685.811],[-1.5518,41.7279,787.7733],[-1.5626,41.7327,732.5157],[-1.5637,41.7377,662.7817],[-1.5731,41.7285,664.903],[-1.5925,41.7173,765.799],[-1.5989,41.7151,845.6288],[-1.6078,41.717,842.6405],[-1.614,41.7226,855.5987],[-1.614,41.7197,899.1151],[-1.6198,41.7173,877.562],[-1.6215,41.7129,876.749],[-1.6165,41.6986,902.6661],[-1.6187,41.6958,895.1787],[-1.6238,41.6967,878.6393],[-1.6326,41.6915,921.5066],[-1.6407,41.6936,1013.6277],[-1.6613,41.6941,1189.2437],[-1.6637,41.6955,1226.0054],[-1.6746,41.6926,1209.8545],[-1.6842,41.7043,1469.9177],[-1.6896,41.703,1462.5493],[-1.6981,41.7042,1337.562],[-1.7027,41.7082,1294.9432],[-1.7067,41.7157,1374.7737],[-1.7143,41.7177,1382.3347],[-1.7273,41.7252,1517.3966],[-1.7306,41.7251,1512.592],[-1.732,41.7231,1496.455],[-1.744,41.7252,1457.3832],[-1.761,41.7183,1577.7803],[-1.7753,41.7248,1489.7031],[-1.7849,41.717,1535.6804],[-1.7881,41.7028,1362.0431],[-1.7868,41.6994,1277.5078],[-1.7938,41.6977,1136.2727],[-1.7948,41.699,1244.5706],[-1.8016,41.6962,1141.3702],[-1.812,41.6865,1621.0353],[-1.809,41.6847,1603.9077],[-1.8062,41.6643,1447.5492],[-1.8131,41.6606,1481.1987],[-1.8107,41.6557,1396.8621],[-1.8053,41.6515,1414.1852],[-1.7931,41.6523,1333.7714],[-1.7819,41.6465,1304.5923],[-1.7791,41.6423,1273.8669],[-1.7664,41.6419,1187.4509],[-1.7567,41.634,1216.738],[-1.7499,41.6249,1115.5823],[-1.7434,41.6223,1064.364],[-1.7402,41.6181,1179.7185],[-1.7299,41.6141,1056.3488],[-1.7232,41.6164,1040.0646],[-1.7207,41.6195,990.3137],[-1.7115,41.6236,1022.6413],[-1.7098,41.6262,1053.7285],[-1.7046,41.6242,1017.4103],[-1.6964,41.6254,1031.5492],[-1.6913,41.629,1045.5342],[-1.6923,41.6246,972.2546],[-1.6889,41.6216,972.0468],[-1.6888,41.6157,981.9556],[-1.6836,41.6127,911.0665],[-1.6822,41.6078,954.0417],[-1.6666,41.6041,977.7273],[-1.6487,41.5949,785.307],[-1.648,41.589,801.3868],[-1.6445,41.5869,827.2357],[-1.6386,41.5864,810.9178],[-1.6371,41.582,764.9697],[-1.6311,41.5791,763.4686],[-1.63,41.5768,749.8874],[-1.6326,41.5736,765.8553],[-1.6273,41.5675,721.9906],[-1.6207,41.5673,715.9827],[-1.6087,41.573,734.4697],[-1.6006,41.5716,685.9614],[-1.591,41.5655,681.5945],[-1.591,41.5603,707.3074],[-1.5933,41.5584,690.6096],[-1.597,41.5455,889.1395],[-1.5888,41.544,800.9076],[-1.5787,41.5397,718.28],[-1.5719,41.5323,695.2045],[-1.5657,41.5305,530.4537],[-1.5643,41.5267,589.2485],[-1.5667,41.5209,700.7556],[-1.5755,41.5172,766.7292],[-1.5742,41.5099,710.8724],[-1.5692,41.5047,730.0529],[-1.5707,41.4995,712.8039],[-1.5675,41.496,736.7376],[-1.5562,41.4941,651.95],[-1.544,41.4898,487.748],[-1.5384,41.4892,532.879],[-1.5319,41.4908,667.6976],[-1.527,41.4825,431.7009],[-1.5266,41.4725,508.5389],[-1.5309,41.4653,700.7166],[-1.5287,41.4596,774.6924],[-1.525,41.4582,700.644],[-1.5097,41.4591,872.3013],[-1.5089,41.4554,884.0814],[-1.4987,41.4491,759.2631],[-1.4953,41.4412,750.0815],[-1.4929,41.4411,743.8978],[-1.4851,41.4311,739.545],[-1.4813,41.4302,790.8879],[-1.481,41.4286,814.2747],[-1.4783,41.4289,764.4937],[-1.4754,41.4253,748.0192],[-1.474,41.4197,790.6945],[-1.4675,41.4155,743.1779],[-1.4681,41.4142,766.6613],[-1.4564,41.407,714.9958],[-1.4474,41.399,592.4195],[-1.4396,41.3961,524.129],[-1.4356,41.3886,607.2244],[-1.456,41.3631,980.6497],[-1.4435,41.3565,884.63],[-1.4429,41.3519,1045.4385],[-1.4373,41.3425,985.0997],[-1.435,41.3412,1043.9158],[-1.4369,41.3394,1129.7224],[-1.4338,41.3356,1118.9912],[-1.4277,41.3321,1114.9456],[-1.4234,41.3213,1111.5736],[-1.4244,41.3183,1168.8809],[-1.4306,41.3162,1169.5488],[-1.4298,41.3132,1145.0237],[-1.4351,41.3114,1140.0291],[-1.4352,41.3082,1184.0709],[-1.4319,41.3063,1152.7551],[-1.4248,41.2881,1248.949],[-1.4245,41.2843,1227.3838],[-1.4265,41.2815,1228.0702],[-1.4052,41.2696,869.0928],[-1.4022,41.2694,850.7043],[-1.3859,41.257,979.6086],[-1.3865,41.2606,976.6946],[-1.3737,41.2648,1098.2682],[-1.3745,41.2715,1262.2673],[-1.3695,41.2699,1212.0007],[-1.3647,41.266,1131.8473],[-1.3522,41.2649,1153.9409],[-1.3265,41.2369,1169.6591],[-1.3233,41.2375,1113.7703],[-1.3194,41.2422,999.3337],[-1.316,41.2426,996.0536],[-1.3107,41.2502,1053.174],[-1.2976,41.2502,1105.3928],[-1.2905,41.2532,1211.5503],[-1.2915,41.257,1166.9677],[-1.2883,41.2604,1148.0779],[-1.2832,41.2595,1091.7694],[-1.2735,41.2519,1039.724],[-1.258,41.2486,972.6791],[-1.257,41.2414,951.8574],[-1.2535,41.2378,959.5501],[-1.251,41.2309,948.4576],[-1.2454,41.2336,874.4794],[-1.2373,41.241,985.114],[-1.2377,41.2489,1028.48],[-1.2318,41.2514,1001.5348],[-1.2297,41.251,1004.9277],[-1.2248,41.2444,971.7162],[-1.2128,41.2434,945.0479],[-1.209,41.2457,974.8291],[-1.2058,41.2431,1027.7396],[-1.1966,41.2415,1025.0521],[-1.1852,41.244,930.5733],[-1.1812,41.2502,835.9999]]]]}
,"properties": {"GID_3": "ESP.2.3.3_1","GID_0": "ESP","country": "Spain","GID_1": "ESP.2_1","province": "Aragón","NL_NAME_1": "NA","GID_2": "ESP.2.3_1","county": "Zaragoza","NL_NAME_2": "NA","city": "n.a.(276)","VARNAME_3": "NA","NL_NAME_3": "NA","TYPE_3": "Comarca","ENGTYPE_3": "Comarca","CC_3": "NA","HASC_3": "NA","name": "n.a.(276).city","area_km2": 2045.762,"hist_schema_id": "Elevation0-9000","hist_area_km2": {"275": 10.389,"300": 22.117,"325": 40.772,"350": 88.453,"375": 119.501,"400": 120.555,"425": 114.679,"450": 92.237,"475": 91.384,"500": 92.404,"525": 86.424,"550": 93.114,"575": 90.656,"600": 84.511,"625": 82.96,"650": 81.194,"675": 81.993,"700": 83.746,"725": 79.827,"750": 71.137,"775": 61.106,"800": 47.366,"825": 36.773,"850": 31.341,"875": 28.002,"900": 26.558,"925": 24.274,"950": 22.272,"975": 20.906,"1000": 18.742,"1025": 16.881,"1050": 14.972,"1075": 11.796,"1100": 9.809,"1125": 7.761,"1150": 5.76,"1175": 5.013,"1200": 3.804,"1225": 3.661,"1250": 3.326,"1275": 3.071,"1300": 2.66,"1325": 2.612,"1350": 2.2,"1375": 1.662,"1400": 1.393,"1425": 1.266,"1450": 0.823,"1475": 0.712,"1500": 0.396,"1525": 0.317,"1550": 0.174,"1575": 0.142,"1600": 0.095,"1625": 0.063}}}