{"type":"Feature","properties":{"ISO3166-1-Alpha-3":"ESP","country":"Spain","fill":"#000","id":"5845","name":"Soria"},
"geometry":{"type": "Polygon","coordinates": [[[-2.25629,42.08942,1529.0129],[-2.26614,42.09516,1433.5884],[-2.27223,42.10193,1348.132],[-2.27567,42.10934,1275.1617],[-2.27632,42.11665,1219.9756],[-2.27854,42.12368,1134.317],[-2.28122,42.12994,1038.8987],[-2.28665,42.13412,833.0037],[-2.29613,42.13779,1044.2856],[-2.34745,42.14221,1443.9907],[-2.41047,42.13857,1668.1523],[-2.43744,42.1319,1586.2318],[-2.44995,42.12311,1726.1465],[-2.47263,42.11141,1576.7111],[-2.48152,42.10823,1508.7887],[-2.50245,42.1111,1658.3904],[-2.50839,42.11035,1561.4126],[-2.51157,42.10513,1549.2314],[-2.51274,42.09795,1576.1978],[-2.51361,42.0825,1611.2778],[-2.51565,42.0688,1761.728],[-2.51974,42.06343,1721.8975],[-2.52498,42.05997,1728.0157],[-2.53041,42.05697,1729.7236],[-2.53692,42.05258,1675.0222],[-2.54211,42.04643,1639.613],[-2.54617,42.03857,1843.7058],[-2.55682,42.02276,1734.5421],[-2.56795,42.0101,1696.9071],[-2.57035,42.00477,1647.4128],[-2.57227,42.0017,1727.5923],[-2.57294,42.00015,1754.811],[-2.59087,41.99953,1830.1117],[-2.61955,42.00232,1822.566],[-2.65562,42.00069,1985.3307],[-2.66043,41.99956,2009.5276],[-2.66415,41.99956,2009.7518],[-2.67185,42.00046,2049.3062],[-2.69061,42.0116,1837.9385],[-2.70133,42.01493,1959.4478],[-2.7137,42.01679,1872.9137],[-2.72903,42.01694,1910.9922],[-2.7436,42.02253,1746.6483],[-2.74848,42.02878,1907.9053],[-2.74745,42.03604,1804.8738],[-2.74435,42.04343,1838.8389],[-2.74047,42.05072,1803.0365],[-2.73779,42.05787,1800.4446],[-2.73417,42.06407,1778.7533],[-2.72109,42.07371,1657.611],[-2.71575,42.07991,1662.537],[-2.71234,42.09397,1327.7869],[-2.71257,42.10125,1142.4568],[-2.7142,42.10813,1204.6444],[-2.71719,42.1142,1250.4983],[-2.7252,42.11777,1231.571],[-2.73536,42.12012,1395.8728],[-2.76223,42.1181,1458.4875],[-2.77393,42.11247,1636.7185],[-2.7859,42.1011,1557.1475],[-2.78969,42.0927,1638.2755],[-2.79504,42.08495,1615.4414],[-2.79752,42.07779,1596.9313],[-2.79856,42.07077,1657.5039],[-2.79644,42.06369,1737.0541],[-2.79628,42.05601,1733.8436],[-2.80163,42.0473,1842.7102],[-2.81285,42.03805,1827.5139],[-2.84011,42.0255,1682.5146],[-2.87093,42.01475,2040.0569],[-2.91018,42.02343,1951.272],[-2.93227,42.01805,2043.8103],[-2.9643,41.96255,1193.4502],[-2.9692,41.94006,1149.6862],[-2.97375,41.93082,1387.979],[-2.98166,41.9293,1410.5793],[-2.99078,41.92977,1348.5778],[-2.99905,41.92645,1358.7417],[-3.00256,41.92166,1305.6401],[-3.01685,41.88683,1327.988],[-3.04515,41.88937,1324.2839],[-3.07535,41.88319,1270.7063],[-3.17144,41.79294,1167.4778],[-3.19484,41.82692,1177.696],[-3.20156,41.83113,1187.1996],[-3.22868,41.84045,1147.5388],[-3.23341,41.84395,1132.7067],[-3.23733,41.84937,1105.4869],[-3.25299,41.86369,1133.5747],[-3.2721,41.8654,1126.9062],[-3.28642,41.85523,1165.5446],[-3.2877,41.834,1107.3118],[-3.27786,41.77141,965.8561],[-3.27953,41.7673,985.9291],[-3.28297,41.76433,980.2119],[-3.321,41.74538,996.788],[-3.35435,41.73734,966.3821],[-3.35847,41.69341,949.5043],[-3.39348,41.69067,927.6717],[-3.45971,41.58943,1015.0417],[-3.52768,41.60747,932.6604],[-3.53584,41.60582,923.8779],[-3.54089,41.60092,945.6387],[-3.54296,41.59377,1017.6415],[-3.54173,41.57777,938.006],[-3.53654,41.55677,1019.3062],[-3.53188,41.54808,1016.434],[-3.52355,41.54066,1023.4445],[-3.48278,41.52278,1036.9186],[-3.47506,41.52362,1036.4398],[-3.45654,41.53036,1034.4866],[-3.44928,41.52962,1031.782],[-3.43737,41.52463,1038.3107],[-3.42715,41.51689,1035.1559],[-3.42437,41.51223,1014.7795],[-3.42128,41.48873,1049.2081],[-3.41887,41.48359,1052.3171],[-3.41472,41.4796,1050.5376],[-3.38235,41.46522,1060.2216],[-3.34847,41.46111,1065.2407],[-3.34098,41.45709,1077.0156],[-3.33745,41.45267,1063.2321],[-3.33691,41.44802,1058.2207],[-3.3456,41.40504,1062.026],[-3.34366,41.38801,1052.0262],[-3.33263,41.37705,1090.7008],[-3.19879,41.3012,1433.7712],[-3.08381,41.28076,1493.1968],[-3.0489,41.28092,1305.019],[-2.98227,41.28725,1381.4165],[-2.95999,41.29143,1263.4932],[-2.944,41.29908,1227.2209],[-2.94093,41.30521,1245.8976],[-2.93571,41.31092,1237.6035],[-2.92982,41.31629,1216.7841],[-2.92113,41.31965,1218.2925],[-2.90971,41.32213,1218.239],[-2.89716,41.32141,1197.3589],[-2.87964,41.31458,1177.902],[-2.87426,41.30753,1207.0024],[-2.87147,41.29993,1205.6598],[-2.86977,41.29273,1233.9143],[-2.86385,41.27875,1142.623],[-2.85576,41.2727,1147.4821],[-2.84408,41.26792,1204.1917],[-2.8059,41.25994,1207.8149],[-2.7813,41.26105,1192.704],[-2.77006,41.26554,1172.158],[-2.76099,41.27056,1160.9977],[-2.75182,41.27394,1140.4996],[-2.74135,41.27423,1139.6992],[-2.7281,41.27278,1146.708],[-2.72014,41.26596,1142.2998],[-2.71513,41.25903,1134.2308],[-2.70923,41.25252,1146.9199],[-2.69812,41.24797,1142.8157],[-2.68022,41.24374,1161.4229],[-2.6558,41.24095,1134.0216],[-2.63947,41.23487,1148.554],[-2.63141,41.22836,1168.0245],[-2.62591,41.22265,1190.8326],[-2.61826,41.22009,1198.8442],[-2.60953,41.22188,1184.6915],[-2.59991,41.22257,1174.6519],[-2.59193,41.22198,1173.3199],[-2.58599,41.21552,1136.7908],[-2.5886,41.20997,1180.9941],[-2.59335,41.20358,1139.8652],[-2.60836,41.19557,1216.8944],[-2.61004,41.1917,1217.1254],[-2.60216,41.18666,1225.4437],[-2.58482,41.1794,1185.599],[-2.5795,41.17237,1200.1727],[-2.58022,41.16576,1135.8312],[-2.58885,41.15485,1200.5829],[-2.58632,41.14958,1191.7814],[-2.57824,41.14638,1195.5536],[-2.56718,41.14555,1207.6694],[-2.55087,41.15038,1225.1147],[-2.5408,41.15485,1221.2955],[-2.53206,41.15723,1224.4901],[-2.52279,41.15263,1220.265],[-2.5179,41.14617,1211.2942],[-2.51372,41.13909,1160.7057],[-2.51149,41.13258,1214.7449],[-2.50814,41.12752,1168.5941],[-2.5056,41.12473,1186.1074],[-2.50038,41.12193,1169.9001],[-2.48814,41.11723,1246.1007],[-2.48145,41.11382,1274.9041],[-2.47749,41.1079,1218.0508],[-2.47188,41.09346,1185.7869],[-2.46762,41.08607,1212.7954],[-2.46039,41.07974,1203.2241],[-2.44972,41.0746,1206.3585],[-2.42248,41.06543,1134.4586],[-2.4092,41.06499,1183.7412],[-2.37652,41.07757,1195.1315],[-2.36448,41.08067,1184.3721],[-2.35241,41.07796,1185.2987],[-2.34458,41.07318,1194.1812],[-2.32688,41.06525,1208.2562],[-2.31332,41.0638,1229.6445],[-2.28836,41.06752,1251.0526],[-2.27327,41.07129,1227.2188],[-2.26055,41.07605,1314.1445],[-2.24906,41.08354,1269.7688],[-2.23704,41.08897,1265.4667],[-2.21911,41.09111,1292.2458],[-2.19648,41.0884,1319.3652],[-2.18707,41.08881,1291.4376],[-2.17761,41.09067,1305.972],[-2.14519,41.11439,1266.7551],[-2.1371,41.11832,1232.0128],[-2.12896,41.116459999999996,1231.4799],[-2.12315,41.11147,1281.5242],[-2.11586,41.10633,1287.3566],[-2.09121,41.09444,1206.1594],[-2.08439,41.08969,1179.8993],[-2.0793,41.0838,1163.5184],[-2.07294,41.07889,1175.8484],[-2.06527,41.07687,1199.4978],[-2.05938,41.07946,1210.3079],[-2.05728,41.08499,1159.188],[-2.06008,41.09114,1161.1771],[-2.06178,41.11,1170.752],[-2.05266,41.13553,1148.7527],[-2.05323,41.15036,1097.8544],[-2.06181,41.15862,1109.2673],[-2.08374,41.17188,1075.2086],[-2.09235,41.17483,1062.249],[-2.10175,41.17697,1003.3123],[-2.11129,41.17687,966.7084],[-2.12966,41.17917,951.8055],[-2.13824,41.18147,978.2888],[-2.14506,41.18658,924.3386],[-2.14914,41.19395,902.7654],[-2.15134,41.23128,885.5821],[-2.15922,41.26921,802.9803],[-2.16146,41.27565,819.4468],[-2.16542,41.28094,799.1224],[-2.17335,41.29459,779.324],[-2.17188,41.32776,806.2917],[-2.16624,41.34595,779.3326],[-2.15984,41.35319,769.5903],[-2.15392,41.35704,777.943],[-2.14707,41.3589,809.3747],[-2.14015,41.3627,823.3945],[-2.13395,41.3691,868.8273],[-2.12795,41.37675,886.8293],[-2.12237,41.39933,869.0815],[-2.12098,41.40827,874.6813],[-2.12077,41.416,865.7143],[-2.11958,41.42367,885.1214],[-2.11627,41.43137,869.4103],[-2.11095,41.43788,893.2277],[-2.09971,41.44261,920.5654],[-2.06951,41.43936,936.8486],[-2.05212,41.43499,948.0462],[-2.04522,41.43075,975.6498],[-2.04098,41.42489,936.0466],[-2.03935,41.41768,907.6924],[-2.03912,41.41011,875.0104],[-2.04057,41.40187,956.4683],[-2.04083,41.39473,988.9816],[-2.03742,41.38877,992.4867],[-2.03062,41.38543,942.5013],[-2.0222,41.38538,899.4016],[-2.01406,41.38807,912.4099],[-1.99605,41.39799,829.9028],[-1.97985,41.40494,964.5399],[-1.97013,41.40729,944.9928],[-1.96013,41.40879,943.192],[-1.95179,41.41166,923.6624],[-1.94595,41.41553,918.215],[-1.95285,41.45783,934.1763],[-1.95618,41.46682,938.9178],[-1.96192,41.47375,951.9612],[-1.96912,41.47979,957.2422],[-1.97527,41.49114,985.5148],[-1.97871,41.50762,981.2964],[-1.97592,41.54266,1100.324],[-1.98194,41.5708,1060.8921],[-1.98791,41.57519,1073.4886],[-1.99023,41.58175,1052.0336],[-1.99078,41.58855,1090.0348],[-1.98827,41.5955,1095.2532],[-1.9807,41.60191,1206.594],[-1.97515,41.60521,1190.5153],[-1.96946,41.60772,1071.7788],[-1.96455,41.60868,1011.0833],[-1.95858,41.60873,1042.5249],[-1.95052,41.60581,1074.7043],[-1.93212,41.60113,1097.1958],[-1.92352,41.60299,1080.3403],[-1.91704,41.60741,1108.2241],[-1.91094,41.61415,1166.009],[-1.89396,41.62945,1169.0122],[-1.87479,41.63694,1277.7664],[-1.86564,41.64304,1243.2709],[-1.8543,41.6526,1142.4312],[-1.84435,41.65686,1221.3253],[-1.8343,41.65823,1277.645],[-1.82497,41.65803,1267.5122],[-1.81588,41.66167,1476.9796],[-1.80733,41.67043,1357.2561],[-1.79942,41.68717,1426.8286],[-1.7927,41.69689,1135.4092],[-1.78818,41.70575,1425.8185],[-1.78554,41.71929,1524.7006],[-1.79596,41.72875,1607.4435],[-1.80265,41.73182,1699.5554],[-1.80854,41.7375,1804.8948],[-1.81079,41.74492,1752.8516],[-1.8189,41.75781,1932.6448],[-1.83546,41.77704,2158.8462],[-1.84247,41.78313,2160.158],[-1.84585,41.79073,1990.3467],[-1.84267,41.79957,1646.6353],[-1.83182,41.8143,1177.47],[-1.8259,41.82057,1065.3763],[-1.82156,41.82783,997.2863],[-1.81776,41.83605,942.1909],[-1.81583,41.84422,862.325],[-1.81603,41.85168,843.0131],[-1.83688,41.87409,687.5159],[-1.85159,41.90615,755.7895],[-1.85774,41.9548,661.8994],[-1.89652,41.93878,771.9476],[-1.90471,41.934,694.4381],[-1.92246,41.92574,673.6049],[-1.93251,41.92256,830.6649],[-1.94386,41.92046,875.7076],[-1.96788,41.91845,917.3119],[-1.97794,41.92054,1003.9363],[-1.98822,41.92773,1038.0758],[-1.99827,41.93351,1129.3337],[-2.02336,41.94132,966.3517],[-2.04013,41.94204,767.3686],[-2.09522,41.95274,991.969],[-2.10537,41.95708,983.0292],[-2.11064,41.96341,1125.4055],[-2.11612,41.97811,1166.4594],[-2.1172,41.98493,1298.3291],[-2.1154,41.99139,1346.1833],[-2.11049,41.99589,1472.543],[-2.10656,41.99883,1421.7114],[-2.10459,42.00007,1362.2847],[-2.10405,42.00131,1394.1449],[-2.10418,42.00384,1340.144],[-2.10666,42.00922,1252.6748],[-2.11664,42.02203,1111.5807],[-2.14051,42.03687,1008.5023],[-2.14619,42.04322,1143.1483],[-2.14945,42.05077,1082.8008],[-2.15054,42.05816,1217.457],[-2.14898,42.06477,1177.3723],[-2.14289,42.06973,1135.3253],[-2.13506,42.07294,1099.6636],[-2.1278,42.0779,987.9483],[-2.12322,42.08368,840.6518],[-2.12268,42.09071,812.9529],[-2.1278,42.09666,989.4036],[-2.13787,42.10156,1003.6387],[-2.15338,42.10456,1047.996],[-2.1718,42.10549,1127.9375],[-2.18968,42.10407,1235.4417],[-2.24552,42.08952,1452.4196],[-2.25629,42.08942,1529.0129]]]}}