{"type":"Feature","properties":{"GID_2":"ESP.5.7_1","GID_0":"ESP","country":"Spain","GID_1":"ESP.5_1","province":"CastillayLeón","NL_NAME_1":"NA","county":"Soria","VARNAME_2":"NA","NL_NAME_2":"NA","TYPE_2":"Provincia","ENGTYPE_2":"Province","CC_2":"42","HASC_2":"ES.CL.SR","name":"Soria.county"},
"geometry":{"type": "MultiPolygon","coordinates": [[[[-2.4494,41.0777,1201.8113],[-2.4479,41.0749,1206.3585],[-2.4422,41.0773,1130.6185],[-2.4399,41.0732,1141.8226],[-2.4409,41.0714,1146.304],[-2.4297,41.0723,1113.2653],[-2.4297,41.0659,1140.2986],[-2.4204,41.0602,1154.7041],[-2.4188,41.0577,1147.8741],[-2.4142,41.0609,1177.5547],[-2.4021,41.0617,1116.1506],[-2.383,41.0742,1212.1721],[-2.3813,41.077,1195.6722],[-2.3553,41.0865,1179.6882],[-2.3492,41.0774,1185.8628],[-2.3338,41.0674,1188.8344],[-2.3306,41.0668,1194.9731],[-2.3233,41.0565,1224.7046],[-2.3155,41.0616,1225.7278],[-2.3032,41.065,1258.3633],[-2.2935,41.0713,1270.907],[-2.291,41.0709,1259.3333],[-2.2844,41.0653,1249.6356],[-2.2635,41.0675,1283.9216],[-2.2321,41.097,1274.1543],[-2.2225,41.0934,1293.8406],[-2.1752,41.0838,1314.7583],[-2.1757,41.0866,1307.5569],[-2.1673,41.0954,1316.9463],[-2.1434,41.1026,1264.3888],[-2.1358,41.1167,1254.8202],[-2.1318,41.1181,1212.4651],[-2.1174,41.103,1294.7141],[-2.1094,41.0976,1236.4033],[-2.0974,41.0925,1186.6658],[-2.0871,41.0901,1176.9458],[-2.0814,41.0864,1162.2053],[-2.0766,41.082,1143.1763],[-2.0786,41.0774,1190.7654],[-2.0716,41.0725,1185.2144],[-2.0564,41.0697,1195.4919],[-2.0481,41.0784,1211.454],[-2.0575,41.0847,1159.188],[-2.0656,41.0958,1172.4031],[-2.0636,41.1035,1189.7159],[-2.0603,41.1052,1171.567],[-2.0627,41.1131,1181.4569],[-2.0591,41.1198,1181.3621],[-2.0505,41.1259,1188.8535],[-2.0516,41.1469,1098.5841],[-2.0773,41.1631,1091.5464],[-2.0798,41.171,1113.6803],[-2.1067,41.1752,965.5002],[-2.1462,41.1844,924.8831],[-2.1489,41.2188,910.8855],[-2.1548,41.2404,856.9147],[-2.1586,41.2649,831.978],[-2.1634,41.2832,819.2241],[-2.1736,41.2881,779.9474],[-2.1729,41.2958,811.8961],[-2.169,41.3011,770.5094],[-2.1673,41.3112,807.7866],[-2.1704,41.3188,828.3761],[-2.1643,41.3287,788.9845],[-2.1579,41.3316,785.7618],[-2.1566,41.3374,758.0631],[-2.1624,41.3479,770.6995],[-2.1631,41.3554,769.1426],[-2.156,41.3569,774.4669],[-2.1498,41.3559,790.313],[-2.1316,41.3684,868.3303],[-2.1257,41.3696,896.0618],[-2.1201,41.3797,938.6738],[-2.116,41.3821,938.976],[-2.1194,41.3843,932.8584],[-2.1206,41.39,893.0811],[-2.1194,41.3903,901.1814],[-2.1205,41.3943,880.2216],[-2.1182,41.3962,892.654],[-2.116,41.4087,914.2447],[-2.1167,41.425,913.9521],[-2.1117,41.4342,888.7065],[-2.1036,41.4396,897.4112],[-2.1015,41.4458,913.2411],[-2.047,41.4343,962.4974],[-2.0356,41.4269,956.0831],[-2.0347,41.4044,926.7917],[-2.0435,41.3972,989.0057],[-2.0423,41.389,1005.2268],[-2.0382,41.3893,997.1202],[-2.0292,41.3842,926.6348],[-2.0164,41.3836,891.2225],[-2.0166,41.385,895.943],[-2.0096,41.3858,907.6901],[-2.0019,41.3938,822.7295],[-1.9936,41.3954,798.0062],[-1.9934,41.3972,799.5842],[-1.9918,41.3956,878.99],[-1.9873,41.3959,982.0122],[-1.9818,41.4023,966.2296],[-1.9705,41.401,962.117],[-1.9625,41.4034,947.9486],[-1.9536,41.4086,919.0889],[-1.9527,41.4075,919.0889],[-1.9378,41.4074,865.4326],[-1.9372,41.4116,916.9222],[-1.9391,41.4127,881.6837],[-1.9399,41.417,882.3732],[-1.9365,41.4199,904.6124],[-1.9422,41.4199,899.0414],[-1.9536,41.4243,933.1343],[-1.9487,41.4296,924.6696],[-1.9487,41.4358,919.3429],[-1.9523,41.4455,922.1766],[-1.9514,41.456,928.3732],[-1.9532,41.4625,937.5728],[-1.9699,41.4815,955.3693],[-1.981,41.4864,968.8804],[-1.9766,41.4967,992.5067],[-1.9787,41.5041,978.3538],[-1.9749,41.5161,937.5419],[-1.9781,41.5267,938.5848],[-1.9719,41.5328,1003.1986],[-1.973,41.5342,1020.776],[-1.9673,41.5461,1124.8118],[-1.9704,41.5487,1118.5013],[-1.9686,41.5508,1125.3668],[-1.9735,41.558,1120.7408],[-1.9767,41.5574,1116.2413],[-1.9818,41.562,1097.618],[-1.9806,41.5647,1089.0996],[-1.9936,41.5771,1073.2205],[-1.995,41.5817,1066.4443],[-1.9919,41.5904,1092.699],[-1.9933,41.6001,1113.5942],[-1.9844,41.6071,1179.2844],[-1.9759,41.6029,1262.1462],[-1.9692,41.6056,1095.6069],[-1.958,41.6049,1001.5886],[-1.923,41.5983,1103.9771],[-1.9183,41.6066,1077.1189],[-1.9141,41.6087,1097.3992],[-1.9135,41.6163,1171.2605],[-1.9003,41.6264,1192.3754],[-1.8978,41.6324,1202.3125],[-1.8788,41.6411,1274.5815],[-1.8739,41.638,1298.829],[-1.8589,41.6615,1217.3699],[-1.8345,41.6607,1371.1953],[-1.8291,41.6626,1391.3092],[-1.8131,41.6606,1481.1987],[-1.8062,41.6643,1447.5492],[-1.809,41.6847,1603.9077],[-1.812,41.6865,1621.0353],[-1.8016,41.6962,1141.3702],[-1.7948,41.699,1244.5706],[-1.7938,41.6977,1136.2727],[-1.7868,41.6994,1277.5078],[-1.7881,41.7028,1362.0431],[-1.7849,41.717,1535.6804],[-1.7753,41.7248,1489.7031],[-1.7843,41.7285,1609.842],[-1.7877,41.7341,1665.7582],[-1.7979,41.7326,1659.7954],[-1.8092,41.7367,1823.0994],[-1.8026,41.7512,1901.7893],[-1.8211,41.7661,2222.0793],[-1.8249,41.7736,2137.3247],[-1.8253,41.7784,2229.6313],[-1.8395,41.7871,2280.3779],[-1.8529,41.7896,1937.9131],[-1.8437,41.806,1382.1313],[-1.8338,41.8148,1177.2272],[-1.8254,41.819,1079.8599],[-1.8185,41.83,983.3869],[-1.8208,41.847,898.2296],[-1.8203,41.8506,859.9607],[-1.8175,41.8534,814.5151],[-1.8202,41.8624,739.0758],[-1.8225,41.8654,790.5591],[-1.8321,41.8633,829.9583],[-1.8399,41.8753,694.8225],[-1.8387,41.889,745.347],[-1.8572,41.9095,722.8967],[-1.8585,41.9325,697.6784],[-1.8549,41.9368,710.528],[-1.8565,41.946,665.1118],[-1.8547,41.9592,635.0795],[-1.8565,41.9664,620.9856],[-1.8775,41.9524,757.9736],[-1.8906,41.9478,719.6673],[-1.9066,41.9456,673.7069],[-1.905,41.943,636.739],[-1.9111,41.9406,653.8044],[-1.9151,41.9323,664.1416],[-1.9214,41.9343,726.3139],[-1.9295,41.9295,824.6875],[-1.9326,41.9304,860.7151],[-1.9353,41.927,880.8824],[-1.9415,41.9254,885.7494],[-1.9548,41.9274,891.5251],[-1.9613,41.9203,952.1523],[-1.982,41.9193,1028.6439],[-1.9983,41.9307,1127.9641],[-2.0013,41.9385,1139.272],[-2.013,41.9408,1030.4711],[-2.016,41.9448,1025.0013],[-2.0195,41.9445,1022.0647],[-2.0214,41.9484,980.1497],[-2.0281,41.9531,663.7927],[-2.0298,41.9531,663.7927],[-2.0306,41.9481,681.8243],[-2.0343,41.9464,690.8944],[-2.0336,41.9436,731.2402],[-2.0359,41.9437,704.8438],[-2.0363,41.9394,714.6724],[-2.0443,41.9462,885.9956],[-2.0452,41.9501,840.5664],[-2.0622,41.9544,863.5889],[-2.0762,41.9509,989.6074],[-2.0783,41.9513,1009.1425],[-2.0801,41.9544,1007.0166],[-2.0862,41.9544,1043.5131],[-2.0911,41.9563,1046.0959],[-2.1004,41.9553,976.9904],[-2.1099,41.9579,1095.5378],[-2.116,41.9636,1168.5425],[-2.1162,41.9747,1227.9651],[-2.1192,41.9766,1246.8936],[-2.1198,41.9861,1344.5045],[-2.124,41.9953,1489.9895],[-2.1194,41.9971,1504.2751],[-2.112,41.997,1472.543],[-2.1076,42.0028,1437.8438],[-2.1152,42.0115,1302.3131],[-2.117,42.0215,1111.5807],[-2.1288,42.0262,1109.5535],[-2.1448,42.0416,1166.025],[-2.1505,42.0422,1110.1323],[-2.1499,42.045,1035.29],[-2.1547,42.047,1015.777],[-2.1619,42.0667,1259.184],[-2.1516,42.0689,1155.0006],[-2.1421,42.0742,1108.8186],[-2.1353,42.0746,1134.2771],[-2.127,42.0809,914.2374],[-2.1268,42.0881,825.2659],[-2.1284,42.0896,888.6052],[-2.1273,42.0972,990.1959],[-2.1367,42.1031,1010.8214],[-2.1481,42.1045,1032.9059],[-2.1756,42.1048,1179.1636],[-2.1985,42.1025,1256.6055],[-2.2088,42.1047,1261.8625],[-2.2166,42.1001,1325.4734],[-2.224,42.0982,1331.8567],[-2.2307,42.1015,1319.4734],[-2.2378,42.1022,1328.5872],[-2.2588,42.0873,1581.2506],[-2.2695,42.0886,1638.3776],[-2.2817,42.1084,1397.3124],[-2.2806,42.1143,1299.5339],[-2.2825,42.1188,1228.4375],[-2.2789,42.1224,1134.317],[-2.2821,42.1317,1017.1353],[-2.2883,42.135,822.2835],[-2.3078,42.1402,1181.6577],[-2.3157,42.1445,1289.1638],[-2.3268,42.1437,1449.1547],[-2.3321,42.146,1509.1023],[-2.3439,42.1455,1467.1101],[-2.3481,42.1467,1511.0281],[-2.351,42.1449,1496.7676],[-2.3706,42.1434,1540.9155],[-2.3761,42.1414,1482.4491],[-2.3878,42.1425,1503.5342],[-2.3972,42.1369,1647.0713],[-2.4013,42.1396,1647.7433],[-2.4176,42.139,1695.1685],[-2.4269,42.1358,1744.8149],[-2.4384,42.1373,1726.8719],[-2.4464,42.1322,1732.2301],[-2.4485,42.1241,1749.0177],[-2.4535,42.1213,1702.5615],[-2.4586,42.1153,1683.6455],[-2.4717,42.1143,1582.0977],[-2.4744,42.1111,1576.7111],[-2.4843,42.1063,1550.3838],[-2.4903,42.111,1498.2883],[-2.4958,42.1129,1555.3068],[-2.501,42.1124,1610.3413],[-2.5085,42.1154,1642.662],[-2.5146,42.1145,1646.3796],[-2.5164,42.1108,1632.6764],[-2.5162,42.1027,1621.3721],[-2.5193,42.098,1647.28],[-2.5182,42.0908,1687.2224],[-2.5215,42.0875,1684.113],[-2.5226,42.0829,1736.0432],[-2.5193,42.081,1718.1139],[-2.5147,42.0742,1757.0255],[-2.5148,42.0689,1768.7416],[-2.5324,42.0552,1717.1238],[-2.5395,42.055,1707.3058],[-2.549,42.0515,1915.1995],[-2.552,42.0456,1827.7096],[-2.5512,42.0389,1905.0028],[-2.556,42.0348,1780.0981],[-2.5652,42.014,1745.0502],[-2.5752,42.0067,1735.3812],[-2.5798,41.9963,1827.5514],[-2.5965,42.0019,1843.2356],[-2.6096,42.0029,1818.6868],[-2.615,42.0058,1842.4252],[-2.6244,42.0049,1896.9299],[-2.6266,42.0065,1925.3472],[-2.65,42.0038,2067.7109],[-2.6597,42.0054,2120.3572],[-2.6618,42.0029,2122.1956],[-2.6735,41.9981,2126.1216],[-2.6871,42.0014,2063.3789],[-2.6962,42.0107,1992.0511],[-2.7057,42.0151,2026.7167],[-2.7102,42.0137,1974.3567],[-2.7202,42.0158,1910.5129],[-2.7271,42.015,1926.1423],[-2.7461,42.0087,2028.6918],[-2.7487,42.0151,2019.7026],[-2.7557,42.0239,1935.1968],[-2.755,42.03,1970.0735],[-2.7575,42.0326,1978.2627],[-2.7384,42.0497,1853.3761],[-2.7345,42.06,1829.0668],[-2.7273,42.0656,1844.4482],[-2.7255,42.0713,1802.2483],[-2.7225,42.0725,1723.6099],[-2.7084,42.0863,1650.6631],[-2.7075,42.0905,1462.144],[-2.7104,42.0964,1270.821],[-2.7088,42.1014,1135.4133],[-2.706,42.1025,1111.002],[-2.7067,42.1057,1158.0845],[-2.7222,42.1157,1215.6328],[-2.7284,42.1229,1299.2278],[-2.7384,42.1248,1347.165],[-2.7463,42.1239,1384.2521],[-2.7511,42.1178,1501.8441],[-2.7654,42.1248,1609.9724],[-2.7748,42.1235,1618.2345],[-2.7821,42.1141,1648.5479],[-2.7915,42.1087,1638.7621],[-2.7932,42.101,1667.6899],[-2.7901,42.0976,1589.1987],[-2.7901,42.0942,1607.1532],[-2.8033,42.0805,1640.1921],[-2.8032,42.0781,1664.7531],[-2.7984,42.0754,1661.4349],[-2.7968,42.0725,1672.0054],[-2.7949,42.0635,1753.5881],[-2.7983,42.0593,1804.9565],[-2.7979,42.0468,1879.986],[-2.8041,42.0463,1848.7902],[-2.8126,42.0366,1871.8862],[-2.8236,42.041,1821.6313],[-2.8402,42.0345,1879.5354],[-2.8446,42.0345,1879.0464],[-2.8567,42.0288,1910.601],[-2.8582,42.0227,1997.0386],[-2.8623,42.0192,2007.1068],[-2.8678,42.0178,2087.0356],[-2.8695,42.015,2066.3428],[-2.8838,42.0095,2129.7227],[-2.8894,42.0104,2142.1238],[-2.8911,42.017,2084.1108],[-2.9136,42.0228,2033.8048],[-2.9321,42.018,2043.8103],[-2.9374,42.008,1890.2567],[-2.9505,41.993899999999996,1600.9326],[-2.9517,41.9881,1525.0665],[-2.9657,41.966,1243.7205],[-2.9675,41.958,1179.5586],[-2.9599,41.9513,1164.3025],[-2.9644,41.9368,1273.8792],[-2.9707,41.9293,1417.0928],[-2.9824,41.9282,1411.8568],[-2.9875,41.9315,1392.6147],[-2.9984,41.9326,1464.8794],[-3.008,41.9222,1354.6853],[-3.0112,41.9142,1342.6326],[-3.0077,41.9088,1347.1174],[-3.0164,41.8984,1256.8857],[-3.0149,41.8962,1254.0203],[-3.0167,41.8869,1327.988],[-3.0341,41.8891,1311.9458],[-3.0381,41.8858,1295.2134],[-3.0446,41.8873,1308.7637],[-3.0452,41.8895,1324.2839],[-3.0586,41.8913,1312.7836],[-3.0635,41.8834,1280.1821],[-3.0754,41.8831,1270.7063],[-3.0877,41.8763,1218.33],[-3.0917,41.8759,1206.1423],[-3.0955,41.8816,1178.1261],[-3.0971,41.8811,1173.5643],[-3.1012,41.8773,1137.0265],[-3.1011,41.8713,1112.95],[-3.0967,41.8659,1122.9641],[-3.0971,41.8614,1108.5818],[-3.1008,41.8563,1101.1522],[-3.1076,41.8545,1093.0001],[-3.1125,41.8507,1073.6919],[-3.1135,41.8473,1065.3387],[-3.1369,41.8178,1035.1459],[-3.1341,41.8157,1043.6886],[-3.1362,41.8146,1044.8936],[-3.1361,41.8119,1057.1957],[-3.1386,41.8123,1065.2405],[-3.1594,41.7986,1108.7455],[-3.1713,41.793,1167.4778],[-3.174,41.7964,1177.9033],[-3.1789,41.7961,1147.7863],[-3.1816,41.7988,1100.4069],[-3.1885,41.8017,1129.9971],[-3.1982,41.8172,1137.2705],[-3.1944,41.8289,1216.0852],[-3.2018,41.8333,1220.4984],[-3.2067,41.8316,1121.0197],[-3.2243,41.8404,1178.4607],[-3.2244,41.8393,1178.4607],[-3.2343,41.8406,1183.123],[-3.2425,41.8472,1134.7854],[-3.2467,41.8563,1148.4509],[-3.2433,41.864,1184.0061],[-3.2568,41.8706,1163.5598],[-3.263,41.8678,1180.001],[-3.2689,41.8691,1173.2734],[-3.271,41.8788,1109.6318],[-3.2747,41.8821,1128.6902],[-3.2837,41.8838,1141.1915],[-3.2895,41.8764,1211.5387],[-3.2839,41.8695,1200.3922],[-3.279,41.8679,1131.0955],[-3.2848,41.8517,1175.2041],[-3.2838,41.8457,1180.4595],[-3.2889,41.8425,1179.8206],[-3.2887,41.8286,1111.8785],[-3.2846,41.8273,1150.5603],[-3.2811,41.8229,1094.134],[-3.2848,41.8146,998.9021],[-3.2831,41.8115,988.203],[-3.2866,41.8054,988.8806],[-3.2816,41.8073,980.7437],[-3.2783,41.8149,1000.4185],[-3.2753,41.7943,1030.6367],[-3.2858,41.7882,1012.279],[-3.2835,41.7783,950.8729],[-3.2754,41.7687,986.825],[-3.287,41.7601,982.4408],[-3.2961,41.762,960.0572],[-3.3072,41.7602,991.6585],[-3.3096,41.751,1028.4153],[-3.3216,41.7492,1028.099],[-3.3228,41.7409,1010.6422],[-3.329,41.7406,1004.151],[-3.3303,41.7393,999.8202],[-3.3356,41.7414,976.7688],[-3.3432,41.7387,965.2181],[-3.3528,41.7379,964.9548],[-3.3551,41.7338,969.6889],[-3.3524,41.7292,958.47],[-3.3606,41.7216,918.161],[-3.3598,41.7137,906.996],[-3.3617,41.7103,909.7953],[-3.3609,41.6995,917.8835],[-3.3583,41.6934,949.5043],[-3.3703,41.6918,948.0361],[-3.3851,41.693,952.1861],[-3.3933,41.6906,927.6717],[-3.3947,41.6845,872.3438],[-3.4073,41.6756,910.6832],[-3.4069,41.6732,916.1778],[-3.4146,41.6648,941.897],[-3.4177,41.6562,986.9736],[-3.4165,41.6479,980.9875],[-3.419,41.6441,988.8086],[-3.4214,41.6461,980.9722],[-3.4297,41.6463,962.1901],[-3.4329,41.6398,947.6095],[-3.4352,41.6394,948.1248],[-3.4365,41.6342,934.1315],[-3.4404,41.6295,907.7728],[-3.4393,41.6251,871.1121],[-3.4353,41.622,849.8107],[-3.4409,41.6184,837.7257],[-3.4426,41.6116,829.8356],[-3.4497,41.6058,849.8693],[-3.4591,41.5896,1015.0417],[-3.4684,41.589,1007.384],[-3.4682,41.5922,972.4101],[-3.4753,41.597,977.4782],[-3.4795,41.5946,973.0112],[-3.4813,41.5947,962.2255],[-3.4816,41.5975,945.7625],[-3.5099,41.5972,1015.0192],[-3.5114,41.5982,1015.0192],[-3.5104,41.6003,987.414],[-3.5291,41.6126,922.0383],[-3.5414,41.6082,905.6031],[-3.5396,41.6076,908.9312],[-3.5406,41.5978,1014.2028],[-3.5456,41.5985,1015.6677],[-3.5504,41.5966,1010.7506],[-3.5361,41.5865,965.7631],[-3.5438,41.5721,981.7078],[-3.5366,41.5595,1020.7517],[-3.5383,41.552,980.5933],[-3.5348,41.5487,1001.4609],[-3.5248,41.5451,1020.7622],[-3.5188,41.5393,1022.1369],[-3.5019,41.5292,1025.1823],[-3.4851,41.5241,1033.6506],[-3.4796,41.5209,1038.4368],[-3.4643,41.5278,1031.8674],[-3.458,41.5368,1031.0254],[-3.4559,41.5347,1027.6302],[-3.4515,41.5339,1033.0818],[-3.4517,41.5325,1031.7833],[-3.4423,41.5243,1034.1541],[-3.4322,41.5187,1040.7932],[-3.4244,41.5167,1032.0608],[-3.4206,41.5127,1014.2897],[-3.4227,41.5035,1049.0416],[-3.4264,41.4978,1050.1709],[-3.424,41.4827,1052.9937],[-3.4132,41.4761,1053.1456],[-3.4033,41.476,1048.1072],[-3.3903,41.4707,1050.0247],[-3.384,41.4657,1056.7327],[-3.3771,41.4643,1065.02],[-3.3672,41.4653,1052.1317],[-3.3649,41.4676,1056.3984],[-3.3625,41.4652,1053.9626],[-3.3628,41.4621,1053.8414],[-3.3563,41.463,1064.7515],[-3.3482,41.4565,1075.767],[-3.3466,41.4568,1080.5326],[-3.3473,41.4581,1069.6797],[-3.335,41.4601,1061.3518],[-3.3342,41.4619,1071.5637],[-3.3303,41.4607,1074.0074],[-3.3389,41.4529,1066.2285],[-3.34,41.4445,1031.8619],[-3.346,41.429,1043.9161],[-3.3413,41.4233,1051.8889],[-3.3416,41.417,1050.1448],[-3.3464,41.4139,1044.0181],[-3.3492,41.4072,1059.0247],[-3.3471,41.4045,1062.6475],[-3.3471,41.397,1071.842],[-3.3505,41.3949,1067.5315],[-3.3412,41.3915,1077.9954],[-3.3292,41.3763,1111.2009],[-3.3059,41.3683,1138.5061],[-3.3027,41.3631,1166.4985],[-3.2882,41.3602,1164.2903],[-3.281,41.3519,1179.3884],[-3.2721,41.3527,1153.7424],[-3.2693,41.3415,1198.3351],[-3.2481,41.3301,1197.1135],[-3.2362,41.3303,1187.3069],[-3.2368,41.3185,1470.6068],[-3.2202,41.3106,1437.2799],[-3.2086,41.3078,1478.9526],[-3.2069,41.3068,1476.2096],[-3.2073,41.3042,1491.5121],[-3.1921,41.3027,1481.1826],[-3.1885,41.3039,1491.0779],[-3.1785,41.2998,1485.1633],[-3.1708,41.299,1502.756],[-3.1648,41.2954,1483.9419],[-3.1483,41.292,1430.7628],[-3.1412,41.2922,1441.1606],[-3.13,41.2882,1420.1201],[-3.125,41.2909,1486.8514],[-3.1086,41.2879,1483.3914],[-3.1001,41.2801,1461.9271],[-3.0978,41.2799,1476.059],[-3.0938,41.284,1467.0258],[-3.0899,41.2834,1477.0785],[-3.0834,41.2797,1497.3076],[-3.0729,41.2778,1509.5856],[-3.0618,41.2734,1521.5833],[-3.0606,41.2765,1519.23],[-3.0355,41.2812,1455.1183],[-3.0179,41.2891,1442.2594],[-3.0113,41.2854,1357.7285],[-3.0059,41.2844,1361.6401],[-2.9792,41.2908,1350.4728],[-2.9674,41.2919,1264.5896],[-2.966,41.2932,1266.7252],[-2.9501,41.2926,1249.5725],[-2.944,41.2975,1247.0066],[-2.94,41.306,1243.0231],[-2.9411,41.3139,1238.4343],[-2.934,41.3134,1227.5939],[-2.9242,41.3186,1211.0637],[-2.9109,41.3212,1223.2502],[-2.9066,41.3276,1202.5461],[-2.8979,41.3248,1172.2834],[-2.8884,41.3252,1194.5376],[-2.8826,41.3218,1177.6434],[-2.8754,41.3214,1168.2731],[-2.8689,41.3171,1173.598],[-2.8668,41.3131,1206.0317],[-2.873,41.2985,1215.3838],[-2.8658,41.2918,1257.637],[-2.864,41.2874,1253.1885],[-2.8636,41.2813,1176.2628],[-2.8668,41.2745,1133.7234],[-2.8324,41.2636,1238.0146],[-2.8217,41.2584,1211.8074],[-2.8222,41.2566,1215.6082],[-2.8035,41.2565,1237.1891],[-2.7824,41.2538,1203.9146],[-2.7754,41.2501,1212.3386],[-2.7764,41.2575,1183.6758],[-2.7673,41.2692,1164.6169],[-2.7609,41.274,1147.3818],[-2.73,41.2717,1144.3529],[-2.7167,41.2757,1161.6711],[-2.714,41.2611,1138.8904],[-2.7095,41.252,1117.9003],[-2.6953,41.2456,1134.1438],[-2.6692,41.2371,1166.1213],[-2.6548,41.2407,1134.8507],[-2.6459,41.2402,1121.4067],[-2.6451,41.2379,1105.785],[-2.6346,41.2319,1133.9983],[-2.6362,41.2238,1172.8025],[-2.6291,41.2152,1218.4839],[-2.6238,41.2237,1182.4983],[-2.6169,41.2194,1198.8442],[-2.5894,41.2245,1156.8678],[-2.5873,41.2138,1138.7727],[-2.5931,41.2009,1140.719],[-2.6008,41.1948,1224.1099],[-2.6057,41.1936,1221.5586],[-2.6199,41.1954,1210.9327],[-2.622,41.188,1212.9414],[-2.6193,41.1833,1174.6737],[-2.6025,41.1887,1221.8145],[-2.5781,41.1793,1197.4943],[-2.5771,41.1778,1158.5824],[-2.5826,41.1644,1153.9016],[-2.5848,41.1614,1112.1008],[-2.5936,41.1566,1125.8557],[-2.596,41.1516,1106.6562],[-2.5812,41.1408,1182.2086],[-2.5755,41.1395,1183.7455],[-2.5675,41.1449,1207.8088],[-2.5551,41.1467,1216.3141],[-2.5418,41.1511,1220.6685],[-2.5364,41.1625,1231.7529],[-2.5169,41.1465,1205.8726],[-2.5173,41.137,1158.0425],[-2.5116,41.1315,1210.4404],[-2.5088,41.118899999999996,1190.6576],[-2.5036,41.1175,1174.3682],[-2.4854,41.1179,1283.7452],[-2.4803,41.1136,1251.7156],[-2.4694,41.0898,1201.2903],[-2.4694,41.0781,1206.4788],[-2.4494,41.0777,1201.8113]]]]}}