{"type": "Feature","bbox": [-0.3849,38.8535,-0.0247,39.1235],"geometry": {"type": "MultiPolygon","coordinates": [[[[-0.1469,38.9835,0.2854],[-0.1535,38.991,1.9244],[-0.1532,38.9924,1.9934],[-0.1504,38.9912,0.0],[-0.1482,38.9938,0.0],[-0.1521,38.9957,0.0],[-0.1593,38.9938,0.3131],[-0.1513,38.9971,0.0],[-0.1565,38.9985,0.5564],[-0.1604,39.0021,2.4934],[-0.1874,39.0363,0.3403],[-0.1901,39.044,0.0],[-0.1949,39.0493,3.3235],[-0.2082,39.0724,1.769],[-0.2224,39.1057,0.6693],[-0.2348,39.1035,1.6429],[-0.2744,39.1235,1.3085],[-0.2873,39.1162,179.0162],[-0.2987,39.101,348.3972],[-0.3047,39.0991,539.2625],[-0.3032,39.0982,556.8194],[-0.3078,39.0948,380.0393],[-0.3177,39.0932,460.4375],[-0.3205,39.0859,186.3163],[-0.3232,39.0841,197.5069],[-0.3278,39.0753,147.2002],[-0.3266,39.0689,98.0836],[-0.334,39.0695,93.6756],[-0.3445,39.0753,196.0404],[-0.3527,39.0752,345.7146],[-0.3618,39.0783,362.6836],[-0.3765,39.0695,318.4675],[-0.3805,39.0654,274.1932],[-0.3815,39.0574,368.597],[-0.3743,39.0503,397.4501],[-0.3742,39.0464,409.0169],[-0.383,39.0384,273.0991],[-0.3849,39.0337,202.6992],[-0.3814,39.0219,137.3882],[-0.3764,39.0183,152.4369],[-0.3777,39.0168,157.768],[-0.3735,39.0169,162.4124],[-0.3651,39.0126,182.8237],[-0.3592,39.0121,196.8136],[-0.3585,39.008,257.0406],[-0.3314,39.0068,636.9309],[-0.3134,38.9964,683.805],[-0.3071,38.9985,669.7881],[-0.2957,38.9985,694.2],[-0.2875,38.9963,695.1161],[-0.2933,38.9938,631.0446],[-0.2951,38.9908,640.5837],[-0.2924,38.9885,687.7931],[-0.2962,38.9734,625.4318],[-0.2957,38.9653,604.4252],[-0.2996,38.9642,578.3731],[-0.3006,38.9619,587.8886],[-0.2969,38.96,612.6418],[-0.2987,38.9553,575.6966],[-0.3028,38.9528,570.7476],[-0.3027,38.9499,598.9125],[-0.2996,38.9491,593.1647],[-0.2961,38.9504,557.481],[-0.2918,38.9481,556.5352],[-0.2915,38.9452,538.4634],[-0.2996,38.9353,444.944],[-0.3037,38.9337,417.1843],[-0.3032,38.9236,293.1926],[-0.3072,38.9168,169.5056],[-0.3046,38.917,162.6795],[-0.3037,38.9069,263.2316],[-0.3009,38.8991,355.861],[-0.3028,38.8903,558.0554],[-0.2948,38.8892,546.2761],[-0.2988,38.8853,499.9953],[-0.2992,38.8817,383.2895],[-0.2883,38.8723,459.5241],[-0.2733,38.8641,527.6006],[-0.2602,38.86,992.2949],[-0.2452,38.8589,902.312],[-0.242,38.8606,796.3936],[-0.2392,38.8576,720.2746],[-0.2305,38.8535,551.5738],[-0.1963,38.8595,520.8013],[-0.1976,38.8664,503.0149],[-0.18,38.8788,340.8918],[-0.1675,38.8799,367.0263],[-0.1623,38.8829,367.7743],[-0.1608,38.8874,455.1277],[-0.1537,38.8719,131.7142],[-0.155,38.8605,270.7619],[-0.148,38.8585,238.8276],[-0.102,38.8751,47.6684],[-0.0949,38.8747,2.308],[-0.092,38.8716,2.8981],[-0.0896,38.8793,23.2977],[-0.0781,38.8807,3.5124],[-0.0786,38.8842,1.075],[-0.0706,38.8858,-0.0558],[-0.0679,38.8836,-0.1283],[-0.0641,38.8744,0.1982],[-0.0569,38.8691,-0.2258],[-0.0458,38.8646,0.3907],[-0.0421,38.8565,0.4172],[-0.0341,38.8571,0.1356],[-0.0271,38.8621,0.5335],[-0.0284,38.8673,1.245],[-0.0276,38.8703,2.2118],[-0.0247,38.8724,1.1102],[-0.0293,38.874,1.4247],[-0.0333,38.8793,2.0193],[-0.0371,38.8806,0.8016],[-0.0376,38.886,0.0],[-0.0451,38.8929,0.0],[-0.0649,38.9051,2.2194],[-0.0665,38.9085,0.3748],[-0.0715,38.9104,1.7098],[-0.0824,38.9218,0.692],[-0.0843,38.9218,2.682],[-0.0937,38.9304,2.5777],[-0.0935,38.9335,0.0],[-0.096,38.9324,0.7082],[-0.1024,38.9388,0.0],[-0.1037,38.9385,1.2853],[-0.1049,38.9415,0.0],[-0.1071,38.9415,1.0249],[-0.1315,38.9679,0.0],[-0.1357,38.9696,4.1481],[-0.1393,38.9757,0.0],[-0.1469,38.9835,0.2854]]]]}
,"properties": {"GID_3": "ESP.10.3.11_1","GID_0": "ESP","country": "Spain","GID_1": "ESP.10_1","province": "ComunidadValenciana","NL_NAME_1": "NA","GID_2": "ESP.10.3_1","county": "Valencia","NL_NAME_2": "NA","city": "n.a.(221)","VARNAME_3": "NA","NL_NAME_3": "NA","TYPE_3": "Comarca","ENGTYPE_3": "Comarca","CC_3": "NA","HASC_3": "NA","name": "n.a.(221).city","area_km2": 428.139,"hist_schema_id": "Elevation0-9000","hist_area_km2": {"0": 89.7473,"25": 45.6919,"50": 33.0828,"75": 29.4623,"100": 25.0918,"125": 20.1124,"150": 19.5697,"175": 16.9636,"200": 15.6941,"225": 12.5935,"250": 11.4396,"275": 10.1047,"300": 9.7914,"325": 11.7676,"350": 10.5146,"375": 9.6742,"400": 9.1621,"425": 7.2344,"450": 6.7912,"475": 6.7752,"500": 5.523,"525": 4.5827,"550": 4.0881,"575": 3.1159,"600": 2.2092,"625": 1.6323,"650": 1.3851,"675": 1.1871,"700": 0.8245,"725": 0.5773,"750": 0.462,"775": 0.3796,"800": 0.2475,"825": 0.2146,"850": 0.066,"875": 0.1321,"900": 0.0495,"925": 0.0825,"950": 0.0825,"975": 0.0165,"1000": 0.0165}}}