{"type": "Feature","bbox": [-3.1293,42.0095,-2.6556,42.3324],"geometry": {"type": "MultiPolygon","coordinates": [[[[-2.8911,42.017,2084.1108],[-2.8894,42.0104,2142.1238],[-2.8838,42.0095,2129.7227],[-2.8695,42.015,2066.3428],[-2.8678,42.0178,2087.0356],[-2.8623,42.0192,2007.1068],[-2.8582,42.0227,1997.0386],[-2.8567,42.0288,1910.601],[-2.8446,42.0345,1879.0464],[-2.8402,42.0345,1879.5354],[-2.8236,42.041,1821.6313],[-2.8126,42.0366,1871.8862],[-2.8041,42.0463,1848.7902],[-2.7979,42.0468,1879.986],[-2.7983,42.0593,1804.9565],[-2.7949,42.0635,1753.5881],[-2.7968,42.0725,1672.0054],[-2.7984,42.0754,1661.4349],[-2.8032,42.0781,1664.7531],[-2.8033,42.0805,1640.1921],[-2.7901,42.0942,1607.1532],[-2.7901,42.0976,1589.1987],[-2.7932,42.101,1667.6899],[-2.7915,42.1087,1638.7621],[-2.7821,42.1141,1648.5479],[-2.7748,42.1235,1618.2345],[-2.7654,42.1248,1609.9724],[-2.7511,42.1178,1501.8441],[-2.7463,42.1239,1384.2521],[-2.7384,42.1248,1347.165],[-2.7378999999999998,42.1302,1440.92],[-2.7409,42.1315,1480.6462],[-2.7465,42.1406,1543.6224],[-2.7471,42.1502,1548.408],[-2.7542,42.1611,1440.2351],[-2.7574,42.1625,1413.9929],[-2.7594,42.1693,1421.3152],[-2.7646,42.175,1420.397],[-2.7632,42.1798,1452.636],[-2.7682,42.1889,1703.7295],[-2.7497,42.1973,1638.9794],[-2.7462,42.2037,1681.1095],[-2.7412,42.2078,1692.0266],[-2.7454,42.2191,1562.7908],[-2.7425,42.2263,1655.1768],[-2.7361,42.2268,1597.3053],[-2.7332,42.2303,1477.8207],[-2.7194,42.2371,1358.1603],[-2.7179,42.2414,1392.8193],[-2.7039,42.2442,1413.521],[-2.7015,42.247,1431.8798],[-2.6784,42.2564,1431.2683],[-2.6776,42.2629,1418.3289],[-2.67,42.2748,1401.7505],[-2.6556,42.2863,1347.9226],[-2.6589,42.2936,1334.1718],[-2.6571,42.3001,1374.8607],[-2.6617,42.3043,1378.6426],[-2.6718,42.3043,1357.3717],[-2.6729,42.3058,1347.6465],[-2.6837,42.3031,1173.6079],[-2.7009,42.3102,1075.9901],[-2.704,42.3091,1032.7969],[-2.7114,42.3111,1006.8159],[-2.7236,42.3103,877.5572],[-2.7265,42.3118,870.319],[-2.7381,42.3081,800.4221],[-2.7472,42.3076,719.5318],[-2.7494,42.3095,664.0285],[-2.7556,42.3088,566.9325],[-2.7747,42.3155,624.3843],[-2.7759,42.3238,728.0743],[-2.79,42.3324,788.0332],[-2.7983,42.3199,830.9046],[-2.8024,42.3165,935.1224],[-2.8082,42.3163,916.9092],[-2.8155,42.3137,914.7914],[-2.8225,42.3089,942.9655],[-2.8227,42.3055,1005.1089],[-2.8502,42.3047,1239.8667],[-2.8559,42.2941,1343.3254],[-2.8591,42.2917,1419.8993],[-2.8658,42.2892,1483.7289],[-2.8751,42.2898,1476.25],[-2.881,42.2847,1514.9493],[-2.8811,42.2816,1508.0552],[-2.8956,42.2768,1612.0391],[-2.8976,42.2655,1633.4299],[-2.9034,42.2634,1660.2014],[-2.9101,42.2554,1758.7131],[-2.9111,42.2485,1680.2714],[-2.9301,42.2324,2051.7446],[-2.9419,42.2379,1940.5133],[-2.9559,42.2503,2054.4067],[-2.9724,42.2423,2228.5405],[-2.9746,42.2371,2118.7261],[-2.9747,42.2272,1997.8369],[-2.9831,42.217,1954.7267],[-2.9827,42.2113,2080.2795],[-2.9872,42.2097,1950.3396],[-2.994,42.2103,1994.1772],[-3.0003,42.2048,2008.2218],[-3.0089,42.2045,1967.8597],[-3.0172,42.1973,1930.6039],[-3.0249,42.1976,1926.0125],[-3.0377,42.1948,1907.925],[-3.0443,42.1957,1929.8496],[-3.0513,42.1903,1949.5286],[-3.052,42.1873,1956.3137],[-3.0634,42.1835,1935.8097],[-3.0698,42.185,1932.3049],[-3.0794,42.1935,1786.0435],[-3.0952,42.1961,1824.9584],[-3.098,42.1986,1807.1294],[-3.1055,42.2074,1903.5724],[-3.1023,42.2105,1848.6398],[-3.1014,42.2171,1865.0369],[-3.1059,42.2118,1808.5365],[-3.1133,42.2095,1718.4746],[-3.1187,42.2045,1725.9696],[-3.1288,42.2009,1694.1605],[-3.1293,42.1995,1672.7461],[-3.1251,42.1932,1465.8798],[-3.1153,42.1883,1540.63],[-3.1149,42.1788,1455.5793],[-3.1124,42.1758,1404.9413],[-3.109,42.1763,1370.8933],[-3.1017,42.1718,1298.9595],[-3.1019,42.17,1320.6445],[-3.0965,42.1694,1299.4041],[-3.0997,42.1674,1308.4176],[-3.0898,42.1593,1368.7668],[-3.0906,42.1486,1201.7528],[-3.0861,42.1355,1271.3512],[-3.0837,42.1334,1367.897],[-3.0736,42.1358,1308.6592],[-3.0661,42.1333,1304.9614],[-3.0589,42.127,1307.5256],[-3.0343,42.086,1802.7195],[-3.0234,42.0893,1846.5004],[-3.0146,42.0884,1794.7668],[-3.0038,42.0833,1688.3242],[-2.9931,42.0875,1466.6984],[-2.9794,42.0841,1190.4915],[-2.9605,42.0844,1585.2218],[-2.9586,42.0859,1588.9114],[-2.9353,42.0894,1788.2473],[-2.9311,42.0868,1690.4562],[-2.9324,42.0809,1748.5217],[-2.9279,42.0741,1847.3069],[-2.9269,42.0665,1960.9944],[-2.9229,42.0612,1835.1453],[-2.9204,42.0492,1792.1887],[-2.9152,42.039,1710.4269],[-2.9136,42.0228,2033.8048],[-2.8911,42.017,2084.1108]]]]}
,"properties": {"GID_3": "ESP.15.1.1_1","GID_0": "ESP","country": "Spain","GID_1": "ESP.15_1","province": "LaRioja","NL_NAME_1": "NA","GID_2": "ESP.15.1_1","county": "LaRioja","NL_NAME_2": "NA","city": "Anguiano","VARNAME_3": "NA","NL_NAME_3": "NA","TYPE_3": "Comarca","ENGTYPE_3": "Comarca","CC_3": "NA","HASC_3": "NA","name": "Anguiano.city","area_km2": 621.6823,"hist_schema_id": "Elevation0-9000","hist_area_km2": {"575": 1.2075,"600": 2.4936,"625": 3.5604,"650": 3.9839,"675": 4.2192,"700": 4.2822,"725": 4.0944,"750": 5.1146,"775": 4.9895,"800": 5.476,"825": 5.8379,"850": 6.3872,"875": 7.2198,"900": 6.8596,"925": 10.7726,"950": 9.908,"975": 11.9827,"1000": 12.9095,"1025": 13.6189,"1050": 15.4887,"1075": 15.9135,"1100": 17.4387,"1125": 17.8313,"1150": 17.3451,"1175": 18.933,"1200": 18.9016,"1225": 19.0906,"1250": 17.9594,"1275": 18.6516,"1300": 19.0449,"1325": 18.3852,"1350": 18.6843,"1375": 18.5594,"1400": 19.6272,"1425": 17.805,"1450": 16.1106,"1475": 16.8027,"1500": 14.9488,"1525": 14.4472,"1550": 15.14,"1575": 14.1348,"1600": 13.711,"1625": 13.6165,"1650": 11.9197,"1675": 10.3787,"1700": 9.8909,"1725": 8.6176,"1750": 7.721,"1775": 7.2959,"1800": 6.4471,"1825": 5.5189,"1850": 4.1349,"1875": 3.71,"1900": 2.7195,"1925": 2.2632,"1950": 2.1534,"1975": 1.8235,"2000": 1.3676,"2025": 0.9118,"2050": 0.3929,"2075": 0.3773,"2100": 0.2043,"2125": 0.1257,"2150": 0.0787,"2175": 0.0786,"2200": 0.0314,"2250": 0.0314}}}