{"type": "Feature","id": "5807","bbox": [-7.35921,37.93898,-4.65839,39.44981],"geometry": {"type": "Polygon","coordinates": [[[-4.65839,39.17394,453.304],[-4.67043,39.19099,525.834],[-4.69911,39.21812,539.3032],[-4.71061,39.22531,466.8599],[-4.71568,39.23208,616.9858],[-4.7172,39.23605,607.1494],[-4.73462,39.26096,736.8586],[-4.75355,39.29739,535.6565],[-4.75619,39.30615,494.6187],[-4.75676,39.31652,554.0688],[-4.74939,39.32458,490.952],[-4.74066,39.32794,507.6854],[-4.73027,39.32954,496.6735],[-4.72035,39.33483,522.5133],[-4.71095,39.34414,573.3619],[-4.69606,39.37837,619.0148],[-4.68136,39.40013,555.1491],[-4.67787,39.41759,654.7581],[-4.69273,39.44981,614.6187],[-4.70356,39.43842,643.9012],[-4.75296,39.41816,536.3324],[-4.76702,39.40465,526.5795],[-4.77792,39.40059,523.5953],[-4.81368,39.39238,486.1522],[-4.83637,39.38385,468.766],[-4.84262,39.38054,452.6731],[-4.85006,39.37873,463.0751],[-4.85538,39.37824,456.6815],[-4.88014,39.36687,473.0291],[-4.94437,39.39191,470.3625],[-4.99194,39.37086,413.0],[-5.05681,39.36332,526.5799],[-5.08333,39.39131,567.0251],[-5.0987,39.39838,573.8472],[-5.11321,39.38725,567.1122],[-5.11586,39.37788,559.9942],[-5.11529,39.35705,491.8386],[-5.11711,39.34747,513.6084],[-5.12279,39.33943,464.1293],[-5.14086,39.32676,409.8229],[-5.17876,39.30998,376.4472],[-5.24715,39.3102,529.6704],[-5.32139,39.32829,601.4533],[-5.33962,39.32359,605.1752],[-5.3487,39.30187,575.7377],[-5.35515,39.26305,523.3293],[-5.35367,39.25628,451.8574],[-5.34772,39.24372,408.9316],[-5.34613,39.23703,398.0793],[-5.34722,39.22875,393.9967],[-5.37129,39.19485,358.4503],[-5.39641,39.17164,331.1509],[-5.41039,39.16385,324.9981],[-5.44449,39.15864,307.2042],[-5.46903,39.17032,311.8851],[-5.51747,39.20906,434.9567],[-5.54165,39.2142,336.7434],[-5.56628,39.20909,318.714],[-5.61283,39.18853,308.4183],[-5.60715,39.18506,308.2737],[-5.57795,39.14787,305.758],[-5.57789,39.13758,303.5306],[-5.58994,39.1171,294.3648],[-5.60168,39.10597,312.9638],[-5.61442,39.10158,295.2058],[-5.64602,39.10218,287.5309],[-5.68994,39.08294,294.8758],[-5.76785,39.13682,272.2715],[-5.8104,39.14472,273.7264],[-5.82857,39.11917,273.2325],[-5.8581,39.10313,267.4549],[-5.92466,39.0833,270.0527],[-5.94184,39.10869,265.7525],[-5.9861,39.06554,259.9233],[-6.00309,39.06333,255.4977],[-6.0091,39.06579,256.8714],[-6.01199,39.06884,254.0689],[-6.02144,39.12756,285.2183],[-6.08973,39.08466,354.1758],[-6.14223,39.03147,349.243],[-6.16797,39.05892,363.6434],[-6.17394,39.06,347.2814],[-6.19668,39.05946,342.0269],[-6.20562,39.06106,351.8327],[-6.21287,39.06659,350.1621],[-6.23079,39.08983,336.2742],[-6.24893,39.09876,314.4744],[-6.29382,39.10027,343.5385],[-6.3122,39.11591,371.9167],[-6.31658,39.13042,375.7001],[-6.31931,39.18452,542.0066],[-6.37147,39.1629,366.528],[-6.52856,39.17413,404.4471],[-6.53539,39.16851,379.9509],[-6.54574,39.1557,480.7202],[-6.55498,39.15377,388.7667],[-6.56571,39.15617,382.6628],[-6.5707,39.15877,372.0976],[-6.57457,39.16245,366.5133],[-6.57657,39.1669,377.1369],[-6.57809,39.17587,392.3785],[-6.58025,39.17937,418.9269],[-6.58531,39.18182,436.5276],[-6.65973,39.19894,331.2006],[-6.68104,39.17733,476.773],[-6.76955,39.19061,327.0661],[-6.77812,39.19922,298.0679],[-6.80077,39.23942,286.7859],[-6.76209,39.27819,323.7053],[-6.75169,39.30274,307.3381],[-6.76,39.32917,351.4643],[-6.78024,39.34171,311.8898],[-6.79946,39.37705,354.8003],[-6.81511,39.38781,359.398],[-6.83364,39.38918,420.4976],[-6.87218,39.38253,477.8243],[-6.88878,39.38348,462.9226],[-7.04923,39.43674,551.9948],[-7.06707,39.41443,489.6848],[-7.03515,39.40049,489.0054],[-7.02839,39.39503,423.9792],[-7.02379,39.38903,404.433],[-7.02158,39.38207,396.0505],[-7.02205,39.37371,392.2371],[-7.04014,39.32095,394.871],[-7.04504,39.31492,386.7162],[-7.05319,39.31134,390.8625],[-7.07286,39.316,398.5035],[-7.07831,39.33541,455.427],[-7.07297,39.38059,464.0844],[-7.09671,39.38402,439.0872],[-7.11827,39.38001,441.2676],[-7.1611,39.36126,519.7528],[-7.16365,39.35842,522.5459],[-7.16936,39.34726,491.5124],[-7.17046,39.34339,456.9914],[-7.16796,39.33576,450.8562],[-7.15703,39.32552,397.7578],[-7.155,39.31891,347.0479],[-7.15748,39.31416,334.316],[-7.20399,39.26584,505.6555],[-7.25084,39.27063,408.9742],[-7.26433,39.25233,574.9127],[-7.26578,39.23135,504.6878],[-7.25808,39.2113,493.0106],[-7.24413,39.19564,469.0401],[-7.21932,39.18484,403.5786],[-7.19157,39.17916,386.7939],[-7.16806,39.17063,387.8019],[-7.15581,39.15151,306.1389],[-7.15793,39.14138,297.4097],[-7.16889,39.12185,322.3127],[-7.16749,39.11348,329.4013],[-7.15721,39.10544,266.6407],[-7.14253,39.09953,281.9056],[-7.12729,39.09749,247.5],[-7.11519,39.1011,254.9826],[-7.09127,39.11245,260.4486],[-7.06491,39.11477,236.849],[-7.03882,39.10914,218.5238],[-7.01577,39.09681,217.2768],[-6.9997,39.0847,210.3654],[-6.98569,39.06676,200.3142],[-6.97939,39.04718,194.9428],[-6.98631,39.03007,199.3971],[-6.97489,39.02302,210.4087],[-6.97329,39.01395,193.3445],[-6.97882,39.00382,203.5784],[-6.98864,38.99377,203.7918],[-7.02212,38.94287,199.9492],[-7.0445,38.91863,182.1596],[-7.06605,38.9046,176.4604],[-7.0522,38.88499,174.477],[-7.05726,38.86944,170.1257],[-7.05608,38.85515,160.7989],[-7.06429,38.85112,161.3245],[-7.07654,38.84324,157.4998],[-7.08868,38.83337,161.2112],[-7.10486,38.82719,163.9555],[-7.15101,38.81929,184.5468],[-7.16062,38.8129,188.6599],[-7.1662,38.80342,190.8473],[-7.17974,38.79089,183.4273],[-7.19643,38.77999,191.6993],[-7.21152,38.77536,200.0868],[-7.22588,38.76613,200.0505],[-7.27043,38.73751,159.1036],[-7.27219,38.73374,165.0937],[-7.28071,38.72043,173.0289],[-7.28407,38.71325,173.4518],[-7.29095,38.67909,202.1716],[-7.29296,38.65627,190.9003],[-7.2925,38.64612,195.692],[-7.29095,38.63816,208.1018],[-7.28604,38.63191,202.601],[-7.27942,38.62891,196.4784],[-7.27353,38.6254,189.752],[-7.27043,38.6177,192.8806],[-7.27586,38.60382,181.8482],[-7.31771,38.55625,159.2221],[-7.3358,38.50587,188.2688],[-7.34562,38.49414,160.1948],[-7.3341,38.48101,176.6844],[-7.33518,38.46944,148.8327],[-7.34484,38.45833,159.5775],[-7.35921,38.44636,173.2595],[-7.34552,38.44096,145.5],[-7.31715,38.42458,177.5995],[-7.21136,38.31753,191.8645],[-7.20713,38.31169,185.3335],[-7.20067,38.29839,209.0724],[-7.19633,38.29216,191.4001],[-7.18945,38.28653,178.7686],[-7.1724,38.27653,207.7603],[-7.16718,38.27208,196.8268],[-7.12687,38.1909,208.2675],[-7.11707,38.18363,185.394],[-7.10352,38.17359,231.3228],[-7.08832,38.17338,180.69],[-7.06305,38.17754,256.7721],[-7.03871,38.18622,168.2965],[-7.02641,38.19963,220.4314],[-7.02104,38.19824,208.5669],[-7.01815,38.19803,191.3668],[-6.9921,38.20428,185.7448],[-6.9642,38.20614,197.8534],[-6.95058,38.19839,278.1908],[-6.95053,38.19842,278.1908],[-6.93381,38.2093,214.9164],[-6.7979,38.17294,515.8474],[-6.79268,38.16532,535.026],[-6.79237,38.15832,548.233],[-6.79555,38.15144,497.5341],[-6.80079,38.14558,474.9518],[-6.80493,38.13927,459.1863],[-6.8119,38.12576,374.3105],[-6.81314,38.11881,321.2775],[-6.81035,38.11302,299.7285],[-6.8019,38.10868,363.2895],[-6.78868,38.10615,348.8976],[-6.77638,38.10047,441.8399],[-6.74883,38.09364,357.302],[-6.70152,38.09295,479.0924],[-6.67744,38.09602,431.1367],[-6.64463,38.09375,469.3212],[-6.63036,38.09085,496.3829],[-6.61734,38.08677,536.439],[-6.60336,38.07752,592.7985],[-6.5844,38.05682,686.3211],[-6.58148,38.05,729.4249],[-6.57941,38.04259,736.246],[-6.58008,38.03507,693.2486],[-6.5776,38.02851,657.1222],[-6.57171,38.02386,650.4191],[-6.52391,38.0213,674.8095],[-6.49924,38.01494,457.1082],[-6.48479,38.01639,442.9514],[-6.48123,38.01936,513.478],[-6.47898,38.02502,687.0054],[-6.47368,38.02959,659.3452],[-6.45875,38.03969,587.6682],[-6.45345,38.04566,602.8452],[-6.44957,38.0514,623.2747],[-6.44268,38.05535,698.7809],[-6.4343,38.05721,828.7367],[-6.42397,38.0568,805.7213],[-6.41307,38.0537,855.9951],[-6.37242,38.03117,864.1039],[-6.36501,38.02119,711.7002],[-6.36129,38.01326,658.0509],[-6.35943,38.00641,650.0739],[-6.35679,38.00073,637.0306],[-6.35627,38.00001,645.5921],[-6.33087,37.99461,586.3409],[-6.20029,37.95197,457.7047],[-6.18326,37.93898,428.3913],[-6.16995,37.94965,436.3097],[-6.13892,37.9683,500.707],[-6.11409,37.97859,594.806],[-6.03831,37.9905,644.4907],[-6.01893,37.99166,659.7402],[-5.97599,37.99864,378.9658],[-5.96296,38.00264,335.0],[-5.95211,38.00799,375.3903],[-5.94108,38.01827,335.0],[-5.9372,38.02574,336.9893],[-5.93506,38.03153,358.3507],[-5.93395,38.03639,353.8914],[-5.93077,38.04205,460.9946],[-5.91369,38.05959,382.6034],[-5.91093,38.06651,404.9207],[-5.91067,38.07349,395.9156],[-5.91374,38.08034,410.5734],[-5.91873,38.08654,422.0084],[-5.92276,38.09279,451.8344],[-5.92281,38.09979,482.2939],[-5.91989,38.10677,512.095],[-5.9154,38.11408,591.3338],[-5.90948,38.12114,642.4673],[-5.90059,38.12765,670.7885],[-5.87452,38.14008,680.0219],[-5.8671,38.14475,631.145],[-5.8617,38.14945,611.3118],[-5.85315,38.16196,557.6938],[-5.84628,38.16857,555.4091],[-5.83708,38.17426,530.2247],[-5.80721,38.18304,540.8953],[-5.74039,38.1902,496.4157],[-5.72753,38.18832,492.4442],[-5.71378,38.18,451.5164],[-5.69799,38.16591,438.4311],[-5.69365,38.15963,462.9156],[-5.69171,38.15385,494.3241],[-5.69603,38.1485,514.3608],[-5.71182,38.14116,576.1053],[-5.72089,38.13824,539.2617],[-5.7284,38.13431,490.9123],[-5.73409,38.12969,562.4758],[-5.73466,38.12341,620.0388],[-5.73368,38.116459999999996,610.7571],[-5.72825,38.0954,662.2317],[-5.72205,38.09018,614.4271],[-5.71089,38.08868,622.1064],[-5.69357,38.09127,594.4921],[-5.67143,38.10401,659.854],[-5.64952,38.12049,483.2397],[-5.64283,38.12682,531.7677],[-5.62345,38.1369,392.8196],[-5.58105,38.13509,643.5689],[-5.53821,38.16237,345.8273],[-5.5334,38.16764,373.0928],[-5.53361,38.17354,409.6941],[-5.53325,38.18067,480.7736],[-5.52986,38.19483,458.7923],[-5.52684,38.20191,471.8781],[-5.51971,38.20888,520.5428],[-5.51731,38.22289,597.9231],[-5.5172,38.23012,615.2881],[-5.51782,38.23761,646.4854],[-5.51909,38.24485,635.5026],[-5.52126,38.25219,620.4282],[-5.52196,38.25945,602.1224],[-5.52134,38.26676,606.7711],[-5.52294,38.27074,595.6087],[-5.53245,38.28474,593.6654],[-5.53524,38.29009,592.1254],[-5.53842,38.29508,598.2715],[-5.54066,38.29978,585.5039],[-5.54477,38.31141,564.3954],[-5.54702,38.31611,566.9675],[-5.55028,38.32081,584.3593],[-5.55477,38.32464,575.543],[-5.55989,38.32831,564.4924],[-5.56428,38.33208,564.8784],[-5.56712,38.33629,558.4011],[-5.56712,38.34102,558.4997],[-5.56495,38.35115,551.346],[-5.56301,38.35632,562.4259],[-5.56038,38.36712,543.9413],[-5.56004,38.37241,537.8837],[-5.56102,38.37735,551.7421],[-5.56392,38.38177,552.2527],[-5.5727,38.38967,550.8691],[-5.5758,38.39432,553.3539],[-5.57648,38.39931,566.1985],[-5.57565,38.40448,588.8608],[-5.56937,38.42533,524.5579],[-5.56208,38.43249,520.4825],[-5.54929,38.44081,534.4861],[-5.50483,38.46016,500.4886],[-5.48821,38.46463,500.6452],[-5.48085,38.4692,493.4232],[-5.47059,38.48303,484.4141],[-5.46491,38.48907,487.26369999999997],[-5.4502,38.49998,497.8146],[-5.44982,38.50039,478.275],[-5.41964,38.51584,463.2463],[-5.41147,38.52483,463.0493],[-5.40783,38.53186,461.8459],[-5.40693,38.53811,459.5638],[-5.40413,38.54354,477.0889],[-5.40031,38.54912,462.222],[-5.39419,38.55517,444.9695],[-5.38545,38.56607,436.2177],[-5.3799,38.57144,452.2007],[-5.36241,38.58387,456.6127],[-5.34949,38.58604,485.5094],[-5.32915,38.58573,434.3187],[-5.31706,38.5838,428.5267],[-5.31132,38.58426,421.1845],[-5.30683,38.5855,408.9302],[-5.30347,38.59031,428.1693],[-5.30316,38.59462,411.1607],[-5.30052,38.59925,405.7061],[-5.29742,38.60317,403.7204],[-5.29319,38.60708,405.4884],[-5.28815,38.61253,401.3437],[-5.25577,38.63439,449.8344],[-5.21006,38.65904,393.9718],[-5.18082,38.66604,371.9922],[-5.17629,38.67087,398.5511],[-5.17438,38.6765,366.9882],[-5.171,38.68299,403.3974],[-5.16725,38.69343,500.7512],[-5.16919,38.70115,581.5143],[-5.17304,38.70821,515.2285],[-5.17045,38.71381,453.7223],[-5.15945,38.71795,501.8945],[-5.07987,38.71942,355.9299],[-5.06382,38.72539,347.4871],[-5.03659,38.72841,433.7565],[-5.02145,38.73423,356.0552],[-5.00974,38.73536,346.0],[-5.00282,38.7351,358.4624],[-4.99785,38.73583,361.7246],[-4.99078,38.73932,436.9146],[-4.98137,38.7496,401.6096],[-4.97165,38.76916,525.7576],[-4.94752,38.83936,387.9294],[-4.94287,38.84887,476.3516],[-4.92734,38.87032,428.1198],[-4.91975,38.87716,413.5078],[-4.9129,38.88228,481.6023],[-4.90468,38.886,585.2567],[-4.89579,38.88812,704.5558],[-4.88634,38.8891,614.235],[-4.85859,38.88615,753.4197],[-4.85076,38.88667,636.4366],[-4.84572,38.89204,544.1711],[-4.8414,38.91424,449.6722],[-4.83631,38.92853,513.1253],[-4.84006,38.93964,675.8417],[-4.84665,38.94597,819.5649],[-4.87321,38.94894,733.7083],[-4.87977,38.95225,814.8074],[-4.91383,38.95969,543.3828],[-4.92062,38.96413,576.9333],[-4.92502,38.97018,535.9803],[-4.92804,38.97747,565.8047],[-4.92959,38.98491,645.0778],[-4.9298,38.99173,555.951],[-4.93093,38.99935,514.895],[-4.93127,39.00013,514.895],[-4.93445,39.00152,523.7623],[-4.93951,39.00462,509.0963],[-4.94432,39.00966,485.6775],[-4.94639,39.01679,481.1292],[-4.9476,39.02439,503.8655],[-4.95117,39.0317,512.3639],[-4.95359,39.03896,498.5567],[-4.95414,39.04558,490.618],[-4.94639,39.05098,505.3504],[-4.93781,39.05307,582.0042],[-4.92858,39.05152,697.796],[-4.91993,39.04914,810.4138],[-4.89533,39.03767,760.1631],[-4.87729,39.0326,787.1279],[-4.8676,39.03364,752.7515],[-4.859,39.03651,759.2693],[-4.83471,39.04759,672.2281],[-4.83104,39.05426,605.3287],[-4.83363,39.06289,658.2903],[-4.84024,39.06862,655.224],[-4.85748,39.07622,570.2059],[-4.86399,39.08162,563.785],[-4.86748,39.09198,564.2749],[-4.8674,39.10614,545.7189],[-4.85556,39.14784,554.7742],[-4.85112,39.15898,586.0316],[-4.84704,39.16549,658.7021],[-4.83972,39.17027,786.4197],[-4.82577,39.18203,688.701],[-4.81965,39.18872,670.9027],[-4.8134,39.19446,715.8202],[-4.80678,39.1988,791.4037],[-4.79864,39.19911,773.1403],[-4.7811,39.19513,656.6235],[-4.77193,39.19482,801.4764],[-4.76262,39.19544,750.0232],[-4.74477,39.19882,738.6887],[-4.72733,39.1965,803.6699],[-4.71903,39.19316,729.5955],[-4.71118,39.18903,663.5443],[-4.67612,39.17562,649.3563],[-4.67141,39.17446,643.5557],[-4.65839,39.17394,453.304]]]}
,"properties": {"ISO3166-1-Alpha-3": "ESP","country": "Spain","fill": "#000","name": "Badajoz","area_km2": 21973.21,"hist_schema_id": "Elevation0-9000","hist_area_km2": {"150": 127.05,"175": 542.05,"200": 930.03,"225": 1054.28,"250": 1407.2,"275": 1396.89,"300": 1316.46,"325": 1227.15,"350": 1315.81,"375": 1229.64,"400": 1205.32,"425": 1229.66,"450": 1181.16,"475": 1123.38,"500": 1126.09,"525": 1184.77,"550": 1274.75,"575": 1061.11,"600": 715.62,"625": 405.77,"650": 261.23,"675": 173.84,"700": 137.59,"725": 106.12,"750": 78.73,"775": 51.37,"800": 35.65,"825": 24.19,"850": 17.15,"875": 11.8,"900": 8.39,"925": 5.02,"950": 2.65,"975": 2.09,"1000": 1.59,"1025": 0.9,"1050": 0.57}}}