{"type": "Feature","id": 139988.0,"bbox": [-5.4753311839787671,38.750616766400327,-5.0081680980412671,39.035650946087827],"geometry": {"type": "Polygon","coordinates": [[[-5.3026627269475171,38.950262762494077,396.924],[-5.3026627269475171,38.950262762494077,396.924],[-5.3309220042912671,38.946295477337827,403.0707],[-5.3442887035100171,38.931158758587827,362.3013],[-5.3774307933537671,38.922003485150327,376.7909],[-5.3911026683537671,38.920782782025327,392.6035],[-5.4041641917912671,38.923529364056577,336.5475],[-5.4145401683537671,38.928961492962827,375.6832],[-5.4254044261662671,38.936285711712827,321.3177],[-5.4400528636662671,38.946295477337827,332.7218],[-5.4594620433537671,38.953314520306577,369.3383],[-5.4704483714787671,38.944830633587827,313.1912],[-5.4753311839787671,38.933844305462827,359.4028],[-5.4722794261662671,38.925970770306577,312.0],[-5.4550675121037671,38.919989324994077,359.7928],[-5.4374893871037671,38.918036199994077,312.0],[-5.4166153636662671,38.913824774212827,312.0],[-5.4017227855412671,38.905585028119077,346.0],[-5.3837784496037671,38.906805731244077,346.0],[-5.3735245433537671,38.907721258587827,347.7151],[-5.3552139964787671,38.907416082806577,346.0],[-5.3421524730412671,38.907110907025327,349.0531],[-5.3315323558537671,38.904669500775327,346.0],[-5.3254288402287671,38.917731024212827,351.7516],[-5.3051041331975171,38.931158758587827,346.0],[-5.2868546214787671,38.928107000775327,369.8823],[-5.2682999339787671,38.925909735150327,346.0],[-5.2515763011662671,38.927130438275327,346.0],[-5.2167862621037671,38.912176824994077,348.4971],[-5.1933487621037671,38.898504949994077,346.0],[-5.1634415355412671,38.881293035931577,346.0],[-5.1512955394475171,38.870367742962827,346.0],[-5.1373184886662671,38.864874578900327,346.0],[-5.1172989574162671,38.848761297650327,346.0],[-5.0865372386662671,38.844855047650327,346.0],[-5.0659073558537671,38.838995672650327,374.4343],[-5.0720108714787671,38.820196844525327,357.4939],[-5.0777481761662671,38.801642157025327,357.2715],[-5.0816544261662671,38.785834051556577,426.7743],[-5.0789688792912671,38.773321844525327,346.0],[-5.0781143871037671,38.755926824994077,417.8024],[-5.0689591136662671,38.750616766400327,396.5508],[-5.0605362621037671,38.785223699994077,523.3972],[-5.0643204417912671,38.804693914837827,346.0],[-5.0516251292912671,38.812872625775327,346.0],[-5.0379532542912671,38.824103094525327,346.0],[-5.0126846996037671,38.827398992962827,347.902],[-5.0081680980412671,38.833868719525327,391.183],[-5.0306290355412671,38.837225653119077,371.067],[-5.0410050121037671,38.845770574994077,414.459],[-5.0576676097600171,38.851446844525327,361.5778],[-5.0692032542912671,38.860602117962827,428.1354],[-5.0783585277287671,38.863959051556577,364.0766],[-5.0883682933537671,38.865179754681577,387.1197],[-5.1047867503850171,38.876105047650327,357.9254],[-5.1184586253850171,38.889166571087827,404.8503],[-5.1266983714787671,38.883673407025327,348.5844],[-5.1379288402287671,38.881598211712827,430.2912],[-5.1534317699162671,38.892828680462827,419.6238],[-5.1686295238225171,38.900763250775327,426.9105],[-5.1835221019475171,38.904425360150327,406.7617],[-5.1898087230412671,38.924933172650327,349.5731],[-5.1905411449162671,38.951178289837827,346.0],[-5.1935318675725171,38.971808172650327,346.0],[-5.1871231761662671,38.987921453900327,346.0],[-5.1850479808537671,39.002569891400327,351.4455],[-5.1795548167912671,39.018683172650327,347.2397],[-5.1591690746037671,39.026861883587827,346.0],[-5.1485489574162671,39.031744696087827,351.7758],[-5.1613053050725171,39.035650946087827,373.2231],[-5.1768082347600171,39.029547430462827,378.8926],[-5.1871231761662671,39.023810125775327,402.8821],[-5.1962784496037671,39.017706610150327,357.5908],[-5.1965836253850171,39.001593328900327,346.0],[-5.1974991527287671,38.989752508587827,369.6855],[-5.2114762035100171,38.968817449994077,355.636],[-5.2366837230412671,38.951483465619077,421.1449],[-5.2607315746037671,38.959357000775327,376.7962],[-5.2792862621037671,38.956061102337827,416.1732],[-5.3026627269475171,38.950262762494077,396.924]]]}
,"properties": {"name": null,"lge_id": null,"pfafstette": 61571.0,"lke_type": "N","altitude": 426,"objectid": 86994,"scalerank": 10,"featurecla": "Lake","note": "_untitled_86994","funkyname": 0,"min_zoom": 6.0,"min_label": 7.0,"area_km2": 137.7833,"hist_schema_id": "Elevation0-9000","hist_area_km2": {"300": 8.9394,"325": 2.9852,"350": 87.6275,"375": 19.8319,"400": 12.82,"425": 3.367,"450": 0.9245,"475": 0.3962,"500": 0.2311,"525": 0.1486,"550": 0.1981,"575": 0.1651,"600": 0.0991,"625": 0.0495}}}