{"type": "Feature","id": 139903.0,"bbox": [-5.5351456371037671,38.997381903119077,-5.2822159496037671,39.110480047650327],"geometry": {"type": "Polygon","coordinates": [[[-5.4017227855412671,39.020514227337827,310.0],[-5.3847550121037671,39.025458074994077,310.0],[-5.3437393871037671,39.044989324994077,310.0],[-5.3281143871037671,39.058661199994077,331.4524],[-5.3169449535100171,39.073675848431577,310.0],[-5.2996109691350171,39.084906317181577,344.7013],[-5.2822159496037671,39.103949285931577,316.1226],[-5.2831925121037671,39.110480047650327,372.8807],[-5.3162735667912671,39.105108953900327,366.4754],[-5.3264054027287671,39.092901922650327,357.932],[-5.3452042308537671,39.071539617962827,314.331],[-5.3643692699162671,39.062994696087827,368.7988],[-5.3983658519475171,39.051764227337827,312.5],[-5.4189957347600171,39.041327215619077,351.6554],[-5.4409073558537671,39.034064032025327,368.5854],[-5.4500015941350171,39.032904364056577,371.0835],[-5.4907120433537671,39.027411199994077,367.8867],[-5.5195206371037671,39.027411199994077,380.4852],[-5.5351456371037671,39.013739324994077,374.46],[-5.5175675121037671,39.000067449994077,317.6806],[-5.4938248363225171,38.997687078900327,310.0],[-5.4774063792912671,38.997381903119077,310.0],[-5.4561661449162671,38.998541571087827,310.0],[-5.4400528636662671,39.007391668744077,310.0],[-5.4294327464787671,39.009527899212827,310.0],[-5.4066055980412671,39.010443426556577,310.0],[-5.4017227855412671,39.020514227337827,310.0]]]}
,"properties": {"name": null,"lge_id": null,"pfafstette": 711151.0,"lke_type": "N","altitude": 312,"objectid": 87124,"scalerank": 11,"featurecla": "Lake","note": "_untitled_87124","funkyname": 0,"min_zoom": 6.7,"min_label": 7.7,"area_km2": 67.33806,"hist_schema_id": "Elevation0-9000","hist_area_km2": {"300": 24.25966,"325": 18.44389,"350": 14.96811,"375": 7.45957,"400": 1.38328,"425": 0.65884,"450": 0.16471}}}