{"type":"Feature","properties":{"id":140028.0,"name":null,"lge_id":null,"pfafstette":4511.0,"lke_type":null,"altitude":265,"objectid":87622,"scalerank":11,"featurecla":"Lake","note":"_untitled_87622","funkyname":0,"min_zoom":6.7,"min_label":7.7},
"geometry":{"type": "Polygon","coordinates": [[[-6.2953385081975171,38.788885809369077,274.5723],[-6.2953385081975171,38.788885809369077,274.5723],[-6.3026627269475171,38.780401922650327,271.5],[-6.2925919261662671,38.775213934369077,271.5],[-6.2813614574162671,38.772162176556577,271.5],[-6.2734268871037671,38.764227606244077,271.5],[-6.2612198558537671,38.748541571087827,271.5],[-6.2421158519475171,38.721380926556577,271.5],[-6.2211807933537671,38.716803289837827,271.5],[-6.2187393871037671,38.732672430462827,275.7966],[-6.2250870433537671,38.743902899212827,272.7914],[-6.2266739574162671,38.752081610150327,271.8991],[-6.2327774730412671,38.770331121869077,339.5565],[-6.2652481761662671,38.791022039837827,238.9039],[-6.2877091136662671,38.793707586712827,318.0603],[-6.2953385081975171,38.788885809369077,274.5723]]]}}