{"type": "Feature","bbox": [0.7284,41.4637,1.2074,41.8596],"geometry": {"type": "MultiPolygon","coordinates": [[[[0.7623,41.5278,227.6158],[0.7643,41.5217,240.6319],[0.7669,41.5209,239.5557],[0.7759,41.5452,232.2048],[0.804,41.5418,246.0082],[0.8164,41.5328,264.032],[0.8106,41.5186,323.7739],[0.8181,41.4899,374.9801],[0.815,41.4838,453.4139],[0.8192,41.4748,471.4493],[0.8194,41.4665,493.8207],[0.8223,41.4641,513.1047],[0.8364,41.4649,520.4467],[0.8448,41.4637,538.5374],[0.8431,41.4696,527.6299],[0.8433,41.4831,502.9609],[0.8368,41.4889,403.6925],[0.8384,41.5001,330.1709],[0.8356,41.5175,280.7787],[0.8369,41.5253,271.528],[0.831,41.5247,276.3217],[0.8288,41.5309,264.635],[0.8406,41.5345,253.4615],[0.8662,41.5257,279.1879],[0.8737,41.5364,309.7655],[0.8684,41.5398,300.5537],[0.8746,41.5501,269.062],[0.8746,41.5522,276.9035],[0.8698,41.5558,259.0706],[0.8737,41.5617,276.3845],[0.8666,41.5601,264.4431],[0.8612,41.5619,257.3061],[0.8603,41.5719,254.5775],[0.8532,41.5716,245.6521],[0.8514,41.5743,244.1306],[0.8585,41.574,253.1033],[0.8604,41.5754,253.8146],[0.866,41.5742,260.8363],[0.8671,41.5765,256.0905],[0.8704,41.5771,262.3674],[0.8691,41.5806,266.4467],[0.8807,41.5803,307.4853],[0.8819,41.5817,304.9554],[0.8887,41.5744,306.7574],[0.8969,41.5799,304.3379],[0.9175,41.5894,275.645],[0.9389,41.5841,290.5298],[0.9514,41.5844,298.5585],[0.9645,41.5794,309.7057],[0.9732,41.5891,313.7265],[0.9761,41.5879,315.4277],[0.9763,41.5838,315.2519],[0.9802,41.5845,318.6363],[0.9886,41.5927,319.6138],[0.9956,41.5904,326.8945],[1.0002,41.5993,319.3434],[1.004,41.5984,322.1617],[0.9984,41.5894,324.1228],[1.0116,41.583,339.7532],[1.0165,41.5868,337.952],[1.043,41.5908,320.587],[1.0512,41.5844,345.6588],[1.0694,41.5837,366.3739],[1.0708,41.5847,362.6667],[1.0833,41.5784,388.0575],[1.085,41.5894,380.1454],[1.0777,41.5989,354.3978],[1.0774,41.6049,348.1552],[1.0801,41.611,329.4169],[1.0896,41.6113,351.8624],[1.0963,41.6097,365.9912],[1.1086,41.613,382.4683],[1.1173,41.6177,397.6363],[1.1383,41.6249,399.3269],[1.1478,41.6241,434.1078],[1.1572,41.6159,460.6022],[1.1604,41.6157,453.2936],[1.1655,41.6102,466.5737],[1.1675,41.6138,475.8737],[1.1748,41.6152,484.6339],[1.1775,41.6181,495.4349],[1.1869,41.6201,497.6238],[1.19,41.634,483.8239],[1.1847,41.6491,399.3406],[1.1902,41.6528,417.739],[1.1906,41.657,440.9295],[1.1884,41.6605,452.1071],[1.1909,41.661,458.1445],[1.1896,41.6741,451.6316],[1.1849,41.6761,422.7698],[1.1884,41.6789,420.0081],[1.1857,41.6856,445.3278],[1.1893,41.6857,428.6893],[1.1942,41.6904,406.8947],[1.1988,41.7075,418.6141],[1.2074,41.7169,412.9746],[1.2041,41.7165,412.8678],[1.2046,41.7178,419.241],[1.1972,41.7209,407.0818],[1.1935,41.72,400.411],[1.1734,41.7079,377.8813],[1.1712,41.7078,374.2829],[1.167,41.7121,365.802],[1.149,41.7147,347.6534],[1.1392,41.7103,342.9511],[1.1359,41.7197,356.3821],[1.1327,41.7226,332.2585],[1.1254,41.7232,323.6267],[1.1243,41.7245,331.9128],[1.1284,41.7373,364.0147],[1.1153,41.7413,360.1642],[1.1089,41.7382,328.4114],[1.1032,41.7376,329.3268],[1.1069,41.7435,363.4719],[1.1106,41.7448,378.161],[1.1168,41.7608,409.2762],[1.1307,41.7645,362.5529],[1.1369,41.762,392.2925],[1.1429,41.7704,350.1122],[1.1555,41.7755,393.8594],[1.163,41.7814,393.215],[1.1402,41.786,350.9722],[1.1406,41.7921,359.1341],[1.1365,41.8,351.8834],[1.1387,41.8054,374.7349],[1.1527,41.8182,386.8159],[1.1497,41.8209,430.5101],[1.1447,41.8198,421.4706],[1.1424,41.8161,400.6201],[1.1381,41.8145,385.0028],[1.1342,41.8107,364.5123],[1.1335,41.8044,363.0191],[1.1266,41.8054,354.6714],[1.1232,41.8076,358.2923],[1.0988,41.8116,351.4443],[1.0987,41.8202,380.0435],[1.1014,41.8212,389.9661],[1.1009,41.8255,405.6967],[1.1039,41.828,408.389],[1.1135,41.8218,363.8745],[1.1166,41.8228,382.841],[1.1187,41.8268,401.8735],[1.1235,41.8305,396.2051],[1.1235,41.8387,411.0934],[1.1203,41.8493,467.6571],[1.1147,41.8511,473.3801],[1.115,41.8539,502.0713],[1.1026,41.8528,488.5889],[1.1042,41.8557,482.1584],[1.0994,41.8572,464.2485],[1.0919,41.8445,435.2729],[1.0755,41.8231,369.0544],[1.0731,41.8166,340.536],[1.0691,41.8128,334.9099],[1.0644,41.8146,345.2258],[1.0637,41.8235,354.5433],[1.0665,41.8354,374.8387],[1.0614,41.8493,456.311],[1.0578,41.8488,449.4094],[1.055,41.8576,418.4182],[1.0462,41.8573,405.6787],[1.0447,41.8596,403.3089],[1.0353,41.8528,431.8738],[1.031,41.8523,429.9202],[1.0314,41.8545,425.4608],[1.0289,41.8558,423.6831],[1.025,41.8517,445.3578],[1.0211,41.8505,448.6883],[1.02,41.8389,402.0101],[1.0246,41.8385,396.5057],[1.024,41.8315,365.4866],[1.0216,41.8281,379.53],[1.0179,41.8283,384.1071],[1.0171,41.8222,359.4786],[1.0064,41.8038,318.8705],[1.0058,41.7961,294.6021],[0.9944,41.782,341.0183],[0.9906,41.78,335.675],[0.9876,41.7743,359.2905],[0.9764,41.7758,357.1746],[0.9739,41.7668,319.0414],[0.9597,41.7687,316.7314],[0.9606,41.7702,330.6638],[0.9559,41.7731,348.4947],[0.9566,41.7775,356.1206],[0.9443,41.7758,341.8312],[0.9436,41.7737,324.7049],[0.9373,41.7705,311.9121],[0.9226,41.7741,307.4223],[0.924,41.7765,324.6857],[0.9225,41.78,358.5814],[0.9097,41.7835,350.3215],[0.9102,41.785,333.4458],[0.8879,41.7888,317.423],[0.8868,41.781,289.2366],[0.8812,41.7686,253.1739],[0.8533,41.7778,244.7703],[0.8518,41.7747,248.4065],[0.8454,41.7719,239.0255],[0.8455,41.765,248.8525],[0.84,41.7573,227.8502],[0.8398,41.7529,225.3771],[0.8515,41.7438,225.6826],[0.8743,41.7393,229.7767],[0.8789,41.7324,229.1433],[0.8754,41.728,236.0436],[0.8704,41.7251,233.5804],[0.8651,41.7244,233.9433],[0.8568,41.7113,245.1999],[0.8646,41.6846,211.9718],[0.8572,41.691,209.345],[0.8472,41.6903,206.8366],[0.8493,41.6847,209.9054],[0.8407,41.6809,208.8643],[0.8382,41.6719,211.4508],[0.8605,41.6668,220.9513],[0.856,41.6592,222.5487],[0.8499,41.6545,221.9114],[0.8257,41.6427,214.629],[0.8089,41.647,208.0334],[0.7972,41.6469,202.483],[0.7927,41.6484,199.3444],[0.7641,41.6652,188.2851],[0.75,41.662,187.4026],[0.7373,41.662,183.9014],[0.7365,41.6486,186.4135],[0.7324,41.646,182.0767],[0.7284,41.6382,181.3378],[0.7293,41.6337,184.0298],[0.7322,41.6316,179.2678],[0.7392,41.6318,180.5936],[0.7487,41.6289,190.6716],[0.7558,41.6035,232.8525],[0.7597,41.5977,235.6341],[0.7609,41.5878,244.4149],[0.7455,41.5887,238.9223],[0.7409,41.5829,242.0716],[0.7382,41.5837,242.6605],[0.7352,41.5799,233.715],[0.7322,41.5707,214.7451],[0.7325,41.5668,228.2461],[0.7408,41.5655,255.0207],[0.744,41.5612,237.4059],[0.7647,41.557,230.1462],[0.7646,41.5514,213.7719],[0.7563,41.5505,208.06],[0.7541,41.5406,212.2413],[0.7584,41.5382,225.653],[0.7609,41.5328,221.8777],[0.7605,41.5283,227.6158],[0.7623,41.5278,227.6158]]]]}
,"properties": {"GID_3": "ESP.6.3.8_1","GID_0": "ESP","country": "Spain","GID_1": "ESP.6_1","province": "Cataluña","NL_NAME_1": "NA","GID_2": "ESP.6.3_1","county": "Lleida","NL_NAME_2": "NA","city": "n.a.(166)","VARNAME_3": "NA","NL_NAME_3": "NA","TYPE_3": "Comarca","ENGTYPE_3": "Comarca","CC_3": "NA","HASC_3": "NA","name": "n.a.(166).city","area_km2": 738.2223,"hist_schema_id": "Elevation0-9000","hist_area_km2": {"175": 4.864,"200": 30.5188,"225": 102.0822,"250": 140.9051,"275": 104.3874,"300": 94.2588,"325": 89.5674,"350": 63.8475,"375": 39.3009,"400": 32.4444,"425": 18.1205,"450": 11.713,"475": 4.5779,"500": 1.1739,"525": 0.429,"550": 0.0318}}}