{"type": "Feature","bbox": [-5.3446,41.094,-4.7022,41.5613],"geometry": {"type": "MultiPolygon","coordinates": [[[[-4.7639,41.1924,778.238],[-4.7738,41.2111,768.8368],[-4.7897,41.2095,766.6171],[-4.8192,41.2186,765.0936],[-4.8245,41.2335,770.4179],[-4.8175,41.237,763.4501],[-4.8144,41.2491,750.0744],[-4.8057,41.2564,744.1335],[-4.8026,41.2746,739.2733],[-4.7958,41.2778,735.5303],[-4.7928,41.2839,741.8387],[-4.7969,41.2933,738.8671],[-4.7995,41.3061,738.8182],[-4.794,41.3264,741.3681],[-4.7999,41.3381,768.1306],[-4.7928,41.3481,749.5897],[-4.7939,41.3502,746.9474],[-4.7933,41.3595,747.9464],[-4.78,41.3592,727.5029],[-4.7759,41.3562,728.4273],[-4.7707,41.3552,730.9398],[-4.7563,41.388,723.3015],[-4.751,41.3951,724.7783],[-4.7487,41.3958,722.6891],[-4.7457,41.3922,725.7385],[-4.7407,41.3926,722.6617],[-4.7395,41.3971,718.3629],[-4.731,41.3969,718.4723],[-4.7256,41.3986,711.4932],[-4.7291,41.4065,715.5245],[-4.7337,41.409,711.0857],[-4.7337,41.4118,716.4224],[-4.723,41.4174,719.1731],[-4.7456,41.4489,707.2166],[-4.7537,41.457,705.3179],[-4.7591,41.495,699.8679],[-4.7647,41.4934,698.9382],[-4.7736,41.4956,690.01],[-4.7789,41.5008,692.1035],[-4.7853,41.512,688.7698],[-4.7953,41.5211,694.0369],[-4.8326,41.5286,687.0776],[-4.8317,41.5345,691.6708],[-4.8382,41.5401,688.3609],[-4.8617,41.5546,675.7974],[-4.8654,41.5505,672.5779],[-4.8685,41.555,679.4054],[-4.8832,41.5474,684.9636],[-4.8893,41.5526,715.7865],[-4.9003,41.553,778.2854],[-4.9082,41.5567,827.6915],[-4.9129,41.5549,785.0736],[-4.9139,41.5514,760.4183],[-4.9192,41.5613,748.5143],[-4.9255,41.5568,725.3267],[-4.932,41.5597,714.6131],[-4.9455,41.5568,729.3933],[-4.945,41.5459,715.5153],[-4.9366,41.5415,713.0723],[-4.9254,41.5425,730.2924],[-4.9184,41.5307,699.4268],[-4.9516,41.5258,693.1084],[-4.985,41.5435,750.2591],[-4.9865,41.5411,753.2148],[-4.992,41.5398,797.4033],[-5.0146,41.5413,717.3101],[-5.0148,41.5464,751.6401],[-5.0198,41.552,813.7696],[-5.0199,41.5544,826.0187],[-5.0226,41.555,822.9381],[-5.0235,41.5587,827.7131],[-5.0253,41.5571,825.4001],[-5.0299,41.5569,826.3381],[-5.0297,41.5558,826.3381],[-5.0318,41.5567,821.0272],[-5.0357,41.5536,828.816],[-5.0354,41.5515,829.671],[-5.039,41.5509,801.6849],[-5.0396,41.5493,821.4894],[-5.0423,41.5507,795.9866],[-5.0444,41.5494,821.5182],[-5.0428,41.5465,826.3129],[-5.0474,41.5466,806.6429],[-5.0462,41.5425,825.4111],[-5.0527,41.5432,814.7617],[-5.055,41.5399,793.2679],[-5.0537,41.5385,824.4128],[-5.0598,41.5378,768.8322],[-5.0617,41.5352,746.1116],[-5.0761,41.5356,731.8823],[-5.1021,41.5134,701.9268],[-5.1225,41.4996,694.7057],[-5.1281,41.5031,694.4268],[-5.1394,41.4995,695.1294],[-5.1536,41.5,690.7963],[-5.1563,41.4924,692.7386],[-5.1607,41.493,689.5839],[-5.1629,41.4877,687.9626],[-5.1693,41.4862,690.4478],[-5.183,41.4938,688.1147],[-5.1876,41.4902,690.6663],[-5.1906,41.4787,685.8908],[-5.1986,41.4831,685.3851],[-5.2028,41.479,688.7826],[-5.2229,41.4801,698.7108],[-5.2363,41.4785,700.9921],[-5.2358,41.4845,699.4287],[-5.2422,41.4891,701.437],[-5.2402,41.4894,701.0829],[-5.242,41.4957,700.0451],[-5.2538,41.5097,700.5256],[-5.2618,41.5037,703.3845],[-5.277,41.5063,671.7248],[-5.2906,41.5008,665.1897],[-5.2991,41.5002,663.2737],[-5.3236,41.4801,651.0527],[-5.3321,41.4779,649.4839],[-5.3319,41.4759,650.3462],[-5.337,41.4763,646.074],[-5.342,41.4813,654.2205],[-5.3446,41.4792,643.6271],[-5.3374,41.4613,643.0],[-5.3296,41.4596,651.9832],[-5.3247,41.4553,645.3098],[-5.3321,41.4502,651.9404],[-5.3271,41.4472,651.6508],[-5.3327,41.4441,680.7599],[-5.3332,41.4362,693.3358],[-5.3391,41.4256,707.5339],[-5.3182,41.4208,704.53],[-5.3074,41.414,707.7979],[-5.311,41.4087,721.2999],[-5.3204,41.4014,741.3561],[-5.3214,41.3959,740.3619],[-5.3329,41.3815,762.6481],[-5.3345,41.3706,792.2004],[-5.333,41.3582,802.5879],[-5.3243,41.3404,790.3174],[-5.322,41.3263,783.6515],[-5.3158,41.3204,794.2415],[-5.3054,41.3182,773.4784],[-5.3034,41.316,776.826],[-5.3064,41.3116,768.1373],[-5.3031,41.3084,784.9451],[-5.3036,41.3003,802.3852],[-5.2972,41.2923,796.0356],[-5.2948,41.2825,794.1936],[-5.2965,41.2707,812.6127],[-5.2916,41.2692,811.9783],[-5.3014,41.2628,802.6262],[-5.3021,41.2593,781.5912],[-5.2949,41.2406,820.5386],[-5.2967,41.2374,818.1525],[-5.2946,41.2363,819.9503],[-5.2968,41.236,814.3591],[-5.2984,41.2318,818.7176],[-5.2977,41.2298,808.2861],[-5.2953,41.2293,806.7624],[-5.2979,41.226,762.7733],[-5.2935,41.2262,768.8826],[-5.3026,41.2241,735.5748],[-5.3046,41.2265,736.2592],[-5.3075,41.2248,730.7643],[-5.3083,41.2221,740.0884],[-5.3114,41.2214,742.68],[-5.31,41.2197,737.3368],[-5.3111,41.2165,746.3987],[-5.3153,41.2119,750.5663],[-5.3297,41.2041,782.3583],[-5.3402,41.1941,813.5173],[-5.3361,41.19,814.1713],[-5.3385,41.1884,815.9545],[-5.3295,41.1843,792.9703],[-5.3277,41.1816,800.022],[-5.3312,41.1785,821.1278],[-5.3269,41.1776,815.6464],[-5.3083,41.1844,755.918],[-5.3073,41.1833,752.7177],[-5.3016,41.1854,742.2921],[-5.2969,41.1812,747.7836],[-5.2886,41.182,798.8179],[-5.2915,41.1839,777.9039],[-5.2903,41.1865,776.8632],[-5.2918,41.1873,757.7533],[-5.2884,41.1956,782.0795],[-5.2827,41.1962,795.427],[-5.2824,41.195,777.3702],[-5.2739,41.1972,794.1696],[-5.2705,41.1955,781.986],[-5.2718,41.198,788.606],[-5.2685,41.1992,790.7256],[-5.2641,41.1973,785.0962],[-5.2555,41.1976,785.2526],[-5.2529,41.1998,783.8506],[-5.2477,41.1981,782.4587],[-5.2486,41.1961,783.2808],[-5.2424,41.1971,780.3251],[-5.2387,41.1939,779.5714],[-5.2292,41.1898,772.1812],[-5.2275,41.1867,771.1791],[-5.2283,41.1833,771.6257],[-5.2248,41.1815,774.773],[-5.2256,41.1784,774.9898],[-5.2235,41.1782,772.2272],[-5.2245,41.1765,776.3242],[-5.2222,41.1706,773.8478],[-5.2172,41.1675,794.6049],[-5.2223,41.1621,788.0013],[-5.2181,41.1596,783.3972],[-5.2078,41.1668,779.9833],[-5.207,41.1649,779.1417],[-5.2004,41.1664,781.486],[-5.1963,41.1632,791.2224],[-5.1912,41.1621,787.2163],[-5.185,41.1667,781.0132],[-5.1815,41.166,778.3148],[-5.1796,41.1673,779.5441],[-5.1765,41.1652,771.119],[-5.1785,41.1646,771.9359],[-5.1778,41.1631,770.0255],[-5.1745,41.1633,769.283],[-5.1744,41.1613,769.0692],[-5.166,41.1603,769.1519],[-5.1615,41.1567,768.5623],[-5.16,41.1572,768.3757],[-5.1486,41.1512,772.8276],[-5.145,41.1476,769.7761],[-5.1361,41.144,774.4769],[-5.1363,41.1412,790.3356],[-5.1322,41.1361,786.7331],[-5.1282,41.1336,784.7538],[-5.1284,41.1324,784.7538],[-5.1248,41.132,781.4452],[-5.1239,41.1356,780.3115],[-5.1129,41.1364,777.0608],[-5.1113,41.135,777.1417],[-5.1022,41.1427,782.0757],[-5.1,41.1471,776.973],[-5.0759,41.1394,782.4749],[-5.0598,41.1386,778.905],[-5.0217,41.1535,774.119],[-5.0238,41.1568,774.3616],[-5.0138,41.1622,768.627],[-5.0138,41.1642,775.8782],[-5.0108,41.162,766.3427],[-5.0074,41.1619,768.2518],[-5.0043,41.1589,775.8982],[-4.9896,41.1608,767.3471],[-4.9876,41.156,766.5851],[-4.9825,41.1549,768.1903],[-4.9844,41.1522,769.1544],[-4.9772,41.1512,768.7018],[-4.9675,41.1523,765.5004],[-4.9646,41.1497,769.3858],[-4.9629,41.1401,773.7003],[-4.9579,41.139,774.6801],[-4.9507,41.1407,772.1069],[-4.9392,41.1319,776.0001],[-4.9309,41.1293,771.8414],[-4.9237,41.1241,779.1136],[-4.9089,41.1188,776.2946],[-4.9049,41.1187,772.0819],[-4.9018,41.1145,775.2271],[-4.894,41.1131,773.1783],[-4.8808,41.1045,777.9019],[-4.8788,41.1053,777.8331],[-4.8745,41.1035,777.547],[-4.8701,41.1003,780.5623],[-4.8726,41.0992,779.8512],[-4.872,41.0979,781.7178],[-4.8636,41.094,788.9821],[-4.8555,41.1007,785.5479],[-4.8279,41.0992,805.5306],[-4.8149,41.1034,859.5851],[-4.8188,41.1079,842.0176],[-4.8169,41.1168,845.8332],[-4.8122,41.1264,799.7748],[-4.8134,41.1294,794.4535],[-4.8057,41.1352,795.1616],[-4.796,41.1358,809.4992],[-4.7889,41.1399,809.5046],[-4.7861,41.1436,802.5433],[-4.7787,41.145,799.2669],[-4.767,41.1424,790.8469],[-4.7488,41.1497,791.2758],[-4.7391,41.149,798.7938],[-4.7373,41.1504,796.051],[-4.7289,41.1508,797.6669],[-4.722,41.1493,798.9316],[-4.7212,41.157,794.3074],[-4.7089,41.1669,794.2187],[-4.7022,41.1745,785.2366],[-4.7029,41.1855,782.3903],[-4.7082,41.1935,773.5557],[-4.7081,41.1982,779.6498],[-4.7144,41.2046,774.5614],[-4.7192,41.205,762.8627],[-4.7204,41.2032,778.4907],[-4.7519,41.1874,781.8344],[-4.7594,41.1919,781.515],[-4.7639,41.1924,778.238]]]]}
,"properties": {"GID_3": "ESP.5.8.4_1","GID_0": "ESP","country": "Spain","GID_1": "ESP.5_1","province": "CastillayLeón","NL_NAME_1": "NA","GID_2": "ESP.5.8_1","county": "Valladolid","NL_NAME_2": "NA","city": "n.a.(266)","VARNAME_3": "NA","NL_NAME_3": "NA","TYPE_3": "Comarca","ENGTYPE_3": "Comarca","CC_3": "NA","HASC_3": "NA","name": "n.a.(266).city","area_km2": 1913.751,"hist_schema_id": "Elevation0-9000","hist_area_km2": {"650": 52.003,"675": 147.484,"700": 244.824,"725": 410.092,"750": 568.863,"775": 388.011,"800": 94.465,"825": 7.689,"850": 0.32}}}