{"type": "Feature","bbox": [-1.9346,42.3808,-1.1524,42.6938],"geometry": {"type": "MultiPolygon","coordinates": [[[[-1.3572,42.3815,396.1759],[-1.35,42.3928,404.4243],[-1.3481,42.401,413.2779],[-1.3429,42.4081,423.7343],[-1.3415,42.4239,455.2463],[-1.3152,42.4492,548.3851],[-1.2898,42.4574,658.6107],[-1.2813,42.4645,731.433],[-1.2818,42.4677,756.0332],[-1.2727,42.4824,830.1979],[-1.2756,42.4904,923.9258],[-1.2751,42.4958,1003.3317],[-1.2822,42.4989,977.1871],[-1.2867,42.4985,1047.8494],[-1.2875,42.5086,697.3807],[-1.2934,42.511,594.4437],[-1.2892,42.5149,554.999],[-1.2881,42.5228,498.6572],[-1.2647,42.5568,435.5543],[-1.2569,42.5552,413.7912],[-1.2561,42.5531,413.4333],[-1.2404,42.5486,428.6401],[-1.2322,42.5434,440.8923],[-1.2261,42.5422,433.6558],[-1.2183,42.5492,454.2649],[-1.2079,42.5496,445.9843],[-1.2067,42.5509,447.9784],[-1.2028,42.5497,449.995],[-1.2009,42.5525,454.4183],[-1.204,42.5585,459.5364],[-1.2043,42.5706,492.5119],[-1.2019,42.5782,504.127],[-1.1978,42.5789,479.9621],[-1.1875,42.5868,500.7267],[-1.1692,42.5973,775.3711],[-1.1616,42.596,838.6132],[-1.1581,42.5996,813.8217],[-1.1695,42.6051,699.157],[-1.18,42.6079,676.3889],[-1.1787,42.6151,480.0],[-1.1708,42.6171,480.0],[-1.1613,42.6138,480.0],[-1.1576,42.6105,480.0],[-1.1543,42.6324,681.9741],[-1.1546,42.6416,855.1485],[-1.1524,42.6476,1260.1047],[-1.1587,42.6485,1223.1267],[-1.2084,42.6419,1079.5977],[-1.2153,42.6398,970.1946],[-1.219,42.6349,718.7556],[-1.235,42.6338,835.045],[-1.2389,42.6348,894.3054],[-1.2455,42.6315,858.8046],[-1.2678,42.6324,848.9957],[-1.2825,42.6306,667.5314],[-1.2916,42.6269,544.4149],[-1.3037,42.6254,422.2467],[-1.3105,42.6219,573.4156],[-1.3103,42.6185,598.8746],[-1.3129,42.6187,585.8215],[-1.3183,42.6131,707.8013],[-1.3229,42.6137,713.6037],[-1.3288,42.6196,699.6375],[-1.3394,42.6213,676.2283],[-1.3494,42.6255,627.2482],[-1.351,42.6285,636.596],[-1.3566,42.6317,666.8556],[-1.3687,42.6293,790.8583],[-1.3772,42.6352,866.5773],[-1.3874,42.639,867.8986],[-1.388,42.6417,902.7761],[-1.4276,42.6413,966.9779],[-1.4365,42.6428,1005.5549],[-1.4475,42.6472,1019.4888],[-1.4537,42.6441,951.277],[-1.4633,42.6498,1008.7408],[-1.4815,42.6545,1011.7037],[-1.4852,42.6536,995.6897],[-1.4899,42.6551,969.7634],[-1.4945,42.6595,935.5527],[-1.5003,42.6598,995.0911],[-1.5163,42.6678,979.6145],[-1.5354,42.6711,999.6912],[-1.5428,42.6774,1063.114],[-1.5726,42.6823,1064.6567],[-1.568,42.6928,1125.021],[-1.5933,42.6854,958.1265],[-1.5967,42.6925,1024.4756],[-1.6043,42.6938,1048.3483],[-1.6164,42.6856,1091.5812],[-1.6162,42.683,1013.3719],[-1.6194,42.6792,1023.9625],[-1.632,42.6677,770.1138],[-1.6432,42.6633,775.9263],[-1.6486,42.6593,602.1208],[-1.6585,42.657,591.8569],[-1.6559,42.6554,597.4899],[-1.6575,42.65,659.4194],[-1.664,42.6486,661.965],[-1.6726,42.64,587.5185],[-1.6715,42.6338,573.6457],[-1.6806,42.6292,548.5903],[-1.6977,42.6118,623.9416],[-1.7016,42.6113,622.9353],[-1.7031,42.6172,583.1124],[-1.7057,42.6178,557.2815],[-1.7129,42.6151,515.9365],[-1.7187,42.6157,502.999],[-1.7222,42.6187,543.9091],[-1.7318,42.6221,538.3106],[-1.7343,42.6224,528.9771],[-1.7372,42.6202,497.0],[-1.7445,42.6213,552.2728],[-1.7486,42.6255,544.9716],[-1.7613,42.6245,532.8309],[-1.7709,42.626,502.9689],[-1.7778,42.6243,485.0254],[-1.7814,42.6265,496.2734],[-1.7884,42.6268,472.0838],[-1.7988,42.6354,404.298],[-1.8334,42.6401,330.3542],[-1.8348,42.6366,331.5264],[-1.8386,42.6362,328.9706],[-1.8456,42.641,341.3627],[-1.8471,42.6392,344.1263],[-1.8452,42.6372,336.6964],[-1.8541,42.6337,399.2478],[-1.8623,42.6274,486.7479],[-1.8586,42.6195,382.7374],[-1.8658,42.617,363.8803],[-1.8693,42.6173,370.1593],[-1.8775,42.6232,411.2613],[-1.8834,42.6234,432.8258],[-1.8911,42.6219,437.7051],[-1.8917,42.6187,462.3757],[-1.8961,42.6151,428.1037],[-1.8957,42.6089,404.2149],[-1.903,42.6138,431.162],[-1.9004,42.6086,420.4283],[-1.9018,42.6071,420.4283],[-1.8972,42.6043,421.5414],[-1.8931,42.5982,421.5033],[-1.8929,42.5901,394.7994],[-1.8879,42.5842,398.0019],[-1.9138,42.5712,406.6663],[-1.9242,42.5741,436.9525],[-1.9303,42.5608,481.1912],[-1.9287,42.5507,452.8281],[-1.9346,42.5267,479.9437],[-1.9326,42.5231,454.5867],[-1.9238,42.5167,381.0122],[-1.9118,42.5041,348.8878],[-1.9056,42.5024,343.5803],[-1.8841,42.5026,334.3734],[-1.8708,42.51,348.8985],[-1.855,42.5134,317.8182],[-1.8483,42.5086,313.7948],[-1.8414,42.5093,311.4728],[-1.8345,42.5075,309.5819],[-1.8349,42.5037,308.5822],[-1.8307,42.5111,309.0641],[-1.825,42.5126,317.5339],[-1.8051,42.5148,344.0446],[-1.7943,42.5135,324.2296],[-1.7751,42.4986,347.3248],[-1.7638,42.4845,340.7261],[-1.7579,42.4653,368.075],[-1.7603,42.4608,400.3623],[-1.7537,42.4579,418.3242],[-1.7471,42.4513,430.9521],[-1.7444,42.4514,429.0432],[-1.7374,42.4469,410.8693],[-1.7382,42.4392,462.9684],[-1.7361,42.4373,445.1122],[-1.7319,42.4377,446.3559],[-1.7304,42.4354,449.3913],[-1.723,42.4318,431.1368],[-1.7236,42.4287,428.0671],[-1.7201,42.4246,421.8107],[-1.7153,42.4228,421.7062],[-1.7164,42.4099,396.9104],[-1.7034,42.3955,346.4547],[-1.6978,42.3808,331.1828],[-1.6894,42.3826,354.3883],[-1.6878,42.3843,358.3925],[-1.6702,42.3862,358.7785],[-1.6604,42.3854,356.5634],[-1.6474,42.3942,375.4252],[-1.6434,42.3942,350.1252],[-1.6421,42.3961,330.4849],[-1.6442,42.4012,335.7691],[-1.6447,42.4122,348.8382],[-1.625,42.4075,335.268],[-1.6151,42.3997,367.2218],[-1.6114,42.394,387.1622],[-1.6091,42.3848,373.4594],[-1.5995,42.3811,385.6818],[-1.5955,42.3944,385.3586],[-1.5874,42.4028,350.1122],[-1.577,42.409,351.2957],[-1.5567,42.4159,369.2063],[-1.5452,42.4179,399.5442],[-1.5168,42.4132,447.4183],[-1.513,42.4144,451.7863],[-1.5111,42.4187,474.6035],[-1.4959,42.4206,588.8228],[-1.4732,42.4158,592.774],[-1.4636,42.4204,605.4766],[-1.4552,42.4196,466.3839],[-1.4457,42.4239,412.1481],[-1.4376,42.4232,399.3349],[-1.435,42.4253,386.7381],[-1.4264,42.4258,374.3821],[-1.4197,42.423,349.2462],[-1.429,42.4097,347.6733],[-1.4062,42.4072,402.161],[-1.3748,42.3874,386.7128],[-1.3572,42.3815,396.1759]]]]}
,"properties": {"GID_3": "ESP.9.1.7_1","GID_0": "ESP","country": "Spain","GID_1": "ESP.9_1","province": "ComunidadForaldeNavarra","NL_NAME_1": "NA","GID_2": "ESP.9.1_1","county": "Navarra","NL_NAME_2": "NA","city": "n.a.(191)","VARNAME_3": "NA","NL_NAME_3": "NA","TYPE_3": "Comarca","ENGTYPE_3": "Comarca","CC_3": "NA","HASC_3": "NA","name": "n.a.(191).city","area_km2": 1272.7398,"hist_schema_id": "Elevation0-9000","hist_area_km2": {"300": 2.2191,"325": 31.4259,"350": 92.2237,"375": 121.7158,"400": 132.2204,"425": 109.8178,"450": 89.001,"475": 72.1322,"500": 62.2197,"525": 61.6196,"550": 61.9725,"575": 54.5211,"600": 47.809,"625": 40.6291,"650": 38.5997,"675": 35.879,"700": 35.1593,"725": 29.7148,"750": 25.7752,"775": 22.5713,"800": 19.8831,"825": 19.0382,"850": 15.8369,"875": 14.3686,"900": 10.9506,"925": 7.7835,"950": 5.7864,"975": 4.0079,"1000": 2.6509,"1025": 1.497,"1050": 0.8263,"1075": 0.9821,"1100": 0.6547,"1125": 0.3118,"1150": 0.2027,"1175": 0.1248,"1200": 0.1871,"1225": 0.1404,"1250": 0.2027,"1275": 0.078}}}