{"type": "Feature","bbox": [-2.7682,41.9963,-2.354,42.3467],"geometry": {"type": "MultiPolygon","coordinates": [[[[-2.552,42.0456,1827.7096],[-2.549,42.0515,1915.1995],[-2.5395,42.055,1707.3058],[-2.5324,42.0552,1717.1238],[-2.5148,42.0689,1768.7416],[-2.5147,42.0742,1757.0255],[-2.5193,42.081,1718.1139],[-2.5226,42.0829,1736.0432],[-2.5215,42.0875,1684.113],[-2.5182,42.0908,1687.2224],[-2.5193,42.098,1647.28],[-2.5162,42.1027,1621.3721],[-2.5164,42.1108,1632.6764],[-2.5146,42.1145,1646.3796],[-2.5085,42.1154,1642.662],[-2.501,42.1124,1610.3413],[-2.4958,42.1129,1555.3068],[-2.4903,42.111,1498.2883],[-2.4843,42.1063,1550.3838],[-2.4744,42.1111,1576.7111],[-2.4717,42.1143,1582.0977],[-2.4586,42.1153,1683.6455],[-2.4535,42.1213,1702.5615],[-2.4485,42.1241,1749.0177],[-2.4464,42.1322,1732.2301],[-2.4412,42.1365,1750.835],[-2.4269,42.1358,1744.8149],[-2.4176,42.139,1695.1685],[-2.4013,42.1396,1647.7433],[-2.4008,42.1544,1545.8344],[-2.3938,42.1626,1489.5505],[-2.3796,42.1614,1205.6526],[-2.3749,42.1638,1122.2223],[-2.3691,42.1633,1058.1371],[-2.3623,42.1682,1007.9083],[-2.3603,42.1757,1065.4941],[-2.3542,42.1808,970.1275],[-2.354,42.1869,1096.2166],[-2.3626,42.1947,1192.5111],[-2.3668,42.2054,1358.3975],[-2.3825,42.206,1468.3137],[-2.3882,42.2099,1463.2521],[-2.3937,42.2202,1397.6665],[-2.3903,42.2305,1218.5693],[-2.3859,42.2378,1214.2722],[-2.3885,42.2397,1208.1934],[-2.3841,42.2426,1190.082],[-2.3803,42.2488,1320.6228],[-2.394,42.2708,1261.3075],[-2.3868,42.2802,1197.2457],[-2.3864,42.2849,1230.0997],[-2.3841,42.2855,1221.021],[-2.3778,42.2954,1219.0419],[-2.3783,42.2973,1203.4099],[-2.3842,42.299,1045.5491],[-2.3869,42.3015,988.5599],[-2.4073,42.307,688.2435],[-2.407,42.3137,835.6677],[-2.4186,42.3184,799.9526],[-2.4211,42.3214,858.4625],[-2.4277,42.3208,957.6453],[-2.4332,42.3226,1089.5103],[-2.4382,42.3278,934.7278],[-2.4492,42.3199,1092.0587],[-2.4484,42.3068,1146.5514],[-2.4467,42.305,1142.656],[-2.4508,42.3024,1175.756],[-2.4583,42.3015,1154.5374],[-2.4672,42.2959,1263.7794],[-2.4776,42.2951,1252.9507],[-2.48,42.2928,1230.0631],[-2.4876,42.3039,1029.0936],[-2.4955,42.3045,1011.0511],[-2.4911,42.3137,904.3715],[-2.4925,42.321,772.0995],[-2.4977,42.3229,662.2205],[-2.5018,42.3265,577.6781],[-2.5076,42.3225,574.9479],[-2.5237,42.3182,602.18],[-2.529,42.3209,731.5222],[-2.5329,42.3279,878.161],[-2.5439,42.3279,934.1288],[-2.5473,42.333,866.168],[-2.5471,42.338,884.5779],[-2.553,42.3467,921.9458],[-2.5703,42.3411,1136.3875],[-2.5823,42.3341,1361.8719],[-2.5874,42.3359,1352.321],[-2.5935,42.3333,1402.7111],[-2.5979,42.3349,1401.5994],[-2.6028,42.3342,1413.824],[-2.6065,42.3292,1432.911],[-2.6169,42.3275,1485.8738],[-2.6181,42.3167,1493.871],[-2.625,42.3161,1476.1904],[-2.6281,42.3123,1470.613],[-2.6319,42.3109,1464.208],[-2.6456,42.2937,1347.3394],[-2.67,42.2748,1401.7505],[-2.6776,42.2629,1418.3289],[-2.6784,42.2564,1431.2683],[-2.7015,42.247,1431.8798],[-2.7039,42.2442,1413.521],[-2.7179,42.2414,1392.8193],[-2.7194,42.2371,1358.1603],[-2.7332,42.2303,1477.8207],[-2.7361,42.2268,1597.3053],[-2.7425,42.2263,1655.1768],[-2.7454,42.2191,1562.7908],[-2.7412,42.2078,1692.0266],[-2.7462,42.2037,1681.1095],[-2.7497,42.1973,1638.9794],[-2.7682,42.1889,1703.7295],[-2.7632,42.1798,1452.636],[-2.7646,42.175,1420.397],[-2.7594,42.1693,1421.3152],[-2.7574,42.1625,1413.9929],[-2.7542,42.1611,1440.2351],[-2.7471,42.1502,1548.408],[-2.7465,42.1406,1543.6224],[-2.7409,42.1315,1480.6462],[-2.7378999999999998,42.1302,1440.92],[-2.7384,42.1248,1347.165],[-2.7284,42.1229,1299.2278],[-2.7222,42.1157,1215.6328],[-2.7067,42.1057,1158.0845],[-2.706,42.1025,1111.002],[-2.7088,42.1014,1135.4133],[-2.7104,42.0964,1270.821],[-2.7075,42.0905,1462.144],[-2.7084,42.0863,1650.6631],[-2.7225,42.0725,1723.6099],[-2.7255,42.0713,1802.2483],[-2.7273,42.0656,1844.4482],[-2.7345,42.06,1829.0668],[-2.7384,42.0497,1853.3761],[-2.7575,42.0326,1978.2627],[-2.755,42.03,1970.0735],[-2.7557,42.0239,1935.1968],[-2.7487,42.0151,2019.7026],[-2.7461,42.0087,2028.6918],[-2.7271,42.015,1926.1423],[-2.7202,42.0158,1910.5129],[-2.7102,42.0137,1974.3567],[-2.7057,42.0151,2026.7167],[-2.6962,42.0107,1992.0511],[-2.6871,42.0014,2063.3789],[-2.6735,41.9981,2126.1216],[-2.6618,42.0029,2122.1956],[-2.6597,42.0054,2120.3572],[-2.65,42.0038,2067.7109],[-2.6266,42.0065,1925.3472],[-2.6244,42.0049,1896.9299],[-2.615,42.0058,1842.4252],[-2.6096,42.0029,1818.6868],[-2.5965,42.0019,1843.2356],[-2.5798,41.9963,1827.5514],[-2.5752,42.0067,1735.3812],[-2.5652,42.014,1745.0502],[-2.556,42.0348,1780.0981],[-2.5512,42.0389,1905.0028],[-2.552,42.0456,1827.7096]]]]}
,"properties": {"GID_3": "ESP.15.1.5_1","GID_0": "ESP","country": "Spain","GID_1": "ESP.15_1","province": "LaRioja","NL_NAME_1": "NA","GID_2": "ESP.15.1_1","county": "LaRioja","NL_NAME_2": "NA","city": "n.a.(141)","VARNAME_3": "NA","NL_NAME_3": "NA","TYPE_3": "Comarca","ENGTYPE_3": "Comarca","CC_3": "NA","HASC_3": "NA","name": "n.a.(141).city","area_km2": 805.8705,"hist_schema_id": "Elevation0-9000","hist_area_km2": {"575": 0.3135,"600": 0.6742,"625": 1.2073,"650": 1.521,"675": 2.0856,"700": 2.3524,"725": 3.4817,"750": 4.1095,"775": 5.1922,"800": 6.1338,"825": 8.0645,"850": 9.3678,"875": 11.3613,"900": 13.0726,"925": 15.5862,"950": 17.5493,"975": 20.2664,"1000": 24.3981,"1025": 26.3605,"1050": 29.3616,"1075": 31.1378,"1100": 30.8713,"1125": 31.5654,"1150": 31.4264,"1175": 30.9111,"1200": 30.1909,"1225": 31.7976,"1250": 31.5649,"1275": 31.1611,"1300": 31.3678,"1325": 30.4131,"1350": 28.2151,"1375": 24.6653,"1400": 22.1359,"1425": 20.6431,"1450": 17.5333,"1475": 15.0678,"1500": 13.4809,"1525": 12.602,"1550": 11.5644,"1575": 10.9035,"1600": 10.1021,"1625": 9.6461,"1650": 8.6394,"1675": 7.8224,"1700": 6.8154,"1725": 6.4704,"1750": 5.5895,"1775": 4.52,"1800": 3.6381,"1825": 3.5437,"1850": 2.8665,"1875": 2.1894,"1900": 2.1894,"1925": 1.6854,"1950": 1.5437,"1975": 1.1656,"2000": 0.9924,"2025": 0.8821,"2050": 0.9767,"2075": 0.8349,"2100": 0.7089,"2125": 0.7089,"2150": 0.6616}}}