{"type":"Feature","properties":{"GID_3":"ESP.2.2.3_1","GID_0":"ESP","country":"Spain","GID_1":"ESP.2_1","province":"Aragón","NL_NAME_1":"NA","GID_2":"ESP.2.2_1","county":"Teruel","NL_NAME_2":"NA","city":"n.a.(250)","VARNAME_3":"NA","NL_NAME_3":"NA","TYPE_3":"Comarca","ENGTYPE_3":"Comarca","CC_3":"NA","HASC_3":"NA","name":"n.a.(250).city"},
"geometry":{"type": "MultiPolygon","coordinates": [[[[-0.7193,40.144,821.7083],[-0.7132,40.1383,812.0768],[-0.6916,40.135,777.7589],[-0.6798,40.1279,740.3396],[-0.6739,40.1275,753.6618],[-0.6576,40.141,948.7145],[-0.6442,40.1422,905.5514],[-0.6327,40.146,968.3054],[-0.616,40.1431,779.0418],[-0.6059,40.1347,840.983],[-0.6092,40.1257,612.2985],[-0.6065,40.1283,631.1358],[-0.604,40.1268,644.5117],[-0.5985,40.1286,643.6125],[-0.597,40.1321,658.9354],[-0.5908,40.1337,674.3477],[-0.5869,40.1315,676.4565],[-0.5784,40.1381,692.2981],[-0.5793,40.1476,720.9002],[-0.5747,40.1487,733.0366],[-0.5747,40.1526,736.4904],[-0.5705,40.1554,768.1557],[-0.5696,40.162,772.1829],[-0.5739,40.173,842.047],[-0.5716,40.1749,829.9601],[-0.5704,40.1803,881.5598],[-0.5721,40.1815,848.7708],[-0.5637,40.1887,1048.085],[-0.5609,40.1974,1105.4541],[-0.5578,40.2009,1124.8116],[-0.559,40.2101,1185.0343],[-0.5478,40.2443,1689.7549],[-0.5441,40.2517,1628.1825],[-0.5292,40.2394,1611.5281],[-0.5105,40.2318,1494.0247],[-0.5015,40.2332,1492.4437],[-0.4945,40.2288,1367.1252],[-0.4866,40.2342,1213.2524],[-0.4772,40.2353,1036.4424],[-0.4699,40.2402,835.4756],[-0.4638,40.2339,823.9547],[-0.4518,40.2353,1019.7321],[-0.428,40.2438,1249.363],[-0.3836,40.2649,1642.9781],[-0.385,40.2744,1591.7848],[-0.3828,40.2783,1523.0635],[-0.3903,40.288,1244.2659],[-0.4001,40.2942,1186.4075],[-0.4001,40.2957,1184.7664],[-0.3939,40.2976,1191.5398],[-0.3946,40.3004,1171.7686],[-0.3927,40.2987,1191.5398],[-0.3899,40.2999,1176.5082],[-0.3914,40.3025,1170.9291],[-0.3901,40.3057,1201.3423],[-0.3877,40.3073,1213.0264],[-0.3845,40.3057,1141.4122],[-0.3789,40.31,1170.5518],[-0.3764,40.305,1145.5881],[-0.3725,40.3086,1120.1145],[-0.3724,40.3041,1105.176],[-0.3703,40.3044,1103.0209],[-0.37,40.3066,1086.3419],[-0.3662,40.3051,1095.4836],[-0.3672,40.3083,1085.0537],[-0.37,40.3099,1075.2837],[-0.3685,40.3121,1114.3153],[-0.3646,40.3137,1084.3218],[-0.3631,40.3166,1039.9021],[-0.3582,40.313,1043.036],[-0.3548,40.3148,1027.4885],[-0.3529,40.3134,1100.5315],[-0.352,40.3176,1023.904],[-0.3535,40.318,1080.5544],[-0.3485,40.3207,1015.5684],[-0.3497,40.328,996.3633],[-0.3477,40.3283,991.6987],[-0.3465,40.3251,987.6307],[-0.3431,40.3254,997.2026],[-0.3437,40.3271,978.4388],[-0.341,40.329,966.2902],[-0.343,40.3343,961.132],[-0.3406,40.34,990.3077],[-0.3376,40.3394,944.4682],[-0.3368,40.341,1020.0966],[-0.3324,40.3415,925.8122],[-0.3316,40.3448,913.3961],[-0.3212,40.3501,915.6799],[-0.319,40.3547,912.9183],[-0.3144,40.3584,858.6357],[-0.3086,40.3577,844.9251],[-0.3045,40.3627,864.3011],[-0.298,40.3617,822.2719],[-0.2892,40.3681,828.835],[-0.2891,40.3655,815.3239],[-0.2854,40.3665,825.8947],[-0.2823,40.3651,797.1318],[-0.2839,40.3687,843.5006],[-0.2825,40.3702,781.0673],[-0.28,40.3695,796.3109],[-0.2816,40.3734,822.2542],[-0.2807,40.3769,903.3573],[-0.2852,40.3863,998.7495],[-0.2959,40.3954,1121.1626],[-0.3013,40.3976,1154.1147],[-0.3072,40.4092,1311.1049],[-0.3166,40.4172,1377.4272],[-0.3279,40.4217,1598.4818],[-0.3328,40.4256,1584.5038],[-0.3411,40.4382,1367.6571],[-0.3473,40.444,1234.5847],[-0.3426,40.4435,1191.1852],[-0.3428,40.4466,1160.2661],[-0.3388,40.4489,1166.2244],[-0.339,40.4534,1167.2092],[-0.337,40.4566,1151.2411],[-0.3326,40.4591,1157.0172],[-0.3225,40.4601,1133.2921],[-0.3085,40.4658,1132.5541],[-0.2934,40.466,1122.2909],[-0.2954,40.4704,1132.1667],[-0.2903,40.4706,1101.0579],[-0.2873,40.4724,1118.3252],[-0.2857,40.4701,1114.2537],[-0.2832,40.4732,1110.5574],[-0.281,40.4739,1093.7317],[-0.2801,40.4724,1079.2175],[-0.2785,40.4754,1075.3546],[-0.2764,40.4758,1105.1915],[-0.2728,40.4737,1085.1646],[-0.2714,40.4785,1065.2733],[-0.2741,40.4817,1089.8286],[-0.2797,40.4835,1110.1498],[-0.2793,40.4886,1113.1265],[-0.2749,40.4934,1139.0343],[-0.2747,40.4969,1174.7921],[-0.2811,40.5052,1267.9827],[-0.2881,40.5096,1283.8848],[-0.2976,40.5058,1287.8644],[-0.2994,40.5131,1134.5],[-0.3018,40.516,1180.0294],[-0.2974,40.5313,982.8788],[-0.293,40.5366,986.7912],[-0.2901,40.544,972.1162],[-0.2925,40.5467,954.8965],[-0.2902,40.5531,951.2375],[-0.294,40.554,953.3773],[-0.2924,40.5561,936.603],[-0.296,40.5605,920.7372],[-0.2948,40.5702,898.7167],[-0.2993,40.5738,880.5258],[-0.2998,40.5774,928.1119],[-0.2952,40.581,870.5981],[-0.2943,40.584,854.7916],[-0.2953,40.586,857.3096],[-0.2934,40.5915,851.0901],[-0.2954,40.5953,844.6583],[-0.2933,40.5964,833.902],[-0.2947,40.5998,824.7673],[-0.2923,40.6044,813.1167],[-0.2932,40.6111,825.1976],[-0.2991,40.6129,812.2191],[-0.3115,40.6115,824.825],[-0.3176,40.6081,852.5152],[-0.322,40.6029,874.1321],[-0.3345,40.6074,884.9607],[-0.3432,40.6065,899.4538],[-0.344,40.6112,973.2521],[-0.3602,40.6155,1189.713],[-0.3704,40.6136,1220.6509],[-0.3775,40.618899999999996,1266.4238],[-0.3796,40.6236,1178.4784],[-0.3764,40.636,1011.2753],[-0.3719,40.6411,982.1002],[-0.3727,40.6476,935.9221],[-0.3707,40.6508,915.7335],[-0.3791,40.6568,959.1025],[-0.3815,40.6616,897.6359],[-0.381,40.6708,1018.5336],[-0.4021,40.6781,1183.7991],[-0.4041,40.6811,1181.7253],[-0.407,40.6943,1112.8464],[-0.4282,40.701,699.1595],[-0.4304,40.6977,689.9604],[-0.436,40.7002,718.4479],[-0.4415,40.7,684.9667],[-0.4455,40.6985,687.5455],[-0.448,40.6952,724.6393],[-0.4602,40.693,715.6729],[-0.4684,40.6841,751.1357],[-0.4714,40.6859,901.6073],[-0.4789,40.6974,1031.2012],[-0.47,40.7029,1105.6965],[-0.4775,40.7121,1154.7393],[-0.506,40.7019,1217.371],[-0.513,40.6955,1079.3513],[-0.5327,40.6906,1015.8572],[-0.5547,40.6909,1038.0276],[-0.5619,40.6893,1145.8542],[-0.5486,40.7128,1139.0939],[-0.5791,40.714,1181.4121],[-0.6018,40.7259,1459.1791],[-0.608,40.7087,1315.644],[-0.6138,40.7036,1318.2402],[-0.6081,40.697,1112.687],[-0.6087,40.6917,924.2582],[-0.6055,40.6861,1048.9532],[-0.6093,40.6813,1233.095],[-0.6208,40.6768,1353.4849],[-0.6192,40.6745,1364.3334],[-0.624,40.6686,1421.1306],[-0.6206,40.6634,1479.6917],[-0.6229,40.6567,1506.8324],[-0.6293,40.6482,1496.4734],[-0.6276,40.6383,1460.8524],[-0.6359,40.6326,1459.3595],[-0.6372,40.6276,1461.8518],[-0.6355,40.6239,1466.7791],[-0.6419,40.6195,1409.906],[-0.644,40.6115,1409.6094],[-0.6473,40.6124,1450.2732],[-0.6478,40.6027,1497.0898],[-0.6512,40.5996,1494.9396],[-0.6515,40.5961,1498.3639],[-0.6419,40.5875,1423.2667],[-0.6392,40.5868,1418.3635],[-0.6302,40.5761,1437.8687],[-0.6298,40.571,1446.5171],[-0.6374,40.5651,1576.7482],[-0.6367,40.5611,1592.5018],[-0.6389,40.5578,1590.5793],[-0.6472,40.552,1434.5499],[-0.6555,40.5555,1429.3135],[-0.6578,40.558,1424.8535],[-0.662,40.5562,1455.8276],[-0.6617,40.5617,1463.6012],[-0.6738,40.5851,1433.0201],[-0.6875,40.5979,1243.3368],[-0.6939,40.5956,1218.447],[-0.7079,40.5974,1209.2356],[-0.7154,40.5962,1332.2781],[-0.7213,40.5989,1423.8091],[-0.7258,40.595,1430.976],[-0.7256,40.5912,1439.464],[-0.7346,40.5873,1436.0857],[-0.7361,40.5846,1446.1406],[-0.75,40.583,1429.2955],[-0.7578,40.5864,1415.1995],[-0.7704,40.6008,1306.4491],[-0.781,40.6039,1335.2766],[-0.7901,40.6093,1329.7382],[-0.8033,40.6094,1340.8328],[-0.8191,40.6176,1326.9988],[-0.8264,40.6175,1367.3792],[-0.8284,40.6135,1372.8335],[-0.8502,40.606,1429.5126],[-0.874,40.5929,1481.0433],[-0.8727,40.5907,1482.3777],[-0.8911,40.5747,1529.8088],[-0.8928,40.5689,1523.0129],[-0.9115,40.5635,1614.7773],[-0.9091,40.5509,1695.0278],[-0.9107,40.5489,1690.8999],[-0.9071,40.5449,1658.0352],[-0.9088,40.5413,1727.9526],[-0.9145,40.5368,1738.2297],[-0.9132,40.5194,1668.1072],[-0.9157,40.519,1626.2687],[-0.9145,40.4967,1602.5656],[-0.9088,40.4897,1542.4584],[-0.9151,40.4851,1532.0271],[-0.9204,40.4839,1499.1351],[-0.9378,40.4846,1435.7266],[-0.9352,40.483,1435.9575],[-0.9345,40.4661,1521.5304],[-0.9247,40.463,1680.7396],[-0.9157,40.4629,1599.5562],[-0.9178,40.4515,1594.3828],[-0.9266,40.4499,1645.1458],[-0.9211,40.4379,1560.791],[-0.9143,40.4366,1553.8154],[-0.9123,40.4345,1563.302],[-0.9078,40.4265,1509.2151],[-0.9034,40.4036,1479.4027],[-0.8957,40.3986,1450.4941],[-0.9018,40.3915,1382.329],[-0.9028,40.386,1477.9785],[-0.9113,40.3805,1514.5238],[-0.9111,40.3655,1535.8998],[-0.9223,40.3598,1533.9231],[-0.9327,40.3605,1468.5183],[-0.9495,40.3545,1416.6167],[-0.9448,40.3419,1425.4678],[-0.945,40.3341,1471.089],[-0.9407,40.319,1464.3951],[-0.9097,40.3008,1201.7083],[-0.9031,40.2911,1188.1776],[-0.8885,40.276,1141.5876],[-0.8687,40.2653,1083.5525],[-0.8435,40.267,1057.0121],[-0.8387,40.2704,1068.9592],[-0.8355,40.2757,1092.2856],[-0.819,40.2847,1026.8286],[-0.8122,40.275,1034.1635],[-0.8065,40.2627,1011.5629],[-0.7939,40.2511,1028.7996],[-0.7919,40.243,1022.4772],[-0.795,40.2307,1001.7582],[-0.7944,40.2223,999.0822],[-0.7891,40.2189,991.287],[-0.784,40.2122,979.2836],[-0.7844,40.2093,989.9805],[-0.7823,40.2083,999.2867],[-0.7717,40.1865,949.5126],[-0.7755,40.1805,925.5797],[-0.7759,40.1736,905.2731],[-0.7801,40.1688,865.9485],[-0.7739,40.1635,858.686],[-0.775,40.1617,859.2779],[-0.7693,40.1613,848.9556],[-0.7633,40.155,838.0999],[-0.7602,40.1562,837.5022],[-0.7558,40.154,863.9904],[-0.7526,40.1547,859.7346],[-0.7476,40.1488,861.0744],[-0.7402,40.1485,829.7752],[-0.7397,40.1457,830.442],[-0.7374,40.1465,860.0066],[-0.7364,40.1446,825.9636],[-0.738,40.1432,810.4658],[-0.734,40.1435,819.5625],[-0.7292,40.1407,811.0659],[-0.7193,40.144,821.7083]]]]}}