{"type": "Feature","bbox": [-4.1248,41.1979,-3.2069,41.5861],"geometry": {"type": "MultiPolygon","coordinates": [[[[-3.7486,41.221,1013.6276],[-3.7459,41.2242,1019.8479],[-3.7437,41.2224,1026.6687],[-3.7337,41.2258,1045.7643],[-3.7281,41.2237,1062.3486],[-3.7186,41.2274,1030.3389],[-3.7126,41.225,1049.8129],[-3.703,41.2254,1030.0173],[-3.6896,41.2291,985.1103],[-3.6876,41.2267,992.691],[-3.6728,41.234,1032.6027],[-3.6716,41.2447,1009.9703],[-3.656,41.2478,1004.8243],[-3.6533,41.2455,993.6334],[-3.6485,41.2487,985.6482],[-3.6473,41.2433,982.9053],[-3.6276,41.2469,1031.0754],[-3.6253,41.2467,1025.1283],[-3.6201,41.2411,1039.6917],[-3.6044,41.2419,1075.7963],[-3.6081,41.2448,1058.9111],[-3.6113,41.2452,1048.1727],[-3.6156,41.2494,1031.7518],[-3.6054,41.2545,1061.5027],[-3.594,41.2577,1049.2345],[-3.579,41.255,1113.7255],[-3.5757,41.2563,1115.803],[-3.5673,41.2557,1148.7107],[-3.5617,41.2523,1162.3004],[-3.5565,41.2605,1092.2338],[-3.555,41.2603,1106.998],[-3.5497,41.2672,1154.7783],[-3.5456,41.265,1124.7316],[-3.5433,41.2617,1074.2089],[-3.5447,41.2596,1082.1824],[-3.5379,41.2525,1097.77],[-3.536,41.2475,1125.6545],[-3.5287,41.2388,1171.7096],[-3.5277,41.233,1205.701],[-3.5145,41.2266,1233.8353],[-3.5073,41.2204,1274.9902],[-3.495,41.2166,1332.3928],[-3.4621,41.2182,1437.9186],[-3.4537,41.2157,1563.213],[-3.4521,41.2175,1616.6259],[-3.4493,41.2139,1644.0209],[-3.4509,41.2074,1825.5181],[-3.4545,41.2066,1922.0067],[-3.4539,41.202,1965.8018],[-3.4489,41.2067,1874.7098],[-3.4441,41.2153,1840.7079],[-3.4251,41.2142,1767.4286],[-3.42,41.2164,1709.7493],[-3.4091,41.2118,1819.4537],[-3.4024,41.2136,1909.8793],[-3.4041,41.218,1828.1409],[-3.4029,41.2282,1889.5691],[-3.4062,41.2336,1901.4266],[-3.3979,41.2433,1947.0306],[-3.4002,41.2493,1943.5288],[-3.3994,41.2545,2020.4067],[-3.4057,41.2596,1973.1346],[-3.4106,41.2599,1890.7667],[-3.4142,41.265,1730.8888],[-3.4151,41.2732,1559.5497],[-3.4097,41.2606,1893.1018],[-3.4061,41.2618,1939.2112],[-3.3942,41.257,1781.4305],[-3.3693,41.2604,1762.3679],[-3.3564,41.2562,1731.1243],[-3.3456,41.256,1737.9137],[-3.3363,41.253,1697.724],[-3.3304,41.2555,1619.3519],[-3.3299,41.2588,1572.8286],[-3.3227,41.2618,1540.4146],[-3.321,41.2606,1512.9841],[-3.3128,41.2617,1546.0972],[-3.3063,41.2606,1576.0894],[-3.3027,41.2577,1574.3645],[-3.2978,41.257,1604.0957],[-3.2901,41.2579,1643.5634],[-3.2878,41.2659,1600.7731],[-3.2757,41.275,1656.8995],[-3.271,41.2752,1584.178],[-3.2667,41.2719,1517.0144],[-3.259,41.2697,1447.1536],[-3.2548,41.2577,1439.4495],[-3.2378,41.2794,1343.0764],[-3.2398,41.283,1297.4127],[-3.24,41.2851,1311.6794],[-3.2378,41.2855,1342.2068],[-3.2389,41.2879,1289.6538],[-3.2262,41.2981,1398.3378],[-3.215,41.2984,1406.6886],[-3.2073,41.3042,1491.5121],[-3.2069,41.3068,1476.2096],[-3.2202,41.3106,1437.2799],[-3.2368,41.3185,1470.6068],[-3.2362,41.3303,1187.3069],[-3.2481,41.3301,1197.1135],[-3.2693,41.3415,1198.3351],[-3.2721,41.3527,1153.7424],[-3.281,41.3519,1179.3884],[-3.2882,41.3602,1164.2903],[-3.3027,41.3631,1166.4985],[-3.3059,41.3683,1138.5061],[-3.3292,41.3763,1111.2009],[-3.3412,41.3915,1077.9954],[-3.3505,41.3949,1067.5315],[-3.3471,41.397,1071.842],[-3.3471,41.4045,1062.6475],[-3.3492,41.4072,1059.0247],[-3.3464,41.4139,1044.0181],[-3.3416,41.417,1050.1448],[-3.3413,41.4233,1051.8889],[-3.346,41.429,1043.9161],[-3.34,41.4445,1031.8619],[-3.3389,41.4529,1066.2285],[-3.3303,41.4607,1074.0074],[-3.3342,41.4619,1071.5637],[-3.335,41.4601,1061.3518],[-3.3473,41.4581,1069.6797],[-3.3466,41.4568,1080.5326],[-3.3482,41.4565,1075.767],[-3.3563,41.463,1064.7515],[-3.3628,41.4621,1053.8414],[-3.3625,41.4652,1053.9626],[-3.3649,41.4676,1056.3984],[-3.3672,41.4653,1052.1317],[-3.3771,41.4643,1065.02],[-3.384,41.4657,1056.7327],[-3.3903,41.4707,1050.0247],[-3.4033,41.476,1048.1072],[-3.4132,41.4761,1053.1456],[-3.424,41.4827,1052.9937],[-3.4264,41.4978,1050.1709],[-3.4227,41.5035,1049.0416],[-3.4206,41.5127,1014.2897],[-3.4244,41.5167,1032.0608],[-3.4322,41.5187,1040.7932],[-3.4423,41.5243,1034.1541],[-3.4517,41.5325,1031.7833],[-3.4515,41.5339,1033.0818],[-3.4559,41.5347,1027.6302],[-3.458,41.5368,1031.0254],[-3.4643,41.5278,1031.8674],[-3.4796,41.5209,1038.4368],[-3.4851,41.5241,1033.6506],[-3.5019,41.5292,1025.1823],[-3.5188,41.5393,1022.1369],[-3.5248,41.5451,1020.7622],[-3.5348,41.5487,1001.4609],[-3.5383,41.552,980.5933],[-3.5366,41.5595,1020.7517],[-3.5438,41.5721,981.7078],[-3.5415,41.5776,938.006],[-3.5464,41.5801,948.06],[-3.5529,41.5807,952.6716],[-3.5629,41.5774,964.6353],[-3.5664,41.58,923.3727],[-3.5709,41.5774,934.3749],[-3.5745,41.5725,947.9948],[-3.5711,41.5687,963.9875],[-3.5726,41.5654,973.4839],[-3.6007,41.5705,935.8539],[-3.6046,41.5656,929.1621],[-3.6087,41.5661,931.6552],[-3.6168,41.5771,915.015],[-3.6261,41.57,898.3546],[-3.6452,41.5721,915.9504],[-3.6717,41.5604,915.3671],[-3.6754,41.5544,888.4858],[-3.6813,41.552,917.1313],[-3.6915,41.5345,974.3621],[-3.6982,41.5341,967.4637],[-3.7068,41.5302,992.5366],[-3.7068,41.5259,999.176],[-3.7166,41.524,928.2877],[-3.7282,41.5176,928.259],[-3.7248,41.5078,958.1671],[-3.7281,41.5028,968.8258],[-3.7265,41.4954,995.1825],[-3.729,41.4839,1056.9282],[-3.7236,41.4792,1070.8884],[-3.7323,41.4699,1123.9189],[-3.729,41.4576,1352.5994],[-3.7394,41.4508,1326.0389],[-3.7441,41.4611,1151.2917],[-3.7697,41.4601,1138.6237],[-3.7715,41.4706,1114.6864],[-3.7704,41.4893,1052.619],[-3.7685,41.4937,1040.8359],[-3.7708,41.4996,1009.3121],[-3.7669,41.5066,1022.8242],[-3.7695,41.5109,1006.9288],[-3.7696,41.5179,980.3368],[-3.7714,41.5214,964.8381],[-3.7658,41.5368,887.5102],[-3.7677,41.539,879.028],[-3.7828,41.5306,965.7246],[-3.7878,41.5312,921.0847],[-3.8035,41.5267,964.0583],[-3.8041,41.5163,975.1559],[-3.7991,41.509,992.8449],[-3.8021,41.5044,996.3696],[-3.8031,41.4964,1012.0459],[-3.794,41.4915,1032.3364],[-3.7876,41.4859,1051.5393],[-3.7959,41.4845,1043.4489],[-3.8001,41.4859,1031.9725],[-3.8238,41.4811,1021.8344],[-3.834,41.4996,979.8105],[-3.8422,41.5006,974.1238],[-3.8527,41.5125,953.6951],[-3.8636,41.529,941.6974],[-3.8679,41.5325,937.9437],[-3.8751,41.5347,938.1555],[-3.8828,41.534,937.7343],[-3.8857,41.5323,935.2869],[-3.8945,41.5521,939.4664],[-3.9055,41.557,939.2387],[-3.9144,41.5634,938.0599],[-3.9286,41.5687,935.8626],[-3.9422,41.5691,934.1984],[-3.953,41.5734,928.4753],[-3.9604,41.578,933.26],[-3.9637,41.5861,860.7839],[-3.9806,41.5834,842.4993],[-3.9806,41.5745,826.7434],[-3.9854,41.5649,816.2271],[-3.9938,41.556,926.1935],[-3.9936,41.5311,924.6485],[-3.9957,41.5211,924.9298],[-3.9998,41.5161,921.4083],[-4.0054,41.5157,913.2897],[-4.0066,41.5172,921.3258],[-4.0103,41.5158,901.1494],[-4.0114,41.5175,917.195],[-4.0182,41.5187,887.5735],[-4.0273,41.5178,870.8489],[-4.0363,41.5099,785.0752],[-4.0485,41.5079,888.9989],[-4.0524,41.5026,901.636],[-4.0564,41.5006,903.2728],[-4.0579,41.4973,897.1059],[-4.0652,41.4947,906.7243],[-4.0786,41.4954,903.6917],[-4.1086,41.4833,902.4044],[-4.1227,41.4804,900.3532],[-4.1203,41.4612,899.7445],[-4.1248,41.4543,890.5582],[-4.1238,41.4515,895.9943],[-4.1145,41.4426,878.5214],[-4.1104,41.4412,880.1603],[-4.112,41.4365,868.7501],[-4.1097,41.4339,866.2617],[-4.0944,41.4313,879.0997],[-4.0995,41.4249,885.2687],[-4.1003,41.421,881.8156],[-4.0969,41.4142,877.3982],[-4.1125,41.4088,851.5286],[-4.1164,41.4026,841.5109],[-4.1116,41.391,851.2085],[-4.1031,41.3803,876.0947],[-4.0902,41.3732,896.1141],[-4.0582,41.3346,874.6091],[-4.0686,41.322,880.2379],[-4.0344,41.2976,890.0507],[-4.0375,41.2916,892.2969],[-4.033,41.2922,891.975],[-4.0347,41.2886,892.1944],[-4.0328,41.2869,895.936],[-4.0346,41.2871,892.1944],[-4.0301,41.2816,894.6638],[-4.0348,41.28,896.5336],[-4.0341,41.2777,895.8979],[-4.0362,41.2755,892.7007],[-4.0344,41.2742,891.132],[-4.0267,41.2757,896.5759],[-4.0242,41.274,898.6036],[-4.0194,41.2746,900.5228],[-4.0134,41.2719,901.2359],[-4.0111,41.2629,909.0232],[-4.0172,41.2363,894.8508],[-4.0225,41.2355,892.9409],[-4.0354,41.2383,885.9409],[-4.0375,41.2401,883.5303],[-4.0407,41.2403,885.4173],[-4.0416,41.2386,892.7481],[-4.035,41.2355,884.1846],[-4.022,41.2342,885.9295],[-4.0225,41.2331,886.5637],[-4.0197,41.232,896.355],[-4.0192,41.2343,886.6703],[-4.0149,41.2328,893.1295],[-4.0144,41.2347,886.8809],[-4.0126,41.2319,895.9966],[-4.009,41.2327,896.6486],[-4.0087,41.2295,889.2386],[-4.0067,41.2283,892.6677],[-4.0053,41.2297,891.6229],[-4.0013,41.2277,892.5125],[-3.9989,41.2283,893.6002],[-3.9909,41.224,902.1401],[-3.9925,41.2217,895.0983],[-3.9896,41.2218,893.255],[-3.9883,41.219,898.4176],[-3.9911,41.2128,896.3588],[-3.9861,41.2107,893.9462],[-3.9806,41.2045,906.3818],[-3.979,41.2058,908.0277],[-3.9771,41.2056,903.9863],[-3.9776,41.2039,914.9327],[-3.9725,41.2031,908.887],[-3.9639,41.2043,903.3849],[-3.9625,41.2027,902.0734],[-3.9642,41.2009,904.048],[-3.9631,41.1986,906.4473],[-3.948,41.209,925.5],[-3.9421,41.2076,934.5992],[-3.9382,41.2008,935.5116],[-3.9332,41.2006,929.4863],[-3.9265,41.2087,939.4484],[-3.9048,41.2264,961.463],[-3.8861,41.2183,970.1257],[-3.88,41.2126,985.0339],[-3.8702,41.211,1022.2939],[-3.8646,41.2129,1035.616],[-3.8578,41.212,1031.7896],[-3.8569,41.2073,1035.5125],[-3.8392,41.2003,988.8227],[-3.8226,41.2003,1001.6484],[-3.8204,41.1979,1005.7449],[-3.8142,41.1988,1021.188],[-3.8098,41.203,1030.4022],[-3.806,41.2017,1043.197],[-3.7967,41.2035,1066.0262],[-3.7957,41.2082,1045.4109],[-3.7854,41.2164,1024.7965],[-3.7603,41.2154,1041.675],[-3.7585,41.2195,969.0393],[-3.7486,41.221,1013.6276]]]]}
,"properties": {"GID_3": "ESP.5.6.1_1","GID_0": "ESP","country": "Spain","GID_1": "ESP.5_1","province": "CastillayLeón","NL_NAME_1": "NA","GID_2": "ESP.5.6_1","county": "Segovia","NL_NAME_2": "NA","city": "n.a.(223)","VARNAME_3": "NA","NL_NAME_3": "NA","TYPE_3": "Comarca","ENGTYPE_3": "Comarca","CC_3": "NA","HASC_3": "NA","name": "n.a.(223).city","area_km2": 2134.484,"hist_schema_id": "Elevation0-9000","hist_area_km2": {"775": 0.81,"800": 10.403,"825": 18.415,"850": 53.213,"875": 106.437,"900": 163.435,"925": 188.301,"950": 187.511,"975": 212.984,"1000": 199.96,"1025": 193.79,"1050": 177.51,"1075": 117.158,"1100": 96.109,"1125": 79.965,"1150": 65.575,"1175": 52.154,"1200": 39.453,"1225": 28.273,"1250": 22.943,"1275": 18.408,"1300": 14.874,"1325": 11.42,"1350": 9.034,"1375": 7.792,"1400": 7.585,"1425": 6.454,"1450": 6.135,"1475": 4.893,"1500": 3.65,"1525": 3.411,"1550": 3.251,"1575": 3.076,"1600": 2.805,"1625": 2.582,"1650": 1.992,"1675": 1.865,"1700": 1.61,"1725": 1.53,"1750": 1.291,"1775": 1.291,"1800": 1.132,"1825": 0.829,"1850": 0.925,"1875": 0.829,"1900": 0.462,"1925": 0.446,"1950": 0.239,"1975": 0.175,"2000": 0.096}}}