{"type": "Feature","bbox": [-1.6713,37.5181,-1.2085,37.9424],"geometry": {"type": "MultiPolygon","coordinates": [[[[-1.266,37.5574,2.0129],[-1.269,37.5574,0.0],[-1.2701,37.5546,2.8398],[-1.2668,37.5546,6.1245],[-1.266,37.5574,2.0129]]],
[[[-1.4409,37.5397,155.0259],[-1.4327,37.5413,135.7688],[-1.3964,37.5181,2.8382],[-1.3926,37.5246,3.5299],[-1.384,37.5265,2.8826],[-1.3824,37.5301,3.8383],[-1.3779,37.5293,3.1425],[-1.376,37.5318,4.7644],[-1.3726,37.5318,0.0],[-1.3715,37.5354,3.4425],[-1.3635,37.5451,2.6318],[-1.3587,37.5474,0.7875],[-1.3562,37.5507,2.3968],[-1.3443,37.5543,0.0],[-1.3415,37.5565,2.7712],[-1.3321,37.5563,0.0],[-1.3312,37.5601,1.0502],[-1.3257,37.5627,10.3692],[-1.3201,37.5629,1.2777],[-1.319,37.5604,0.0],[-1.3154,37.5629,2.0444],[-1.3112,37.5629,2.1417],[-1.3009,37.5601,0.0],[-1.2888,37.5596,2.0177],[-1.2868,37.5588,3.5721],[-1.2874,37.5563,0.0],[-1.2843,37.5588,2.6379],[-1.2787,37.5582,0.0],[-1.2782,37.5596,0.499],[-1.2757,37.5588,1.068],[-1.2754,37.556,0.0],[-1.2729,37.5563,-0.0641],[-1.2721,37.5585,0.0],[-1.2696,37.5595,2.2857],[-1.2621,37.5571,17.9121],[-1.2543,37.5579,0.0],[-1.2532,37.5607,0.0],[-1.2549,37.5635,0.1871],[-1.2531,37.5654,0.0],[-1.256,37.5632,0.1871],[-1.2582,37.5657,2.9372],[-1.2538,37.571,4.8634],[-1.249,37.5718,1.2303],[-1.2474,37.5755,1.2698],[-1.2429,37.5774,5.1668],[-1.2262,37.576,6.1428],[-1.2259,37.5737,0.0],[-1.2214,37.5837,26.9497],[-1.2233,37.5883,37.2397],[-1.2152,37.5931,68.3466],[-1.216,37.5975,92.2404],[-1.2141,37.6011,127.3657],[-1.2089,37.6025,122.2244],[-1.2125,37.6087,124.4215],[-1.2088,37.6119,142.2742],[-1.2115,37.6181,160.2089],[-1.2091,37.6187,163.6857],[-1.2085,37.6211,173.8627],[-1.2162,37.6325,380.1994],[-1.2242,37.6353,291.6627],[-1.2495,37.6583,268.7243],[-1.2933,37.6734,267.0052],[-1.3119,37.6773,200.6961],[-1.3197,37.6927,218.6559],[-1.3261,37.6989,231.9284],[-1.3411,37.7241,220.9763],[-1.324,37.7258,215.6946],[-1.3126,37.7303,207.1272],[-1.306,37.7298,196.8782],[-1.2841,37.7375,189.3446],[-1.2729,37.7433,179.2801],[-1.275,37.7441,182.4449],[-1.277,37.7648,233.5059],[-1.2826,37.7798,287.9984],[-1.2893,37.7895,332.7982],[-1.2866,37.8076,445.3113],[-1.2865,37.8248,729.1675],[-1.2686,37.8483,1014.6267],[-1.2744,37.8785,239.8324],[-1.2823,37.9047,95.4227],[-1.2723,37.9115,90.864],[-1.2751,37.915,99.8651],[-1.288,37.9208,119.1464],[-1.2971,37.929,141.438],[-1.3159,37.9351,174.0738],[-1.3248,37.9353,204.7277],[-1.3376999999999999,37.9424,271.0078],[-1.3422,37.94,279.4586],[-1.3573,37.9386,341.8372],[-1.3589,37.9369,349.7666],[-1.3581,37.9327,378.3328],[-1.3612,37.9275,415.379],[-1.3703,37.9281,375.6628],[-1.3832,37.9192,282.0832],[-1.3922,37.9174,310.3763],[-1.4106,37.906,368.7356],[-1.4654,37.8993,482.6569],[-1.4807,37.8956,518.2994],[-1.4973,37.8886,665.1642],[-1.5039,37.8874,734.9171],[-1.5279,37.8889,1081.095],[-1.5323,37.888,1103.389],[-1.535,37.8853,1169.6372],[-1.5478,37.8858,1232.0543],[-1.5574,37.8887,1306.5729],[-1.5612,37.8867,1237.16],[-1.5648,37.8871,1144.7909],[-1.5751,37.8942,1114.3306],[-1.5884,37.8965,1183.7723],[-1.6011,37.8936,1088.1523],[-1.612,37.8887,885.5552],[-1.6416,37.8673,745.3109],[-1.6539,37.8603,858.0433],[-1.6652,37.8641,723.3715],[-1.6713,37.8248,659.8889],[-1.667,37.8101,618.4159],[-1.6639,37.8073,605.3375],[-1.6606,37.7979,606.195],[-1.6593,37.7883,571.5836],[-1.6626,37.7845,574.6418],[-1.6609,37.7818,559.2652],[-1.664,37.7755,549.2252],[-1.6628,37.7627,561.1956],[-1.6589,37.7538,583.5932],[-1.6452,37.7367,887.8813],[-1.6351,37.7399,890.0569],[-1.6299,37.7461,935.8934],[-1.624,37.7426,945.5842],[-1.6136,37.7492,964.1656],[-1.6069,37.7501,930.2129],[-1.5664,37.7391,311.1163],[-1.5506,37.7255,246.2073],[-1.5442,37.7076,246.3416],[-1.5137,37.6683,469.5612],[-1.5112,37.6676,505.6868],[-1.4759,37.6808,426.5428],[-1.4712,37.6794,373.0146],[-1.4621,37.6797,328.6149],[-1.453,37.6659,284.2419],[-1.4544,37.6615,304.3508],[-1.4569,37.6609,311.1714],[-1.4552,37.6565,342.5152],[-1.4522,37.6539,363.3761],[-1.4502,37.6545,376.079],[-1.4512,37.6522,366.1596],[-1.449,37.6513,421.783],[-1.4531,37.6499,389.7338],[-1.4521,37.6463,411.021],[-1.4541,37.6349,480.1361],[-1.4757,37.6291,633.0161],[-1.4613,37.6209,422.0927],[-1.4499,37.5953,506.6852],[-1.4463,37.5829,344.4081],[-1.4529,37.5731,329.3709],[-1.4576,37.5723,361.4971],[-1.4618,37.5625,336.3683],[-1.4543,37.5547,407.3843],[-1.4475,37.5525,179.2379],[-1.4409,37.5397,155.0259]]]]}
,"properties": {"GID_3": "ESP.18.1.3_1","GID_0": "ESP","country": "Spain","GID_1": "ESP.18_1","province": "RegióndeMurcia","NL_NAME_1": "NA","GID_2": "ESP.18.1_1","county": "Murcia","NL_NAME_2": "NA","city": "BajoGuadalentín","VARNAME_3": "NA","NL_NAME_3": "NA","TYPE_3": "Comarca","ENGTYPE_3": "Comarca","CC_3": "NA","HASC_3": "NA","name": "Bajo_Guadalentín.city","area_km2": 1024.7309,"hist_schema_id": "Elevation0-9000","hist_area_km2": {"0": 9.4291,"25": 17.4783,"50": 17.4932,"75": 20.8329,"100": 31.0588,"125": 39.2101,"150": 79.1792,"175": 103.6768,"200": 116.8238,"225": 93.0422,"250": 63.2623,"275": 44.8845,"300": 36.3955,"325": 29.6885,"350": 25.1281,"375": 20.0139,"400": 17.1296,"425": 13.6759,"450": 12.7203,"475": 11.3109,"500": 10.0862,"525": 8.6608,"550": 10.2186,"575": 13.4859,"600": 15.2116,"625": 16.3158,"650": 13.5172,"675": 11.305,"700": 10.9022,"725": 9.3605,"750": 9.3774,"775": 8.3896,"800": 7.9035,"825": 6.8655,"850": 6.3797,"875": 4.9901,"900": 4.6383,"925": 4.6548,"950": 4.6546,"975": 3.8505,"1000": 3.7165,"1025": 3.1639,"1050": 2.8291,"1075": 2.6114,"1100": 2.4607,"1125": 2.5443,"1150": 2.5276,"1175": 2.0422,"1200": 2.1425,"1225": 2.0756,"1250": 1.7743,"1275": 2.0086,"1300": 1.6403,"1325": 1.4227,"1350": 1.657,"1375": 1.6235,"1400": 1.2553,"1425": 1.1549,"1450": 0.7197,"1475": 0.8034,"1500": 0.7197,"1525": 0.3682,"1550": 0.2343,"1575": 0.0335}}}