{"type":"Feature","properties":{"GID_3":"ESP.6.3.1_1","GID_0":"ESP","country":"Spain","GID_1":"ESP.6_1","province":"Cataluña","NL_NAME_1":"NA","GID_2":"ESP.6.3_1","county":"Lleida","NL_NAME_2":"NA","city":"n.a.(159)","VARNAME_3":"NA","NL_NAME_3":"NA","TYPE_3":"Comarca","ENGTYPE_3":"Comarca","CC_3":"NA","HASC_3":"NA","name":"n.a.(159).city"},
"geometry":{"type": "MultiPolygon","coordinates": [[[[0.9865,42.7863,2534.8882],[0.9845,42.7862,2572.4258],[0.9604,42.8052,2672.6484],[0.9473,42.801,2582.0347],[0.9331,42.7909,2481.5134],[0.9355,42.7888,2655.0339],[0.9258,42.7897,2518.9839],[0.9077,42.797,2460.2637],[0.9072,42.7986,2547.303],[0.885,42.8131,2682.6626],[0.8708,42.8156,2594.7676],[0.8609,42.8213,2550.0613],[0.8583,42.8257,2574.6929],[0.8329,42.8283,2081.3491],[0.8015,42.8405,1972.7314],[0.7867,42.836,1726.2151],[0.7788,42.8361,1720.4432],[0.7355,42.8488,611.0806],[0.7348,42.8522,583.6271],[0.7304,42.8557,801.4692],[0.7184,42.8588,1383.2174],[0.7159,42.858,1534.385],[0.7082,42.8613,1711.395],[0.6908,42.8549,1824.4542],[0.6783,42.8551,2119.314],[0.6787,42.8483,2105.8706],[0.6626,42.8411,2042.5265],[0.6592,42.8354,1997.1385],[0.6625,42.8285,1952.8198],[0.6701,42.8244,1902.5453],[0.6705,42.8216,1881.0592],[0.6669,42.8191,1892.3292],[0.6652,42.8143,1942.8062],[0.6713,42.8059,1989.1051],[0.6702,42.802,1881.2715],[0.66,42.7984,1976.0897],[0.6523,42.7877,1797.3119],[0.6449,42.7831,1873.6105],[0.6614,42.776,1521.0459],[0.6683,42.7748,1420.4691],[0.6625,42.77,1304.5331],[0.6565,42.7679,1322.4838],[0.6419,42.7548,1927.5653],[0.6599,42.7522,2006.6166],[0.6634,42.7498,2028.5518],[0.6634,42.7455,2050.5125],[0.6669,42.7412,2109.1702],[0.6701,42.7327,2093.426],[0.6802,42.7233,2186.1792],[0.6756,42.7213,2000.087],[0.6751,42.7172,1890.1893],[0.6779,42.7122,2003.8123],[0.682,42.7091,2086.1145],[0.675,42.6954,2333.0869],[0.6763,42.6911,2419.0752],[0.6687,42.6889,2384.041],[0.6646,42.6911,2493.8711],[0.6601,42.691,2538.1643],[0.66,42.6884,2493.2847],[0.6659,42.6827,2453.0332],[0.6713,42.6812,2547.6128],[0.6734,42.6791,2533.9731],[0.6758,42.6711,2558.116],[0.6797,42.6688,2571.2502],[0.6805,42.6663,2546.9241],[0.687,42.6643,2362.2449],[0.6919,42.6594,2490.897],[0.6951,42.6587,2627.22],[0.6998,42.6328,2903.9014],[0.6983,42.6293,2947.707],[0.7084,42.6212,2731.4731],[0.7174,42.6196,2769.0864],[0.7232,42.6165,2779.9233],[0.7318,42.6156,2648.1511],[0.7364,42.613,2581.0474],[0.7397,42.6126,2525.1917],[0.7439,42.6154,2499.1943],[0.7491,42.6128,2326.6121],[0.7675,42.6113,1532.7827],[0.8056,42.619,2696.0278],[0.8126,42.6187,2734.499],[0.8131,42.6151,2817.6973],[0.8216,42.6124,2656.5796],[0.8257,42.6057,2858.489],[0.8313,42.6092,2590.3315],[0.8399,42.6091,2659.5776],[0.8458,42.6155,2667.9209],[0.8564,42.6213,2518.23],[0.8675,42.623,2566.6404],[0.8738,42.6263,2481.1646],[0.8777,42.6325,2697.8281],[0.8819,42.6314,2683.8726],[0.8846,42.6279,2587.3657],[0.8952,42.6261,2603.2231],[0.8964,42.6239,2602.3765],[0.8942,42.6149,2648.4189],[0.8912,42.6124,2626.0688],[0.9121,42.6067,2684.0781],[0.918,42.5934,2828.0889],[0.9434,42.5892,2740.4236],[0.9533,42.5946,2761.0994],[0.9537,42.6018,2722.4583],[0.9664,42.6039,2501.9971],[0.9691,42.61,2341.8157],[0.9686,42.6151,2336.0234],[0.9632,42.6162,2325.073],[0.9588,42.625,2206.4094],[0.9619,42.6312,2078.8318],[0.9642,42.6315,2101.1699],[0.9706,42.6399,1914.4375],[0.9726,42.6455,1831.9521],[0.9727,42.6504,1808.2819],[0.9693,42.6592,1677.8605],[0.983,42.6633,2067.7363],[0.9791,42.6663,2059.7505],[0.9772,42.6752,2253.9392],[0.9865,42.684,2520.9937],[0.9756,42.6926,2454.0454],[0.9799,42.6977,2114.2126],[0.9932,42.7008,2317.2896],[1.0053,42.7127,2576.4731],[1.011,42.7094,2584.7075],[1.0276,42.7097,2532.1843],[1.0263,42.717,2449.5637],[1.0213,42.7268,2132.001],[1.0286,42.7327,2009.3698],[1.0269,42.7425,1890.0867],[1.0322,42.7543,1709.8955],[1.0274,42.7599,1635.1711],[1.029,42.7641,1857.9133],[1.0261,42.7672,1927.3401],[1.0277,42.7711,2040.8757],[1.0309,42.7727,2075.7949],[1.0305,42.7756,2128.8845],[1.0368,42.7859,2496.3162],[1.0322,42.7867,2544.0449],[1.0312,42.7852,2527.4072],[1.0175,42.7871,2621.5103],[1.0071,42.7902,2612.6748],[0.9865,42.7863,2534.8882]]]]}}