{"type":"Feature","properties":{"GID_3":"ESP.5.5.3_1","GID_0":"ESP","country":"Spain","GID_1":"ESP.5_1","province":"CastillayLeón","NL_NAME_1":"NA","GID_2":"ESP.5.5_1","county":"Salamanca","NL_NAME_2":"NA","city":"n.a.(214)","VARNAME_3":"NA","NL_NAME_3":"NA","TYPE_3":"Comarca","ENGTYPE_3":"Comarca","CC_3":"NA","HASC_3":"NA","name":"n.a.(214).city"},
"geometry":{"type": "MultiPolygon","coordinates": [[[[-5.6614,40.4826,1018.9793],[-5.6714,40.4833,1032.0072],[-5.6719,40.4855,1036.9412],[-5.6777,40.4895,1016.51],[-5.6795,40.4892,1021.4298],[-5.6824,40.4925,1022.2866],[-5.6848,40.4922,1032.6804],[-5.6829,40.5014,979.3696],[-5.6746,40.5057,971.2861],[-5.672,40.5088,970.3314],[-5.67,40.5152,972.4141],[-5.6657,40.5192,989.2297],[-5.6667,40.5221,974.9296],[-5.6743,40.524,943.8152],[-5.669,40.5296,928.8046],[-5.6573,40.5341,909.2098],[-5.6394,40.5376,916.4072],[-5.6358,40.5363,893.1349],[-5.6316,40.5433,874.0],[-5.6305,40.5351,874.5],[-5.6269,40.5322,874.5],[-5.6153,40.5279,881.5345],[-5.6089,40.5221,876.1417],[-5.5967,40.5222,887.8721],[-5.5875,40.5206,889.804],[-5.587,40.5166,880.9986],[-5.5802,40.5132,903.3921],[-5.5714,40.5134,899.4303],[-5.5637,40.5113,899.9714],[-5.559,40.5123,907.5],[-5.5507,40.5096,908.3702],[-5.5482,40.5072,907.5],[-5.5426,40.5081,935.0596],[-5.5372,40.5114,956.761],[-5.5328,40.5213,1005.116],[-5.5233,40.53,1058.6561],[-5.525,40.5356,1067.8838],[-5.5226,40.54,1071.1113],[-5.5264,40.5416,1077.6422],[-5.526,40.5487,1161.9958],[-5.529,40.5506,1205.6125],[-5.5286,40.5541,1119.8768],[-5.5182,40.5638,1018.4974],[-5.5159,40.5705,1000.9911],[-5.5175,40.5733,1003.6661],[-5.5161,40.5854,953.8452],[-5.51,40.5904,1003.9326],[-5.5058,40.59,1023.572],[-5.5008,40.5974,1009.3112],[-5.4988,40.5899,1034.3135],[-5.4995,40.5816,988.8997],[-5.4877,40.5833,1030.354],[-5.4856,40.5816,1039.8337],[-5.4667,40.5804,1063.6973],[-5.4642,40.5797,1096.7328],[-5.4643,40.5776,1099.9152],[-5.4475,40.5796,1131.762],[-5.4461,40.5858,1089.9333],[-5.4428,40.5869,1104.151],[-5.4408,40.59,1073.9189],[-5.4387,40.5889,1088.119],[-5.4335,40.5909,1086.3151],[-5.4293,40.5958,1056.1976],[-5.4241,40.5975,1067.8334],[-5.4226,40.6053,1021.7875],[-5.412,40.6104,1071.9067],[-5.4085,40.6089,1084.583],[-5.402,40.6095,1059.6785],[-5.3923,40.618899999999996,1069.0715],[-5.3865,40.6198,1092.8069],[-5.3844,40.622,1106.9491],[-5.3828,40.6208,1112.0352],[-5.3791,40.6272,1102.1624],[-5.3816,40.6307,1089.2837],[-5.3731,40.6388,1064.2756],[-5.3783,40.6455,1046.028],[-5.3658,40.6488,1077.7427],[-5.3857,40.6633,1014.063],[-5.3869,40.6693,953.823],[-5.3853,40.6715,961.7691],[-5.3805,40.6716,981.6217],[-5.3776,40.6778,1003.4254],[-5.3684,40.681,997.2156],[-5.3701,40.6875,987.8611],[-5.3753,40.6958,971.3151],[-5.3727,40.6978,965.1858],[-5.3765,40.6987,970.8601],[-5.3831,40.7064,954.7425],[-5.3808,40.7141,943.0519],[-5.3676,40.7177,918.8292],[-5.3587,40.7227,891.8663],[-5.353,40.723,916.7577],[-5.3426,40.7201,944.0536],[-5.3356,40.7205,942.204],[-5.327,40.7245,943.1126],[-5.3289,40.7274,928.3016],[-5.3276,40.7324,916.6434],[-5.3297,40.7362,912.0613],[-5.3343,40.7387,907.5612],[-5.3346,40.7485,894.1851],[-5.3372,40.7541,893.5708],[-5.3477,40.7566,879.0979],[-5.3507,40.7607,873.2625],[-5.3548,40.7589,884.8719],[-5.3555,40.7605,894.2751],[-5.3453,40.7661,864.5005],[-5.3286,40.7864,910.3546],[-5.3281,40.7921,918.728],[-5.3318,40.7981,910.8739],[-5.3372,40.8002,908.6668],[-5.3376,40.8032,908.1336],[-5.3359,40.8049,907.3831],[-5.3444,40.8101,893.3973],[-5.3459,40.8161,877.2208],[-5.3447,40.8171,874.9438],[-5.3602,40.8242,876.436],[-5.3659,40.8309,876.0071],[-5.3704,40.8293,883.9447],[-5.3741,40.8307,886.8506],[-5.3847,40.8431,861.5912],[-5.3881,40.8424,862.4037],[-5.3915,40.8471,856.5927],[-5.3957,40.8475,848.8792],[-5.3952,40.857,846.7804],[-5.3888,40.8603,845.9965],[-5.3903,40.8609,846.3563],[-5.3883,40.863,854.9919],[-5.3847,40.8628,842.0736],[-5.3846,40.8613,841.8042],[-5.3788,40.8615,847.1503],[-5.3716,40.8653,832.6526],[-5.3705,40.8638,832.6526],[-5.3658,40.8628,833.1729],[-5.3636,40.8653,833.4019],[-5.3564,40.8676,860.2148],[-5.3518,40.8668,861.2477],[-5.3435,40.8745,873.3624],[-5.342,40.8731,877.7455],[-5.3342,40.8769,877.1652],[-5.3327,40.8752,874.4719],[-5.3289,40.8769,886.3723],[-5.3263,40.8806,890.9313],[-5.3287,40.8856,883.0996],[-5.3317,40.8849,887.7752],[-5.3321,40.8869,886.3948],[-5.3358,40.8888,878.5651],[-5.3352,40.8926,870.5425],[-5.3394,40.8893,873.6438],[-5.3434,40.8906,884.799],[-5.3425,40.8925,881.9107],[-5.3442,40.8907,884.799],[-5.3448,40.8925,875.597],[-5.347,40.8928,877.7418],[-5.3506,40.8913,885.4082],[-5.355,40.8923,871.5609],[-5.3556,40.8938,863.4343],[-5.3585,40.8936,858.7682],[-5.3591,40.8922,858.7682],[-5.363,40.8929,860.7069],[-5.3653,40.8935,857.5419],[-5.3631,40.8954,864.0125],[-5.3642,40.896,865.5259],[-5.37,40.8947,838.295],[-5.37,40.8977,843.3654],[-5.3733,40.8981,840.6002],[-5.3739,40.9008,833.9515],[-5.3778,40.8979,842.7091],[-5.3839,40.9019,824.5421],[-5.3949,40.896,819.3268],[-5.4016,40.899,838.4999],[-5.4015,40.9012,838.3955],[-5.4107,40.9084,840.2437],[-5.4113,40.9116,844.776],[-5.4157,40.9117,846.4847],[-5.4225,40.9155,856.8403],[-5.4239,40.913,862.1087],[-5.4279,40.9156,841.3313],[-5.432,40.9153,833.3093],[-5.4423,40.8998,848.0662],[-5.4548,40.8891,812.0831],[-5.4616,40.8913,825.5381],[-5.4719,40.8876,838.0634],[-5.4731,40.8907,846.0861],[-5.4811,40.8948,810.0284],[-5.4799,40.8993,800.0403],[-5.4821,40.8951,810.0284],[-5.4924,40.8901,796.1998],[-5.4943,40.8858,794.8673],[-5.4958,40.8661,795.5],[-5.499,40.8614,797.7497],[-5.5058,40.8612,826.9921],[-5.5099,40.8594,841.0045],[-5.5101,40.861,858.0123],[-5.5265,40.8662,896.1224],[-5.53,40.866,896.3253],[-5.5347,40.8601,894.391],[-5.5493,40.8562,921.9722],[-5.5561,40.8597,911.3408],[-5.5533,40.8673,881.3406],[-5.5474,40.8753,885.3862],[-5.5444,40.8753,891.9608],[-5.5406,40.8863,861.4644],[-5.5274,40.8924,840.8878],[-5.5237,40.8977,832.0425],[-5.5252,40.8996,818.3876],[-5.5237,40.9024,814.5243],[-5.53,40.9059,839.5687],[-5.5356,40.9051,842.9961],[-5.5374,40.9074,841.2843],[-5.5395,40.906,842.8714],[-5.5486,40.9116,838.9718],[-5.5523,40.9107,837.7311],[-5.5527,40.9157,835.1704],[-5.5599,40.9183,832.9807],[-5.5646,40.917,833.8479],[-5.5681,40.92,827.9587],[-5.5706,40.9184,828.8766],[-5.5713,40.9205,827.4886],[-5.5738,40.918,829.3763],[-5.5764,40.9211,826.4039],[-5.5842,40.9205,830.9753],[-5.5846,40.9227,830.2773],[-5.5872,40.9231,830.9913],[-5.5905,40.9271,824.3153],[-5.5942,40.9246,829.5689],[-5.594,40.9173,836.2806],[-5.5979,40.9179,836.6254],[-5.6003,40.9164,834.9134],[-5.6033,40.9193,816.7858],[-5.6059,40.9171,827.5403],[-5.6018,40.9133,847.6871],[-5.6026,40.9105,833.4663],[-5.6058,40.9105,819.1769],[-5.604,40.9059,839.9123],[-5.6092,40.9033,836.6635],[-5.609,40.8968,832.8111],[-5.6143,40.8952,837.8638],[-5.6151,40.8897,851.5303],[-5.6179,40.8909,846.2489],[-5.6191,40.889,857.4932],[-5.6113,40.885,862.4846],[-5.6233,40.8757,872.7774],[-5.6249,40.8717,894.6454],[-5.6309,40.8692,902.5037],[-5.6286,40.8557,910.8177],[-5.6316,40.8518,904.6368],[-5.624,40.8476,917.3266],[-5.627,40.847,900.329],[-5.6248,40.843,924.5307],[-5.6268,40.8392,937.4055],[-5.6252,40.8367,924.7612],[-5.6216,40.8373,931.9297],[-5.6242,40.8335,931.8401],[-5.6228,40.8301,942.6242],[-5.6133,40.823,990.2748],[-5.6164,40.8176,999.6479],[-5.62,40.8178,994.6207],[-5.6302,40.8128,999.3212],[-5.6312,40.8157,988.0562],[-5.6416,40.8184,960.8676],[-5.6429,40.8214,953.2267],[-5.6489,40.8239,928.9637],[-5.6559,40.8185,925.3854],[-5.6622,40.8195,942.3871],[-5.6656,40.8167,942.4745],[-5.6744,40.8008,983.7471],[-5.673,40.7985,999.5795],[-5.6742,40.7956,989.9023],[-5.6695,40.7924,991.3829],[-5.6724,40.7901,984.6841],[-5.6784,40.7896,986.7923],[-5.6805,40.7912,990.8477],[-5.6952,40.7851,997.2458],[-5.702,40.781,1000.0441],[-5.7037,40.7778,989.461],[-5.7099,40.7786,988.3121],[-5.7147,40.7752,1001.7621],[-5.7135,40.7721,1004.0195],[-5.7153,40.7688,1000.4747],[-5.7136,40.7678,994.7834],[-5.7233,40.7679,976.0161],[-5.7227,40.7654,986.73],[-5.7259,40.7649,976.7189],[-5.7288,40.761,966.7422],[-5.7319,40.7631,971.3571],[-5.7314,40.7657,973.1831],[-5.736,40.7647,977.5786],[-5.7349,40.7625,970.9862],[-5.7391,40.7621,980.0153],[-5.7436,40.754,1000.9963],[-5.7392,40.7521,1003.4811],[-5.7413,40.7481,997.423],[-5.7377,40.7451,981.7502],[-5.7346,40.7328,929.7449],[-5.7489,40.7335,937.4012],[-5.7505,40.7318,930.2034],[-5.7549,40.7315,936.5429],[-5.7562,40.7297,944.8099],[-5.7582,40.7299,945.9722],[-5.7632,40.7223,975.1302],[-5.7666,40.7207,980.6082],[-5.764,40.7014,977.3432],[-5.7695,40.6884,1066.485],[-5.7618,40.6818,1138.4866],[-5.75,40.6771,1033.4141],[-5.7384,40.668,998.5714],[-5.7322,40.6553,957.4644],[-5.7258,40.6515,940.1892],[-5.7247,40.6483,917.2986],[-5.7364,40.6415,935.6856],[-5.7362,40.637,934.9336],[-5.7584,40.6442,953.1016],[-5.761,40.6391,934.3559],[-5.7784,40.642,961.5764],[-5.7844,40.6412,922.4531],[-5.7923,40.6449,937.5182],[-5.8022,40.6425,926.9515],[-5.8015,40.6414,921.9203],[-5.8052,40.6403,916.0995],[-5.8048,40.6385,906.2931],[-5.8116,40.6349,913.3765],[-5.8129,40.6323,909.9211],[-5.7992,40.6218,898.7985],[-5.7961,40.6101,901.0389],[-5.7919,40.6075,924.6451],[-5.7873,40.6015,912.8536],[-5.7711,40.5974,917.1837],[-5.7692,40.5947,923.2319],[-5.7717,40.5794,1003.0305],[-5.7687,40.5723,1033.7119],[-5.7677,40.5536,973.5833],[-5.7706,40.5377,1087.7438],[-5.7669,40.5309,987.6564],[-5.7711,40.5237,934.4981],[-5.758,40.5214,981.3233],[-5.7186,40.5259,1096.0118],[-5.7197,40.5204,968.2177],[-5.7238,40.5144,910.6709],[-5.724,40.5078,888.2809],[-5.727,40.5045,892.0693],[-5.7193,40.5003,837.2766],[-5.7201,40.4901,821.8694],[-5.7044,40.4907,963.9388],[-5.7026,40.4862,994.9827],[-5.7072,40.4793,916.2851],[-5.7,40.4733,1112.5989],[-5.6982,40.4696,1183.5674],[-5.7003,40.4663,1117.373],[-5.6942,40.4631,1216.9429],[-5.6861,40.4604,1090.839],[-5.6773,40.4618,1038.4432],[-5.6618,40.4661,1021.433],[-5.6542,40.4698,997.5054],[-5.6505,40.4745,990.8256],[-5.6446,40.4749,951.163],[-5.6385,40.4775,978.2524],[-5.6412,40.48,980.4134],[-5.6545,40.4789,983.809],[-5.6614,40.4826,1018.9793]]]]}}