{"type": "Feature","bbox": [-5.406,39.715,-4.4971,40.2822],"geometry": {"type": "MultiPolygon","coordinates": [[[[-5.21,39.7927,313.6606],[-5.206,39.7977,316.4181],[-5.1719,39.7983,324.3665],[-5.1668,39.7999,315.7997],[-5.1674,39.7902,350.6409],[-5.1654,39.78,361.5774],[-5.1606,39.7712,394.7395],[-5.1583,39.7597,404.777],[-5.1643,39.7559,422.8179],[-5.1743,39.7552,455.0988],[-5.1737,39.7509,465.894],[-5.1625,39.7406,443.6604],[-5.1565,39.739,419.0964],[-5.1451,39.7265,461.9212],[-5.1377,39.715,470.5048],[-5.1251,39.7238,458.5611],[-5.109,39.7288,677.0029],[-5.0953,39.7385,472.8847],[-5.0952,39.7418,459.1192],[-5.0825,39.7417,479.4392],[-5.0779,39.7504,419.6531],[-5.0932,39.76,362.8999],[-5.0944,39.7645,352.0],[-5.0865,39.7711,352.0],[-5.0727,39.7748,367.9026],[-5.065,39.7735,360.8749],[-5.0506,39.7776,352.0],[-5.0317,39.7767,359.9382],[-5.0262,39.7821,352.0],[-5.013,39.7827,357.7736],[-5.0067,39.7868,370.6945],[-4.9918,39.7914,354.0511],[-4.9903,39.7945,356.4017],[-4.9941,39.7972,352.0],[-4.9941,39.802,352.0],[-5.0019,39.8048,352.0],[-4.9997,39.8097,352.0],[-4.9965,39.8129,352.0],[-4.9918,39.8139,353.2857],[-4.9815,39.8202,352.0],[-4.9752,39.8283,352.0],[-4.9702,39.831,352.0],[-4.9612,39.8318,352.0],[-4.9584,39.8349,352.0],[-4.9573,39.8435,352.0],[-4.9495,39.8488,352.0],[-4.9369,39.8502,352.0],[-4.9359,39.8473,387.498],[-4.9283,39.8421,445.4451],[-4.9129,39.8382,510.9212],[-4.902,39.8376,473.1311],[-4.9019,39.836,482.4244],[-4.9002,39.8371,481.3911],[-4.8938,39.8343,475.689],[-4.8905,39.8364,499.4791],[-4.8866,39.8354,469.6784],[-4.888,39.839,467.368],[-4.8849,39.8421,444.375],[-4.8843,39.8462,427.5463],[-4.8796,39.8419,439.194],[-4.8698,39.8415,467.2156],[-4.86,39.8358,498.6779],[-4.8516,39.8345,510.3156],[-4.8466,39.8364,485.8072],[-4.8438,39.8357,485.011],[-4.837,39.8286,520.3077],[-4.8027,39.8301,580.5604],[-4.8036,39.8285,582.7428],[-4.802,39.8277,582.7428],[-4.7746,39.8246,482.0954],[-4.7744,39.8208,475.3783],[-4.7703,39.8189,466.3279],[-4.7629,39.8085,522.1812],[-4.7573,39.806,578.1835],[-4.7551,39.8031,592.765],[-4.7462,39.7793,615.1597],[-4.7381,39.786,595.0791],[-4.7333,39.7963,582.161],[-4.7286,39.8014,571.5782],[-4.716,39.8133,563.4185],[-4.7073,39.8159,550.0214],[-4.6969,39.8265,540.2448],[-4.6886,39.841,536.0684],[-4.6725,39.8558,508.0741],[-4.6619,39.8706,492.0266],[-4.6565,39.8698,493.5303],[-4.6375,39.8571,465.6332],[-4.6167,39.8507,477.0895],[-4.6056,39.8452,485.7873],[-4.5889,39.8436,485.2954],[-4.5815,39.8387,490.6328],[-4.5692,39.8596,465.0342],[-4.5526,39.8562,444.9454],[-4.5409,39.8688,441.5464],[-4.5303,39.8648,446.7512],[-4.5215,39.8637,447.32],[-4.5174,39.8613,424.3465],[-4.5089,39.8634,417.6499],[-4.4971,39.8817,389.1764],[-4.5018,39.8843,387.7343],[-4.5046,39.8883,391.5464],[-4.5027,39.8999,388.6447],[-4.5048,39.902,390.0136],[-4.5113,39.902,390.3978],[-4.5209,39.8985,390.5981],[-4.5247,39.901,391.9116],[-4.5248,39.9048,400.5106],[-4.5284,39.905,396.3394],[-4.5328,39.9118,423.0134],[-4.5303,39.9137,429.2137],[-4.5264,39.9238,493.3785],[-4.51,39.9388,550.9705],[-4.5098,39.9417,548.6083],[-4.5166,39.9438,544.9041],[-4.5335,39.9607,522.6912],[-4.5381,39.9608,512.8745],[-4.541,39.9577,494.9552],[-4.5416,39.9593,505.3901],[-4.5451,39.9598,508.546],[-4.5481,39.9586,497.7184],[-4.5473,39.9618,506.5466],[-4.5613,39.9603,491.8854],[-4.5654,39.963,491.9843],[-4.5694,39.9631,489.3438],[-4.5718,39.961,486.0564],[-4.5724,39.9624,489.6713],[-4.5825,39.9624,462.3315],[-4.587,39.9605,454.2127],[-4.592,39.9646,442.7314],[-4.59,39.9655,451.3896],[-4.5914,39.97,464.7359],[-4.5852,39.9705,469.3187],[-4.5893,39.9728,474.4164],[-4.5896,39.9748,477.1685],[-4.5944,39.9765,475.0355],[-4.5945,39.9796,474.2966],[-4.597,39.9816,472.8676],[-4.5977,39.9895,458.8289],[-4.601,39.993899999999996,472.6991],[-4.5989,39.9948,469.4711],[-4.6009,39.9987,462.9789],[-4.5984,39.9997,454.5919],[-4.5985,40.002,447.088],[-4.5961,40.0037,433.2517],[-4.5939,40.0015,435.207],[-4.5917,40.0051,452.5921],[-4.5998,40.0146,452.4571],[-4.602,40.0246,425.9522],[-4.6044,40.0259,447.9726],[-4.6071,40.0313,443.4447],[-4.6104,40.0314,420.6631],[-4.609,40.0334,434.0696],[-4.6155,40.0364,418.086],[-4.6157,40.0382,426.4581],[-4.6192,40.0392,419.9025],[-4.6215,40.0422,416.456],[-4.6182,40.0454,402.6547],[-4.6227,40.0494,393.7467],[-4.6261,40.056,395.4828],[-4.6173,40.0569,395.6598],[-4.609,40.0598,391.6304],[-4.6031,40.0699,390.1329],[-4.6056,40.0728,392.4208],[-4.6052,40.0823,399.0913],[-4.6016,40.0835,403.3846],[-4.5981,40.0895,403.0689],[-4.5911,40.0906,435.6484],[-4.5846,40.1031,421.4276],[-4.5851,40.1042,412.7536],[-4.5904,40.1032,412.1199],[-4.5847,40.1076,431.7986],[-4.5838,40.111,440.5139],[-4.5882,40.1235,450.0499],[-4.5918,40.1285,479.2291],[-4.591,40.1299,488.1701],[-4.577,40.1321,448.3292],[-4.5796,40.1351,469.9369],[-4.5787,40.1376,468.5592],[-4.5695,40.1432,568.5676],[-4.5677,40.1426,571.0045],[-4.5603,40.1596,639.0291],[-4.5519,40.171,598.953],[-4.5502,40.1805,633.3465],[-4.5579,40.185,635.3291],[-4.5569,40.1901,653.2594],[-4.5582,40.1914,668.7269],[-4.557,40.1948,677.2138],[-4.5504,40.2019,762.8632],[-4.5751,40.2071,933.0973],[-4.5725,40.213,947.0231],[-4.5789,40.2174,1009.3795],[-4.5866,40.2163,1031.8726],[-4.5925,40.2114,1010.3834],[-4.6002,40.2082,1028.5498],[-4.6042,40.2082,1031.4891],[-4.6068,40.205,1002.0261],[-4.6112,40.204,1016.4821],[-4.6136,40.2012,986.1467],[-4.6168,40.2002,953.7574],[-4.6298,40.2018,791.7498],[-4.6357,40.2005,730.8668],[-4.64,40.1973,715.9659],[-4.6539,40.1982,633.0088],[-4.6577,40.1997,604.233],[-4.6627,40.2061,584.3825],[-4.6737,40.2097,539.5968],[-4.6792,40.207,539.7463],[-4.6866,40.211,570.8683],[-4.6861,40.2185,602.0098],[-4.6895,40.2293,827.2674],[-4.6865,40.2358,644.9614],[-4.6936,40.2411,599.6085],[-4.6871,40.2496,559.2303],[-4.6928,40.2539,552.0248],[-4.7017,40.2572,536.2023],[-4.7025,40.2636,527.2697],[-4.694,40.2664,541.8998],[-4.698,40.2822,499.9484],[-4.7136,40.2808,490.4745],[-4.712,40.276,552.4508],[-4.7274,40.2735,505.4187],[-4.7285,40.2705,480.9382],[-4.7425,40.2753,472.1677],[-4.7532,40.2641,439.1325],[-4.7611,40.2609,434.8151],[-4.778,40.2656,440.5177],[-4.7816,40.2674,470.9876],[-4.7832,40.2702,483.1627],[-4.7888,40.2721,547.3048],[-4.8041,40.2751,608.0235],[-4.8076,40.271,578.2311],[-4.807,40.2678,521.9163],[-4.8112,40.264,498.6974],[-4.8099,40.2594,458.384],[-4.8181,40.2548,435.2008],[-4.8132,40.2495,425.8702],[-4.811,40.2438,419.5708],[-4.8119,40.2406,414.4316],[-4.8101,40.2409,414.4316],[-4.8076,40.2353,408.1489],[-4.8224,40.2295,402.1813],[-4.8208,40.2234,399.6731],[-4.8353,40.2125,398.205],[-4.8402,40.21,403.0257],[-4.8493,40.209,399.8922],[-4.8596,40.2035,394.6713],[-4.862,40.2052,393.3821],[-4.8752,40.1978,388.9087],[-4.8782,40.1903,391.4957],[-4.8844,40.191,387.0834],[-4.8965,40.1851,385.3577],[-4.9102,40.1755,385.0239],[-4.9246,40.17,384.5534],[-4.9236,40.165,402.2973],[-4.918,40.1553,471.9279],[-4.9253,40.136,569.1322],[-4.9457,40.1326,572.9732],[-4.9562,40.1334,579.7317],[-4.9592,40.1305,584.1101],[-4.9553,40.1262,581.1602],[-4.9588,40.1261,551.0174],[-4.9544,40.1211,550.5721],[-4.9708,40.1198,644.3651],[-4.9823,40.1154,630.057],[-4.9891,40.1159,641.4287],[-5.0061,40.1097,550.926],[-5.0132,40.1111,536.2381],[-5.0076,40.1217,489.1692],[-5.0069,40.1312,446.6508],[-5.0137,40.1437,426.8014],[-5.0169,40.1458,412.9014],[-5.0184,40.1591,371.06],[-5.0338,40.1567,375.9181],[-5.042,40.1511,373.4741],[-5.0518,40.1515,384.2664],[-5.0569,40.1492,369.7554],[-5.0627,40.1516,370.2703],[-5.07,40.1488,363.1803],[-5.0737,40.1438,364.6863],[-5.0782,40.1412,364.5967],[-5.0776,40.1362,369.3875],[-5.085,40.1355,367.0266],[-5.0859,40.1261,360.8552],[-5.0889,40.1236,371.3617],[-5.0908,40.1236,362.7875],[-5.0945,40.1274,381.7995],[-5.1013,40.127,353.2737],[-5.1053,40.1187,413.8791],[-5.1247,40.1041,341.0697],[-5.1402,40.0967,341.4073],[-5.1401,40.093,344.2776],[-5.142,40.0915,348.2863],[-5.1491,40.0908,337.1038],[-5.1539,40.0929,330.8449],[-5.1715,40.0848,333.8376],[-5.185,40.088,324.2478],[-5.1922,40.0835,325.741],[-5.202,40.0829,321.9391],[-5.2066,40.0856,325.2264],[-5.2076,40.0896,317.3439],[-5.2116,40.0927,325.298],[-5.2103,40.1053,311.3091],[-5.2128,40.1069,313.7055],[-5.2492,40.1087,307.5],[-5.2606,40.1079,307.5],[-5.2671,40.1111,307.5],[-5.2706,40.1097,313.6854],[-5.2967,40.1101,307.5],[-5.3015,40.1074,307.5],[-5.3157,40.107,307.5],[-5.3359,40.1158,290.695],[-5.3386,40.1158,291.3041],[-5.3466,40.1111,287.7945],[-5.3593,40.1084,283.2726],[-5.3689,40.1001,283.6496],[-5.3671,40.0879,298.5211],[-5.3679,40.079,287.6915],[-5.3737,40.0593,285.5642],[-5.3658,40.0386,290.0345],[-5.364,40.0261,299.5765],[-5.3623,40.0111,290.7786],[-5.3656,39.9928,294.452],[-5.365,39.9839,289.4622],[-5.3727,39.9706,286.43],[-5.3823,39.9421,292.6506],[-5.3951,39.9169,292.6847],[-5.401,39.8857,320.8623],[-5.4046,39.883,324.8835],[-5.406,39.8777,323.1865],[-5.3938,39.8791,312.4097],[-5.3694,39.8884,311.5771],[-5.3263,39.892,334.489],[-5.3174,39.8908,336.8583],[-5.3107,39.8865,354.9064],[-5.31,39.8802,386.6076],[-5.2942,39.8749,372.218],[-5.292,39.8659,352.2011],[-5.2839,39.8639,338.8967],[-5.2834,39.8572,338.7512],[-5.2901,39.852,350.4053],[-5.2952,39.844,351.419],[-5.3064,39.8363,352.4898],[-5.3103,39.8313,363.6877],[-5.3125,39.8243,357.346],[-5.3131,39.8063,342.4284],[-5.3163,39.7966,362.388],[-5.3151,39.7887,301.3281],[-5.3112,39.7872,307.5851],[-5.3161,39.7728,322.8104],[-5.3145,39.7676,301.7331],[-5.3087,39.7604,326.9323],[-5.2951,39.7609,299.3792],[-5.2759,39.7566,301.3699],[-5.2668,39.7524,304.0224],[-5.2541,39.7526,310.5382],[-5.2446,39.7609,302.75],[-5.244,39.767,349.2903],[-5.2316,39.7746,314.9236],[-5.21,39.7927,313.6606]]]]}
,"properties": {"GID_3": "ESP.4.5.5_1","GID_0": "ESP","country": "Spain","GID_1": "ESP.4_1","province": "Castilla-LaMancha","NL_NAME_1": "NA","GID_2": "ESP.4.5_1","county": "Toledo","NL_NAME_2": "NA","city": "n.a.(258)","VARNAME_3": "NA","NL_NAME_3": "NA","TYPE_3": "Comarca","ENGTYPE_3": "Comarca","CC_3": "NA","HASC_3": "NA","name": "n.a.(258).city","area_km2": 2696.016,"hist_schema_id": "Elevation0-9000","hist_area_km2": {"275": 5.955,"300": 161.365,"325": 181.897,"350": 249.857,"375": 397.718,"400": 387.679,"425": 262.852,"450": 199.4,"475": 160.026,"500": 120.578,"525": 114.714,"550": 102.478,"575": 83.712,"600": 60.337,"625": 37.444,"650": 27.405,"675": 21.99,"700": 18.796,"725": 17.353,"750": 15.052,"775": 10.321,"800": 7.971,"825": 6.206,"850": 4.716,"875": 4.684,"900": 3.711,"925": 3.857,"950": 3.549,"975": 3.128,"1000": 2.706,"1025": 2.188,"1050": 1.88,"1075": 1.669,"1100": 1.702,"1125": 1.75,"1150": 1.475,"1175": 1.783,"1200": 1.783,"1225": 1.313,"1250": 1.07,"1275": 1.021,"1300": 0.567,"1325": 0.259,"1350": 0.081}}}