{"type":"Feature","properties":{"featurecla":"Lake Centerline","scalerank":5,"rivernum":165,"dissolve":"165Lake Centerline","name":"Tajo","name_alt":null,"note":null,"min_zoom":4.7,"strokeweig":0.2,"name_en":"Tajo","min_label":5.7},
"geometry":{"type": "LineString","coordinates": [[-2.733642578125,40.52826569218162,705.5],[-2.7327148437499891,40.52838776249412,705.5],[-2.7214843749999891,40.536737371869116,705.5],[-2.7073242187499891,40.551874090619116,706.2117],[-2.7047607421874891,40.56574127811912,713.5959],[-2.7099609375,40.584491278119117,727.3709],[-2.70947265625,40.60138580936912,706.6591],[-2.6799804687499891,40.634149481244116,705.5],[-2.6695312499999768,40.64704010624412,811.1153],[-2.6627685546874891,40.65973541874412,724.8789],[-2.65,40.67438385624412,828.4719],[-2.61875,40.70172760624412,824.0927],[-2.5918945312499768,40.718377996869116,781.0768],[-2.5768554687499829,40.724383856244117,825.7967],[-2.5768554687499829,40.724383856244117,825.7967],[-2.5768554687499829,40.724383856244117,825.7967]]}}