{"type":"Feature","properties":{"featurecla":"River","scalerank":5,"rivernum":165,"dissolve":"165River","name":"Tajo2","name_alt":null,"note":"Version 1.2 edit in N. America and Europe","min_zoom":4.7,"strokeweig":0.15,"name_en":"Tajo","min_label":5.7},
"geometry":{"type": "LineString","coordinates": [[-1.66015625,40.55573151249412,1542.5217],[-1.642187499999977,40.56659577030662,1481.1589],[-1.6357421875,40.587518621869116,1361.8474],[-1.634375,40.61359284061912,1375.7329],[-1.6288574218749829,40.636835028119116,1387.5244],[-1.629003906249977,40.660028387494116,1318.7559],[-1.6416015625,40.686151434369116,1286.2612],[-1.658447265625,40.713495184369116,1305.9137],[-1.6691406249999829,40.73969147343162,1249.3486],[-1.683203124999977,40.76264069218162,1192.8954],[-1.708349609374977,40.782098699994116,1179.8629],[-1.742285156249977,40.79474518436912,1235.9915],[-1.813720703125,40.806512762494116,1151.6849],[-1.848730468749977,40.816522528119116,1087.4695],[-1.8752929687499891,40.83026764530662,1143.3688],[-1.890625,40.844598699994116,1061.6985],[-1.8993408203124891,40.85578034061912,1093.1603],[-1.909765624999977,40.861590887494117,1084.0502],[-1.924560546875,40.859393621869117,1051.0536],[-1.965917968749977,40.840448309369116,1053.9617],[-1.9882080078124891,40.83295319218162,1173.3042],[-2.0459960937499768,40.826044012494116,1116.0769],[-2.1005859375,40.827655340619117,1169.2981],[-2.1194824218749768,40.826190496869117,1040.385],[-2.1736816406249768,40.81098053593162,1140.8927],[-2.242431640625,40.81122467655662,1148.0858]]}}