{"type":"Feature","properties":{"featurecla":"River","scalerank":5,"rivernum":165,"dissolve":"165River","name":"Tajo4","name_alt":null,"note":null,"min_zoom":4.7,"strokeweig":0.2,"name_en":"Tajo","min_label":5.7},
"geometry":{"type": "LineString","coordinates": [[-2.7327148437499891,40.52838776249412,705.5],[-2.7488769531249768,40.525165106244117,890.3126],[-2.7545654296874891,40.52289459843162,919.842],[-2.7608398437499768,40.521502996869117,786.2803],[-2.7671386718749891,40.521014715619117,769.7044],[-2.7722656249999891,40.504901434369117,723.342],[-2.7791503906249768,40.490252996869117,659.8945],[-2.782958984375,40.48541901249412,645.7832],[-2.7966796874999891,40.47113678593162,704.2097],[-2.802001953125,40.463006903119116,720.2719],[-2.8047363281249891,40.45563385624412,725.8638],[-2.8096679687499768,40.411004949994116,823.3754],[-2.8117187499999829,40.40314362186912,735.4539],[-2.8201660156249768,40.38837311405662,788.2062],[-2.831298828125,40.379022528119116,663.9138],[-2.8448242187499768,40.37335846561912,614.8578],[-2.8780761718749939,40.36591217655662,675.7886],[-2.8862792968749891,40.36225006718162,667.7581],[-2.8923828124999891,40.355340887494116,621.5201],[-2.8943847656249768,40.34772369999412,601.5098],[-2.8939697265624891,40.320184637494116,647.9077],[-2.9052734375,40.31952545780662,595.7018],[-2.9173339843749768,40.317401434369117,639.0851],[-2.9285644531249768,40.31329987186912,654.8972],[-2.9375976562499768,40.30731842655662,668.1988],[-2.9437988281249829,40.299188543744116,666.2477],[-2.9510253906249768,40.28168366093162,588.3275],[-2.9560546875,40.27301666874412,617.356],[-2.965087890625,40.264178778119117,592.6987],[-2.9971679687499768,40.242450262494117,606.2993],[-3.0048828125,40.234979559369116,620.2175],[-3.01708984375,40.21857330936912,643.2215],[-3.0224609375,40.20941803593162,632.5492],[-3.037109375,40.19061920780662,568.8787],[-3.0556152343749829,40.17658112186912,607.8511],[-3.1248535156249768,40.13800690311912,549.8351],[-3.1316894531249768,40.13239166874412,548.3975],[-3.1441406249999768,40.10321686405662,558.9953],[-3.1487792968749768,40.098260809369116,591.9116],[-3.2278808593749768,40.077752996869116,559.0804],[-3.2884277343749768,40.05304596561912,527.6978],[-3.32958984375,40.047626043744117,532.0884],[-3.3420898437499891,40.04450104374412,521.7271],[-3.3530761718749891,40.04596588749412,531.4526],[-3.3719238281249768,40.05731842655662,573.004],[-3.4064208984374891,40.045526434369116,516.9863],[-3.5425781249999768,40.04987213749412,496.6653],[-3.6578124999999768,40.03339264530662,482.528],[-3.6708251953124891,40.02741119999412,485.5533],[-3.71728515625,39.989374090619116,477.4642],[-3.7332519531249768,39.97894928593162,474.5921],[-3.7517578124999891,39.974725653119116,474.8638],[-3.7575195312499829,39.971454168744117,468.9943],[-3.773681640625,39.95697662968162,471.9883],[-3.77880859375,39.953631903119117,471.7811],[-3.790771484375,39.952997137494116,471.0717],[-3.853125,39.937762762494117,461.993],[-3.9683593749999768,39.888446356244117,474.5133],[-3.9742187499999768,39.885028387494117,469.1771],[-3.9821044921874891,39.88190338749412,477.0554],[-4.0168945312499886,39.87433502811912,498.8385],[-4.0254882812499773,39.87128327030662,489.0778],[-4.0366699218749886,39.86554596561912,446.1566],[-4.0597412109374886,39.88214752811912,493.2753],[-4.103271484375,39.89020416874412,535.974],[-4.1837646484374886,39.892840887494117,434.234],[-4.1880371093749886,39.89020416874412,428.4776],[-4.2008789062499829,39.87702057499412,428.7009],[-4.2080078125,39.871698309369116,427.8687],[-4.2603515624999773,39.86054108280662,503.9099],[-4.2681640624999773,39.861590887494117,470.6658],[-4.27490234375,39.867792059369116,453.9953],[-4.2898925781249773,39.878534246869116,522.486],[-4.3104003906249773,39.858026434369116,462.2958],[-4.3104003906249773,39.85187409061912,455.6335],[-4.305908203125,39.84992096561912,437.1666],[-4.3016845703124886,39.846795965619116,423.0],[-4.29736328125,39.84503815311912,423.0],[-4.3278076171874886,39.826434637494117,415.6584],[-4.3595458984374886,39.83222077030662,409.7471],[-4.3924316406249773,39.84772369999412,414.4055],[-4.426513671875,39.858026434369116,436.4081],[-4.451904296875,39.860223699994116,421.25],[-4.4666503906249773,39.86383698124412,415.7657],[-4.477783203125,39.87225983280662,400.8013],[-4.4922363281249886,39.88910553593162,403.7633],[-4.50537109375,39.900506903119116,390.0136],[-4.5742675781249886,39.93366119999412,390.7198],[-4.6143554687499773,39.94537994999412,382.2168],[-4.6294433593749886,39.94745514530662,382.0101],[-4.6436523437499773,39.951044012494116,383.0209],[-4.7246582031249886,39.986102606244117,391.1907],[-4.728125,39.988397528119116,387.4124],[-4.7402832031249886,39.98395416874412,377.251],[-4.755126953125,39.970721746869117,371.6924],[-4.7662841796874886,39.967889715619116,368.405],[-4.8020996093749773,39.96918366093162,368.2737],[-4.82421875,39.96735260624412,369.5214],[-4.8448242187499773,39.961053778119116,370.4706],[-4.8526367187499773,39.95453522343162,367.1468],[-4.8739257812499943,39.93060944218162,362.7314],[-4.9264404296874886,39.89032623905662,358.903],[-4.9373046874999886,39.885370184369116,357.6236],[-4.9505371093749773,39.874872137494116,357.5513],[-5.0024902343749886,39.81024811405662,372.4337],[-5.0224121093749829,39.799920965619116,445.7205],[-5.0479492187499773,39.796161199994117,462.7308],[-5.101806640625,39.796649481244117,338.6074],[-5.1137207031249829,39.799823309369117,333.4786],[-5.1354248046874886,39.81391022343162,367.1003],[-5.14990234375,39.81708405155662,329.524],[-5.2167236328124886,39.812127996869116,400.4126]]}}