{"type": "Feature","bbox": [2.0013,42.1073,2.0314,42.1313],"geometry": {"type": "MultiPolygon","coordinates": [[[[2.0314,42.127,872.7067],[2.026,42.1309,853.0009],[2.0204,42.1313,887.1429],[2.0218,42.1277,842.0305],[2.0175,42.1262,902.3176],[2.0025,42.1256,938.1146],[2.006,42.1213,801.2978],[2.0013,42.1203,880.0361],[2.0066,42.1159,871.3306],[2.0076,42.1073,698.4835],[2.0149,42.1084,704.9223],[2.0176,42.1103,699.3524],[2.0209,42.117,847.9706],[2.0197,42.1211,793.735],[2.0298,42.1213,774.6832],[2.0314,42.127,872.7067]]]]}
,"properties": {"GID_3": "ESP.6.2.8_1","GID_0": "ESP","country": "Spain","GID_1": "ESP.6_1","province": "Cataluña","NL_NAME_1": "NA","GID_2": "ESP.6.2_1","county": "Girona","NL_NAME_2": "NA","city": "n.a.(34)","VARNAME_3": "NA","NL_NAME_3": "NA","TYPE_3": "Comarca","ENGTYPE_3": "Comarca","CC_3": "NA","HASC_3": "NA","name": "n.a.(34).city","area_km2": 3.129584,"hist_schema_id": "Elevation0-9000","hist_area_km2": {"675": 0.047188,"700": 0.078645,"725": 0.173013,"750": 0.283102,"775": 0.518996,"800": 0.597609,"825": 0.45605,"850": 0.393153,"875": 0.487477,"900": 0.094349}}}