{"type":"Feature","properties":{"GID_3":"ESP.12.4.1_1","GID_0":"ESP","country":"Spain","GID_1":"ESP.12_1","province":"Galicia","NL_NAME_1":"NA","GID_2":"ESP.12.4_1","county":"Pontevedra","NL_NAME_2":"NA","city":"n.a.(207)","VARNAME_3":"NA","NL_NAME_3":"NA","TYPE_3":"Comarca","ENGTYPE_3":"Comarca","CC_3":"NA","HASC_3":"NA","name":"n.a.(207).city"},
"geometry":{"type": "MultiPolygon","coordinates": [[[[-8.8489,41.8795,0.0],[-8.8282,41.8991,0.0],[-8.8246,41.9059,0.0],[-8.8184,41.9113,0.0],[-8.8034,41.9151,2.1965],[-8.7937,41.915,0.0],[-8.7859,41.9173,0.0],[-8.7563,41.9331,0.5006],[-8.7477,41.9431,0.0],[-8.7466,41.9504,0.0],[-8.7485,41.9608,0.0],[-8.7441,41.9659,0.0],[-8.7161,41.9802,0.0],[-8.6987,41.9838,0.0],[-8.6887,41.9901,0.0],[-8.6786,41.9913,0.0],[-8.6703,41.9991,2.4582],[-8.6622,42.0026,0.0],[-8.6573,42.0184,3.3987],[-8.6591,42.0255,0.0],[-8.6576,42.0301,10.0119],[-8.654,42.0333,0.0],[-8.6464,42.0365,0.0],[-8.6413,42.0443,0.0],[-8.6359,42.0479,0.0],[-8.6283,42.0506,0.0],[-8.6009,42.0546,1.9866],[-8.5953,42.0569,0.9667],[-8.5919,42.056399999999996,1.275],[-8.5865,42.0526,5.354],[-8.5812,42.0519,9.281],[-8.546,42.0542,5.5678],[-8.5264,42.0625,17.0185],[-8.5254,42.0652,2.5],[-8.5281,42.0747,3.0],[-8.5264,42.0771,24.5994],[-8.5198,42.0796,11.2229],[-8.5037,42.0777,4.0],[-8.4861,42.0819,4.5],[-8.4782,42.0807,9.9148],[-8.443,42.0824,15.4629],[-8.4342,42.0774,13.5353],[-8.4316,42.0732,9.5576],[-8.4289,42.0723,10.9688],[-8.4194,42.0731,19.8678],[-8.4048,42.0804,20.8814],[-8.393,42.08,9.4311],[-8.3906,42.0752,17.2446],[-8.3816,42.0764,18.8769],[-8.371,42.0883,10.5],[-8.3631,42.0904,23.6553],[-8.3533,42.0898,19.2611],[-8.3427,42.0847,27.9978],[-8.3319,42.0838,23.1951],[-8.3252,42.0895,28.4563],[-8.3234,42.1007,27.8312],[-8.3171,42.1045,36.7376],[-8.3134,42.103,31.9257],[-8.3039,42.1039,32.2171],[-8.2963,42.1078,28.5228],[-8.2949,42.1111,28.056],[-8.2907,42.1119,29.4303],[-8.2891,42.1145,28.1865],[-8.2736,42.1241,44.7102],[-8.263,42.1209,32.7352],[-8.2586,42.1216,50.569],[-8.2556,42.1273,44.3196],[-8.2563,42.134,38.8313],[-8.2536,42.1367,39.6483],[-8.2439,42.1398,38.3784],[-8.239,42.1386,72.2983],[-8.2334,42.1338,71.0439],[-8.2257,42.1329,39.2689],[-8.2219,42.1341,63.9803],[-8.2179,42.1386,55.1911],[-8.2066,42.141,41.5258],[-8.2003,42.1488,65.296],[-8.2005,42.1537,57.0058],[-8.1806,42.1584,60.5],[-8.1752,42.1657,60.5],[-8.1741,42.1711,68.9399],[-8.1662,42.1727,69.956],[-8.161,42.1791,61.0],[-8.1614,42.1809,61.5],[-8.1744,42.1838,104.6039],[-8.1759,42.1857,133.5406],[-8.1771,42.1961,80.486],[-8.1746,42.2038,80.4683],[-8.1792,42.2076,62.5],[-8.1795,42.2099,69.515],[-8.1859,42.2098,62.5],[-8.1893,42.2075,63.0],[-8.1921,42.2091,63.0],[-8.1896,42.2133,83.1681],[-8.1829,42.2169,90.5578],[-8.1736,42.22,94.977],[-8.1667,42.2201,69.8528],[-8.1639,42.2221,73.6045],[-8.1622,42.2273,70.8585],[-8.1726,42.2328,74.4139],[-8.1717,42.2376,67.7335],[-8.1617,42.2441,67.1187],[-8.1649,42.246,145.8137],[-8.1835,42.2434,437.4967],[-8.2033,42.2445,701.8716],[-8.212,42.2358,719.6755],[-8.2228,42.2332,660.3865],[-8.2234,42.2238,642.3643],[-8.2276,42.2175,583.6846],[-8.2357,42.2104,487.2129],[-8.2358,42.2071,489.9514],[-8.2324,42.1978,445.1092],[-8.2266,42.1931,400.1221],[-8.2201,42.1927,501.5671],[-8.2214,42.1908,511.7192],[-8.2141,42.1883,615.3923],[-8.2153,42.1827,522.8061],[-8.2212,42.1773,501.5757],[-8.239,42.1743,356.4738],[-8.2428,42.1711,387.9512],[-8.2481,42.1706,444.0006],[-8.2518,42.1727,476.8857],[-8.2517,42.1617,366.0352],[-8.2532,42.1592,379.5059],[-8.2673,42.1521,297.5948],[-8.2805,42.1491,232.3323],[-8.29,42.1532,135.6595],[-8.286,42.157,140.4087],[-8.2984,42.1547,165.4112],[-8.3018,42.1573,201.3935],[-8.3068,42.157,320.9789],[-8.3101,42.1533,372.1283],[-8.3165,42.1503,394.7401],[-8.3216,42.1518,435.5724],[-8.333,42.1482,582.7122],[-8.3457,42.149,855.1516],[-8.3529,42.151,944.3505],[-8.3561,42.1563,892.0162],[-8.3563,42.1607,846.3349],[-8.3688,42.1681,684.2872],[-8.3717,42.1738,532.9999],[-8.3745,42.1724,510.9083],[-8.3811,42.1727,439.0179],[-8.3927,42.1687,375.6936],[-8.3956,42.1736,471.0746],[-8.3925,42.1773,532.7568],[-8.3772,42.1831,728.3898],[-8.3723,42.181399999999996,673.3981],[-8.3614,42.184,710.4408],[-8.3498,42.183,745.9134],[-8.352,42.1883,703.6046],[-8.3577,42.19,642.4285],[-8.3583,42.1925,586.9579],[-8.3712,42.1986,455.5962],[-8.3731,42.1941,533.8242],[-8.3794,42.1929,603.8364],[-8.3867,42.1893,504.7241],[-8.3926,42.1953,381.6263],[-8.4023,42.2016,398.5023],[-8.4011,42.2086,334.4781],[-8.3959,42.212,391.3345],[-8.3947,42.2202,337.1738],[-8.3911,42.2264,291.7911],[-8.3971,42.2354,135.6296],[-8.4052,42.2407,90.9921],[-8.4077,42.2393,81.5027],[-8.4093,42.2405,79.9972],[-8.4093,42.2443,94.3929],[-8.4051,42.248,95.017],[-8.4077,42.255,114.8127],[-8.4059,42.2565,101.6068],[-8.4079,42.26,124.2466],[-8.4065,42.2627,115.5259],[-8.4082,42.2657,141.8342],[-8.4121,42.2648,187.9467],[-8.4097,42.2679,210.8458],[-8.4135,42.2702,329.4482],[-8.4117,42.273,308.739],[-8.4129,42.275,315.3965],[-8.4065,42.2735,166.2148],[-8.4047,42.2901,283.3796],[-8.406,42.2946,322.3286],[-8.4167,42.2972,726.5902],[-8.4199,42.2967,768.6453],[-8.4206,42.3005,749.476],[-8.4276,42.2981,759.9613],[-8.4345,42.2982,836.4506],[-8.4609,42.2834,367.8557],[-8.4628,42.2854,371.5825],[-8.4693,42.2861,366.3528],[-8.4803,42.2839,330.6738],[-8.4829,42.2851,311.5938],[-8.4826,42.2897,340.5436],[-8.4868,42.2872,365.7309],[-8.4913,42.2875,406.8798],[-8.4969,42.2829,451.2386],[-8.5044,42.2714,518.2203],[-8.5161,42.2668,207.3819],[-8.5246,42.26,104.4587],[-8.5264,42.2562,133.9301],[-8.5464,42.2543,526.5348],[-8.5646,42.2455,622.1887],[-8.5684,42.2411,672.7804],[-8.5663,42.2361,727.5111],[-8.5669,42.222,469.5583],[-8.5735,42.2158,592.1545],[-8.5714,42.2089,462.5651],[-8.5776,42.2008,420.5641],[-8.5825,42.1985,321.7424],[-8.588,42.1788,341.0048],[-8.5841,42.1765,274.6608],[-8.582,42.1718,151.5794],[-8.5813,42.1557,366.274],[-8.5802,42.149,423.1354],[-8.5785,42.1481,415.0374],[-8.5805,42.1392,393.8196],[-8.5787,42.1285,303.8868],[-8.5833,42.1053,184.3031],[-8.5859,42.1,173.3378],[-8.6014,42.0996,85.7904],[-8.606,42.1017,29.8773],[-8.6133,42.1006,39.9318],[-8.6242,42.0942,25.0314],[-8.6252,42.0918,15.3097],[-8.6349,42.0882,13.9173],[-8.6357,42.0893,13.725],[-8.6318,42.0918,14.7302],[-8.6329,42.0976,13.7736],[-8.6394,42.1009,13.8898],[-8.6349,42.1048,31.4514],[-8.636,42.1078,17.2975],[-8.6338,42.1128,30.4673],[-8.6535,42.1081,55.0602],[-8.6671,42.1088,180.8157],[-8.674,42.1019,238.8573],[-8.6809,42.1011,357.0436],[-8.6767,42.0953,460.1806],[-8.689,42.0868,602.6116],[-8.6982,42.0836,514.7689],[-8.7072,42.0861,494.2624],[-8.7107,42.0856,534.1329],[-8.7266,42.0727,453.927],[-8.7305,42.0612,424.4617],[-8.7378,42.0611,356.8683],[-8.7522,42.0653,397.571],[-8.7763,42.0663,348.1683],[-8.7917,42.0647,396.6366],[-8.8173,42.0526,556.7797],[-8.8179,42.0505,551.8522],[-8.8269,42.0487,521.9949],[-8.8331,42.0542,517.8503],[-8.8313,42.0703,636.3908],[-8.8378,42.0743,621.7103],[-8.8423,42.0739,526.0834],[-8.8465,42.0769,488.3958],[-8.8518,42.078,454.9291],[-8.8595,42.0765,455.4236],[-8.8667,42.0772,432.4832],[-8.8674,42.0784,432.4832],[-8.8765,42.0745,402.3296],[-8.8766,42.084,364.6877],[-8.8839,42.0878,252.9849],[-8.8859,42.0968,136.8852],[-8.889,42.102,114.186],[-8.8996,42.1037,0.0],[-8.896,42.0996,0.0],[-8.8943,42.0882,9.1686],[-8.8957,42.0851,0.0],[-8.8918,42.0824,18.6702],[-8.8971,42.0771,0.0],[-8.894,42.0721,19.6703],[-8.8976,42.0674,0.0],[-8.8938,42.0635,1.534],[-8.894,42.0621,1.534],[-8.8915,42.0615,1.3272],[-8.8932,42.0593,0.0],[-8.8924,42.0576,0.5789],[-8.8888,42.0557,1.1685],[-8.8912,42.051,0.0],[-8.8854,42.0507,6.0426],[-8.8854,42.0474,5.2923],[-8.8885,42.0454,0.0],[-8.8871,42.041,0.0],[-8.8832,42.0404,3.0396],[-8.8846,42.0379,0.0],[-8.8843,42.0326,8.678],[-8.8888,42.0257,0.0],[-8.886,42.0249,11.532],[-8.8871,42.0218,0.0],[-8.8854,42.0207,8.1558],[-8.8857,42.0135,2.3872],[-8.8835,42.0121,12.3148],[-8.8835,42.0057,1.0391],[-8.881,42.0029,0.0],[-8.8771,42.0024,1.6011],[-8.8849,41.9946,0.4579],[-8.8882,41.9782,2.6623],[-8.8882,41.9715,0.7701],[-8.8865,41.9676,0.0],[-8.8876,41.9663,0.0],[-8.886,41.9649,30.0954],[-8.8879,41.9615,0.0],[-8.8857,41.9607,25.8142],[-8.8871,41.956,0.0],[-8.8851,41.9529,2.4852],[-8.8868,41.9512,0.0],[-8.8854,41.9429,20.8106],[-8.8885,41.9362,0.0],[-8.8843,41.9299,25.2252],[-8.8857,41.9282,3.3319],[-8.886,41.9207,2.9428],[-8.8829,41.9121,0.163],[-8.8771,41.9104,0.3205],[-8.8807,41.9049,0.0],[-8.8749,41.8993,7.2315],[-8.8804,41.8915,0.0],[-8.8821,41.881,2.8266],[-8.8733,41.8699,0.0],[-8.8654,41.8741,1.228],[-8.863,41.872,0.0],[-8.851,41.8771,0.0],[-8.8489,41.8795,0.0]]]]}}