{"type": "Feature","bbox": [-1.5976,42.6131,-0.7268,43.1183],"geometry": {"type": "MultiPolygon","coordinates": [[[[-0.8514,42.8076,1661.8827],[-0.8547,42.8289,1584.233],[-0.8572,42.8334,1514.1462],[-0.8568,42.8469,1684.7878],[-0.8413,42.8529,2027.163],[-0.8373,42.8615,1609.4043],[-0.8269,42.8671,1272.5074],[-0.821,42.8675,1376.3619],[-0.8185,42.8694,1404.5983],[-0.82,42.8726,1422.2842],[-0.8147,42.8769,1307.5392],[-0.8163,42.8786,1319.3335],[-0.8162,42.8848,1498.9977],[-0.8136,42.8882,1501.1288],[-0.8192,42.8892,1562.3124],[-0.8204,42.8933,1502.5339],[-0.8191,42.9007,1868.5963],[-0.8011,42.9078,1636.4993],[-0.789,42.9171,1734.3398],[-0.7898,42.9186,1689.3248],[-0.7832,42.9217,1688.8188],[-0.7534,42.9245,2136.0295],[-0.7458,42.9219,2245.4558],[-0.7441,42.9192,2274.8237],[-0.7275,42.9193,2385.2422],[-0.7268,42.9209,2286.2463],[-0.7336,42.9308,2049.8325],[-0.732,42.9318,2073.7883],[-0.7334,42.9332,2056.1514],[-0.732,42.9392,2316.7659],[-0.7346,42.9399,2310.1487],[-0.7323,42.9431,2208.0723],[-0.7333,42.9462,2171.6528],[-0.7435,42.9506,2105.1025],[-0.7442,42.9544,2042.2458],[-0.7528,42.967,1929.3511],[-0.7665,42.9685,1754.8185],[-0.7739,42.9652,1704.1273],[-0.7844,42.9643,1595.7391],[-0.8088,42.9515,1598.4073],[-0.82,42.951,1644.5454],[-0.8359,42.9534,1775.6689],[-0.8647,42.951,1407.0869],[-0.8852,42.9556,1709.6938],[-0.8975,42.9558,1705.0657],[-0.9006,42.962,1680.3245],[-0.91,42.9638,1804.0378],[-0.9239,42.9546,1814.0109],[-0.9345,42.9527,1785.714],[-0.9451,42.9535,1679.8478],[-0.975,42.9633,1568.4781],[-0.9757,42.9649,1521.5125],[-0.9963,42.9749,1586.8604],[-1.0004,42.978,1727.7312],[-1.0054,42.9865,1924.0435],[-1.0105,42.9911,1865.9109],[-1.0147,42.9928,1725.0947],[-1.0266,42.9922,1334.4468],[-1.0408,42.9954,1245.6177],[-1.072,42.9979,976.1241],[-1.0795,43.0015,942.0977],[-1.0864,43.0024,902.5389],[-1.0836,43.0109,958.6268],[-1.1068,43.0145,1243.4949],[-1.1133,43.0212,1281.1599],[-1.1333,43.0084,882.0011],[-1.14,43.0093,851.1083],[-1.1414,43.0076,830.5774],[-1.1445,43.014,836.5532],[-1.1456,43.0245,894.2937],[-1.1703,43.0361,1033.3112],[-1.1738,43.0371,1066.3169],[-1.1751,43.0344,1099.8816],[-1.1811,43.0322,878.5637],[-1.2074,43.046,1035.6005],[-1.2117,43.0492,987.6411],[-1.2124,43.0514,984.9912],[-1.2305,43.0548,1158.8464],[-1.2475,43.0424,1244.7444],[-1.2616,43.0436,1299.3145],[-1.2636,43.0442,1344.345],[-1.2722,43.0552,1131.2709],[-1.3085,43.0692,438.6955],[-1.3053,43.0813,369.7484],[-1.2995,43.0923,353.3001],[-1.2894,43.1032,274.2195],[-1.2705,43.1183,256.9161],[-1.3196,43.1128,788.4659],[-1.3321,43.1079,1180.1438],[-1.3338,43.103,1091.8549],[-1.3452,43.093,1145.4368],[-1.3427,43.0839,1127.4807],[-1.3399,43.0811,1173.351],[-1.3417,43.0775,1177.2058],[-1.3441,43.0559,1210.9854],[-1.3425,43.0545,1221.5673],[-1.3466,43.0479,1131.8905],[-1.3537,43.028,1174.8757],[-1.4414,43.0462,1005.0948],[-1.4471,43.0531,554.071],[-1.4509,43.0509,589.2491],[-1.4502,43.0454,647.0771],[-1.4536,43.0427,695.8306],[-1.4569,43.0413,769.4628],[-1.4687,43.0426,734.379],[-1.4709,43.0408,777.707],[-1.4703,43.0345,904.1678],[-1.4769,43.0358,1017.2314],[-1.4838,43.0336,1129.8821],[-1.4867,43.0363,1149.4528],[-1.4921,43.0372,1173.5665],[-1.5078,43.0311,1089.1123],[-1.4937,43.0439,1181.5249],[-1.4965,43.0495,1216.0408],[-1.4944,43.0563,1190.9414],[-1.5019,43.0605,1056.9963],[-1.5187,43.0643,1020.3345],[-1.522,43.0629,1037.8912],[-1.5211,43.0514,915.9907],[-1.5233,43.0476,998.585],[-1.5313,43.0438,1092.5216],[-1.5409,43.0448,884.1722],[-1.5551,43.04,1226.4647],[-1.5508,43.0325,1342.4584],[-1.5514,43.028,1292.9928],[-1.5553,43.0269,1257.1121],[-1.5529,43.0206,1032.3882],[-1.5535,43.0138,1021.4802],[-1.5571,43.0089,1106.3741],[-1.5497,43.0005,1145.5984],[-1.5558,42.9991,1219.3986],[-1.5635,42.993899999999996,1043.944],[-1.5639,42.9859,1068.0122],[-1.5666,42.9794,1002.2528],[-1.5665,42.9748,966.7099],[-1.5636,42.9735,998.4388],[-1.5627,42.9708,922.3624],[-1.5654,42.9661,994.5034],[-1.5618,42.9609,1046.6437],[-1.5616,42.956,1072.348],[-1.5653,42.9505,993.12],[-1.5563,42.9442,779.2946],[-1.558,42.9374,780.7522],[-1.5519,42.9337,741.3601],[-1.5541,42.9287,719.8799],[-1.5603,42.9227,768.1334],[-1.5544,42.9106,732.4622],[-1.5733,42.9161,767.3542],[-1.5805,42.9116,792.6233],[-1.5812,42.9006,779.5863],[-1.5796,42.8967,860.861],[-1.583,42.8898,910.8656],[-1.5815,42.8878,873.8009],[-1.5859,42.8813,736.9131],[-1.5843,42.8752,844.7228],[-1.5857,42.8728,863.0204],[-1.5849,42.8702,806.9814],[-1.5872,42.8657,749.9304],[-1.5976,42.8546,757.5932],[-1.596,42.8393,508.0095],[-1.5918,42.8362,519.6995],[-1.5739,42.8352,467.0129],[-1.5719,42.8469,635.5239],[-1.5659,42.8469,672.5178],[-1.5558,42.851,761.9839],[-1.5551,42.8537,735.6235],[-1.5511,42.8535,676.7091],[-1.5484,42.8612,721.8282],[-1.5411,42.8605,826.1895],[-1.5366,42.8631,827.7034],[-1.5259,42.8638,859.8005],[-1.5029,42.8685,965.858],[-1.5003,42.865,943.8324],[-1.4997,42.8517,872.2415],[-1.4978,42.8467,831.7637],[-1.4923,42.847,839.0757],[-1.492,42.8405,941.4161],[-1.4956,42.8346,823.9369],[-1.5005,42.8307,795.8387],[-1.5061,42.8174,572.8005],[-1.5107,42.8168,552.0434],[-1.5095,42.816,552.0434],[-1.5122,42.812,566.8514],[-1.5087,42.8116,560.8499],[-1.5083,42.8069,559.8772],[-1.5114,42.807,568.2519],[-1.5245,42.7973,776.7462],[-1.5218,42.7956,810.2392],[-1.5236,42.7946,803.8854],[-1.5107,42.7875,822.6612],[-1.5122,42.7849,774.9865],[-1.5107,42.7813,788.4913],[-1.516,42.775,785.3029],[-1.5182,42.7585,877.9224],[-1.522,42.7537,853.0193],[-1.5282,42.751,816.7182],[-1.5339,42.7514,857.6372],[-1.5404,42.7458,801.8593],[-1.5365,42.7347,676.9052],[-1.5549,42.7282,486.7735],[-1.5569,42.7262,482.4416],[-1.5554,42.7227,494.8093],[-1.5474,42.7236,511.9438],[-1.5428,42.7209,502.6294],[-1.5434,42.7113,528.0476],[-1.5481,42.7042,849.5911],[-1.5494,42.6952,1090.3058],[-1.5536,42.6937,1100.5984],[-1.568,42.6928,1125.021],[-1.5726,42.6823,1064.6567],[-1.5428,42.6774,1063.114],[-1.5354,42.6711,999.6912],[-1.5163,42.6678,979.6145],[-1.5003,42.6598,995.0911],[-1.4945,42.6595,935.5527],[-1.4899,42.6551,969.7634],[-1.4852,42.6536,995.6897],[-1.4815,42.6545,1011.7037],[-1.4633,42.6498,1008.7408],[-1.4537,42.6441,951.277],[-1.4475,42.6472,1019.4888],[-1.4365,42.6428,1005.5549],[-1.4276,42.6413,966.9779],[-1.388,42.6417,902.7761],[-1.3874,42.639,867.8986],[-1.3772,42.6352,866.5773],[-1.3687,42.6293,790.8583],[-1.3566,42.6317,666.8556],[-1.351,42.6285,636.596],[-1.3494,42.6255,627.2482],[-1.3394,42.6213,676.2283],[-1.3288,42.6196,699.6375],[-1.3229,42.6137,713.6037],[-1.3183,42.6131,707.8013],[-1.3129,42.6187,585.8215],[-1.3103,42.6185,598.8746],[-1.3105,42.6219,573.4156],[-1.3037,42.6254,422.2467],[-1.2916,42.6269,544.4149],[-1.2825,42.6306,667.5314],[-1.2678,42.6324,848.9957],[-1.2455,42.6315,858.8046],[-1.2389,42.6348,894.3054],[-1.235,42.6338,835.045],[-1.219,42.6349,718.7556],[-1.2153,42.6398,970.1946],[-1.2084,42.6419,1079.5977],[-1.1587,42.6485,1223.1267],[-1.1438,42.6482,1302.2432],[-1.1204,42.645,1264.072],[-1.0874,42.6464,1291.4395],[-1.0694,42.6416,1187.9626],[-1.0532,42.6424,1127.5029],[-1.0386,42.6483,1132.9146],[-1.0382,42.6517,1155.1361],[-1.0368,42.6516,1165.563],[-1.0394,42.6578,888.4714],[-1.0396,42.6642,758.267],[-1.0325,42.6756,683.9892],[-1.0368,42.6816,800.0992],[-1.0392,42.6916,1390.9109],[-1.029,42.6949,1272.1501],[-1.0301,42.6965,1263.1793],[-1.0279,42.7001,1217.3022],[-1.0168,42.7023,626.8461],[-1.0015,42.7,1235.5006],[-0.9838,42.7022,1104.2986],[-0.9791,42.7047,1090.6853],[-0.9692,42.7037,1149.576],[-0.9586,42.7117,1009.7014],[-0.9486,42.7115,1036.1572],[-0.9462,42.7141,1051.0011],[-0.9441,42.7219,1041.3118],[-0.9384,42.7252,1043.5281],[-0.9355,42.7299,983.5316],[-0.9358,42.7343,942.4518],[-0.9247,42.7389,1049.3657],[-0.923,42.744,1129.796],[-0.9011,42.7427,1233.4033],[-0.8994,42.7469,1094.0132],[-0.9011,42.7527,1099.2333],[-0.9005,42.7605,1195.9268],[-0.8947,42.7627,1307.8927],[-0.8892,42.7626,1344.8217],[-0.8733,42.759,1312.7914],[-0.8648,42.7634,1190.0994],[-0.8627,42.7691,1162.8031],[-0.8595,42.7688,1140.5966],[-0.8475,42.7859,1472.5864],[-0.8499,42.7922,1477.4155],[-0.86,42.7986,1572.9347],[-0.8604,42.8023,1650.1848],[-0.8514,42.8076,1661.8827]]]]}
,"properties": {"GID_3": "ESP.9.1.8_1","GID_0": "ESP","country": "Spain","GID_1": "ESP.9_1","province": "ComunidadForaldeNavarra","NL_NAME_1": "NA","GID_2": "ESP.9.1_1","county": "Navarra","NL_NAME_2": "NA","city": "n.a.(192)","VARNAME_3": "NA","NL_NAME_3": "NA","TYPE_3": "Comarca","ENGTYPE_3": "Comarca","CC_3": "NA","HASC_3": "NA","name": "n.a.(192).city","area_km2": 2305.561,"hist_schema_id": "Elevation0-9000","hist_area_km2": {"250": 0.108,"275": 0.093,"300": 0.139,"325": 0.325,"350": 0.341,"375": 0.542,"400": 0.774,"425": 8.601,"450": 27.047,"475": 39.381,"500": 44.626,"525": 43.864,"550": 49.434,"575": 66.343,"600": 62.42,"625": 68.013,"650": 70.099,"675": 73.435,"700": 76.852,"725": 79.905,"750": 80.433,"775": 81.267,"800": 80.444,"825": 76.179,"850": 75.919,"875": 82.848,"900": 83.66,"925": 87.442,"950": 84.017,"975": 82.598,"1000": 83.333,"1025": 77.397,"1050": 68.258,"1075": 62.977,"1100": 55.899,"1125": 53.215,"1150": 48.26,"1175": 42.169,"1200": 35.91,"1225": 31.888,"1250": 27.29,"1275": 24.183,"1300": 20.518,"1325": 17.846,"1350": 16.696,"1375": 13.276,"1400": 12.346,"1425": 9.022,"1450": 8.634,"1475": 6.507,"1500": 6.6,"1525": 5.281,"1550": 4.503,"1575": 4.519,"1600": 4.037,"1625": 3.633,"1650": 3.913,"1675": 3.09,"1700": 3.245,"1725": 2.934,"1750": 2.391,"1775": 2.375,"1800": 2.282,"1825": 1.692,"1850": 1.63,"1875": 1.366,"1900": 1.428,"1925": 1.18,"1950": 0.823,"1975": 1.009,"2000": 0.792,"2025": 0.73,"2050": 0.481,"2075": 0.419,"2100": 0.295,"2125": 0.404,"2150": 0.388,"2175": 0.341,"2200": 0.388,"2225": 0.186,"2250": 0.155,"2275": 0.155,"2300": 0.047,"2325": 0.062}}}