{"type":"Feature","properties":{"GID_3":"ESP.4.3.7_1","GID_0":"ESP","country":"Spain","GID_1":"ESP.4_1","province":"Castilla-LaMancha","NL_NAME_1":"NA","GID_2":"ESP.4.3_1","county":"Cuenca","NL_NAME_2":"NA","city":"n.a.(99)","VARNAME_3":"NA","NL_NAME_3":"NA","TYPE_3":"Comarca","ENGTYPE_3":"Comarca","CC_3":"NA","HASC_3":"NA","name":"n.a.(99).city"},
"geometry":{"type": "MultiPolygon","coordinates": [[[[-2.2188,39.2615,731.6671],[-2.208,39.2617,729.9399],[-2.2059,39.2664,728.502],[-2.1818,39.2693,734.9041],[-2.1819,39.2735,735.1351],[-2.1786,39.2783,732.7559],[-2.1684,39.2811,735.9371],[-2.1521,39.2758,744.8431],[-2.1484,39.2936,746.3336],[-2.1496,39.2994,749.6614],[-2.1384,39.322,754.8053],[-2.1546,39.3319,735.9969],[-2.1691,39.3293,747.3866],[-2.1786,39.3468,733.9588],[-2.1768,39.3561,736.5829],[-2.1845,39.3569,748.1835],[-2.19,39.367,748.5584],[-2.1908,39.3722,750.0858],[-2.1947,39.3748,762.3486],[-2.2043,39.3753,815.7649],[-2.2273,39.384,817.8505],[-2.2315,39.3815,843.5119],[-2.2483,39.3921,814.8457],[-2.2483,39.3956,801.9998],[-2.2541,39.4081,751.0605],[-2.2438,39.4294,874.4554],[-2.2443,39.4342,865.3526],[-2.2408,39.4469,855.8065],[-2.242,39.4542,881.6927],[-2.236,39.4666,878.0376],[-2.2232,39.4748,877.4453],[-2.2514,39.4806,863.7031],[-2.2753,39.4797,849.2742],[-2.2798,39.4828,840.4033],[-2.2866,39.4818,835.3291],[-2.2904,39.4852,814.4148],[-2.2902,39.4884,816.9606],[-2.298,39.4988,815.4321],[-2.2975,39.5027,844.0616],[-2.3264,39.5113,757.5562],[-2.3365,39.5126,770.3439],[-2.3611,39.5244,772.5206],[-2.3624,39.5389,800.7637],[-2.3656,39.5408,811.6698],[-2.3677,39.5487,819.0309],[-2.3662,39.5542,821.3634],[-2.3586,39.5619,814.7288],[-2.3564,39.5695,838.7153],[-2.3483,39.569,839.9698],[-2.3546,39.5725,845.3727],[-2.3636,39.5811,860.6031],[-2.3702,39.584,870.1333],[-2.3771,39.5909,892.2021],[-2.3899,39.5969,873.2464],[-2.3969,39.5939,855.4238],[-2.4085,39.5967,860.7146],[-2.4229,39.5961,841.368],[-2.4379,39.5876,816.7666],[-2.4636,39.5874,805.4049],[-2.4808,39.5922,818.2245],[-2.489,39.5976,834.3748],[-2.4853,39.6014,823.7397],[-2.5008,39.6206,834.6096],[-2.4906,39.6265,871.6461],[-2.4923,39.6411,883.9504],[-2.4869,39.6527,905.7972],[-2.4881,39.6584,910.2643],[-2.5305,39.6599,812.4512],[-2.5429,39.6816,842.9133],[-2.5528,39.6725,832.8577],[-2.5776,39.6809,837.8882],[-2.5978,39.6819,818.1493],[-2.6087,39.691,811.1759],[-2.6085,39.7004,818.679],[-2.612,39.7069,826.9987],[-2.6229,39.7122,782.9913],[-2.6311,39.7111,783.6045],[-2.6373,39.7069,787.5559],[-2.6725,39.6976,852.8243],[-2.6829,39.6973,910.6152],[-2.6922,39.7046,914.3517],[-2.6974,39.714,927.1288],[-2.7203,39.7285,904.5984],[-2.7348,39.743,830.1219],[-2.7424,39.7463,860.9967],[-2.7504,39.7476,845.5744],[-2.7749,39.7461,867.5959],[-2.7857,39.7422,863.0771],[-2.787,39.7502,868.5405],[-2.7958,39.759,857.7067],[-2.8099,39.7605,859.3066],[-2.8389,39.7598,1011.2468],[-2.8359,39.7753,995.2917],[-2.8379,39.7813,969.6462],[-2.8411,39.7786,944.9513],[-2.8459,39.7795,943.0054],[-2.8471,39.7821,946.2472],[-2.8461,39.7912,937.5253],[-2.843,39.795,948.0781],[-2.8541,39.7939,894.7236],[-2.8591,39.7911,874.8161],[-2.871,39.7889,833.4329],[-2.8844,39.7899,835.1611],[-2.8859,39.7877,835.9489],[-2.8947,39.7864,818.2344],[-2.9061,39.7902,802.9899],[-2.9124,39.7888,801.9297],[-2.9152,39.793,774.9574],[-2.9133,39.7976,772.5069],[-2.9189,39.8013,759.9463],[-2.9213,39.805,749.9583],[-2.9284,39.8075,739.1211],[-2.9345,39.8036,737.563],[-2.9413,39.7942,737.3356],[-2.9438,39.7945,734.5634],[-2.9569,39.788,731.7682],[-2.9631,39.7838,730.627],[-2.9678,39.7775,729.0199],[-2.9701,39.7793,732.7529],[-2.9721,39.7778,730.7053],[-2.9753,39.7725,750.2238],[-2.9878,39.7771,770.1339],[-2.9937,39.7736,763.3842],[-3.004,39.7747,762.8412],[-3.0105,39.7789,764.5486],[-3.0208,39.7711,757.7971],[-3.0153,39.7644,762.8674],[-2.9977,39.7189,728.7437],[-2.9934,39.7141,732.1935],[-2.9766,39.7029,747.0848],[-2.9774,39.6967,744.7999],[-2.9725,39.6937,749.5804],[-2.9698,39.6897,739.0341],[-2.9541,39.6864,734.6425],[-2.9495,39.6765,750.5084],[-2.9381,39.6668,766.7004],[-2.9184,39.6457,818.7347],[-2.9081,39.6424,807.5471],[-2.9148,39.632,828.293],[-2.9154,39.6253,829.4252],[-2.9178,39.6231,832.7864],[-2.9137,39.6138,845.7576],[-2.9232,39.6024,818.3091],[-2.9254,39.6018,817.6257],[-2.9205,39.5823,787.6058],[-2.9227,39.5702,767.228],[-2.9206,39.5592,753.2931],[-2.9247,39.5557,738.056],[-2.9274,39.5496,726.6138],[-2.929,39.5299,714.4805],[-2.935,39.5256,704.6435],[-2.9312,39.5186,706.0184],[-2.9358,39.5113,708.2256],[-2.9338,39.5048,715.0222],[-2.9345,39.4822,690.3174],[-2.9313,39.4715,675.1328],[-2.9293,39.4697,673.847],[-2.9276,39.4708,675.4067],[-2.931,39.4628,673.5903],[-2.9292,39.4575,684.6421],[-2.9321,39.4554,675.0423],[-2.9317,39.4528,678.8395],[-2.9263,39.4542,681.6034],[-2.9269,39.4507,678.6252],[-2.9253,39.4524,680.1558],[-2.9219,39.452,684.887],[-2.9213,39.4503,682.7115],[-2.9142,39.447,685.8558],[-2.9124,39.4377,683.0131],[-2.9034,39.4262,680.5277],[-2.9013,39.4272,683.2659],[-2.9038,39.4284,681.9962],[-2.9042,39.4342,683.5434],[-2.9018,39.4325,684.6007],[-2.9026,39.4297,684.5451],[-2.8973,39.4301,686.4353],[-2.9,39.425,681.4098],[-2.8932,39.4214,685.3098],[-2.8896,39.4219,683.458],[-2.8858,39.4056,677.4426],[-2.8794,39.3996,671.4901],[-2.8773,39.3954,663.5883],[-2.874,39.3948,664.7243],[-2.8701,39.3911,663.9993],[-2.8705,39.3844,674.0355],[-2.8845,39.3854,671.8801],[-2.8864,39.3843,672.7072],[-2.8873,39.3785,673.8909],[-2.8965,39.3668,671.125],[-2.893,39.3587,670.7855],[-2.8887,39.3574,671.8892],[-2.8862,39.3533,668.528],[-2.8827,39.3525,668.5433],[-2.8823,39.3509,669.9877],[-2.8646,39.3569,672.4958],[-2.8599,39.3486,666.5518],[-2.8608,39.3472,666.5518],[-2.8532,39.3502,665.3833],[-2.8456,39.3493,669.3241],[-2.8281,39.3569,666.6064],[-2.8167,39.3684,668.8331],[-2.8132,39.3755,671.194],[-2.813,39.3824,672.5816],[-2.8101,39.3829,672.2995],[-2.8087,39.3874,673.348],[-2.8018,39.3887,673.8841],[-2.7981,39.3928,675.0336],[-2.7941,39.3943,676.0478],[-2.793,39.3978,676.6589],[-2.7759,39.3948,677.6367],[-2.7763,39.3863,674.0793],[-2.772,39.3696,679.6351],[-2.7625,39.3585,676.7041],[-2.7562,39.3382,675.9565],[-2.7465,39.3224,679.3958],[-2.7422,39.3182,678.4364],[-2.7301,39.3209,678.0935],[-2.7021,39.3218,681.2407],[-2.6917,39.3179,689.2781],[-2.6837,39.3222,682.0406],[-2.6777,39.3207,684.9633],[-2.6651,39.323,683.6613],[-2.6623,39.322,685.7998],[-2.6529,39.3262,685.6102],[-2.6487,39.3252,687.574],[-2.6349,39.3268,692.9742],[-2.6287,39.3342,693.991],[-2.6192,39.3402,691.0424],[-2.5926,39.3392,702.1662],[-2.5851,39.3369,703.0568],[-2.5708,39.3283,709.1128],[-2.5508,39.3235,697.895],[-2.5324,39.3289,707.5316],[-2.5294,39.3276,706.3896],[-2.511,39.3422,706.0427],[-2.4825,39.3147,711.0206],[-2.4673,39.3065,711.6714],[-2.4538,39.2919,711.5552],[-2.4316,39.2771,712.1178],[-2.4184,39.2638,714.9634],[-2.3876,39.2453,713.2952],[-2.374,39.2328,714.1708],[-2.3692,39.2371,713.3989],[-2.3641,39.2452,714.9419],[-2.361,39.2466,713.0344],[-2.3596,39.2514,713.7241],[-2.3612,39.2561,714.6225],[-2.3501,39.2782,722.8809],[-2.3441,39.2822,724.0574],[-2.3291,39.2861,728.5372],[-2.3211,39.2838,728.8118],[-2.3198,39.2782,725.8135],[-2.315,39.2771,725.817],[-2.3018,39.2636,725.2823],[-2.3002,39.2591,724.2256],[-2.3025,39.2519,717.8245],[-2.2974,39.2412,717.0962],[-2.2917,39.2351,713.6802],[-2.2886,39.2267,714.4214],[-2.2453,39.2449,718.4092],[-2.2188,39.2615,731.6671]]]]}}