{"type": "Feature","bbox": [-3.9796,40.6394,-3.3945,41.165],"geometry": {"type": "MultiPolygon","coordinates": [[[[-3.6109,40.6505,644.1133],[-3.5919,40.6489,612.842],[-3.5935,40.6548,621.5221],[-3.5893,40.6559,660.1439],[-3.5847,40.6535,678.3671],[-3.5842,40.6451,637.8094],[-3.5778,40.6458,647.0208],[-3.5681,40.6435,654.673],[-3.5667,40.6504,649.3471],[-3.5558,40.6503,619.1907],[-3.5563,40.6624,617.8127],[-3.5502,40.6649,613.7198],[-3.5545,40.6669,613.0517],[-3.5552,40.669,620.5777],[-3.5534,40.6803,620.2097],[-3.5553,40.6828,625.8717],[-3.5532,40.6871,622.1831],[-3.544,40.6922,622.3762],[-3.5321,40.7114,630.876],[-3.5282,40.7137,634.2975],[-3.5258,40.7328,636.9232],[-3.5307,40.734,655.1524],[-3.5393,40.7328,670.2825],[-3.5441,40.7346,683.0511],[-3.5421,40.7347,686.9286],[-3.5356,40.7407,672.7527],[-3.5391,40.7451,687.0327],[-3.5329,40.7472,673.2932],[-3.5344,40.7507,681.669],[-3.5403,40.7525,708.1323],[-3.537,40.7595,737.3481],[-3.5289,40.7622,697.8111],[-3.5238,40.7609,654.8798],[-3.5085,40.7817,659.4526],[-3.5106,40.7886,724.2341],[-3.5083,40.7909,661.7167],[-3.5026,40.7891,663.4248],[-3.5019,40.7972,663.9747],[-3.4987,40.7993,665.9591],[-3.4945,40.7975,665.974],[-3.4911,40.7994,669.7816],[-3.4908,40.8077,675.4711],[-3.4815,40.8156,689.7485],[-3.4814,40.8196,673.1002],[-3.4762,40.8263,685.645],[-3.4789,40.8385,684.8249],[-3.4711,40.8418,684.6284],[-3.4703,40.8443,683.6567],[-3.4767,40.8515,694.1827],[-3.4711,40.8515,687.2578],[-3.4677,40.8565,687.3622],[-3.4739,40.8625,692.7761],[-3.4731,40.8644,701.3196],[-3.4491,40.8772,734.7229],[-3.4463,40.8779,713.156],[-3.4408,40.8761,699.5673],[-3.4441,40.8879,725.4921],[-3.4402,40.8919,743.1011],[-3.4474,40.8961,731.2103],[-3.4506,40.8952,753.8611],[-3.4543,40.899,740.9509],[-3.4601,40.8986,781.6969],[-3.4607,40.9006,769.9856],[-3.4583,40.9023,748.353],[-3.4604,40.9052,771.4862],[-3.46,40.9083,734.5611],[-3.458,40.9092,752.6954],[-3.4516,40.9064,741.3197],[-3.4445,40.9082,746.1274],[-3.4494,40.9129,755.9279],[-3.4464,40.9188,885.1508],[-3.4471,40.9224,944.0695],[-3.4356,40.9337,1049.5863],[-3.4336,40.9376,954.6084],[-3.4349,40.9461,1126.1311],[-3.4313,40.9493,1173.0328],[-3.4277,40.9603,1431.0607],[-3.4215,40.9673,1463.2368],[-3.4166,40.9773,1509.1492],[-3.4181,40.9876,1643.7299],[-3.4004,40.9957,1743.7413],[-3.3945,41.0003,1754.095],[-3.3976,41.0074,1723.9263],[-3.422,41.026,1671.7673],[-3.4289,41.0399,1655.1257],[-3.4308,41.0415,1668.3481],[-3.4382,41.0426,1601.7992],[-3.4379,41.0467,1454.691],[-3.4345,41.0493,1357.8495],[-3.4354,41.0535,1317.9863],[-3.4316,41.0586,1260.6249],[-3.4328,41.0628,1266.4648],[-3.4274,41.0658,1214.9911],[-3.4257,41.0733,1148.4241],[-3.4278,41.0822,1142.2567],[-3.4258,41.0834,1135.5806],[-3.4323,41.0849,1161.9255],[-3.4485,41.0817,1172.5852],[-3.4556,41.0845,1181.079],[-3.4566,41.0874,1193.5436],[-3.4755,41.0957,1248.7263],[-3.4833,41.0929,1283.9263],[-3.488,41.0941,1233.4167],[-3.4907,41.1005,1272.0881],[-3.4894,41.1047,1272.6559],[-3.4923,41.1075,1303.9487],[-3.4921,41.1135,1367.0222],[-3.4995,41.1237,1355.27],[-3.5111,41.1342,1485.6208],[-3.5292,41.1407,1573.9531],[-3.5334,41.1471,1838.6495],[-3.5405,41.1505,1976.1637],[-3.5365,41.1604,2046.0344],[-3.5397,41.165,2120.4976],[-3.5574,41.1645,1804.9335],[-3.569,41.1594,1726.4438],[-3.5834,41.1611,1264.5995],[-3.59,41.1583,1491.2546],[-3.5916,41.1543,1540.5933],[-3.6002,41.1552,1632.4326],[-3.6136,41.1491,1630.7404],[-3.6195,41.1427,1622.0105],[-3.6318,41.1339,1665.0475],[-3.6341,41.1257,1810.2057],[-3.6435,41.1205,1818.0692],[-3.6506,41.1073,1780.303],[-3.6721,41.0918,1767.3815],[-3.6767,41.0864,1813.5997],[-3.6803,41.0842,1808.3256],[-3.6875,41.0852,1766.313],[-3.695,41.0832,1757.5361],[-3.7158,41.0715,1856.51],[-3.7203,41.0656,1943.0934],[-3.7295,41.0622,1898.3163],[-3.7392,41.0539,1849.1111],[-3.7497,41.0351,2008.451],[-3.7556,41.0277,2055.7773],[-3.7589,41.027,2068.2922],[-3.7669,41.019,2073.063],[-3.7673,41.0162,2093.8362],[-3.7818,41.0002,2075.4849],[-3.8149,40.9863,1776.5924],[-3.8224,40.9848,1949.2153],[-3.8302,40.9862,2064.8762],[-3.8431,40.9829,2180.2805],[-3.8483,40.9799,2196.5288],[-3.8596,40.9789,2083.802],[-3.8693,40.9714,2142.7786],[-3.874,40.9752,2119.0076],[-3.8801,40.9746,2128.1689],[-3.8808,40.9729,2139.3765],[-3.895,40.967,2096.3289],[-3.8989,40.9591,1983.9645],[-3.9075,40.9559,1939.2249],[-3.9124,40.9503,1995.655],[-3.9119,40.9447,2002.6993],[-3.9175,40.9428,1975.0393],[-3.9224,40.9299,2052.9597],[-3.9277,40.9276,1959.3195],[-3.9377,40.9272,2020.2156],[-3.9372,40.9159,2037.6698],[-3.942,40.9116,2061.9355],[-3.9455,40.9036,2039.0007],[-3.9526,40.8935,2116.5547],[-3.9473,40.8888,2058.5186],[-3.9432,40.8887,2069.5681],[-3.9438,40.8785,2056.4102],[-3.9475,40.8733,2110.5925],[-3.9465,40.8648,2147.6729],[-3.9571,40.8482,2358.2246],[-3.9624,40.844,2287.7063],[-3.9648,40.8385,2238.9951],[-3.962,40.8221,1832.134],[-3.9677,40.8119,1897.3143],[-3.9751,40.8071,1975.9371],[-3.9753,40.8039,1982.2665],[-3.9796,40.7998,2027.1692],[-3.9779,40.7878,2238.1672],[-3.9628,40.7918,2268.0315],[-3.959,40.795,2250.1006],[-3.9383,40.796,2350.6987],[-3.9298,40.8008,2349.2812],[-3.9164,40.8001,2207.395],[-3.8848,40.8074,2209.5293],[-3.8792,40.8057,2201.8225],[-3.8614,40.815,2111.6035],[-3.8395,40.8138,1967.3423],[-3.8368,40.8018,1547.8293],[-3.8305,40.793,1355.2422],[-3.8186,40.7398,897.9974],[-3.8149,40.7402,897.1407],[-3.8083,40.7239,895.3712],[-3.8023,40.7174,907.8644],[-3.8016,40.7118,894.1854],[-3.7874,40.709,914.54],[-3.7828,40.7046,935.0936],[-3.7729,40.7045,960.495],[-3.7652,40.714,1012.0212],[-3.7582,40.7168,1042.0387],[-3.7484,40.726,1076.0624],[-3.736,40.7322,1052.1218],[-3.7327,40.7305,1037.9623],[-3.7261,40.7309,1123.8997],[-3.7179,40.7285,1237.0355],[-3.7102,40.7295,1399.9999],[-3.7064,40.7272,1299.0439],[-3.7066,40.7255,1271.6638],[-3.697,40.7274,1188.0544],[-3.6949,40.7296,1184.3616],[-3.691,40.7297,1106.9565],[-3.6905,40.7282,1100.3838],[-3.6837,40.7301,1090.5786],[-3.6763,40.7283,1094.8944],[-3.6773,40.7216,993.6486],[-3.6736,40.7191,988.7256],[-3.68,40.709,940.4244],[-3.6751,40.7029,914.1869],[-3.6634,40.7007,871.9579],[-3.6594,40.6964,858.4761],[-3.6531,40.6944,831.2179],[-3.6461,40.6937,719.1343],[-3.6444,40.6957,778.5785],[-3.6432,40.695,791.9532],[-3.6422,40.6872,699.5595],[-3.6507,40.6798,741.9525],[-3.6481,40.674,712.2976],[-3.6408,40.671,700.2595],[-3.6399,40.6669,695.2582],[-3.6428,40.66,652.9631],[-3.6524,40.6468,711.037],[-3.6488,40.643,702.2341],[-3.6382,40.6394,693.8844],[-3.6324,40.6395,682.2831],[-3.6109,40.6505,644.1133]]]]}
,"properties": {"GID_3": "ESP.8.1.1_1","GID_0": "ESP","country": "Spain","GID_1": "ESP.8_1","province": "ComunidaddeMadrid","NL_NAME_1": "NA","GID_2": "ESP.8.1_1","county": "Madrid","NL_NAME_2": "NA","city": "n.a.(175)","VARNAME_3": "NA","NL_NAME_3": "NA","TYPE_3": "Comarca","ENGTYPE_3": "Comarca","CC_3": "NA","HASC_3": "NA","name": "n.a.(175).city","area_km2": 1531.727,"hist_schema_id": "Elevation0-9000","hist_area_km2": {"600": 0.097,"625": 8.554,"650": 16.029,"675": 26.336,"700": 31.382,"725": 24.343,"750": 18.493,"775": 12.971,"800": 12.955,"825": 22.943,"850": 42.51,"875": 49.368,"900": 58.637,"925": 56.683,"950": 52.516,"975": 53.428,"1000": 61.054,"1025": 58.358,"1050": 55.993,"1075": 52.37,"1100": 51.022,"1125": 47.099,"1150": 44.695,"1175": 41.329,"1200": 37.805,"1225": 35.497,"1250": 33.43,"1275": 31.173,"1300": 30.691,"1325": 28.752,"1350": 28.334,"1375": 25.085,"1400": 25.388,"1425": 23.034,"1450": 22.235,"1475": 22.651,"1500": 21.61,"1525": 21.801,"1550": 19.097,"1575": 19.13,"1600": 18.571,"1625": 18.36,"1650": 17.579,"1675": 17.292,"1700": 16.075,"1725": 15.307,"1750": 12.665,"1775": 12.28,"1800": 9.383,"1825": 8.022,"1850": 7.302,"1875": 6.389,"1900": 6.391,"1925": 5.654,"1950": 5.238,"1975": 5.015,"2000": 4.886,"2025": 4.215,"2050": 4.215,"2075": 3.27,"2100": 1.972,"2125": 1.764,"2150": 1.443,"2175": 1.075,"2200": 0.866,"2225": 0.513,"2250": 0.337,"2275": 0.193,"2300": 0.225,"2325": 0.16,"2350": 0.096,"2375": 0.08,"2400": 0.016}}}