{"type": "Feature","bbox": [-1.8482,42.7176,-1.6284,42.9011],"geometry": {"type": "MultiPolygon","coordinates": [[[[-1.6508,42.7195,534.7723],[-1.6477,42.7176,535.7932],[-1.6398,42.7205,517.4345],[-1.6337,42.72,490.6854],[-1.6284,42.7341,486.1011],[-1.631,42.7421,458.8118],[-1.6356,42.7443,463.1635],[-1.6408,42.7416,476.9728],[-1.6475,42.7425,458.2301],[-1.6618,42.7335,597.1388],[-1.6553,42.7267,525.9601],[-1.6495,42.7257,510.5339],[-1.6515,42.7222,527.4911],[-1.6508,42.7195,534.7723]]],
[[[-1.6336,42.8354,431.1828],[-1.6323,42.8388,517.257],[-1.6525,42.8475,728.577],[-1.651,42.8429,607.6494],[-1.6523,42.8358,441.6857],[-1.6491,42.8298,424.8975],[-1.6337,42.8328,428.9422],[-1.637,42.834,429.5771],[-1.6357,42.8357,432.9099],[-1.6336,42.8354,431.1828]]],
[[[-1.6794,42.8392,427.0538],[-1.6828,42.836,422.6411],[-1.6664,42.8334,427.5701],[-1.666,42.8371,432.9876],[-1.6631,42.8394,437.3069],[-1.662,42.8456,593.6336],[-1.659,42.8493,799.3622],[-1.6697,42.8553,746.1504],[-1.6747,42.85,508.9308],[-1.6794,42.8392,427.0538]]],
[[[-1.6759,42.8634,715.7036],[-1.6678,42.8602,811.5379],[-1.6668,42.8624,677.5817],[-1.6697,42.8641,650.209],[-1.6763,42.8647,640.2281],[-1.6759,42.8634,715.7036]]],
[[[-1.814,42.8018,825.2037],[-1.8226,42.8007,865.0936],[-1.8366,42.8032,979.8509],[-1.8478,42.8026,1087.9866],[-1.8482,42.7959,881.7567],[-1.8431,42.7989,1050.3149],[-1.8248,42.7984,676.5585],[-1.8083,42.7957,494.3564],[-1.8091,42.803,795.1287],[-1.814,42.8018,825.2037]]],
[[[-1.7281,42.847,411.938],[-1.733,42.8476,423.9133],[-1.7285,42.8456,411.938],[-1.7271,42.8468,416.1947],[-1.7281,42.847,411.938]]],
[[[-1.7327,42.871,523.0997],[-1.7355,42.872,515.0243],[-1.7376,42.87,542.738],[-1.7347,42.8683,627.1784],[-1.7327,42.871,523.0997]]],
[[[-1.7507,42.9011,665.3164],[-1.7555,42.9003,646.8976],[-1.7583,42.8964,633.8414],[-1.7553,42.8948,633.9456],[-1.7467,42.8965,682.4283],[-1.7487,42.9007,676.6052],[-1.7507,42.9011,665.3164]]]]}
,"properties": {"GID_3": "ESP.9.1.1_1","GID_0": "ESP","country": "Spain","GID_1": "ESP.9_1","province": "ComunidadForaldeNavarra","NL_NAME_1": "NA","GID_2": "ESP.9.1_1","county": "Navarra","NL_NAME_2": "NA","city": "n.a.(185)","VARNAME_3": "NA","NL_NAME_3": "NA","TYPE_3": "Comarca","ENGTYPE_3": "Comarca","CC_3": "NA","HASC_3": "NA","name": "n.a.(185).city","area_km2": 11.809156,"hist_schema_id": "Elevation0-9000","hist_area_km2": {"400": 0.015545,"425": 1.974526,"450": 0.855693,"475": 2.164244,"500": 1.899581,"525": 1.167559,"550": 0.451257,"575": 0.279911,"600": 0.248703,"625": 0.264242,"650": 0.357469,"675": 0.217545,"700": 0.279723,"725": 0.170976,"750": 0.108827,"775": 0.139944,"800": 0.077782,"825": 0.217793,"850": 0.108897,"875": 0.04667,"900": 0.077784,"925": 0.093341,"950": 0.155564,"975": 0.062226,"1000": 0.077783,"1025": 0.077782,"1050": 0.077783,"1075": 0.077783,"1100": 0.031113,"1125": 0.031113}}}