{"type": "Feature","id": "5841","bbox": [-6.94249,40.24437,-5.09576,41.30299],"geometry": {"type": "Polygon","coordinates": [[[-6.12865,41.19718,717.0],[-6.32189,41.28047,717.0],[-6.48213,41.30299,530.1902],[-6.49585,41.29495,498.5022],[-6.55445,41.27562,682.8652],[-6.5635,41.27071,635.553],[-6.62892,41.26994,637.3777],[-6.64664,41.26761,677.3767],[-6.65822,41.25784,591.6534],[-6.69377,41.21738,682.6362],[-6.70127,41.20245,634.4424],[-6.70695,41.19433,433.0289],[-6.74225,41.17144,635.438],[-6.75522,41.15883,584.7808],[-6.75899,41.15175,504.8078],[-6.75651,41.12705,487.4137],[-6.76478,41.10886,308.7025],[-6.80436,41.06442,417.1358],[-6.818,41.05414,682.8287],[-6.84529,41.05191,569.8083],[-6.90683,41.0561,266.7236],[-6.92745,41.0481,508.7606],[-6.92787,41.04793,508.7606],[-6.93179,41.02912,124.0],[-6.94249,41.016,202.8551],[-6.94042,41.00339,276.4791],[-6.93061,40.99207,434.0204],[-6.89924,40.96675,521.7047],[-6.88518,40.94892,529.793],[-6.86363,40.90831,575.8657],[-6.85526,40.88722,571.7414],[-6.84705,40.8789,595.5327],[-6.83206,40.8759,626.194],[-6.82116,40.87006,595.3895],[-6.81619,40.85684,566.5728],[-6.82033,40.84423,558.075],[-6.83666,40.84025,620.5705],[-6.83805,40.81493,698.1295],[-6.83681,40.80831,711.4531],[-6.83351,40.79782,709.9711],[-6.83454,40.79224,717.4667],[-6.83728,40.78676,721.5172],[-6.83914,40.77689,725.3079],[-6.83914,40.75751,739.6574],[-6.83697,40.7433,731.5194],[-6.82431,40.71069,743.5541],[-6.81625,40.67716,769.7141],[-6.81423,40.65933,757.2594],[-6.81428,40.64718,745.3235],[-6.82131,40.63018,751.209],[-6.84446,40.59778,774.4766],[-6.85046,40.58223,777.8032],[-6.84839,40.56476,792.0635],[-6.83976,40.55458,781.1691],[-6.82854,40.54554,773.5129],[-6.81805,40.53189,774.1528],[-6.81253,40.51463,758.584],[-6.81532,40.50254,784.6328],[-6.83867,40.47722,783.6077],[-6.85712,40.44213,830.3151],[-6.85128,40.40952,811.3751],[-6.82808,40.38059,831.0624],[-6.79444,40.3564,896.1695],[-6.81196,40.33232,890.3739],[-6.82079,40.32534,897.5728],[-6.86394,40.30095,1070.0001],[-6.8702,40.29553,1003.654],[-6.87387,40.28777,1115.2739],[-6.87451,40.27919,1086.5898],[-6.86219,40.27175,1235.8263],[-6.84425,40.25579,1195.5966],[-6.83475,40.25031,1211.7776],[-6.82451,40.24636,1239.1893],[-6.81469,40.24442,1187.5403],[-6.8047,40.24437,1202.5],[-6.79439,40.24791,1052.3064],[-6.78514,40.24871,1058.454],[-6.77777,40.24648,1028.8977],[-6.75878,40.24483,1292.3846],[-6.72633,40.25811,961.6229],[-6.71765,40.25894,898.4476],[-6.69871,40.25085,909.7752],[-6.68858,40.24974,903.2337],[-6.67742,40.25351,957.9178],[-6.6684,40.25816,738.7731],[-6.65504,40.26204,773.6171],[-6.58515,40.27199,1311.8079],[-6.57101,40.27653,1068.8097],[-6.56223,40.2815,921.603],[-6.55611,40.2871,1098.5352],[-6.55319,40.29387,1097.4066],[-6.55277,40.30085,952.0979],[-6.55812,40.3147,947.3737],[-6.55797,40.32157,887.8938],[-6.55308,40.32782,845.1536],[-6.54688,40.33364,853.9102],[-6.51554,40.35242,997.1441],[-6.50784,40.35586,1097.6877],[-6.4874,40.36211,1196.3855],[-6.47983,40.36555,1179.1984],[-6.44226,40.37593,1235.9552],[-6.42131,40.3934,1200.3574],[-6.41281,40.39743,1228.8645],[-6.40221,40.40064,1368.4435],[-6.3724,40.40544,1222.2938],[-6.36273,40.4104,1513.7133],[-6.35772,40.41735,1423.8254],[-6.35446,40.4243,1222.6627],[-6.3495,40.43061,1260.2754],[-6.34242,40.43609,1035.9851],[-6.33348,40.44159,903.7307],[-6.32315,40.44632,1089.7188],[-6.3055,40.44875,904.9274],[-6.29258,40.45169,1033.4382],[-6.28021,40.45598,1148.8922],[-6.24623,40.47526,1025.983],[-6.23669,40.47944,1065.6332],[-6.22411,40.48032,1164.8555],[-6.20667,40.47756,1199.1462],[-6.1729,40.46092,1232.2212],[-6.16259,40.45448,913.2266],[-6.14652,40.4413,528.0828],[-6.13714,40.43753,905.8],[-6.11797,40.43381,777.3668],[-6.11642,40.4274,591.7737],[-6.11582,40.42125,545.9394],[-6.10774,40.41552,459.2383],[-6.09559,40.41061,402.7052],[-6.07461,40.40474,391.9098],[-6.06913,40.40017,386.9058],[-6.06911,40.39629,382.6467],[-6.07508,40.3887,380.5],[-6.07562,40.38472,443.2487],[-6.07841,40.38074,391.7386],[-6.08234,40.37666,413.9496],[-6.08425,40.37294,389.6244],[-6.08663,40.36508,430.4496],[-6.08957,40.36115,380.0],[-6.09626,40.35756,383.0695],[-6.09316,40.35369,524.9101],[-6.08004,40.34839,742.3339],[-6.04508,40.33769,799.66],[-6.02301,40.32777,845.9755],[-6.00952,40.31924,1012.7089],[-6.0012,40.31152,896.1898],[-5.98761,40.30323,721.328],[-5.95154,40.28914,641.4003],[-5.92555,40.2815,684.9229],[-5.91245,40.28075,627.8534],[-5.90369,40.28426,667.9493],[-5.89646,40.29,600.5377],[-5.89181,40.29689,656.0499],[-5.88821,40.30436,762.3918],[-5.88581,40.31129,792.7295],[-5.88181,40.31749,830.5012],[-5.87506,40.32167,923.3027],[-5.86762,40.32493,895.8301],[-5.83408,40.33222,1081.7743],[-5.81333,40.34085,1383.7397],[-5.80416,40.34296,1438.2773],[-5.79499,40.34183,1318.5127],[-5.78538,40.33165,1400.8997],[-5.78158,40.32335,1584.3691],[-5.78075,40.31506,1548.5179],[-5.783,40.30808,1568.2964],[-5.79181,40.29604,1318.6895],[-5.7898,40.29046,1507.7328],[-5.78365,40.28615,1777.5513],[-5.76243,40.28441,2121.7915],[-5.72773,40.29397,2145.6152],[-5.68043,40.34739,2160.5046],[-5.67513,40.35883,1820.012],[-5.67474,40.37137,1624.8477],[-5.67963,40.38542,1690.6494],[-5.69272,40.40462,1328.7427],[-5.6946,40.4141,1282.4094],[-5.68771,40.42458,1185.8381],[-5.61702,40.46769,973.7633],[-5.59051,40.47358,1003.5667],[-5.58007,40.47239,988.3179],[-5.57523,40.46685,1028.4509],[-5.57327,40.44805,1097.188],[-5.54939,40.4265,989.1671],[-5.53458,40.41838,999.9734],[-5.52036,40.41923,990.6144],[-5.5091,40.42862,973.9623],[-5.51538,40.45571,944.816],[-5.47845,40.46015,945.187],[-5.46719,40.4685,963.8309],[-5.45961,40.47975,1004.4261],[-5.43654,40.54783,1132.9554],[-5.51183,40.54828,1215.1559],[-5.51732,40.58293,961.434],[-5.51153,40.58211,994.1573],[-5.4474,40.58652,1089.9333],[-5.41348,40.5995,1106.8423],[-5.38555,40.61972,1098.6995],[-5.36305,40.67439,1034.8315],[-5.2439,40.73998,990.2498],[-5.2175,40.7724,924.3939],[-5.17964,40.79294,964.9194],[-5.16151,40.81854,947.3115],[-5.15915,40.83019,929.5903],[-5.16249,40.8681,946.3763],[-5.11137,40.91477,916.1962],[-5.1275,40.95425,898.5368],[-5.10396,40.97377,864.4064],[-5.09739,40.98542,851.605],[-5.09576,41.00166,843.613],[-5.0999,41.01999,833.6468],[-5.10451,41.02812,826.0048],[-5.11107,41.03489,822.5911],[-5.11775,41.03831,819.927],[-5.13842,41.0414,817.1474],[-5.14452,41.04517,816.4902],[-5.14715,41.05024,811.5364],[-5.15153,41.08331,800.6522],[-5.14553,41.10021,804.0687],[-5.1251,41.13199,785.623],[-5.17449,41.16538,770.1281],[-5.18675,41.16806,775.2392],[-5.21118,41.16786,777.0519],[-5.22282,41.17034,774.2835],[-5.23078,41.17635,771.868],[-5.24409,41.19252,779.0012],[-5.25308,41.19676,785.1562],[-5.26211,41.19586,787.3622],[-5.28878,41.18209,809.306],[-5.29415,41.13115,787.0313],[-5.29634,41.12451,779.3467],[-5.30109,41.11986,781.3408],[-5.30955,41.11702,784.069],[-5.32008,41.11615,784.7391],[-5.32914,41.11782,784.2651],[-5.3372,41.12205,789.2445],[-5.35597,41.14047,816.6277],[-5.36264,41.14392,824.9581],[-5.39721,41.14613,839.4556],[-5.40169,41.14778,834.3977],[-5.40752,41.18553,870.277],[-5.49675,41.17729,911.922],[-5.54914,41.20668,886.4009],[-5.61121,41.20869,858.6991],[-5.63049,41.21625,867.4658],[-5.66046,41.24408,846.2006],[-5.67327,41.24541,853.6575],[-5.71185,41.22853,857.0319],[-5.81127,41.21658,891.623],[-5.88918,41.23528,973.4999],[-5.90809,41.23299,907.3406],[-5.91774,41.22186,883.5662],[-5.92077,41.2052,867.1604],[-5.91853,41.18052,860.9541],[-5.91497,41.16846,839.1198],[-5.91466,41.16267,833.3771],[-5.92055,41.15148,828.6119],[-5.93261,41.1438,799.7812],[-5.94676,41.14115,800.0403],[-5.95897,41.14499,814.3616],[-5.96274,41.15042,821.4016],[-5.96579,41.15747,804.134],[-5.96972,41.16308,804.7583],[-5.97607,41.16415,803.1998],[-5.98049,41.16169,790.813],[-5.99198,41.15041,778.7623],[-5.9995,41.14921,796.2541],[-6.00769,41.15164,804.223],[-6.02764,41.16502,783.9175],[-6.0283,41.16878,794.4857],[-6.0231,41.18159,829.3155],[-6.02259,41.18998,828.2261],[-6.02562,41.19619,833.3851],[-6.03142,41.20073,826.1298],[-6.05636,41.20836,799.0466],[-6.1093,41.21264,769.1129],[-6.12865,41.19718,717.0]]]}
,"properties": {"ISO3166-1-Alpha-3": "ESP","country": "Spain","fill": "#FF0","name": "Salamanca","area_km2": 12562.886,"hist_schema_id": "Elevation0-9000","hist_area_km2": {"125": 3.295,"150": 4.367,"175": 6.463,"200": 12.341,"225": 8.139,"250": 8.331,"275": 8.876,"300": 8.556,"325": 13.898,"350": 13.602,"375": 16.621,"400": 21.71,"425": 26.119,"450": 31.46,"475": 36.038,"500": 42.883,"525": 51.167,"550": 63.492,"575": 77.827,"600": 110.025,"625": 184.811,"650": 298.763,"675": 414.38,"700": 509.106,"725": 697.177,"750": 907.22,"775": 1177.014,"800": 1429.609,"825": 1470.015,"850": 1099.843,"875": 879.922,"900": 706.951,"925": 549.262,"950": 427.964,"975": 335.593,"1000": 214.163,"1025": 142.409,"1050": 109.239,"1075": 86.735,"1100": 61.68,"1125": 44.055,"1150": 32.968,"1175": 27.035,"1200": 21.937,"1225": 18.968,"1250": 16.196,"1275": 14.017,"1300": 12.437,"1325": 10.34,"1350": 8.92,"1375": 7.921,"1400": 6.292,"1425": 6.018,"1450": 4.745,"1475": 4.486,"1500": 4.293,"1525": 3.647,"1550": 3.276,"1575": 2.599,"1600": 2.083,"1625": 1.728,"1650": 1.502,"1675": 1.68,"1700": 1.519,"1725": 1.616,"1750": 1.697,"1775": 1.842,"1800": 1.648,"1825": 1.519,"1850": 1.438,"1875": 1.746,"1900": 1.552,"1925": 1.729,"1950": 1.406,"1975": 1.018,"2000": 1.132,"2025": 1.229,"2050": 1.18,"2075": 1.18,"2100": 1.309,"2125": 1.374,"2150": 1.229,"2175": 1.212,"2200": 1.229,"2225": 1.229,"2250": 1.196,"2275": 1.277,"2300": 1.406,"2325": 1.293,"2350": 1.406,"2375": 0.808,"2400": 0.226}}}