{"type":"Feature","properties":{"GID_1":"ESP.10_1","GID_0":"ESP","country":"Spain","province":"ComunidadValenciana","VARNAME_1":"Valencia|CommunautédeValence|C","NL_NAME_1":"NA","TYPE_1":"ComunidadAutónoma","ENGTYPE_1":"AutonomousCommunity","CC_1":"10","HASC_1":"ES.VC","ISO_1":"NA","name":"Comunidad_Valenciana.province"},
"geometry":{"type": "MultiPolygon","coordinates": [[[[-0.7524,37.8865,6.6746],[-0.7504,37.8982,15.0582],[-0.746,37.8996,0.112],[-0.746,37.9024,2.1092],[-0.7407,37.9093,22.8084],[-0.736,37.9085,0.0],[-0.7296,37.9132,9.5159],[-0.7265,37.9107,0.0],[-0.7221,37.9099,0.0],[-0.719,37.9115,0.0],[-0.7201,37.9179,0.0],[-0.7224,37.9201,11.6111],[-0.721,37.9221,0.0],[-0.7215,37.9268,11.1914],[-0.719,37.9279,0.0],[-0.7207,37.9296,0.0],[-0.7187,37.9304,0.0],[-0.7176,37.9368,5.162],[-0.7157,37.9388,15.4943],[-0.7104,37.9415,0.0],[-0.7046,37.9415,0.0],[-0.7032,37.956,0.4599],[-0.6968,37.9693,7.3216],[-0.6924,37.9699,0.8927],[-0.6879,37.9663,0.0],[-0.6932,37.9721,0.4731],[-0.6899,37.9749,1.4733],[-0.6888,37.9724,0.0],[-0.6862,37.9718,0.0],[-0.681,37.974,0.6889],[-0.6776,37.9726,0.0],[-0.6693,37.9774,14.3127],[-0.6676,37.9751,0.0],[-0.666,37.9757,1.6664],[-0.661,37.9832,7.5681],[-0.6557,37.9829,0.4684],[-0.6529,37.9965,2.3941],[-0.6474,37.9996,0.3044],[-0.6471,38.0051,0.0],[-0.6529,38.0085,9.3418],[-0.6537,38.0224,5.8877],[-0.6507,38.0307,0.0],[-0.6537,38.0349,7.1917],[-0.6513,38.0615,17.194],[-0.6476,38.0751,1.5092],[-0.6476,38.0846,6.635],[-0.6429,38.1096,0.0],[-0.6449,38.1113,0.5366],[-0.6424,38.1118,0.0],[-0.6424,38.1143,0.9812],[-0.6438,38.1146,2.4976],[-0.6415,38.1162,0.9983],[-0.6385,38.1368,2.5398],[-0.6349,38.1407,3.5033],[-0.6326,38.1476,0.6076],[-0.6285,38.151,0.0],[-0.6262,38.1565,2.454],[-0.6182,38.1654,0.0],[-0.6182,38.1688,0.9522],[-0.6146,38.174,0.3093],[-0.5951,38.189,0.102],[-0.5663,38.1918,-0.4722],[-0.5629,38.1862,0.0],[-0.5618,38.1868,0.0],[-0.5624,38.1907,3.9242],[-0.5607,38.1907,2.4431],[-0.5604,38.1882,0.0],[-0.5582,38.1901,0.0],[-0.5571,38.1893,0.0],[-0.5624,38.1846,0.6636],[-0.5565,38.1874,0.0],[-0.5562,38.1893,2.129],[-0.5401,38.189,5.6159],[-0.5393,38.1871,0.2271],[-0.5376,38.1871,0.0],[-0.5376,38.1893,6.6523],[-0.5288,38.1896,1.2296],[-0.5201,38.1926,4.97],[-0.5104,38.201,0.0],[-0.5071,38.2165,0.0],[-0.5079,38.2207,0.0],[-0.511,38.2246,0.0],[-0.5107,38.2299,0.0],[-0.5143,38.2357,1.1712],[-0.5154,38.2518,0.0],[-0.5193,38.2671,0.0],[-0.521,38.2899,1.5288],[-0.5146,38.3165,1.912],[-0.5062,38.3326,5.9122],[-0.5015,38.3351,3.8418],[-0.501,38.3332,2.6864],[-0.4988,38.3332,2.2102],[-0.4929,38.329,1.7015],[-0.4912,38.3307,0.0],[-0.4946,38.334,1.6775],[-0.4921,38.3343,1.6344],[-0.4901,38.3321,0.7489],[-0.4863,38.3329,0.0],[-0.4874,38.3357,2.2248],[-0.4821,38.3374,0.0],[-0.4849,38.3387,6.2935],[-0.4835,38.3393,0.0],[-0.4846,38.3418,5.3431],[-0.4826,38.3424,2.5453],[-0.4832,38.3401,0.0],[-0.4796,38.3385,0.0],[-0.4793,38.3368,0.2724],[-0.4865,38.3318,0.7127],[-0.4868,38.3293,0.0],[-0.4774,38.3365,0.3905],[-0.4785,38.344,6.5281],[-0.476,38.3465,0.0],[-0.4654,38.3513,0.0],[-0.4624,38.3549,6.4126],[-0.4515,38.3585,0.0],[-0.4449,38.3632,2.5046],[-0.4424,38.3632,1.5126],[-0.4399,38.3604,0.0],[-0.4343,38.3607,9.0394],[-0.4337,38.3557,0.0393],[-0.4285,38.354,3.3298],[-0.4124,38.3515,0.0],[-0.4021,38.3526,0.0],[-0.4099,38.359,3.6069],[-0.4104,38.3679,1.0736],[-0.4076,38.3929,5.0318],[-0.4013,38.4121,9.4705],[-0.391,38.4157,1.0643],[-0.389,38.4279,7.384],[-0.3871,38.4299,0.3963],[-0.3851,38.4304,0.1602],[-0.3837,38.429,0.2734],[-0.3818,38.4315,0.606],[-0.3801,38.431,0.3179],[-0.3826,38.4349,5.908],[-0.3765,38.4379,0.0],[-0.3768,38.4407,1.9865],[-0.3751,38.4426,1.8886],[-0.3696,38.4432,0.0],[-0.3676,38.4457,24.7036],[-0.364,38.4454,0.0],[-0.3632,38.4476,12.5776],[-0.3607,38.4471,0.0],[-0.3601,38.449,9.1265],[-0.3568,38.4482,0.0],[-0.3513,38.4529,4.0077],[-0.349,38.4529,0.0],[-0.346,38.4557,16.9575],[-0.3432,38.4554,0.0],[-0.3418,38.4579,1.7406],[-0.3326,38.4637,0.0],[-0.3182,38.4707,1.7402],[-0.3162,38.4749,3.3748],[-0.2896,38.4874,28.7139],[-0.2824,38.4879,0.0],[-0.2799,38.4904,0.0],[-0.2737,38.4904,0.0],[-0.2682,38.4943,8.528],[-0.2499,38.499,3.8349],[-0.2371,38.4996,0.0],[-0.2235,38.5085,6.0236],[-0.2199,38.5071,0.4451],[-0.2168,38.5082,0.5312],[-0.2207,38.506,0.3694],[-0.2188,38.5054,0.0],[-0.2099,38.5107,5.2443],[-0.1993,38.5132,0.0],[-0.1985,38.5149,0.5713],[-0.1915,38.5157,30.4788],[-0.1874,38.514,5.111],[-0.1821,38.5163,9.2814],[-0.1732,38.5154,0.0],[-0.1682,38.5196,0.0],[-0.1668,38.5243,2.9292],[-0.1646,38.5232,0.0],[-0.1604,38.5243,15.342],[-0.1621,38.5279,19.2354],[-0.1582,38.5326,3.7894],[-0.1476,38.5368,1.1483],[-0.134,38.5365,1.7795],[-0.131,38.5326,0.0],[-0.1299,38.5346,5.2132],[-0.1249,38.536,4.8464],[-0.1115,38.5346,3.7662],[-0.1079,38.5324,17.0096],[-0.1088,38.5282,0.0],[-0.0965,38.5235,0.0],[-0.0949,38.5265,0.0],[-0.0887,38.529,0.0],[-0.0874,38.5324,12.2366],[-0.0799,38.5354,0.0],[-0.0793,38.5371,159.6527],[-0.076,38.5371,45.0426],[-0.0729,38.5415,0.0],[-0.0696,38.5418,0.0],[-0.064,38.5504,0.0],[-0.0585,38.5515,0.0],[-0.0568,38.5537,16.54],[-0.0574,38.5565,28.3791],[-0.0487,38.5632,23.5726],[-0.0496,38.5662,0.0],[-0.0532,38.5651,31.3746],[-0.0551,38.5687,48.9794],[-0.064,38.5715,19.7017],[-0.0624,38.581,0.0],[-0.0596,38.586,3.2931],[-0.0579,38.5876,1.2092],[-0.0554,38.5874,0.0],[-0.0543,38.5901,0.4332],[-0.0532,38.5899,0.4332],[-0.0538,38.5868,0.0],[-0.0524,38.5876,0.0],[-0.0526,38.5935,0.5419],[-0.0404,38.6037,0.0],[-0.0282,38.6188,12.7563],[-0.0232,38.6204,0.0],[-0.0157,38.6265,5.7424],[-0.0104,38.6274,2.762],[-0.006,38.6304,0.0],[-0.004,38.6282,0.0],[0.0004,38.6279,0.0],[0.001,38.6301,0.0],[0.0037,38.6301,0.0],[0.006,38.6282,0.0],[0.0093,38.6315,0.0],[0.0149,38.6315,53.9213],[0.0268,38.6282,128.9814],[0.0282,38.6251,0.0],[0.031,38.6251,0.0],[0.0301,38.629,31.8752],[0.0318,38.6296,31.8752],[0.0307,38.631,31.612],[0.0362,38.634,0.0],[0.0357,38.6362,5.5438],[0.0396,38.6362,0.0],[0.041,38.6387,0.0],[0.0482,38.6415,7.6556],[0.0676,38.6404,0.0],[0.0688,38.6365,0.0],[0.0671,38.6354,0.0],[0.0713,38.6349,25.3368],[0.0721,38.6324,1.4892],[0.0776,38.6329,71.501],[0.0832,38.6312,-0.444],[0.0812,38.6354,0.0],[0.0785,38.6354,60.2856],[0.0762,38.6374,25.9362],[0.0771,38.6407,1.9086],[0.0732,38.6415,2.6322],[0.0732,38.6451,0.0],[0.0746,38.6479,3.9276],[0.0785,38.6496,0.0],[0.0785,38.6529,0.0],[0.0818,38.6571,10.3686],[0.086,38.6593,0.0],[0.0893,38.6626,4.7433],[0.0893,38.6651,1.6532],[0.0932,38.6668,2.1282],[0.0946,38.6696,0.0],[0.1018,38.6738,40.2876],[0.111,38.6749,15.5731],[0.1151,38.6732,0.0],[0.1224,38.6829,11.778],[0.1304,38.6862,0.0],[0.139,38.6849,0.0],[0.1462,38.6876,6.7555],[0.1474,38.6871,31.7954],[0.1471,38.6813,0.0],[0.1496,38.6799,0.0],[0.1557,38.6871,0.0],[0.1571,38.699,111.5817],[0.1585,38.6987,0.0],[0.1654,38.7046,0.0],[0.1674,38.7104,4.0881],[0.1771,38.7135,0.0],[0.1804,38.7163,0.0],[0.1826,38.7212,73.98],[0.1851,38.7201,0.0],[0.1862,38.7221,151.782],[0.1921,38.7246,80.5921],[0.199,38.7249,0.0],[0.1999,38.7257,0.0],[0.1974,38.7287,18.7063],[0.2063,38.7324,62.5174],[0.2129,38.7324,92.6448],[0.214,38.7276,0.0],[0.2188,38.726,4.4597],[0.2171,38.7293,0.0],[0.2188,38.731,48.9273],[0.2229,38.7304,0.0],[0.2265,38.7332,69.284],[0.2315,38.7321,0.0],[0.2326,38.7363,7.9634],[0.2349,38.7371,0.0],[0.2338,38.7393,0.0],[0.2349,38.7407,0.0],[0.2321,38.7407,0.0],[0.2335,38.7463,12.3636],[0.2287,38.7457,0.0],[0.2246,38.7493,17.387],[0.2243,38.7526,10.9229],[0.2271,38.7543,0.0],[0.2218,38.7579,9.2802],[0.2251,38.7607,0.0],[0.2235,38.7621,0.0],[0.2254,38.7643,0.0],[0.2204,38.764,0.0],[0.2204,38.7607,3.7971],[0.2154,38.7624,0.0],[0.2101,38.7607,0.0],[0.1957,38.7718,4.5332],[0.1943,38.7746,0.0],[0.1924,38.7715,1.5359],[0.1893,38.7732,3.3854],[0.1899,38.7746,2.4562],[0.1921,38.7743,0.0],[0.1921,38.7757,0.0],[0.184,38.7854,5.8344],[0.1826,38.7951,0.0],[0.1871,38.7965,0.1226],[0.1879,38.7949,0.0],[0.1899,38.7999,29.6619],[0.1988,38.801,0.0],[0.1999,38.8026,0.0],[0.1979,38.8049,82.143],[0.1949,38.8049,111.8711],[0.1901,38.8093,37.1332],[0.1649,38.8187,33.2159],[0.1601,38.8224,0.0],[0.1604,38.8238,0.0],[0.1571,38.8249,6.187],[0.1557,38.8276,0.0],[0.151,38.8276,3.3772],[0.1488,38.8318,0.0],[0.1401,38.8326,0.9224],[0.1332,38.8357,0.0],[0.1299,38.8324,2.1915],[0.1243,38.8332,6.9051],[0.1221,38.8354,3.1322],[0.1215,38.8426,0.0],[0.1182,38.8418,0.0],[0.1204,38.839,0.9007],[0.1193,38.8385,0.0],[0.1126,38.8429,0.0],[0.1124,38.846,1.1682],[0.1179,38.8421,0.5032],[0.1188,38.8446,0.0],[0.1215,38.844,0.0],[0.1257,38.8488,0.0],[0.1204,38.8454,0.0],[0.1168,38.8454,1.0054],[0.1132,38.8471,0.0],[0.1126,38.8493,0.0],[0.109,38.8474,0.3439],[0.1029,38.8482,1.1744],[0.0996,38.8515,1.4334],[0.0924,38.8543,0.6396],[0.0793,38.856,0.7811],[0.0546,38.8635,1.0979],[0.0482,38.8635,0.0],[0.0471,38.8607,0.8186],[0.0346,38.8599,2.5187],[0.021,38.8654,1.6836],[0.0151,38.864,0.9146],[0.0071,38.8671,0.0],[-0.0149,38.8713,1.9664],[-0.0649,38.9051,2.2194],[-0.0665,38.9085,0.3748],[-0.0715,38.9104,1.7098],[-0.0824,38.9218,0.692],[-0.0843,38.9218,2.682],[-0.0868,38.9254,0.0],[-0.0924,38.929,0.7526],[-0.0937,38.9304,2.5777],[-0.0935,38.9335,0.0],[-0.096,38.9324,0.7082],[-0.1024,38.9388,0.0],[-0.1037,38.9385,1.2853],[-0.1049,38.9415,0.0],[-0.1071,38.9415,1.0249],[-0.1315,38.9679,0.0],[-0.1357,38.9696,4.1481],[-0.1393,38.9757,0.0],[-0.1488,38.9849,0.4786],[-0.1535,38.9921,2.5975],[-0.1504,38.9912,0.0],[-0.1485,38.994,0.0],[-0.1521,38.9957,0.0],[-0.1593,38.9938,0.3131],[-0.1513,38.9971,0.0],[-0.1565,38.9985,0.5564],[-0.1604,39.0021,2.4934],[-0.1874,39.0363,0.3403],[-0.1901,39.044,0.0],[-0.1949,39.0493,3.3235],[-0.2082,39.0724,1.769],[-0.2204,39.0993,0.2854],[-0.2207,39.1026,0.0],[-0.2276,39.1146,0.8365],[-0.2296,39.1229,0.7221],[-0.2368,39.1279,0.259],[-0.2362,39.1287,0.259],[-0.2324,39.1271,1.2674],[-0.2396,39.146,0.0],[-0.2393,39.1507,0.0],[-0.2415,39.156,1.8797],[-0.2401,39.1743,4.8866],[-0.2357,39.1804,3.1545],[-0.2296,39.1799,0.0],[-0.2276,39.1818,3.744],[-0.224,39.181,9.2328],[-0.2232,39.1821,28.4937],[-0.2199,39.1807,4.101],[-0.216,39.1868,1.0166],[-0.2204,39.1871,0.0],[-0.2232,39.1893,0.0],[-0.2351,39.2104,0.3574],[-0.2482,39.2293,2.8181],[-0.2732,39.2762,0.0],[-0.286,39.2962,2.3716],[-0.2882,39.2976,4.5452],[-0.2887,39.3024,0.0],[-0.2926,39.3065,3.0276],[-0.3165,39.3618,0.267],[-0.329,39.399,0.9478],[-0.3343,39.4235,0.1937],[-0.3593,39.4338,2.4548],[-0.3657,39.4349,3.3352],[-0.361,39.4351,2.4548],[-0.3362,39.4263,0.9104],[-0.3315,39.426,0.2124],[-0.3301,39.4271,0.0],[-0.3304,39.4354,4.8181],[-0.3271,39.4418,3.5221],[-0.3201,39.444,1.9136],[-0.3201,39.4454,1.9136],[-0.3238,39.446,0.0],[-0.3249,39.4476,0.0],[-0.3246,39.449,0.0],[-0.3204,39.4493,0.3239],[-0.3232,39.451,0.0],[-0.3243,39.454,0.8467],[-0.3271,39.4546,2.5807],[-0.3251,39.4574,1.1489],[-0.329,39.4571,1.7196],[-0.3304,39.4601,2.1338],[-0.3288,39.4618,2.0817],[-0.326,39.4615,2.6848],[-0.3251,39.4579,1.1489],[-0.3213,39.4554,0.0],[-0.316,39.4474,0.0],[-0.3129,39.4499,1.2352],[-0.3096,39.4501,1.9639],[-0.3226,39.4643,3.2673],[-0.324,39.4712,0.0],[-0.3251,39.4876,0.4497],[-0.3224,39.5057,6.5168],[-0.3162,39.5235,0.6101],[-0.2938,39.5537,1.1828],[-0.2885,39.559,0.4041],[-0.2812,39.5624,0.3094],[-0.2818,39.5662,0.4635],[-0.2737,39.5782,0.0],[-0.266,39.6046,1.8158],[-0.261,39.6132,0.6651],[-0.2499,39.6257,0.8881],[-0.2374,39.6365,0.0],[-0.214,39.6468,2.5874],[-0.214,39.6482,2.0295],[-0.2185,39.6504,0.818],[-0.2157,39.6549,0.6828],[-0.211,39.6538,2.5531],[-0.2087,39.6429,0.0],[-0.2082,39.644,0.0],[-0.2101,39.6535,2.5986],[-0.1946,39.6465,0.0],[-0.2004,39.6504,0.0],[-0.2129,39.6554,2.5531],[-0.2143,39.6576,4.4363],[-0.2096,39.661,0.407],[-0.2054,39.6693,1.2617],[-0.2015,39.6729,0.0],[-0.2032,39.676,1.4256],[-0.2026,39.686,0.919],[-0.1974,39.704,2.277],[-0.1821,39.7335,0.0],[-0.1543,39.7687,1.1316],[-0.1515,39.7699,0.7948],[-0.1418,39.7865,0.0],[-0.1368,39.7893,0.0],[-0.1196,39.816,0.6231],[-0.1018,39.8338,0.3423],[-0.0879,39.8554,0.4497],[-0.0785,39.8626,2.2456],[-0.0737,39.8618,0.0128],[-0.0726,39.8638,0.7589],[-0.0707,39.8638,0.9341],[-0.0699,39.861,0.2822],[-0.0674,39.8615,0.0],[-0.0665,39.8632,0.2323],[-0.0704,39.8649,0.9341],[-0.0693,39.8674,2.5642],[-0.0549,39.8751,1.4768],[-0.0296,39.8982,1.5246],[-0.0124,39.9071,0.0255],[-0.006,39.9146,0.3998],[-0.0007,39.9321,2.2111],[0.0018,39.9338,0.0],[0.001,39.9368,3.4193],[0.0026,39.9374,0.3928],[0.0035,39.9526,0.6253],[0.0085,39.9663,1.4515],[0.0101,39.9679,2.2416],[0.0151,39.966,0.0],[0.0213,39.9668,0.0],[0.0204,39.9674,0.0],[0.0168,39.9665,0.1683],[0.014,39.9685,0.2014],[0.0151,39.969,1.1258],[0.0196,39.9676,0.0],[0.016,39.9715,0.0],[0.0168,39.9735,0.0],[0.0201,39.9726,0.3298],[0.0204,39.969,1.4807],[0.0243,39.9712,5.9909],[0.0287,39.9668,4.6192],[0.0265,39.974,2.8353],[0.0249,39.9751,3.067],[0.026,39.9774,0.0],[0.0229,39.9776,3.252],[0.0226,39.9793,3.2022],[0.0296,40.0007,0.2745],[0.0307,40.0021,1.395],[0.0329,40.0015,0.0],[0.0315,40.0038,2.5402],[0.0343,40.0115,0.4153],[0.0362,40.0115,0.0],[0.0404,40.016,0.4059],[0.0451,40.0288,1.4764],[0.0493,40.0351,2.339],[0.0837,40.0571,8.9837],[0.091,40.0554,0.0],[0.1068,40.056,0.0],[0.1138,40.061,5.3727],[0.1201,40.0615,0.3128],[0.1274,40.0687,2.4252],[0.1351,40.0737,0.0],[0.1357,40.0801,7.0826],[0.1374,40.0818,1.8948],[0.1424,40.084,3.3562],[0.1446,40.0807,2.6524],[0.1482,40.0829,0.0],[0.149,40.0865,0.0],[0.1468,40.0871,2.2573],[0.1465,40.0915,3.4277],[0.1496,40.101,0.2165],[0.1538,40.1063,0.0],[0.1632,40.1282,1.3428],[0.1837,40.1632,0.4344],[0.1871,40.1649,0.0],[0.1896,40.1693,0.7255],[0.2001,40.1799,0.0],[0.2051,40.1829,0.0],[0.211,40.1838,0.0],[0.2243,40.1946,2.3357],[0.2335,40.1987,0.0],[0.2387,40.1987,0.0],[0.2562,40.2032,0.0],[0.264,40.2079,0.0],[0.2735,40.2282,0.0],[0.2729,40.2349,0.0],[0.2765,40.2376,0.9133],[0.2746,40.2382,4.2065],[0.2749,40.2396,0.2945],[0.2796,40.2446,0.546],[0.2888,40.2485,0.0],[0.2899,40.2504,0.0],[0.2868,40.2515,13.0208],[0.2868,40.2532,11.8365],[0.2913,40.254,0.0],[0.296,40.2582,0.0],[0.3043,40.2593,0.9965],[0.309,40.2668,1.0665],[0.3257,40.2754,0.0],[0.3326,40.2818,0.0],[0.3343,40.2893,2.3355],[0.3371,40.2929,1.7046],[0.3474,40.296,0.7242],[0.3504,40.2993,1.09],[0.3537,40.311,1.2237],[0.3632,40.3193,0.0],[0.3657,40.3246,0.0],[0.3868,40.3401,0.0],[0.3929,40.351,0.0],[0.3987,40.3537,0.0],[0.3993,40.3576,4.6477],[0.4026,40.3582,1.824],[0.4029,40.3557,0.0],[0.4054,40.3563,0.0],[0.4024,40.3546,0.0],[0.4024,40.3529,0.0],[0.4071,40.3557,0.5942],[0.409,40.3585,6.9201],[0.4043,40.3599,2.9944],[0.4035,40.3654,0.0],[0.4104,40.3854,2.3449],[0.4179,40.4012,4.0648],[0.4251,40.4076,0.5855],[0.4293,40.4093,0.0],[0.4337,40.4154,0.0],[0.436,40.4154,0.2535],[0.4349,40.409,0.0],[0.436,40.4093,0.0],[0.4399,40.4263,0.0],[0.449,40.4396,3.2687],[0.4535,40.4412,1.3605],[0.4574,40.4476,2.8188],[0.4596,40.4487,0.0],[0.4665,40.4607,4.1388],[0.4707,40.4629,1.7033],[0.4746,40.4613,0.601],[0.4726,40.4637,0.0],[0.476,40.4651,0.0],[0.4785,40.4621,0.0],[0.4763,40.4571,0.0],[0.4779,40.4582,0.0],[0.479,40.4635,0.0],[0.4768,40.4668,0.428],[0.4774,40.4685,3.011],[0.4857,40.4765,0.0],[0.4854,40.4799,1.6634],[0.4888,40.4837,0.0],[0.4879,40.4846,6.1341],[0.4915,40.4888,7.0003],[0.4951,40.4896,0.0],[0.4946,40.4915,8.5348],[0.504,40.5024,2.2318],[0.5057,40.5082,4.7387],[0.5135,40.5157,0.0],[0.5129,40.5176,5.2189],[0.5146,40.5182,0.574],[0.5154,40.5229,4.7437],[0.4988,40.5279,20.7437],[0.4871,40.5292,34.6423],[0.4822,40.5319,40.4121],[0.477,40.532,46.9807],[0.4604,40.5376,64.1723],[0.4565,40.5403,68.1428],[0.449,40.5413,76.3448],[0.4463,40.545,79.5156],[0.438,40.5471,82.5076],[0.4359,40.5499,94.3324],[0.4362,40.5588,96.5547],[0.4335,40.5654,103.0344],[0.4384,40.5702,121.3552],[0.4366,40.5727,128.4769],[0.444,40.5782,122.4203],[0.4307,40.5797,135.0425],[0.4046,40.5949,165.5884],[0.4064,40.5973,169.4358],[0.402,40.6024,177.5804],[0.3962,40.6025,182.8524],[0.3892,40.6066,193.2253],[0.3748,40.6064,212.809],[0.3711,40.6051,219.1929],[0.3508,40.6082,243.8828],[0.3453,40.6076,247.9971],[0.3185,40.615,280.9163],[0.3153,40.6143,284.1018],[0.3008,40.6226,300.7657],[0.2985,40.626,314.6042],[0.2923,40.6233,310.5928],[0.2789,40.6301,319.7288],[0.2759,40.6369,329.1896],[0.271,40.6383,334.8867],[0.2662,40.6442,342.9105],[0.2662,40.6462,354.0631],[0.2692,40.6479,369.2992],[0.2683,40.6596,390.8795],[0.2753,40.6705,710.582],[0.2822,40.6729,758.1711],[0.2857,40.6792,796.8482],[0.2924,40.6852,893.1769],[0.2919,40.6886,886.7307],[0.2769,40.6944,1006.3401],[0.2695,40.7034,1057.7583],[0.2619,40.706,1094.8433],[0.2508,40.7046,1096.4733],[0.2419,40.7004,937.9428],[0.236,40.7021,704.516],[0.2348,40.7063,571.7003],[0.2275,40.715,904.8785],[0.2242,40.7257,1114.4562],[0.2262,40.7332,1252.7903],[0.2171,40.7326,1264.063],[0.1973,40.7242,1330.9272],[0.1911,40.7312,1288.0024],[0.1834,40.7282,1182.7103],[0.1708,40.7329,1337.5345],[0.1684,40.7295,1313.3733],[0.1647,40.7278,1321.0217],[0.1639,40.7236,1309.967],[0.1414,40.7185,1246.5487],[0.1238,40.7208,1333.5088],[0.1166,40.7251,1344.6177],[0.1119,40.7247,1277.797],[0.1125,40.7272,1280.0425],[0.0727,40.7143,1181.4738],[0.0422,40.691,1052.4026],[0.0265,40.695,1225.9901],[0.0269,40.7004,1176.3445],[0.0243,40.7024,1098.7241],[0.0245,40.7073,1061.2339],[0.0284,40.7132,1029.5447],[0.0239,40.7176,977.9241],[0.0188,40.7196,974.2049],[0.0161,40.7233,995.1602],[0.018,40.7259,997.0726],[0.0158,40.7285,990.5001],[-0.0177,40.7312,1083.1072],[-0.0226,40.7302,1055.3092],[-0.0286,40.7263,1139.592],[-0.0307,40.7226,1168.7485],[-0.0537,40.7279,892.2009],[-0.0559,40.7268,956.3405],[-0.0647,40.7274,1088.3181],[-0.0804,40.7337,897.8563],[-0.0864,40.7382,840.5778],[-0.1074,40.7434,774.3401],[-0.1129,40.7483,841.7173],[-0.1257,40.7529,867.7047],[-0.1331,40.758,899.3375],[-0.1385,40.7663,881.0272],[-0.1438,40.7687,849.9292],[-0.1471,40.7751,821.6123],[-0.1445,40.7855,534.5211],[-0.1649,40.7887,852.7717],[-0.1667,40.7858,848.4878],[-0.1971,40.7845,855.537],[-0.1944,40.7818,837.0272],[-0.2017,40.7796,909.5123],[-0.2007,40.7772,904.7983],[-0.2024,40.7748,866.891],[-0.2055,40.7734,889.2732],[-0.2058,40.771,886.3688],[-0.2104,40.7674,878.2548],[-0.213,40.7581,907.8961],[-0.224,40.7542,919.7492],[-0.227,40.7477,904.895],[-0.2268,40.7438,936.1041],[-0.2304,40.7383,930.071],[-0.2292,40.7357,921.6633],[-0.2316,40.7328,924.5692],[-0.2328,40.7262,924.3779],[-0.2371,40.7238,938.8024],[-0.2392,40.7181,944.1832],[-0.2363,40.7097,983.9313],[-0.2335,40.7086,976.1346],[-0.2375,40.698,974.5011],[-0.2359,40.6911,1088.9695],[-0.25,40.6908,1064.2395],[-0.2609,40.6851,1074.6313],[-0.2789,40.6802,1078.5461],[-0.2894,40.6722,1059.7705],[-0.2936,40.674,1063.0989],[-0.299,40.6677,1100.8542],[-0.3061,40.664,1081.3979],[-0.3069,40.6595,1083.2207],[-0.3169,40.6636,938.5287],[-0.32,40.6678,922.8073],[-0.3221,40.6777,850.2413],[-0.3258,40.678,844.8398],[-0.3288,40.6803,821.5286],[-0.3561,40.6777,978.6682],[-0.3705,40.672,867.4885],[-0.3696,40.6701,895.7557],[-0.3728,40.6706,927.0154],[-0.3703,40.669,895.7557],[-0.372,40.6673,912.3549],[-0.378,40.6674,933.1959],[-0.3815,40.6616,897.6359],[-0.3791,40.6568,959.1025],[-0.3707,40.6508,915.7335],[-0.3727,40.6476,935.9221],[-0.3719,40.6411,982.1002],[-0.3764,40.636,1011.2753],[-0.3796,40.6236,1178.4784],[-0.3775,40.618899999999996,1266.4238],[-0.3704,40.6136,1220.6509],[-0.3602,40.6155,1189.713],[-0.344,40.6112,973.2521],[-0.3432,40.6065,899.4538],[-0.3345,40.6074,884.9607],[-0.322,40.6029,874.1321],[-0.3176,40.6081,852.5152],[-0.3115,40.6115,824.825],[-0.2991,40.6129,812.2191],[-0.2932,40.6111,825.1976],[-0.2923,40.6044,813.1167],[-0.2947,40.5998,824.7673],[-0.2933,40.5964,833.902],[-0.2954,40.5953,844.6583],[-0.2934,40.5915,851.0901],[-0.2953,40.586,857.3096],[-0.2943,40.584,854.7916],[-0.2952,40.581,870.5981],[-0.2998,40.5774,928.1119],[-0.2993,40.5738,880.5258],[-0.2948,40.5702,898.7167],[-0.296,40.5605,920.7372],[-0.2924,40.5561,936.603],[-0.294,40.554,953.3773],[-0.2902,40.5531,951.2375],[-0.2925,40.5467,954.8965],[-0.2901,40.544,972.1162],[-0.293,40.5366,986.7912],[-0.2974,40.5313,982.8788],[-0.3018,40.516,1180.0294],[-0.2994,40.5131,1134.5],[-0.2976,40.5058,1287.8644],[-0.2881,40.5096,1283.8848],[-0.2811,40.5052,1267.9827],[-0.2747,40.4969,1174.7921],[-0.2749,40.4934,1139.0343],[-0.2793,40.4886,1113.1265],[-0.2797,40.4835,1110.1498],[-0.2741,40.4817,1089.8286],[-0.2714,40.4785,1065.2733],[-0.2728,40.4737,1085.1646],[-0.2764,40.4758,1105.1915],[-0.2785,40.4754,1075.3546],[-0.2801,40.4724,1079.2175],[-0.281,40.4739,1093.7317],[-0.2832,40.4732,1110.5574],[-0.2857,40.4701,1114.2537],[-0.2873,40.4724,1118.3252],[-0.2903,40.4706,1101.0579],[-0.2954,40.4704,1132.1667],[-0.2934,40.466,1122.2909],[-0.3085,40.4658,1132.5541],[-0.3225,40.4601,1133.2921],[-0.3326,40.4591,1157.0172],[-0.337,40.4566,1151.2411],[-0.339,40.4534,1167.2092],[-0.3388,40.4489,1166.2244],[-0.3428,40.4466,1160.2661],[-0.3426,40.4435,1191.1852],[-0.3473,40.444,1234.5847],[-0.3411,40.4382,1367.6571],[-0.3328,40.4256,1584.5038],[-0.3279,40.4217,1598.4818],[-0.3166,40.4172,1377.4272],[-0.3072,40.4092,1311.1049],[-0.3013,40.3976,1154.1147],[-0.2959,40.3954,1121.1626],[-0.2852,40.3863,998.7495],[-0.2807,40.3769,903.3573],[-0.2816,40.3734,822.2542],[-0.28,40.3695,796.3109],[-0.2825,40.3702,781.0673],[-0.2839,40.3687,843.5006],[-0.2823,40.3651,797.1318],[-0.2854,40.3665,825.8947],[-0.2891,40.3655,815.3239],[-0.2892,40.3681,828.835],[-0.298,40.3617,822.2719],[-0.3045,40.3627,864.3011],[-0.3086,40.3577,844.9251],[-0.3144,40.3584,858.6357],[-0.319,40.3547,912.9183],[-0.3212,40.3501,915.6799],[-0.3316,40.3448,913.3961],[-0.3324,40.3415,925.8122],[-0.3368,40.341,1020.0966],[-0.3376,40.3394,944.4682],[-0.3406,40.34,990.3077],[-0.343,40.3343,961.132],[-0.341,40.329,966.2902],[-0.3437,40.3271,978.4388],[-0.3431,40.3254,997.2026],[-0.3465,40.3251,987.6307],[-0.3477,40.3283,991.6987],[-0.3497,40.328,996.3633],[-0.3485,40.3207,1015.5684],[-0.3535,40.318,1080.5544],[-0.352,40.3176,1023.904],[-0.3529,40.3134,1100.5315],[-0.3548,40.3148,1027.4885],[-0.3582,40.313,1043.036],[-0.3631,40.3166,1039.9021],[-0.3646,40.3137,1084.3218],[-0.3685,40.3121,1114.3153],[-0.37,40.3099,1075.2837],[-0.3672,40.3083,1085.0537],[-0.3662,40.3051,1095.4836],[-0.37,40.3066,1086.3419],[-0.3703,40.3044,1103.0209],[-0.3724,40.3041,1105.176],[-0.3725,40.3086,1120.1145],[-0.3764,40.305,1145.5881],[-0.3789,40.31,1170.5518],[-0.3845,40.3057,1141.4122],[-0.3877,40.3073,1213.0264],[-0.3914,40.3025,1170.9291],[-0.3899,40.2999,1176.5082],[-0.3927,40.2987,1191.5398],[-0.3946,40.3004,1171.7686],[-0.3939,40.2976,1191.5398],[-0.4001,40.2957,1184.7664],[-0.4001,40.2942,1186.4075],[-0.3903,40.288,1244.2659],[-0.3828,40.2783,1523.0635],[-0.385,40.2744,1591.7848],[-0.3836,40.2649,1642.9781],[-0.428,40.2438,1249.363],[-0.4518,40.2353,1019.7321],[-0.4638,40.2339,823.9547],[-0.4699,40.2402,835.4756],[-0.4772,40.2353,1036.4424],[-0.4866,40.2342,1213.2524],[-0.4945,40.2288,1367.1252],[-0.5015,40.2332,1492.4437],[-0.5105,40.2318,1494.0247],[-0.5292,40.2394,1611.5281],[-0.5441,40.2517,1628.1825],[-0.5478,40.2443,1689.7549],[-0.559,40.2101,1185.0343],[-0.5578,40.2009,1124.8116],[-0.5609,40.1974,1105.4541],[-0.5637,40.1887,1048.085],[-0.5721,40.1815,848.7708],[-0.5704,40.1803,881.5598],[-0.5716,40.1749,829.9601],[-0.5739,40.173,842.047],[-0.5696,40.162,772.1829],[-0.5707,40.16,764.4478],[-0.5692,40.1592,764.4478],[-0.5705,40.1554,768.1557],[-0.5747,40.1526,736.4904],[-0.5747,40.1487,733.0366],[-0.5793,40.1476,720.9002],[-0.5784,40.1381,692.2981],[-0.5869,40.1315,676.4565],[-0.5908,40.1337,674.3477],[-0.597,40.1321,658.9354],[-0.5985,40.1286,643.6125],[-0.604,40.1268,644.5117],[-0.6065,40.1283,631.1358],[-0.6286,40.1021,1003.8641],[-0.6135,40.07,780.885],[-0.619,40.0684,825.3908],[-0.6231,40.0696,824.0104],[-0.6231,40.0753,824.661],[-0.6272,40.0762,829.2136],[-0.6312,40.0735,831.2987],[-0.6307,40.071,832.7321],[-0.6334,40.0707,842.4563],[-0.6347,40.0727,855.236],[-0.6358,40.0718,842.7324],[-0.6359,40.0675,841.6523],[-0.6379,40.0697,860.7983],[-0.6416,40.0676,849.8767],[-0.6458,40.0677,865.6931],[-0.6641,40.0515,977.4215],[-0.6829,40.0443,953.1875],[-0.7028,40.0466,926.7546],[-0.7188,40.0387,944.6573],[-0.731,40.0424,964.9864],[-0.7475,40.0379,1096.8296],[-0.7536,40.0466,1010.0121],[-0.7622,40.0413,1119.6864],[-0.7628,40.0303,1079.297],[-0.7653,40.0268,1077.8989],[-0.7672,40.0101,1139.6091],[-0.7745,40.0043,1192.0614],[-0.7778,39.9983,1177.3966],[-0.7896,39.9899,1188.5947],[-0.7987,39.9914,1183.4607],[-0.8034,39.9905,1211.3969],[-0.8169,39.9823,1384.0286],[-0.8242,39.9824,1423.2454],[-0.8347,39.9794,1436.2551],[-0.8379,39.9766,1501.8896],[-0.838,39.9723,1544.9492],[-0.8414,39.969,1558.3146],[-0.8384,39.9665,1545.9196],[-0.8357,39.96,1540.6045],[-0.8396,39.9554,1545.1846],[-0.8441,39.954,1560.9614],[-0.8462,39.9477,1586.5229],[-0.8396,39.9419,1553.5095],[-0.8363,39.9284,1500.2139],[-0.8404,39.925,1526.5862],[-0.8374,39.9234,1536.0697],[-0.8331,39.9172,1539.1383],[-0.8328,39.911,1495.5999],[-0.8299,39.9068,1527.4675],[-0.8045,39.8921,1558.4091],[-0.8015,39.8847,1527.7629],[-0.7975,39.8833,1439.783],[-0.7976,39.8811,1475.6851],[-0.8149,39.8735,1423.5759],[-0.8291,39.8709,1348.7068],[-0.839,39.8625,1118.6805],[-0.8493,39.857,1016.7696],[-0.8564,39.8555,1057.2317],[-0.858,39.8505,997.8429],[-0.8635,39.8474,1139.7507],[-0.874,39.8484,1162.0023],[-0.8792,39.8523,1163.3291],[-0.8885,39.8521,1247.2607],[-0.9077,39.8657,1059.3208],[-0.9125,39.8724,1020.9205],[-0.9081,39.8861,1057.5541],[-0.9036,39.8879,1067.542],[-0.9002,39.8919,1087.1564],[-0.9029,39.8971,1163.76],[-0.9096,39.8986,1167.4401],[-0.9075,39.9005,1217.2058],[-0.9138,39.918,1413.182],[-0.9075,39.928,1323.0278],[-0.9034,39.9262,1243.0015],[-0.9026,39.9319,1258.1576],[-0.906,39.944,1363.9421],[-0.9171,39.9549,1357.9661],[-0.9157,39.9579,1348.3159],[-0.9204,39.9644,1369.4042],[-0.9245,39.9593,1411.1381],[-0.9318,39.9561,1514.0044],[-0.9347,39.9599,1499.0773],[-0.9445,39.9629,1492.5789],[-0.9491,39.9673,1487.5984],[-0.9521,39.967,1510.267],[-0.9684,39.9745,1522.6938],[-0.9762,39.9758,1512.3812],[-0.9913,39.9819,1493.7064],[-0.999,39.9802,1482.5938],[-1.0025,39.9819,1501.1373],[-1.0252,39.9746,1419.3472],[-1.0564,39.9804,1409.9431],[-1.0715,39.9797,1273.3268],[-1.0859,39.9764,1118.4219],[-1.0869,39.9732,1109.8125],[-1.0845,39.9719,1100.7372],[-1.0921,39.9678,1072.4586],[-1.105,39.975,1082.6177],[-1.1078,39.9719,1037.312],[-1.107,39.9706,1037.312],[-1.1098,39.969,970.9925],[-1.1127,39.9732,1036.4127],[-1.1162,39.9721,1075.252],[-1.1191,39.9682,1141.9597],[-1.1238,39.966,1145.9984],[-1.1217,39.9609,1025.6741],[-1.1284,39.9629,983.6226],[-1.1302,39.9703,887.7593],[-1.1423,39.9719,869.287],[-1.1539,39.9639,956.0966],[-1.2039,39.9494,850.1281],[-1.2081,39.9438,752.4745],[-1.2084,39.9414,647.0264],[-1.2068,39.9407,679.266],[-1.2097,39.9341,647.3195],[-1.2069,39.9322,620.5257],[-1.2089,39.9282,642.0873],[-1.2005,39.9229,648.3082],[-1.1999,39.92,625.9197],[-1.1972,39.9184,623.5293],[-1.1986,39.916,634.5147],[-1.1958,39.914,623.6195],[-1.1981,39.9088,847.6451],[-1.2,39.8885,899.4663],[-1.2,39.8738,1045.3766],[-1.1976,39.873,1033.9065],[-1.2007,39.8709,994.1963],[-1.1999,39.8595,846.6652],[-1.2108,39.8382,1075.8247],[-1.2117,39.8203,1144.3615],[-1.2168,39.8144,1137.5278],[-1.2149,39.8088,1057.2393],[-1.2211,39.8032,914.639],[-1.234,39.7829,869.3191],[-1.2491,39.7725,863.6016],[-1.2754,39.737,998.1168],[-1.2709,39.7312,1022.2974],[-1.2722,39.7185,913.2814],[-1.271,39.7131,931.0171],[-1.2619,39.6989,870.8918],[-1.2795,39.6779,864.5092],[-1.2919,39.6726,886.2288],[-1.3128,39.6705,876.9763],[-1.3257,39.6731,890.6108],[-1.3426,39.6816,938.1609],[-1.3685,39.6896,1020.7596],[-1.4039,39.666,1020.6219],[-1.4179,39.655,927.5016],[-1.4365,39.6288,899.6437],[-1.4456,39.6112,935.4604],[-1.4549,39.5876,875.684],[-1.462,39.5766,806.2653],[-1.4767,39.5691,836.7925],[-1.4834,39.5692,835.3831],[-1.5043,39.5639,644.0],[-1.5007,39.5571,644.0],[-1.5031,39.5562,644.0],[-1.5031,39.5521,644.0],[-1.5177,39.5514,644.0],[-1.5208,39.5489,644.0],[-1.5157,39.5487,644.0],[-1.5104,39.5455,648.4752],[-1.5032,39.5472,644.0],[-1.5026,39.5445,644.0],[-1.506,39.5401,586.021],[-1.5009,39.5345,592.9194],[-1.5059,39.5315,566.2304],[-1.5041,39.5248,564.3239],[-1.5069,39.5207,561.546],[-1.5011,39.5159,617.4901],[-1.5071,39.5129,548.1659],[-1.5071,39.5079,547.137],[-1.4991,39.5005,541.7303],[-1.5036,39.4915,565.0504],[-1.5124,39.4963,578.3545],[-1.5109,39.4904,554.394],[-1.505,39.4882,561.3395],[-1.5125,39.4833,551.665],[-1.5106,39.4812,573.5104],[-1.5034,39.4801,583.4781],[-1.5035,39.4786,582.1621],[-1.509,39.4777,580.2903],[-1.511,39.475,622.0256],[-1.513,39.4708,566.9384],[-1.5138,39.458,552.4829],[-1.5191,39.4558,540.6275],[-1.5237,39.4579,534.8351],[-1.5269,39.4573,547.7004],[-1.5288,39.4553,537.7004],[-1.528,39.4522,555.4478],[-1.5184,39.449,539.1136],[-1.5191,39.4469,538.218],[-1.5245,39.4431,502.8583],[-1.5208,39.4403,517.5637],[-1.5155,39.4391,554.9375],[-1.5152,39.4378,532.3712],[-1.5212,39.435,498.6636],[-1.5208,39.4315,518.3719],[-1.5141,39.4288,509.4887],[-1.5132,39.4343,499.1584],[-1.5115,39.4351,499.1584],[-1.5082,39.433,497.2859],[-1.5063,39.4294,493.8557],[-1.4963,39.4289,521.622],[-1.5014,39.4257,544.2831],[-1.5051,39.418,482.695],[-1.4984,39.4153,495.6634],[-1.4895,39.4223,492.3799],[-1.484,39.4229,499.2906],[-1.4824,39.4189,486.3307],[-1.488,39.4178,480.1488],[-1.4885,39.4159,478.0021],[-1.4874,39.4118,476.6675],[-1.4898,39.4066,469.3638],[-1.4885,39.4011,470.6995],[-1.4817,39.4013,481.9379],[-1.4749,39.4087,479.433],[-1.4701,39.4072,480.2256],[-1.4667,39.4012,473.4558],[-1.4752,39.3987,468.657],[-1.4771,39.3948,482.1457],[-1.4732,39.3912,466.6354],[-1.4672,39.3904,473.9457],[-1.4622,39.4,470.6501],[-1.4559,39.4007,468.4694],[-1.4527,39.3987,473.6765],[-1.4543,39.3927,476.2955],[-1.4522,39.3907,454.9579],[-1.4578,39.3897,453.198],[-1.457,39.3869,463.7932],[-1.4527,39.3853,452.1712],[-1.4532,39.3834,463.685],[-1.4549,39.3828,456.1256],[-1.4631,39.3874,481.2206],[-1.4681,39.3834,457.4045],[-1.4625,39.3794,451.6757],[-1.4576,39.3802,448.0206],[-1.4492,39.3787,454.5181],[-1.4485,39.3771,454.5181],[-1.4521,39.3736,462.0721],[-1.4494,39.3665,469.8304],[-1.455,39.364,456.8097],[-1.455,39.3609,448.4693],[-1.4442,39.3618,457.2881],[-1.4429,39.3676,456.8298],[-1.4381,39.3734,436.8021],[-1.432,39.3728,440.387],[-1.4341,39.3764,448.8096],[-1.4322,39.3776,445.5199],[-1.4283,39.3758,445.2434],[-1.428,39.3708,431.7381],[-1.4322,39.3648,481.4879],[-1.4286,39.3619,456.5196],[-1.4236,39.364,438.5982],[-1.4222,39.3655,435.44],[-1.4231,39.3742,475.7633],[-1.4259,39.3791,449.827],[-1.4223,39.3812,433.0948],[-1.4141,39.3802,435.3172],[-1.4108,39.3781,441.1941],[-1.41,39.373,426.3311],[-1.4076,39.3717,435.2769],[-1.4003,39.377,419.4263],[-1.3961,39.3743,437.5704],[-1.3976,39.3706,425.5009],[-1.4006,39.3685,453.3318],[-1.4066,39.3694,414.6234],[-1.4088,39.3682,432.9885],[-1.4077,39.3658,418.6884],[-1.4011,39.3635,449.6703],[-1.3919,39.3674,421.9597],[-1.3837,39.3663,413.149],[-1.3816,39.3595,425.2541],[-1.3851,39.3543,406.091],[-1.3774,39.3564,414.8042],[-1.3674,39.3561,424.8564],[-1.362,39.349,413.1644],[-1.3575,39.3474,409.3866],[-1.3555,39.3422,414.7779],[-1.3522,39.3398,404.3432],[-1.3427,39.3402,399.3701],[-1.3362,39.334,392.4256],[-1.3304,39.3357,391.8719],[-1.3314,39.3384,392.3784],[-1.3348,39.3396,407.1794],[-1.3334,39.3407,404.8478],[-1.3288,39.3423,431.8498],[-1.3206,39.3397,390.8762],[-1.318,39.3432,402.6631],[-1.3124,39.3431,393.3911],[-1.3098,39.3404,405.0374],[-1.2991,39.3378,398.5277],[-1.2989,39.3359,397.3918],[-1.3016,39.3344,399.583],[-1.298,39.3312,387.1149],[-1.2935,39.3316,386.3832],[-1.2911,39.3348,401.6631],[-1.285,39.3321,414.8752],[-1.2851,39.3299,382.746],[-1.2818,39.3286,399.7959],[-1.2774,39.3327,381.3054],[-1.2737,39.3332,382.1638],[-1.2674,39.3286,381.1621],[-1.2625,39.3299,393.24],[-1.2549,39.3271,405.1041],[-1.2501,39.3225,376.0454],[-1.2471,39.3286,383.1207],[-1.2442,39.3216,378.6221],[-1.238,39.3225,374.4516],[-1.2277,39.3195,381.9344],[-1.2233,39.3161,372.869],[-1.2146,39.3191,366.6256],[-1.2143,39.3222,389.7101],[-1.21,39.3264,365.103],[-1.2074,39.326,364.5021],[-1.2035,39.3209,363.3],[-1.2041,39.3183,374.9495],[-1.1976,39.3136,411.888],[-1.1947,39.3159,367.2701],[-1.1915,39.3144,365.5343],[-1.1885,39.3156,366.4856],[-1.1781,39.3147,364.4869],[-1.1649,39.3105,390.951],[-1.1618,39.3054,388.4714],[-1.1664,39.2934,536.4854],[-1.1747,39.2793,570.8965],[-1.1768,39.2467,739.1066],[-1.1763,39.2303,742.0649],[-1.1808,39.2119,810.6659],[-1.1922,39.1939,678.5129],[-1.1944,39.1804,763.5428],[-1.197,39.1768,823.5094],[-1.2105,39.1623,857.1449],[-1.2269,39.1517,983.461],[-1.2404,39.1138,1004.8362],[-1.2557,39.1062,1103.5811],[-1.2557,39.0841,1123.9609],[-1.2656,39.0755,1105.1998],[-1.2637,39.0684,1063.1798],[-1.2652,39.0525,1062.0026],[-1.2667,39.051,1052.1008],[-1.2638,39.0451,1102.9753],[-1.2592,39.0414,1024.2103],[-1.252,39.0396,1178.0806],[-1.2395,39.0306,1167.3312],[-1.2265,39.0247,1167.1938],[-1.2085,39.0051,862.2512],[-1.2017,38.993,828.8344],[-1.1932,38.9882,806.2446],[-1.1608,38.9548,917.6382],[-1.1545,38.9397,957.7861],[-1.1527,38.9392,993.1722],[-1.1466,38.9294,1060.3105],[-1.1383,38.9276,768.2703],[-1.1298,38.9294,705.665],[-1.1059,38.9286,665.8156],[-1.0426,38.9368,872.5829],[-1.0362,38.9343,933.9448],[-1.0134,38.9392,992.2626],[-1.0074,38.9458,1018.1583],[-0.9993,38.9495,1047.0555],[-0.9918,38.9473,1004.8157],[-0.9877,38.9478,1014.1254],[-0.9772,38.9428,998.636],[-0.9593,38.9446,1055.2782],[-0.9575,38.9331,979.77739999999994],[-0.9586,38.9282,1022.7301],[-0.9561,38.9237,1015.451],[-0.9565,38.9202,1010.0242],[-0.9537,38.9196,992.821],[-0.9504,38.9115,968.094],[-0.9408,38.8997,904.5685],[-0.9245,38.8918,824.1434],[-0.9319,38.8797,837.2196],[-0.9325,38.8679,794.2297],[-0.9307,38.8636,782.105],[-0.9356,38.856,747.4581],[-0.9311,38.8298,735.9169],[-0.9248,38.8234,651.9377],[-0.9277,38.8158,798.1024],[-0.9327,38.8113,978.4497],[-0.9338,38.794,716.7825],[-0.9289,38.7868,692.4911],[-0.9289,38.7839,736.4655],[-0.9499,38.7761,837.4242],[-0.9614,38.7748,648.2604],[-0.9458,38.7368,598.6599],[-0.9394,38.7318,609.6555],[-0.9379,38.7259,588.7916],[-0.9277,38.7131,543.5823],[-0.9286,38.7095,534.9951],[-0.9266,38.7059,541.7318],[-0.9157,38.696,544.7493],[-0.9324,38.6776,502.4425],[-0.9624,38.657,512.7572],[-0.9915,38.6551,633.8331],[-1.009,38.6583,776.097],[-1.0108,38.6566,791.9084],[-1.0261,38.6557,694.0558],[-1.0241,38.6401,659.3137],[-1.016,38.6351,600.5203],[-1.0121,38.6058,618.1459],[-1.0015,38.5729,686.8246],[-1.0091,38.559,698.5268],[-1.0162,38.5371,735.3812],[-1.0262,38.5225,677.9094],[-1.0139,38.4971,1202.405],[-1.0417,38.4697,724.2112],[-1.0681,38.4504,641.803],[-1.0817,38.4419,690.2687],[-1.0941,38.4383,726.7977],[-1.076,38.4317,672.217],[-1.085,38.4291,694.8765],[-1.0883,38.4035,653.5894],[-1.0867,38.3983,651.6251],[-1.0881,38.3677,671.0425],[-1.0844,38.3465,604.5175],[-1.0584,38.346,596.7003],[-1.0281,38.3387,508.8439],[-0.989,38.3206,487.768],[-0.9842,38.3071,494.3418],[-0.9717,38.2907,426.5543],[-0.9673,38.2722,402.447],[-0.9677,38.2559,542.1323],[-0.9762,38.2408,584.571],[-0.9887,38.1996,171.1167],[-1.0087,38.1669,129.2506],[-1.0366,38.1374,149.8065],[-1.0305,38.1159,135.1652],[-1.0303,38.0971,201.6311],[-1.0222,38.0752,31.4007],[-1.0065,38.055,28.9737],[-0.9986,38.0515,28.8385],[-0.9819,38.0293,29.0507],[-0.966,38.0127,163.9698],[-0.959,37.9991,103.219],[-0.9341,37.9689,145.1889],[-0.9213,37.9445,304.6348],[-0.9001,37.9232,234.3678],[-0.8571,37.8853,122.7707],[-0.8302,37.8643,70.0761],[-0.8035,37.859,38.3335],[-0.7904,37.8484,18.2749],[-0.7816,37.8448,8.4292],[-0.7708,37.8441,3.562],[-0.7621,37.8474,0.0],[-0.7615,37.8649,3.4388],[-0.7599,37.8674,9.4948],[-0.7574,37.8654,0.0],[-0.7557,37.8713,0.0],[-0.7535,37.8718,0.0],[-0.7524,37.8865,6.6746]]],
[[[-0.4565,38.161,0.0],[-0.4551,38.1607,0.0],[-0.4571,38.1621,0.0],[-0.4599,38.1615,0.0],[-0.4599,38.161,0.0],[-0.4565,38.161,0.0]]],
[[[-0.4787,38.1668,2.4043],[-0.4876,38.1674,0.0],[-0.4835,38.1649,0.0],[-0.4787,38.166,2.4043],[-0.476,38.1626,2.9212],[-0.4638,38.1626,0.0],[-0.4715,38.1665,0.0],[-0.4787,38.1668,2.4043]]],
[[[-0.0732,38.5368,0.0],[-0.0721,38.536,0.0],[-0.071,38.5374,0.0],[-0.0718,38.5374,0.0],[-0.0732,38.5368,0.0]]],
[[[-0.1285,38.5015,0.0],[-0.131,38.5035,14.4917],[-0.1329,38.5021,0.0],[-0.1301,38.5007,9.0475],[-0.1285,38.5015,0.0]]],
[[[0.2282,38.7532,0.0],[0.2318,38.7538,0.0],[0.2318,38.7574,0.0],[0.2285,38.7568,9.6688],[0.2282,38.7532,0.0]]],
[[[0.6712,39.8743,0.2202],[0.6726,39.8754,0.0],[0.6693,39.8757,0.0],[0.6701,39.8737,0.0],[0.6712,39.8743,0.2202]]],
[[[0.6693,39.891,0.0],[0.6668,39.8924,0.0],[0.6674,39.8904,0.0],[0.6701,39.8896,0.0],[0.6693,39.891,0.0]]],
[[[-0.3243,39.434,0.0],[-0.329,39.4349,1.0455],[-0.3254,39.4329,0.5831],[-0.3282,39.4279,1.8977],[-0.3143,39.4224,1.7913],[-0.3118,39.4238,3.625],[-0.3085,39.4301,0.0],[-0.3129,39.434,0.2304],[-0.3093,39.4301,0.0],[-0.3126,39.4238,3.625],[-0.3143,39.4232,1.7913],[-0.3171,39.4246,4.9034],[-0.3137,39.4304,1.9049],[-0.3243,39.434,0.0]]],
[[[-0.3021,39.4485,2.1426],[-0.3037,39.4501,1.9261],[-0.3079,39.4501,1.9639],[-0.3132,39.4429,0.7429],[-0.3104,39.4421,1.6608],[-0.3096,39.446,1.668],[-0.3043,39.4468,2.0156],[-0.3049,39.4446,1.7041],[-0.3029,39.4443,2.8084],[-0.3035,39.4338,0.0],[-0.3021,39.4338,0.0],[-0.3021,39.4485,2.1426]]],
[[[-1.2757,40.0041,682.005],[-1.2649,39.9988,929.3895],[-1.248,39.9951,981.3426],[-1.2166,40.0016,1260.8926],[-1.1995,40.0035,1265.8676],[-1.1917,40.0016,1364.6959],[-1.1729,40.0109,1461.3418],[-1.1651,40.0101,1463.921],[-1.1534,40.0126,1402.3062],[-1.1462,40.0168,1309.0127],[-1.1361,40.0151,1343.3524],[-1.1158,40.024,1457.193],[-1.1097,40.0253,1485.5228],[-1.0978,40.0327,1500.0344],[-1.0842,40.0362,1690.5508],[-1.079,40.0447,1760.3508],[-1.0717,40.0511,1776.733],[-1.0721,40.0605,1767.0],[-1.0796,40.0678,1705.7421],[-1.078,40.0688,1710.9188],[-1.1118,40.0928,1378.5895],[-1.1178,40.0929,1280.4482],[-1.1223,40.0955,1208.1071],[-1.1334,40.0974,1089.86],[-1.1356,40.1041,1023.746],[-1.1439,40.1086,1006.5776],[-1.1473,40.114,945.8883],[-1.1497,40.1148,945.8719],[-1.1655,40.1149,912.3553],[-1.1927,40.1106,868.359],[-1.2072,40.1102,840.7015],[-1.2207,40.1155,833.9224],[-1.2363,40.1134,792.3658],[-1.2449,40.1162,760.7007],[-1.2506,40.1239,745.9163],[-1.2461,40.1272,749.731],[-1.2488,40.135,751.9829],[-1.2461,40.1386,757.8187],[-1.2472,40.1402,754.205],[-1.2442,40.146,756.4302],[-1.2454,40.1471,764.4849],[-1.2524,40.1433,871.5021],[-1.2765,40.1622,983.3912],[-1.2764,40.1669,978.6786],[-1.2843,40.1715,1068.0486],[-1.2869,40.1819,1134.9529],[-1.2967,40.1993,1192.9495],[-1.293,40.2069,1252.5546],[-1.2982,40.2117,1264.1221],[-1.2969,40.2099,1245.0869],[-1.302,40.2058,1167.2644],[-1.3109,40.2039,1154.0825],[-1.3149,40.2014,1161.1832],[-1.3229,40.1849,1183.5125],[-1.3225,40.1717,1179.3794],[-1.3172,40.1641,1123.6108],[-1.3194,40.1562,1084.5116],[-1.3165,40.1497,948.6905],[-1.3197,40.1464,893.2531],[-1.336,40.1422,1122.8785],[-1.357,40.1289,1124.592],[-1.3617,40.1297,1132.6699],[-1.3643,40.1327,1068.6707],[-1.3636,40.1386,1008.6165],[-1.3768,40.1403,1043.5732],[-1.3935,40.1344,1090.5714],[-1.4045,40.1392,1222.4829],[-1.4223,40.1424,1323.2025],[-1.4297,40.1394,1499.629],[-1.4333,40.1395,1516.8693],[-1.4488,40.1454,1548.2666],[-1.4572,40.1351,1514.8175],[-1.4562,40.131,1503.7473],[-1.4427,40.1181,1505.7876],[-1.4293,40.1136,1398.7922],[-1.4101,40.1045,1298.4628],[-1.4075,40.1014,1434.5338],[-1.4202,40.0935,1402.144],[-1.4135,40.0861,1232.9888],[-1.4131,40.0812,1226.4319],[-1.4007,40.0671,1216.3884],[-1.3937,40.0531,1246.509],[-1.3831,40.039,1211.2981],[-1.3812,40.0272,1272.0259],[-1.3768,40.0165,1268.8569],[-1.3643,40.0122,1151.2155],[-1.3357,40.0167,1137.766],[-1.3283,40.0134,1133.6067],[-1.2863,40.0082,959.6835],[-1.2757,40.0041,682.005]]],
[[[0.6874,39.8988,20.1922],[0.6879,39.9001,20.1922],[0.686,39.9007,0.0],[0.6826,39.8979,9.3983],[0.6826,39.8949,2.6434],[0.6849,39.8929,0.0],[0.6907,39.8951,0.0],[0.6904,39.8968,0.0],[0.6874,39.8949,6.556],[0.6838,39.8957,0.0],[0.6874,39.8988,20.1922]]]]}}