{"type":"Feature","properties":{"GID_3":"ESP.11.2.6_1","GID_0":"ESP","country":"Spain","GID_1":"ESP.11_1","province":"Extremadura","NL_NAME_1":"NA","GID_2":"ESP.11.2_1","county":"Cáceres","NL_NAME_2":"NA","city":"n.a.(74)","VARNAME_3":"NA","NL_NAME_3":"NA","TYPE_3":"Comarca","ENGTYPE_3":"Comarca","CC_3":"NA","HASC_3":"NA","name":"n.a.(74).city"},
"geometry":{"type": "MultiPolygon","coordinates": [[[[-6.221,39.0779,333.2398],[-6.2155,39.0686,350.8292],[-6.203,39.0565,337.2941],[-6.1678,39.0589,363.6434],[-6.1538,39.0536,320.167],[-6.1516,39.0511,368.6167],[-6.1526,39.0473,367.2217],[-6.1462,39.0424,365.5161],[-6.142,39.0316,349.243],[-6.1364,39.0341,348.0305],[-6.131,39.0395,359.4892],[-6.1251,39.05,332.4171],[-6.1285,39.0659,413.5995],[-6.1335,39.0771,395.0728],[-6.1275,39.0858,390.703],[-6.1271,39.0951,393.8911],[-6.132,39.0987,397.6887],[-6.1334,39.1078,429.6829],[-6.1315,39.1068,442.6531],[-6.1085,39.1102,524.374],[-6.095,39.12,310.5536],[-6.0903,39.1461,329.0538],[-6.0924,39.1652,362.8538],[-6.089,39.1694,376.9577],[-6.0891,39.1752,364.8055],[-6.0788,39.1871,437.5143],[-6.0736,39.1868,368.7112],[-6.0607,39.1934,376.877],[-6.0458,39.1977,467.5974],[-6.0392,39.2024,796.079],[-6.0393,39.2039,823.7345],[-6.0254,39.2058,483.9391],[-6.0118,39.2021,562.9196],[-5.9903,39.2007,332.0818],[-5.997,39.2193,385.7791],[-6.018,39.2375,511.7298],[-6.0171,39.2428,508.5],[-6.0232,39.2581,464.3274],[-6.0185,39.2637,472.8323],[-6.0109,39.2681,565.6713],[-6.0077,39.2745,611.2829],[-6.0305,39.2786,446.1568],[-6.0415,39.2764,439.2159],[-6.0514,39.2724,429.9453],[-6.0587,39.2672,440.7847],[-6.0657,39.2605,443.1426],[-6.0691,39.2549,460.3183],[-6.0728,39.2574,458.7073],[-6.0896,39.28,459.3787],[-6.0939,39.2801,457.9834],[-6.0948,39.282,461.0864],[-6.091,39.2844,451.3659],[-6.0889,39.2834,451.0833],[-6.0848,39.2888,446.9081],[-6.0806,39.2885,446.9465],[-6.0802,39.2902,442.56],[-6.0728,39.2942,434.2232],[-6.0752,39.3008,416.9896],[-6.0647,39.3085,412.9577],[-6.0692,39.3159,414.0],[-6.0652,39.3191,427.3932],[-6.0662,39.321,429.6381],[-6.0609,39.3248,437.4449],[-6.0603,39.3293,421.7571],[-6.046,39.3393,438.5029],[-6.0591,39.3487,464.8119],[-6.067,39.3527,433.408],[-6.0717,39.353,432.4998],[-6.0742,39.3603,417.8083],[-6.0808,39.3631,400.7809],[-6.0848,39.3671,370.1074],[-6.0838,39.3719,372.8686],[-6.0854,39.3741,368.5291],[-6.0799,39.3758,362.0042],[-6.0862,39.3819,364.6395],[-6.0833,39.383,364.9569],[-6.0842,39.3844,363.7603],[-6.088,39.3823,358.5626],[-6.0918,39.3835,353.654],[-6.0904,39.3851,355.6731],[-6.0865,39.3845,354.5852],[-6.0852,39.3868,364.0108],[-6.091,39.3881,351.343],[-6.0934,39.3918,350.9438],[-6.0915,39.3944,352.7068],[-6.0948,39.3949,346.5767],[-6.0936,39.3968,345.1992],[-6.0909,39.3963,346.6776],[-6.0903,39.3993,349.6764],[-6.0852,39.3978,345.4686],[-6.0841,39.3988,342.337],[-6.0881,39.4023,342.9389],[-6.0915,39.4025,339.1449],[-6.0894,39.405,338.9189],[-6.0868,39.4037,340.6415],[-6.0844,39.4054,337.3954],[-6.0876,39.4077,337.6005],[-6.084,39.4117,334.3152],[-6.0812,39.4104,344.961],[-6.0807,39.4152,334.17],[-6.0831,39.4188,333.7971],[-6.0795,39.4198,341.8683],[-6.0786,39.4216,340.3745],[-6.0814,39.4234,326.9382],[-6.0808,39.4257,331.2481],[-6.0836,39.4217,332.2544],[-6.0863,39.4209,325.6523],[-6.0886,39.4228,332.6359],[-6.0895,39.4254,324.0637],[-6.0838,39.4282,323.2351],[-6.0871,39.4321,321.672],[-6.0834,39.434,343.4359],[-6.0898,39.4351,320.1193],[-6.0916,39.4373,315.8246],[-6.0914,39.4416,313.8723],[-6.0869,39.4474,317.6803],[-6.0895,39.4482,307.0926],[-6.0889,39.4492,315.9172],[-6.084,39.4492,309.2048],[-6.0813,39.454,314.8419],[-6.0839,39.4554,304.0866],[-6.0884,39.4539,313.9588],[-6.0903,39.4562,305.4634],[-6.093,39.4543,299.6115],[-6.0942,39.4559,302.2081],[-6.0915,39.4584,307.5115],[-6.098,39.4628,288.5355],[-6.0885,39.4687,293.1876],[-6.0983,39.476,320.5261],[-6.0966,39.479,301.9068],[-6.0975,39.4821,312.0225],[-6.1018,39.4797,286.7418],[-6.104,39.4813,290.5659],[-6.1013,39.4837,288.1898],[-6.1019,39.4853,287.4581],[-6.1093,39.484,277.1501],[-6.1095,39.4925,280.3849],[-6.1157,39.4964,291.5298],[-6.1164,39.5055,290.8282],[-6.1275,39.5083,297.4466],[-6.1274,39.5116,273.6848],[-6.1314,39.5111,267.4206],[-6.1339,39.5141,286.0717],[-6.1327,39.5181,293.448],[-6.1341,39.5198,258.3885],[-6.1368,39.5196,267.9286],[-6.1365,39.523,272.8252],[-6.1382,39.5245,264.1592],[-6.1427,39.5216,271.6756],[-6.1457,39.5254,298.2288],[-6.1384,39.5277,264.0502],[-6.1401,39.5307,257.3933],[-6.1355,39.5328,254.5234],[-6.1397,39.5363,257.8831],[-6.1366,39.5377,264.533],[-6.1368,39.5392,278.7153],[-6.1438,39.5376,275.5149],[-6.1445,39.5406,262.6643],[-6.1539,39.5386,271.574],[-6.1581,39.5428,282.3091],[-6.1561,39.5462,244.9151],[-6.1609,39.5484,246.2514],[-6.1668,39.5462,247.2022],[-6.1689,39.5469,284.7132],[-6.1712,39.5523,254.1427],[-6.1769,39.551,261.6367],[-6.1772,39.5534,242.102],[-6.1833,39.5584,240.3803],[-6.1894,39.5608,241.1517],[-6.1886,39.5662,251.3957],[-6.1908,39.5675,263.3298],[-6.1965,39.5656,233.4071],[-6.2009,39.571,237.341],[-6.2023,39.569,234.9204],[-6.2065,39.5677,232.7115],[-6.215,39.5726,239.1252],[-6.2234,39.5737,266.1209],[-6.2338,39.5777,238.7626],[-6.2423,39.5758,223.408],[-6.2439,39.5784,228.009],[-6.2412,39.5828,230.5452],[-6.2483,39.5834,219.6834],[-6.2515,39.5813,221.499],[-6.2528,39.5834,225.6298],[-6.2617,39.5839,212.9576],[-6.2674,39.5877,227.3799],[-6.2736,39.584,228.3353],[-6.2778,39.5898,218.7597],[-6.2818,39.5908,233.189],[-6.2867,39.5954,217.8653],[-6.2939,39.5957,246.7446],[-6.2966,39.5929,213.2403],[-6.3055,39.5912,200.9026],[-6.2974,39.5962,215.7154],[-6.2942,39.6011,238.8181],[-6.2854,39.6077,219.6043],[-6.2817,39.6088,263.9596],[-6.2722,39.608,222.8929],[-6.2667,39.6107,244.3114],[-6.2609,39.61,246.4078],[-6.255,39.6127,235.1532],[-6.2506,39.61,258.6377],[-6.2405,39.615,230.1753],[-6.232,39.6116,263.4974],[-6.2217,39.6124,247.2868],[-6.2086,39.6096,239.0314],[-6.2047,39.6116,231.4098],[-6.1807,39.609,236.2356],[-6.1742,39.6112,249.5894],[-6.1673,39.6101,275.2491],[-6.1644,39.6115,249.0009],[-6.1626,39.6107,241.6526],[-6.1618,39.6042,240.0989],[-6.1538,39.6027,249.5192],[-6.1536,39.5971,241.1203],[-6.1509,39.597,279.8706],[-6.1461,39.6003,258.0763],[-6.1346,39.5995,256.5272],[-6.1304,39.6005,255.7525],[-6.1272,39.6036,256.1363],[-6.1178,39.5991,259.436],[-6.1033,39.6038,253.3725],[-6.1049,39.6074,258.2567],[-6.0966,39.613,276.5291],[-6.0842,39.6176,270.7907],[-6.0775,39.6266,282.6696],[-6.0715,39.6279,267.248],[-6.0639,39.6345,280.2804],[-6.056,39.6349,282.2339],[-6.0478,39.6436,292.769],[-6.0294,39.6446,288.1654],[-6.0055,39.6632,312.1833],[-6.0133,39.6762,371.1335],[-6.0137,39.6859,416.7294],[-6.0199,39.698,432.3536],[-6.0259,39.7035,415.2732],[-6.0401,39.7117,362.7862],[-6.0429,39.7065,383.978],[-6.0519,39.6969,385.4177],[-6.0719,39.682,416.6742],[-6.0735,39.6787,419.6062],[-6.0877,39.6716,426.9794],[-6.1013,39.6682,439.3564],[-6.1074,39.6643,428.2126],[-6.1169,39.6617,413.9557],[-6.1238,39.6689,431.2648],[-6.1225,39.6779,411.4619],[-6.1261,39.6853,391.7405],[-6.1239,39.6977,383.7272],[-6.1267,39.708,383.9323],[-6.1259,39.7146,365.245],[-6.1233,39.7184,361.8993],[-6.1253,39.7297,383.9431],[-6.1228,39.7488,372.0469],[-6.1329,39.7473,411.4734],[-6.1357,39.7448,431.5086],[-6.1416,39.7437,403.0376],[-6.1615,39.728,360.8759],[-6.1665,39.7204,379.8231],[-6.1758,39.715,403.5301],[-6.1864,39.714,441.8799],[-6.1911,39.7161,434.5996],[-6.1949,39.7154,444.1717],[-6.1979,39.72,434.3513],[-6.2003,39.717,447.6093],[-6.216,39.7336,339.958],[-6.2152,39.735,332.9961],[-6.2173,39.7374,317.2927],[-6.2151,39.7385,318.2222],[-6.2181,39.7441,286.9044],[-6.2228,39.7456,264.3377],[-6.2231,39.7519,244.1288],[-6.2264,39.7557,224.033],[-6.2305,39.7557,205.3183],[-6.2331,39.7581,198.5],[-6.2281,39.7626,216.1033],[-6.1977,39.7686,198.5],[-6.1892,39.7735,198.5],[-6.1774,39.7774,201.8056],[-6.1698,39.7777,198.5],[-6.1641,39.7819,198.5],[-6.1702,39.7899,319.8904],[-6.1737,39.8108,358.7355],[-6.1768,39.816,371.2109],[-6.1892,39.8285,419.1199],[-6.1911,39.8367,584.7198],[-6.1971,39.8389,674.96],[-6.2471,39.8315,601.7928],[-6.2672,39.8313,424.3801],[-6.2669,39.8352,442.7208],[-6.2778,39.8465,504.9093],[-6.2825,39.8476,510.7729],[-6.2844,39.8505,481.1616],[-6.2879,39.8506,463.892],[-6.2929,39.8545,433.0496],[-6.2979,39.8616,403.9372],[-6.2958,39.8635,392.0881],[-6.2967,39.8715,357.5779],[-6.3028,39.8746,416.6255],[-6.3052,39.8786,426.6043],[-6.3079,39.8781,431.428],[-6.3092,39.8738,475.238],[-6.3196,39.8675,473.1929],[-6.3272,39.8591,464.5753],[-6.3393,39.8514,453.6144],[-6.3553,39.8638,403.3006],[-6.3638,39.8678,324.5148],[-6.3754,39.8686,340.7967],[-6.3772,39.8662,348.2219],[-6.3762,39.8617,338.3921],[-6.3913,39.8446,376.2891],[-6.3871,39.8346,401.259],[-6.3814,39.8319,419.4355],[-6.381,39.819,476.4767],[-6.3895,39.8103,556.8074],[-6.4003,39.8096,630.1174],[-6.4073,39.8057,763.6639],[-6.4339,39.8093,544.7372],[-6.4539,39.8051,478.54],[-6.4399,39.7855,386.4447],[-6.4436,39.7705,338.0291],[-6.452,39.7649,296.2211],[-6.4898,39.7579,283.4088],[-6.5061,39.7624,367.0768],[-6.5226,39.7612,355.5262],[-6.5452,39.7549,271.8003],[-6.5439,39.7501,246.6078],[-6.5475,39.7498,227.6344],[-6.5478,39.746,209.5472],[-6.5447,39.7429,204.3879],[-6.5458,39.7409,197.5],[-6.5565,39.7427,199.875],[-6.5558,39.7394,199.625],[-6.5617,39.739,221.238],[-6.5621,39.7355,228.996],[-6.5641,39.7343,245.136],[-6.5828,39.7266,337.3806],[-6.5868,39.7309,332.5531],[-6.5931,39.7334,312.3017],[-6.5954,39.7279,330.2622],[-6.6042,39.7212,292.0872],[-6.6065,39.7153,305.4289],[-6.6023,39.7135,297.665],[-6.6026,39.7063,306.8238],[-6.598,39.7043,308.0181],[-6.5973,39.6997,316.9586],[-6.599,39.6964,328.2922],[-6.5962,39.6933,333.5188],[-6.5999,39.6859,341.3967],[-6.6038,39.6848,344.5973],[-6.6058,39.6823,351.1098],[-6.606,39.6745,367.8548],[-6.608,39.6727,362.4995],[-6.6045,39.6686,366.3549],[-6.6069,39.6607,380.7838],[-6.6004,39.6543,411.7201],[-6.6019,39.6429,451.1375],[-6.5845,39.6304,449.792],[-6.5716,39.6172,317.7038],[-6.5644,39.6162,420.355],[-6.5659,39.6122,389.2068],[-6.5704,39.6107,328.5658],[-6.5873,39.5984,495.5448],[-6.5979,39.5948,443.6705],[-6.6071,39.5937,418.2742],[-6.6104,39.5915,418.0208],[-6.6238,39.5735,381.4765],[-6.6282,39.5641,386.3793],[-6.6295,39.5442,380.8133],[-6.632,39.5355,385.3703],[-6.6403,39.527,383.628],[-6.6427,39.5158,366.2146],[-6.6487,39.5091,361.6563],[-6.6522,39.5019,349.3812],[-6.6613,39.4928,342.3205],[-6.6752,39.4851,333.2748],[-6.6808,39.4848,332.8155],[-6.6863,39.4785,322.6612],[-6.6871,39.4733,324.2379],[-6.7259,39.4666,279.0985],[-6.7383,39.4562,225.7161],[-6.7402,39.458,221.6086],[-6.7436,39.4574,226.7059],[-6.7493,39.4535,227.0936],[-6.7503,39.4479,221.2716],[-6.7543,39.4478,225.11],[-6.7599,39.4435,234.1162],[-6.7625,39.4443,231.5025],[-6.7633,39.4422,246.1996],[-6.7605,39.4382,252.0179],[-6.7654,39.437,265.4661],[-6.777,39.4293,311.4642],[-6.7799,39.4211,322.5461],[-6.7897,39.4128,337.0587],[-6.791,39.4098,336.2787],[-6.797,39.407,353.6565],[-6.798,39.4035,366.2386],[-6.7953,39.397,372.7013],[-6.802,39.3895,349.7271],[-6.8014,39.3839,403.6395],[-6.7909,39.3675,380.5091],[-6.7948,39.3617,343.5302],[-6.7948,39.3521,342.2096],[-6.7971,39.3448,295.9736],[-6.7789,39.336,355.906],[-6.7706,39.3286,360.597],[-6.7486,39.3258,401.6191],[-6.7466,39.3218,366.8577],[-6.7471,39.3158,338.4865],[-6.7503,39.3124,331.2739],[-6.7512,39.3036,307.3381],[-6.7617,39.2758,321.6446],[-6.7668,39.2697,348.0767],[-6.7788,39.2654,336.424],[-6.7842,39.2529,285.4283],[-6.7927,39.2476,270.6509],[-6.8007,39.2394,286.7859],[-6.8007,39.2311,251.0743],[-6.7968,39.2263,276.6331],[-6.7978,39.22,257.3098],[-6.7917,39.2106,301.6526],[-6.7877,39.2091,332.1036],[-6.7848,39.2015,296.5602],[-6.7674,39.1884,337.7179],[-6.7612,39.1885,323.324],[-6.7531,39.1939,360.1316],[-6.7505,39.194,353.6683],[-6.7399,39.19,409.8565],[-6.7071,39.1846,412.275],[-6.6891,39.1783,450.0031],[-6.6809,39.1772,476.773],[-6.6596,39.1991,331.2006],[-6.6451,39.1934,359.2416],[-6.6333,39.1969,376.8777],[-6.6268,39.1941,394.5546],[-6.6267,39.1919,425.3828],[-6.6193,39.1918,506.4468],[-6.6147,39.1888,540.4315],[-6.6057,39.188,458.1778],[-6.58,39.1798,418.9269],[-6.5791,39.179,409.3328],[-6.5832,39.1754,392.2855],[-6.5843,39.1711,386.4638],[-6.5781,39.1704,378.4362],[-6.574,39.1677,374.5081],[-6.5741,39.1584,358.1493],[-6.5386,39.1553,407.1406],[-6.5359,39.1634,379.5266],[-6.5359,39.176,413.7946],[-6.5402,39.1817,438.6081],[-6.491,39.1679,345.7511],[-6.4692,39.1733,351.2671],[-6.445,39.1734,352.2762],[-6.4386,39.1759,377.5926],[-6.4303,39.1738,325.2448],[-6.4185,39.1669,326.9685],[-6.406,39.165,332.047],[-6.3969,39.1667,344.7085],[-6.379,39.1628,348.3151],[-6.3712,39.163,366.528],[-6.3654,39.1669,394.1594],[-6.3554,39.1776,407.0417],[-6.3409,39.1839,455.434],[-6.3273,39.1867,513.4984],[-6.3193,39.1845,542.0066],[-6.3214,39.1717,430.2212],[-6.3163,39.1663,436.5642],[-6.3154,39.1613,452.5816],[-6.3093,39.1559,445.9511],[-6.3102,39.1534,440.3671],[-6.3074,39.1467,412.7414],[-6.308,39.1403,407.9473],[-6.3122,39.1325,390.3396],[-6.3096,39.1229,382.5719],[-6.3125,39.1161,371.9167],[-6.3118,39.1122,362.8419],[-6.2997,39.1042,369.3853],[-6.2952,39.0982,341.8154],[-6.2686,39.0953,368.2213],[-6.2599,39.0924,312.6397],[-6.2307,39.0898,336.2742],[-6.225,39.0848,323.1823],[-6.221,39.0779,333.2398]]]]}}