{"type": "Feature","bbox": [-1.3282,37.9957,-1.1314,38.2717],"geometry": {"type": "MultiPolygon","coordinates": [[[[-1.2324,38.0062,77.4842],[-1.2257,38.011,75.0641],[-1.215,38.0127,60.5666],[-1.2137,38.0117,60.5466],[-1.2147,38.0089,60.538],[-1.2186,38.0046,59.2289],[-1.216,38.0028,59.321],[-1.2062,38.002,122.3683],[-1.2006,38.0037,130.2889],[-1.1949,38.0141,152.416],[-1.1917,38.0138,145.245],[-1.1893,38.0156,147.3611],[-1.1852,38.0146,146.1806],[-1.1774,38.0203,137.4987],[-1.1765,38.0278,151.3358],[-1.1794,38.0331,158.4948],[-1.1773,38.0342,152.2789],[-1.1788,38.0375,184.621],[-1.1735,38.0384,174.2947],[-1.1661,38.0506,188.1225],[-1.1607,38.052,201.9109],[-1.1611,38.0546,179.3483],[-1.157,38.0548,191.4886],[-1.1603,38.0583,184.3802],[-1.1608,38.0623,221.9607],[-1.1597,38.0644,230.1497],[-1.1521,38.0661,230.8097],[-1.1531,38.075,274.7667],[-1.1373,38.0807,274.9154],[-1.1362,38.0902,284.1033],[-1.1377,38.0931,272.6867],[-1.1356,38.0952,253.9513],[-1.1314,38.118,154.2845],[-1.133,38.1281,118.1907],[-1.1356,38.1287,119.9565],[-1.1366,38.1317,122.2239],[-1.1335,38.132,126.7661],[-1.1372,38.1352,131.3667],[-1.1378,38.1387,130.7275],[-1.1403,38.1399,135.5643],[-1.1407,38.143,150.208],[-1.1436,38.143,142.2872],[-1.1451,38.1457,153.8208],[-1.1507,38.1483,149.6309],[-1.1768,38.1842,280.2039],[-1.1845,38.2032,525.303],[-1.1875,38.2062,566.8062],[-1.1972,38.2256,432.6418],[-1.2131,38.2717,769.6703],[-1.2206,38.2376,589.8462],[-1.2193,38.2239,391.3055],[-1.2337,38.2114,313.7084],[-1.237,38.1985,285.0301],[-1.2372,38.1853,257.1534],[-1.2414,38.1782,227.8336],[-1.2472,38.1731,198.2767],[-1.249,38.1682,191.534],[-1.261,38.1623,169.9582],[-1.2626,38.1582,163.1887],[-1.2646,38.1581,176.8263],[-1.2636,38.1566,162.3036],[-1.2662,38.1555,161.7062],[-1.2647,38.1543,147.0396],[-1.2709,38.1524,155.2041],[-1.2706,38.1479,136.6949],[-1.2734,38.1465,128.3246],[-1.2735,38.1403,133.368],[-1.277,38.1352,117.2577],[-1.2918,38.1279,119.8776],[-1.294,38.1246,98.9109],[-1.2986,38.1253,118.5099],[-1.307,38.1307,130.826],[-1.3094,38.1282,102.0637],[-1.31,38.1214,115.6688],[-1.3126,38.1205,119.1264],[-1.3095,38.1154,118.5329],[-1.3184,38.1109,147.6165],[-1.3237,38.1028,120.0382],[-1.3226,38.0971,132.4934],[-1.3252,38.0954,184.7813],[-1.3255,38.0901,218.9894],[-1.3137,38.0898,167.9023],[-1.3063,38.0863,129.0581],[-1.3058,38.0828,146.0507],[-1.3111,38.0813,154.8008],[-1.3096,38.0725,133.9597],[-1.3191,38.0608,163.9333],[-1.3124,38.0562,189.5627],[-1.3038,38.0462,127.9064],[-1.3058,38.0439,120.6025],[-1.3023,38.042,115.5469],[-1.3007,38.0359,183.6107],[-1.312,38.0271,207.0149],[-1.3124,38.0245,200.6285],[-1.3168,38.024,203.2119],[-1.3218,38.0207,210.9641],[-1.3282,38.0126,235.1488],[-1.3203,38.0064,204.563],[-1.2933,37.9985,160.2891],[-1.2834,37.9999,142.835],[-1.2722,37.9969,130.008],[-1.2656,37.9988,101.9739],[-1.2532,37.9988,114.1134],[-1.2446,37.9957,87.5158],[-1.2432,37.998,107.9047],[-1.2461,37.999,85.9031],[-1.2459,38.0004,91.7359],[-1.2324,38.0062,77.4842]]]]}
,"properties": {"GID_3": "ESP.18.1.12_1","GID_0": "ESP","country": "Spain","GID_1": "ESP.18_1","province": "RegióndeMurcia","NL_NAME_1": "NA","GID_2": "ESP.18.1_1","county": "Murcia","NL_NAME_2": "NA","city": "VegaMedia","VARNAME_3": "NA","NL_NAME_3": "NA","TYPE_3": "Comarca","ENGTYPE_3": "Comarca","CC_3": "NA","HASC_3": "NA","name": "Vega_Media.city","area_km2": 275.0323,"hist_schema_id": "Elevation0-9000","hist_area_km2": {"50": 0.9187,"75": 27.514,"100": 40.8289,"125": 51.8739,"150": 46.0916,"175": 30.5832,"200": 19.8994,"225": 15.2421,"250": 11.2044,"275": 7.2691,"300": 5.3831,"325": 3.016,"350": 3.0657,"375": 2.4823,"400": 2.1323,"425": 1.1827,"450": 0.6663,"475": 0.5497,"500": 0.6329,"525": 0.6995,"550": 0.6662,"575": 0.4997,"600": 0.5329,"625": 0.4829,"650": 0.333,"675": 0.3663,"700": 0.2165,"725": 0.1332,"750": 0.2164,"775": 0.1165,"800": 0.1165,"825": 0.0666,"850": 0.0333,"875": 0.0166}}}