{"type":"Feature","properties":{"GID_1":"ESP.7_1","GID_0":"ESP","country":"Spain","province":"CeutayMelilla","VARNAME_1":"NA","NL_NAME_1":"NA","TYPE_1":"CiudadAutónoma","ENGTYPE_1":"AutonomousCity","CC_1":"19","HASC_1":"ES.ML","ISO_1":"NA","name":"Ceutay_Melilla.province"},
"geometry":{"type": "MultiPolygon","coordinates": [[[[-2.4401,35.1829,0.0],[-2.4415,35.1835,0.0],[-2.4421,35.1799,11.1243],[-2.4451,35.1785,1.8282],[-2.439,35.1746,0.0],[-2.4379,35.1771,1.993],[-2.4401,35.1829,0.0]]],
[[[-2.4229,35.1832,0.0],[-2.4238,35.1854,1.998],[-2.4243,35.1799,0.4085],[-2.4196,35.1779,1.3451],[-2.4188,35.1801,0.0],[-2.4218,35.1804,12.3872],[-2.4235,35.1818,0.997],[-2.4229,35.1832,0.0]]],
[[[-2.4299,35.1838,0.0],[-2.4321,35.1843,0.0],[-2.4324,35.1832,0.0],[-2.4296,35.179,0.0],[-2.4276,35.1799,0.0],[-2.4271,35.1829,0.0],[-2.4299,35.1838,0.0]]],
[[[-2.9517,35.2828,36.782],[-2.9368,35.2804,3.1052],[-2.9368,35.2874,1.5576],[-2.9324,35.2879,0.0],[-2.934,35.2899,0.0],[-2.9326,35.2918,3.43],[-2.9293,35.2924,2.787],[-2.9276,35.2907,1.3776],[-2.9257,35.2921,2.0414],[-2.9229,35.2901,0.0],[-2.9257,35.2935,2.0414],[-2.9318,35.2938,15.9254],[-2.9387,35.3021,2.0878],[-2.9462,35.3063,63.73],[-2.9474,35.3101,0.0],[-2.9443,35.3135,0.0],[-2.9449,35.316,0.0],[-2.9493,35.316,8.541],[-2.954,35.3227,7.8979],[-2.9604,35.3112,109.5043],[-2.9626,35.3,51.8954],[-2.9595,35.2942,14.6995],[-2.9598,35.2894,28.1739],[-2.9517,35.2828,36.782]]],
[[[-4.2985,35.171,2.7076],[-4.2974,35.1721,0.0],[-4.3012,35.1729,2.0434],[-4.3012,35.1715,0.0],[-4.2985,35.171,2.7076]]],
[[[-3.8993,35.2176,0.8824],[-3.9021,35.2179,2.1403],[-3.9026,35.2168,1.3931],[-3.899,35.2165,0.0],[-3.8993,35.2176,0.8824]]],
[[[-5.3849,35.9118,9.5274],[-5.3766,35.8877,155.0867],[-5.3774,35.8836,176.6726],[-5.3412,35.8746,1.1327],[-5.3354,35.8793,6.0437],[-5.3279,35.8782,0.0],[-5.3204,35.8862,7.8267],[-5.3149,35.8868,0.0],[-5.3062,35.884,11.3047],[-5.2999,35.886,17.3755],[-5.2971,35.889,10.3448],[-5.2937,35.8885,0.0],[-5.2865,35.8907,2.9846],[-5.2835,35.8943,48.9922],[-5.2799,35.8943,0.8492],[-5.2782,35.8971,0.0],[-5.2785,35.901,0.0],[-5.2829,35.9012,1.906],[-5.289,35.9071,0.0],[-5.2907,35.904,0.0],[-5.2982,35.9021,0.0],[-5.301,35.8954,4.5942],[-5.3071,35.896,0.0],[-5.3065,35.8946,0.0],[-5.3043,35.8949,0.0],[-5.3038,35.8929,1.3786],[-5.3074,35.8913,3.0328],[-5.3093,35.8926,0.0],[-5.3096,35.8904,5.3946],[-5.3129,35.8901,2.877],[-5.3157,35.8915,0.0],[-5.3143,35.8937,0.7827],[-5.3185,35.8926,1.9244],[-5.3235,35.8971,0.0],[-5.3204,35.8982,0.0],[-5.3143,35.8954,0.0],[-5.3113,35.896,0.7121],[-5.3204,35.8993,0.0],[-5.3307,35.8974,0.0],[-5.3332,35.8946,3.2793],[-5.336,35.8943,2.8322],[-5.341,35.8996,0.7565],[-5.344,35.8999,21.9601],[-5.3479,35.9085,2.715],[-5.3571,35.9118,5.0647],[-5.3657,35.9182,2.5161],[-5.3707,35.9165,8.9338],[-5.3788,35.9171,0.0],[-5.3849,35.9118,9.5274]]],
[[[-5.4168,35.9143,0.0],[-5.4174,35.9165,10.4029],[-5.419,35.9162,10.4029],[-5.4218,35.9124,0.0],[-5.4171,35.9118,0.0],[-5.4168,35.9143,0.0]]]]}}