{"type":"Feature","properties":{"GID_3":"ESP.8.1.2_1","GID_0":"ESP","country":"Spain","GID_1":"ESP.8_1","province":"ComunidaddeMadrid","NL_NAME_1":"NA","GID_2":"ESP.8.1_1","county":"Madrid","NL_NAME_2":"NA","city":"n.a.(176)","VARNAME_3":"NA","NL_NAME_3":"NA","TYPE_3":"Comarca","ENGTYPE_3":"Comarca","CC_3":"NA","HASC_3":"NA","name":"n.a.(176).city"},
"geometry":{"type": "MultiPolygon","coordinates": [[[[-3.4337,40.454,567.9072],[-3.419,40.4511,574.6185],[-3.418,40.4469,582.4347],[-3.4223,40.4424,574.2701],[-3.4167,40.4373,591.4478],[-3.4125,40.4358,607.9694],[-3.4139,40.431,601.106],[-3.4103,40.4266,633.1165],[-3.4197,40.4235,624.3953],[-3.4295,40.426,593.2852],[-3.4352,40.4315,575.5096],[-3.4376,40.4319,573.2259],[-3.4317,40.4155,630.5787],[-3.4352,40.4131,628.5578],[-3.4409,40.4126,674.6265],[-3.4402,40.4055,681.6831],[-3.4492,40.3975,656.6443],[-3.4485,40.3952,647.4647],[-3.4541,40.3934,639.4777],[-3.4554,40.3943,648.9555],[-3.4587,40.3897,613.3761],[-3.4653,40.3886,598.257],[-3.4626,40.3873,593.0115],[-3.4639,40.3839,571.7942],[-3.4594,40.3804,604.7218],[-3.4548,40.3618,587.7626],[-3.4515,40.3576,590.0373],[-3.4536,40.3433,570.2189],[-3.4718,40.3382,539.3806],[-3.4708,40.3197,539.0639],[-3.4769,40.3193,536.855],[-3.4829,40.3242,534.1588],[-3.4853,40.3244,531.8685],[-3.4928,40.3164,532.6778],[-3.5063,40.3169,531.5409],[-3.5099,40.3186,532.6448],[-3.5141,40.3139,529.0536],[-3.5047,40.3085,529.366],[-3.5129,40.3054,528.7184],[-3.5135,40.3043,528.7184],[-3.5083,40.3011,532.5486],[-3.5169,40.2972,526.2722],[-3.5192,40.2933,529.1439],[-3.4969,40.2718,622.6981],[-3.4919,40.2703,626.0155],[-3.4825,40.257,691.367],[-3.4711,40.2551,707.0237],[-3.4582,40.2584,712.2233],[-3.4365,40.2581,723.9269],[-3.4227,40.2548,736.2991],[-3.4184,40.2578,741.2607],[-3.4094,40.2589,756.3636],[-3.3959,40.2482,745.09],[-3.3899,40.2501,748.0678],[-3.3757,40.2626,744.8475],[-3.3482,40.2734,754.9606],[-3.333,40.2635,767.7051],[-3.3199,40.2607,760.4409],[-3.3036,40.2606,717.8948],[-3.2853,40.2627,738.1846],[-3.2819,40.2665,728.4216],[-3.2822,40.2714,708.1678],[-3.2793,40.2793,787.4878],[-3.2676,40.2951,797.2939],[-3.2421,40.3094,807.1937],[-3.2264,40.3143,809.6936],[-3.2162,40.3126,807.886],[-3.2107,40.314,805.6426],[-3.2072,40.3175,735.4448],[-3.2,40.3304,730.6588],[-3.1992,40.3372,796.5552],[-3.2044,40.3439,828.8905],[-3.1968,40.3522,830.0359],[-3.1776,40.3601,849.5032],[-3.1758,40.3662,841.3402],[-3.1774,40.3739,858.5703],[-3.169,40.3776,849.42],[-3.162,40.3787,846.2191],[-3.1509,40.3763,803.3849],[-3.1502,40.3734,824.7727],[-3.1387,40.376,646.5229],[-3.1442,40.3875,648.5231],[-3.1356,40.39,791.3932],[-3.1344,40.3979,815.1413],[-3.1304,40.4051,856.4241],[-3.1418,40.4121,685.4347],[-3.1475,40.4196,851.0652],[-3.1476,40.4226,847.8101],[-3.1512,40.4265,860.2742],[-3.1511,40.4311,864.7722],[-3.1559,40.4392,839.0489],[-3.1685,40.4386,867.7204],[-3.1725,40.4362,866.3581],[-3.1782,40.4393,874.0771],[-3.1986,40.4423,848.1446],[-3.2004,40.4462,859.0605],[-3.1985,40.4599,865.9828],[-3.2002,40.4633,862.004],[-3.1953,40.4784,878.8612],[-3.202,40.4954,885.3547],[-3.1989,40.5039,899.7273],[-3.2006,40.5147,897.0323],[-3.224,40.5267,860.3755],[-3.2278,40.5355,700.2122],[-3.2318,40.5387,679.9132],[-3.2329,40.5379,679.9132],[-3.2302,40.532,710.9834],[-3.2356,40.5328,691.8974],[-3.2439,40.5368,667.5885],[-3.2497,40.5437,621.6962],[-3.2719,40.5351,606.2672],[-3.2777,40.534,599.6376],[-3.2835,40.5367,607.5012],[-3.2896,40.5317,607.8762],[-3.2969,40.5373,615.462],[-3.2838,40.5489,624.2041],[-3.2853,40.5496,624.477],[-3.2817,40.5524,626.1371],[-3.2882,40.5583,629.6582],[-3.2833,40.5638,636.3011],[-3.2866,40.5652,638.9242],[-3.2826,40.5693,641.9761],[-3.2833,40.5715,646.3051],[-3.3105,40.5796,698.7001],[-3.3304,40.5974,761.1775],[-3.3288,40.5989,763.2108],[-3.3308,40.6007,764.6438],[-3.3294,40.6036,765.6814],[-3.3307,40.6046,765.6497],[-3.3288,40.6061,766.3176],[-3.3304,40.6073,765.5192],[-3.322,40.6122,770.6164],[-3.3275,40.6202,765.7107],[-3.3375,40.6254,713.7179],[-3.3367,40.6268,709.7513],[-3.3312,40.6264,720.7706],[-3.3233,40.6301,729.4471],[-3.3228,40.6408,754.769],[-3.3149,40.6492,761.1486],[-3.3174,40.6543,778.7267],[-3.3177,40.6513,775.9828],[-3.3243,40.6436,740.3908],[-3.3338,40.6396,735.7216],[-3.3374,40.6409,711.2492],[-3.3388,40.6366,706.6334],[-3.3465,40.6385,732.9226],[-3.3449,40.6416,732.6321],[-3.3654,40.6479,708.064],[-3.3654,40.6514,687.5746],[-3.3632,40.655,690.2574],[-3.3677,40.6607,711.7279],[-3.3678,40.664,718.2656],[-3.3727,40.6694,734.4307],[-3.3728,40.6779,757.6471],[-3.3892,40.6875,830.6121],[-3.3932,40.6927,831.2241],[-3.3999,40.6917,831.9027],[-3.4047,40.6777,826.9508],[-3.4049,40.6701,812.8433],[-3.4105,40.6722,810.8093],[-3.4151,40.6713,783.2713],[-3.4207,40.6813,825.8088],[-3.4247,40.6808,825.6808],[-3.4259,40.6827,822.2109],[-3.4271,40.6726,822.5397],[-3.4357,40.6752,770.4574],[-3.4418,40.6743,756.6363],[-3.4422,40.6781,762.4105],[-3.4483,40.6784,786.5148],[-3.4487,40.6825,784.4513],[-3.4559,40.6879,755.4725],[-3.4674,40.6897,727.5497],[-3.4674,40.6926,736.2348],[-3.4616,40.6927,736.3104],[-3.4629,40.6977,739.6522],[-3.4567,40.7042,732.0117],[-3.4557,40.7093,752.724],[-3.4463,40.7147,756.4699],[-3.4421,40.72,785.3473],[-3.4378,40.7224,808.1287],[-3.4341,40.7308,821.9443],[-3.4416,40.7379,739.5712],[-3.4484,40.7329,726.2502],[-3.4509,40.738,737.5117],[-3.4495,40.7409,744.0215],[-3.4467,40.7411,753.2845],[-3.4432,40.7538,792.4562],[-3.4433,40.7608,851.3284],[-3.4467,40.7633,810.7394],[-3.45,40.7722,781.5201],[-3.4558,40.7763,757.0236],[-3.4594,40.7814,760.4448],[-3.4658,40.7843,790.8896],[-3.4852,40.7846,714.8138],[-3.4971,40.7886,686.7419],[-3.5106,40.7886,724.2341],[-3.5085,40.7817,659.4526],[-3.5238,40.7609,654.8798],[-3.5289,40.7622,697.8111],[-3.537,40.7595,737.3481],[-3.5403,40.7525,708.1323],[-3.5344,40.7507,681.669],[-3.5329,40.7472,673.2932],[-3.5391,40.7451,687.0327],[-3.5356,40.7407,672.7527],[-3.5421,40.7347,686.9286],[-3.5441,40.7346,683.0511],[-3.5393,40.7328,670.2825],[-3.5307,40.734,655.1524],[-3.5258,40.7328,636.9232],[-3.5282,40.7137,634.2975],[-3.5321,40.7114,630.876],[-3.544,40.6922,622.3762],[-3.5532,40.6871,622.1831],[-3.5553,40.6828,625.8717],[-3.5534,40.6803,620.2097],[-3.5552,40.669,620.5777],[-3.5545,40.6669,613.0517],[-3.5502,40.6649,613.7198],[-3.5563,40.6624,617.8127],[-3.5558,40.6503,619.1907],[-3.5667,40.6504,649.3471],[-3.5681,40.6435,654.673],[-3.5778,40.6458,647.0208],[-3.5842,40.6451,637.8094],[-3.5847,40.6535,678.3671],[-3.5893,40.6559,660.1439],[-3.5935,40.6548,621.5221],[-3.5894,40.6449,626.0101],[-3.5916,40.6403,610.14],[-3.5894,40.6336,609.9854],[-3.5807,40.6231,603.5179],[-3.5798,40.6193,605.0283],[-3.574,40.618899999999996,603.0135],[-3.5745,40.6109,601.6556],[-3.5776,40.608,601.4627],[-3.5758,40.6019,596.6763],[-3.5657,40.5983,596.2823],[-3.5654,40.593,594.8277],[-3.5616,40.5927,602.8767],[-3.5614,40.5879,594.3267],[-3.553,40.5864,612.7532],[-3.5495,40.5873,615.7706],[-3.5453,40.5839,619.4006],[-3.5399,40.5826,626.7039],[-3.5378,40.5798,629.4036],[-3.5397,40.5789,627.6453],[-3.5383,40.5772,627.1519],[-3.5391,40.5726,630.8311],[-3.5436,40.5722,628.0989],[-3.5459,40.5659,616.3403],[-3.5504,40.5648,600.9869],[-3.5297,40.5549,656.767],[-3.5224,40.547,660.2139],[-3.5115,40.5389,734.1827],[-3.5077,40.5301,700.8251],[-3.4953,40.517,658.8134],[-3.4798,40.4945,617.3677],[-3.4683,40.4931,609.3395],[-3.4497,40.5042,613.1634],[-3.4293,40.511,613.6971],[-3.4279,40.4922,596.4785],[-3.4298,40.492,599.3474],[-3.4306,40.4889,597.2529],[-3.4251,40.4726,578.3093],[-3.4282,40.4721,590.1349],[-3.4288,40.4692,584.9903],[-3.4332,40.4666,587.0978],[-3.4305,40.4616,575.1196],[-3.4471,40.4463,564.7577],[-3.4451,40.4452,563.4398],[-3.4337,40.454,567.9072]],
[[-3.3665,40.6324,773.7322],[-3.3684,40.6334,784.3262],[-3.3693,40.6303,780.8953],[-3.3672,40.6303,773.3382],[-3.371,40.625,791.868],[-3.382,40.6298,675.8217],[-3.3733,40.6358,723.9834],[-3.375,40.6386,703.4677],[-3.3734,40.6412,692.9489],[-3.3654,40.6393,777.049],[-3.3642,40.6351,781.1609],[-3.3665,40.6324,773.7322]]]]}}