{"type": "Feature","bbox": [-6.0788,38.0811,-5.4649,38.6421],"geometry": {"type": "MultiPolygon","coordinates": [[[[-5.7359,38.0945,676.8278],[-5.7348,38.0863,621.7225],[-5.7328,38.0875,611.4822],[-5.7194,38.0851,592.1745],[-5.7103,38.0811,570.7909],[-5.6935,38.0838,633.7543],[-5.6692,38.1018,669.0156],[-5.6669,38.1091,686.854],[-5.6458,38.1252,528.597],[-5.6441,38.1293,523.8307],[-5.6333,38.1381,486.7025],[-5.5847,38.1317,642.7988],[-5.5855,38.1404,629.5135],[-5.5739,38.1507,543.0009],[-5.5672,38.148,483.4329],[-5.5618,38.1508,440.5005],[-5.56,38.1486,427.8273],[-5.5566,38.1502,417.8944],[-5.5556,38.1534,401.1258],[-5.5535,38.1537,392.8019],[-5.5495,38.1611,351.6437],[-5.5413,38.1601,347.5047],[-5.5388,38.1617,343.7561],[-5.5357,38.1687,365.7018],[-5.5403,38.17,362.1931],[-5.5395,38.1718,364.484],[-5.542,38.1771,381.5572],[-5.5399,38.177,379.1631],[-5.5399,38.181,394.2388],[-5.5422,38.1814,384.4254],[-5.5436,38.1849,391.8387],[-5.5402,38.185,410.8191],[-5.5366,38.1919,410.8535],[-5.5391,38.1932,416.5222],[-5.5372,38.1965,416.1652],[-5.5388,38.1998,426.4691],[-5.5304,38.2033,443.493],[-5.5291,38.2019,465.1699],[-5.5266,38.2053,470.645],[-5.5209,38.2072,513.7254],[-5.5207,38.2108,522.3072],[-5.5233,38.213,534.484],[-5.5221,38.2139,549.9854],[-5.5242,38.2226,577.8793],[-5.5223,38.2304,608.0123],[-5.5237,38.2492,633.7485],[-5.5299,38.2552,628.7587],[-5.5258,38.2641,604.4306],[-5.5317,38.27,594.368],[-5.5374,38.273,588.6656],[-5.5373,38.2795,586.6436],[-5.541,38.2781,582.1204],[-5.5443,38.2823,577.9981],[-5.5415,38.2851,576.6309],[-5.542,38.2868,576.5256],[-5.5442,38.2885,574.3091],[-5.5469,38.2976,565.9506],[-5.5524,38.3035,562.7239],[-5.5505,38.3063,560.2385],[-5.5511,38.311,557.6351],[-5.5559,38.3183,555.3928],[-5.5676,38.3235,552.8433],[-5.5755,38.3296,553.9249],[-5.5736,38.3308,551.5476],[-5.5714,38.3384,549.8871],[-5.5722,38.3419,550.1508],[-5.5671,38.3513,547.306],[-5.5686,38.3567,544.2808],[-5.5668,38.3626,550.0685],[-5.5594,38.3661,541.9551],[-5.5595,38.3676,543.9413],[-5.5655,38.3669,545.7119],[-5.5664,38.3684,537.1696],[-5.563,38.372,547.7101],[-5.5667,38.3772,533.4758],[-5.5729,38.3784,532.3063],[-5.5773,38.3822,536.7399],[-5.5799,38.3811,530.4255],[-5.5849,38.3859,527.0997],[-5.5844,38.4003,523.6813],[-5.5726,38.4233,515.6614],[-5.5729,38.4269,514.6023],[-5.568,38.4334,513.4489],[-5.562,38.4356,512.6111],[-5.5527,38.4456,513.1909],[-5.5489,38.4467,510.5822],[-5.5463,38.45,507.3052],[-5.543,38.4499,510.5878],[-5.5307,38.4546,499.1999],[-5.5196,38.4632,496.171],[-5.5124,38.464,503.8127],[-5.5038,38.4567,505.384],[-5.4984,38.4595,499.6048],[-5.4947,38.4587,494.0798],[-5.491,38.4665,490.0626],[-5.4866,38.4658,505.2415],[-5.4843,38.4634,498.7352],[-5.4801,38.4743,486.1653],[-5.4811,38.4775,481.9493],[-5.4794,38.4847,482.0964],[-5.4741,38.486,491.1257],[-5.4692,38.4849,476.709],[-5.4649,38.4888,487.26369999999997],[-5.4866,38.4973,607.9567],[-5.4965,38.4979,570.0386],[-5.5074,38.5038,594.0567],[-5.5121,38.5106,583.8992],[-5.5572,38.5295,703.6653],[-5.5835,38.5361,735.5278],[-5.64,38.5409,691.3062],[-5.6524,38.5312,639.4039],[-5.684,38.5163,674.1389],[-5.6798,38.5224,632.618],[-5.6817,38.5329,678.5474],[-5.6905,38.5371,690.3636],[-5.746,38.5759,633.8467],[-5.749,38.5796,604.1518],[-5.7717,38.5891,489.1585],[-5.7847,38.5925,478.8878],[-5.7974,38.6019,416.3247],[-5.7996,38.606,400.6655],[-5.7973,38.6107,411.8581],[-5.8031,38.6184,395.97],[-5.8031,38.6209,391.0399],[-5.8069,38.6226,404.9222],[-5.8095,38.6197,414.0475],[-5.8237,38.6182,469.5511],[-5.8581,38.6421,478.5746],[-5.8628,38.6409,476.1227],[-5.8699,38.635,485.5535],[-5.8751,38.6337,485.1947],[-5.8787,38.6285,489.1923],[-5.9425,38.6282,572.5471],[-5.9399,38.6216,606.8383],[-5.9279,38.6118,587.6675],[-5.9282,38.6029,538.188],[-5.9115,38.5951,639.8424],[-5.905,38.5886,548.1783],[-5.905,38.5852,552.996],[-5.9005,38.5797,555.0988],[-5.9044,38.5722,530.3901],[-5.9028,38.5714,526.8672],[-5.9181,38.5703,588.1315],[-5.9338,38.5562,560.8162],[-5.9542,38.5273,571.3579],[-5.9681,38.5297,528.0504],[-5.9818,38.517,521.6112],[-5.991,38.505,479.588],[-5.9943,38.5039,461.6173],[-5.993,38.5014,449.4123],[-5.9953,38.4934,436.0507],[-5.9977,38.4939,438.2385],[-6.0005,38.492,416.5613],[-6.0024,38.4867,405.0021],[-6.0089,38.4843,397.3024],[-6.0105,38.4809,387.3731],[-6.0196,38.4789,378.7576],[-6.0236,38.4755,367.896],[-6.0265,38.4781,375.429],[-6.031,38.475,392.3273],[-6.0299,38.4681,400.5873],[-6.0313,38.4615,476.13],[-6.0251,38.4488,498.8394],[-6.0201,38.443,518.9059],[-6.0235,38.4339,512.5299],[-6.0351,38.4217,510.9195],[-6.0445,38.4187,486.8181],[-6.0558,38.412,438.4034],[-6.0586,38.4137,420.3994],[-6.064,38.4131,418.4177],[-6.0676,38.4148,420.7598],[-6.0682,38.4173,414.9673],[-6.0709,38.4166,416.0639],[-6.0692,38.4151,420.7598],[-6.0715,38.4136,424.1917],[-6.0716,38.4097,423.8213],[-6.0701,38.409,423.4895],[-6.0728,38.4074,423.578],[-6.0724,38.405,435.4289],[-6.0788,38.4057,428.5935],[-6.0753,38.4023,433.3128],[-6.0765,38.3978,436.8869],[-6.0729,38.3951,442.7996],[-6.0763,38.3881,451.1214],[-6.0704,38.383,453.8295],[-6.0655,38.3725,529.1762],[-6.065,38.3645,560.9329],[-6.0584,38.3597,573.1592],[-6.0501,38.3571,544.3898],[-6.0414,38.3578,536.1641],[-6.0221,38.3734,487.7516],[-6.0009,38.3857,530.7763],[-5.9935,38.3865,544.9002],[-5.9814,38.382,571.9446],[-5.9589,38.3847,560.5034],[-5.9496,38.3803,552.9253],[-5.9384,38.3815,542.8177],[-5.9313,38.3795,538.8376],[-5.9188,38.3792,528.0133],[-5.9158,38.3683,531.2424],[-5.8948,38.3548,504.6655],[-5.8973,38.3533,503.9019],[-5.8976,38.3501,506.6393],[-5.8935,38.3403,508.4639],[-5.8957,38.3351,511.24],[-5.9014,38.3311,513.364],[-5.9061,38.3329,515.448],[-5.9079,38.3321,516.7892],[-5.9058,38.3291,522.1603],[-5.9111,38.3268,520.4954],[-5.9137,38.3228,525.9084],[-5.9131,38.3189,528.7533],[-5.9112,38.318,525.6547],[-5.9126,38.3155,528.0387],[-5.9064,38.3052,540.5],[-5.9104,38.3031,540.5],[-5.9096,38.2995,540.5],[-5.9161,38.2859,542.2249],[-5.9181,38.2873,548.4189],[-5.9237,38.2789,550.8109],[-5.9172,38.2712,558.3383],[-5.9182,38.2691,559.4469],[-5.9134,38.2637,562.4323],[-5.9127,38.2543,568.9056],[-5.9169,38.2537,573.7291],[-5.9218,38.25,583.8031],[-5.9322,38.2462,591.3891],[-5.9345,38.2423,590.5991],[-5.9335,38.2385,585.0225],[-5.9229,38.2398,572.9302],[-5.9101,38.2362,597.8619],[-5.9062,38.239,595.6735],[-5.907,38.2349,598.0022],[-5.8845,38.2054,621.5641],[-5.8816,38.2116,620.2606],[-5.8744,38.2175,611.9722],[-5.8672,38.2203,612.3187],[-5.8565,38.2171,598.8932],[-5.8476,38.2106,617.0571],[-5.8342,38.1961,565.7344],[-5.8385,38.184,597.7031],[-5.8377,38.1744,530.2247],[-5.823,38.1699,515.9461],[-5.8241,38.1722,515.7716],[-5.8222,38.1757,531.2202],[-5.8186,38.1751,507.6884],[-5.817,38.1777,530.1444],[-5.8153,38.1763,504.5493],[-5.8106,38.178,491.8124],[-5.8118,38.1748,492.5839],[-5.8105,38.1736,509.4817],[-5.803,38.1783,485.1351],[-5.7998,38.1745,485.2746],[-5.7917,38.1776,490.0201],[-5.7816,38.1859,479.6842],[-5.772,38.1834,464.8182],[-5.761,38.1828,462.474],[-5.7572,38.1806,467.4285],[-5.7552,38.1819,458.8614],[-5.7574,38.1839,490.2073],[-5.7566,38.1853,490.2073],[-5.7538,38.1843,455.4745],[-5.7485,38.1904,451.7391],[-5.7457,38.1895,444.4704],[-5.7419,38.1939,441.739],[-5.7314,38.1952,441.0538],[-5.728,38.1974,441.8679],[-5.725,38.1958,442.9204],[-5.7231,38.1925,448.7706],[-5.7146,38.189,435.8967],[-5.7141,38.1863,427.0154],[-5.7078,38.1883,423.5175],[-5.7049,38.1851,425.7531],[-5.7018,38.1864,422.0055],[-5.6979,38.185,419.3583],[-5.6946,38.1865,421.3405],[-5.6944,38.1835,423.0025],[-5.6987,38.1827,416.3361],[-5.6977,38.1797,406.0915],[-5.6885,38.1819,406.8925],[-5.6874,38.1796,419.7326],[-5.6887,38.1712,458.3773],[-5.684,38.1608,522.4189],[-5.6841,38.1571,510.7169],[-5.686,38.1616,510.2525],[-5.6938,38.1682,476.524],[-5.6949,38.1711,426.6591],[-5.7019,38.1673,422.1857],[-5.7057,38.1694,429.357],[-5.7056,38.1641,428.0155],[-5.6946,38.1504,474.976],[-5.7043,38.1434,530.003],[-5.7088,38.1423,552.0084],[-5.7153,38.1338,536.9409],[-5.7186,38.1363,549.3073],[-5.7307,38.1371,485.2502],[-5.7387,38.1328,524.3157],[-5.7406,38.1266,612.2557],[-5.735,38.1145,619.2604],[-5.7341,38.1081,627.1866],[-5.7339,38.0982,656.0187],[-5.7359,38.0945,676.8278]]]]}
,"properties": {"GID_3": "ESP.11.1.11_1","GID_0": "ESP","country": "Spain","GID_1": "ESP.11_1","province": "Extremadura","NL_NAME_1": "NA","GID_2": "ESP.11.1_1","county": "Badajoz","NL_NAME_2": "NA","city": "n.a.(49)","VARNAME_3": "NA","NL_NAME_3": "NA","TYPE_3": "Comarca","ENGTYPE_3": "Comarca","CC_3": "NA","HASC_3": "NA","name": "n.a.(49).city","area_km2": 1666.779,"hist_schema_id": "Elevation0-9000","hist_area_km2": {"325": 0.1,"350": 2.934,"375": 13.972,"400": 26.538,"425": 42.609,"450": 73.834,"475": 111.602,"500": 160.514,"525": 238.178,"550": 424.603,"575": 355.141,"600": 143.27,"625": 34.191,"650": 16.885,"675": 8.586,"700": 5.494,"725": 3.384,"750": 2.256,"775": 1.476,"800": 0.829,"825": 0.348,"850": 0.033}}}