{"type": "Feature","bbox": [-0.4167,39.7221,-0.0095,40.0486],"geometry": {"type": "MultiPolygon","coordinates": [[[[-0.1726,39.7451,0.0],[-0.1543,39.7687,1.1316],[-0.1515,39.7699,0.7948],[-0.1418,39.7865,0.0],[-0.1371,39.789,0.9327],[-0.1326,39.7949,0.0],[-0.1196,39.816,0.6231],[-0.1018,39.8338,0.3423],[-0.0879,39.8554,0.4497],[-0.0785,39.8626,2.2456],[-0.0737,39.8618,0.0128],[-0.0726,39.8638,0.7589],[-0.0707,39.8638,0.9341],[-0.0699,39.861,0.2822],[-0.0674,39.8615,0.0],[-0.0665,39.8632,0.2323],[-0.0704,39.8649,0.9341],[-0.0693,39.8674,2.5642],[-0.0549,39.8751,1.4768],[-0.0296,39.8982,1.5246],[-0.0157,39.9049,0.3352],[-0.0095,39.9107,0.9358],[-0.0206,39.9183,2.8472],[-0.0551,39.929,17.5569],[-0.061,39.9329,19.5661],[-0.0662,39.9393,23.3173],[-0.0862,39.954,33.8355],[-0.1024,39.9554,55.1344],[-0.1082,39.9596,50.0547],[-0.1146,39.9603,58.6761],[-0.1163,39.9635,53.1655],[-0.1187,39.9632,57.6791],[-0.1204,39.9602,61.8902],[-0.1276,39.9625,67.9612],[-0.1299,39.9618,63.4837],[-0.1348,39.9657,68.2719],[-0.1419,39.966,66.2603],[-0.1536,39.9712,70.1688],[-0.1465,39.9779,93.9993],[-0.1367,39.9831,71.0238],[-0.1346,39.987,65.54],[-0.1421,39.993,74.1283],[-0.158,40.0014,80.4089],[-0.1593,40.0035,84.3385],[-0.1582,40.0109,86.9192],[-0.1611,40.0198,92.4494],[-0.1717,40.0224,131.3464],[-0.2073,40.0115,270.0779],[-0.2106,40.0209,223.2133],[-0.2136,40.0227,234.9972],[-0.2194,40.0229,228.1381],[-0.225,40.0259,234.3962],[-0.2333,40.0264,177.8811],[-0.245,40.0317,187.5355],[-0.2552,40.0337,222.8937],[-0.2637,40.039,261.4351],[-0.2719,40.0411,300.97],[-0.2837,40.0486,465.1256],[-0.2926,40.0473,498.0244],[-0.2987,40.0398,423.7003],[-0.2911,40.0227,324.3379],[-0.2869,40.0193,239.8458],[-0.2813,40.0019,344.2333],[-0.2916,39.994,401.9639],[-0.2983,39.9847,393.8154],[-0.3208,39.9698,394.6714],[-0.3284,39.9734,408.0541],[-0.3304,39.9781,594.9293],[-0.3413,39.9799,684.0289],[-0.3481,39.9754,534.0726],[-0.3566,39.9814,663.1812],[-0.3614,39.9744,642.5031],[-0.3652,39.9736,643.4233],[-0.3672,39.9713,654.645],[-0.3685,39.9639,596.3935],[-0.3734,39.9587,663.5472],[-0.375,39.9535,691.8602],[-0.3796,39.9528,731.3558],[-0.3867,39.942,712.5393],[-0.392,39.9427,761.46],[-0.3955,39.9358,873.4918],[-0.4008,39.9343,864.1594],[-0.406,39.9378,879.9377],[-0.4113,39.9387,850.8145],[-0.4167,39.9359,952.5229],[-0.4133,39.9281,1079.577],[-0.4065,39.9235,968.659],[-0.39,39.9183,815.5731],[-0.3891,39.9116,788.2896],[-0.3765,39.9015,1061.9038],[-0.3828,39.8948,961.2667],[-0.3798,39.8942,953.7053],[-0.3716,39.8873,632.4591],[-0.3676,39.88,893.9871],[-0.3625,39.8805,893.2431],[-0.3586,39.8778,946.9656],[-0.3482,39.8771,857.7996],[-0.3439,39.8743,894.3655],[-0.3254,39.8722,903.7966],[-0.3262,39.8708,819.3809],[-0.3222,39.8657,687.3327],[-0.317,39.8655,640.7909],[-0.3121,39.8682,658.7745],[-0.3044,39.8683,720.0826],[-0.2945,39.8656,710.248],[-0.2922,39.8579,842.968],[-0.3,39.8535,776.7901],[-0.3024,39.8413,654.8903],[-0.3127,39.8308,526.3568],[-0.3162,39.8231,568.3757],[-0.3134,39.8228,553.141],[-0.3104,39.814,468.7986],[-0.316,39.7999,333.8781],[-0.3085,39.797,459.7522],[-0.2974,39.7852,182.3237],[-0.2765,39.7706,338.9739],[-0.2754,39.7641,155.4638],[-0.2715,39.7604,106.287],[-0.2736,39.7551,74.9743],[-0.2711,39.7505,68.1773],[-0.2598,39.7436,42.4131],[-0.2468,39.743,22.9976],[-0.2422,39.7407,19.2396],[-0.2347,39.739,11.2088],[-0.2339,39.7401,11.2088],[-0.2286,39.7368,5.2149],[-0.1888,39.7221,1.7587],[-0.1821,39.7335,0.0],[-0.1726,39.7451,0.0]]]]}
,"properties": {"GID_3": "ESP.10.2.8_1","GID_0": "ESP","country": "Spain","GID_1": "ESP.10_1","province": "ComunidadValenciana","NL_NAME_1": "NA","GID_2": "ESP.10.2_1","county": "Castellón","NL_NAME_2": "NA","city": "PlanaBaixa","VARNAME_3": "NA","NL_NAME_3": "NA","TYPE_3": "Comarca","ENGTYPE_3": "Comarca","CC_3": "NA","HASC_3": "NA","name": "Plana_Baixa.city","area_km2": 603.7237,"hist_schema_id": "Elevation0-9000","hist_area_km2": {"0": 89.071,"25": 76.0646,"50": 45.3754,"75": 38.7978,"100": 34.2337,"125": 29.1249,"150": 29.9145,"175": 26.2726,"200": 21.5742,"225": 20.5327,"250": 17.8699,"275": 14.5221,"300": 12.9454,"325": 12.49,"350": 12.6048,"375": 12.0034,"400": 11.3855,"425": 11.2237,"450": 10.3451,"475": 10.1174,"500": 8.5555,"525": 7.9537,"550": 7.5305,"575": 6.8311,"600": 5.8878,"625": 4.8468,"650": 4.1474,"675": 4.1148,"700": 3.3504,"725": 2.5534,"750": 2.4237,"775": 1.529,"800": 1.6266,"825": 1.3339,"850": 1.2525,"875": 0.9434,"900": 0.6669,"925": 0.6832,"950": 0.2277,"975": 0.3253,"1000": 0.1789,"1025": 0.1626,"1050": 0.0976,"1075": 0.0325}}}