{"type": "Feature","bbox": [-3.5106,40.1525,-2.7743,40.8859],"geometry": {"type": "MultiPolygon","coordinates": [[[[-2.9441,40.1682,750.9972],[-2.9347,40.1633,795.5565],[-2.913,40.1572,817.907],[-2.9048,40.1579,896.608],[-2.8875,40.1646,803.1597],[-2.8798,40.1709,836.1246],[-2.8737,40.1736,846.0485],[-2.875,40.1758,860.6262],[-2.863,40.2001,892.515],[-2.8483,40.2026,918.8599],[-2.8259,40.2023,1060.7076],[-2.8214,40.2052,1058.9202],[-2.8227,40.2092,1050.558],[-2.8189,40.2169,1029.4],[-2.8203,40.2197,1036.8374],[-2.8145,40.2243,1089.251],[-2.8074,40.2425,1112.9181],[-2.8083,40.2454,1109.5444],[-2.8025,40.264,1096.1404],[-2.8052,40.2667,1095.7183],[-2.8065,40.2794,1082.549],[-2.8048,40.2814,1074.741],[-2.8046,40.288,1063.499],[-2.8091,40.3119,942.9841],[-2.8084,40.3269,703.1575],[-2.8166,40.3347,704.5665],[-2.8105,40.3401,654.7896],[-2.8103,40.3432,641.3978],[-2.8116,40.3444,641.0872],[-2.8148,40.3418,641.5439],[-2.8151,40.3456,669.0216],[-2.8178,40.348,638.0],[-2.8153,40.3592,638.0],[-2.8168,40.3638,646.6608],[-2.8121,40.3723,669.3718],[-2.8111,40.3869,648.3568],[-2.8058,40.391,641.5205],[-2.8102,40.3933,698.7522],[-2.8044,40.3987,638.0],[-2.8072,40.4073,639.4525],[-2.8026,40.4105,644.1188],[-2.798,40.4172,638.0],[-2.7975,40.4202,638.0],[-2.7996,40.4233,669.6077],[-2.7866,40.4268,659.8134],[-2.7858,40.4279,638.0],[-2.79,40.4317,638.0],[-2.7844,40.435,645.1654],[-2.7809,40.4442,643.7814],[-2.7768,40.4466,642.978],[-2.7743,40.4523,642.8143],[-2.7755,40.4541,642.3245],[-2.783,40.4553,682.6045],[-2.7833,40.4582,638.0],[-2.7885,40.4646,638.0],[-2.7919,40.4638,662.5593],[-2.7992,40.4691,718.9641],[-2.813,40.4702,795.9218],[-2.8188,40.473,893.9215],[-2.8262,40.4737,906.0343],[-2.8241,40.4794,978.176],[-2.8342,40.4831,977.7917],[-2.8431,40.4977,773.9185],[-2.8517,40.5025,878.0261],[-2.8561,40.5085,944.0467],[-2.8549,40.5119,889.6091],[-2.8513,40.5144,970.2393],[-2.8493,40.5306,968.3345],[-2.8534,40.5496,989.379],[-2.858,40.5527,991.6719],[-2.8594,40.5559,990.8646],[-2.8491,40.5679,999.2091],[-2.85,40.5711,999.322],[-2.8373,40.5806,1011.9591],[-2.8401,40.5819,1010.3773],[-2.8403,40.5858,1009.2057],[-2.8355,40.5879,1007.9088],[-2.8297,40.5868,1014.2701],[-2.8256,40.5909,1024.274],[-2.8246,40.597,1027.0813],[-2.8317,40.6012,1016.9191],[-2.841,40.5974,1010.597],[-2.8706,40.5943,998.3286],[-2.8803,40.5994,974.784],[-2.8888,40.5977,995.3568],[-2.8961,40.6003,986.2859],[-2.9102,40.5967,970.1512],[-2.9233,40.5975,837.0972],[-2.9322,40.5923,843.3678],[-2.9392,40.5986,882.8338],[-2.9342,40.6008,922.4937],[-2.9113,40.6177,957.7612],[-2.9124,40.6222,980.092],[-2.9224,40.6278,973.5978],[-2.9321,40.6372,855.3115],[-2.9331,40.6416,775.7109],[-2.9403,40.6409,740.9872],[-2.9445,40.6447,803.1351],[-2.9395,40.663,772.8723],[-2.9418,40.6689,959.0039],[-2.9383,40.6703,908.2411],[-2.9375,40.6735,958.0287],[-2.9387,40.6772,965.7821],[-2.9309,40.6809,934.0172],[-2.9276,40.6867,950.082],[-2.9304,40.6942,964.9268],[-2.9272,40.6984,973.7983],[-2.9305,40.7007,982.6797],[-2.9496,40.7022,991.3331],[-2.9586,40.7076,976.2036],[-2.9592,40.7103,940.5223],[-2.9657,40.7145,943.4207],[-2.9679,40.7223,979.5795],[-2.98,40.7311,989.7511],[-2.9877,40.7453,989.6259],[-2.9941,40.7474,987.9761],[-2.9974,40.7366,981.1732],[-3.0005,40.733,968.2927],[-3.0096,40.7268,973.8571],[-3.0329,40.7156,969.6922],[-3.041,40.7083,959.0654],[-3.0452,40.7148,968.5912],[-3.0557,40.7156,948.7041],[-3.0644,40.7121,940.407],[-3.0689,40.7164,863.5408],[-3.0814,40.7194,969.223],[-3.0861,40.7236,961.818],[-3.1167,40.734,786.0833],[-3.1255,40.7409,732.4512],[-3.1323,40.743899999999996,746.594],[-3.1364,40.7522,741.8504],[-3.143,40.7556,665.7807],[-3.1377,40.758,674.3311],[-3.1375,40.7658,681.244],[-3.133,40.7718,678.0382],[-3.1358,40.776,686.8215],[-3.1311,40.7804,684.0967],[-3.1338,40.7826,680.8893],[-3.1325,40.7929,679.5311],[-3.1348,40.7997,680.3613],[-3.1303,40.8027,681.6335],[-3.1357,40.8042,716.196],[-3.1216,40.835,696.7447],[-3.1175,40.8376,698.3567],[-3.1174,40.8501,822.7842],[-3.1111,40.8688,796.6392],[-3.1116,40.8848,779.0312],[-3.1159,40.8859,775.1254],[-3.1193,40.8837,729.6418],[-3.1326,40.8858,754.9437],[-3.1415,40.8836,876.7266],[-3.1721,40.883,817.4708],[-3.1788,40.879,771.2477],[-3.1933,40.8768,807.3304],[-3.2022,40.8777,841.3458],[-3.2458,40.8723,954.5314],[-3.2479,40.8809,945.6469],[-3.2546,40.8758,929.8933],[-3.2596,40.8748,942.0892],[-3.2617,40.8722,938.4569],[-3.2625,40.8672,931.1983],[-3.2748,40.8612,949.4862],[-3.2857,40.8466,930.622],[-3.2872,40.8477,936.2397],[-3.2868,40.8426,931.4455],[-3.2883,40.8413,932.4506],[-3.2975,40.8433,930.4019],[-3.3003,40.8425,927.0524],[-3.3008,40.844,929.7271],[-3.3057,40.8452,931.4506],[-3.3194,40.8421,937.692],[-3.3217,40.8459,925.4457],[-3.32,40.8485,923.2034],[-3.3215,40.854,862.5065],[-3.3179,40.856,895.2886],[-3.3227,40.8645,827.862],[-3.3215,40.8664,855.6304],[-3.3226,40.869,841.6584],[-3.3269,40.8715,807.9219],[-3.3289,40.8747,849.6997],[-3.3317,40.8734,832.0026],[-3.3399,40.8766,867.3214],[-3.3462,40.8714,852.3832],[-3.3622,40.8669,766.3745],[-3.3753,40.8676,770.2046],[-3.3831,40.8711,738.2985],[-3.3859,40.8696,736.1664],[-3.3885,40.8651,732.4034],[-3.3995,40.8649,725.973],[-3.4007,40.8623,723.5518],[-3.4023,40.8623,723.5518],[-3.4052,40.8684,774.0737],[-3.4143,40.8733,910.5422],[-3.4219,40.8699,864.8512],[-3.4277,40.8715,817.5199],[-3.4397,40.8779,703.9717],[-3.4425,40.8838,729.1163],[-3.4408,40.8761,699.5673],[-3.4463,40.8779,713.156],[-3.4491,40.8772,734.7229],[-3.4731,40.8644,701.3196],[-3.4739,40.8625,692.7761],[-3.4677,40.8565,687.3622],[-3.4711,40.8515,687.2578],[-3.4767,40.8515,694.1827],[-3.4703,40.8443,683.6567],[-3.4711,40.8418,684.6284],[-3.4789,40.8385,684.8249],[-3.4762,40.8263,685.645],[-3.4814,40.8196,673.1002],[-3.4815,40.8156,689.7485],[-3.4908,40.8077,675.4711],[-3.4911,40.7994,669.7816],[-3.4945,40.7975,665.974],[-3.4987,40.7993,665.9591],[-3.5019,40.7972,663.9747],[-3.5026,40.7891,663.4248],[-3.5083,40.7909,661.7167],[-3.5106,40.7886,724.2341],[-3.4971,40.7886,686.7419],[-3.4852,40.7846,714.8138],[-3.4658,40.7843,790.8896],[-3.4594,40.7814,760.4448],[-3.4558,40.7763,757.0236],[-3.45,40.7722,781.5201],[-3.4467,40.7633,810.7394],[-3.4433,40.7608,851.3284],[-3.4432,40.7538,792.4562],[-3.4467,40.7411,753.2845],[-3.4495,40.7409,744.0215],[-3.4509,40.738,737.5117],[-3.4484,40.7329,726.2502],[-3.4416,40.7379,739.5712],[-3.4341,40.7308,821.9443],[-3.4378,40.7224,808.1287],[-3.4421,40.72,785.3473],[-3.4463,40.7147,756.4699],[-3.4557,40.7093,752.724],[-3.4567,40.7042,732.0117],[-3.4629,40.6977,739.6522],[-3.4616,40.6927,736.3104],[-3.4674,40.6926,736.2348],[-3.4674,40.6897,727.5497],[-3.4559,40.6879,755.4725],[-3.4487,40.6825,784.4513],[-3.4483,40.6784,786.5148],[-3.4422,40.6781,762.4105],[-3.4418,40.6743,756.6363],[-3.4357,40.6752,770.4574],[-3.4271,40.6726,822.5397],[-3.4259,40.6827,822.2109],[-3.4247,40.6808,825.6808],[-3.4207,40.6813,825.8088],[-3.4151,40.6713,783.2713],[-3.4105,40.6722,810.8093],[-3.4049,40.6701,812.8433],[-3.4047,40.6777,826.9508],[-3.3999,40.6917,831.9027],[-3.3932,40.6927,831.2241],[-3.3892,40.6875,830.6121],[-3.3728,40.6779,757.6471],[-3.3727,40.6694,734.4307],[-3.3678,40.664,718.2656],[-3.3677,40.6607,711.7279],[-3.3632,40.655,690.2574],[-3.3654,40.6514,687.5746],[-3.3654,40.6479,708.064],[-3.3449,40.6416,732.6321],[-3.3465,40.6385,732.9226],[-3.3388,40.6366,706.6334],[-3.3374,40.6409,711.2492],[-3.3338,40.6396,735.7216],[-3.3243,40.6436,740.3908],[-3.3177,40.6513,775.9828],[-3.3174,40.6543,778.7267],[-3.3149,40.6492,761.1486],[-3.3228,40.6408,754.769],[-3.3233,40.6301,729.4471],[-3.3312,40.6264,720.7706],[-3.3367,40.6268,709.7513],[-3.3375,40.6254,713.7179],[-3.3275,40.6202,765.7107],[-3.322,40.6122,770.6164],[-3.3304,40.6073,765.5192],[-3.3288,40.6061,766.3176],[-3.3307,40.6046,765.6497],[-3.3294,40.6036,765.6814],[-3.3308,40.6007,764.6438],[-3.3288,40.5989,763.2108],[-3.3304,40.5974,761.1775],[-3.3105,40.5796,698.7001],[-3.2833,40.5715,646.3051],[-3.2826,40.5693,641.9761],[-3.2866,40.5652,638.9242],[-3.2833,40.5638,636.3011],[-3.2882,40.5583,629.6582],[-3.2817,40.5524,626.1371],[-3.2853,40.5496,624.477],[-3.2838,40.5489,624.2041],[-3.2969,40.5373,615.462],[-3.2896,40.5317,607.8762],[-3.2835,40.5367,607.5012],[-3.2777,40.534,599.6376],[-3.2719,40.5351,606.2672],[-3.2497,40.5437,621.6962],[-3.2439,40.5368,667.5885],[-3.2356,40.5328,691.8974],[-3.2302,40.532,710.9834],[-3.2329,40.5379,679.9132],[-3.2318,40.5387,679.9132],[-3.2278,40.5355,700.2122],[-3.224,40.5267,860.3755],[-3.2006,40.5147,897.0323],[-3.1989,40.5039,899.7273],[-3.202,40.4954,885.3547],[-3.1953,40.4784,878.8612],[-3.2002,40.4633,862.004],[-3.1985,40.4599,865.9828],[-3.2004,40.4462,859.0605],[-3.1986,40.4423,848.1446],[-3.1782,40.4393,874.0771],[-3.1725,40.4362,866.3581],[-3.1685,40.4386,867.7204],[-3.1559,40.4392,839.0489],[-3.1511,40.4311,864.7722],[-3.1512,40.4265,860.2742],[-3.1476,40.4226,847.8101],[-3.1475,40.4196,851.0652],[-3.1418,40.4121,685.4347],[-3.1304,40.4051,856.4241],[-3.1344,40.3979,815.1413],[-3.1356,40.39,791.3932],[-3.1442,40.3875,648.5231],[-3.1387,40.376,646.5229],[-3.1502,40.3734,824.7727],[-3.1494,40.3717,831.7458],[-3.1533,40.3674,824.9257],[-3.1496,40.3609,680.5405],[-3.1437,40.3579,635.6461],[-3.1442,40.3537,648.1885],[-3.1414,40.3526,635.626],[-3.1415,40.3508,636.0417],[-3.1467,40.3501,632.274],[-3.1474,40.3474,631.0034],[-3.1561,40.3419,632.0424],[-3.1514,40.3385,690.0109],[-3.1533,40.3317,833.7747],[-3.1623,40.3274,798.7554],[-3.1621,40.326,816.0676],[-3.1778,40.3151,806.5519],[-3.1824,40.3068,793.4966],[-3.1802,40.3013,808.501],[-3.1818,40.2951,809.262],[-3.1806,40.2911,802.5626],[-3.1865,40.2786,800.3737],[-3.1835,40.2693,791.0737],[-3.1961,40.2577,799.839],[-3.1956,40.2478,796.9573],[-3.1831,40.2434,793.6639],[-3.1795,40.2406,802.7256],[-3.178,40.2361,793.7487],[-3.1731,40.234,756.1368],[-3.1729,40.2389,780.3522],[-3.1601,40.2565,732.3677],[-3.1516,40.2619,764.7632],[-3.1533,40.2641,774.5266],[-3.1438,40.2661,756.1427],[-3.1274,40.2782,811.2931],[-3.112,40.2856,806.3066],[-3.1094,40.2852,818.9855],[-3.1076,40.2803,814.6275],[-3.1023,40.2786,791.1028],[-3.0982,40.2751,773.4963],[-3.0958,40.2689,784.5448],[-3.099,40.2605,798.5846],[-3.0886,40.2482,787.4327],[-3.0868,40.244,776.8632],[-3.0892,40.2387,761.1319],[-3.0865,40.234,757.733],[-3.0806,40.2297,746.3554],[-3.079,40.224,665.1854],[-3.0832,40.2152,611.6937],[-3.0792,40.2091,605.2656],[-3.083,40.2028,613.4254],[-3.0883,40.2006,648.1033],[-3.0842,40.1985,677.8697],[-3.0866,40.1938,666.4625],[-3.0842,40.1892,647.173],[-3.0854,40.1865,632.4554],[-3.0771,40.1731,571.6055],[-3.0785,40.1652,596.2489],[-3.0691,40.1601,558.1611],[-3.0677,40.1575,557.2344],[-3.0675,40.1613,556.3549],[-3.0637,40.1683,558.2048],[-3.0379,40.1609,641.1609],[-3.0309,40.157,640.326],[-3.0208,40.1558,651.763],[-3.0164,40.1525,657.9542],[-3.0144,40.1553,632.1495],[-3.0157,40.165,657.5446],[-3.0123,40.1707,627.2846],[-3.0124,40.1742,651.2345],[-3.018,40.1762,607.2971],[-3.0211,40.1844,619.2605],[-3.0197,40.1932,563.714],[-3.0164,40.193,563.7173],[-3.0103,40.1977,566.0984],[-3.0075,40.201,566.3461],[-3.0061,40.2085,563.6135],[-2.9981,40.2091,565.6806],[-2.9881,40.2027,586.4312],[-2.9887,40.2011,595.6874],[-2.981,40.194,610.0437],[-2.966,40.1852,671.2505],[-2.9594,40.183,763.5414],[-2.9441,40.1682,750.9972]]]]}
,"properties": {"GID_3": "ESP.4.4.4_1","GID_0": "ESP","country": "Spain","GID_1": "ESP.4_1","province": "Castilla-LaMancha","NL_NAME_1": "NA","GID_2": "ESP.4.4_1","county": "Guadalajara","NL_NAME_2": "NA","city": "n.a.(122)","VARNAME_3": "NA","NL_NAME_3": "NA","TYPE_3": "Comarca","ENGTYPE_3": "Comarca","CC_3": "NA","HASC_3": "NA","name": "n.a.(122).city","area_km2": 2403.674,"hist_schema_id": "Elevation0-9000","hist_area_km2": {"550": 2.965,"575": 22.566,"600": 40.871,"625": 63.411,"650": 90.918,"675": 105.012,"700": 123.822,"725": 165.987,"750": 186.655,"775": 205.92,"800": 220.535,"825": 195.793,"850": 158.268,"875": 185.387,"900": 197.427,"925": 160.826,"950": 130.241,"975": 115.729,"1000": 24.538,"1025": 4.067,"1050": 0.971,"1075": 0.874,"1100": 0.566,"1125": 0.243,"1150": 0.081}}}