{"type": "Feature","bbox": [-2.8856,42.7645,-2.2326,42.976],"geometry": {"type": "MultiPolygon","coordinates": [[[[-2.3089,42.7948,977.1023],[-2.3077,42.7972,1022.7162],[-2.2918,42.7905,1067.1643],[-2.2848,42.7849,1090.921],[-2.281,42.7851,1025.0977],[-2.2686,42.7951,973.4181],[-2.2704,42.8089,980.3831],[-2.2677,42.8134,966.8932],[-2.2529,42.8207,981.8727],[-2.2358,42.8345,960.8728],[-2.2326,42.8438,941.8474],[-2.2405,42.865,565.5742],[-2.2421,42.8795,873.3111],[-2.2409,42.8856,924.4622],[-2.253,42.8928,1070.0566],[-2.2507,42.8957,1102.62],[-2.2554,42.8985,1075.6366],[-2.2731,42.9017,1002.1141],[-2.2895,42.9023,1171.4509],[-2.2928,42.9061,1097.0385],[-2.2912,42.908,1028.2946],[-2.2977,42.915,1147.8248],[-2.3023,42.9259,1301.0872],[-2.3049,42.9274,1235.0045],[-2.3096,42.9261,1287.7637],[-2.3142,42.9267,1168.6519],[-2.3164,42.929,1154.2052],[-2.3391,42.9364,1202.4171],[-2.3509,42.9426,1214.495],[-2.3519,42.9472,1166.2339],[-2.3548,42.95,1220.6311],[-2.3635,42.9468,1195.5066],[-2.3711,42.9489,1146.4127],[-2.3766,42.948,1180.1824],[-2.3898,42.9526,1150.8999],[-2.3937,42.9521,1139.2395],[-2.3999,42.9566,1106.3453],[-2.4099,42.9595,1043.3167],[-2.4224,42.9556,1122.9768],[-2.4421,42.9591,1024.072],[-2.4541,42.9568,1014.9598],[-2.465,42.9623,1055.3844],[-2.4789,42.9659,1174.2168],[-2.5003,42.9598,1078.7592],[-2.5059,42.9606,1101.1254],[-2.5353,42.9734,983.0723],[-2.5408,42.9651,894.3187],[-2.5385,42.9572,872.2717],[-2.54,42.9536,904.6479],[-2.5425,42.9501,844.6073],[-2.5453,42.9504,872.7861],[-2.5511,42.9586,747.8048],[-2.5669,42.962,880.0395],[-2.5716,42.9611,814.5385],[-2.5736,42.9636,820.4341],[-2.581,42.9642,747.8419],[-2.5874,42.9718,684.9324],[-2.594,42.9731,787.9081],[-2.5968,42.976,695.5618],[-2.6026,42.9723,653.7374],[-2.6024,42.9657,615.9321],[-2.6056,42.9643,602.1295],[-2.6087,42.9584,549.3063],[-2.6084,42.9541,548.2275],[-2.6118,42.9541,546.187],[-2.6192,42.9575,539.8896],[-2.6276,42.9534,537.2181],[-2.63,42.9584,536.9657],[-2.6347,42.9461,524.551],[-2.6196,42.9459,658.8284],[-2.6225,42.941,664.8399],[-2.6352,42.9405,524.3744],[-2.6384,42.9412,519.7549],[-2.6371,42.9426,522.3441],[-2.64,42.9434,522.056],[-2.6442,42.9376,525.8343],[-2.6482,42.9354,544.9492],[-2.6532,42.9351,582.8738],[-2.6627,42.9507,585.5237],[-2.6703,42.9501,578.3913],[-2.6727,42.9564,587.8979],[-2.6814,42.9614,636.7516],[-2.6818,42.9542,619.58],[-2.6876,42.9532,596.8904],[-2.6876,42.9487,588.7887],[-2.6906,42.9476,616.6564],[-2.6931,42.9432,604.4445],[-2.6848,42.9406,570.0154],[-2.6892,42.9353,563.6346],[-2.6882,42.9302,579.571],[-2.685,42.9295,588.6484],[-2.6854,42.9258,573.8455],[-2.6809,42.9225,569.3241],[-2.6782,42.917,566.8843],[-2.6855,42.9102,595.058],[-2.6996,42.9096,521.2626],[-2.7043,42.9046,512.76],[-2.7167,42.9071,516.3068],[-2.7236,42.9061,518.3868],[-2.7358,42.9078,534.8454],[-2.738,42.9099,551.6479],[-2.7422,42.9104,568.197],[-2.7472,42.915,627.5491],[-2.7606,42.9169,766.6459],[-2.7635,42.9189,619.4031],[-2.7638,42.9156,718.2638],[-2.7655,42.9152,725.5444],[-2.7828,42.9226,792.0684],[-2.786,42.9257,797.8645],[-2.7962,42.9157,678.8204],[-2.8077,42.9148,748.5558],[-2.8082,42.9118,842.1691],[-2.8546,42.9156,810.602],[-2.8562,42.9128,814.9545],[-2.8682,42.9116,822.8707],[-2.8743,42.9089,762.153],[-2.8823,42.9017,778.587],[-2.8805,42.8976,796.0374],[-2.8828,42.8937,811.6893],[-2.8813,42.8892,835.6775],[-2.8769,42.8855,849.4088],[-2.8764,42.8797,892.1544],[-2.8709,42.8699,965.4867],[-2.8737,42.8557,896.6791],[-2.8777,42.8541,910.1713],[-2.8792,42.8516,829.3302],[-2.8775,42.8507,934.7313],[-2.8811,42.8486,890.6354],[-2.8856,42.8416,889.2739],[-2.8849,42.8397,900.5328],[-2.8679,42.8436,927.0768],[-2.8765,42.8262,617.5978],[-2.8775,42.8204,580.9244],[-2.874,42.8106,678.3032],[-2.8782,42.8082,774.2766],[-2.8486,42.8018,799.2575],[-2.8354,42.7963,773.191],[-2.8305,42.7921,687.6205],[-2.8268,42.7844,539.2551],[-2.8178,42.79,684.8019],[-2.8103,42.7915,748.3337],[-2.7729,42.794,879.6198],[-2.7674,42.7924,896.6961],[-2.7582,42.7939,929.1054],[-2.7436,42.7922,855.4283],[-2.7315,42.7945,883.6667],[-2.7281,42.7912,813.7836],[-2.7187,42.7887,791.9604],[-2.7107,42.7836,956.4006],[-2.702,42.7844,939.202],[-2.6948,42.7819,908.259],[-2.6936,42.779,851.5554],[-2.6789,42.7798,783.1738],[-2.6678,42.7724,730.4777],[-2.6671,42.7745,753.9225],[-2.6533,42.7722,788.9854],[-2.6515,42.7675,849.4486],[-2.6455,42.7672,831.2529],[-2.6437,42.7647,880.178],[-2.6401,42.7663,902.2117],[-2.6351,42.7649,914.8558],[-2.624,42.7705,910.6422],[-2.6207,42.7694,960.1055],[-2.6178,42.7708,984.2421],[-2.6143,42.7684,1007.4231],[-2.609,42.7708,995.627],[-2.6023,42.7706,992.9361],[-2.5951,42.7792,876.5975],[-2.5885,42.7799,861.5872],[-2.5843,42.7842,842.4014],[-2.5813,42.7849,884.3443],[-2.5734,42.7825,822.071],[-2.5696,42.7842,875.1564],[-2.5678,42.7827,906.2567],[-2.542,42.7853,1018.6286],[-2.5335,42.7883,954.1921],[-2.51,42.7894,895.1315],[-2.5077,42.7913,910.4279],[-2.5024,42.7902,958.5494],[-2.4971,42.7932,1022.8359],[-2.4915,42.7929,1032.8733],[-2.4824,42.7866,1053.5364],[-2.4767,42.7856,982.718],[-2.4662,42.7889,913.3835],[-2.4573,42.788,886.5865],[-2.4445,42.7943,865.0515],[-2.4381,42.7922,994.0439],[-2.4252,42.7991,1026.9907],[-2.4246,42.8041,1012.2548],[-2.409,42.806399999999996,1091.6854],[-2.3941,42.8046,1031.1766],[-2.3693,42.8044,1080.5889],[-2.3652,42.7868,965.3464],[-2.3719,42.7798,965.4456],[-2.3556,42.7645,1026.8871],[-2.345,42.7668,1109.3229],[-2.3412,42.7698,1098.572],[-2.3349,42.7703,1110.7913],[-2.3299,42.7744,1088.7205],[-2.3279,42.7785,1072.4792],[-2.3249,42.7793,1062.4889],[-2.3123,42.7759,1138.2035],[-2.3053,42.7757,1122.171],[-2.3075,42.7829,1024.7456],[-2.3166,42.7908,937.9298],[-2.319,42.7965,954.5026],[-2.3089,42.7948,977.1023]]]]}
,"properties": {"GID_3": "ESP.16.1.3_1","GID_0": "ESP","country": "Spain","GID_1": "ESP.16_1","province": "PaísVasco","NL_NAME_1": "NA","GID_2": "ESP.16.1_1","county": "Álava","NL_NAME_2": "NA","city": "n.a.(3)","VARNAME_3": "NA","NL_NAME_3": "NA","TYPE_3": "Comarca","ENGTYPE_3": "Comarca","CC_3": "NA","HASC_3": "NA","name": "n.a.(3).city","area_km2": 853.0987,"hist_schema_id": "Elevation0-9000","hist_area_km2": {"475": 2.4576,"500": 51.5667,"525": 94.7137,"550": 100.7983,"575": 96.895,"600": 98.8646,"625": 65.2096,"650": 47.1071,"675": 31.4577,"700": 24.2292,"725": 21.776,"750": 22.2293,"775": 18.9492,"800": 17.922,"825": 19.6419,"850": 13.8147,"875": 11.8721,"900": 10.0228,"925": 10.2412,"950": 10.179,"975": 17.4914,"1000": 20.6627,"1025": 17.5385,"1050": 7.9589,"1075": 6.9944,"1100": 4.46,"1125": 2.7037,"1150": 1.8326,"1175": 1.1024,"1200": 0.947,"1225": 0.4347,"1250": 0.2329,"1275": 0.1397,"1300": 0.2174,"1325": 0.1397,"1350": 0.1087,"1375": 0.0932,"1400": 0.0311,"1425": 0.0621}}}