{"type":"Feature","properties":{"featurecla":"River","scalerank":6,"rivernum":304,"dissolve":"304River","name":"Duero","name_alt":null,"note":null,"min_zoom":5.0,"strokeweig":0.15,"name_en":"Duero","min_label":6.0},
"geometry":{"type": "LineString","coordinates": [[-2.9451171874999891,41.97540924686912,1303.1049],[-2.9263671874999768,41.952411199994117,1198.5615],[-2.871337890625,41.94537994999412,1275.3678],[-2.8375,41.93805573124412,1468.4272],[-2.8249023437499829,41.91950104374412,1496.4099],[-2.7908203124999891,41.904071356244117,1493.9034],[-2.7754394531249891,41.900751043744116,1237.9955],[-2.751953125,41.90314362186912,1079.0],[-2.7356445312499891,41.90827057499412,1141.5754],[-2.7219726562499891,41.90778229374412,1299.3157],[-2.70654296875,41.893329168744117,1133.7653],[-2.70654296875,41.893329168744117,1133.7653],[-2.70654296875,41.893329168744117,1133.7653],[-2.70654296875,41.893329168744117,1133.7653],[-2.70654296875,41.893329168744117,1133.7653],[-2.677734375,41.88849518436912,1047.0464],[-2.6326660156249768,41.88739655155662,1035.0894],[-2.5955566406249768,41.88239166874412,1157.2854],[-2.5911132812499891,41.865985418744117,1029.6301],[-2.572021484375,41.86017487186912,1025.9281],[-2.5274414062499768,41.851922918744116,1049.6428],[-2.5079101562499768,41.84552643436912,1035.6052],[-2.4986328124999768,41.838739324994116,1037.5929],[-2.4854492187499768,41.822870184369116,1026.0652],[-2.4805664062499768,41.81879303593162,1017.7743],[-2.4678222656249891,41.819110418744117,1018.3441],[-2.4541992187499768,41.823016668744117,1015.9962],[-2.4434082031249891,41.82391998905662,1039.5328],[-2.4390624999999768,41.815057684369116,1036.9595],[-2.4481689453124891,41.77789948124412,1057.7854],[-2.4503662109374891,41.75348541874412,1166.8698],[-2.4427246093749768,41.74249909061912,1147.5031],[-2.44775390625,41.73334381718162,1048.1262],[-2.4458984374999768,41.71539948124412,1096.115],[-2.434814453125,41.70258209843162,1023.5584],[-2.412353515625,41.70892975468162,1029.8752],[-2.3824218749999768,41.68598053593162,1001.7151],[-2.3775390624999768,41.684442449994116,1011.9429],[-2.3757812499999891,41.67206452030662,996.5306],[-2.3705078124999939,41.66290924686912,979.0242],[-2.3621582031249768,41.657001043744117,992.7694],[-2.3508789062499891,41.653680731244116,1011.1278],[-2.35888671875,41.64203522343162,972.4821],[-2.3636230468749768,41.637079168744116,973.6687],[-2.3713867187499891,41.63263580936912,973.2468],[-2.36572265625,41.63129303593162,977.1359],[-2.358154296875,41.62763092655662,981.4933],[-2.3508789062499891,41.62641022343162,993.293],[-2.3550781249999768,41.61005280155662,974.8856],[-2.3571044921874891,41.60529205936912,974.8519]]}}