{"type":"Feature","properties":{"GID_3":"ESP.5.7.2_1","GID_0":"ESP","country":"Spain","GID_1":"ESP.5_1","province":"CastillayLeón","NL_NAME_1":"NA","GID_2":"ESP.5.7_1","county":"Soria","NL_NAME_2":"NA","city":"n.a.(234)","VARNAME_3":"NA","NL_NAME_3":"NA","TYPE_3":"Comarca","ENGTYPE_3":"Comarca","CC_3":"NA","HASC_3":"NA","name":"n.a.(234).city"},
"geometry":{"type": "MultiPolygon","coordinates": [[[[-2.1287,41.1312,1143.1771],[-2.128,41.161,1040.0668],[-2.095,41.1577,1059.9935],[-2.0798,41.171,1113.6803],[-2.1067,41.1752,965.5002],[-2.1462,41.1844,924.8831],[-2.1489,41.2188,910.8855],[-2.1548,41.2404,856.9147],[-2.1586,41.2649,831.978],[-2.1634,41.2832,819.2241],[-2.1736,41.2881,779.9474],[-2.1729,41.2958,811.8961],[-2.169,41.3011,770.5094],[-2.1673,41.3112,807.7866],[-2.1704,41.3188,828.3761],[-2.1643,41.3287,788.9845],[-2.1579,41.3316,785.7618],[-2.1566,41.3374,758.0631],[-2.1624,41.3479,770.6995],[-2.1631,41.3554,769.1426],[-2.156,41.3569,774.4669],[-2.1498,41.3559,790.313],[-2.1316,41.3684,868.3303],[-2.1257,41.3696,896.0618],[-2.1201,41.3797,938.6738],[-2.116,41.3821,938.976],[-2.1194,41.3843,932.8584],[-2.1206,41.39,893.0811],[-2.1194,41.3903,901.1814],[-2.1205,41.3943,880.2216],[-2.1182,41.3962,892.654],[-2.116,41.4087,914.2447],[-2.1167,41.425,913.9521],[-2.1117,41.4342,888.7065],[-2.1036,41.4396,897.4112],[-2.1015,41.4458,913.2411],[-2.047,41.4343,962.4974],[-2.0356,41.4269,956.0831],[-2.0347,41.4044,926.7917],[-2.0435,41.3972,989.0057],[-2.0423,41.389,1005.2268],[-2.0382,41.3893,997.1202],[-2.0292,41.3842,926.6348],[-2.0164,41.3836,891.2225],[-2.0166,41.385,895.943],[-2.0096,41.3858,907.6901],[-2.0019,41.3938,822.7295],[-1.9936,41.3954,798.0062],[-1.9934,41.3972,799.5842],[-1.9918,41.3956,878.99],[-1.9873,41.3959,982.0122],[-1.9818,41.4023,966.2296],[-1.9705,41.401,962.117],[-1.9625,41.4034,947.9486],[-1.9536,41.4086,919.0889],[-1.9527,41.4075,919.0889],[-1.9378,41.4074,865.4326],[-1.9372,41.4116,916.9222],[-1.9391,41.4127,881.6837],[-1.9399,41.417,882.3732],[-1.9365,41.4199,904.6124],[-1.9422,41.4199,899.0414],[-1.9536,41.4243,933.1343],[-1.9487,41.4296,924.6696],[-1.9487,41.4358,919.3429],[-1.9523,41.4455,922.1766],[-1.9514,41.456,928.3732],[-1.9532,41.4625,937.5728],[-1.9699,41.4815,955.3693],[-1.981,41.4864,968.8804],[-1.9766,41.4967,992.5067],[-1.9787,41.5041,978.3538],[-1.9749,41.5161,937.5419],[-1.9781,41.5267,938.5848],[-1.9719,41.5328,1003.1986],[-1.973,41.5342,1020.776],[-1.9673,41.5461,1124.8118],[-1.9704,41.5487,1118.5013],[-1.9686,41.5508,1125.3668],[-1.9735,41.558,1120.7408],[-1.9767,41.5574,1116.2413],[-1.9818,41.562,1097.618],[-1.9806,41.5647,1089.0996],[-1.9936,41.5771,1073.2205],[-1.995,41.5817,1066.4443],[-1.9919,41.5904,1092.699],[-1.9933,41.6001,1113.5942],[-1.9844,41.6071,1179.2844],[-1.9759,41.6029,1262.1462],[-1.9692,41.6056,1095.6069],[-1.958,41.6049,1001.5886],[-1.923,41.5983,1103.9771],[-1.9183,41.6066,1077.1189],[-1.9141,41.6087,1097.3992],[-1.9135,41.6163,1171.2605],[-1.9003,41.6264,1192.3754],[-1.8978,41.6324,1202.3125],[-1.8788,41.6411,1274.5815],[-1.8739,41.638,1298.829],[-1.8589,41.6615,1217.3699],[-1.8345,41.6607,1371.1953],[-1.8291,41.6626,1391.3092],[-1.8131,41.6606,1481.1987],[-1.8062,41.6643,1447.5492],[-1.809,41.6847,1603.9077],[-1.812,41.6865,1621.0353],[-1.8016,41.6962,1141.3702],[-1.7948,41.699,1244.5706],[-1.7938,41.6977,1136.2727],[-1.7868,41.6994,1277.5078],[-1.7881,41.7028,1362.0431],[-1.7849,41.717,1535.6804],[-1.7753,41.7248,1489.7031],[-1.7843,41.7285,1609.842],[-1.7877,41.7341,1665.7582],[-1.7979,41.7326,1659.7954],[-1.8092,41.7367,1823.0994],[-1.8026,41.7512,1901.7893],[-1.8211,41.7661,2222.0793],[-1.8249,41.7736,2137.3247],[-1.8253,41.7784,2229.6313],[-1.8395,41.7871,2280.3779],[-1.8529,41.7896,1937.9131],[-1.8437,41.806,1382.1313],[-1.8338,41.8148,1177.2272],[-1.8254,41.819,1079.8599],[-1.8185,41.83,983.3869],[-1.8208,41.847,898.2296],[-1.8203,41.8506,859.9607],[-1.8175,41.8534,814.5151],[-1.8202,41.8624,739.0758],[-1.8225,41.8654,790.5591],[-1.8321,41.8633,829.9583],[-1.8399,41.8753,694.8225],[-1.8387,41.889,745.347],[-1.8572,41.9095,722.8967],[-1.8585,41.9325,697.6784],[-1.8549,41.9368,710.528],[-1.8565,41.946,665.1118],[-1.8547,41.9592,635.0795],[-1.8565,41.9664,620.9856],[-1.8775,41.9524,757.9736],[-1.8906,41.9478,719.6673],[-1.9066,41.9456,673.7069],[-1.905,41.943,636.739],[-1.9111,41.9406,653.8044],[-1.9151,41.9323,664.1416],[-1.9214,41.9343,726.3139],[-1.9295,41.9295,824.6875],[-1.9326,41.9304,860.7151],[-1.9353,41.927,880.8824],[-1.9415,41.9254,885.7494],[-1.9548,41.9274,891.5251],[-1.9613,41.9203,952.1523],[-1.982,41.9193,1028.6439],[-1.9807,41.9101,1001.6349],[-1.976,41.8996,1037.0336],[-1.9861,41.9019,1063.3477],[-2.0004,41.902,1119.4746],[-2.0121,41.8897,1045.9222],[-2.0207,41.8859,1000.8876],[-2.025,41.8861,1001.1481],[-2.0289,41.8885,1015.9808],[-2.0311,41.8932,1046.1613],[-2.027,41.9063,1063.7998],[-2.0292,41.9071,1085.0056],[-2.036,41.9191,995.5747],[-2.0531,41.9069,938.4993],[-2.0782,41.8995,1142.7197],[-2.0713,41.8673,992.4114],[-2.0901,41.8483,1214.9393],[-2.0978,41.8455,1205.8682],[-2.1104,41.8361,1259.1187],[-2.1049,41.8347,1401.3011],[-2.1036,41.8313,1444.3903],[-2.0966,41.8291,1438.7355],[-2.098,41.827,1407.3683],[-2.102,41.8257,1395.7195],[-2.1159,41.8273,1370.5649],[-2.1375,41.8389,1340.6921],[-2.1497,41.8257,1148.2358],[-2.1579,41.8135,1062.4027],[-2.1629,41.7971,1030.8347],[-2.1715,41.7942,1025.7637],[-2.1711,41.7921,1024.2784],[-2.1731,41.791,1024.4001],[-2.1743,41.7938,1025.0349],[-2.1794,41.7967,1029.2598],[-2.1854,41.8068,1168.8104],[-2.1986,41.806,1157.3678],[-2.216,41.8309,1305.7227],[-2.2316,41.8365,1289.0533],[-2.2503,41.8369,1523.3479],[-2.2584,41.8546,1206.8823],[-2.2456,41.8645,1231.0994],[-2.261,41.8659,1201.979],[-2.2563,41.8741,1264.4995],[-2.2513,41.8763,1287.1206],[-2.2541,41.8868,1304.6024],[-2.2782,41.885,1259.7096],[-2.2971,41.8897,1131.5912],[-2.2976,41.895,1141.126],[-2.3222,41.8966,1117.0842],[-2.345,41.8878,1129.48],[-2.345,41.8915,1135.4009],[-2.3634,41.8982,1094.4097],[-2.3727,41.8874,1105.4287],[-2.3813,41.8915,1094.171],[-2.3936,41.8907,1130.0918],[-2.4007,41.8828,1151.8713],[-2.406,41.8807,1164.163],[-2.4128,41.8808,1204.7837],[-2.4216,41.8888,1267.2815],[-2.4256,41.8902,1275.7476],[-2.4495,41.8852,1177.5992],[-2.454,41.8854,1151.1394],[-2.4582,41.8897,1129.001],[-2.4658,41.8882,1105.8643],[-2.4704,41.8898,1103.1827],[-2.4718,41.8845,1100.7949],[-2.4686,41.8719,1078.8224],[-2.457,41.8541,1039.0009],[-2.4556,41.8483,1020.0765],[-2.4582,41.8395,1018.6781],[-2.4417,41.8372,1014.516],[-2.4398,41.8354,1014.0541],[-2.4414,41.8322,1015.0573],[-2.4177,41.8287,1023.2593],[-2.4156,41.8248,1025.4637],[-2.4214,41.8204,1041.4585],[-2.425,41.8091,1018.0408],[-2.4293,41.8069,1025.4269],[-2.4298,41.7978,1061.6505],[-2.435,41.7913,1068.0709],[-2.4334,41.7806,1058.8256],[-2.4282,41.7794,1073.6777],[-2.4103,41.7701,1084.2451],[-2.3982,41.7694,1091.698],[-2.4086,41.7531,1092.219],[-2.4185,41.7484,1111.4441],[-2.4166,41.7436,1090.2035],[-2.4187,41.7399,1083.7374],[-2.4287,41.736,1080.187],[-2.4511,41.7338,1056.949],[-2.4535,41.7312,1001.5745],[-2.4512,41.7281,999.0],[-2.4522,41.7233,1029.6794],[-2.4244,41.7272,1073.3042],[-2.4209,41.7288,1051.7852],[-2.4227,41.7222,1107.0399],[-2.4192,41.7116,1037.2102],[-2.4118,41.7081,1031.8282],[-2.4112,41.7051,1013.5316],[-2.4016,41.7035,1007.3163],[-2.4005,41.6973,1000.5583],[-2.385,41.6945,989.4018],[-2.3638,41.6955,1014.843],[-2.3564,41.6985,1014.1876],[-2.3606,41.6924,1017.4321],[-2.3602,41.6646,1018.2296],[-2.3748,41.6544,972.4697],[-2.3737,41.6526,970.9283],[-2.3756,41.6495,973.8782],[-2.3758,41.6451,974.9297],[-2.3742,41.6443,970.9395],[-2.3756,41.6406,985.4404],[-2.3697,41.635,969.5552],[-2.3778,41.6285,971.1745],[-2.3733,41.6172,966.7172],[-2.3653,41.6178,973.5119],[-2.3658,41.6095,965.5289],[-2.3459,41.6025,989.7211],[-2.3502,41.5998,989.458],[-2.3519,41.5962,986.0603],[-2.3505,41.5931,965.8565],[-2.357,41.5859,985.7488],[-2.351,41.5823,984.2396],[-2.355,41.5792,977.79],[-2.36,41.5779,981.3926],[-2.3591,41.5763,988.1273],[-2.3614,41.5721,1010.5172],[-2.3637,41.5695,993.5952],[-2.3659,41.5702,985.7524],[-2.3674,41.5669,996.5285],[-2.3577,41.5631,1013.5167],[-2.3569,41.5603,1016.489],[-2.3534,41.5611,1010.5353],[-2.3515,41.5569,1007.0386],[-2.3469,41.5594,1009.2849],[-2.3386,41.5593,1033.1287],[-2.335,41.5565,1046.7086],[-2.3354,41.5484,1042.3457],[-2.3104,41.5298,1090.7141],[-2.3011,41.5172,1108.908],[-2.3046,41.5124,1119.8671],[-2.316,41.5056,1153.3037],[-2.318,41.5002,1154.0244],[-2.3091,41.5002,1138.0345],[-2.3026,41.4908,1110.739],[-2.2919,41.4891,1099.5919],[-2.2806,41.4806,1043.3401],[-2.2728,41.4801,1076.7892],[-2.2715,41.477,1067.1172],[-2.2579,41.4695,1051.309],[-2.2587,41.4615,1065.5841],[-2.2551,41.4487,968.2576],[-2.2647,41.4432,977.2004],[-2.2806,41.4242,961.0322],[-2.2885,41.4042,1054.192],[-2.3154,41.3834,967.16],[-2.3264,41.3726,971.0226],[-2.3263,41.367,960.0731],[-2.3396,41.368899999999996,973.5258],[-2.347,41.3744,984.4166],[-2.3513,41.3823,1035.6542],[-2.3612,41.3785,1019.1609],[-2.3765,41.3666,1032.5316],[-2.3735,41.363,1034.0101],[-2.3857,41.3568,1033.7668],[-2.3809,41.3474,1043.7528],[-2.3713,41.3438,1106.606],[-2.3673,41.3327,1150.1575],[-2.3793,41.3291,1031.2278],[-2.3885,41.3226,1049.4788],[-2.4006,41.3187,1067.0099],[-2.4189,41.3092,1088.7078],[-2.42,41.3061,1084.3792],[-2.4185,41.3011,1102.3296],[-2.4228,41.2876,1127.415],[-2.4028,41.2582,1158.1306],[-2.4042,41.2551,1152.6228],[-2.3999,41.2505,1073.6755],[-2.3994,41.2415,993.5035],[-2.3967,41.2362,1005.7612],[-2.3943,41.2353,980.0245],[-2.3942,41.2297,1051.439],[-2.3883,41.2296,1043.4111],[-2.3867,41.2254,993.4921],[-2.3798,41.2264,954.948],[-2.3664,41.2176,916.8925],[-2.3658,41.2189,928.3267],[-2.3725,41.224,940.337],[-2.3562,41.2341,1154.4495],[-2.3608,41.238,1161.4717],[-2.3633,41.2436,1158.728],[-2.3516,41.2438,1136.1516],[-2.3528,41.2459,1106.2284],[-2.3569,41.2474,1099.8984],[-2.3608,41.2527,1120.6099],[-2.3667,41.2553,1152.677],[-2.3485,41.2708,929.5673],[-2.3492,41.3151,1104.7552],[-2.3467,41.3207,1109.3706],[-2.3512,41.3342,1141.9792],[-2.2998,41.3385,1018.6084],[-2.279,41.3274,932.8771],[-2.2913,41.2974,885.2175],[-2.2857,41.2888,840.8141],[-2.2914,41.2812,838.7685],[-2.2962,41.2466,988.4792],[-2.2888,41.2463,966.2749],[-2.2715,41.2503,908.1008],[-2.2612,41.2478,953.6061],[-2.2583,41.2485,944.327],[-2.2537,41.2526,945.2521],[-2.2462,41.2546,940.3817],[-2.2443,41.2579,900.8501],[-2.2203,41.2685,820.7693],[-2.2159,41.2701,813.1815],[-2.2111,41.2688,819.2744],[-2.2156,41.2607,838.288],[-2.2111,41.2534,829.2584],[-2.2047,41.2472,776.0601],[-2.1882,41.2418,794.0545],[-2.1783,41.2294,836.1176],[-2.176,41.2225,860.4783],[-2.1707,41.2195,844.6309],[-2.1684,41.2155,862.8307],[-2.1677,41.2057,883.0891],[-2.1701,41.2015,909.4561],[-2.169,41.187,992.4354],[-2.1612,41.1741,1024.7516],[-2.1336,41.1645,1051.8292],[-2.139,41.1571,1053.0177],[-2.1416,41.1477,1123.9022],[-2.1397,41.142,1175.2646],[-2.1287,41.1312,1143.1771]]]]}}