{"type":"Feature","properties":{"ISO3166-1-Alpha-3":"ESP","country":"Spain","fill":"#000","id":"5849","name":"Valencia"},
"geometry":{"type": "MultiPolygon","coordinates": [[[[-0.98921,39.97777,1430.0892],[-1.00027,39.97921,1479.5463],[-1.0181,39.97728,1438.2773],[-1.0535,39.97883,1433.2853],[-1.07846,39.97518,1162.3967],[-1.09706,39.96986,1076.0916],[-1.106,39.96919,1032.0975],[-1.12938,39.96405,979.8954],[-1.14548,39.97229,777.6302],[-1.15793,39.96389,874.7036],[-1.19623,39.95064,930.207],[-1.2038,39.94433,834.3832],[-1.20661,39.93857,680.5913],[-1.20514,39.93348,657.6217],[-1.19902,39.92408,685.7281],[-1.19685,39.91818,623.5293],[-1.19669,39.91059,784.9661],[-1.1994,39.89483,972.4764],[-1.20033,39.87956,1026.9799],[-1.20287,39.8633,891.1843],[-1.2178,39.81191,1058.422],[-1.22558,39.79631,899.0137],[-1.23268,39.787,872.5376],[-1.24387,39.77548,823.9204],[-1.26705,39.74347,881.4053],[-1.2701,39.73424,940.5187],[-1.27056,39.72595,917.9757],[-1.26974,39.71882,909.4529],[-1.26555,39.70344,892.1653],[-1.2655,39.6938,860.0636],[-1.26994,39.68678,852.0137],[-1.27591,39.68063,850.831],[-1.28377,39.67621,871.5959],[-1.29219,39.67267,886.2288],[-1.30175,39.67102,876.0705],[-1.32035,39.67138,882.5214],[-1.32909,39.67365,898.5157],[-1.33704,39.67745,926.1459],[-1.35399,39.68362,958.303],[-1.36306,39.68435,972.7682],[-1.37203,39.68357,996.8884],[-1.38097,39.68058,1027.6542],[-1.39895,39.66895,1034.5139],[-1.42148,39.65138,924.3107],[-1.42753,39.64523,891.7886],[-1.46319,39.59025,890.6531],[-1.47479,39.57849,771.4503],[-1.4853,39.57092,840.613],[-1.49443,39.56728,764.998],[-1.49812,39.56348,652.1249],[-1.50316,39.55293,644.0],[-1.50432,39.54924,651.4862],[-1.50448,39.54555,651.7435],[-1.50357,39.54268,597.5129],[-1.50145,39.53911,638.5916],[-1.4999,39.53567,643.1627],[-1.49983,39.5349,592.9194],[-1.49988,39.53314,593.5286],[-1.50215,39.52736,579.4073],[-1.50339,39.52296,562.5073],[-1.50331,39.51795,620.3721],[-1.50262,39.51299,562.005],[-1.50324,39.50397,544.2598],[-1.50117,39.50017,561.7177],[-1.49988,39.49929,543.1105],[-1.49921,39.49831,553.6822],[-1.49835,39.49609,567.3461],[-1.50132,39.49371,565.7753],[-1.50543,39.49103,615.4041],[-1.50747,39.48679,555.8224],[-1.50644,39.47604,609.7758],[-1.51269,39.45894,524.5713],[-1.5182,39.45183,562.7082],[-1.51827,39.44602,538.218],[-1.51745,39.44108,523.439],[-1.51502,39.43674,553.9972],[-1.51091,39.43268,503.8441],[-1.5068,39.43041,493.8557],[-1.50102,39.42204,539.0718],[-1.50101,39.42204,539.0718],[-1.48701,39.41964,530.889],[-1.48445,39.41537,527.3353],[-1.48174,39.40943,518.9127],[-1.47686,39.40607,470.8894],[-1.46934,39.40416,482.893],[-1.46771,39.4008,473.4558],[-1.465,39.39674,476.9559],[-1.45551,39.39424,477.7701],[-1.45239,39.39021,459.4155],[-1.45099,39.38553,487.7472],[-1.45001,39.37948,448.0998],[-1.44854,39.37377,493.9796],[-1.44575,39.3669,494.8941],[-1.44079,39.36623,452.0565],[-1.43533,39.36726,494.4017],[-1.4265,39.36672,478.2326],[-1.42076,39.36765,475.6488],[-1.41541,39.37028,480.562],[-1.40624,39.37059,428.7344],[-1.385,39.36499,434.0928],[-1.33968,39.34173,427.1418],[-1.32909,39.33794,394.7455],[-1.32097,39.33825,394.9445],[-1.31048,39.33729,422.5921],[-1.17773,39.30411,436.5305],[-1.17147,39.29608,515.6974],[-1.17034,39.2883,539.8427],[-1.1738,39.28076,553.6231],[-1.17597,39.27337,616.2151],[-1.17829,39.25771,767.5065],[-1.17729,39.24996,747.5195],[-1.1776,39.24241,735.5968],[-1.17628,39.23523,735.2004],[-1.17858,39.22055,762.4937],[-1.18116,39.21321,808.9968],[-1.18455,39.20696,726.727],[-1.18625,39.20115,631.3259],[-1.19096,39.19177,708.1313],[-1.19328,39.185,744.7765],[-1.20181,39.17043,833.3212],[-1.20793,39.16443,830.5986],[-1.21486,39.15916,847.9636],[-1.22692,39.14681,840.2106],[-1.23131,39.13994,792.1064],[-1.23718,39.12477,825.4932],[-1.24118,39.1173,896.0199],[-1.25139,39.10296,1088.2382],[-1.25498,39.09606,1088.5298],[-1.25674,39.08919,1111.8951],[-1.25969,39.08237,1119.6691],[-1.26211,39.07369,1055.3347],[-1.26131,39.06335,1002.8566],[-1.25581,39.04728,1009.8875],[-1.24837,39.03813,1191.8945],[-1.15147,38.94853,963.7585],[-1.1344,38.93799,813.5024],[-1.12104,38.93259,678.1917],[-1.09365,38.93323,681.114],[-1.06611,38.93809,743.0479],[-1.03786,38.93731,888.7374],[-1.0196,38.94057,958.0564],[-1.00425,38.94868,1049.7727],[-0.99854,38.95049,1018.5764],[-0.99107,38.95121,973.2005],[-0.9813,38.94954,971.9055],[-0.97107,38.94625,979.8929],[-0.95919,38.94003,1040.4921],[-0.92653,38.89553,810.0363],[-0.92095,38.88615,800.5903],[-0.92154,38.87856,744.3856],[-0.92653,38.86342,724.2398],[-0.92622,38.85525,662.9657],[-0.91327,38.82458,611.7679],[-0.91257,38.8198,657.7073],[-0.91513,38.81329,783.96],[-0.91883,38.80841,755.0079],[-0.92048,38.79177,760.4946],[-0.93064,38.78551,687.3744],[-0.91614,38.77344,666.8502],[-0.9083,38.77039,692.6088],[-0.89791,38.77004,659.8688],[-0.87672,38.77434,641.226],[-0.86688,38.77425,636.2817],[-0.85725,38.76924,613.7281],[-0.83065,38.74619,693.6372],[-0.81635,38.74078,922.7604],[-0.74726,38.75434,822.4554],[-0.73006,38.75267,837.2996],[-0.65111,38.71765,844.1696],[-0.63395,38.70213,770.3996],[-0.61547,38.69383,964.5812],[-0.50711,38.74287,1041.8743],[-0.5205,38.75723,1038.4512],[-0.53288,38.76258,971.0612],[-0.54705,38.76126,1010.3434],[-0.56577,38.75556,938.2019],[-0.5953,38.79504,471.2464],[-0.41658,38.81923,498.7537],[-0.31081,38.88151,502.9839],[-0.23051,38.85337,551.5738],[-0.031,38.88276,0.0],[-0.06859,38.9134,0.0],[-0.10595,38.93651,1.5138],[-0.12068,38.95112,1.607],[-0.15803,39.00214,0.0],[-0.18404,39.04226,0.0],[-0.21003,39.07869,0.3998],[-0.2267,39.11178,1.1645],[-0.23651,39.14805,0.0],[-0.24218,39.16628,11.8645],[-0.22786,39.17524,0.0],[-0.21549,39.18184,0.0],[-0.22782,39.19934,0.0],[-0.2387,39.21545,0.0],[-0.30134,39.32201,4.5186],[-0.32067,39.38813,0.0],[-0.32747,39.43067,4.2236],[-0.33059,39.48041,7.5007],[-0.32335,39.51622,1.1622],[-0.31273,39.534,2.8871],[-0.28148,39.56936,1.7422],[-0.27489,39.58181,1.7269],[-0.26956,39.5987,1.4199],[-0.25744,39.61624,0.2699],[-0.24372,39.63105,0.2685],[-0.21984,39.65139,2.7466],[-0.20893,39.66409,5.7878],[-0.20214,39.68085,0.0497],[-0.19982,39.70494,2.8936],[-0.19449,39.71544,2.9717],[-0.27204,39.75109,68.1773],[-0.30917,39.78739,235.8193],[-0.34539,39.79747,252.5197],[-0.37933,39.78294,239.9456],[-0.40959,39.74532,293.8329],[-0.43267,39.72953,370.4198],[-0.45595,39.72292,577.461],[-0.4782,39.72808,634.0637],[-0.5331,39.79619,749.867],[-0.56999,39.78019,771.2335],[-0.5861,39.76069,515.1822],[-0.6014,39.7508,481.7011],[-0.61889,39.74591,483.9333],[-0.63448,39.74846,480.031],[-0.64664,39.7579,569.3962],[-0.64743,39.76636,645.0622],[-0.6443,39.77664,753.5498],[-0.6447,39.7916,673.6174],[-0.65603,39.83586,887.6028],[-0.69103,39.85233,948.9359],[-0.71265,39.81698,1043.8156],[-0.73701,39.82075,949.9446],[-0.77375,39.86982,1155.7557],[-0.79129,39.87754,1376.7468],[-0.847,39.85535,1006.8477],[-0.85981,39.8531,974.5181],[-0.87805,39.85224,1163.3291],[-0.88821,39.85524,1271.8163],[-0.89689,39.85969,1127.9398],[-0.90239,39.8654,1094.8333],[-0.90345,39.87289,1088.2659],[-0.90294,39.88087,1104.3568],[-0.90332,39.88816,1067.542],[-0.90436,39.8948,1129.1726],[-0.90854,39.90041,1167.8593],[-0.91211,39.9064,1271.5519],[-0.91206,39.91307,1392.5636],[-0.90986,39.9201,1389.4335],[-0.90648,39.92681,1333.6631],[-0.90477,39.93462,1268.1581],[-0.90878,39.94291,1368.6626],[-0.92306,39.95599,1434.7827],[-0.97247,39.97405,1517.4247],[-0.98921,39.97777,1430.0892]]],
[[[-1.24522,40.14021,762.7046],[-1.24612,40.14486,764.2123],[-1.25064,40.14789,828.9008],[-1.25829,40.15143,866.9258],[-1.26503,40.15654,913.0065],[-1.27152,40.16272,936.0559],[-1.27663,40.16933,996.1735],[-1.28506,40.18315,1129.8561],[-1.29141,40.19677,1176.0396],[-1.29459,40.20163,1205.7151],[-1.30082,40.20321,1185.3007],[-1.31423,40.19527,1147.8224],[-1.32002,40.18742,1158.7397],[-1.32229,40.17905,1177.0018],[-1.31847,40.1638,1144.1208],[-1.31942,40.15646,1084.5116],[-1.32454,40.14928,928.6223],[-1.34356,40.14313,1187.6276],[-1.36412,40.13962,1057.0533],[-1.39546,40.14008,1298.7656],[-1.44854,40.1498,1482.801],[-1.45233,40.13068,1494.8794],[-1.44779,40.12574,1491.551],[-1.44094,40.12045,1490.9265],[-1.41688,40.10954,1395.4731],[-1.41293,40.10479,1314.9421],[-1.41017,40.09791,1398.2231],[-1.40663,40.08546,1213.0336],[-1.37831,40.02213,1263.8177],[-1.36955,40.01634,1232.4137],[-1.35978,40.0141,1128.6572],[-1.34934,40.01441,1145.8152],[-1.28591,40.00619,906.2366],[-1.25891,39.99813,995.8987],[-1.24297,39.99738,1000.8107],[-1.23493,39.99994,1102.8287],[-1.23323,40.00071,1133.0806],[-1.22354,40.00231,1232.5261],[-1.20579,40.00335,1279.2866],[-1.18711,40.00619,1431.2422],[-1.18054,40.0089,1477.5878],[-1.16271,40.01146,1479.9963],[-1.13907,40.01621,1337.5374],[-1.09171,40.03456,1552.3755],[-1.08411,40.03926,1640.5662],[-1.07877,40.04513,1760.3508],[-1.07561,40.05213,1686.3014],[-1.0767,40.059,1685.2354],[-1.07995,40.06577,1700.5442],[-1.093,40.07701,1796.3717],[-1.12584,40.09791,1174.0028],[-1.15106,40.11006,1104.9866],[-1.21509,40.1159,951.2377],[-1.23467,40.12295,850.695],[-1.24217,40.12892,829.3149],[-1.24537,40.13497,793.4844],[-1.24522,40.14021,762.7046]]]]}}