{"type":"Feature","properties":{"GID_2":"ESP.10.3_1","GID_0":"ESP","country":"Spain","GID_1":"ESP.10_1","province":"ComunidadValenciana","NL_NAME_1":"NA","county":"Valencia","VARNAME_2":"València","NL_NAME_2":"NA","TYPE_2":"Provincia","ENGTYPE_2":"Province","CC_2":"46","HASC_2":"ES.VC.VN","name":"Valencia.county"},
"geometry":{"type": "MultiPolygon","coordinates": [[[[-0.4613,38.8105,641.2081],[-0.4599,38.8151,758.2598],[-0.4442,38.8205,902.537],[-0.4433,38.8191,899.3812],[-0.4402,38.8239,930.6106],[-0.404,38.8332,938.0638],[-0.4043,38.839,827.1436],[-0.4022,38.8398,798.5097],[-0.3823,38.8346,634.0406],[-0.3694,38.8431,623.0714],[-0.3551,38.8498,706.7408],[-0.3498,38.8574,746.4923],[-0.3533,38.8586,742.4792],[-0.3485,38.8614,721.8773],[-0.3346,38.8641,684.073],[-0.3236,38.8635,744.1605],[-0.3224,38.8666,805.7068],[-0.3184,38.8681,788.1161],[-0.3159,38.8731,585.101],[-0.3127,38.875,576.8368],[-0.3108,38.8815,502.9839],[-0.2992,38.8817,383.2895],[-0.2883,38.8723,459.5241],[-0.2733,38.8641,527.6006],[-0.2602,38.86,992.2949],[-0.2452,38.8589,902.312],[-0.242,38.8606,796.3936],[-0.2392,38.8576,720.2746],[-0.2305,38.8535,551.5738],[-0.1963,38.8595,520.8013],[-0.1976,38.8664,503.0149],[-0.18,38.8788,340.8918],[-0.1675,38.8799,367.0263],[-0.1623,38.8829,367.7743],[-0.1608,38.8874,455.1277],[-0.1537,38.8719,131.7142],[-0.155,38.8605,270.7619],[-0.148,38.8585,238.8276],[-0.102,38.8751,47.6684],[-0.0949,38.8747,2.308],[-0.092,38.8716,2.8981],[-0.0896,38.8793,23.2977],[-0.0781,38.8807,3.5124],[-0.0786,38.8842,1.075],[-0.0706,38.8858,-0.0558],[-0.0679,38.8836,-0.1283],[-0.0641,38.8744,0.1982],[-0.0569,38.8691,-0.2258],[-0.0458,38.8646,0.3907],[-0.0421,38.8565,0.4172],[-0.0341,38.8571,0.1356],[-0.0271,38.8621,0.5335],[-0.0284,38.8673,1.245],[-0.0276,38.8703,2.2118],[-0.0247,38.8724,1.1102],[-0.0293,38.874,1.4247],[-0.0333,38.8793,2.0193],[-0.0371,38.8806,0.8016],[-0.0376,38.886,0.0],[-0.0451,38.8929,0.0],[-0.0574,38.8996,1.5436],[-0.0649,38.9051,2.2194],[-0.0665,38.9085,0.3748],[-0.0715,38.9104,1.7098],[-0.0824,38.9218,0.692],[-0.0843,38.9218,2.682],[-0.0937,38.9304,2.5777],[-0.0935,38.9335,0.0],[-0.096,38.9324,0.7082],[-0.1024,38.9388,0.0],[-0.1037,38.9385,1.2853],[-0.1049,38.9415,0.0],[-0.1071,38.9415,1.0249],[-0.1315,38.9679,0.0],[-0.1357,38.9696,4.1481],[-0.1393,38.9757,0.0],[-0.1535,38.991,1.9244],[-0.1532,38.9924,1.9934],[-0.1504,38.9912,0.0],[-0.1482,38.9938,0.0],[-0.1521,38.9957,0.0],[-0.1593,38.9938,0.3131],[-0.1513,38.9971,0.0],[-0.1565,38.9985,0.5564],[-0.1604,39.0021,2.4934],[-0.1874,39.0363,0.3403],[-0.1901,39.044,0.0],[-0.1949,39.0493,3.3235],[-0.2082,39.0724,1.769],[-0.2204,39.0993,0.2854],[-0.2207,39.1026,0.0],[-0.2276,39.1146,0.8365],[-0.2296,39.1229,0.7221],[-0.2368,39.1279,0.259],[-0.2362,39.1287,0.259],[-0.2324,39.1271,1.2674],[-0.2396,39.146,0.0],[-0.2393,39.1507,0.0],[-0.2415,39.156,1.8797],[-0.2401,39.1743,4.8866],[-0.2357,39.1804,3.1545],[-0.2296,39.1799,0.0],[-0.2276,39.1818,3.744],[-0.224,39.181,9.2328],[-0.2232,39.1821,28.4937],[-0.2199,39.1807,4.101],[-0.216,39.1868,1.0166],[-0.2204,39.1871,0.0],[-0.2232,39.1893,0.0],[-0.2351,39.2104,0.3574],[-0.2482,39.2293,2.8181],[-0.2732,39.2762,0.0],[-0.286,39.2962,2.3716],[-0.2882,39.2976,4.5452],[-0.2887,39.3024,0.0],[-0.2926,39.3065,3.0276],[-0.3165,39.3618,0.267],[-0.329,39.399,0.9478],[-0.3343,39.4235,0.1937],[-0.3593,39.4338,2.4548],[-0.3657,39.4349,3.3352],[-0.361,39.4351,2.4548],[-0.3362,39.4263,0.9104],[-0.3315,39.426,0.2124],[-0.3301,39.4271,0.0],[-0.3304,39.4354,4.8181],[-0.3271,39.4418,3.5221],[-0.3201,39.444,1.9136],[-0.3201,39.4454,1.9136],[-0.3238,39.446,0.0],[-0.3249,39.4476,0.0],[-0.3246,39.449,0.0],[-0.3204,39.4493,0.3239],[-0.3232,39.451,0.0],[-0.3243,39.454,0.8467],[-0.3271,39.4546,2.5807],[-0.3251,39.4574,1.1489],[-0.329,39.4571,1.7196],[-0.3304,39.4601,2.1338],[-0.3288,39.4618,2.0817],[-0.326,39.4615,2.6848],[-0.3251,39.4579,1.1489],[-0.3213,39.4554,0.0],[-0.316,39.4474,0.0],[-0.3129,39.4499,1.2352],[-0.3096,39.4501,1.9639],[-0.3226,39.4643,3.2673],[-0.324,39.4712,0.0],[-0.3251,39.4876,0.4497],[-0.3224,39.5057,6.5168],[-0.3162,39.5235,0.6101],[-0.2938,39.5537,1.1828],[-0.2885,39.559,0.4041],[-0.2812,39.5624,0.3094],[-0.2818,39.5662,0.4635],[-0.2737,39.5782,0.0],[-0.266,39.6046,1.8158],[-0.261,39.6132,0.6651],[-0.2499,39.6257,0.8881],[-0.2374,39.6365,0.0],[-0.214,39.6468,2.5874],[-0.214,39.6482,2.0295],[-0.2185,39.6504,0.818],[-0.2157,39.6549,0.6828],[-0.211,39.6538,2.5531],[-0.2087,39.6429,0.0],[-0.2082,39.644,0.0],[-0.2101,39.6535,2.5986],[-0.1946,39.6465,0.0],[-0.2004,39.6504,0.0],[-0.2129,39.6554,2.5531],[-0.2143,39.6576,4.4363],[-0.2096,39.661,0.407],[-0.2054,39.6693,1.2617],[-0.2015,39.6729,0.0],[-0.2032,39.676,1.4256],[-0.2018,39.6901,1.3568],[-0.1974,39.704,2.277],[-0.1888,39.7221,1.7587],[-0.2286,39.7368,5.2149],[-0.2339,39.7401,11.2088],[-0.2347,39.739,11.2088],[-0.2468,39.743,22.9976],[-0.2609,39.7441,45.725],[-0.2711,39.7505,68.1773],[-0.2736,39.7551,74.9743],[-0.2715,39.7604,106.287],[-0.2754,39.7641,155.4638],[-0.2765,39.7706,338.9739],[-0.2974,39.7852,182.3237],[-0.3085,39.797,459.7522],[-0.316,39.7999,333.8781],[-0.3282,39.8015,255.3955],[-0.3779,39.7999,360.2216],[-0.3827,39.7942,291.6814],[-0.3884,39.7906,234.9851],[-0.3917,39.7799,284.6698],[-0.3858,39.7765,326.3311],[-0.3869,39.7692,230.2831],[-0.3889,39.7687,235.5464],[-0.3947,39.7602,253.7715],[-0.4095,39.7452,293.8329],[-0.4191,39.746,319.0575],[-0.433,39.7364,358.1746],[-0.439,39.7369,403.0909],[-0.4374,39.7335,373.9866],[-0.445,39.7189,647.4457],[-0.4483,39.7164,683.3882],[-0.4561,39.7147,754.0795],[-0.4609,39.7154,809.3195],[-0.4636,39.7206,729.2119],[-0.4751,39.7319,648.7911],[-0.4826,39.7342,792.1074],[-0.4899,39.7418,758.2273],[-0.4982,39.7476,837.4398],[-0.5058,39.7595,805.9311],[-0.5085,39.7708,749.9575],[-0.5132,39.7755,762.834],[-0.5137,39.7789,826.2666],[-0.5208,39.7845,703.225],[-0.5305,39.796,724.6956],[-0.5483,39.7958,811.184],[-0.5585,39.7906,728.1759],[-0.577,39.7732,787.161],[-0.5771,39.768,793.6954],[-0.5882,39.7417,434.4796],[-0.631,39.7464,477.0498],[-0.6523,39.7541,595.1793],[-0.6477,39.788,717.1301],[-0.6446,39.7916,673.6174],[-0.6561,39.836,887.6028],[-0.668,39.8403,911.7452],[-0.691,39.8525,948.9359],[-0.6951,39.8501,959.2233],[-0.707,39.8352,1088.0413],[-0.7125,39.8169,1043.8156],[-0.7228,39.8133,933.7643],[-0.7279,39.8162,886.9492],[-0.7305,39.815,924.2731],[-0.7306,39.8167,909.6478],[-0.7364,39.8201,937.5492],[-0.7378,39.8234,957.5264],[-0.7366,39.8292,1012.4415],[-0.741,39.8322,1042.2709],[-0.7451,39.832,1055.7815],[-0.7451,39.8358,1079.3112],[-0.7491,39.8405,1113.1536],[-0.754,39.8433,1124.5281],[-0.7735,39.8698,1155.7557],[-0.7937,39.8815,1483.4658],[-0.7976,39.8811,1475.6851],[-0.8149,39.8735,1423.5759],[-0.8291,39.8709,1348.7068],[-0.839,39.8625,1118.6805],[-0.8493,39.857,1016.7696],[-0.8564,39.8555,1057.2317],[-0.858,39.8505,997.8429],[-0.8635,39.8474,1139.7507],[-0.874,39.8484,1162.0023],[-0.8792,39.8523,1163.3291],[-0.8885,39.8521,1247.2607],[-0.9077,39.8657,1059.3208],[-0.9125,39.8724,1020.9205],[-0.9081,39.8861,1057.5541],[-0.9036,39.8879,1067.542],[-0.9002,39.8919,1087.1564],[-0.9029,39.8971,1163.76],[-0.9096,39.8986,1167.4401],[-0.9075,39.9005,1217.2058],[-0.9138,39.918,1413.182],[-0.9075,39.928,1323.0278],[-0.9034,39.9262,1243.0015],[-0.9026,39.9319,1258.1576],[-0.906,39.944,1363.9421],[-0.9171,39.9549,1357.9661],[-0.9157,39.9579,1348.3159],[-0.9204,39.9644,1369.4042],[-0.9245,39.9593,1411.1381],[-0.9318,39.9561,1514.0044],[-0.9347,39.9599,1499.0773],[-0.9445,39.9629,1492.5789],[-0.9491,39.9673,1487.5984],[-0.9521,39.967,1510.267],[-0.9684,39.9745,1522.6938],[-0.9762,39.9758,1512.3812],[-0.9913,39.9819,1493.7064],[-0.999,39.9802,1482.5938],[-1.0025,39.9819,1501.1373],[-1.0252,39.9746,1419.3472],[-1.0564,39.9804,1409.9431],[-1.0715,39.9797,1273.3268],[-1.0859,39.9764,1118.4219],[-1.0869,39.9732,1109.8125],[-1.0845,39.9719,1100.7372],[-1.0921,39.9678,1072.4586],[-1.105,39.975,1082.6177],[-1.1078,39.9719,1037.312],[-1.107,39.9706,1037.312],[-1.1098,39.969,970.9925],[-1.1127,39.9732,1036.4127],[-1.1162,39.9721,1075.252],[-1.1191,39.9682,1141.9597],[-1.1238,39.966,1145.9984],[-1.1217,39.9609,1025.6741],[-1.1284,39.9629,983.6226],[-1.1302,39.9703,887.7593],[-1.1423,39.9719,869.287],[-1.1539,39.9639,956.0966],[-1.2039,39.9494,850.1281],[-1.2081,39.9438,752.4745],[-1.2084,39.9414,647.0264],[-1.2068,39.9407,679.266],[-1.2097,39.9341,647.3195],[-1.2069,39.9322,620.5257],[-1.2089,39.9282,642.0873],[-1.2005,39.9229,648.3082],[-1.1999,39.92,625.9197],[-1.1972,39.9184,623.5293],[-1.1986,39.916,634.5147],[-1.1958,39.914,623.6195],[-1.1981,39.9088,847.6451],[-1.2,39.8885,899.4663],[-1.2,39.8738,1045.3766],[-1.1976,39.873,1033.9065],[-1.2007,39.8709,994.1963],[-1.1999,39.8595,846.6652],[-1.2108,39.8382,1075.8247],[-1.2117,39.8203,1144.3615],[-1.2168,39.8144,1137.5278],[-1.2149,39.8088,1057.2393],[-1.2211,39.8032,914.639],[-1.234,39.7829,869.3191],[-1.2491,39.7725,863.6016],[-1.2754,39.737,998.1168],[-1.2709,39.7312,1022.2974],[-1.2722,39.7185,913.2814],[-1.271,39.7131,931.0171],[-1.2619,39.6989,870.8918],[-1.2795,39.6779,864.5092],[-1.2919,39.6726,886.2288],[-1.3128,39.6705,876.9763],[-1.3257,39.6731,890.6108],[-1.3426,39.6816,938.1609],[-1.3685,39.6896,1020.7596],[-1.4039,39.666,1020.6219],[-1.4179,39.655,927.5016],[-1.4365,39.6288,899.6437],[-1.4456,39.6112,935.4604],[-1.4549,39.5876,875.684],[-1.462,39.5766,806.2653],[-1.4767,39.5691,836.7925],[-1.4834,39.5692,835.3831],[-1.5043,39.5639,644.0],[-1.5007,39.5571,644.0],[-1.5031,39.5562,644.0],[-1.5031,39.5521,644.0],[-1.5177,39.5514,644.0],[-1.5208,39.5489,644.0],[-1.5157,39.5487,644.0],[-1.5104,39.5455,648.4752],[-1.5032,39.5472,644.0],[-1.5026,39.5445,644.0],[-1.506,39.5401,586.021],[-1.5009,39.5345,592.9194],[-1.5059,39.5315,566.2304],[-1.5041,39.5248,564.3239],[-1.5069,39.5207,561.546],[-1.5011,39.5159,617.4901],[-1.5071,39.5129,548.1659],[-1.5071,39.5079,547.137],[-1.4991,39.5005,541.7303],[-1.5036,39.4915,565.0504],[-1.5124,39.4963,578.3545],[-1.5109,39.4904,554.394],[-1.505,39.4882,561.3395],[-1.5125,39.4833,551.665],[-1.5106,39.4812,573.5104],[-1.5034,39.4801,583.4781],[-1.5035,39.4786,582.1621],[-1.509,39.4777,580.2903],[-1.513,39.4708,566.9384],[-1.5138,39.458,552.4829],[-1.5191,39.4558,540.6275],[-1.5237,39.4579,534.8351],[-1.5269,39.4573,547.7004],[-1.5288,39.4553,537.7004],[-1.528,39.4522,555.4478],[-1.5184,39.449,539.1136],[-1.5191,39.4469,538.218],[-1.5245,39.4431,502.8583],[-1.5208,39.4403,517.5637],[-1.5155,39.4391,554.9375],[-1.5152,39.4378,532.3712],[-1.5212,39.435,498.6636],[-1.5208,39.4315,518.3719],[-1.5141,39.4288,509.4887],[-1.5132,39.4343,499.1584],[-1.5115,39.4351,499.1584],[-1.5082,39.433,497.2859],[-1.5063,39.4294,493.8557],[-1.4963,39.4289,521.622],[-1.5014,39.4257,544.2831],[-1.5051,39.418,482.695],[-1.4984,39.4153,495.6634],[-1.4895,39.4223,492.3799],[-1.484,39.4229,499.2906],[-1.4824,39.4189,486.3307],[-1.488,39.4178,480.1488],[-1.4885,39.4159,478.0021],[-1.4874,39.4118,476.6675],[-1.4898,39.4066,469.3638],[-1.4885,39.4011,470.6995],[-1.4817,39.4013,481.9379],[-1.4749,39.4087,479.433],[-1.4701,39.4072,480.2256],[-1.4667,39.4012,473.4558],[-1.4752,39.3987,468.657],[-1.4771,39.3948,482.1457],[-1.4732,39.3912,466.6354],[-1.4672,39.3904,473.9457],[-1.4622,39.4,470.6501],[-1.4559,39.4007,468.4694],[-1.4527,39.3987,473.6765],[-1.4543,39.3927,476.2955],[-1.4522,39.3907,454.9579],[-1.4578,39.3897,453.198],[-1.457,39.3869,463.7932],[-1.4527,39.3853,452.1712],[-1.4532,39.3834,463.685],[-1.4549,39.3828,456.1256],[-1.4631,39.3874,481.2206],[-1.4681,39.3834,457.4045],[-1.4625,39.3794,451.6757],[-1.4576,39.3802,448.0206],[-1.4492,39.3787,454.5181],[-1.4485,39.3771,454.5181],[-1.4521,39.3736,462.0721],[-1.4494,39.3665,469.8304],[-1.455,39.364,456.8097],[-1.455,39.3609,448.4693],[-1.4442,39.3618,457.2881],[-1.4429,39.3676,456.8298],[-1.4381,39.3734,436.8021],[-1.432,39.3728,440.387],[-1.4341,39.3764,448.8096],[-1.4322,39.3776,445.5199],[-1.4283,39.3758,445.2434],[-1.428,39.3708,431.7381],[-1.4322,39.3648,481.4879],[-1.4286,39.3619,456.5196],[-1.4236,39.364,438.5982],[-1.4222,39.3655,435.44],[-1.4231,39.3742,475.7633],[-1.4259,39.3791,449.827],[-1.4223,39.3812,433.0948],[-1.4141,39.3802,435.3172],[-1.4108,39.3781,441.1941],[-1.41,39.373,426.3311],[-1.4076,39.3717,435.2769],[-1.4003,39.377,419.4263],[-1.3961,39.3743,437.5704],[-1.3976,39.3706,425.5009],[-1.4006,39.3685,453.3318],[-1.4066,39.3694,414.6234],[-1.4088,39.3682,432.9885],[-1.4077,39.3658,418.6884],[-1.4011,39.3635,449.6703],[-1.3919,39.3674,421.9597],[-1.3837,39.3663,413.149],[-1.3816,39.3595,425.2541],[-1.3851,39.3543,406.091],[-1.3774,39.3564,414.8042],[-1.3674,39.3561,424.8564],[-1.362,39.349,413.1644],[-1.3575,39.3474,409.3866],[-1.3555,39.3422,414.7779],[-1.3522,39.3398,404.3432],[-1.3427,39.3402,399.3701],[-1.3362,39.334,392.4256],[-1.3304,39.3357,391.8719],[-1.3314,39.3384,392.3784],[-1.3348,39.3396,407.1794],[-1.3334,39.3407,404.8478],[-1.3288,39.3423,431.8498],[-1.3206,39.3397,390.8762],[-1.318,39.3432,402.6631],[-1.3124,39.3431,393.3911],[-1.3098,39.3404,405.0374],[-1.2991,39.3378,398.5277],[-1.2989,39.3359,397.3918],[-1.3016,39.3344,399.583],[-1.298,39.3312,387.1149],[-1.2935,39.3316,386.3832],[-1.2911,39.3348,401.6631],[-1.285,39.3321,414.8752],[-1.2851,39.3299,382.746],[-1.2818,39.3286,399.7959],[-1.2774,39.3327,381.3054],[-1.2737,39.3332,382.1638],[-1.2674,39.3286,381.1621],[-1.2625,39.3299,393.24],[-1.2549,39.3271,405.1041],[-1.2501,39.3225,376.0454],[-1.2471,39.3286,383.1207],[-1.2442,39.3216,378.6221],[-1.238,39.3225,374.4516],[-1.2277,39.3195,381.9344],[-1.2233,39.3161,372.869],[-1.2146,39.3191,366.6256],[-1.2143,39.3222,389.7101],[-1.21,39.3264,365.103],[-1.2074,39.326,364.5021],[-1.2035,39.3209,363.3],[-1.2041,39.3183,374.9495],[-1.1976,39.3136,411.888],[-1.1947,39.3159,367.2701],[-1.1915,39.3144,365.5343],[-1.1885,39.3156,366.4856],[-1.1781,39.3147,364.4869],[-1.1649,39.3105,390.951],[-1.1618,39.3054,388.4714],[-1.1664,39.2934,536.4854],[-1.1747,39.2793,570.8965],[-1.1768,39.2467,739.1066],[-1.1763,39.2303,742.0649],[-1.1808,39.2119,810.6659],[-1.1922,39.1939,678.5129],[-1.1944,39.1804,763.5428],[-1.197,39.1768,823.5094],[-1.2105,39.1623,857.1449],[-1.2269,39.1517,983.461],[-1.2404,39.1138,1004.8362],[-1.2557,39.1062,1103.5811],[-1.2557,39.0841,1123.9609],[-1.2656,39.0755,1105.1998],[-1.2637,39.0684,1063.1798],[-1.2652,39.0525,1062.0026],[-1.2667,39.051,1052.1008],[-1.2638,39.0451,1102.9753],[-1.2592,39.0414,1024.2103],[-1.252,39.0396,1178.0806],[-1.2395,39.0306,1167.3312],[-1.2265,39.0247,1167.1938],[-1.2085,39.0051,862.2512],[-1.2017,38.993,828.8344],[-1.1932,38.9882,806.2446],[-1.1608,38.9548,917.6382],[-1.1545,38.9397,957.7861],[-1.1527,38.9392,993.1722],[-1.1466,38.9294,1060.3105],[-1.1383,38.9276,768.2703],[-1.1298,38.9294,705.665],[-1.1059,38.9286,665.8156],[-1.0426,38.9368,872.5829],[-1.0362,38.9343,933.9448],[-1.0134,38.9392,992.2626],[-1.0074,38.9458,1018.1583],[-0.9993,38.9495,1047.0555],[-0.9918,38.9473,1004.8157],[-0.9877,38.9478,1014.1254],[-0.9772,38.9428,998.636],[-0.9593,38.9446,1055.2782],[-0.9575,38.9331,979.77739999999994],[-0.9586,38.9282,1022.7301],[-0.9561,38.9237,1015.451],[-0.9565,38.9202,1010.0242],[-0.9537,38.9196,992.821],[-0.9504,38.9115,968.094],[-0.9408,38.8997,904.5685],[-0.9245,38.8918,824.1434],[-0.9319,38.8797,837.2196],[-0.9325,38.8679,794.2297],[-0.9307,38.8636,782.105],[-0.9356,38.856,747.4581],[-0.9311,38.8298,735.9169],[-0.9248,38.8234,651.9377],[-0.9277,38.8158,798.1024],[-0.9327,38.8113,978.4497],[-0.9338,38.794,716.7825],[-0.9289,38.7868,692.4911],[-0.9289,38.7839,736.4655],[-0.9148,38.7814,634.4333],[-0.9175,38.7762,662.1096],[-0.9132,38.7696,686.3462],[-0.9042,38.7671,684.069],[-0.8872,38.7693,655.3163],[-0.8825,38.7721,665.1578],[-0.8616,38.7709,622.6766],[-0.8354,38.7407,725.3345],[-0.8375,38.7365,879.5397],[-0.8346,38.7325,836.2029],[-0.8302,38.7325,827.1361],[-0.8241,38.7363,869.5626],[-0.8174,38.738,936.9911],[-0.8084,38.7377,933.5326],[-0.8066,38.7353,897.9864],[-0.7926,38.7392,869.8119],[-0.7875,38.7466,977.8508],[-0.7837,38.7484,978.7411],[-0.7795,38.7467,962.9417],[-0.7704,38.7506,941.7294],[-0.7657,38.7511,917.6245],[-0.7614,38.7491,883.8488],[-0.752,38.7554,847.2252],[-0.7433,38.7557,838.931],[-0.7457,38.7587,855.1584],[-0.7447,38.7593,881.9182],[-0.7371,38.7567,834.9966],[-0.7349,38.7595,874.0309],[-0.7319,38.7563,864.2838],[-0.736,38.7536,852.4899],[-0.7332,38.7517,839.5614],[-0.7222,38.7537,824.7504],[-0.7171,38.7506,801.5533],[-0.7082,38.7385,702.7122],[-0.7071,38.7339,702.1923],[-0.6887,38.7413,751.6234],[-0.6778,38.7294,676.3933],[-0.671,38.7317,684.0471],[-0.6531,38.7306,747.8694],[-0.6434,38.7278,945.0348],[-0.6435,38.7184,848.6047],[-0.6399,38.7065,732.5408],[-0.6425,38.7044,732.4888],[-0.6381,38.6977,763.4467],[-0.6296,38.6899,857.4353],[-0.6286,38.6866,871.6471],[-0.618,38.6867,913.8989],[-0.6169,38.6894,933.7928],[-0.6089,38.6945,976.1548],[-0.5937,38.6999,1068.09],[-0.5841,38.7086,1066.4418],[-0.5512,38.7171,1003.9969],[-0.5349,38.7331,875.4933],[-0.5245,38.7356,951.3981],[-0.5233,38.7381,954.8303],[-0.5158,38.7397,978.5757],[-0.5122,38.7435,995.0029],[-0.5071,38.743,1041.8743],[-0.5074,38.7553,1132.611],[-0.5208,38.7567,1052.3492],[-0.5251,38.7602,982.2743],[-0.5258,38.7639,1033.4104],[-0.5315,38.7673,1030.7452],[-0.5418,38.7638,1044.3356],[-0.5418,38.7618,1042.348],[-0.5564,38.7575,962.9447],[-0.5568,38.7553,926.7434],[-0.5598,38.7539,921.6771],[-0.5656,38.7555,938.2019],[-0.5758,38.7643,661.2205],[-0.5842,38.7684,619.5737],[-0.5902,38.7778,566.7896],[-0.5899,38.7843,538.8723],[-0.5962,38.7904,495.0714],[-0.5937,38.7916,468.8301],[-0.5952,38.7951,471.2464],[-0.5802,38.8009,646.6917],[-0.5675,38.8017,654.3317],[-0.5482,38.8057,649.9798],[-0.5352,38.8104,683.951],[-0.5256,38.8106,682.8537],[-0.5158,38.8069,716.3069],[-0.4775,38.8053,658.3565],[-0.4744,38.8039,691.8743],[-0.4618,38.8077,597.5545],[-0.4613,38.8105,641.2081]]],
[[[-0.3251,39.434,0.0],[-0.329,39.4349,1.0455],[-0.3254,39.4329,0.5831],[-0.3282,39.4279,1.8977],[-0.3143,39.4224,1.7913],[-0.3118,39.4238,3.625],[-0.3085,39.4301,0.0],[-0.3129,39.434,0.2304],[-0.3093,39.4301,0.0],[-0.3126,39.4238,3.625],[-0.3143,39.4232,1.7913],[-0.3171,39.4246,4.9034],[-0.314,39.4307,1.0292],[-0.3251,39.434,0.0]]],
[[[-0.3024,39.4485,2.1426],[-0.3037,39.4501,1.9261],[-0.3085,39.4499,1.9639],[-0.3132,39.4429,0.7429],[-0.3104,39.4421,1.6608],[-0.3096,39.446,1.668],[-0.3043,39.4468,2.0156],[-0.3049,39.4446,1.7041],[-0.3029,39.4443,2.8084],[-0.3035,39.4338,0.0],[-0.3021,39.4338,0.0],[-0.3024,39.4485,2.1426]]],
[[[-1.2757,40.0041,682.005],[-1.2649,39.9988,929.3895],[-1.248,39.9951,981.3426],[-1.2166,40.0016,1260.8926],[-1.1995,40.0035,1265.8676],[-1.1917,40.0016,1364.6959],[-1.1729,40.0109,1461.3418],[-1.1651,40.0101,1463.921],[-1.1534,40.0126,1402.3062],[-1.1462,40.0168,1309.0127],[-1.1361,40.0151,1343.3524],[-1.1158,40.024,1457.193],[-1.1097,40.0253,1485.5228],[-1.0978,40.0327,1500.0344],[-1.0842,40.0362,1690.5508],[-1.079,40.0447,1760.3508],[-1.0717,40.0511,1776.733],[-1.0721,40.0605,1767.0],[-1.0796,40.0678,1705.7421],[-1.078,40.0688,1710.9188],[-1.1118,40.0928,1378.5895],[-1.1178,40.0929,1280.4482],[-1.1223,40.0955,1208.1071],[-1.1334,40.0974,1089.86],[-1.1356,40.1041,1023.746],[-1.1439,40.1086,1006.5776],[-1.1473,40.114,945.8883],[-1.1497,40.1148,945.8719],[-1.1655,40.1149,912.3553],[-1.1927,40.1106,868.359],[-1.2072,40.1102,840.7015],[-1.2207,40.1155,833.9224],[-1.2363,40.1134,792.3658],[-1.2449,40.1162,760.7007],[-1.2506,40.1239,745.9163],[-1.2461,40.1272,749.731],[-1.2488,40.135,751.9829],[-1.2461,40.1386,757.8187],[-1.2472,40.1402,754.205],[-1.2442,40.146,756.4302],[-1.2454,40.1471,764.4849],[-1.2524,40.1433,871.5021],[-1.2765,40.1622,983.3912],[-1.2764,40.1669,978.6786],[-1.2843,40.1715,1068.0486],[-1.2869,40.1819,1134.9529],[-1.2967,40.1993,1192.9495],[-1.293,40.2069,1252.5546],[-1.2982,40.2117,1264.1221],[-1.2969,40.2099,1245.0869],[-1.302,40.2058,1167.2644],[-1.3109,40.2039,1154.0825],[-1.3149,40.2014,1161.1832],[-1.3229,40.1849,1183.5125],[-1.3225,40.1717,1179.3794],[-1.3172,40.1641,1123.6108],[-1.3194,40.1562,1084.5116],[-1.3165,40.1497,948.6905],[-1.3197,40.1464,893.2531],[-1.336,40.1422,1122.8785],[-1.357,40.1289,1124.592],[-1.3617,40.1297,1132.6699],[-1.3643,40.1327,1068.6707],[-1.3636,40.1386,1008.6165],[-1.3768,40.1403,1043.5732],[-1.3935,40.1344,1090.5714],[-1.4045,40.1392,1222.4829],[-1.4223,40.1424,1323.2025],[-1.4297,40.1394,1499.629],[-1.4333,40.1395,1516.8693],[-1.4488,40.1454,1548.2666],[-1.4572,40.1351,1514.8175],[-1.4562,40.131,1503.7473],[-1.4427,40.1181,1505.7876],[-1.4293,40.1136,1398.7922],[-1.4101,40.1045,1298.4628],[-1.4075,40.1014,1434.5338],[-1.4202,40.0935,1402.144],[-1.4135,40.0861,1232.9888],[-1.4131,40.0812,1226.4319],[-1.4007,40.0671,1216.3884],[-1.3937,40.0531,1246.509],[-1.3831,40.039,1211.2981],[-1.3812,40.0272,1272.0259],[-1.3768,40.0165,1268.8569],[-1.3643,40.0122,1151.2155],[-1.3357,40.0167,1137.766],[-1.3283,40.0134,1133.6067],[-1.2863,40.0082,959.6835],[-1.2757,40.0041,682.005]]]]}}