{"type": "Feature","bbox": [-7.3426,37.1632,-6.8525,37.5359],"geometry": {"type": "MultiPolygon","coordinates": [[[[-7.0129,37.2346,0.8148],[-7.0126,37.2365,1.0246],[-7.0087,37.236,0.4947],[-7.0085,37.2388,1.6384],[-7.0101,37.2385,4.7515],[-7.0099,37.2396,4.872],[-7.0057,37.239,2.8283],[-7.0035,37.2412,1.5343],[-7.0051,37.2429,0.0],[-7.0079,37.2424,1.7046],[-7.0065,37.2443,1.9262],[-6.999,37.2435,0.0],[-6.9982,37.2479,0.0],[-6.9948,37.2479,0.0],[-6.9938,37.2501,0.0],[-6.9971,37.2571,0.7673],[-6.9932,37.2573,0.2131],[-6.988,37.2551,0.0],[-6.9843,37.249,0.0],[-6.9882,37.2479,0.0],[-6.9901,37.2424,0.0],[-6.9946,37.2385,0.1895],[-6.9951,37.2357,0.0],[-6.9996,37.2349,0.0],[-7.0032,37.2313,0.0],[-6.9963,37.2251,0.0],[-6.9879,37.2238,0.0],[-6.984,37.2185,0.0],[-6.9868,37.224,0.0],[-6.9963,37.226,0.0],[-7.0004,37.2301,0.0],[-6.9985,37.234,0.0],[-6.9943,37.2351,0.2466],[-6.9938,37.2376,0.1895],[-6.9907,37.2396,0.3027],[-6.9874,37.2477,0.0],[-6.9832,37.2487,0.6448],[-6.9876,37.2568,0.0],[-6.9829,37.2504,0.2333],[-6.971,37.2435,0.1108],[-6.9737,37.2332,0.6189],[-6.9657,37.2171,0.0],[-6.9579,37.216,0.0],[-6.961,37.2212,0.6706],[-6.9621,37.2443,0.0],[-6.9654,37.2527,0.4042],[-6.9682,37.2507,0.5381],[-6.966,37.2532,0.4042],[-6.9671,37.256,0.8968],[-6.966,37.2571,0.0],[-6.9846,37.269,0.4576],[-6.9885,37.2679,0.4767],[-6.9946,37.2599,0.0],[-6.9893,37.2565,0.0],[-6.9938,37.2588,0.0],[-7.0018,37.2574,0.6526],[-6.9954,37.2596,0.1773],[-6.9893,37.2679,1.2393],[-6.9862,37.2699,0.866],[-6.9829,37.2696,1.8187],[-6.9729,37.264,0.0],[-6.9729,37.2651,0.0],[-6.9804,37.2701,0.4734],[-6.9826,37.2762,1.2192],[-6.9782,37.269,0.7908],[-6.9699,37.2643,0.1083],[-6.9676,37.2651,0.1293],[-6.9665,37.2687,0.5936],[-6.9735,37.2788,0.0],[-6.9724,37.2888,0.0],[-6.9779,37.2976,0.7325],[-6.9793,37.3095,1.232],[-6.9757,37.2973,0.1667],[-6.9726,37.2957,1.5592],[-6.9713,37.2938,1.1581],[-6.9704,37.281,1.1303],[-6.9682,37.2768,0.0705],[-6.9665,37.2768,0.0705],[-6.9665,37.2813,0.6501],[-6.966,37.2768,0.0],[-6.9643,37.2765,0.0],[-6.9612,37.2835,0.0],[-6.9599,37.289,0.0],[-6.9618,37.2926,0.2609],[-6.961,37.2974,1.0472],[-6.9579,37.2996,0.3761],[-6.961,37.296,0.0],[-6.9585,37.2893,0.0],[-6.9554,37.2962,0.3105],[-6.9543,37.2957,0.3105],[-6.9607,37.2779,0.0],[-6.959,37.2771,1.0125],[-6.9574,37.2793,0.5151],[-6.9568,37.2846,0.8366],[-6.956,37.2813,0.0],[-6.9543,37.2829,0.441],[-6.9551,37.2899,0.5104],[-6.9543,37.2893,0.5104],[-6.9535,37.2835,0.7213],[-6.9543,37.2793,0.0459],[-6.9626,37.269,0.0],[-6.9643,37.264,1.6442],[-6.9588,37.2515,0.0],[-6.9596,37.2485,0.0],[-6.9587,37.2476,0.0],[-6.9579,37.2495,0.8511],[-6.9566,37.2468,0.0],[-6.9554,37.2415,3.9989],[-6.9565,37.2404,0.0],[-6.9551,37.2401,2.4973],[-6.9571,37.2382,0.0],[-6.9546,37.2382,1.7697],[-6.9538,37.2349,3.5645],[-6.9571,37.2337,0.0],[-6.9535,37.2335,3.1447],[-6.9532,37.2296,1.9127],[-6.9562,37.229,0.0],[-6.9529,37.2287,0.8405],[-6.9518,37.2254,2.2601],[-6.9546,37.2246,0.0],[-6.9515,37.2249,2.2601],[-6.9505,37.2215,0.0],[-6.9535,37.2188,0.0],[-6.9498,37.2202,0.3212],[-6.9465,37.2146,0.0],[-6.9426,37.2121,0.4315],[-6.9379,37.2132,0.0],[-6.936,37.2179,0.8167],[-6.9224,37.231,0.8158],[-6.921,37.2335,0.0],[-6.9215,37.2376,1.5792],[-6.9196,37.2349,0.0],[-6.9179,37.2349,0.0],[-6.8946,37.2546,1.9957],[-6.8899,37.2605,0.2221],[-6.8885,37.2674,5.436],[-6.8882,37.2643,0.0],[-6.884,37.2671,0.0],[-6.8821,37.2718,0.6291],[-6.8815,37.2699,0.0],[-6.8801,37.2701,0.0],[-6.8682,37.2912,0.8865],[-6.8586,37.2945,0.3408],[-6.8562,37.3025,1.5376],[-6.8525,37.3048,0.817],[-6.8555,37.3107,9.6624],[-6.8635,37.3171,7.7922],[-6.8666,37.3237,12.004],[-6.8873,37.3457,43.5399],[-6.8924,37.3549,63.0816],[-6.9008,37.3597,53.2642],[-6.9056,37.3661,25.3698],[-6.9031,37.3651,27.7489],[-6.8995,37.3665,27.6528],[-6.8986,37.3649,30.5317],[-6.8957,37.3671,29.9475],[-6.889,37.3663,32.588],[-6.8872,37.3684,31.5998],[-6.8839,37.3676,31.9758],[-6.8767,37.37,43.6776],[-6.8749,37.3735,35.8132],[-6.8699,37.3744,36.6665],[-6.8647,37.3802,48.1918],[-6.8658,37.3878,51.9814],[-6.8628,37.3943,64.9022],[-6.8587,37.3966,53.5037],[-6.8555,37.4028,57.6567],[-6.8549,37.407,60.8832],[-6.8568,37.4119,64.3192],[-6.8557,37.4185,72.7964],[-6.8626,37.4225,97.7146],[-6.8671,37.4301,107.5084],[-6.8751,37.4373,117.3988],[-6.8813,37.4407,116.5317],[-6.8886,37.4419,118.8348],[-6.903,37.4493,128.2128],[-6.915,37.4585,128.9992],[-6.9284,37.4632,123.8206],[-6.9477,37.4656,118.9991],[-6.9491,37.4644,112.7815],[-6.9607,37.4691,65.9566],[-6.9729,37.4709,11.4428],[-6.9752,37.4738,35.4069],[-6.9783,37.4711,93.3713],[-6.9909,37.4757,95.3637],[-6.9953,37.4792,81.934],[-7.0003,37.4867,93.9177],[-7.0052,37.4899,100.1208],[-7.0068,37.4958,118.5896],[-7.013,37.5001,119.068],[-7.0145,37.5039,128.7201],[-7.0266,37.5165,143.0787],[-7.0475,37.5279,127.3792],[-7.0536,37.5303,125.9969],[-7.0741,37.5323,130.9522],[-7.0863,37.5359,106.3787],[-7.0888,37.5323,111.416],[-7.0883,37.5304,101.7602],[-7.0919,37.5295,104.0603],[-7.0942,37.5261,104.8708],[-7.0918,37.5236,115.7384],[-7.0893,37.525,94.5786],[-7.0858,37.5189,99.3095],[-7.0805,37.5189,101.1709],[-7.0774,37.5217,101.399],[-7.072,37.5215,104.1759],[-7.0714,37.5247,113.7569],[-7.0626,37.5202,120.7374],[-7.0625,37.5115,108.8172],[-7.0655,37.5079,119.6461],[-7.0613,37.4996,121.3045],[-7.0633,37.4855,118.7343],[-7.0622,37.482,119.7924],[-7.0694,37.4813,108.028],[-7.0757,37.4828,66.9268],[-7.0837,37.4761,66.9395],[-7.0835,37.4737,66.5184],[-7.079,37.4731,60.594],[-7.0772,37.4701,67.4602],[-7.0829,37.4681,55.3529],[-7.0837,37.4659,58.3042],[-7.0703,37.4615,55.9884],[-7.065,37.4631,51.6863],[-7.0582,37.4585,51.512],[-7.0547,37.4583,49.7043],[-7.0448,37.4295,96.5147],[-7.061,37.4215,130.916],[-7.0718,37.4141,128.6916],[-7.0807,37.3937,114.0792],[-7.0971,37.3849,143.8049],[-7.1019,37.3719,127.5979],[-7.1166,37.3667,122.4864],[-7.1306,37.3731,103.3316],[-7.1375,37.3737,92.2257],[-7.1473,37.3721,80.9647],[-7.1685,37.3839,108.5698],[-7.1964,37.3947,160.9883],[-7.2128,37.3937,143.2877],[-7.2316,37.4014,78.1508],[-7.239,37.4013,66.5],[-7.2453,37.4048,94.3066],[-7.281,37.4105,106.9438],[-7.2899,37.4095,92.6262],[-7.2932,37.4063,85.5039],[-7.3019,37.3874,119.2328],[-7.3059,37.3835,114.9304],[-7.3069,37.3723,97.198],[-7.3084,37.3712,97.0645],[-7.3044,37.3644,107.6518],[-7.3064,37.3546,121.2353],[-7.3039,37.3532,132.496],[-7.3039,37.3514,140.8678],[-7.2905,37.3427,127.8987],[-7.2794,37.3403,121.0825],[-7.2613,37.323,76.0342],[-7.2589,37.3065,64.747],[-7.2678,37.2934,67.2623],[-7.2724,37.2911,68.9663],[-7.2754,37.2769,58.2854],[-7.2807,37.2648,38.3394],[-7.2993,37.259,53.8086],[-7.3135,37.2633,37.5593],[-7.3314,37.2607,28.5082],[-7.3351,37.2646,35.1155],[-7.3309,37.2566,28.0077],[-7.3157,37.2451,48.5644],[-7.3118,37.2291,26.3224],[-7.3148,37.22,0.497],[-7.3271,37.2215,0.225],[-7.3282,37.2234,2.8533],[-7.33,37.2204,0.7889],[-7.3342,37.2192,0.0098],[-7.3342,37.221,0.4002],[-7.3357,37.2172,0.6446],[-7.3416,37.2161,0.4843],[-7.3426,37.2143,0.113],[-7.3408,37.2107,0.0303],[-7.3332,37.2088,0.2459],[-7.3379,37.2104,0.2609],[-7.334,37.2107,0.0448],[-7.3301,37.2068,0.2523],[-7.3237,37.206,0.0],[-7.3226,37.211,0.0],[-7.3215,37.2068,0.0],[-7.3165,37.2088,0.5197],[-7.3154,37.2029,0.0],[-7.3112,37.201,0.2541],[-7.3135,37.2001,5.373],[-7.3157,37.2018,0.9545],[-7.3179,37.2076,0.0],[-7.3212,37.2049,3.4937],[-7.3296,37.2057,0.2523],[-7.3285,37.1985,1.5762],[-7.3332,37.194,0.0],[-7.3337,37.1915,0.071],[-7.3315,37.1932,1.4823],[-7.3226,37.1932,2.0111],[-7.3226,37.1943,5.0881],[-7.3163,37.1932,1.1488],[-7.3068,37.1949,0.0],[-7.3037,37.1971,7.2419],[-7.2774,37.2024,5.5317],[-7.2096,37.2046,0.8115],[-7.1896,37.2071,2.3118],[-7.1882,37.209,2.8511],[-7.1868,37.2071,2.8149],[-7.1754,37.2065,1.4857],[-7.1443,37.2085,1.3967],[-7.0771,37.2071,1.6546],[-7.0662,37.2051,0.9663],[-7.064,37.2062,1.519],[-7.0651,37.2079,0.0],[-7.0779,37.2104,1.2722],[-7.1038,37.2104,3.3027],[-7.1285,37.2135,0.8101],[-7.1576,37.2101,5.3064],[-7.1704,37.2157,0.2271],[-7.1737,37.2188,0.0],[-7.1751,37.2226,0.0],[-7.1718,37.2235,0.0],[-7.1682,37.2304,0.8959],[-7.1687,37.2365,0.8882],[-7.1651,37.2454,0.0],[-7.1629,37.2612,0.4156],[-7.1649,37.2626,0.422],[-7.1696,37.2615,0.9179],[-7.1718,37.2629,0.2505],[-7.1732,37.2699,0.0],[-7.1776,37.2757,4.0734],[-7.1769,37.2765,4.0734],[-7.1729,37.2718,0.1597],[-7.1704,37.2632,0.2505],[-7.161,37.2651,0.8338],[-7.1632,37.2457,0.4731],[-7.1662,37.2371,0.0],[-7.164,37.2421,0.791],[-7.1571,37.2432,2.2826],[-7.1524,37.236,0.3908],[-7.1574,37.2346,0.7033],[-7.1576,37.2329,0.7868],[-7.1549,37.2301,0.3912],[-7.1568,37.2265,0.6485],[-7.1621,37.2257,0.59],[-7.1662,37.2268,0.0],[-7.1676,37.2249,0.5542],[-7.1676,37.2179,0.0],[-7.1626,37.214,0.0],[-7.1507,37.2132,0.0],[-7.1365,37.2176,0.2527],[-7.119,37.2163,0.0],[-7.1162,37.2149,0.0],[-7.0843,37.2149,1.6319],[-7.0341,37.2057,6.0299],[-7.0174,37.2004,1.94],[-6.9707,37.1782,0.3704],[-6.9518,37.1718,2.7073],[-6.9479,37.1682,0.0],[-6.9485,37.1638,0.0],[-6.9474,37.1654,0.0],[-6.9479,37.1715,0.0],[-6.9649,37.1879,4.1517],[-6.9674,37.1963,0.8451],[-6.9735,37.2029,0.0],[-6.9779,37.2068,0.439],[-6.9963,37.209,0.1924],[-7.0006,37.2171,0.0],[-7.0046,37.2193,0.0],[-7.0082,37.2193,0.0],[-7.0032,37.2199,0.0],[-6.9993,37.2185,1.1258],[-6.9938,37.209,0.0],[-6.9779,37.2082,0.0],[-6.9821,37.2151,0.0],[-6.9829,37.214,0.0],[-6.9801,37.211,0.0],[-6.9807,37.2096,0.2946],[-6.9938,37.2099,0.0],[-6.999,37.2193,0.2367],[-7.0049,37.2207,0.0],[-7.0115,37.2193,0.0],[-7.0151,37.2121,0.0],[-7.0226,37.214,1.1867],[-7.0232,37.2171,3.6676],[-7.0213,37.2182,0.6659],[-7.0221,37.2229,6.4261],[-7.0179,37.2226,0.159],[-7.016,37.224,1.5618],[-7.0151,37.226,0.2703],[-7.0179,37.2268,2.3619],[-7.0157,37.2321,0.0],[-7.0165,37.2346,0.6667],[-7.0129,37.2346,0.8148]]],
[[[-6.9815,37.2476,0.0],[-6.9876,37.2465,0.4393],[-6.9901,37.2393,0.3027],[-6.9929,37.2374,0.0],[-6.9938,37.2346,0.2466],[-6.999,37.2324,0.1402],[-6.999,37.2296,0.5065],[-6.9968,37.2276,0.3077],[-6.9896,37.2268,0.0],[-6.9876,37.2302,0.3014],[-6.9879,37.2271,0.0],[-6.9829,37.2224,0.9382],[-6.9765,37.2121,0.6565],[-6.9707,37.2201,0.7687],[-6.9751,37.231,1.0922],[-6.974,37.2421,0.0],[-6.9815,37.2476,0.0]]],
[[[-7.0035,37.2349,0.0],[-7.0049,37.2357,0.0],[-7.0093,37.2335,0.8956],[-7.0057,37.2324,1.3771],[-7.0035,37.2349,0.0]]],
[[[-7.3317,37.2065,0.0],[-7.3317,37.2062,0.0],[-7.3315,37.2062,0.0],[-7.3315,37.2065,0.0],[-7.3317,37.2065,0.0]]],
[[[-7.158,37.2346,0.4156],[-7.166,37.2349,0.3442],[-7.1662,37.2276,0.0],[-7.1568,37.2274,0.2012],[-7.158,37.2346,0.4156]]],
[[[-6.9696,37.2173,0.1475],[-6.9707,37.2179,0.0],[-6.9751,37.2101,0.0],[-6.9654,37.1991,0.1112],[-6.9618,37.1918,0.2021],[-6.9618,37.1876,0.2433],[-6.9585,37.1835,1.0736],[-6.9493,37.1768,0.0],[-6.9426,37.1763,0.0],[-6.9393,37.1779,2.1428],[-6.934,37.1757,1.4504],[-6.9257,37.171,0.6573],[-6.921,37.1651,0.7407],[-6.919,37.1657,1.3483],[-6.9182,37.1632,0.0],[-6.916,37.1635,0.3459],[-6.9165,37.1663,0.0],[-6.9371,37.1835,0.5068],[-6.9407,37.1921,0.2583],[-6.9402,37.1949,0.0],[-6.9424,37.1963,1.0886],[-6.9457,37.2055,0.0],[-6.9523,37.2099,0.7304],[-6.9696,37.2173,0.1475]]],
[[[-6.8787,37.268,0.6966],[-6.8785,37.2718,0.28],[-6.8824,37.2643,0.0],[-6.8865,37.2627,0.0],[-6.8932,37.2524,0.0],[-6.8787,37.2635,0.3077],[-6.876,37.2679,0.0],[-6.8774,37.2685,0.0],[-6.879,37.2665,0.546],[-6.8787,37.268,0.6966]]],
[[[-6.9718,37.2796,0.1706],[-6.9729,37.279,0.0],[-6.971,37.2768,0.3333],[-6.9707,37.2776,0.206],[-6.9718,37.2796,0.1706]]],
[[[-6.9735,37.2957,0.3472],[-6.976,37.2971,0.1667],[-6.9721,37.2915,0.0],[-6.9724,37.2943,1.1581],[-6.9735,37.2957,0.3472]]]]}
,"properties": {"GID_3": "ESP.1.5.4_1","GID_0": "ESP","country": "Spain","GID_1": "ESP.1_1","province": "Andalucía","NL_NAME_1": "NA","GID_2": "ESP.1.5_1","county": "Huelva","NL_NAME_2": "NA","city": "n.a.(136)","VARNAME_3": "NA","NL_NAME_3": "NA","TYPE_3": "Comarca","ENGTYPE_3": "Comarca","CC_3": "NA","HASC_3": "NA","name": "n.a.(136).city","area_km2": 912.0562,"hist_schema_id": "Elevation0-9000","hist_area_km2": {"0": 199.0067,"25": 229.4228,"50": 191.29,"75": 118.4684,"100": 99.0473,"125": 56.347,"150": 17.3285,"175": 1.1456}}}