{"type": "Feature","bbox": [-0.9847,39.2232,-0.5345,39.5562],"geometry": {"type": "MultiPolygon","coordinates": [[[[-0.7327,39.2356,143.6257],[-0.7248,39.2259,118.5052],[-0.7184,39.2269,111.8894],[-0.7162,39.2232,122.8782],[-0.711,39.229,317.5347],[-0.7081,39.2365,414.2766],[-0.7061,39.2576,720.2867],[-0.6901,39.2626,766.4763],[-0.678,39.2785,442.5545],[-0.6756,39.286,462.9286],[-0.6767,39.2883,446.3714],[-0.68,39.2897,461.4383],[-0.6948,39.3152,424.8813],[-0.7127,39.323,363.1574],[-0.7451,39.3252,521.0852],[-0.7422,39.3347,433.0726],[-0.7393,39.3581,257.0438],[-0.7391,39.3754,237.1537],[-0.7365,39.3788,245.3714],[-0.7384,39.3969,293.793],[-0.734,39.407,318.4688],[-0.7278,39.4137,383.5121],[-0.7177,39.4138,361.4822],[-0.6875,39.409,298.7788],[-0.654,39.4074,250.5232],[-0.6256,39.4107,226.9073],[-0.6039,39.41,175.0818],[-0.6092,39.4274,189.7813],[-0.6127,39.4311,205.8719],[-0.6127,39.4376,156.4639],[-0.6172,39.4442,234.7125],[-0.6055,39.439,191.4788],[-0.6039,39.4356,209.3367],[-0.5812,39.4302,294.7371],[-0.5547,39.4288,151.8833],[-0.5345,39.4437,73.604],[-0.5509,39.4479,86.4609],[-0.5525,39.4705,89.464],[-0.5615,39.4707,98.4058],[-0.5616,39.4687,96.0952],[-0.5725,39.4697,102.8651],[-0.5835,39.4724,111.7047],[-0.5912,39.4784,116.4163],[-0.5887,39.4889,118.4616],[-0.6066,39.5132,158.3096],[-0.6063,39.5178,209.3123],[-0.6379,39.5248,192.9634],[-0.6592,39.5259,228.7181],[-0.6915,39.5338,246.4827],[-0.718,39.5454,272.1067],[-0.7438,39.5381,309.4789],[-0.7759,39.5525,495.9677],[-0.7916,39.5562,474.2987],[-0.8297,39.5425,878.7518],[-0.8597,39.5501,896.1078],[-0.8881,39.5536,748.8535],[-0.9196,39.544,1086.105],[-0.9201,39.5387,1100.6089],[-0.927,39.5401,1091.7751],[-0.9316,39.5436,929.4093],[-0.9458,39.5458,847.5954],[-0.9607,39.5507,728.7004],[-0.9827,39.5532,522.7298],[-0.9799,39.541,865.9342],[-0.9805,39.5331,919.6454],[-0.9782,39.5187,1050.8921],[-0.9793,39.5105,1088.8315],[-0.967,39.4851,838.3026],[-0.9648,39.4747,782.3181],[-0.9685,39.4588,704.5665],[-0.968,39.4509,677.5507],[-0.9759,39.4354,803.3687],[-0.9773,39.4281,753.8462],[-0.9752,39.3968,579.972],[-0.9762,39.3753,625.8009],[-0.9818,39.3605,515.2742],[-0.9833,39.3606,519.152],[-0.9847,39.3574,562.9821],[-0.982,39.3505,611.627],[-0.9838,39.3463,690.4187],[-0.9819,39.3431,743.6664],[-0.9827,39.3367,915.2612],[-0.9734,39.3353,946.9261],[-0.9655,39.3305,966.4653],[-0.9462,39.3247,1057.0548],[-0.9272,39.3154,767.7435],[-0.8996,39.3101,638.2642],[-0.8928,39.2917,629.6851],[-0.8892,39.2878,539.3548],[-0.8898,39.2752,412.4259],[-0.888,39.2714,288.9624],[-0.8864,39.2746,221.8352],[-0.8819,39.2769,210.25],[-0.8777,39.2731,264.616],[-0.8664,39.2719,224.9149],[-0.8619,39.2752,207.5173],[-0.8534,39.2748,190.875],[-0.8512,39.2792,231.5396],[-0.8538,39.2834,188.9844],[-0.8498,39.2849,181.4386],[-0.8477,39.282,203.0512],[-0.8377,39.2805,172.858],[-0.8369,39.279,190.2115],[-0.839,39.2772,213.4472],[-0.8364,39.2744,186.5597],[-0.824,39.2712,178.7136],[-0.8148,39.2731,162.7267],[-0.8075,39.2658,222.1991],[-0.8024,39.2647,156.9592],[-0.7986,39.2604,168.1419],[-0.7948,39.2602,158.0743],[-0.7918,39.267,149.7947],[-0.7818,39.2656,190.0489],[-0.779,39.2633,131.445],[-0.7802,39.2614,132.9469],[-0.7742,39.2499,143.137],[-0.7678,39.2502,135.7641],[-0.7572,39.2415,126.7948],[-0.7528,39.2427,123.9826],[-0.7387,39.2358,161.836],[-0.7375,39.2336,165.5372],[-0.7327,39.2356,143.6257]]]]}
,"properties": {"GID_3": "ESP.10.3.6_1","GID_0": "ESP","country": "Spain","GID_1": "ESP.10_1","province": "ComunidadValenciana","NL_NAME_1": "NA","GID_2": "ESP.10.3_1","county": "Valencia","NL_NAME_2": "NA","city": "FoiadeBunyol","VARNAME_3": "NA","NL_NAME_3": "NA","TYPE_3": "Comarca","ENGTYPE_3": "Comarca","CC_3": "NA","HASC_3": "NA","name": "Foiade_Bunyol.city","area_km2": 816.6738,"hist_schema_id": "Elevation0-9000","hist_area_km2": {"75": 0.8678,"100": 9.5611,"125": 11.2302,"150": 14.9285,"175": 18.7759,"200": 27.8302,"225": 31.6426,"250": 31.6008,"275": 25.4159,"300": 25.0122,"325": 30.2382,"350": 32.1934,"375": 35.0973,"400": 30.0704,"425": 25.5371,"450": 25.8509,"475": 24.5896,"500": 25.6379,"525": 25.3092,"550": 23.0601,"575": 22.878,"600": 24.2846,"625": 24.2015,"650": 23.9689,"675": 24.1293,"700": 24.9942,"725": 27.0702,"750": 24.8091,"775": 21.5638,"800": 20.1199,"825": 22.587,"850": 23.3504,"875": 18.4747,"900": 13.3842,"925": 9.0974,"950": 6.7086,"975": 4.3687,"1000": 2.7164,"1025": 1.6853,"1050": 0.9328,"1075": 0.5236,"1100": 0.3435,"1125": 0.0327}}}