{"type":"Feature","properties":{"GID_1":"ESP.1_1","GID_0":"ESP","country":"Spain","province":"Andalucía","VARNAME_1":"Andalousie|Andaluc¡a|Andalusien|","NL_NAME_1":"NA","TYPE_1":"ComunidadAutónoma","ENGTYPE_1":"AutonomousCommunity","CC_1":"01","HASC_1":"ES.AN","ISO_1":"NA","name":"Andalucía.province"},
"geometry":{"type": "MultiPolygon","coordinates": [[[[-3.0312,35.9407,0.0],[-3.0301,35.9426,0.0],[-3.0376,35.939,0.0],[-3.0346,35.9374,1.3777],[-3.0312,35.9407,0.0]]],
[[[-2.9421,36.7507,1.6211],[-2.9218,36.7513,2.6453],[-2.8996,36.7396,3.2211],[-2.8743,36.7168,0.4702],[-2.8612,36.7021,0.5262],[-2.859,36.7001,0.7152],[-2.8532,36.699,2.587],[-2.8488,36.6949,0.0],[-2.8443,36.6957,0.9768],[-2.8335,36.7035,0.0],[-2.8187,36.7062,1.0022],[-2.8074,36.7049,1.0971],[-2.7993,36.7018,1.8793],[-2.794,36.6976,0.566],[-2.7954,36.6954,0.0],[-2.7982,36.6965,0.0],[-2.7979,36.6951,0.0],[-2.7924,36.6929,0.0],[-2.7865,36.694,3.2552],[-2.781,36.689,0.6726],[-2.7774,36.689,0.122],[-2.7721,36.6815,0.0],[-2.7643,36.6826,2.2929],[-2.7643,36.6813,0.9353],[-2.7613,36.6801,0.0],[-2.756,36.6801,0.0],[-2.7426,36.6838,1.4117],[-2.719,36.6854,0.306],[-2.7107,36.6854,0.1389],[-2.6996,36.6824,0.0],[-2.6904,36.6885,0.0],[-2.6826,36.689,0.348],[-2.6746,36.6943,1.3014],[-2.6515,36.6996,0.4388],[-2.6437,36.7046,0.7212],[-2.626,36.7212,0.2289],[-2.6146,36.7335,0.1959],[-2.6107,36.7465,6.548],[-2.6037,36.7565,0.0],[-2.606,36.7593,0.0],[-2.6046,36.766,2.3165],[-2.5985,36.7774,2.5212],[-2.5757,36.8043,8.0176],[-2.5651,36.814,22.1152],[-2.5604,36.8135,0.0],[-2.551,36.8176,43.7083],[-2.5463,36.8168,0.0],[-2.5407,36.8187,0.0],[-2.5326,36.8185,0.0],[-2.531,36.8215,1.437],[-2.5246,36.8246,7.3326],[-2.5015,36.8243,7.8026],[-2.4954,36.8279,23.0686],[-2.4915,36.8276,6.7751],[-2.4812,36.834,1.2968],[-2.4751,36.8318,2.1656],[-2.4682,36.8262,0.0],[-2.464,36.8254,0.0],[-2.471,36.8293,0.0],[-2.4754,36.834,2.2031],[-2.4746,36.8354,2.2031],[-2.4712,36.8354,0.0],[-2.466,36.8335,1.9015],[-2.4671,36.8301,0.0],[-2.464,36.8326,3.3301],[-2.4615,36.8326,5.5039],[-2.4412,36.8207,6.7446],[-2.4332,36.8149,2.2434],[-2.4301,36.8107,0.3416],[-2.4257,36.8104,0.0],[-2.4229,36.8149,0.0],[-2.411,36.819,1.3517],[-2.4057,36.8257,2.8102],[-2.4021,36.8276,0.4011],[-2.3707,36.8404,0.0],[-2.3607,36.8415,0.3927],[-2.3182,36.8335,0.0],[-2.2965,36.8218,0.1857],[-2.2921,36.821,0.7016],[-2.254,36.7893,1.777],[-2.226,36.7596,1.5448],[-2.2029,36.7315,0.0],[-2.2015,36.7268,0.0],[-2.1951,36.7251,0.0],[-2.194,36.721,5.3648],[-2.191,36.7196,0.0],[-2.1871,36.7212,0.0],[-2.184,36.7188,0.0],[-2.1788,36.7235,0.0],[-2.1701,36.7229,25.3149],[-2.1682,36.7215,0.0],[-2.1632,36.7262,0.0],[-2.154,36.7287,0.0],[-2.1529,36.7304,0.0],[-2.1368,36.7285,0.0],[-2.1304,36.7315,0.0],[-2.1207,36.7326,0.0],[-2.1188,36.7363,13.6171],[-2.1143,36.7376,0.0],[-2.1154,36.7396,0.0],[-2.1196,36.739,0.0],[-2.1226,36.7429,5.2975],[-2.1224,36.7451,-0.0456],[-2.1196,36.749,2.5123],[-2.1137,36.7479,0.0],[-2.1065,36.7515,5.2746],[-2.1093,36.7565,3.1738],[-2.1057,36.7635,2.4177],[-2.1021,36.761,0.0],[-2.0951,36.7643,1.8548],[-2.0907,36.7621,0.7309],[-2.0899,36.7635,0.7309],[-2.0829,36.7643,0.0],[-2.0799,36.7657,0.0],[-2.0804,36.7676,4.3755],[-2.0724,36.7696,0.0],[-2.0699,36.7746,3.9108],[-2.0649,36.7746,0.0],[-2.0601,36.7774,0.0],[-2.0599,36.7788,0.0],[-2.0626,36.7799,0.0],[-2.0607,36.7935,0.0],[-2.0621,36.7949,0.0],[-2.0585,36.7962,0.0],[-2.0621,36.7993,0.0],[-2.0612,36.8013,0.0],[-2.0626,36.8054,0.0],[-2.061,36.8085,2.4623],[-2.0554,36.8126,5.2209],[-2.0479,36.8112,0.0],[-2.0507,36.8157,8.7655],[-2.0407,36.8185,0.0],[-2.0401,36.8235,0.0],[-2.0312,36.8299,6.7299],[-2.0249,36.8307,0.0],[-2.0243,36.8351,1.7156],[-2.0082,36.8335,0.0],[-2.0021,36.8363,7.5989],[-2.0015,36.839,173.9812],[-1.999,36.8404,0.0],[-2.0012,36.8429,225.1713],[-2.0012,36.8457,121.936],[-1.9957,36.8501,36.5391],[-1.9965,36.8521,0.0],[-1.9996,36.8529,30.0116],[-1.999,36.8574,0.0],[-2.0054,36.8593,1.2086],[-2.0029,36.8629,0.7696],[-2.001,36.8721,0.0],[-2.0038,36.8746,49.9992],[-2.0035,36.8818,8.8469],[-2.0012,36.884,12.335],[-1.994,36.886,44.321],[-1.9918,36.8937,0.0],[-1.9857,36.8974,28.545],[-1.9813,36.9026,17.1944],[-1.9771,36.9024,8.551],[-1.9729,36.8979,4.6778],[-1.9676,36.8982,0.0],[-1.9635,36.9076,6.5346],[-1.959,36.909,20.3372],[-1.9582,36.9149,79.6113],[-1.9554,36.9157,0.0],[-1.9562,36.9176,28.5245],[-1.9526,36.9196,1.9494],[-1.9543,36.9207,4.0677],[-1.9543,36.9235,0.8198],[-1.9524,36.9235,0.0],[-1.9462,36.9296,0.0],[-1.9465,36.9324,5.3413],[-1.9432,36.9329,0.0],[-1.9413,36.9357,33.2453],[-1.9338,36.9388,6.8244],[-1.9221,36.9368,16.8499],[-1.9163,36.934,19.3701],[-1.914,36.9343,0.0],[-1.9129,36.9365,8.6877],[-1.9065,36.936,6.5084],[-1.9029,36.9401,0.0],[-1.9029,36.944,43.4208],[-1.8954,36.9482,0.0],[-1.8985,36.9543,12.5472],[-1.8999,36.9663,0.0],[-1.8949,36.9654,0.0],[-1.8957,36.9679,0.0],[-1.8999,36.9685,3.923],[-1.9007,36.9746,4.6666],[-1.8985,36.9782,0.346],[-1.8962,36.976,0.0],[-1.8946,36.9765,0.0],[-1.8976,36.9793,0.7201],[-1.901,36.9793,2.1994],[-1.9012,36.9876,4.9152],[-1.8985,36.9888,1.2035],[-1.8971,36.9935,3.795],[-1.8893,36.9968,0.6417],[-1.8882,37.0076,21.8087],[-1.8835,37.0085,0.0],[-1.8801,37.011,38.4641],[-1.8804,37.0129,50.3718],[-1.8779,37.0146,2.4798],[-1.8796,37.0251,0.0],[-1.876,37.0363,26.0358],[-1.8726,37.0393,23.2004],[-1.8654,37.0418,13.1978],[-1.8629,37.0454,0.0],[-1.8624,37.0518,13.8444],[-1.8582,37.0576,9.4157],[-1.8551,37.0588,17.0241],[-1.8546,37.0629,22.6925],[-1.8521,37.064,0.0],[-1.8493,37.0693,4.7407],[-1.8504,37.0926,9.9293],[-1.8451,37.1085,14.7225],[-1.8421,37.1129,2.0708],[-1.8393,37.1138,3.2828],[-1.8326,37.1207,3.4382],[-1.8324,37.1257,2.0098],[-1.831,37.1263,2.0098],[-1.8307,37.1312,11.7915],[-1.8276,37.1387,1.1889],[-1.8282,37.1421,8.6379],[-1.8257,37.144,0.0],[-1.8243,37.1493,3.8332],[-1.8238,37.164,0.0],[-1.8249,37.1651,5.5775],[-1.8218,37.1796,2.6209],[-1.8188,37.1821,0.2557],[-1.8193,37.1832,0.2557],[-1.8179,37.1826,0.9768],[-1.8179,37.1843,0.2495],[-1.8162,37.1843,0.2495],[-1.8174,37.181,1.6542],[-1.8157,37.1818,0.0],[-1.8151,37.1846,0.0],[-1.8179,37.186,0.2357],[-1.8171,37.1915,2.6916],[-1.8149,37.1935,0.9899],[-1.8101,37.2096,4.1347],[-1.8032,37.2232,1.782],[-1.7938,37.234,5.4473],[-1.791,37.2351,1.6242],[-1.7849,37.2343,1.0433],[-1.7782,37.239,0.5616],[-1.776,37.2382,0.0],[-1.771,37.2482,7.95],[-1.7629,37.2565,3.2869],[-1.7613,37.256,0.0],[-1.7624,37.2582,0.0],[-1.7576,37.2646,14.7072],[-1.7532,37.2654,0.0],[-1.7488,37.2685,5.2412],[-1.7451,37.2749,0.0],[-1.7387,37.2801,17.5831],[-1.7337,37.2818,6.7801],[-1.7312,37.2854,4.8839],[-1.7243,37.2899,0.0],[-1.721,37.2962,2.7641],[-1.7124,37.3001,0.0],[-1.711,37.3029,0.0],[-1.7071,37.3051,2.9793],[-1.7065,37.3104,2.1524],[-1.7035,37.3121,15.3022],[-1.6899,37.3379,2.4358],[-1.6765,37.3537,0.4277],[-1.6715,37.3571,1.4988],[-1.6651,37.3576,6.0988],[-1.6568,37.3565,7.129],[-1.6554,37.3535,0.0],[-1.6537,37.3537,0.0],[-1.6487,37.359,0.0],[-1.6499,37.3593,3.8091],[-1.6496,37.3624,12.0018],[-1.646,37.371,7.9053],[-1.6365,37.3757,7.1943],[-1.6351,37.3757,7.1943],[-1.6337,37.3724,0.0],[-1.6304,37.3729,0.0],[-1.63,37.3753,1.9432],[-1.6659,37.4009,78.3747],[-1.7049,37.4211,301.6372],[-1.737,37.4427,226.8883],[-1.7797,37.447,248.6614],[-1.7962,37.4522,299.7473],[-1.8117,37.4516,355.6517],[-1.8089,37.4335,259.3047],[-1.8452,37.4549,378.1122],[-1.8586,37.4791,414.2375],[-1.8646,37.4866,442.7317],[-1.8708,37.4897,479.972],[-1.9539,37.5883,753.9291],[-1.9556,37.5915,764.4276],[-1.9539,37.5975,789.9985],[-1.9556,37.601,807.276],[-1.9651,37.6051,831.697],[-1.97,37.6142,860.5501],[-1.9767,37.6188,891.7762],[-1.9784,37.6255,916.8149],[-1.9812,37.6284,927.8474],[-1.9817,37.6368,983.1495],[-1.9874,37.6452,1005.9963],[-1.9927,37.6433,1019.8217],[-1.9957,37.6503,856.9805],[-2.0019,37.6556,778.933],[-2.0076,37.6692,679.7132],[-2.0118,37.6735,712.7179],[-2.0097,37.6868,738.8944],[-2.0114,37.6925,791.1307],[-2.0103,37.6988,856.738],[-2.0125,37.7009,900.0625],[-2.0081,37.7115,1201.4742],[-2.0076,37.7198,1476.5809],[-2.004,37.7226,1293.6124],[-1.9998,37.723,1253.6837],[-1.9957,37.7281,1246.9919],[-2.0024,37.7478,1071.8121],[-2.0046,37.7662,952.3013],[-2.0087,37.775,1041.5381],[-2.0016,37.805,973.311],[-1.9964,37.819,859.901],[-1.9994,37.8232,714.7622],[-1.9952,37.8414,730.6379],[-1.9883,37.8535,771.5489],[-1.9773,37.8604,810.1087],[-1.9744,37.8685,834.3692],[-1.9826,37.8739,1006.3451],[-1.9879,37.8738,1068.3596],[-1.9946,37.8805,1003.4438],[-1.9988,37.8762,971.8755],[-2.0032,37.877,1003.0849],[-2.0044,37.8807,1017.2899],[-2.0217,37.8686,912.6989],[-2.0392,37.8754,929.5128],[-2.0424,37.8737,986.1979],[-2.0459,37.8746,1016.7782],[-2.0453,37.8762,977.9579],[-2.0499,37.8796,1019.643],[-2.0595,37.8801,1076.1167],[-2.0622,37.8835,1112.5491],[-2.0703,37.8845,1065.0702],[-2.0738,37.8838,1113.2523],[-2.0773,37.8784,1093.0221],[-2.0845,37.8724,984.8162],[-2.0857,37.8749,1032.9729],[-2.0983,37.8777,1199.9849],[-2.1034,37.8814,1223.4746],[-2.108,37.8815,1265.655],[-2.1064,37.8862,1185.254],[-2.1104,37.8909,1149.8271],[-2.118,37.8942,1183.1702],[-2.1231,37.9005,1194.5894],[-2.1299,37.9,1199.4788],[-2.1351,37.8977,1196.9507],[-2.1516,37.8973,1190.6196],[-2.1506,37.8957,1193.0458],[-2.1567,37.8913,1210.0405],[-2.1644,37.8926,1220.9797],[-2.1719,37.8887,1220.0146],[-2.1846,37.9017,1253.9514],[-2.1848,37.9037,1242.3964],[-2.2076,37.9166,1459.2477],[-2.2216,37.9224,1400.5764],[-2.2223,37.9239,1450.2574],[-2.2276,37.9237,1465.124],[-2.2295,37.9262,1396.7715],[-2.2378,37.9285,1392.9221],[-2.2533,37.9396,1267.5917],[-2.2587,37.95,1190.0459],[-2.2667,37.953,1115.7722],[-2.2741,37.9595,1150.7402],[-2.2768,37.9601,1166.2534],[-2.2976,37.9903,1168.6611],[-2.2984,38.0022,1316.4584],[-2.3092,38.0089,1257.0728],[-2.323,38.014,1301.0931],[-2.3415,38.026,1404.2162],[-2.3578,38.0225,1328.4272],[-2.373,38.0233,1363.4242],[-2.3927,38.0309,1383.4794],[-2.4032,38.0329,1378.9335],[-2.4114,38.0322,1363.4253],[-2.4233,38.0337,1365.2491],[-2.432,38.0434,1417.1873],[-2.436,38.0434,1425.3102],[-2.4513,38.0491,1598.2952],[-2.4625,38.0503,1719.5574],[-2.4719,38.0564,1835.2983],[-2.4806,38.0532,1855.9612],[-2.4817,38.0553,1788.4967],[-2.4959,38.062,1688.719],[-2.5043,38.0684,1500.7646],[-2.5216,38.0698,1454.0549],[-2.5311,38.0741,1455.9076],[-2.5392,38.0758,1356.1755],[-2.5474,38.0799,1244.8732],[-2.5512,38.0841,1221.1272],[-2.5477,38.0902,1199.5999],[-2.5458,38.0896,1201.4564],[-2.5393,38.0929,1200.8223],[-2.5374,38.0978,1177.9408],[-2.5269,38.1026,1213.2991],[-2.5248,38.1068,1194.0454],[-2.5202,38.1078,1172.5781],[-2.5156,38.1165,1157.4135],[-2.5164,38.1193,1134.5967],[-2.5122,38.1227,1125.9867],[-2.5128,38.1265,1134.8481],[-2.4985,38.1317,1065.4065],[-2.486,38.1485,1013.5612],[-2.4818,38.1505,1003.0283],[-2.4803,38.1534,993.0591],[-2.474,38.1558,997.608],[-2.4684,38.1658,957.5826],[-2.4684,38.1728,1005.5839],[-2.4642,38.1729,942.3907],[-2.4579,38.1763,972.7054],[-2.4558,38.1796,921.3689],[-2.4462,38.1852,906.8576],[-2.4474,38.1908,939.7869],[-2.4454,38.2046,834.0057],[-2.447,38.2076,830.8278],[-2.4529,38.2105,746.476],[-2.4536,38.2183,749.624],[-2.4504,38.2202,747.0612],[-2.4406,38.2324,721.5677],[-2.4425,38.2355,716.7236],[-2.4421,38.2419,723.1916],[-2.4433,38.2443,707.7841],[-2.4463,38.2443,700.874],[-2.4425,38.2481,705.142],[-2.4438,38.253,708.3781],[-2.4397,38.2582,708.2737],[-2.4401,38.2601,720.4337],[-2.4364,38.2599,693.0775],[-2.4365,38.2722,674.2408],[-2.439,38.2738,695.2302],[-2.4407,38.2851,943.4418],[-2.446,38.2877,1038.1006],[-2.4814,38.295,1568.2782],[-2.485,38.3003,1523.0527],[-2.4847,38.3202,1803.4592],[-2.4809,38.3245,1827.9287],[-2.48,38.329,1792.4894],[-2.4811,38.3335,1705.333],[-2.4791,38.3492,1455.4861],[-2.4857,38.3538,1187.6896],[-2.4908,38.3633,1278.6584],[-2.4899,38.3655,1300.1313],[-2.4923,38.3713,1451.9656],[-2.4815,38.3931,1586.2864],[-2.4833,38.3979,1544.3538],[-2.5157,38.4002,1131.4851],[-2.5208,38.4043,1060.667],[-2.5348,38.4063,853.4969],[-2.5455,38.4056,810.4388],[-2.55,38.4031,806.3033],[-2.5581,38.4064,950.6973],[-2.558,38.409,903.9807],[-2.5603,38.4112,954.1611],[-2.5714,38.414,746.9136],[-2.5773,38.4262,809.4443],[-2.5753,38.4317,879.4525],[-2.5769,38.4343,952.784],[-2.5689,38.4419,1102.5642],[-2.5709,38.444,1200.1794],[-2.5669,38.4535,1354.1063],[-2.5673,38.4607,1535.1058],[-2.5732,38.4683,1228.0514],[-2.5767,38.4765,1328.6863],[-2.5756,38.4829,1372.9563],[-2.5725,38.4877,1353.7903],[-2.5665,38.4905,1353.2526],[-2.58,38.5036,1276.9713],[-2.585,38.5035,1261.0869],[-2.5866,38.5066,1145.5635],[-2.5926,38.5108,1021.1835],[-2.5987,38.5129,892.0671],[-2.6185,38.5126,850.1885],[-2.6361,38.5076,819.7263],[-2.6445,38.5072,813.618],[-2.664,38.5013,778.4586],[-2.6726,38.4967,819.4081],[-2.7024,38.5011,781.9403],[-2.7097,38.5059,789.5488],[-2.7325,38.5142,757.3921],[-2.7389,38.5223,778.9742],[-2.7478,38.5256,802.9725],[-2.7537,38.526,783.6218],[-2.7545,38.5284,739.6721],[-2.762,38.5328,729.6547],[-2.7676,38.5329,694.7731],[-2.7666,38.531,684.54],[-2.7737,38.5283,670.4928],[-2.7703,38.5203,671.4304],[-2.775,38.5194,682.813],[-2.7764,38.5168,671.6149],[-2.7799,38.5161,669.4374],[-2.7788,38.5107,665.8599],[-2.7805,38.5094,660.7386],[-2.7836,38.5144,670.4157],[-2.7869,38.5157,671.7464],[-2.7856,38.5121,663.9067],[-2.7875,38.5096,655.8495],[-2.7937,38.5078,667.1817],[-2.7914,38.5038,650.5406],[-2.7959,38.5015,652.7679],[-2.7992,38.5046,655.758],[-2.8016,38.5039,661.7064],[-2.8003,38.4997,649.1762],[-2.8065,38.5031,649.7985],[-2.81,38.4952,650.4901],[-2.8138,38.4959,638.5006],[-2.8125,38.4917,647.7497],[-2.817,38.494,643.5497],[-2.8251,38.4874,630.9809],[-2.8232,38.485,651.462],[-2.8301,38.4876,632.6534],[-2.8323,38.4861,641.1106],[-2.8298,38.4781,680.1407],[-2.831,38.4765,646.5747],[-2.834,38.4773,622.3957],[-2.8375,38.4844,631.203],[-2.8393,38.4841,622.3977],[-2.8406,38.481,632.7076],[-2.84,38.4773,634.2266],[-2.8439,38.4809,617.5931],[-2.8498,38.4805,618.8115],[-2.8546,38.4785,641.4609],[-2.8512,38.4743,614.2512],[-2.8608,38.4752,614.7532],[-2.8606,38.4702,618.7685],[-2.8645,38.4717,601.3978],[-2.8689,38.47,602.1791],[-2.8693,38.4658,599.685],[-2.8801,38.4627,634.4297],[-2.8777,38.4571,606.5634],[-2.8841,38.4585,616.9995],[-2.8847,38.4566,624.5007],[-2.8814,38.4527,599.2248],[-2.8897,38.4559,778.2594],[-2.8964,38.4624,782.5693],[-2.9016,38.4645,785.016],[-2.9057,38.4699,840.5335],[-2.9095,38.4701,854.0464],[-2.9111,38.4681,837.1018],[-2.9328,38.4715,850.7953],[-2.9383,38.4748,849.657],[-2.9479,38.47,833.1258],[-2.9565,38.4686,778.6179],[-2.9635,38.4715,854.7091],[-2.9669,38.4685,864.0066],[-2.9687,38.4622,823.1628],[-2.9768,38.4549,854.5601],[-2.9934,38.4501,788.9486],[-2.9962,38.4436,758.2549],[-2.9934,38.4367,756.1536],[-2.9944,38.4322,748.8716],[-2.9921,38.429,760.2359],[-2.9966,38.4211,731.603],[-2.9967,38.4181,736.3716],[-3.0012,38.4142,726.1623],[-3.001,38.4094,722.7294],[-3.0024,38.4083,725.6952],[-3.0053,38.4149,740.2928],[-3.0649,38.4783,835.2957],[-3.118,38.4487,837.7769],[-3.1301,38.4388,826.6526],[-3.1498,38.4401,846.2945],[-3.1799,38.45,615.7336],[-3.2194,38.4529,892.5995],[-3.246,38.4577,781.2714],[-3.2575,38.4574,671.1674],[-3.2624,38.4594,616.4111],[-3.2799,38.4604,699.2643],[-3.2851,38.4646,792.8945],[-3.2889,38.4704,805.1603],[-3.2967,38.4706,835.4324],[-3.3052,38.4793,868.5159],[-3.3207,38.48,999.8891],[-3.3264,38.4821,1019.9619],[-3.3749,38.4753,763.5498],[-3.3748,38.4697,745.4364],[-3.3777,38.465,745.2838],[-3.3803,38.4506,731.6457],[-3.3802,38.4455,729.7021],[-3.3753,38.4418,757.1281],[-3.3766,38.4396,761.8912],[-3.3894,38.4334,715.0317],[-3.4018,38.424,710.0334],[-3.4094,38.4241,731.5106],[-3.4229,38.4109,1088.0616],[-3.4247,38.4068,1133.7782],[-3.4331,38.4081,1124.3599],[-3.4385,38.4044,1070.9832],[-3.4422,38.4044,1066.7913],[-3.4531,38.4002,1042.6615],[-3.4725,38.398,909.0665],[-3.4775,38.4015,829.6313],[-3.4854,38.4041,797.1017],[-3.4961,38.4038,742.8864],[-3.5058,38.408,886.6202],[-3.5283,38.4087,1011.6025],[-3.528,38.411,975.8826],[-3.5332,38.4151,892.255],[-3.5349,38.4233,746.8098],[-3.5326,38.4263,729.2605],[-3.532,38.4311,727.7042],[-3.5351,38.4394,799.6616],[-3.5424,38.4457,887.3569],[-3.5525,38.4466,923.9608],[-3.5672,38.4521,987.6417],[-3.578,38.4504,1006.3956],[-3.583,38.4515,1022.6181],[-3.5862,38.4334,978.1765],[-3.5857,38.4056,1186.23],[-3.5981,38.3985,1219.1584],[-3.6017,38.3988,1244.0051],[-3.6204,38.394,1193.1035],[-3.6516,38.405,677.4532],[-3.6992,38.4129,618.8215],[-3.7299,38.4244,936.2672],[-3.7396,38.414,989.5993],[-3.7648,38.4244,963.6623],[-3.7855,38.4253,967.748],[-3.8011,38.42,1078.7267],[-3.8077,38.4218,1059.907],[-3.8166,38.419,990.9377],[-3.818,38.4157,978.5109],[-3.8242,38.4163,1013.0551],[-3.8299,38.4128,1040.1975],[-3.8324,38.3997,950.7493],[-3.8305,38.3929,924.1624],[-3.838,38.3858,840.394],[-3.8542,38.3752,825.588],[-3.8598,38.3734,931.754],[-3.8607,38.3755,899.7861],[-3.864,38.3764,939.4042],[-3.8747,38.377,943.6071],[-3.8963,38.3717,940.0566],[-3.9059,38.3717,922.0872],[-3.9124,38.3691,806.558],[-3.9443,38.3672,391.5986],[-3.9501,38.369,372.7626],[-3.9618,38.3661,665.2657],[-3.9894,38.3699,858.5542],[-4.0063,38.3681,810.3181],[-4.0137,38.3717,901.4699],[-4.0283,38.3753,838.1183],[-4.0556,38.3774,877.8712],[-4.0581,38.3789,841.7227],[-4.07,38.3797,859.8072],[-4.0779,38.3772,853.52],[-4.0865,38.3768,777.3905],[-4.0926,38.3803,839.8969],[-4.1118,38.3823,837.506],[-4.1129,38.3797,907.9368],[-4.1284,38.3795,841.1086],[-4.1339,38.3845,639.9899],[-4.1448,38.3865,683.5114],[-4.156,38.3814,1030.1912],[-4.1754,38.3846,1121.4161],[-4.1884,38.3899,1117.8574],[-4.2231,38.3974,1189.6393],[-4.2473,38.3984,796.1029],[-4.2554,38.4018,788.6332],[-4.2675,38.3984,731.7596],[-4.2724,38.3923,655.0773],[-4.2764,38.3909,586.1389],[-4.2761,38.3836,565.44],[-4.2785,38.3775,559.007],[-4.2762,38.3729,549.1188],[-4.2744,38.3722,543.3638],[-4.2742,38.3667,529.248],[-4.2721,38.3654,530.9652],[-4.2703,38.358,514.7014],[-4.2719,38.3562,504.4133],[-4.2703,38.3556,520.4695],[-4.2688,38.3472,500.989],[-4.2714,38.3465,492.758],[-4.2739,38.3503,497.7083],[-4.2763,38.3509,527.3848],[-4.276,38.3479,495.8063],[-4.2788,38.3477,502.6947],[-4.2872,38.3428,503.544],[-4.2897,38.3474,507.9267],[-4.2942,38.3471,516.2396],[-4.2961,38.3502,526.3525],[-4.3027,38.3504,597.9105],[-4.3095,38.353,547.5247],[-4.3118,38.3575,523.844],[-4.3173,38.357,589.6273],[-4.3198,38.362,542.8491],[-4.3219,38.3628,533.7963],[-4.3242,38.3608,545.1962],[-4.3274,38.3635,566.1907],[-4.3319,38.3607,568.9899],[-4.3338,38.3654,588.1117],[-4.384,38.3823,673.8091],[-4.3886,38.3859,638.7246],[-4.3949,38.3872,642.4958],[-4.4063,38.3832,618.0998],[-4.4096,38.3849,614.9525],[-4.417,38.3945,612.4521],[-4.4294,38.396,596.6111],[-4.4351,38.4023,596.0464],[-4.4529,38.4009,586.7704],[-4.4564,38.4069,579.0047],[-4.462,38.4105,581.0959],[-4.4643,38.4169,574.2009],[-4.4712,38.426,570.0406],[-4.4831,38.4331,575.2017],[-4.4871,38.4396,570.4729],[-4.4949,38.4407,560.2524],[-4.4964,38.4434,559.5803],[-4.5006,38.4455,554.3365],[-4.5058,38.4576,550.553],[-4.5132,38.4641,550.6704],[-4.5217,38.4628,543.5771],[-4.5344,38.4695,537.5633],[-4.5414,38.4819,537.0336],[-4.5512,38.4773,529.3597],[-4.5583,38.4766,528.6441],[-4.559,38.4821,523.0784],[-4.5637,38.4848,530.1579],[-4.5657,38.4908,517.747],[-4.5717,38.4875,519.5953],[-4.5765,38.4934,513.1786],[-4.5859,38.4928,509.0999],[-4.5883,38.4864,504.7651],[-4.5936,38.4864,503.5458],[-4.596,38.4901,499.4528],[-4.6085,38.4947,499.7148],[-4.6111,38.5002,491.416],[-4.6189,38.5086,486.8118],[-4.6187,38.5124,486.6142],[-4.6213,38.5177,482.3846],[-4.6203,38.5211,495.3624],[-4.6222,38.5235,483.3203],[-4.6332,38.5252,504.9644],[-4.6397,38.5319,475.0431],[-4.6501,38.5354,468.1616],[-4.6671,38.5478,461.9418],[-4.6794,38.5467,461.5295],[-4.6957,38.5495,455.0086],[-4.703,38.5526,454.1685],[-4.7054,38.5552,452.6417],[-4.7006,38.56,451.8584],[-4.7013,38.5627,461.0728],[-4.705,38.5638,448.7578],[-4.7049,38.5701,443.2317],[-4.7073,38.572,443.9449],[-4.7192,38.571,451.4111],[-4.7333,38.5747,435.9656],[-4.7473,38.5797,431.9039],[-4.7559,38.5857,429.1624],[-4.7684,38.5868,424.5899],[-4.7874,38.5971,450.0764],[-4.8015,38.5948,413.6968],[-4.8187,38.5959,412.0166],[-4.8233,38.5976,406.0205],[-4.8351,38.6075,404.7064],[-4.8526,38.6131,397.1546],[-4.8601,38.614,395.7761],[-4.8635,38.6189,394.1889],[-4.8671,38.6299,393.0666],[-4.8639,38.6401,389.9295],[-4.868,38.6477,385.0433],[-4.867,38.6598,431.4352],[-4.8707,38.6749,404.7222],[-4.8688,38.681,425.7178],[-4.8769,38.6861,529.9299],[-4.8845,38.6878,558.2314],[-4.8921,38.6851,478.6348],[-4.9045,38.6868,374.8538],[-4.9187,38.6861,410.5868],[-4.923,38.6823,402.2063],[-4.9361,38.6814,429.0422],[-4.9648,38.6856,417.84],[-5.0045,38.6951,480.1661],[-5.0008,38.6968,490.9149],[-5.0003,38.7012,508.6627],[-5.0019,38.7082,502.43],[-5.0079,38.7152,492.045],[-5.0171,38.7189,465.5253],[-5.0246,38.7265,454.8872],[-5.0326,38.7254,436.4064],[-5.0468,38.7291,424.583],[-5.0498,38.7266,388.0888],[-5.0615,38.7243,346.0],[-5.0631,38.7212,346.0],[-5.0682,38.7176,347.4657],[-5.0802,38.7154,346.0],[-5.09,38.7115,351.1911],[-5.0924,38.709,349.0993],[-5.1007,38.7077,357.1817],[-5.1119,38.7119,376.8164],[-5.1183,38.716,377.7238],[-5.1424,38.7138,447.2984],[-5.1498,38.7164,424.0293],[-5.1553,38.7159,437.6328],[-5.1639,38.714,456.4581],[-5.1665,38.7117,441.9294],[-5.1693,38.7131,449.0725],[-5.1708,38.7173,489.6967],[-5.1844,38.7197,499.2231],[-5.1802,38.7123,496.6278],[-5.1812,38.7067,585.0861],[-5.1754,38.7005,546.9075],[-5.1733,38.6885,453.5395],[-5.1676,38.6817,392.5887],[-5.1679,38.6773,368.1991],[-5.1827,38.6761,369.0903],[-5.1856,38.6742,371.8891],[-5.1873,38.6704,383.0972],[-5.179,38.6657,373.0128],[-5.1849,38.6594,371.454],[-5.1902,38.6605,372.2976],[-5.1947,38.6668,392.6458],[-5.1975,38.667,373.5935],[-5.1984,38.6645,376.0929],[-5.1968,38.6605,391.3483],[-5.1976,38.6568,410.8022],[-5.1993,38.6564,406.3552],[-5.2014,38.6578,374.0546],[-5.204,38.6661,375.7561],[-5.2079,38.6679,379.616],[-5.2122,38.656,378.2093],[-5.2115,38.6518,378.8262],[-5.2146,38.6486,446.2946],[-5.2171,38.6492,388.8134],[-5.2194,38.656,402.0636],[-5.2238,38.6565,383.2587],[-5.2223,38.6489,384.1746],[-5.2293,38.6471,387.9036],[-5.2313,38.6443,384.6535],[-5.2355,38.6431,388.7856],[-5.2374,38.6377,406.3204],[-5.2419,38.6371,392.8322],[-5.2473,38.6399,389.602],[-5.2449,38.6321,397.3502],[-5.2539,38.6332,394.3503],[-5.2541,38.6261,426.9659],[-5.2705,38.6211,396.2499],[-5.2732,38.6157,431.0192],[-5.2792,38.6123,400.6252],[-5.287,38.613,400.7297],[-5.2932,38.6091,401.3687],[-5.3018,38.5982,405.0034],[-5.3097,38.5941,406.1364],[-5.3106,38.59,408.5002],[-5.3066,38.586,408.9302],[-5.3058,38.5808,410.0798],[-5.3095,38.5773,417.5773],[-5.3237,38.5806,417.0469],[-5.3288,38.5783,415.9703],[-5.3356,38.5785,460.0439],[-5.347,38.5834,475.7541],[-5.3565,38.5855,475.1013],[-5.3716,38.5836,466.9916],[-5.3696,38.5794,464.8727],[-5.3756,38.5683,434.8702],[-5.3859,38.5668,436.2177],[-5.3897,38.5622,437.2988],[-5.3833,38.5574,449.5506],[-5.3857,38.5548,438.306],[-5.3918,38.5547,439.3375],[-5.3927,38.5528,439.6856],[-5.3914,38.5489,440.9866],[-5.3835,38.5437,447.8752],[-5.3829,38.5411,442.4459],[-5.3846,38.5392,442.696],[-5.3904,38.5401,446.4247],[-5.3966,38.5463,447.437],[-5.3996,38.5466,447.7933],[-5.4071,38.5433,452.325],[-5.4035,38.5361,457.0965],[-5.4159,38.5302,452.1443],[-5.4134,38.5241,455.3793],[-5.4102,38.5241,462.6539],[-5.4103,38.52,476.7465],[-5.4158,38.5207,470.8598],[-5.4188,38.5125,459.3962],[-5.4277,38.5147,473.0947],[-5.4345,38.5044,468.2686],[-5.4447,38.5049,483.3886],[-5.4487,38.5021,477.6819],[-5.4504,38.4982,473.9624],[-5.4584,38.4992,484.3898],[-5.4583,38.4948,475.6871],[-5.4692,38.4849,476.709],[-5.4741,38.486,491.1257],[-5.4794,38.4847,482.0964],[-5.4811,38.4775,481.9493],[-5.4801,38.4743,486.1653],[-5.4843,38.4634,498.7352],[-5.4866,38.4658,505.2415],[-5.491,38.4665,490.0626],[-5.4947,38.4587,494.0798],[-5.4984,38.4595,499.6048],[-5.5038,38.4567,505.384],[-5.5124,38.464,503.8127],[-5.5196,38.4632,496.171],[-5.5307,38.4546,499.1999],[-5.543,38.4499,510.5878],[-5.5463,38.45,507.3052],[-5.5489,38.4467,510.5822],[-5.5527,38.4456,513.1909],[-5.562,38.4356,512.6111],[-5.568,38.4334,513.4489],[-5.5729,38.4269,514.6023],[-5.5726,38.4233,515.6614],[-5.5844,38.4003,523.6813],[-5.5849,38.3859,527.0997],[-5.5799,38.3811,530.4255],[-5.5773,38.3822,536.7399],[-5.5729,38.3784,532.3063],[-5.5667,38.3772,533.4758],[-5.563,38.372,547.7101],[-5.5664,38.3684,537.1696],[-5.5655,38.3669,545.7119],[-5.5614,38.3679,543.288],[-5.5595,38.3676,543.9413],[-5.5594,38.3661,541.9551],[-5.5668,38.3626,550.0685],[-5.5686,38.3567,544.2808],[-5.5671,38.3513,547.306],[-5.5722,38.3419,550.1508],[-5.5714,38.3384,549.8871],[-5.5736,38.3308,551.5476],[-5.5755,38.3296,553.9249],[-5.5676,38.3235,552.8433],[-5.5559,38.3183,555.3928],[-5.5511,38.311,557.6351],[-5.5505,38.3063,560.2385],[-5.5524,38.3035,562.7239],[-5.5469,38.2976,565.9506],[-5.5442,38.2885,574.3091],[-5.542,38.2868,576.5256],[-5.5415,38.2851,576.6309],[-5.5443,38.2823,577.9981],[-5.541,38.2781,582.1204],[-5.5373,38.2795,586.6436],[-5.5374,38.273,588.6656],[-5.5317,38.27,594.368],[-5.5258,38.2641,604.4306],[-5.5299,38.2552,628.7587],[-5.5237,38.2492,633.7485],[-5.5223,38.2304,608.0123],[-5.5242,38.2226,577.8793],[-5.5221,38.2139,549.9854],[-5.5233,38.213,534.484],[-5.5207,38.2108,522.3072],[-5.5209,38.2072,513.7254],[-5.5266,38.2053,470.645],[-5.5291,38.2019,465.1699],[-5.5304,38.2033,443.493],[-5.5388,38.1998,426.4691],[-5.5372,38.1965,416.1652],[-5.5391,38.1932,416.5222],[-5.5366,38.1919,410.8535],[-5.5402,38.185,410.8191],[-5.5436,38.1849,391.8387],[-5.5422,38.1814,384.4254],[-5.5399,38.181,394.2388],[-5.5399,38.177,379.1631],[-5.542,38.1771,381.5572],[-5.5395,38.1718,364.484],[-5.5403,38.17,362.1931],[-5.5357,38.1687,365.7018],[-5.5388,38.1617,343.7561],[-5.5413,38.1601,347.5047],[-5.5495,38.1611,351.6437],[-5.5535,38.1537,392.8019],[-5.5556,38.1534,401.1258],[-5.5566,38.1502,417.8944],[-5.56,38.1486,427.8273],[-5.5618,38.1508,440.5005],[-5.5672,38.148,483.4329],[-5.5739,38.1507,543.0009],[-5.5855,38.1404,629.5135],[-5.5847,38.1317,642.7988],[-5.6333,38.1381,486.7025],[-5.6441,38.1293,523.8307],[-5.6458,38.1252,528.597],[-5.6669,38.1091,686.854],[-5.6692,38.1018,669.0156],[-5.6935,38.0838,633.7543],[-5.7103,38.0811,570.7909],[-5.7194,38.0851,592.1745],[-5.7328,38.0875,611.4822],[-5.7348,38.0863,621.7225],[-5.7359,38.0945,676.8278],[-5.7339,38.0982,656.0187],[-5.735,38.1145,619.2604],[-5.7406,38.1266,612.2557],[-5.7387,38.1328,524.3157],[-5.7307,38.1371,485.2502],[-5.7186,38.1363,549.3073],[-5.7153,38.1338,536.9409],[-5.7088,38.1423,552.0084],[-5.7043,38.1434,530.003],[-5.6946,38.1504,474.976],[-5.7056,38.1641,428.0155],[-5.7057,38.1694,429.357],[-5.7019,38.1673,422.1857],[-5.6949,38.1711,426.6591],[-5.6938,38.1682,476.524],[-5.686,38.1616,510.2525],[-5.6841,38.1571,510.7169],[-5.684,38.1608,522.4189],[-5.6887,38.1712,458.3773],[-5.6874,38.1796,419.7326],[-5.6885,38.1819,406.8925],[-5.6977,38.1797,406.0915],[-5.6988,38.1809,416.9734],[-5.6987,38.1827,416.3361],[-5.6944,38.1835,423.0025],[-5.6946,38.1865,421.3405],[-5.6979,38.185,419.3583],[-5.7018,38.1864,422.0055],[-5.7049,38.1851,425.7531],[-5.7078,38.1883,423.5175],[-5.7141,38.1863,427.0154],[-5.7146,38.189,435.8967],[-5.7231,38.1925,448.7706],[-5.725,38.1958,442.9204],[-5.728,38.1974,441.8679],[-5.7314,38.1952,441.0538],[-5.7419,38.1939,441.739],[-5.7457,38.1895,444.4704],[-5.7485,38.1904,451.7391],[-5.7538,38.1843,455.4745],[-5.7566,38.1853,490.2073],[-5.7574,38.1839,490.2073],[-5.7552,38.1819,458.8614],[-5.7572,38.1806,467.4285],[-5.761,38.1828,462.474],[-5.772,38.1834,464.8182],[-5.7816,38.1859,479.6842],[-5.7917,38.1776,490.0201],[-5.7998,38.1745,485.2746],[-5.803,38.1783,485.1351],[-5.8105,38.1736,509.4817],[-5.8118,38.1748,492.5839],[-5.8106,38.178,491.8124],[-5.8153,38.1763,504.5493],[-5.817,38.1777,530.1444],[-5.8186,38.1751,507.6884],[-5.8222,38.1757,531.2202],[-5.8241,38.1722,515.7716],[-5.823,38.1699,515.9461],[-5.8377,38.1744,530.2247],[-5.8466,38.1714,542.8535],[-5.8514,38.1719,541.675],[-5.8551,38.1695,544.664],[-5.8565,38.1615,553.0906],[-5.8746,38.1584,579.9177],[-5.8774,38.1554,613.1522],[-5.8767,38.1484,624.4146],[-5.8785,38.1466,641.2628],[-5.8768,38.1379,697.2141],[-5.8808,38.1322,840.9527],[-5.8952,38.1305,711.1827],[-5.9072,38.124,629.0586],[-5.9128,38.1227,620.5901],[-5.9141,38.1176,612.6132],[-5.9264,38.1044,476.904],[-5.9276,38.0973,454.7161],[-5.9291,38.0964,450.6619],[-5.9277,38.0912,434.424],[-5.9292,38.0892,434.2041],[-5.9107,38.0782,399.9295],[-5.9079,38.0683,393.282],[-5.9089,38.0629,386.6449],[-5.9116,38.0628,389.4126],[-5.9132,38.0596,382.6034],[-5.9179,38.0562,377.9868],[-5.9192,38.0498,378.6545],[-5.9283,38.0502,387.3873],[-5.9341,38.0469,366.779],[-5.9366,38.0387,349.5477],[-5.9326,38.0315,343.6783],[-5.9368,38.028,338.5668],[-5.9363,38.0244,334.5],[-5.9404,38.0149,335.0],[-5.9448,38.0107,337.0061],[-5.945,38.007,336.4879],[-5.9536,37.9954,335.0],[-5.9557,37.9984,335.0],[-5.9613,37.9997,335.0],[-5.9774,37.9998,373.9639],[-5.9868,37.998,378.9876],[-5.9934,37.9996,381.3143],[-6.0061,37.9914,550.2854],[-6.0129,37.9934,573.6501],[-6.017,37.9911,611.8964],[-6.0241,37.9933,585.6639],[-6.0312,37.9977,622.7192],[-6.0406,37.995,615.3834],[-6.0443,37.997,602.1301],[-6.0522,37.9967,543.8276],[-6.0552,37.9923,511.7351],[-6.0617,37.9915,491.306],[-6.0652,37.9885,508.9665],[-6.0777,37.9846,585.6899],[-6.0827,37.9857,581.2096],[-6.09,37.9845,625.2043],[-6.0943,37.9816,714.8932],[-6.1152,37.9818,582.1697],[-6.1297,37.9731,523.866],[-6.1361,37.9722,497.0779],[-6.1423,37.9658,471.0581],[-6.1492,37.9661,465.7038],[-6.1485,37.9626,460.8239],[-6.1544,37.9576,447.1846],[-6.1677,37.9558,445.2586],[-6.1678,37.9519,442.7686],[-6.1773,37.9461,424.399],[-6.1801,37.941,425.3424],[-6.1856,37.9451,427.6149],[-6.1961,37.9491,430.3794],[-6.194,37.9547,433.5894],[-6.202,37.9595,446.2574],[-6.2003,37.9606,471.1674],[-6.2011,37.9619,456.5541],[-6.2039,37.9622,480.7378],[-6.2052,37.9597,463.8695],[-6.2093,37.9586,469.9288],[-6.2102,37.9607,479.435],[-6.2144,37.9614,466.1386],[-6.2331,37.958,471.8845],[-6.2396,37.9591,475.9673],[-6.2459,37.9631,480.6393],[-6.2461,37.9659,491.8535],[-6.2524,37.9716,489.3958],[-6.28,37.9735,506.4771],[-6.2888,37.9766,517.3505],[-6.3032,37.9783,527.0009],[-6.309,37.9852,533.3124],[-6.3196,37.9902,554.912],[-6.3216,37.9934,550.9828],[-6.3292,37.9983,567.0598],[-6.3334,37.9981,569.6882],[-6.346,38.0024,601.282],[-6.3526,38.0074,618.7416],[-6.359,38.0167,620.4316],[-6.3581,38.0263,824.2343],[-6.3629,38.0431,1029.5082],[-6.3671,38.0461,1035.3918],[-6.3671,38.0489,999.534],[-6.3883,38.0481,1000.3171],[-6.4022,38.0525,919.6653],[-6.4138,38.0586,905.6774],[-6.4357,38.0575,840.2869],[-6.4431,38.0592,830.2115],[-6.4523,38.056,635.5152],[-6.4436,38.0476,643.6638],[-6.4442,38.0461,629.4705],[-6.4475,38.0437,603.0715],[-6.4522,38.0429,585.1572],[-6.461,38.0357,555.2654],[-6.4657,38.0353,563.429],[-6.4657,38.0322,589.251],[-6.4695,38.0311,645.1815],[-6.4737,38.0244,804.7114],[-6.4721,38.0158,612.5049],[-6.4646,38.0138,651.0005],[-6.4653,38.011,529.3533],[-6.4692,38.0121,530.9015],[-6.4704,38.01,505.5656],[-6.4785,38.0081,493.1932],[-6.4799,38.0096,507.4937],[-6.4842,38.008,468.341],[-6.4916,38.0095,422.0585],[-6.4916,38.0121,423.0296],[-6.4955,38.0152,442.7677],[-6.4927,38.0164,435.3081],[-6.4949,38.0191,509.3337],[-6.5247,38.0215,691.0699],[-6.5456,38.0281,768.2253],[-6.5651,38.027,668.9355],[-6.5714,38.0241,656.29],[-6.5695,38.0227,632.3917],[-6.572,38.0202,658.0872],[-6.5787,38.0221,667.4398],[-6.5822,38.0209,722.3455],[-6.586,38.0237,732.3811],[-6.5846,38.0266,707.507],[-6.587,38.0268,726.2172],[-6.5837,38.0343,692.1091],[-6.5843,38.0442,740.9225],[-6.5804,38.0528,713.4008],[-6.5942,38.0669,602.2157],[-6.5994,38.075,599.2308],[-6.604,38.0773,592.7985],[-6.6073,38.0834,562.1466],[-6.6123,38.0859,553.2062],[-6.6223,38.0972,504.5787],[-6.6271,38.0983,490.2544],[-6.6372,38.0962,480.0225],[-6.6416,38.0976,481.1055],[-6.646,38.0913,466.5022],[-6.6492,38.09,475.4662],[-6.6513,38.0931,459.5531],[-6.65,38.0953,461.6547],[-6.6536,38.0965,463.2279],[-6.6586,38.0953,458.9878],[-6.6592,38.0926,448.4308],[-6.6609,38.0925,448.2944],[-6.6761,38.0953,458.9095],[-6.6799,38.0974,440.4906],[-6.682,38.0968,435.4359],[-6.6898,38.1,415.9017],[-6.6917,38.095,422.7366],[-6.7068,38.0965,405.7301],[-6.7153,38.0926,399.9966],[-6.7168,38.0999,391.4069],[-6.7196,38.1006,403.1516],[-6.7236,38.0971,384.4797],[-6.7265,38.0973,384.4555],[-6.7284,38.1,386.8429],[-6.735,38.0935,387.2269],[-6.7303,38.0924,373.1555],[-6.7319,38.0901,374.5321],[-6.7421,38.0933,365.6096],[-6.7472,38.0914,368.5336],[-6.7544,38.095,361.328],[-6.7581,38.0927,353.2339],[-6.7609,38.0979,350.3801],[-6.7699,38.0997,344.715],[-6.7644,38.1024,348.0635],[-6.7648,38.106,345.0411],[-6.7716,38.1032,350.1887],[-6.7735,38.1047,355.3935],[-6.7696,38.112,328.1364],[-6.7753,38.1125,351.2434],[-6.7799,38.109,326.8892],[-6.7822,38.1118,326.3334],[-6.7847,38.1116,324.5603],[-6.789,38.1092,318.9848],[-6.7972,38.1107,309.8933],[-6.7977,38.1139,329.9942],[-6.7998,38.1148,312.7251],[-6.8082,38.1112,305.3397],[-6.8157,38.1201,299.3158],[-6.8101,38.1327,432.7388],[-6.7994,38.1438,454.369],[-6.7988,38.1552,503.8661],[-6.7943,38.1596,512.0295],[-6.7928,38.1666,543.1768],[-6.7927,38.173,527.9089],[-6.795,38.1785,511.2678],[-6.8056,38.1787,483.2438],[-6.8222,38.1738,535.4152],[-6.8483,38.1772,491.5869],[-6.858,38.1799,506.9176],[-6.8828,38.1933,439.5763],[-6.8923,38.1954,329.7775],[-6.8941,38.198,306.4382],[-6.8979,38.1985,313.3292],[-6.9014,38.2013,268.0352],[-6.9223,38.2003,267.7706],[-6.925,38.2019,224.1095],[-6.9246,38.2053,202.1063],[-6.9268,38.2044,196.6213],[-6.9315,38.2083,195.1324],[-6.9348,38.2005,259.5704],[-6.9426,38.1933,303.5598],[-6.9536,38.1863,273.435],[-6.9614,38.1768,264.7812],[-6.9656,38.1679,209.1521],[-6.9692,38.1663,214.6194],[-6.9684,38.1593,200.8418],[-6.9625,38.1547,203.6784],[-6.958,38.1563,199.4315],[-6.9522,38.1528,200.6818],[-6.959,38.1501,204.3335],[-6.9583,38.1455,209.9389],[-6.9614,38.1405,205.1959],[-6.958,38.137,218.7372],[-6.9594,38.1335,253.9022],[-6.9649,38.132,276.074],[-6.9639,38.1312,267.6432],[-6.9657,38.1298,291.8295],[-6.9648,38.1278,290.5153],[-6.9677,38.1253,362.1498],[-6.9724,38.1148,385.0906],[-6.9706,38.1105,373.3775],[-6.9753,38.1079,361.4408],[-6.9756,38.1042,348.2672],[-6.9789,38.1051,342.7515],[-6.9828,38.1028,339.1255],[-6.9867,38.104,337.5815],[-6.9878,38.102,350.4321],[-6.9899,38.09,361.368],[-6.9874,38.0749,374.7328],[-6.9907,38.0668,366.0099],[-6.9898,38.0556,400.3249],[-6.9998,38.0495,464.4456],[-7.0021,38.0447,501.2056],[-7.0026,38.0425,506.9785],[-6.999,38.036,513.7757],[-7.003,38.03,442.0376],[-7.002,38.0224,529.6114],[-7.0044,38.0231,531.3818],[-7.0072,38.0208,522.7756],[-7.0147,38.0211,557.7122],[-7.025,38.0247,546.9938],[-7.038,38.0176,528.8278],[-7.0429,38.0165,507.3739],[-7.0447,38.014,520.5209],[-7.0468,38.0143,507.2959],[-7.0484,38.0154,507.2959],[-7.0479,38.0177,473.0479],[-7.057,38.019,452.1365],[-7.0595,38.0173,439.9189],[-7.0635,38.0196,444.8412],[-7.0641,38.0228,425.1547],[-7.0621,38.0267,415.718],[-7.0642,38.027,421.9354],[-7.0643,38.0284,407.5224],[-7.0667,38.0274,401.0885],[-7.0683,38.031,396.9218],[-7.0672,38.0336,423.9881],[-7.0713,38.0339,407.1064],[-7.0738,38.0322,375.4057],[-7.0803,38.0351,358.9242],[-7.0828,38.0337,373.6717],[-7.0821,38.036,348.1443],[-7.0901,38.0381,350.1472],[-7.0908,38.0404,337.6632],[-7.093,38.0401,344.6104],[-7.0934,38.0418,337.512],[-7.0987,38.0438,333.1631],[-7.1036,38.0409,326.5088],[-7.1083,38.0409,318.1411],[-7.1108,38.0362,312.0197],[-7.1123,38.0377,315.1466],[-7.1152,38.0365,315.5681],[-7.1139,38.0358,320.9921],[-7.1161,38.0318,312.3757],[-7.1176,38.0326,296.8166],[-7.1194,38.0307,284.6796],[-7.1209,38.033,281.3261],[-7.1283,38.0295,276.5515],[-7.1284,38.0272,278.7736],[-7.1249,38.0249,299.9897],[-7.1271,38.0221,320.2481],[-7.132,38.0216,325.6703],[-7.1277,38.0197,321.9753],[-7.1291,38.0108,359.8613],[-7.1207,38.0046,416.1546],[-7.125,38.0044,430.6626],[-7.1373,37.999,444.4766],[-7.1452,38.0029,423.7431],[-7.1498,38.0009,410.4501],[-7.1505,37.9978,402.1468],[-7.1562,37.994,408.9495],[-7.1599,37.9953,403.8055],[-7.163,37.9941,394.3154],[-7.1649,37.9959,387.3352],[-7.1735,37.9928,371.8415],[-7.1774,37.9984,368.0606],[-7.184,37.9966,354.3075],[-7.1837,37.9983,358.9332],[-7.187,38.0027,342.5701],[-7.1931,38.0007,325.9267],[-7.2023,38.0034,316.3423],[-7.207,38.0003,315.6919],[-7.2057,37.9977,309.3828],[-7.216,37.996,293.0455],[-7.2186,37.9926,296.2416],[-7.2267,37.9881,307.6882],[-7.2307,37.9915,307.8536],[-7.2325,37.9897,320.1548],[-7.2457,37.9922,294.9969],[-7.25,37.9856,292.0215],[-7.2534,37.9854,284.4796],[-7.256,37.9814,290.875],[-7.2592,37.9818,291.3601],[-7.2599,37.9795,296.0576],[-7.2624,37.9799,291.4123],[-7.2618,37.9775,278.3251],[-7.2497,37.9669,258.3177],[-7.2518,37.9597,219.3682],[-7.2483,37.9545,193.8181],[-7.2508,37.9526,191.1113],[-7.2513,37.9485,177.4639],[-7.2548,37.9457,173.0154],[-7.2528,37.9445,161.3833],[-7.2525,37.9415,168.4969],[-7.2544,37.9392,156.4471],[-7.2531,37.9385,144.8475],[-7.2578,37.9331,141.826],[-7.2551,37.9227,141.6319],[-7.2582,37.9221,144.2682],[-7.2619,37.9243,142.1631],[-7.2614,37.9182,151.7288],[-7.2679,37.9126,147.8342],[-7.2695,37.9063,143.7655],[-7.2741,37.9045,141.4909],[-7.2749,37.9019,138.5447],[-7.2736,37.8991,149.1049],[-7.2822,37.8977,143.9827],[-7.2826,37.8882,137.5158],[-7.2796,37.8765,135.3133],[-7.2821,37.8744,160.8642],[-7.2835,37.8689,146.5453],[-7.2895,37.8612,147.9247],[-7.2976,37.8567,138.7917],[-7.3013,37.8416,115.3316],[-7.3101,37.8358,110.5535],[-7.3139,37.8288,115.108],[-7.3203,37.8235,116.2823],[-7.3212,37.8189,105.8114],[-7.3244,37.8158,104.1696],[-7.3335,37.8125,128.044],[-7.3418,37.8066,111.0672],[-7.3467,37.8055,101.9148],[-7.3516,37.8006,105.7859],[-7.3571,37.7988,108.4641],[-7.3605,37.7937,108.553],[-7.3661,37.7927,98.7792],[-7.3686,37.7874,107.7134],[-7.3788,37.7823,121.4495],[-7.3826,37.775,95.4044],[-7.3909,37.7713,94.2563],[-7.3967,37.764,93.9462],[-7.4076,37.7672,88.5177],[-7.4094,37.7666,91.6709],[-7.41,37.7628,86.0156],[-7.4132999999999996,37.7598,88.4278],[-7.4214,37.7589,99.6743],[-7.4227,37.755,96.7926],[-7.4188,37.7488,106.1373],[-7.4187,37.7438,84.6509],[-7.4286,37.741,79.2738],[-7.4287,37.7371,92.6694],[-7.4264,37.734,81.9204],[-7.4313,37.7206,72.4438],[-7.4362,37.7183,75.1964],[-7.4402,37.7063,77.4993],[-7.4394,37.7004,113.2846],[-7.4412,37.6997,69.0987],[-7.4437,37.702,65.7739],[-7.4478,37.6975,70.7326],[-7.4438,37.6886,71.078],[-7.4476,37.6817,84.5489],[-7.4523,37.6774,68.1918],[-7.4489,37.6747,62.9979],[-7.4436,37.6646,75.1278],[-7.4556,37.6622,54.1283],[-7.4514,37.6586,59.1237],[-7.4546,37.6548,52.0],[-7.4531,37.6485,55.3813],[-7.4544,37.6464,56.3678],[-7.458,37.6463,52.0],[-7.4638,37.6497,54.5292],[-7.4672,37.6494,59.0512],[-7.4636,37.6419,65.108],[-7.4667,37.6372,53.3423],[-7.471,37.6349,52.0],[-7.4703,37.625,52.0],[-7.4779,37.6258,52.0],[-7.4823,37.6241,52.0],[-7.4797,37.6184,53.2194],[-7.4863,37.6123,52.0],[-7.4856,37.6096,52.0],[-7.4888,37.604,52.0],[-7.4909,37.6035,58.9447],[-7.4971,37.6071,57.5157],[-7.5038,37.6048,52.0],[-7.5003,37.5973,52.0],[-7.4965,37.5947,52.0],[-7.4975,37.5906,52.0],[-7.5018,37.5853,52.0],[-7.5013,37.578,52.0],[-7.5077,37.576,52.0],[-7.5141,37.5718,52.0],[-7.5155,37.5688,52.0],[-7.5134,37.5659,52.0],[-7.5102,37.5675,54.4517],[-7.5075,37.5668,52.0],[-7.5069,37.5568,52.0],[-7.5127,37.5602,52.0],[-7.5194,37.5595,52.0],[-7.5227,37.5558,12.8499],[-7.5201,37.5474,6.1322],[-7.5123,37.5378,1.0715],[-7.5117,37.5249,0.0],[-7.5052,37.5224,8.8775],[-7.4954,37.5234,11.7053],[-7.4922,37.5222,0.0],[-7.4903,37.5184,6.8862],[-7.4909,37.5089,9.8678],[-7.4841,37.4983,0.0],[-7.4797,37.4954,16.5783],[-7.4708,37.4933,1.0321],[-7.4638,37.4872,13.0881],[-7.4639,37.4838,4.1025],[-7.4693,37.4785,0.0],[-7.4688,37.4685,2.657],[-7.4652,37.461,0.0],[-7.4567,37.4524,0.8954],[-7.4592,37.4399,0.0],[-7.4575,37.4293,0.0],[-7.4455,37.4194,5.6108],[-7.448,37.4155,4.5262],[-7.4613,37.4131,0.0],[-7.4627,37.409,0.0],[-7.461,37.4067,0.7776],[-7.449,37.401,0.0],[-7.4405,37.391,0.0],[-7.4363,37.3614,0.0],[-7.4378,37.3554,0.0],[-7.4448,37.3465,0.0],[-7.4448,37.3419,0.0],[-7.439,37.3269,0.0],[-7.4422,37.3113,0.0],[-7.4333,37.2881,0.0],[-7.4217,37.2738,0.0],[-7.423,37.27,0.0],[-7.432,37.2594,0.0],[-7.4336,37.2501,0.0],[-7.431,37.2452,0.0],[-7.4196,37.2381,0.0],[-7.4135,37.2254,0.0],[-7.4137,37.2106,0.0],[-7.4073,37.1834,0.0],[-7.4036,37.1777,0.0],[-7.3985,37.1793,1.0967],[-7.3801,37.1718,0.0],[-7.3735,37.1721,4.7827],[-7.3507,37.1774,1.8068],[-7.3451,37.1829,7.6752],[-7.3449,37.1824,7.6752],[-7.3457,37.1815,3.882],[-7.3435,37.1815,3.4923],[-7.3435,37.1835,7.6752],[-7.3329,37.1849,2.2431],[-7.3393,37.1899,0.1634],[-7.3379,37.196,0.1907],[-7.3321,37.2001,0.0],[-7.3318,37.2035,0.0],[-7.3335,37.2049,0.2567],[-7.3435,37.2046,0.0061],[-7.3537,37.2007,0.0735],[-7.3607,37.2029,0.1859],[-7.3596,37.2038,0.8659],[-7.3554,37.2021,0.4536],[-7.3385,37.2074,0.2157],[-7.3315,37.2062,0.0],[-7.3335,37.2096,0.2459],[-7.3376,37.211,0.0477],[-7.3335,37.2104,0.2459],[-7.3301,37.2068,0.2523],[-7.3237,37.206,0.0],[-7.3221,37.211,0.228],[-7.3215,37.2068,0.0],[-7.3165,37.2088,0.5197],[-7.3154,37.2029,0.0],[-7.3112,37.201,0.2541],[-7.3135,37.2001,5.373],[-7.3157,37.2018,0.9545],[-7.3179,37.2076,0.0],[-7.3212,37.2049,3.4937],[-7.3296,37.2057,0.2523],[-7.329,37.1971,0.0],[-7.336,37.1901,0.0],[-7.3312,37.1865,-0.0937],[-7.331,37.1885,-0.0363],[-7.3349,37.1901,0.0],[-7.3315,37.1932,1.4823],[-7.3299,37.1924,2.0443],[-7.3215,37.1943,5.015],[-7.3163,37.1932,1.1488],[-7.2876,37.201,5.2113],[-7.2749,37.2026,5.9753],[-7.2096,37.2046,0.8115],[-7.1896,37.2071,2.3118],[-7.1882,37.209,2.8511],[-7.1868,37.2071,2.8149],[-7.1754,37.2065,1.4857],[-7.1443,37.2085,1.3967],[-7.0771,37.2071,1.6546],[-7.0662,37.2051,0.9663],[-7.064,37.2062,1.519],[-7.0651,37.2079,0.0],[-7.0779,37.2104,1.2722],[-7.1038,37.2104,3.3027],[-7.1285,37.2135,0.8101],[-7.1576,37.2101,5.3064],[-7.1704,37.2157,0.2271],[-7.1737,37.2188,0.0],[-7.1751,37.2226,0.0],[-7.1718,37.2235,0.0],[-7.1682,37.2304,0.8959],[-7.1687,37.2365,0.8882],[-7.1651,37.2454,0.0],[-7.1629,37.2612,0.4156],[-7.1649,37.2626,0.422],[-7.1696,37.2615,0.9179],[-7.1718,37.2629,0.2505],[-7.1732,37.2699,0.0],[-7.1776,37.2757,4.0734],[-7.1769,37.2765,4.0734],[-7.1729,37.2718,0.1597],[-7.1704,37.2632,0.2505],[-7.161,37.2651,0.8338],[-7.1632,37.2457,0.4731],[-7.1662,37.2371,0.0],[-7.164,37.2421,0.791],[-7.1571,37.2432,2.2826],[-7.1524,37.236,0.3908],[-7.1574,37.2346,0.7033],[-7.1576,37.2329,0.7868],[-7.1549,37.2301,0.3912],[-7.1568,37.2265,0.6485],[-7.1621,37.2257,0.59],[-7.1662,37.2268,0.0],[-7.1676,37.2249,0.5542],[-7.1676,37.2179,0.0],[-7.1626,37.214,0.0],[-7.1507,37.2132,0.0],[-7.1365,37.2176,0.2527],[-7.119,37.2163,0.0],[-7.1162,37.2149,0.0],[-7.0843,37.2149,1.6319],[-7.0341,37.2057,6.0299],[-7.0174,37.2004,1.94],[-6.9707,37.1782,0.3704],[-6.9518,37.1718,2.7073],[-6.9479,37.1682,0.0],[-6.9485,37.1638,0.0],[-6.9474,37.1654,0.0],[-6.9479,37.1715,0.0],[-6.9649,37.1879,4.1517],[-6.9674,37.1963,0.8451],[-6.9735,37.2029,0.0],[-6.9779,37.2068,0.439],[-6.9963,37.209,0.1924],[-7.0006,37.2171,0.0],[-7.0046,37.2193,0.0],[-7.0082,37.2193,0.0],[-7.0032,37.2199,0.0],[-6.9993,37.2185,1.1258],[-6.9938,37.209,0.0],[-6.9779,37.2082,0.0],[-6.9821,37.2151,0.0],[-6.9829,37.214,0.0],[-6.9801,37.211,0.0],[-6.9807,37.2096,0.2946],[-6.9938,37.2099,0.0],[-6.9988,37.219,0.2367],[-7.004,37.2207,0.0],[-7.0115,37.2193,0.0],[-7.0151,37.2121,0.0],[-7.0226,37.214,1.1867],[-7.0232,37.2163,1.5139],[-7.0213,37.2182,0.6659],[-7.0221,37.2229,6.4261],[-7.0179,37.2226,0.159],[-7.0151,37.2251,0.7526],[-7.0159,37.2268,2.3619],[-7.0179,37.2268,2.3619],[-7.0157,37.2321,0.0],[-7.0165,37.2346,0.6667],[-7.0132,37.234,0.8148],[-7.0126,37.2365,1.0246],[-7.0087,37.236,0.4947],[-7.0085,37.2388,1.6384],[-7.0101,37.2385,4.7515],[-7.0099,37.2396,4.872],[-7.0057,37.239,2.8283],[-7.0035,37.2412,1.5343],[-7.0051,37.2429,0.0],[-7.0079,37.2424,1.7046],[-7.0065,37.2443,1.9262],[-6.999,37.2435,0.0],[-6.9982,37.2479,0.0],[-6.994,37.2491,0.0],[-6.9971,37.2568,0.2473],[-6.9956,37.2574,0.7673],[-6.988,37.2551,0.0],[-6.9843,37.249,0.0],[-6.9882,37.2479,0.0],[-6.9901,37.2424,0.0],[-6.9946,37.2385,0.1895],[-6.9951,37.2357,0.0],[-6.9996,37.2349,0.0],[-7.0012,37.2318,0.411],[-7.0032,37.2318,0.0],[-7.0012,37.2285,0.0],[-6.9963,37.2251,0.0],[-6.9879,37.2238,0.0],[-6.984,37.2185,0.0],[-6.9868,37.224,0.0],[-6.9963,37.226,0.0],[-7.0004,37.2301,0.0],[-6.9985,37.234,0.0],[-6.9943,37.2351,0.2466],[-6.9938,37.2376,0.1895],[-6.9907,37.2396,0.3027],[-6.9874,37.2477,0.0],[-6.9832,37.2487,0.6448],[-6.9876,37.2568,0.0],[-6.9829,37.2504,0.2333],[-6.971,37.2435,0.1108],[-6.9737,37.2332,0.6189],[-6.9657,37.2171,0.0],[-6.9579,37.216,0.0],[-6.961,37.2212,0.6706],[-6.9621,37.2443,0.0],[-6.9654,37.2527,0.4042],[-6.9682,37.2507,0.5381],[-6.966,37.2532,0.4042],[-6.9671,37.256,0.8968],[-6.966,37.2571,0.0],[-6.9846,37.269,0.4576],[-6.9885,37.2679,0.4767],[-6.9946,37.2599,0.0],[-6.9893,37.2565,0.0],[-6.9938,37.2588,0.0],[-7.0018,37.2574,0.6526],[-6.9954,37.2596,0.1773],[-6.9893,37.2679,1.2393],[-6.9862,37.2699,0.866],[-6.9829,37.2696,1.8187],[-6.9729,37.264,0.0],[-6.9729,37.2651,0.0],[-6.9804,37.2701,0.4734],[-6.9826,37.2762,1.2192],[-6.9782,37.269,0.7908],[-6.9699,37.2643,0.1083],[-6.9676,37.2651,0.1293],[-6.9665,37.2687,0.5936],[-6.9735,37.2788,0.0],[-6.9724,37.2888,0.0],[-6.9779,37.2976,0.7325],[-6.9793,37.3095,1.232],[-6.9757,37.2973,0.1667],[-6.9726,37.2957,1.5592],[-6.9713,37.2938,1.1581],[-6.9704,37.281,1.1303],[-6.9682,37.2768,0.0705],[-6.9665,37.2768,0.0705],[-6.9665,37.2813,0.6501],[-6.966,37.2768,0.0],[-6.9643,37.2765,0.0],[-6.9612,37.2835,0.0],[-6.9599,37.289,0.0],[-6.9618,37.2926,0.2609],[-6.961,37.2974,1.0472],[-6.9579,37.2996,0.3761],[-6.961,37.296,0.0],[-6.9585,37.2893,0.0],[-6.9554,37.2962,0.3105],[-6.9543,37.2957,0.3105],[-6.9607,37.2779,0.0],[-6.959,37.2771,1.0125],[-6.9574,37.2793,0.5151],[-6.9568,37.2846,0.8366],[-6.956,37.2813,0.0],[-6.9543,37.2829,0.441],[-6.9551,37.2899,0.5104],[-6.9543,37.2893,0.5104],[-6.9535,37.2835,0.7213],[-6.9543,37.2793,0.0459],[-6.9626,37.269,0.0],[-6.9643,37.264,1.6442],[-6.9588,37.2515,0.0],[-6.9596,37.2485,0.0],[-6.9587,37.2476,0.0],[-6.9579,37.2495,0.8511],[-6.9566,37.2468,0.0],[-6.9554,37.2415,3.9989],[-6.9565,37.2404,0.0],[-6.9551,37.2401,2.4973],[-6.9571,37.2382,0.0],[-6.9546,37.2382,1.7697],[-6.9538,37.2349,3.5645],[-6.9571,37.2337,0.0],[-6.9535,37.2335,3.1447],[-6.9532,37.2296,1.9127],[-6.9562,37.229,0.0],[-6.9529,37.2287,0.8405],[-6.9518,37.2254,2.2601],[-6.9546,37.2246,0.0],[-6.9515,37.2249,2.2601],[-6.9505,37.2215,0.0],[-6.9535,37.2188,0.0],[-6.9498,37.2202,0.3212],[-6.9465,37.2146,0.0],[-6.9426,37.2121,0.4315],[-6.9379,37.2132,0.0],[-6.936,37.2179,0.8167],[-6.9224,37.231,0.8158],[-6.921,37.2335,0.0],[-6.9215,37.2376,1.5792],[-6.9196,37.2349,0.0],[-6.9179,37.2349,0.0],[-6.8946,37.2546,1.9957],[-6.8899,37.2605,0.2221],[-6.8885,37.2674,5.436],[-6.8882,37.2643,0.0],[-6.884,37.2671,0.0],[-6.8821,37.2718,0.6291],[-6.8815,37.2699,0.0],[-6.8801,37.2701,0.0],[-6.8682,37.2912,0.8865],[-6.8596,37.2938,1.3565],[-6.866,37.2896,0.2666],[-6.8754,37.2735,1.381],[-6.876,37.269,0.0],[-6.8751,37.2679,0.0],[-6.8685,37.2732,0.0],[-6.8637,37.2732,0.7456],[-6.8679,37.2724,0.0],[-6.8749,37.2674,0.0],[-6.8796,37.2596,0.3391],[-6.9021,37.2407,0.3431],[-6.9071,37.2326,0.0],[-6.9343,37.2085,0.0],[-6.934,37.2063,0.0],[-6.9385,37.2071,0.0],[-6.9401,37.2057,0.0],[-6.939,37.2015,0.0],[-6.937,37.2021,5.7624],[-6.934,37.1991,4.1857],[-6.9349,37.1968,5.0248],[-6.9365,37.1968,3.6177],[-6.9385,37.1996,0.0],[-6.9374,37.1954,3.7217],[-6.9337,37.1968,5.0248],[-6.9307,37.1957,13.1957],[-6.9318,37.1924,5.5592],[-6.9362,37.1926,0.3113],[-6.9318,37.186,0.0],[-6.924,37.1829,1.0259],[-6.9196,37.1793,2.7757],[-6.9215,37.1765,0.0],[-6.9174,37.1768,0.0],[-6.909,37.1718,1.7503],[-6.9129,37.1701,0.0],[-6.9107,37.169,0.0],[-6.9085,37.1707,4.7885],[-6.9057,37.1688,2.7808],[-6.9082,37.1671,0.0],[-6.9046,37.1654,0.0],[-6.9057,37.1671,0.0],[-6.9037,37.1682,4.1023],[-6.8974,37.1641,2.6716],[-6.899,37.1607,0.0],[-6.8971,37.1601,0.0],[-6.8962,37.1624,2.0672],[-6.896,37.1607,0.1416],[-6.8904,37.1571,1.3398],[-6.8751,37.1488,3.6646],[-6.8715,37.1488,4.4817],[-6.8368,37.1363,7.494],[-6.8338,37.1346,0.4107],[-6.8338,37.1315,0.7528],[-6.8299,37.131,0.3564],[-6.8315,37.1296,1.0921],[-6.8351,37.1318,0.0],[-6.8318,37.1285,0.0],[-6.8293,37.1285,0.0],[-6.8279,37.1313,2.8072],[-6.826,37.1315,3.8394],[-6.821,37.1288,5.3948],[-6.8076,37.126,14.3143],[-6.7799,37.1151,4.6455],[-6.7468,37.0996,3.5091],[-6.5982,37.0238,7.5499],[-6.5201,36.9768,0.5305],[-6.4999,36.9601,1.9671],[-6.4615,36.9232,2.8279],[-6.4474,36.9057,4.1383],[-6.4268,36.8701,5.4295],[-6.4193,36.8526,0.8476],[-6.3971,36.8099,0.0],[-6.3904,36.8035,1.251],[-6.3851,36.801,2.458],[-6.3799,36.8007,3.9389],[-6.3729,36.7968,1.5214],[-6.3562,36.7969,0.0],[-6.3526,36.799,6.033],[-6.349,36.7976,0.0],[-6.3465,36.7912,2.8994],[-6.3574,36.7871,0.0],[-6.3637,36.7826,0.0],[-6.3665,36.7788,2.4568],[-6.3738,36.7771,0.4507],[-6.3826,36.7696,5.5801],[-6.3979,36.7615,3.7634],[-6.409,36.7613,0.0],[-6.4129,36.7521,7.8347],[-6.4196,36.7457,1.8589],[-6.4254,36.7443,2.0162],[-6.4285,36.7496,0.0],[-6.4318,36.7468,0.5379],[-6.4321,36.7433,6.2933],[-6.4418,36.7393,0.0457],[-6.4426,36.7371,1.7505],[-6.4399,36.7326,0.4117],[-6.4393,36.7201,4.2314],[-6.4376,36.7168,4.4281],[-6.4343,36.7129,4.824],[-6.4313,36.7051,0.0],[-6.4207,36.691,5.8181],[-6.4104,36.671,2.8009],[-6.4035,36.6615,0.0],[-6.3982,36.6585,3.3737],[-6.3976,36.6543,1.7962],[-6.3929,36.6457,4.9141],[-6.3937,36.634,5.858],[-6.3868,36.6285,0.0],[-6.3549,36.6151,0.219],[-6.3515,36.6157,0.2754],[-6.3535,36.6196,0.4527],[-6.3565,36.6196,2.017],[-6.356,36.6215,2.8607],[-6.3424,36.6265,4.2013],[-6.3354,36.6255,7.4841],[-6.3365,36.621,3.4562],[-6.331,36.6146,0.4374],[-6.3296,36.6165,0.0],[-6.3312,36.6179,0.7942],[-6.3301,36.6207,0.8479],[-6.3315,36.6224,0.0],[-6.3296,36.6232,2.9106],[-6.3299,36.6251,1.5826],[-6.3254,36.6249,1.982],[-6.3207,36.6221,0.6088],[-6.3157,36.6221,2.56],[-6.309,36.616,0.8968],[-6.3063,36.6182,3.5367],[-6.2976,36.6168,13.0232],[-6.2935,36.6129,0.0],[-6.2876,36.6113,2.6215],[-6.2768,36.6007,23.4056],[-6.2701,36.5893,7.0719],[-6.2696,36.5829,0.0],[-6.2651,36.5793,0.0],[-6.2621,36.5804,1.3175],[-6.2543,36.5774,0.3535],[-6.2499,36.5799,0.0],[-6.2493,36.584,14.0819],[-6.2413,36.5865,3.0004],[-6.2368,36.586,3.4381],[-6.236,36.5846,0.8789],[-6.2304,36.5876,0.0],[-6.2385,36.579,0.0],[-6.2274,36.5812,2.985],[-6.2232,36.5682,1.4047],[-6.2246,36.5635,0.0],[-6.2235,36.5621,1.5636],[-6.2243,36.5524,1.323],[-6.2265,36.5515,0.0],[-6.2257,36.5479,0.9082],[-6.2318,36.5337,0.8158],[-6.2312,36.5282,0.176],[-6.2293,36.5265,0.0],[-6.2218,36.5274,0.3274],[-6.2176,36.5299,0.0],[-6.2093,36.549,0.2937],[-6.2068,36.5607,0.0],[-6.2138,36.5679,1.1286],[-6.2143,36.5713,0.7573],[-6.2057,36.5638,0.8512],[-6.2051,36.5568,3.4979],[-6.2079,36.546,1.6066],[-6.2187,36.5265,2.9877],[-6.2337,36.5243,3.3754],[-6.2418,36.5285,2.7442],[-6.256,36.5293,1.4596],[-6.2549,36.5251,4.5265],[-6.2574,36.5243,0.9026],[-6.2565,36.5207,2.5709],[-6.2474,36.5187,0.5802],[-6.2496,36.5168,0.4066],[-6.2496,36.5137,0.0],[-6.2457,36.5085,0.0],[-6.249,36.5049,0.0],[-6.2438,36.5079,0.0],[-6.2329,36.5035,0.0],[-6.2143,36.511,0.0],[-6.2087,36.5088,0.0],[-6.2024,36.5179,0.0],[-6.1965,36.5221,0.0],[-6.2001,36.524,0.0],[-6.1985,36.5251,0.0],[-6.1993,36.5276,0.5038],[-6.1921,36.5249,0.4653],[-6.181,36.5243,2.6266],[-6.1737,36.5213,1.1299],[-6.1718,36.514,0.0],[-6.1729,36.5099,0.0],[-6.1815,36.5079,0.0],[-6.1824,36.5054,0.1213],[-6.1882,36.5018,0.0],[-6.179,36.4918,0.0],[-6.1796,36.4874,0.3364],[-6.189,36.4985,1.0571],[-6.1996,36.5004,0.0],[-6.1946,36.4954,0.0],[-6.1943,36.4907,0.0],[-6.1965,36.4863,0.0],[-6.2018,36.4854,2.1865],[-6.2063,36.4807,0.4256],[-6.2129,36.481,1.0485],[-6.2118,36.4724,0.0],[-6.2157,36.4671,0.108],[-6.2199,36.466,0.3608],[-6.2279,36.4668,0.0],[-6.2282,36.4632,0.3786],[-6.2315,36.4629,0.4744],[-6.2471,36.4657,0.3475],[-6.2529,36.4682,0.6932],[-6.2596,36.4754,3.3957],[-6.266,36.4899,1.3186],[-6.2621,36.4918,0.0],[-6.2621,36.4965,0.4841],[-6.2546,36.5007,0.0],[-6.2565,36.5024,0.0],[-6.2576,36.4999,2.3078],[-6.2607,36.5004,4.709],[-6.2624,36.5015,0.9103],[-6.2612,36.5046,0.0],[-6.2629,36.5071,2.0866],[-6.2661,36.5085,3.1442],[-6.2685,36.5068,5.3058],[-6.2685,36.5096,0.4375],[-6.2718,36.5135,3.8561],[-6.2762,36.5243,4.2731],[-6.2779,36.5238,2.1226],[-6.2801,36.526,0.0],[-6.2737,36.5285,0.0],[-6.2762,36.5307,2.4884],[-6.2735,36.5321,2.408],[-6.2721,36.5371,0.0],[-6.2762,36.536,0.0],[-6.2757,36.5332,0.6295],[-6.2796,36.5304,3.1667],[-6.2815,36.5307,1.3677],[-6.2818,36.5329,0.0],[-6.2851,36.5304,4.6398],[-6.2849,36.5332,2.602],[-6.2824,36.5332,0.0],[-6.2843,36.5346,1.5246],[-6.289,36.5315,2.1609],[-6.2913,36.5321,0.0],[-6.2913,36.5337,0.0],[-6.2851,36.5393,0.0],[-6.279,36.5421,0.0],[-6.2832,36.5435,0.5519],[-6.2882,36.5424,0.8658],[-6.2921,36.5371,0.0],[-6.3021,36.5377,0.0],[-6.3087,36.5335,0.0],[-6.3055,36.5309,11.743],[-6.3062,36.5276,1.1035],[-6.2968,36.5288,15.4189],[-6.2921,36.5268,2.7511],[-6.2865,36.5213,11.835],[-6.286,36.5168,0.4121],[-6.2693,36.4927,3.5506],[-6.2582,36.4721,3.4923],[-6.2571,36.4682,0.836],[-6.2582,36.4663,0.0],[-6.2515,36.4565,1.855],[-6.2524,36.4549,1.6602],[-6.2485,36.4441,0.0],[-6.2474,36.4435,0.0],[-6.2482,36.4479,0.0],[-6.246,36.4479,1.574],[-6.2332,36.4362,2.0046],[-6.2312,36.4274,0.0],[-6.2237,36.4176,1.7926],[-6.219,36.406,1.9809],[-6.2196,36.4038,0.0],[-6.2176,36.4004,1.2985],[-6.2185,36.394,1.2727],[-6.2171,36.3924,1.7947],[-6.2126,36.3921,1.611],[-6.211,36.399,0.0],[-6.2168,36.414,0.0],[-6.2151,36.4249,0.0],[-6.2118,36.4304,0.0],[-6.2118,36.4338,0.0],[-6.206,36.439,0.3031],[-6.2063,36.4424,0.5536],[-6.1965,36.4429,0.0626],[-6.1879,36.4349,0.0],[-6.1857,36.4351,0.0],[-6.1849,36.4412,0.4421],[-6.1838,36.4412,0.2007],[-6.1818,36.4371,0.1352],[-6.1849,36.4338,0.0],[-6.1932,36.4354,0.6759],[-6.1996,36.4393,0.0226],[-6.2023,36.4388,0.0],[-6.2099,36.426,0.283],[-6.2121,36.4162,0.0],[-6.2107,36.4113,0.0593],[-6.2065,36.4071,0.0723],[-6.2085,36.4043,0.0],[-6.204,36.4065,0.0],[-6.1985,36.4065,0.0],[-6.1951,36.404,0.0],[-6.1962,36.4029,0.0],[-6.2043,36.4038,0.0],[-6.206,36.3974,0.0],[-6.2085,36.3974,0.0],[-6.2093,36.3957,0.0],[-6.2076,36.3876,1.278],[-6.2099,36.3851,0.0],[-6.2074,36.3846,-0.0774],[-6.1985,36.3768,0.3289],[-6.1838,36.3704,1.5893],[-6.179,36.3654,0.0],[-6.1674,36.3463,15.3492],[-6.154,36.3118,0.0],[-6.1437,36.2968,0.0],[-6.1374,36.2924,0.0],[-6.1346,36.2929,0.3614],[-6.1382,36.2962,1.4421],[-6.1346,36.2949,0.0],[-6.1329,36.2971,13.3751],[-6.1188,36.2935,0.0],[-6.1149,36.2943,11.0492],[-6.0871,36.2707,1.3746],[-6.081,36.2554,2.0215],[-6.079,36.2449,1.6294],[-6.0757,36.2385,0.0],[-6.0662,36.2262,4.3531],[-6.0579,36.2101,0.0],[-6.0538,36.2062,0.0],[-6.054,36.2029,0.0],[-6.0507,36.1999,0.4125],[-6.0468,36.1993,2.316],[-6.0379,36.1904,1.4588],[-6.0354,36.186,2.3259],[-6.0362,36.1824,9.7405],[-6.0351,36.181,0.0],[-6.031,36.1801,0.0],[-6.0285,36.1815,0.0],[-6.0271,36.1862,2.3566],[-6.021,36.1862,1.5733],[-6.0157,36.1843,0.0],[-6.0099,36.1849,0.0],[-6.0062,36.1824,2.2921],[-5.9854,36.1768,0.0],[-5.9771,36.1765,0.0],[-5.9554,36.1815,0.0],[-5.9454,36.1871,11.498],[-5.9393,36.1865,5.6791],[-5.9376,36.1835,0.0],[-5.9329,36.1815,0.0],[-5.9315,36.1862,3.9145],[-5.9276,36.1857,2.4978],[-5.9262,36.1821,0.7358],[-5.9262,36.1857,3.315],[-5.9224,36.1868,1.8048],[-5.9093,36.1829,0.1938],[-5.9076,36.1801,0.0517],[-5.8985,36.1754,0.4583],[-5.8879,36.1662,0.0],[-5.8765,36.1604,0.541],[-5.8613,36.146,0.3708],[-5.854,36.1418,1.2687],[-5.8482,36.1349,1.6467],[-5.8424,36.1312,5.802],[-5.8407,36.1265,4.3915],[-5.8301,36.114,6.1501],[-5.8251,36.1057,1.7109],[-5.8246,36.1021,0.0],[-5.8157,36.1001,13.3302],[-5.8121,36.0929,0.0],[-5.8126,36.0887,0.0],[-5.8046,36.0893,7.4654],[-5.7993,36.0788,7.7206],[-5.7949,36.0774,0.5101],[-5.7904,36.0788,5.2814],[-5.7863,36.0824,2.7808],[-5.784,36.0882,6.8717],[-5.7774,36.0887,0.0],[-5.7682,36.0857,4.7933],[-5.7507,36.0713,0.0],[-5.7315,36.066,13.4012],[-5.7226,36.061,3.2108],[-5.7157,36.0607,11.3021],[-5.7107,36.0582,0.0],[-5.701,36.0621,12.0592],[-5.6921,36.069,2.3654],[-5.6885,36.0687,0.9518],[-5.6671,36.0563,1.6969],[-5.6587,36.0554,0.0],[-5.6451,36.0499,2.5558],[-5.6346,36.0412,0.4574],[-5.6238,36.0354,0.1821],[-5.6085,36.0112,0.7665],[-5.6085,36.0068,0.4024],[-5.6137,36.0035,2.5783],[-5.6112,35.9996,0.0],[-5.609,35.9996,0.0],[-5.6068,36.0021,5.4866],[-5.606,36.004,0.0],[-5.6079,36.0065,0.0],[-5.6043,36.0076,0.4158],[-5.6043,36.0099,0.0],[-5.6015,36.009,0.0],[-5.6037,36.0065,0.0],[-5.6029,36.0057,0.0],[-5.601,36.0071,0.0],[-5.601,36.011,5.5904],[-5.5813,36.0126,0.0],[-5.5671,36.0171,0.3716],[-5.5454,36.0282,4.5464],[-5.541,36.029,6.0062],[-5.5385,36.0315,4.0039],[-5.5168,36.0368,0.0],[-5.5132,36.0404,0.0],[-5.5029,36.0432,0.0],[-5.4996,36.0482,2.5042],[-5.4863,36.054,11.0588],[-5.4643,36.0499,0.0],[-5.4588,36.0537,2.5928],[-5.4507,36.0554,0.0],[-5.4468,36.0579,0.0],[-5.4482,36.0604,19.1641],[-5.4443,36.0615,0.0],[-5.4429,36.0649,0.0],[-5.4307,36.0704,0.0],[-5.4276,36.076,22.62],[-5.4246,36.0765,0.0],[-5.4254,36.0829,1.954],[-5.4351,36.0863,0.3917],[-5.4401,36.086,11.9869],[-5.4418,36.089,0.0],[-5.4435,36.089,0.0],[-5.4446,36.0938,2.3251],[-5.4399,36.1029,19.6649],[-5.4351,36.1057,8.1208],[-5.4307,36.1049,0.0],[-5.4315,36.1093,3.0912],[-5.4365,36.111,0.8796],[-5.4365,36.1154,0.0],[-5.4415,36.1168,11.2654],[-5.4429,36.1204,1.6346],[-5.4404,36.1199,0.0],[-5.436,36.1224,1.712],[-5.4363,36.1188,0.0],[-5.434,36.1207,2.1049],[-5.4299,36.1312,1.8722],[-5.4299,36.1407,0.0],[-5.4307,36.1415,0.0],[-5.4318,36.1285,2.3041],[-5.439,36.1271,0.0],[-5.4401,36.1282,1.1334],[-5.4368,36.1296,0.0],[-5.4376,36.1338,4.7945],[-5.4351,36.1362,0.0],[-5.4365,36.1387,1.2015],[-5.4351,36.1393,0.0],[-5.4343,36.1437,0.0],[-5.436,36.1479,1.4177],[-5.4412,36.1463,1.4387],[-5.4432,36.1315,0.7991],[-5.4471,36.1418,0.0],[-5.4451,36.1476,0.0],[-5.4462,36.1526,12.4618],[-5.4429,36.159,1.5588],[-5.4357,36.1688,1.5836],[-5.426,36.1768,1.4891],[-5.4229,36.1751,0.0],[-5.4204,36.1771,2.1231],[-5.4204,36.1732,0.0],[-5.419,36.1724,0.0],[-5.4157,36.174,0.0],[-5.4143,36.1804,0.3583],[-5.4115,36.1815,1.085],[-5.3987,36.1801,0.0],[-5.3985,36.1779,0.0],[-5.4001,36.1763,0.0],[-5.3943,36.1771,0.0],[-5.3976,36.179,0.0],[-5.3974,36.1807,4.7426],[-5.386,36.1804,0.4786],[-5.3804,36.1765,0.0],[-5.3832,36.1749,0.0],[-5.3821,36.1724,0.0],[-5.3832,36.1696,0.0],[-5.369,36.1682,2.0159],[-5.359,36.1637,2.6818],[-5.3585,36.1607,0.2209],[-5.3554,36.1599,0.3941],[-5.3535,36.1572,0.1108],[-5.3387,36.1549,0.0],[-5.336,36.1776,3.3632],[-5.3204,36.2229,2.0542],[-5.3149,36.2337,1.5999],[-5.3068,36.244,11.1104],[-5.2993,36.2432,0.0],[-5.2971,36.2451,0.0],[-5.2885,36.2643,2.0125],[-5.2787,36.2801,0.0],[-5.2824,36.2846,0.7415],[-5.2901,36.2896,6.1971],[-5.2907,36.294,2.4211],[-5.294,36.2965,3.0737],[-5.2907,36.2957,2.9312],[-5.2871,36.2879,1.0494],[-5.2762,36.2829,0.0],[-5.274,36.289,0.7268],[-5.2724,36.2882,0.0],[-5.2721,36.2896,0.0],[-5.2696,36.2896,0.1174],[-5.2696,36.2921,0.0],[-5.2721,36.2924,0.3221],[-5.271,36.2974,6.7064],[-5.2696,36.2993,6.45],[-5.2649,36.3007,3.8783],[-5.2632,36.3046,3.291],[-5.259,36.3079,9.0489],[-5.2587,36.311,8.9753],[-5.2499,36.3099,0.0],[-5.2463,36.311,7.5794],[-5.2446,36.319,4.0676],[-5.2424,36.3215,2.4992],[-5.2385,36.3354,7.9773],[-5.2337,36.3454,0.0],[-5.234,36.3482,6.8432],[-5.2321,36.3493,2.4992],[-5.2326,36.3521,10.221],[-5.2301,36.3546,6.735],[-5.2274,36.3537,0.0],[-5.2287,36.3576,0.1984],[-5.2218,36.3737,2.9997],[-5.2174,36.3793,2.8599],[-5.211,36.3799,0.0],[-5.2093,36.3835,2.0983],[-5.2054,36.386,1.6122],[-5.2038,36.3901,7.6043],[-5.1982,36.3929,0.0],[-5.1888,36.4051,2.6822],[-5.1776,36.414,4.6166],[-5.1657,36.4162,3.1173],[-5.1632,36.4135,0.119],[-5.1571,36.4115,0.0],[-5.1493,36.4212,0.5289],[-5.1407,36.4265,0.7241],[-5.1212,36.4282,0.0],[-5.1101,36.4326,0.9461],[-5.1026,36.4388,5.5216],[-5.0971,36.4404,0.0],[-5.0885,36.4476,6.9117],[-5.0813,36.451,7.5518],[-5.0699,36.4521,11.8175],[-5.0654,36.4499,0.0],[-5.0601,36.4499,0.0],[-5.0549,36.4524,3.8198],[-5.051,36.4524,3.4721],[-5.0446,36.4579,9.2787],[-5.0335,36.4615,3.4889],[-5.0249,36.4607,4.4451],[-5.0163,36.4621,8.0334],[-5.0104,36.4593,1.4804],[-5.006,36.4593,2.3777],[-5.0013,36.4637,0.0],[-4.9957,36.4657,3.0898],[-4.9776,36.4779,3.3971],[-4.971,36.4785,0.0],[-4.9587,36.4851,1.1464],[-4.9557,36.4854,4.068],[-4.956,36.4843,4.068],[-4.9532,36.4837,0.0],[-4.9532,36.4851,0.0],[-4.9482,36.4876,0.9375],[-4.949,36.4907,9.6324],[-4.9385,36.4985,0.8176],[-4.9329,36.5004,0.0],[-4.9265,36.4996,1.262],[-4.9124,36.5057,5.4362],[-4.8941,36.5071,13.5256],[-4.8899,36.5068,0.3181],[-4.8913,36.5051,0.0],[-4.8901,36.5046,0.0],[-4.879,36.5076,10.2262],[-4.8571,36.5074,14.9435],[-4.8432,36.5029,0.0],[-4.8149,36.499,6.219],[-4.7663,36.4874,2.514],[-4.7412,36.4846,1.6897],[-4.7393,36.4829,0.0],[-4.7371,36.486,6.6784],[-4.7115,36.4871,8.8999],[-4.7057,36.4904,1.059],[-4.694,36.4904,0.0],[-4.6904,36.4924,0.0],[-4.6885,36.4963,2.1104],[-4.6771,36.5037,0.9019],[-4.6696,36.5037,0.0],[-4.6618,36.5068,0.0],[-4.6543,36.5054,0.0],[-4.6485,36.5071,13.6098],[-4.639,36.5062,0.0],[-4.6293,36.5193,2.0108],[-4.6229,36.5354,2.6268],[-4.6201,36.5382,0.0],[-4.6154,36.5396,0.0],[-4.6143,36.5421,0.0],[-4.6151,36.5421,0.0],[-4.616,36.5396,0.0],[-4.6188,36.5399,1.8766],[-4.6163,36.541,0.0],[-4.6179,36.5449,5.1181],[-4.6093,36.5579,4.7986],[-4.6035,36.5632,0.8525],[-4.5993,36.5635,0.0],[-4.5879,36.5729,23.3829],[-4.5707,36.5771,9.4968],[-4.5643,36.5771,8.0519],[-4.5601,36.5801,1.1388],[-4.5532,36.5793,4.6076],[-4.5482,36.5807,17.2398],[-4.539,36.5785,0.0],[-4.5388,36.5807,22.269],[-4.5335,36.5815,0.0],[-4.5332,36.5849,1.518],[-4.5301,36.5882,0.5507],[-4.5215,36.5921,4.0155],[-4.5188,36.5951,3.3195],[-4.516,36.596,2.743],[-4.5146,36.5943,1.1975],[-4.5104,36.5937,0.0],[-4.5079,36.5968,0.0],[-4.5099,36.5982,5.9569],[-4.5096,36.6001,10.1943],[-4.4996,36.6154,0.935],[-4.4971,36.6162,0.0],[-4.4932,36.6254,8.6231],[-4.4879,36.6326,4.6638],[-4.4646,36.6582,1.0046],[-4.4554,36.6649,0.443],[-4.4437,36.6824,1.1887],[-4.4446,36.6843,1.6604],[-4.4421,36.6899,5.2716],[-4.4326,36.7038,4.3822],[-4.4299,36.7051,0.3944],[-4.431,36.7068,2.9207],[-4.4262,36.7101,1.936],[-4.4237,36.7076,2.4917],[-4.421,36.7079,0.9668],[-4.4212,36.7093,2.2435],[-4.4232,36.7093,2.9637],[-4.4232,36.7113,3.0062],[-4.4168,36.7176,3.8574],[-4.414,36.7177,0.9614],[-4.416,36.7129,0.1082],[-4.4146,36.7118,0.0],[-4.4068,36.7196,13.7225],[-4.3949,36.7229,3.6511],[-4.3813,36.7201,0.0],[-4.3573,36.7185,0.3543],[-4.3471,36.7163,1.5652],[-4.3457,36.7135,0.0],[-4.3301,36.7132,1.6292],[-4.3276,36.7113,0.508],[-4.3257,36.7126,3.2936],[-4.314,36.7126,1.3041],[-4.3038,36.7149,2.6915],[-4.2951,36.7126,5.616],[-4.2935,36.7149,23.0274],[-4.2854,36.7149,2.6521],[-4.2501,36.7104,0.0],[-4.2096,36.7146,3.0296],[-4.1787,36.7154,0.0],[-4.1607,36.7201,0.9035],[-4.1093,36.7249,0.0],[-4.101,36.7282,0.0],[-4.0999,36.7321,1.6794],[-4.0979,36.7321,0.1854],[-4.0837,36.7451,1.5174],[-4.0737,36.7485,0.0],[-4.0682,36.7485,0.0],[-4.0654,36.7463,0.0],[-4.0649,36.7487,0.2535],[-4.0515,36.7449,0.7881],[-4.0329,36.7421,23.4212],[-4.0235,36.744,13.4845],[-3.9968,36.7393,5.0064],[-3.9746,36.7307,0.8408],[-3.9563,36.7262,0.5205],[-3.9268,36.7368,0.0],[-3.921,36.741,21.475],[-3.8957,36.7435,0.3744],[-3.8843,36.7407,3.9145],[-3.8749,36.744,1.218],[-3.8646,36.751,6.4677],[-3.8485,36.7501,0.0],[-3.8443,36.7535,0.0],[-3.8412,36.7518,0.0],[-3.8335,36.7537,4.1623],[-3.8299,36.7515,0.0],[-3.8232,36.7524,45.9971],[-3.8088,36.7499,1.1283],[-3.799,36.7454,0.0],[-3.7904,36.7457,28.1844],[-3.7857,36.7393,0.0],[-3.7804,36.7393,74.8422],[-3.7779,36.7368,0.0],[-3.7762,36.7374,20.2795],[-3.7726,36.7337,43.4476],[-3.7729,36.7313,0.0],[-3.7665,36.7304,0.0],[-3.7646,36.7287,0.0],[-3.7615,36.7349,0.0],[-3.7546,36.7382,3.6655],[-3.751,36.7382,1.1459],[-3.7435,36.7349,2.6914],[-3.736,36.7287,1.2654],[-3.7368,36.7238,14.1342],[-3.7346,36.719,14.4166],[-3.7285,36.719,0.0],[-3.729,36.7215,0.0],[-3.7265,36.7229,0.0],[-3.7249,36.7268,0.0],[-3.726,36.729,28.5883],[-3.7162,36.7329,7.4806],[-3.709,36.7318,0.0],[-3.7032,36.7337,0.0],[-3.6951,36.7282,0.0],[-3.6901,36.731,7.2332],[-3.6754,36.7296,0.0],[-3.664,36.7432,8.5132],[-3.6579,36.7463,2.6285],[-3.6488,36.7446,29.9955],[-3.6465,36.7426,9.5199],[-3.6449,36.7438,20.2154],[-3.6357,36.7418,0.0],[-3.629,36.7426,28.9336],[-3.6232,36.741,16.6862],[-3.6124,36.7435,0.0],[-3.6007,36.7438,4.1993],[-3.5796,36.7235,0.0],[-3.554,36.7146,0.5784],[-3.546,36.7165,0.9321],[-3.5385,36.7229,4.0165],[-3.5337,36.7232,1.8237],[-3.529,36.721,2.3874],[-3.5287,36.7235,1.85],[-3.526,36.7238,2.5171],[-3.5235,36.7229,0.9911],[-3.524,36.7204,0.0],[-3.5229,36.7204,0.0],[-3.5149,36.7238,4.7105],[-3.5129,36.7193,2.1375],[-3.5074,36.7174,5.5219],[-3.4821,36.6968,0.0],[-3.474,36.6965,31.3767],[-3.4685,36.6935,0.0],[-3.4593,36.6965,1.4759],[-3.4537,36.6949,0.0],[-3.426,36.6954,0.0],[-3.4199,36.6937,0.0],[-3.4132,36.7029,7.1831],[-3.4104,36.7012,8.3529],[-3.4068,36.7015,4.1811],[-3.4035,36.7068,0.0],[-3.3976,36.7054,0.0],[-3.3926,36.7068,0.0],[-3.3918,36.7088,12.0046],[-3.389,36.7085,0.0],[-3.3882,36.711,47.6978],[-3.3651,36.7137,0.0],[-3.3482,36.7326,12.2859],[-3.339,36.7382,16.4127],[-3.3304,36.7382,0.0],[-3.3221,36.7415,0.0],[-3.3149,36.7415,7.4743],[-3.3104,36.7388,16.2432],[-3.3048,36.7379,0.387],[-3.294,36.7418,0.0],[-3.2818,36.7438,6.4202],[-3.261,36.7532,7.5755],[-3.2429,36.754,14.4604],[-3.2337,36.7496,0.0],[-3.2296,36.7513,18.8249],[-3.2112,36.7449,0.0],[-3.2021,36.7504,0.0],[-3.1943,36.749,28.0611],[-3.1849,36.7499,21.7556],[-3.1799,36.7476,8.4517],[-3.1729,36.7485,1.3863],[-3.1668,36.7435,0.0],[-3.1524,36.7471,3.24],[-3.1429,36.7435,0.0],[-3.1365,36.7493,12.9505],[-3.1315,36.751,8.7552],[-3.1129,36.751,19.7294],[-3.0724,36.7454,0.0],[-3.0624,36.7471,20.7949],[-3.0324,36.7474,11.0377],[-3.0232,36.7432,0.6648],[-3.0204,36.7446,0.0],[-3.0224,36.7451,1.87],[-3.0212,36.7471,7.8047],[-3.0085,36.7412,0.7501],[-2.9896,36.7443,2.2275],[-2.9762,36.7382,0.0],[-2.9671,36.7404,0.0],[-2.9421,36.7507,1.6211]]],
[[[-4.4199,36.7104,0.0],[-4.4199,36.711,1.0644],[-4.4168,36.7124,0.1082],[-4.4218,36.7115,1.1155],[-4.4199,36.7104,0.0]]],
[[[-6.2199,36.3776,0.0],[-6.2193,36.381,0.0],[-6.221,36.3812,0.0],[-6.2215,36.3774,0.0],[-6.2199,36.3776,0.0]]],
[[[-6.3138,36.5282,0.9003],[-6.3179,36.5293,-0.1956],[-6.3171,36.5265,-0.2049],[-6.3132,36.5271,0.9003],[-6.3138,36.5282,0.9003]]],
[[[-6.319,36.6121,0.0],[-6.319,36.6127,0.0],[-6.3226,36.6132,0.0],[-6.3224,36.6124,0.0],[-6.319,36.6121,0.0]]],
[[[-6.3185,36.6129,0.0],[-6.3157,36.6143,0.0],[-6.3157,36.6149,0.0],[-6.3185,36.6135,0.0],[-6.3185,36.6129,0.0]]],
[[[-6.471,36.7365,-0.2835],[-6.4735,36.7376,-0.0941],[-6.4726,36.734,-0.4149],[-6.4704,36.7343,0.0],[-6.471,36.7365,-0.2835]]],
[[[-6.8354,37.1143,0.0],[-6.8371,37.1157,0.0],[-6.8324,37.1085,0.0],[-6.8332,37.111,0.0],[-6.8354,37.1143,0.0]]],
[[[-6.8426,37.1221,0.0],[-6.844,37.1229,0.0],[-6.8374,37.1163,0.0],[-6.8374,37.1174,0.0],[-6.8426,37.1221,0.0]]],
[[[-6.8502,37.1282,0.0],[-6.8537,37.1299,0.5987],[-6.8521,37.1279,0.0],[-6.8446,37.1235,0.0],[-6.8457,37.1251,0.0],[-6.8502,37.1282,0.0]]],
[[[-6.9223,37.1621,0.2856],[-6.9245,37.1638,0.3535],[-6.926,37.1613,1.6335],[-6.8551,37.1296,0.5987],[-6.8537,37.1301,0.5987],[-6.8626,37.1341,2.7645],[-6.8665,37.1387,1.4182],[-6.874,37.1418,1.7658],[-6.8779,37.141,1.3951],[-6.8965,37.1504,2.047],[-6.9026,37.1563,0.0],[-6.9062,37.1565,0.7698],[-6.9126,37.161,0.0],[-6.9223,37.1621,0.2856]]],
[[[-6.9682,37.2168,0.5555],[-6.9707,37.2179,0.0],[-6.9751,37.2101,0.0],[-6.9654,37.1991,0.1112],[-6.9599,37.1849,0.0],[-6.9493,37.1768,0.0],[-6.9426,37.1763,0.0],[-6.9393,37.1779,2.1428],[-6.934,37.1757,1.4504],[-6.9257,37.171,0.6573],[-6.921,37.1651,0.7407],[-6.919,37.1657,1.3483],[-6.9182,37.1632,0.0],[-6.916,37.1635,0.3459],[-6.9165,37.1663,0.0],[-6.9371,37.1835,0.5068],[-6.9407,37.1921,0.2583],[-6.9402,37.1949,0.0],[-6.9424,37.1963,1.0886],[-6.9457,37.2055,0.0],[-6.9682,37.2168,0.5555]]],
[[[-6.9807,37.2468,0.2191],[-6.9824,37.2482,0.0],[-6.9871,37.2471,0.0],[-6.9901,37.2393,0.3027],[-6.9929,37.2374,0.0],[-6.9938,37.2346,0.2466],[-6.999,37.2324,0.1402],[-6.999,37.2296,0.5065],[-6.9968,37.2276,0.3077],[-6.9896,37.2268,0.0],[-6.9876,37.2302,0.3014],[-6.9879,37.2271,0.0],[-6.9829,37.2224,0.9382],[-6.9768,37.2121,0.0],[-6.9707,37.2201,0.7687],[-6.9751,37.231,1.0922],[-6.974,37.2421,0.0],[-6.9807,37.2468,0.2191]]],
[[[-7.1585,37.2335,0.845],[-7.1582,37.2354,0.4156],[-7.166,37.2349,0.3442],[-7.1662,37.2276,0.0],[-7.1568,37.2274,0.2012],[-7.1585,37.2335,0.845]]],
[[[-7.0049,37.234,0.382],[-7.0037,37.2357,0.0],[-7.0093,37.2335,0.8956],[-7.0057,37.2324,1.3771],[-7.0049,37.234,0.382]]],
[[[-6.8782,37.2668,0.546],[-6.8787,37.2718,0.28],[-6.8824,37.2643,0.0],[-6.8865,37.2627,0.0],[-6.8932,37.2524,0.0],[-6.884,37.2585,0.0],[-6.876,37.2679,0.0],[-6.8774,37.2685,0.0],[-6.8782,37.2668,0.546]]],
[[[-6.971,37.2788,0.1706],[-6.9721,37.2799,0.1706],[-6.9729,37.2801,0.0],[-6.9713,37.2768,0.3333],[-6.971,37.2788,0.1706]]],
[[[-6.9726,37.2946,1.1581],[-6.974,37.2962,0.3472],[-6.976,37.2971,0.1667],[-6.9721,37.2915,0.0],[-6.9726,37.2946,1.1581]]]]}}