{"type":"Feature","properties":{"GID_3":"ESP.12.4.2_1","GID_0":"ESP","country":"Spain","GID_1":"ESP.12_1","province":"Galicia","NL_NAME_1":"NA","GID_2":"ESP.12.4_1","county":"Pontevedra","NL_NAME_2":"NA","city":"n.a.(208)","VARNAME_3":"NA","NL_NAME_3":"NA","TYPE_3":"Comarca","ENGTYPE_3":"Comarca","CC_3":"NA","HASC_3":"NA","name":"n.a.(208).city"},
"geometry":{"type": "MultiPolygon","coordinates": [[[[-8.2644,42.2528,957.9863],[-8.2684,42.2635,967.0056],[-8.2678,42.2719,1015.0131],[-8.2727,42.2824,1046.0466],[-8.2674,42.286,1044.3647],[-8.2666,42.2997,1107.3301],[-8.2621,42.3066,1109.6653],[-8.2618,42.315,1035.611],[-8.2727,42.3144,949.7273],[-8.2783,42.3176,802.0026],[-8.2819,42.3165,773.4045],[-8.2846,42.3176,761.9468],[-8.2849,42.3203,761.1829],[-8.2886,42.3221,747.6538],[-8.2913,42.327,782.914],[-8.3028,42.3349,913.4766],[-8.3051,42.34,911.4689],[-8.311,42.3438,885.5475],[-8.3245,42.345,993.7095],[-8.3249,42.352,1017.4354],[-8.3204,42.3524,977.925],[-8.3173,42.3563,963.9315],[-8.3243,42.3692,935.3623],[-8.3171,42.3753,932.9768],[-8.3145,42.381,975.3329],[-8.317,42.3828,997.3164],[-8.3301,42.4206,915.7651],[-8.3381,42.4334,896.0915],[-8.339,42.4414,891.6736],[-8.3357,42.448,865.1464],[-8.3393,42.4529,831.4153],[-8.3389,42.4574,796.578],[-8.342,42.4659,765.3304],[-8.3478,42.4688,748.7567],[-8.3662,42.4873,937.0934],[-8.3733,42.4848,950.7151],[-8.385,42.4729,948.4413],[-8.388,42.4723,926.6896],[-8.3833,42.4772,965.0804],[-8.3827,42.4833,940.0414],[-8.3965,42.4867,755.3128],[-8.4056,42.4851,629.8435],[-8.4079,42.4859,578.8346],[-8.4099,42.4907,610.2813],[-8.4079,42.491,565.6589],[-8.4083,42.4938,590.3541],[-8.4047,42.4968,534.8901],[-8.4096,42.5003,677.2801],[-8.417,42.4997,647.5574],[-8.4189,42.497,629.9667],[-8.4262,42.5131,678.793],[-8.4317,42.5152,596.8639],[-8.4455,42.5288,336.1744],[-8.4494,42.5369,448.3706],[-8.4585,42.5384,480.8901],[-8.4676,42.5446,549.358],[-8.4726,42.5512,612.9385],[-8.474,42.5571,530.4998],[-8.4793,42.5631,682.2775],[-8.4782,42.5664,752.7138],[-8.4731,42.568,729.7182],[-8.473,42.5711,711.5234],[-8.4835,42.5757,578.1073],[-8.4974,42.5781,735.4748],[-8.4992,42.5873,776.2573],[-8.5013,42.5884,787.0737],[-8.5097,42.5865,677.8977],[-8.5127,42.5893,557.1935],[-8.5258,42.5859,429.3181],[-8.5432,42.5887,275.1596],[-8.5468,42.5857,332.2998],[-8.5509,42.5859,352.7985],[-8.5591,42.5831,329.1538],[-8.5602,42.5756,366.462],[-8.563,42.5748,390.4565],[-8.5635,42.5663,373.7414],[-8.5571,42.5608,400.0921],[-8.5601,42.5561,366.6074],[-8.5608,42.5482,415.3426],[-8.5694,42.5412,477.812],[-8.566,42.5372,510.5858],[-8.5666,42.5323,513.3258],[-8.5731,42.5253,484.2432],[-8.5885,42.5157,497.1185],[-8.5969,42.5126,479.6586],[-8.5837,42.5102,468.1317],[-8.5823,42.4979,405.3038],[-8.5769,42.4867,192.5426],[-8.5692,42.4871,56.1369],[-8.563,42.4714,37.8312],[-8.5674,42.4669,35.301],[-8.5677,42.4615,33.6073],[-8.5714,42.4611,40.7007],[-8.5749,42.4586,28.4528],[-8.5746,42.4517,35.7093],[-8.5803,42.4483,26.7729],[-8.5778,42.4474,62.5015],[-8.5696,42.437,99.6434],[-8.5671,42.4377,104.866],[-8.5618,42.4356,129.6646],[-8.5606,42.4309,113.7292],[-8.5583,42.4306,139.0847],[-8.5577,42.4285,122.2984],[-8.5549,42.4304,139.6945],[-8.5594,42.4229,283.6216],[-8.5664,42.421,302.8492],[-8.5812,42.4128,296.2882],[-8.5841,42.4097,344.6404],[-8.5863,42.4026,334.5245],[-8.595,42.3941,467.7753],[-8.5822,42.3775,349.5962],[-8.5776,42.3763,303.71],[-8.5675,42.3677,448.9908],[-8.5632,42.3668,395.9209],[-8.5571,42.3624,200.9151],[-8.5576,42.3594,239.8579],[-8.5549,42.3568,141.5016],[-8.5473,42.3396,38.4143],[-8.5415,42.3431,36.6973],[-8.534,42.3414,85.0933],[-8.5313,42.3371,77.7408],[-8.5246,42.3391,107.1499],[-8.5236,42.3412,117.3236],[-8.5211,42.3384,278.5523],[-8.5235,42.3281,399.9447],[-8.5298,42.3252,327.684],[-8.5401,42.3164,124.1026],[-8.5523,42.3146,328.5342],[-8.5655,42.3069,412.4927],[-8.5666,42.2929,248.5188],[-8.5648,42.2801,365.0532],[-8.5721,42.2754,426.6748],[-8.5767,42.2697,425.7485],[-8.5912,42.2648,284.0563],[-8.5909,42.2559,290.0485],[-8.5948,42.2475,198.2851],[-8.5948,42.2429,166.0425],[-8.5902,42.2435,264.4367],[-8.5776,42.2391,590.3644],[-8.5684,42.2411,672.7804],[-8.5646,42.2455,622.1887],[-8.5464,42.2543,526.5348],[-8.5264,42.2562,133.9301],[-8.5246,42.26,104.4587],[-8.5161,42.2668,207.3819],[-8.5044,42.2714,518.2203],[-8.4969,42.2829,451.2386],[-8.4913,42.2875,406.8798],[-8.4868,42.2872,365.7309],[-8.4826,42.2897,340.5436],[-8.4829,42.2851,311.5938],[-8.4803,42.2839,330.6738],[-8.4693,42.2861,366.3528],[-8.4628,42.2854,371.5825],[-8.4609,42.2834,367.8557],[-8.4424,42.2949,598.7712],[-8.4345,42.2982,836.4506],[-8.4276,42.2981,759.9613],[-8.4206,42.3005,749.476],[-8.4199,42.2967,768.6453],[-8.4167,42.2972,726.5902],[-8.406,42.2946,322.3286],[-8.4047,42.2901,283.3796],[-8.4065,42.2735,166.2148],[-8.4129,42.275,315.3965],[-8.4117,42.273,308.739],[-8.4135,42.2702,329.4482],[-8.4097,42.2679,210.8458],[-8.4121,42.2648,187.9467],[-8.4082,42.2657,141.8342],[-8.4065,42.2627,115.5259],[-8.4079,42.26,124.2466],[-8.4059,42.2565,101.6068],[-8.4077,42.255,114.8127],[-8.4051,42.248,95.017],[-8.4093,42.2443,94.3929],[-8.4093,42.2405,79.9972],[-8.4077,42.2393,81.5027],[-8.4052,42.2407,90.9921],[-8.3971,42.2354,135.6296],[-8.3911,42.2264,291.7911],[-8.3947,42.2202,337.1738],[-8.3959,42.212,391.3345],[-8.4011,42.2086,334.4781],[-8.4023,42.2016,398.5023],[-8.3926,42.1953,381.6263],[-8.3867,42.1893,504.7241],[-8.3794,42.1929,603.8364],[-8.3731,42.1941,533.8242],[-8.3712,42.1986,455.5962],[-8.3583,42.1925,586.9579],[-8.3577,42.19,642.4285],[-8.352,42.1883,703.6046],[-8.3498,42.183,745.9134],[-8.3614,42.184,710.4408],[-8.3723,42.181399999999996,673.3981],[-8.3772,42.1831,728.3898],[-8.3925,42.1773,532.7568],[-8.3956,42.1736,471.0746],[-8.3927,42.1687,375.6936],[-8.3811,42.1727,439.0179],[-8.3745,42.1724,510.9083],[-8.3717,42.1738,532.9999],[-8.3688,42.1681,684.2872],[-8.3563,42.1607,846.3349],[-8.3561,42.1563,892.0162],[-8.3529,42.151,944.3505],[-8.3457,42.149,855.1516],[-8.333,42.1482,582.7122],[-8.3216,42.1518,435.5724],[-8.3165,42.1503,394.7401],[-8.3101,42.1533,372.1283],[-8.3068,42.157,320.9789],[-8.3018,42.1573,201.3935],[-8.2984,42.1547,165.4112],[-8.286,42.157,140.4087],[-8.29,42.1532,135.6595],[-8.2805,42.1491,232.3323],[-8.2673,42.1521,297.5948],[-8.2532,42.1592,379.5059],[-8.2517,42.1617,366.0352],[-8.2518,42.1727,476.8857],[-8.2481,42.1706,444.0006],[-8.2428,42.1711,387.9512],[-8.239,42.1743,356.4738],[-8.2212,42.1773,501.5757],[-8.2153,42.1827,522.8061],[-8.2141,42.1883,615.3923],[-8.2214,42.1908,511.7192],[-8.2201,42.1927,501.5671],[-8.2266,42.1931,400.1221],[-8.2324,42.1978,445.1092],[-8.2358,42.2071,489.9514],[-8.2357,42.2104,487.2129],[-8.2276,42.2175,583.6846],[-8.2234,42.2238,642.3643],[-8.2228,42.2332,660.3865],[-8.2329,42.2336,609.1941],[-8.2391,42.2398,686.2847],[-8.2415,42.245,740.5173],[-8.2503,42.2453,926.8171],[-8.2602,42.2523,908.2902],[-8.2644,42.2528,957.9863]]]]}}