{"type": "Feature","bbox": [2.6301,41.7576,2.9874,42.2122],"geometry": {"type": "MultiPolygon","coordinates": [[[[2.9667,41.8439,112.2964],[2.9636,41.8456,133.3472],[2.9596,41.8532,182.114],[2.9484,41.8633,219.5776],[2.9432,41.865,183.2368],[2.9554,41.8845,405.8625],[2.9476,41.8875,336.1813],[2.9398,41.8945,265.9165],[2.9071,41.9032,270.8332],[2.8955,41.9013,198.2726],[2.886,41.9094,170.2299],[2.9021,41.9191,288.6224],[2.8979,41.9329,263.575],[2.9119,41.9351,373.0901],[2.9117,41.9316,368.0413],[2.9135,41.93,392.0404],[2.9209,41.9335,361.9264],[2.9216,41.9369,342.5031],[2.9357,41.9399,208.6678],[2.9465,41.9395,162.3148],[2.9452,41.9474,217.9722],[2.9483,41.9621,276.1865],[2.9453,41.9663,169.7741],[2.9497,41.9732,111.2699],[2.9688,41.9754,114.7358],[2.976,41.978,134.1226],[2.9762,41.9825,153.0049],[2.9848,41.9858,87.4053],[2.9874,41.989,119.4591],[2.9804,41.9974,154.0218],[2.9747,42.0015,183.2364],[2.9645,41.9988,149.2162],[2.9595,42.0009,145.342],[2.9569,42.0002,138.8395],[2.9512,42.0064,112.4252],[2.9508,42.0173,133.9632],[2.9527,42.0184,155.0607],[2.9554,42.0294,118.6402],[2.9525,42.031,98.5101],[2.9449,42.0315,103.4726],[2.947,42.0541,34.4695],[2.9501,42.052,31.689],[2.9528,42.0528,30.6128],[2.9535,42.057,33.9344],[2.9599,42.0599,32.3261],[2.965,42.0568,38.9792],[2.972,42.0601,28.7586],[2.9771,42.0661,26.8762],[2.9775,42.0728,25.3829],[2.9727,42.0729,24.6849],[2.9691,42.0847,37.9533],[2.9587,42.0926,83.7767],[2.9577,42.0976,76.9267],[2.952,42.0967,68.4469],[2.9549,42.1128,62.5604],[2.9433,42.114,82.2314],[2.9378,42.1167,80.7422],[2.9319,42.1136,110.9604],[2.9268,42.1166,122.0428],[2.9162,42.1138,123.9969],[2.9142,42.1104,109.7344],[2.9035,42.1111,94.1377],[2.8987,42.1252,153.2286],[2.901,42.1355,158.9294],[2.8976,42.1417,145.2852],[2.8912,42.1434,96.2116],[2.8936,42.1456,91.1842],[2.8918,42.1465,106.3952],[2.8927,42.148,96.6041],[2.8879,42.1508,171.0882],[2.8879,42.154,142.8422],[2.8908,42.1548,129.0457],[2.8982,42.1623,59.3289],[2.8968,42.1654,50.7444],[2.8928,42.1681,52.707],[2.8939,42.1765,58.7771],[2.8839,42.1824,115.9245],[2.8757,42.183,69.7081],[2.879,42.1952,72.7107],[2.8704,42.1968,75.0614],[2.8657,42.2005,90.0784],[2.861,42.1964,81.5981],[2.854,42.1991,140.7463],[2.8508,42.2025,154.6316],[2.8453,42.2037,158.7083],[2.8347,42.2008,105.9213],[2.8347,42.2021,114.0233],[2.8314,42.1995,124.0334],[2.8258,42.2024,116.2338],[2.8211,42.1986,126.2436],[2.8062,42.2023,142.4092],[2.7987,42.1984,185.0925],[2.7861,42.1986,224.7764],[2.7832,42.2009,193.5193],[2.7848,42.205,199.8857],[2.7793,42.2122,263.8798],[2.7705,42.2061,201.3154],[2.7688,42.2064,201.3154],[2.7686,42.2042,179.2997],[2.7662,42.2034,157.142],[2.7676,42.1927,136.5176],[2.7698,42.1922,116.5484],[2.7706,42.1899,115.6978],[2.7644,42.1871,128.886],[2.7415,42.181399999999996,177.6091],[2.7355,42.1819,190.4353],[2.723,42.1871,183.2209],[2.7106,42.1752,379.3591],[2.7032,42.1732,365.3445],[2.6926,42.1744,392.5257],[2.682,42.1722,323.0161],[2.6753999999999998,42.1727,331.0277],[2.6856,42.1746,232.1202],[2.6829,42.1773,322.9264],[2.6793,42.1749,247.4758],[2.6769,42.1773,312.4496],[2.6748,42.1746,258.8261],[2.6736,42.176,282.2748],[2.6667,42.1765,276.1393],[2.6686,42.1588,448.0791],[2.6635,42.1563,438.2688],[2.6575,42.1557,418.4208],[2.6586,42.1527,331.9547],[2.6565,42.1492,281.6402],[2.6583,42.1481,288.5875],[2.6571,42.1462,307.2272],[2.6622,42.1422,450.0572],[2.6548,42.137,280.6111],[2.6641,42.1326,312.6227],[2.6659,42.1237,279.5068],[2.6572,42.1188,322.7802],[2.6579,42.1117,511.0807],[2.6534,42.1103,576.144],[2.6528,42.1021,494.1901],[2.6462,42.0962,470.5122],[2.6458,42.0936,581.5786],[2.6362,42.088,721.1362],[2.6314,42.0894,846.4423],[2.6312,42.0855,798.486],[2.6338,42.0835,806.4724],[2.6312,42.0794,762.8103],[2.6379,42.0711,564.3979],[2.6363,42.0649,391.2845],[2.6388,42.0609,350.2455],[2.6375,42.0589,343.7822],[2.6392,42.0586,309.8579],[2.6392,42.055,301.8912],[2.631,42.0482,355.4015],[2.6323,42.0441,394.8755],[2.6301,42.0381,370.7671],[2.637,42.038,407.3417],[2.642,42.0338,454.9827],[2.6436,42.0292,451.1125],[2.6587,42.021,512.9117],[2.6614,42.0166,539.6678],[2.6627,42.0095,276.2493],[2.658,42.0078,247.0096],[2.6612,41.9961,181.6126],[2.6598,41.9949,183.5242],[2.6684,41.9853,141.744],[2.6697,41.9764,155.6353],[2.6732,41.974,138.4599],[2.6714,41.9722,134.0911],[2.6721,41.9654,156.5422],[2.6664,41.9654,130.0397],[2.6599,41.959,138.5048],[2.6655,41.9521,174.1261],[2.6727,41.9485,189.3247],[2.6802,41.949,237.8396],[2.6874,41.9431,231.4819],[2.6974,41.9377,260.8655],[2.7024,41.9311,189.7291],[2.6977,41.9248,159.2553],[2.6993,41.924,157.5279],[2.7181,41.9219,165.7516],[2.7448,41.9245,171.6416],[2.7467,41.9269,179.1896],[2.7558,41.9204,161.3947],[2.7659,41.9094,136.7466],[2.7799,41.9034,127.5595],[2.7921,41.9108,114.9413],[2.8005,41.9121,90.4801],[2.8037,41.9145,97.5171],[2.8167,41.9115,94.6254],[2.8174,41.9093,95.211],[2.8141,41.91,91.8061],[2.8115,41.9088,91.7199],[2.8165,41.9063,92.0018],[2.8178,41.9027,92.9806],[2.8165,41.889,96.5622],[2.8132,41.881,98.9358],[2.8095,41.8777,100.2703],[2.8129,41.8744,99.7991],[2.814,41.8706,100.2202],[2.813,41.8596,111.6131],[2.8163,41.857,105.9215],[2.8185,41.8503,110.229],[2.8196,41.8525,106.4955],[2.8269,41.8552,126.5207],[2.8302,41.8587,137.6044],[2.8375,41.8601,106.7053],[2.8431,41.8535,105.7645],[2.849,41.8499,106.4579],[2.8542,41.8476,107.9509],[2.8621,41.8487,109.4022],[2.8568,41.8291,135.4583],[2.8497,41.8195,146.466],[2.8518,41.8102,165.4112],[2.8659,41.81,142.7252],[2.865,41.8143,137.2242],[2.8723,41.8146,140.3857],[2.8724,41.809,145.2824],[2.8639,41.8086,148.9181],[2.8607,41.807,152.6073],[2.8594,41.8029,161.1056],[2.8534,41.8008,173.1948],[2.8551,41.7971,204.5944],[2.8539,41.7923,210.3127],[2.871,41.7733,274.1413],[2.9066,41.7721,357.9669],[2.9159,41.7682,319.7662],[2.9282,41.7576,502.3941],[2.9406,41.761,480.3582],[2.9589,41.7751,301.6057],[2.9553,41.7865,303.363],[2.9436,41.7895,256.0372],[2.9342,41.8096,159.339],[2.9357,41.8135,157.0135],[2.9293,41.826,69.611],[2.9355,41.828,64.8391],[2.9473,41.8259,56.5783],[2.9624,41.8269,47.691],[2.9661,41.8258,46.4267],[2.9707,41.8281,57.3275],[2.9667,41.8439,112.2964]]]]}
,"properties": {"GID_3": "ESP.6.2.4_1","GID_0": "ESP","country": "Spain","GID_1": "ESP.6_1","province": "Cataluña","NL_NAME_1": "NA","GID_2": "ESP.6.2_1","county": "Girona","NL_NAME_2": "NA","city": "n.a.(104)","VARNAME_3": "NA","NL_NAME_3": "NA","TYPE_3": "Comarca","ENGTYPE_3": "Comarca","CC_3": "NA","HASC_3": "NA","name": "n.a.(104).city","area_km2": 835.9619,"hist_schema_id": "Elevation0-9000","hist_area_km2": {"25": 7.2719,"50": 34.8885,"75": 51.8866,"100": 103.696,"125": 128.0582,"150": 100.3026,"175": 79.9787,"200": 59.8709,"225": 56.1239,"250": 42.4496,"275": 33.5653,"300": 25.4876,"325": 20.147,"350": 15.99,"375": 13.3402,"400": 10.3931,"425": 9.1013,"450": 6.8965,"475": 5.3209,"500": 4.5327,"525": 3.8713,"550": 3.053,"575": 2.6597,"600": 2.4395,"625": 2.0461,"650": 2.0147,"675": 1.7629,"700": 1.5267,"725": 1.6525,"750": 1.1174,"775": 1.2118,"800": 1.0859,"825": 0.9285,"850": 0.6767,"875": 0.2833,"900": 0.1417,"925": 0.1574,"950": 0.0315}}}