{"type": "Feature","id": "5831","bbox": [0.3242,41.23283,1.84255,42.84658],"geometry": {"type": "Polygon","coordinates": [[[0.77631,42.83245,1509.4589],[0.75885,42.83527,1264.6326],[0.72433,42.84529,862.5762],[0.70676,42.84658,1357.2714],[0.67937,42.84511,1898.5538],[0.65632,42.83842,1960.5303],[0.65157,42.82405,1594.8962],[0.65374,42.80269,1631.1888],[0.63968,42.77468,1414.0048],[0.65074,42.76339,1327.7639],[0.6433,42.75907,1544.9973],[0.63958,42.75483,1950.0442],[0.63348,42.74478,1449.0736],[0.64764,42.74104,1537.0066],[0.65963,42.7299,1748.7205],[0.66645,42.71476,1565.3181],[0.66542,42.69866,2082.9893],[0.66343,42.69621,2187.0149],[0.67565,42.68869,2233.7622],[0.69456,42.66236,2353.8447],[0.70841,42.63419,2670.2646],[0.71632,42.62572,2380.1211],[0.72547,42.62029,2417.5908],[0.73399,42.61727,2455.27],[0.75466,42.61445,2023.3558],[0.76551,42.60991,1542.8364],[0.76893,42.60559,1573.8567],[0.76955,42.60128,1657.4868],[0.76567,42.59492,1573.3679],[0.76443,42.58957,1447.7534],[0.76272,42.57539,1573.6595],[0.76148,42.56931,1473.0364],[0.75978,42.56466,1366.9543],[0.7573,42.56055,1364.6179],[0.75234,42.55487,1350.8755],[0.74686,42.5466,1401.9186],[0.74221,42.53771,1434.3982],[0.73756,42.53399,1447.9974],[0.73415,42.52823,1554.4763],[0.73058,42.51973,1245.4083],[0.73322,42.50878,1322.7883],[0.73058,42.50314,1535.2998],[0.73027,42.50071,1482.7052],[0.7264,42.49859,1537.1753],[0.72252,42.49725,1268.4883],[0.71833,42.49668,1024.8386],[0.71089,42.49637,1052.3171],[0.70438,42.49276,1278.2244],[0.70144,42.48433,1181.2906],[0.70361,42.47705,1134.3284],[0.70857,42.46898,1018.3461],[0.71089,42.46139,936.7982],[0.71151,42.45079,992.9396],[0.71508,42.44315,956.8477],[0.71895,42.43906,1026.1614],[0.72252,42.43674,1049.9224],[0.72686,42.43333,1007.6013],[0.73291,42.42687,873.3243],[0.73833,42.41462,886.6211],[0.74639,42.39054,864.3359],[0.7511,42.34796,801.5],[0.75125,42.32868,1040.5675],[0.74986,42.31925,715.4509],[0.74438,42.3061,754.117],[0.74562,42.30168,717.4897],[0.74562,42.28863,782.941],[0.74345,42.27065,653.1063],[0.74174,42.26401,644.1384],[0.73322,42.24523,644.4232],[0.72578,42.23554,622.6968],[0.72174,42.23148,600.5733],[0.71942,42.22678,637.2422],[0.71167,42.19536,613.6057],[0.70826,42.18807,612.1248],[0.70547,42.17836,613.3981],[0.70345,42.16789,584.1538],[0.70593,42.16223,697.0131],[0.70888,42.15205,657.5889],[0.70624,42.14167,605.0494],[0.70314,42.12032,525.2248],[0.69911,42.10937,499.5126],[0.69394,42.10038,544.6564],[0.68449,42.09503,500.9193],[0.68433,42.08999,505.8924],[0.66852,42.04916,469.2191],[0.65488,42.027,469.7852],[0.65488,42.02048,468.837],[0.65596,42.01278,545.5739],[0.65162,42.00188,701.0781],[0.64681,41.99625,482.0],[0.64247,41.99227,517.6984],[0.63126,41.98912,525.7732],[0.62444,41.98478,482.0],[0.61932,41.97951,494.9253],[0.61219,41.96868,456.1078],[0.60754,41.96483,366.7822],[0.60118,41.96204,613.7651],[0.59281,41.96077,549.043],[0.58398,41.95677,699.2876],[0.57617,41.95126,735.822],[0.57013,41.94491,764.1252],[0.5661,41.93889,814.8201],[0.56718,41.93274,793.1724],[0.58067,41.9231,496.4053],[0.58956,41.91858,434.027],[0.59328,41.91372,500.8792],[0.59529,41.90742,365.732],[0.59762,41.8744,530.163],[0.59359,41.86755,429.3049],[0.58708,41.86197,332.5446],[0.58067,41.85553,288.0822],[0.57261,41.85248,298.682],[0.55803,41.84517,414.7943],[0.54966,41.83404,340.3978],[0.54222,41.82675,336.7466],[0.53354,41.82184,304.78],[0.51473,41.81833,275.6196],[0.50667,41.816,267.305],[0.50093,41.81244,264.582],[0.49659,41.80882,250.4719],[0.48341,41.79197,256.7874],[0.47318,41.7759,237.0143],[0.4646,41.76743,224.1656],[0.45422,41.76246,227.7297],[0.42026,41.75776,198.9317],[0.41282,41.756,195.7469],[0.40595,41.75296,194.3993],[0.40207,41.74939,191.6361],[0.39603,41.74231,191.9898],[0.39386,41.73686,185.7857],[0.38657,41.73275,187.4599],[0.37975,41.7267,187.9822],[0.36642,41.70996,173.0716],[0.34265,41.69348,165.0636],[0.32854,41.6774,163.0766],[0.32823,41.66947,156.5893],[0.32947,41.66175,153.7845],[0.34327,41.6372,187.8562],[0.34807,41.61516,173.2492],[0.35148,41.60723,185.9344],[0.3566,41.60162,226.6559],[0.36518,41.59834,238.9306],[0.39525,41.59545,235.2019],[0.40595,41.59638,227.6698],[0.41577,41.59542,237.9958],[0.42398,41.59291,236.4628],[0.42972,41.5847,231.8383],[0.42941,41.577,228.1342],[0.43034,41.56935,188.426],[0.43298,41.5618,197.55],[0.43763,41.55488,210.8267],[0.44119,41.54615,185.2468],[0.43825,41.53971,157.6336],[0.43313,41.53359,135.9461],[0.41355,41.51617,145.3083],[0.40843,41.51002,159.161],[0.40455,41.50421,149.5399],[0.40254,41.50041,137.5694],[0.40207,41.49894,137.5133],[0.40037,41.49654,131.0233],[0.39742,41.49429,131.1756],[0.39045,41.49168,135.9192],[0.3613,41.4846,129.1362],[0.35117,41.4776,85.9511],[0.34854,41.47209,84.3177],[0.34978,41.45251,80.7094],[0.34854,41.43323,75.1576],[0.33831,41.4059,77.0673],[0.3242,41.39016,116.1468],[0.3273,41.37011,157.4068],[0.3352,41.368899999999996,240.9603],[0.35174,41.36254,184.444],[0.36507,41.35257,202.5341],[0.37401,41.33892,153.1848],[0.37727,41.32141,209.5152],[0.35236,41.27921,211.0589],[0.35427,41.25629,68.5],[0.36037,41.23283,96.8358],[0.3858,41.27886,394.6511],[0.43318,41.27611,465.1496],[0.43805,41.32476,345.2058],[0.44524,41.33178,347.6589],[0.45445,41.3346,368.8521],[0.46414,41.33338,368.009],[0.47281,41.32826,367.7813],[0.49162,41.29961,233.2142],[0.50002,41.29177,278.1931],[0.50977,41.28849,242.2102],[0.52093,41.28892,253.4545],[0.53137,41.29283,215.6171],[0.53891,41.30001,176.802],[0.54741,41.31567,256.4445],[0.55345,41.32193,255.3776],[0.56187,41.32391,310.8123],[0.57029,41.32083,261.5912],[0.59595,41.30337,234.647],[0.62076,41.29867,265.3831],[0.73644,41.3184,500.4043],[0.75848,41.33126,685.23],[0.80498,41.33134,729.9512],[0.81779,41.34117,679.812],[0.82365,41.35195,653.6984],[0.82745,41.35606,621.9825],[0.83352,41.35849,582.3977],[0.84292,41.35758,645.243],[0.86872,41.34351,772.9852],[0.87904,41.34201,890.4424],[0.95769,41.35451,999.5861],[0.96887,41.36442,754.7067],[0.98192,41.39179,647.8229],[0.98946,41.39831,597.5189],[1.02367,41.40627,574.676],[1.04551,41.42668,598.5231],[1.06203,41.45163,679.2673],[1.06337,41.45896,601.0746],[1.06256,41.47524,626.213],[1.06511,41.48083,546.1192],[1.07302,41.48273,586.2789],[1.11718,41.47255,784.4514],[1.13037,41.47322,717.3386],[1.15739,41.48025,681.1718],[1.1675,41.48657,720.2214],[1.17023,41.49542,752.6448],[1.16913,41.51843,714.2008],[1.178,41.54452,617.9043],[1.19462,41.56647,568.1215],[1.20101,41.5704,605.3667],[1.2078,41.57233,606.0217],[1.37176,41.56542,702.6644],[1.39268,41.57503,767.6526],[1.40709,41.59046,687.5127],[1.38872,41.60037,729.7174],[1.36998,41.60293,620.929],[1.3742,41.61934,640.7768],[1.38945,41.62852,665.1993],[1.43684,41.63676,747.1063],[1.43851,41.64351,744.9676],[1.40681,41.70415,699.7339],[1.40949,41.78254,570.9916],[1.41219,41.78925,493.011],[1.42076,41.79716,458.2682],[1.43227,41.80145,558.4489],[1.44464,41.80202,579.916],[1.45583,41.79878,614.5273],[1.47406,41.78004,495.8396],[1.48224,41.77684,538.134],[1.51047,41.78132,571.4829],[1.51942,41.77997,572.6594],[1.54343,41.76374,645.7195],[1.55308,41.76372,671.7006],[1.56024,41.76784,771.8299],[1.63022,41.82905,678.9943],[1.63392,41.83849,563.5792],[1.63323,41.84872,538.712],[1.61462,41.88417,661.8386],[1.61561,41.89569,594.9473],[1.64319,41.92916,471.0087],[1.64356,41.95443,543.52],[1.64624,41.96159,534.851],[1.65345,41.9681,560.6084],[1.66246,41.97034,501.6876],[1.69408,41.97011,565.5819],[1.70469,41.97376,583.5105],[1.71236,41.98004,644.371],[1.71581,41.98789,634.6327],[1.71436,41.99605,696.2415],[1.70728,42.00322,722.2356],[1.70049,42.00578,755.2847],[1.69379,42.00563,725.4767],[1.66914,41.99762,607.9946],[1.66408,41.99892,599.9247],[1.65978,42.00359,580.718],[1.65784,42.01168,703.0905],[1.66085,42.01843,791.9896],[1.68261,42.03356,768.8241],[1.68878,42.04188,906.368],[1.69238,42.05165,965.7817],[1.69313,42.06187,937.4571],[1.68944,42.07926,1311.2958],[1.69014,42.08469,1161.9403],[1.69412,42.08878,1115.3512],[1.70706,42.09225,1146.6288],[1.71258,42.09602,1265.3538],[1.7157,42.10481,1000.4023],[1.70675,42.13079,942.2385],[1.70702,42.13484,1042.9065],[1.70818,42.13887,1220.9514],[1.7126,42.14588,1314.1418],[1.71607,42.14853,1393.0754],[1.72772,42.15376,1280.9193],[1.73352,42.16005,1426.5544],[1.73717,42.16829,1465.5093],[1.73809,42.17718,1584.4542],[1.7358,42.18543,2167.5527],[1.73207,42.18937,2156.3735],[1.70106,42.20105,1336.9415],[1.69502,42.206,1202.7816],[1.69063,42.21236,1233.4551],[1.68313,42.24935,2061.9797],[1.6832,42.25611,1991.8154],[1.68632,42.26212,1833.3489],[1.71559,42.28812,2440.6416],[1.84255,42.30631,2232.3062],[1.83365,42.32724,1370.6556],[1.83648,42.33534,1323.8398],[1.83756,42.34303,1300.3832],[1.83653,42.35068,1249.5599],[1.83303,42.35865,1216.5569],[1.81561,42.37596,1043.863],[1.81113,42.38363,1169.2192],[1.81086,42.41281,1434.5359],[1.80717,42.41855,1511.4742],[1.74283,42.43616,2354.1313],[1.72875,42.44683,2595.0283],[1.71937,42.46094,2474.9719],[1.71407,42.47704,2495.9961],[1.71217,42.49371,2240.7207],[1.71269,42.49679,2377.1873],[1.71197,42.49929,2492.9473],[1.71,42.50133,2495.6599],[1.70701,42.50278,2572.606],[1.6975,42.49446,2415.585],[1.68634,42.49061,2400.6455],[1.67424,42.49051,2324.8154],[1.66236,42.49371,2557.8167],[1.65977,42.49681,2522.3398],[1.65698,42.49764,2503.6367],[1.65399,42.49653,2526.6562],[1.65037,42.4934,2458.5549],[1.63952,42.46643,2733.0625],[1.60748,42.45643,2457.0591],[1.57266,42.45307,2633.1467],[1.54443,42.45036,2212.3052],[1.53885,42.44565,1954.9541],[1.53451,42.43992,1968.1987],[1.52821,42.43423,2100.7808],[1.51663,42.4295,1830.8125],[1.50847,42.42868,1738.8562],[1.4479,42.43465,1101.1079],[1.43643,42.44095,1450.8514],[1.43643,42.45348,1694.4568],[1.40759,42.48676,2150.1021],[1.42454,42.49247,1746.3756],[1.43023,42.49356,1763.2108],[1.44997,42.50407,1889.6523],[1.44656,42.51989,1952.2972],[1.42899,42.53146,2034.8752],[1.40646,42.52924,2549.8516],[1.40976,42.54061,2295.3506],[1.4263,42.5618,2396.8091],[1.4264,42.56565,2098.6577],[1.41803,42.56983,1952.4447],[1.41927,42.57926,2397.4495],[1.42485,42.58937,2706.5491],[1.4293,42.59539,2484.0476],[1.41483,42.60934,2306.2715],[1.39798,42.64363,2589.5347],[1.37876,42.66324,2650.3657],[1.36108,42.68672,2581.1465],[1.35271,42.69006,2473.6797],[1.34331,42.69044,2087.9363],[1.33824,42.69445,1974.5325],[1.34258,42.70866,2102.7686],[1.31912,42.71336,2219.093],[1.19593,42.71365,2371.3787],[1.16254,42.70569,2369.2578],[1.15148,42.70672,2106.2617],[1.13433,42.71597,1829.1902],[1.1241,42.72974,2044.2827],[1.11655,42.74525,1861.0607],[1.10673,42.75961,2143.3926],[1.08906,42.77132,2138.7739],[1.06818,42.77612,2003.9442],[0.98292,42.78036,2289.4331],[0.97527,42.78375,2028.3503],[0.95873,42.79372,2370.7585],[0.95026,42.79612,2411.5354],[0.94002,42.79367,2504.6907],[0.93062,42.78804,2627.3091],[0.92111,42.78437,2400.2158],[0.91036,42.78767,2436.1367],[0.89445,42.79933,2267.99],[0.88576,42.80424,2232.0627],[0.8561,42.81276,2071.7939],[0.8561,42.81276,2071.7939],[0.8129,42.83162,1756.9552],[0.79574,42.83385,1582.467],[0.77631,42.83245,1509.4589]]]}
,"properties": {"ISO3166-1-Alpha-3": "ESP","country": "Spain","fill": "#000","name": "Lérida","area_km2": 12062.849,"hist_schema_id": "Elevation0-9000","hist_area_km2": {"75": 13.162,"100": 25.72,"125": 67.69,"150": 124.022,"175": 213.775,"200": 290.209,"225": 343.034,"250": 378.314,"275": 330.307,"300": 315.156,"325": 296.511,"350": 264.269,"375": 254.941,"400": 246.038,"425": 254.893,"450": 256.526,"475": 261.444,"500": 244.448,"525": 247.814,"550": 247.346,"575": 251.698,"600": 253.706,"625": 251.861,"650": 239.326,"675": 224.283,"700": 201.385,"725": 180.759,"750": 163.022,"775": 146.812,"800": 146.48,"825": 133.998,"850": 121.274,"875": 115.125,"900": 110.875,"925": 107.08,"950": 109.819,"975": 109.678,"1000": 109.97,"1025": 111.313,"1050": 108.947,"1075": 108.64,"1100": 105.759,"1125": 106.996,"1150": 104.741,"1175": 103.839,"1200": 102.241,"1225": 101.489,"1250": 97.949,"1275": 99.898,"1300": 95.529,"1325": 92.694,"1350": 91.443,"1375": 91.877,"1400": 91.239,"1425": 88.836,"1450": 88.61,"1475": 89.822,"1500": 87.026,"1525": 83.638,"1550": 82.323,"1575": 78.525,"1600": 77.719,"1625": 77.158,"1650": 75.806,"1675": 73.776,"1700": 72.284,"1725": 71.119,"1750": 70.963,"1775": 67.602,"1800": 68.217,"1825": 64.406,"1850": 64.013,"1875": 62.01,"1900": 60.943,"1925": 59.826,"1950": 59.712,"1975": 58.896,"2000": 58.804,"2025": 56.986,"2050": 54.822,"2075": 53.164,"2100": 52.161,"2125": 51.342,"2150": 50.243,"2175": 48.896,"2200": 48.708,"2225": 47.844,"2250": 46.908,"2275": 46.021,"2300": 44.493,"2325": 43.145,"2350": 41.944,"2375": 39.773,"2400": 37.949,"2425": 37.155,"2450": 34.095,"2475": 30.818,"2500": 28.058,"2525": 25.374,"2550": 23.562,"2575": 19.939,"2600": 17.254,"2625": 14.553,"2650": 12.945,"2675": 10.665,"2700": 9.197,"2725": 7.371,"2750": 5.825,"2775": 4.247,"2800": 2.795,"2825": 2.014,"2850": 1.421,"2875": 0.765,"2900": 0.5,"2925": 0.328,"2950": 0.109}}}