{"type":"Feature","properties":{"GID_2":"ESP.6.3_1","GID_0":"ESP","country":"Spain","GID_1":"ESP.6_1","province":"Cataluña","NL_NAME_1":"NA","county":"Lleida","VARNAME_2":"NA","NL_NAME_2":"NA","TYPE_2":"Provincia","ENGTYPE_2":"Province","CC_2":"25","HASC_2":"ES.CT.LD","name":"Lleida.county"},
"geometry":{"type": "MultiPolygon","coordinates": [[[[1.1751,42.7088,2789.8135],[1.165,42.7095,2570.0601],[1.1332,42.7283,2413.219],[1.1341,42.7328,2324.4709],[1.1331,42.7368,2196.2444],[1.1302,42.7391,2090.501],[1.1311,42.7451,2146.2815],[1.1292,42.7527,2311.3706],[1.1175,42.7633,2352.7253],[1.1087,42.7659,2331.3245],[1.1086,42.7702,2315.5635],[1.107,42.7715,2317.8757],[1.09,42.7767,2337.7827],[1.078,42.7877,2590.1426],[1.0732,42.7824,2567.813],[1.0441,42.7808,2647.6113],[1.0425,42.7813,2647.6113],[1.0437,42.7839,2546.2148],[1.0386,42.7861,2516.2932],[1.0379,42.7851,2468.4248],[1.0322,42.7867,2544.0449],[1.0312,42.7852,2527.4072],[1.0071,42.7902,2612.6748],[1.0025,42.7902,2566.6096],[0.9952,42.787,2426.2317],[0.9845,42.7862,2572.4258],[0.9604,42.8052,2672.6484],[0.9473,42.801,2582.0347],[0.9331,42.7909,2481.5134],[0.9355,42.7888,2655.0339],[0.9258,42.7897,2518.9839],[0.9077,42.797,2460.2637],[0.9072,42.7986,2547.303],[0.885,42.8131,2682.6626],[0.8708,42.8156,2594.7676],[0.8609,42.8213,2550.0613],[0.8583,42.8257,2574.6929],[0.8329,42.8283,2081.3491],[0.8015,42.8405,1972.7314],[0.7867,42.836,1726.2151],[0.7788,42.8361,1720.4432],[0.7355,42.8488,611.0806],[0.7348,42.8522,583.6271],[0.7304,42.8557,801.4692],[0.7184,42.8588,1383.2174],[0.7159,42.858,1534.385],[0.7082,42.8613,1711.395],[0.6908,42.8549,1824.4542],[0.6783,42.8551,2119.314],[0.6787,42.8483,2105.8706],[0.6626,42.8411,2042.5265],[0.6592,42.8354,1997.1385],[0.6625,42.8285,1952.8198],[0.6701,42.8244,1902.5453],[0.6705,42.8216,1881.0592],[0.6669,42.8191,1892.3292],[0.6652,42.8143,1942.8062],[0.6713,42.8059,1989.1051],[0.6702,42.802,1881.2715],[0.66,42.7984,1976.0897],[0.6523,42.7877,1797.3119],[0.6449,42.7831,1873.6105],[0.6614,42.776,1521.0459],[0.6683,42.7748,1420.4691],[0.6625,42.77,1304.5331],[0.6565,42.7679,1322.4838],[0.6419,42.7548,1927.5653],[0.6599,42.7522,2006.6166],[0.6634,42.7498,2028.5518],[0.6634,42.7455,2050.5125],[0.6669,42.7412,2109.1702],[0.6701,42.7327,2093.426],[0.6802,42.7233,2186.1792],[0.6756,42.7213,2000.087],[0.6751,42.7172,1890.1893],[0.6779,42.7122,2003.8123],[0.682,42.7091,2086.1145],[0.675,42.6954,2333.0869],[0.6763,42.6911,2419.0752],[0.6687,42.6889,2384.041],[0.6646,42.6911,2493.8711],[0.6601,42.691,2538.1643],[0.66,42.6884,2493.2847],[0.6659,42.6827,2453.0332],[0.6713,42.6812,2547.6128],[0.6734,42.6791,2533.9731],[0.6758,42.6711,2558.116],[0.6797,42.6688,2571.2502],[0.6805,42.6663,2546.9241],[0.687,42.6643,2362.2449],[0.6919,42.6594,2490.897],[0.6951,42.6587,2627.22],[0.6998,42.6328,2903.9014],[0.6983,42.6293,2947.707],[0.7084,42.6212,2731.4731],[0.7174,42.6196,2769.0864],[0.7232,42.6165,2779.9233],[0.7318,42.6156,2648.1511],[0.7364,42.613,2581.0474],[0.7397,42.6126,2525.1917],[0.7439,42.6154,2499.1943],[0.7491,42.6128,2326.6121],[0.7675,42.6113,1532.7827],[0.7659,42.6031,1482.0083],[0.7611,42.5951,1422.0],[0.7599,42.5806,1422.0],[0.7578,42.5762,1375.8022],[0.7586,42.5722,1328.2122],[0.7473,42.5566,1302.3218],[0.7481,42.5522,1250.5414],[0.7409,42.545,1138.8923],[0.7496,42.535,1948.303],[0.7454,42.5353,1734.9167],[0.7351,42.5401,1104.0649],[0.7248,42.5305,1045.2339],[0.7216,42.5252,1038.0051],[0.7239,42.52,1030.6752],[0.7193,42.5128,1022.2598],[0.73,42.5124,1220.2744],[0.7395,42.5052,1620.4926],[0.7333,42.5045,1606.6597],[0.7296,42.4973,1585.8185],[0.7265,42.4981,1537.1753],[0.7133,42.4873,982.5165],[0.7051,42.4944,1246.9237],[0.7005,42.4959,1415.0208],[0.6993,42.4952,1370.4419],[0.7008,42.491,1160.5739],[0.698,42.4864,1304.5281],[0.6905,42.4876,1337.0771],[0.6969,42.4741,1209.76],[0.7061,42.4647,1050.1904],[0.7085,42.4589,985.3286],[0.7063,42.4566,965.545],[0.7065,42.4493,958.2222],[0.7107,42.4389,895.0898],[0.7102,42.4364,893.96],[0.7192,42.429,884.7465],[0.7263,42.4269,887.4537],[0.7359,42.414,855.4208],[0.7345,42.4079,854.5798],[0.7283,42.4079,899.9932],[0.726,42.4053,1015.8212],[0.7365,42.3993,1013.808],[0.7382,42.3997,932.7004],[0.7405,42.3916,902.5693],[0.7418,42.3919,902.5693],[0.7461,42.3848,820.4772],[0.7431,42.3791,811.7002],[0.7353,42.3762,1066.8939],[0.7343,42.3715,1004.5752],[0.7228,42.3688,1076.0204],[0.7233,42.3656,1119.3733],[0.7368,42.3621,945.1587],[0.7462,42.3569,848.5754],[0.7655,42.3562,933.3196],[0.7662,42.3534,869.6793],[0.7713,42.3507,897.7303],[0.7543,42.3467,808.4034],[0.7536,42.3442,801.5],[0.7495,42.3433,801.5],[0.7448,42.3376,805.2368],[0.7404,42.3369,801.5],[0.7437,42.3263,834.733],[0.7592,42.3259,1267.2781],[0.7646,42.3225,1319.6199],[0.7551,42.3135,1080.335],[0.7566,42.3093,931.3362],[0.7449,42.3012,717.4897],[0.7439,42.2857,752.3677],[0.7386,42.2815,652.6757],[0.7398,42.2691,643.2294],[0.735,42.2522,624.165],[0.7335,42.2487,618.9888],[0.7285,42.2459,619.7918],[0.7249,42.2413,611.598],[0.7201,42.2305,597.6042],[0.7149,42.2248,610.6695],[0.7142,42.2219,587.6592],[0.7174,42.2199,615.1727],[0.7134,42.2155,581.3835],[0.7142,42.21,580.3502],[0.7084,42.2043,588.1068],[0.7094,42.1973,579.406],[0.7066,42.1912,565.5167],[0.7026,42.1901,559.1595],[0.7034,42.185,569.006],[0.6986,42.1727,550.6472],[0.7016,42.1696,555.7422],[0.714,42.1634,711.1326],[0.7037,42.1584,665.6016],[0.6959,42.152,536.3979],[0.6954,42.1386,521.9198],[0.698,42.1265,511.42],[0.7022,42.1219,506.1392],[0.6996,42.107,496.3101],[0.6949,42.1014,496.6772],[0.6956,42.0991,496.7697],[0.6851,42.0918,511.3658],[0.6793,42.0761,772.483],[0.6688,42.0612,489.8039],[0.6679,42.0521,468.3872],[0.6686,42.0489,469.2191],[0.6712,42.0474,470.9271],[0.666,42.0418,467.7787],[0.6568,42.0404,466.0],[0.6565,42.0315,466.0],[0.6517,42.0263,466.0],[0.657,42.0149,474.1661],[0.6639,42.0146,504.2817],[0.6573,42.0016,481.25],[0.6466,41.9968,482.0],[0.6444,41.9924,490.0401],[0.6454,41.9871,482.0],[0.642,41.9821,483.8299],[0.6421,41.9869,569.2914],[0.6386,41.9946,641.826],[0.6238,41.9918,584.348],[0.6169,41.9872,482.0],[0.6192,41.9833,482.0],[0.6164,41.9816,482.0],[0.61,41.9689,449.7701],[0.6036,41.9654,372.8235],[0.6044,41.9607,365.3525],[0.5926,41.9689,745.399],[0.587,41.9668,632.5071],[0.586,41.9618,658.2026],[0.5782,41.9576,730.0792],[0.5619,41.9382,834.6765],[0.5625,41.9327,826.6177],[0.5757,41.9307,756.517],[0.577,41.9292,724.8077],[0.6029,41.9223,529.5632],[0.6075,41.9193,377.1057],[0.5949,41.918,364.0],[0.5952,41.9153,364.0],[0.601,41.9086,364.0],[0.5958,41.889,364.0],[0.5928,41.8844,364.0],[0.6083,41.8783,505.865],[0.6073,41.8723,459.6641],[0.6034,41.8691,434.7234],[0.594,41.8681,431.7556],[0.5908,41.8653,360.6483],[0.5801,41.8635,294.9301],[0.5822,41.8577,297.8322],[0.5801,41.8509,287.8765],[0.5622,41.8536,456.1346],[0.5622,41.8522,456.1346],[0.5574,41.8542,449.0753],[0.5525,41.8494,423.5551],[0.5516,41.8407,385.6163],[0.5536,41.8402,375.7674],[0.5534,41.8351,385.4098],[0.5494,41.8265,380.5785],[0.5424,41.8204,369.8906],[0.5251,41.8226,286.6659],[0.5195,41.8209,280.162],[0.5155,41.8224,277.4982],[0.5106,41.8206,272.4944],[0.5022,41.8144,266.2419],[0.499,41.807,255.6302],[0.4952,41.8045,254.4734],[0.4891,41.8052,246.6815],[0.4833,41.8015,248.826],[0.4738,41.7872,250.9904],[0.4697,41.7656,227.6082],[0.4647,41.7632,245.9249],[0.448,41.7647,221.688],[0.4383,41.7613,207.4845],[0.4089,41.7593,196.9382],[0.4006,41.7567,193.5476],[0.3987,41.7578,192.4284],[0.3994,41.7527,191.4218],[0.395,41.7379,185.5648],[0.3955,41.732,183.9863],[0.3848,41.7403,200.8792],[0.3728,41.7239,199.9191],[0.3693,41.7247,200.0386],[0.3687,41.7142,185.0036],[0.3421,41.6966,175.7832],[0.3282,41.6811,167.2581],[0.326,41.6747,170.5],[0.3263,41.6622,166.4207],[0.3329,41.6596,162.3501],[0.3489,41.6368,222.5465],[0.358,41.6317,242.3624],[0.3459,41.6219,215.6198],[0.3496,41.5995,224.8925],[0.3921,41.5953,249.9447],[0.4021,41.5927,238.5349],[0.4285,41.6024,248.8363],[0.4359,41.5849,232.7186],[0.4316,41.5814,229.2955],[0.4302,41.5779,229.626],[0.4329,41.569,203.017],[0.4304,41.5653,217.5952],[0.4391,41.556,213.5071],[0.447,41.5423,209.5613],[0.443,41.5411,182.0783],[0.4323,41.531,135.3639],[0.4271,41.5235,138.8682],[0.4181,41.5176,140.7753],[0.3979,41.4913,126.5569],[0.384,41.4859,142.8],[0.3709,41.4847,247.4294],[0.3474,41.4878,88.39],[0.3421,41.484,86.9497],[0.3414,41.4809,86.13],[0.3449,41.471,83.1174],[0.3446,41.4631,82.8498],[0.3457,41.4607,82.6042],[0.3546,41.4543,77.6041],[0.3554,41.4518,78.4346],[0.3483,41.4433,77.1686],[0.3464,41.4317,91.0561],[0.3475,41.4273,79.655],[0.3419,41.4138,71.4904],[0.32,41.3949,68.5],[0.3323,41.3862,205.3463],[0.36,41.3705,347.7719],[0.3738,41.3504,123.0955],[0.3668,41.3418,92.9796],[0.3592,41.342,68.5],[0.3486,41.3298,68.5],[0.3512,41.3252,68.5],[0.3655,41.3209,72.0618],[0.3683,41.3186,68.5],[0.3702,41.3115,68.5],[0.3657,41.304,68.5],[0.3696,41.2965,347.1256],[0.3857,41.2789,394.6511],[0.424,41.2741,470.6489],[0.4332,41.2761,465.1496],[0.4333,41.2875,464.5404],[0.436,41.2974,452.9015],[0.4323,41.3118,417.3368],[0.4348,41.3206,390.0014],[0.4418,41.3256,364.1497],[0.4515,41.3298,350.0004],[0.4563,41.33,395.9424],[0.4613,41.3349,377.1565],[0.4696,41.3308,365.5969],[0.4711,41.3279,356.1438],[0.4753,41.3268,372.9839],[0.4747,41.3251,374.2319],[0.4799,41.3235,361.7286],[0.4808,41.3174,363.1547],[0.4898,41.3103,366.3358],[0.4923,41.3052,325.5864],[0.4972,41.3031,287.8211],[0.5033,41.2898,320.8436],[0.518,41.2916,288.3706],[0.5252,41.2902,260.8875],[0.5301,41.3004,204.7552],[0.5347,41.3022,181.0615],[0.5419,41.3108,294.8147],[0.5456,41.323,355.0254],[0.5545,41.3267,332.3387],[0.5746,41.3185,291.7724],[0.5808,41.3201,344.8086],[0.5819,41.3113,332.5223],[0.5968,41.2936,150.66],[0.6039,41.2936,167.7465],[0.6051,41.2918,179.981],[0.6188,41.291,195.0324],[0.6251,41.2922,227.88],[0.6281,41.291,213.6151],[0.6291,41.2933,232.2674],[0.6368,41.2976,238.2272],[0.656,41.3013,277.9838],[0.6697,41.3096,312.0995],[0.6777,41.3097,320.6165],[0.6808,41.3081,330.9483],[0.6957,41.3136,369.9363],[0.7066,41.3117,424.6612],[0.7131,41.3138,414.5639],[0.7245,41.3128,456.2398],[0.7422,41.3175,570.0887],[0.7516,41.3179,631.8402],[0.7505,41.3248,684.4967],[0.7613,41.3338,680.3567],[0.7921,41.3314,704.8049],[0.7948,41.3287,708.3575],[0.802,41.3304,723.5556],[0.813,41.3273,779.3066],[0.8195,41.3288,764.9674],[0.8322,41.3588,630.3789],[0.8448,41.362,640.2149],[0.8467,41.3549,653.8651],[0.8633,41.3381,812.4417],[0.8721,41.3408,848.468],[0.8931,41.3435,823.5281],[0.9016,41.3476,863.6008],[0.9118,41.3499,883.5665],[0.9219,41.3486,871.5389],[0.9342,41.3504,921.8788],[0.9394,41.3494,938.8236],[0.9449,41.35,976.259],[0.9482,41.3522,993.4479],[0.9518,41.3518,993.8785],[0.9643,41.3555,964.6249],[0.9669,41.3596,896.6902],[0.9631,41.3607,857.7802],[0.9623,41.3681,723.0125],[0.9726,41.3742,686.7942],[0.9736,41.3818,671.079],[0.9795,41.3866,678.1321],[0.9817,41.3922,638.114],[0.9917,41.3886,641.584],[0.9937,41.3913,638.2065],[0.993,41.3938,627.2656],[0.9983,41.3991,606.0239],[1.0037,41.4003,616.1577],[1.0011,41.4021,596.299],[1.0036,41.4049,595.8854],[1.0059,41.4059,596.4592],[1.0156,41.4043,576.1306],[1.027,41.4098,513.9538],[1.0321,41.4192,548.6243],[1.0309,41.4213,581.4244],[1.0378,41.4217,541.5433],[1.0399,41.4281,602.3095],[1.0463,41.4371,662.8934],[1.0465,41.4404,652.7505],[1.0504,41.4429,659.0126],[1.0551,41.4423,679.2592],[1.0624,41.4483,659.8936],[1.0612,41.4491,679.0604],[1.0641,41.4547,668.006],[1.0701,41.4557,697.6382],[1.0752,41.4599,709.0231],[1.0722,41.463,685.4475],[1.057,41.4663,641.5692],[1.0374,41.48,572.9602],[1.046,41.4844,549.3135],[1.0477,41.4875,575.5126],[1.0458,41.4913,564.7214],[1.0373,41.4983,483.2626],[1.0398,41.5011,472.4535],[1.0565,41.4936,531.4005],[1.065,41.4873,615.0514],[1.0784,41.4836,672.0749],[1.0825,41.4792,679.8165],[1.0913,41.4761,722.0332],[1.094,41.4775,736.6714],[1.1055,41.4741,769.7976],[1.1082,41.4668,741.0645],[1.1122,41.467,727.4149],[1.1138,41.4689,787.3909],[1.1197,41.4695,761.6136],[1.1298,41.4739,737.5983],[1.1306,41.4769,779.3167],[1.155,41.4808,759.2042],[1.1725,41.487,739.8176],[1.1758,41.4863,742.3734],[1.181,41.4881,758.3383],[1.1772,41.4945,710.4569],[1.1757,41.5016,688.8395],[1.1676,41.5048,665.0903],[1.1647,41.5087,646.375],[1.1662,41.5182,715.2206],[1.1702,41.5189,700.4069],[1.1714,41.5213,693.4298],[1.1732,41.5315,587.0012],[1.17,41.531,582.2776],[1.1647,41.5345,579.5082],[1.172,41.5327,622.2742],[1.1763,41.5338,666.9431],[1.1668,41.537,658.0728],[1.1679,41.5405,655.1635],[1.1807,41.5435,663.8542],[1.1967,41.5434,666.887],[1.2108,41.5486,688.1602],[1.2133,41.5529,682.4615],[1.214,41.5604,613.9504],[1.217,41.5625,544.7631],[1.2162,41.5672,639.5372],[1.2199,41.5696,649.3425],[1.232,41.5693,666.5226],[1.2345,41.5712,676.2191],[1.2437,41.5683,676.6005],[1.2465,41.5706,676.4423],[1.2516,41.5713,667.9747],[1.2512,41.5724,681.5029],[1.257,41.5718,698.4357],[1.2592,41.5675,701.8066],[1.2728,41.5722,737.5985],[1.2942,41.5667,776.6788],[1.3047,41.5717,772.891],[1.3126,41.569,775.0091],[1.3464,41.568,717.4662],[1.3717,41.5654,715.9749],[1.3805,41.5613,775.6887],[1.3846,41.5565,815.2573],[1.4035,41.5582,765.4936],[1.4023,41.5644,795.4816],[1.3955,41.5673,781.9869],[1.3927,41.5798,739.1609],[1.3956,41.5848,716.7753],[1.4018,41.5861,728.9519],[1.4071,41.5906,687.5127],[1.4067,41.6005,785.989],[1.3934,41.5995,765.8002],[1.3744,41.6076,640.7421],[1.3741,41.6117,645.4189],[1.3697,41.613,635.1446],[1.3686,41.6104,632.0912],[1.3596,41.6136,583.4708],[1.3689,41.6173,643.3816],[1.3693,41.6213,654.7198],[1.3863,41.626,683.7571],[1.3874,41.631,672.4854],[1.3917,41.6341,635.86],[1.4217,41.6348,733.6775],[1.4239,41.6318,722.183],[1.4303,41.6298,733.2807],[1.4312,41.634,748.2846],[1.4401,41.6356,755.4358],[1.4435,41.6345,744.9185],[1.4483,41.6361,659.9455],[1.4502,41.6466,600.43],[1.4449,41.6458,642.8705],[1.4331,41.6514,704.2832],[1.4257,41.6609,717.8212],[1.4254,41.6696,698.1718],[1.4151,41.6746,657.2649],[1.419,41.6765,664.6454],[1.4234,41.6841,666.3982],[1.4043,41.6862,621.0491],[1.4042,41.6949,675.843],[1.3959,41.6961,666.0746],[1.4004,41.7044,647.2506],[1.3979,41.7056,681.8259],[1.382,41.7058,653.564],[1.4008,41.7196,699.4844],[1.4157,41.7281,680.4404],[1.4199,41.7328,699.7012],[1.4249,41.7328,708.4941],[1.4253,41.7347,707.6674],[1.422,41.7354,700.5902],[1.416,41.7405,678.7161],[1.4113,41.7408,670.4752],[1.403,41.7453,657.7219],[1.4037,41.7489,656.8966],[1.4074,41.7527,666.1667],[1.4115,41.7663,600.3246],[1.4109,41.775,580.7811],[1.4156,41.776,620.7084],[1.4185,41.788,481.002],[1.4216,41.7932,451.3411],[1.4196,41.792,449.2301],[1.417,41.7947,445.5615],[1.4263,41.8019,544.7347],[1.4441,41.8004,596.9426],[1.4512,41.7978,640.3257],[1.4655,41.7984,597.5302],[1.4711,41.801,629.0585],[1.4718,41.792,584.4885],[1.4696,41.7874,539.7468],[1.4735,41.7826,497.0857],[1.4698,41.7819,492.4908],[1.4693,41.7792,489.8071],[1.4611,41.7767,488.6285],[1.4671,41.7756,519.4376],[1.4683,41.771,558.3196],[1.4786,41.7737,528.3885],[1.4795,41.772,515.5448],[1.4839,41.772,519.0763],[1.4815,41.775,504.3184],[1.4877,41.7774,563.1423],[1.4825,41.791,514.1057],[1.4886,41.7888,594.2975],[1.4964,41.7898,638.7034],[1.5049,41.7879,628.8603],[1.5083,41.7741,568.3602],[1.5121,41.7726,566.104],[1.5104,41.7713,543.7595],[1.5189,41.7709,556.1033],[1.5224,41.7664,576.1405],[1.5275,41.764,595.4094],[1.5328,41.7636,625.5287],[1.5282,41.7591,626.4708],[1.5307,41.7526,718.5854],[1.5352,41.7529,728.4095],[1.5361,41.755,702.2907],[1.5341,41.7573,707.2207],[1.5447,41.7576,740.103],[1.5483,41.7707,743.9202],[1.5617,41.7702,823.859],[1.5612,41.7774,690.754],[1.5689,41.7774,716.8314],[1.5726,41.7822,757.7203],[1.5814,41.7756,715.6276],[1.5936,41.778,817.4409],[1.5922,41.7808,845.2737],[1.5998,41.7891,836.9547],[1.5971,41.7913,896.0228],[1.5959,41.7942,832.7354],[1.598,41.794,840.1428],[1.5971,41.7965,808.1141],[1.595,41.7965,795.252],[1.594,41.8019,724.7883],[1.589,41.804,755.8665],[1.5933,41.812,739.4317],[1.6024,41.8136,724.3051],[1.6115,41.8178,740.8069],[1.6155,41.8303,637.7194],[1.61,41.8361,521.2156],[1.6193,41.8418,508.4717],[1.6231,41.8411,504.967],[1.6315,41.8447,498.2758],[1.6265,41.8487,528.0413],[1.6303,41.8588,586.1474],[1.6281,41.8602,606.858],[1.6256,41.8691,638.1848],[1.6227,41.8707,621.9931],[1.6187,41.8776,674.0787],[1.6191,41.8816,677.2063],[1.611,41.8806,631.5266],[1.6059,41.8841,637.1761],[1.6027,41.8825,649.0187],[1.6018,41.8843,645.3619],[1.5834,41.8734,653.7739],[1.569,41.88,674.6263],[1.5764,41.8916,724.3508],[1.5828,41.8929,745.9595],[1.5847,41.8908,727.8478],[1.5835,41.8885,702.2549],[1.5869,41.8886,700.9119],[1.5959,41.8972,697.8457],[1.6005,41.9046,674.1906],[1.6052,41.9015,685.0138],[1.6159,41.906,649.4612],[1.6171,41.91,621.4845],[1.6228,41.9134,588.6569],[1.6223,41.9155,554.2893],[1.6325,41.9209,502.7778],[1.6383,41.9272,477.082],[1.6432,41.9291,471.0087],[1.65,41.9267,579.1733],[1.653,41.9288,557.6147],[1.6427,41.9405,609.4708],[1.6447,41.9438,569.1214],[1.6504,41.9448,477.0575],[1.6474,41.9529,529.3008],[1.6494,41.9566,529.7341],[1.6457,41.959,529.7876],[1.6443,41.969,574.8056],[1.6514,41.9787,537.3018],[1.6501,41.9797,530.8621],[1.6556,41.9807,515.8724],[1.6561,41.9791,517.019],[1.6603,41.9777,502.8456],[1.6599,41.983,516.1859],[1.6679,41.9846,544.125],[1.6753,41.9826,554.9222],[1.6694,41.9733,526.8245],[1.6695,41.9699,504.7953],[1.6705,41.9706,505.1713],[1.6718,41.9683,499.7476],[1.6788,41.9689,563.0081],[1.6828,41.9674,557.9357],[1.6963,41.975,559.5513],[1.7148,41.9813,643.576],[1.7192,41.9845,600.8019],[1.713,41.992,655.6749],[1.7155,41.9912,636.1317],[1.7175,41.993899999999996,690.1144],[1.7156,41.9968,655.7001],[1.718,41.9972,687.678],[1.718,41.9995,690.7485],[1.7128,42.0028,733.0348],[1.7069,42.0028,706.6561],[1.7078,42.0075,757.2102],[1.6978,42.0147,853.2986],[1.6909,42.006,714.8351],[1.6993,41.993,632.6937],[1.6967,41.9915,617.7301],[1.6975,41.9852,588.4477],[1.6911,41.9866,611.3369],[1.6911,41.9908,618.946],[1.6897,41.9903,599.0471],[1.6848,41.9949,607.6738],[1.6766,41.9944,583.3966],[1.6682,41.9904,559.069],[1.662,41.9911,557.1194],[1.6619,42.003,598.3344],[1.6579,42.0051,600.1735],[1.6548,42.0024,579.155],[1.657,42.0013,586.1703],[1.6551,41.9996,558.2825],[1.6577,41.9983,554.9825],[1.6554,41.9935,524.9891],[1.652,41.9925,521.6274],[1.6517,41.9993,547.3375],[1.6479,42.0002,535.6992],[1.6487,42.0034,555.9761],[1.6527,42.007,561.4821],[1.6517,42.014,598.465],[1.6545,42.016,627.2926],[1.6559,42.0209,710.5406],[1.6619,42.0234,780.0463],[1.6647,42.0223,855.9155],[1.665,42.0191,767.6573],[1.662,42.0154,721.031],[1.6623,42.0116,689.6855],[1.6653,42.0107,659.7814],[1.664,42.0081,622.6816],[1.6603,42.0067,602.4984],[1.666,42.0035,610.4373],[1.6699,42.007,667.2045],[1.6686,42.0137,720.7261],[1.6725,42.0181,692.6988],[1.6749,42.0196,705.2324],[1.678,42.0186,793.3698],[1.6837,42.0255,879.7917],[1.6897,42.0271,818.9677],[1.6888,42.0279,818.9677],[1.698,42.0274,820.665],[1.6995,42.0296,837.1134],[1.6943,42.0352,880.5342],[1.6973,42.037,935.1727],[1.6925,42.0462,1040.736],[1.6836,42.0481,845.3726],[1.6826,42.0499,831.5833],[1.68,42.0465,855.1057],[1.6786,42.0383,770.609],[1.6719,42.041,839.7538],[1.6708,42.045,894.9346],[1.6737,42.0523,1096.7538],[1.6744,42.0592,1133.7229],[1.6844,42.0671,992.6739],[1.6897,42.0744,1158.3855],[1.6914,42.0781,1330.829],[1.6883,42.0784,1202.817],[1.6884,42.0815,1325.9526],[1.6913,42.0871,1019.697],[1.7076,42.0827,1329.304],[1.7166,42.0847,1397.2664],[1.7221,42.0911,1505.6235],[1.7225,42.0998,1027.5227],[1.7117,42.1016,1191.6196],[1.7051,42.1067,977.5707],[1.7093,42.1098,1076.9296],[1.7117,42.1195,975.455],[1.6989,42.1285,1083.3411],[1.6986,42.1357,1039.7795],[1.7038,42.1407,1250.8256],[1.7027,42.1421,1274.1907],[1.7068,42.1453,1309.2954],[1.708,42.1498,1355.6309],[1.7136,42.1541,1514.9497],[1.7206,42.1517,1506.9521],[1.7343,42.1594,1372.9928],[1.7365,42.1628,1428.8931],[1.7359,42.171,1482.3033],[1.7391,42.1766,1547.5923],[1.7363,42.1835,1844.8295],[1.738,42.185,2090.0403],[1.7368,42.1852,2080.6704],[1.7377,42.1895,2285.4253],[1.7215,42.1962,1980.8529],[1.7145,42.1928,1849.7574],[1.7132,42.1905,1869.2457],[1.7074,42.1901,1725.4629],[1.6896,42.1991,1417.9834],[1.6863,42.2064,1498.4272],[1.6804,42.2064,1576.5312],[1.6854,42.2208,1377.2407],[1.681,42.2243,1406.6543],[1.7003,42.2307,2016.7391],[1.7013,42.2348,2216.6072],[1.7042,42.2362,2361.1475],[1.7032,42.2399,2432.4883],[1.6988,42.2411,2376.6768],[1.6967,42.245,2247.7637],[1.6898,42.2476,2161.957],[1.688,42.2545,1965.7212],[1.6846,42.2565,2002.1412],[1.6854,42.2605,1828.7444],[1.6951,42.2639,1847.959],[1.6902,42.2771,2259.8511],[1.6842,42.2763,2108.1299],[1.6703,42.2817,2544.9949],[1.6751,42.2859,2354.0081],[1.7024,42.2849,2436.5803],[1.7156,42.2881,2440.6416],[1.7192,42.284,2441.9807],[1.7343,42.284,2395.8833],[1.7407,42.2906,2323.4609],[1.7624,42.2938,2108.8472],[1.7755,42.2909,2001.7379],[1.7868,42.2945,1819.2383],[1.7973,42.2948,1831.845],[1.797,42.2975,1804.1868],[1.8045,42.3021,1978.3501],[1.8146,42.3023,2000.3301],[1.8184,42.2995,1996.5007],[1.8265,42.2993,1980.3511],[1.8328,42.3013,2051.1101],[1.8373,42.3056,2099.4946],[1.8426,42.3064,2232.3062],[1.8353,42.3185,1778.875],[1.8351,42.3245,1511.6948],[1.8332,42.3268,1378.3076],[1.8362,42.3311,1351.7651],[1.8349,42.333,1318.8286],[1.8398,42.3396,1221.8262],[1.836,42.341,1220.567],[1.8387,42.3505,1238.582],[1.8352,42.3556,1293.5176],[1.8446,42.3549,1272.2605],[1.8478,42.3643,1132.2322],[1.8551,42.3697,1131.2178],[1.851,42.3735,1114.9893],[1.8446,42.3749,1092.5598],[1.8401,42.3737,1088.4877],[1.8332,42.3758,1061.8799],[1.83,42.3814,1038.2546],[1.8106,42.3699,1082.8782],[1.8061,42.3701,1071.4214],[1.8046,42.3754,1054.0483],[1.8015,42.3752,1119.4558],[1.8001,42.378,1179.6787],[1.8085,42.3938,1166.9841],[1.8053,42.4086,1210.3689],[1.811,42.4111,1405.9612],[1.8016,42.4249,1531.0333],[1.7977,42.4261,1502.703],[1.7946,42.4309,1324.5627],[1.777,42.4316,1734.7368],[1.7695,42.4281,1893.7153],[1.7576,42.4331,2087.905],[1.7452,42.4332,2287.7766],[1.7319,42.4404,2493.5527],[1.7321,42.4449,2562.1995],[1.7284,42.4482,2635.5317],[1.7271,42.453,2727.7874],[1.7263,42.4615,2646.0935],[1.7331,42.4738,2768.1777],[1.7243,42.487,2759.4438],[1.7309,42.4925,2846.79],[1.7263,42.5049,2476.8906],[1.7115,42.4923,2240.7207],[1.7036,42.4898,2276.1606],[1.691,42.4948,2389.4441],[1.6789,42.4955,2478.1809],[1.6704,42.5042,2794.3389],[1.6626,42.4936,2557.8167],[1.6609,42.479,2676.7314],[1.6625,42.474,2809.0037],[1.6559,42.4682,2894.7346],[1.6458,42.4688,2731.012],[1.6405,42.4667,2733.0625],[1.6351,42.4672,2759.0781],[1.63,42.4636,2809.4333],[1.6234,42.4655,2708.5044],[1.6053,42.4648,2681.9529],[1.5976,42.4676,2599.2261],[1.5867,42.4618,2665.5593],[1.583,42.457,2516.5308],[1.5809,42.45,2741.1191],[1.5755,42.4518,2663.0659],[1.567,42.459,2613.125],[1.5612,42.4587,2607.325],[1.557,42.4539,2576.366],[1.5597,42.4483,2521.6426],[1.5549,42.4461,2497.8999],[1.5531,42.4435,2417.8909],[1.5526,42.4335,2201.4932],[1.5258,42.4322,2022.4368],[1.5123,42.4296,1748.7139],[1.4946,42.4332,1373.8762],[1.4566,42.4359,1202.4446],[1.4516,42.4375,1177.047],[1.4441,42.4437,1338.2273],[1.4468,42.4438,1436.5321],[1.4462,42.4482,1613.989],[1.4418,42.4535,1802.9097],[1.4475,42.4601,1921.2786],[1.4401,42.4644,2030.9983],[1.441,42.4755,1930.728],[1.4334,42.4818,2147.7529],[1.4192,42.4838,2117.8667],[1.4258,42.4935,1733.877],[1.4434,42.4952,1431.3643],[1.4692,42.5108,2310.7966],[1.4653,42.5138,2132.979],[1.46,42.5235,2222.4441],[1.4539,42.5271,2321.3618],[1.4518,42.5344,2307.9077],[1.4526,42.5382,2257.3103],[1.4437,42.5426,1944.7289],[1.4397,42.5437,1846.6511],[1.4231,42.5379,2415.9238],[1.4142,42.5377,2568.292],[1.4192,42.5451,2318.8628],[1.4193,42.5495,2369.6467],[1.4262,42.5587,2492.1628],[1.4446,42.5667,2492.6799],[1.4444,42.572,2588.7607],[1.4331,42.5756,2630.2109],[1.4273,42.5831,2651.2297],[1.4284,42.5878,2843.1396],[1.4407,42.5881,2747.2476],[1.4442,42.5924,2847.9438],[1.442,42.5993,2813.5034],[1.4289,42.6134,2631.5725],[1.4299,42.6153,2582.6025],[1.4209,42.6249,2805.7593],[1.413,42.6526,2793.6846],[1.4055,42.6569,2920.958],[1.3928,42.6674,2919.1953],[1.3871,42.6688,3016.3682],[1.3892,42.6731,2858.7656],[1.3862,42.6781,2878.8291],[1.3879,42.6873,2590.5813],[1.377,42.6941,2600.4731],[1.3653,42.6952,2597.5544],[1.3544,42.7003,2531.9602],[1.3518,42.7029,2448.3472],[1.3528,42.7113,2473.9873],[1.3554,42.7134,2495.2671],[1.3574,42.7194,2504.6738],[1.3401,42.7188,2373.1011],[1.3353,42.724,2477.6621],[1.3259,42.7241,2493.3667],[1.3093,42.7179,2543.3582],[1.2953,42.7191,2447.5693],[1.2781,42.7148,2738.8198],[1.2772,42.7163,2700.7603],[1.2692,42.718,2649.8875],[1.2519,42.7148,2553.3469],[1.2509,42.7187,2458.769],[1.2425,42.7241,2281.9897],[1.2293,42.7277,2577.3364],[1.2163,42.7207,2526.4744],[1.1891,42.7164,2528.9631],[1.1751,42.7088,2789.8135]],
[[1.6879,42.1065,899.1437],[1.6894,42.1049,902.6677],[1.6794,42.1036,1137.7964],[1.6676,42.1049,1211.2906],[1.6449,42.1126,1209.5686],[1.6519,42.1145,1247.8461],[1.6554,42.1135,1205.928],[1.656,42.1154,1283.0983],[1.664,42.1136,1123.9539],[1.6832,42.1145,1175.1357],[1.6917,42.1129,1158.9745],[1.6919,42.1103,943.1432],[1.6879,42.1065,899.1437]]],
[[[1.72,41.8954,387.4103],[1.7183,41.8929,376.4971],[1.7153,41.8922,368.7641],[1.7117,41.8962,361.8146],[1.7087,41.8969,358.6416],[1.7089,41.8939,356.5805],[1.7118,41.8911,358.7773],[1.7097,41.8888,364.586],[1.706,41.8894,395.036],[1.7156,41.8859,379.13],[1.7188,41.8824,347.2243],[1.7249,41.8931,438.2283],[1.72,41.8954,387.4103]]]]}}