{"type": "Feature","bbox": [-6.997,42.8828,-6.299,43.4599],"geometry": {"type": "MultiPolygon","coordinates": [[[[-6.6466,42.9238,1646.5024],[-6.6386,42.9254,1805.6008],[-6.6321,42.9232,1682.2052],[-6.6284,42.9195,1645.7098],[-6.6128,42.9245,1611.2234],[-6.6064,42.9161,1643.6938],[-6.5977,42.9185,1610.194],[-6.5902,42.9167,1693.3555],[-6.5793,42.9185,1655.6879],[-6.571,42.917,1607.5077],[-6.5689,42.9147,1621.9156],[-6.5411,42.9125,1901.1853],[-6.5382,42.9196,1708.7678],[-6.5344,42.9221,1566.6185],[-6.5226,42.9235,1415.0044],[-6.5104,42.9287,1499.5906],[-6.4963,42.9215,1722.7349],[-6.4896,42.9202,1899.3064],[-6.486,42.929,1623.1045],[-6.4771,42.9339,1699.1093],[-6.4511,42.9355,1676.311],[-6.4422,42.9393,1605.489],[-6.433,42.9397,1705.8169],[-6.4415,42.9473,1587.8149],[-6.4335,42.9641,1447.8864],[-6.4422,42.9668,1467.6086],[-6.4516,42.9659,1562.9014],[-6.4622,42.9676,1688.9226],[-6.4684,42.9661,1718.4214],[-6.4729,42.9677,1766.4731],[-6.4745,42.9706,1609.7014],[-6.4723,42.9773,1559.1703],[-6.4781,42.9801,1512.5413],[-6.4788,42.9897,1697.191],[-6.4772,42.9919,1740.1925],[-6.4707,42.9916,1720.6899],[-6.4657,42.9863,1686.6038],[-6.4589,42.9836,1466.3584],[-6.4463,42.9821,1703.2599],[-6.437,42.993,1963.3763],[-6.4275,42.9876,1878.9846],[-6.4249,42.9876,1866.2771],[-6.4074,42.9995,1711.9341],[-6.4103,43.0016,1725.7067],[-6.412,43.0086,1730.5327],[-6.411,43.0169,1842.0996],[-6.4078,43.0185,1831.6232],[-6.4022,43.0162,1704.833],[-6.3942,43.0166,1654.8347],[-6.3907,43.0258,1650.5979],[-6.3916,43.0312,1783.3087],[-6.3949,43.0326,1784.974],[-6.3969,43.0383,1842.8726],[-6.39,43.0405,1799.7169],[-6.3734,43.0411,1866.5367],[-6.3739,43.0462,1902.7224],[-6.3644,43.0502,1793.7354],[-6.3619,43.0541,1786.9863],[-6.3633,43.0573,1860.1624],[-6.359,43.0595,1850.8882],[-6.3599,43.0634,1777.7865],[-6.3583,43.0683,1845.5619],[-6.362,43.0743,1773.2688],[-6.3661,43.0771,1857.963],[-6.3635,43.0825,1751.829],[-6.3668,43.0904,1593.6724],[-6.3628,43.1025,1510.2712],[-6.3653,43.1027,1509.0156],[-6.3733,43.1083,1513.9692],[-6.3739,43.1158,1586.1648],[-6.3722,43.1181,1600.123],[-6.3765,43.1277,1592.1942],[-6.3747,43.1313,1587.8704],[-6.3772,43.1357,1633.8268],[-6.3725,43.1475,1606.8394],[-6.3649,43.1502,1353.1133],[-6.3557,43.1508,1520.5631],[-6.3595,43.159,1326.8557],[-6.3585,43.161,1413.637],[-6.3541,43.1627,1499.1927],[-6.3518,43.1748,1239.8409],[-6.3488,43.18,1303.4786],[-6.3438,43.1818,1268.9188],[-6.3388,43.1986,1377.0571],[-6.3325,43.2055,1391.9502],[-6.3368,43.2125,1339.2332],[-6.3305,43.2153,1123.0537],[-6.3306,43.2245,708.1901],[-6.3221,43.2303,1229.9132],[-6.3151,43.2319,1211.1523],[-6.3153,43.2341,1335.8706],[-6.3244,43.2418,982.8069],[-6.3394,43.2496,833.4567],[-6.3413,43.2554,825.7178],[-6.3416,43.2643,942.5557],[-6.3325,43.2692,674.8632],[-6.3275,43.2696,713.4578],[-6.3313,43.2739,696.8461],[-6.33,43.2846,644.6129],[-6.3321,43.2866,638.0032],[-6.3331,43.2942,517.8077],[-6.3203,43.3022,232.9176],[-6.3169,43.3023,227.0096],[-6.3178,43.3065,198.0],[-6.3091,43.3122,198.0],[-6.3031,43.3218,187.6674],[-6.3077,43.324,376.8246],[-6.3105,43.3288,676.7817],[-6.315,43.3304,718.518],[-6.3067,43.3445,700.6422],[-6.299,43.3496,380.8561],[-6.3002,43.3515,291.8099],[-6.3018,43.3507,291.8099],[-6.3098,43.3559,423.842],[-6.3221,43.3583,521.3791],[-6.3348,43.3641,666.4354],[-6.3263,43.3769,671.3682],[-6.3341,43.3866,654.3449],[-6.3481,43.3943,583.2347],[-6.3513,43.3992,442.185],[-6.3472,43.4001,439.0886],[-6.3448,43.4051,400.2755],[-6.3487,43.4138,404.8666],[-6.3507999999999996,43.4137,398.5639],[-6.354,43.4182,374.0909],[-6.3534,43.4217,353.3317],[-6.3613,43.4265,278.5334],[-6.3598,43.4277,285.8526],[-6.3625,43.4318,305.9377],[-6.3736,43.4248,696.0751],[-6.3812,43.4229,763.955],[-6.3847,43.4197,759.0349],[-6.3861,43.4114,870.6989],[-6.39,43.4078,905.923],[-6.393,43.3998,994.6183],[-6.3906,43.3986,1002.8466],[-6.3949,43.3982,1006.8065],[-6.4183,43.4038,812.434],[-6.4293,43.4082,743.9912],[-6.4272,43.4138,715.0798],[-6.4333,43.4237,579.6555],[-6.4391,43.4276,725.2159],[-6.4493,43.4289,748.4092],[-6.4495,43.436,747.6873],[-6.4532,43.4391,759.3533],[-6.4656,43.436,734.5015],[-6.4738,43.4419,622.5099],[-6.4773,43.4404,461.8942],[-6.4766,43.439,527.1251],[-6.4832,43.4379,345.158],[-6.4942,43.4322,402.6639],[-6.506,43.4338,391.9458],[-6.5101,43.4358,246.8247],[-6.5093,43.4384,282.0854],[-6.5147,43.4335,278.2926],[-6.5174,43.436,378.4946],[-6.5255,43.4365,570.024],[-6.5312,43.4389,608.0687],[-6.5386,43.4458,562.0966],[-6.5458,43.4497,704.9011],[-6.546,43.4531,734.2745],[-6.5529,43.4586,708.8013],[-6.5586,43.4599,819.9933],[-6.563,43.4562,802.4561],[-6.5758,43.459,740.3113],[-6.5986,43.4548,965.0648],[-6.602,43.4447,890.4056],[-6.6071,43.4417,847.6304],[-6.6102,43.4358,843.8288],[-6.6335,43.4244,895.2062],[-6.6425,43.4126,922.0579],[-6.6454,43.4132,865.0656],[-6.6461,43.4113,839.3683],[-6.6444,43.4097,833.7712],[-6.6411,43.4099,833.3191],[-6.64,43.4078,840.582],[-6.6453,43.4006,840.34],[-6.6431,43.4002,850.1437],[-6.6565,43.3841,873.8444],[-6.6566,43.3784,843.7885],[-6.6621,43.3743,884.9281],[-6.663,43.3688,959.5861],[-6.6658,43.3672,1002.7159],[-6.6818,43.3723,688.8553],[-6.6837,43.3745,741.3356],[-6.6938,43.3741,518.4541],[-6.7023,43.3676,520.5098],[-6.7061,43.3597,735.8831],[-6.7057,43.3553,839.8519],[-6.7201,43.3435,1054.5876],[-6.7276,43.3335,1086.0372],[-6.7395,43.3254,1118.6746],[-6.7434,43.3204,1121.1338],[-6.7564,43.3183,1138.6503],[-6.7732,43.3077,1061.6807],[-6.7913,43.2903,686.7698],[-6.8017,43.2861,627.5996],[-6.8156,43.2838,620.9807],[-6.8304,43.2765,116.7666],[-6.8316,43.2677,132.7269],[-6.8357,43.2617,116.3832],[-6.8404,43.2583,131.4971],[-6.8442,43.2498,123.0477],[-6.8438,43.2482,175.6162],[-6.8399,43.248,136.3818],[-6.8397,43.2433,134.6983],[-6.8452,43.237,149.3215],[-6.8479,43.2364,188.375],[-6.8446,43.2336,408.6964],[-6.838,43.2318,646.7931],[-6.8208,43.2302,983.5941],[-6.8129,43.2252,1046.6467],[-6.7999,43.2209,856.3925],[-6.7951,43.2296,792.4387],[-6.7882,43.2229,1021.7092],[-6.794,43.2076,1061.9426],[-6.8212,43.2058,1011.3555],[-6.8281,43.195,659.3381],[-6.83,43.189,790.0735],[-6.8292,43.1798,797.1712],[-6.8388,43.1661,233.4568],[-6.8367,43.1576,348.9802],[-6.8297,43.1519,525.1308],[-6.8262,43.1458,819.9796],[-6.8214,43.1432,989.4337],[-6.8245,43.1403,1049.0173],[-6.8238,43.137,1054.3105],[-6.8267,43.1313,1096.2385],[-6.8275,43.1231,1204.5419],[-6.8515,43.109,1112.6318],[-6.8555,43.1085,1113.5813],[-6.8564,43.1062,1090.6271],[-6.8651,43.1011,927.9638],[-6.8712,43.0912,895.6396],[-6.8902,43.0905,549.6937],[-6.8938,43.0918,503.2359],[-6.8989,43.088,308.8394],[-6.9009,43.0838,227.9594],[-6.9109,43.078,570.3639],[-6.9155,43.0734,892.5295],[-6.9232,43.0818,700.0638],[-6.9341,43.0816,433.5914],[-6.938,43.0867,215.75],[-6.9401,43.0806,258.3918],[-6.9442,43.0774,224.0382],[-6.9517,43.0762,230.2158],[-6.9503,43.0682,224.7262],[-6.9572,43.0681,234.6246],[-6.9559,43.0635,310.1636],[-6.9611,43.0611,246.2765],[-6.966,43.0613,239.0841],[-6.9679,43.0557,251.8981],[-6.962,43.0524,297.6211],[-6.9646,43.0504,296.9178],[-6.9632,43.0443,268.3885],[-6.9659,43.0377,251.5243],[-6.9645,43.0346,296.692],[-6.969,43.0351,445.022],[-6.9689,43.0327,448.0895],[-6.9723,43.0303,454.0028],[-6.9757,43.0319,710.4988],[-6.9778,43.0379,644.7369],[-6.9818,43.0413,517.499],[-6.9871,43.0292,859.2169],[-6.9911,43.0308,886.3162],[-6.9968,43.0277,834.786],[-6.9948,43.0263,850.0966],[-6.997,43.0194,820.4394],[-6.9857,43.0142,817.1897],[-6.9836,43.004,799.9954],[-6.9795,43.0048,616.7131],[-6.975,42.9963,674.8499],[-6.9724,42.9963,654.033],[-6.972,42.994,624.093],[-6.9621,42.9906,298.7253],[-6.9618,42.9938,303.3269],[-6.9637,42.9928,275.1794],[-6.9636,42.9957,293.6933],[-6.9559,42.9961,317.7401],[-6.9619,43.0008,272.8402],[-6.9598,43.0044,293.9345],[-6.962,43.0057,268.0793],[-6.9598,43.0072,268.8669],[-6.9619,43.012,268.446],[-6.9594,43.0144,264.3482],[-6.9638,43.0196,256.7441],[-6.9606,43.0212,260.4832],[-6.9605,43.0229,260.4196],[-6.9643,43.0265,276.9767],[-6.9578,43.0291,419.3542],[-6.9577,43.0335,468.1724],[-6.9559,43.0346,505.7004],[-6.957,43.0367,448.7833],[-6.9464,43.0324,752.9008],[-6.9405,43.0114,791.6478],[-6.9354,43.0103,736.4739],[-6.9323,43.0086,744.4843],[-6.9307,43.0046,815.0916],[-6.9219,43.0013,899.3167],[-6.9102,42.9901,969.1598],[-6.8936,42.9879,1049.1013],[-6.8805,42.9913,1152.3556],[-6.8716,42.9889,928.2128],[-6.8677,42.9837,982.6566],[-6.8647,42.9838,927.6443],[-6.8618,42.9793,964.2573],[-6.8359,42.9577,1193.1654],[-6.8345,42.9409,1176.1406],[-6.8417,42.9282,1418.0934],[-6.8357,42.9163,1245.5378],[-6.8009,42.9101,1452.1893],[-6.7896,42.9045,1703.1874],[-6.7705,42.8986,1600.1577],[-6.768,42.8949,1582.0221],[-6.7678,42.8902,1700.9375],[-6.7732,42.8866,1797.563],[-6.7736,42.8828,1842.7595],[-6.7603,42.884,1697.321],[-6.7565,42.883,1833.0522],[-6.7491,42.8941,1715.0375],[-6.7405,42.8994,1726.8074],[-6.7344,42.9076,1676.8623],[-6.7225,42.9175,1720.8223],[-6.7126,42.915,1788.9957],[-6.6958,42.9189,1864.6501],[-6.6909,42.9223,1829.8622],[-6.6671,42.9245,1789.3333],[-6.6605,42.9228,1752.0847],[-6.6568,42.9245,1833.2544],[-6.6466,42.9238,1646.5024]]]]}
,"properties": {"GID_3": "ESP.17.1.5_1","GID_0": "ESP","country": "Spain","GID_1": "ESP.17_1","province": "PrincipadodeAsturias","NL_NAME_1": "NA","GID_2": "ESP.17.1_1","county": "Asturias","NL_NAME_2": "NA","city": "n.a.(194)","VARNAME_3": "NA","NL_NAME_3": "NA","TYPE_3": "Comarca","ENGTYPE_3": "Comarca","CC_3": "NA","HASC_3": "NA","name": "n.a.(194).city","area_km2": 2122.967,"hist_schema_id": "Elevation0-9000","hist_area_km2": {"100": 0.247,"125": 0.278,"150": 0.602,"175": 1.279,"200": 3.547,"225": 5.322,"250": 8.488,"275": 12.486,"300": 14.834,"325": 18.631,"350": 22.089,"375": 25.27,"400": 30.043,"425": 33.999,"450": 38.399,"475": 43.14,"500": 48.536,"525": 52.848,"550": 55.662,"575": 60.33,"600": 63.366,"625": 63.058,"650": 65.599,"675": 67.013,"700": 64.781,"725": 66.959,"750": 62.967,"775": 61.026,"800": 60.494,"825": 60.08,"850": 60.668,"875": 58.742,"900": 57.573,"925": 56.417,"950": 54.15,"975": 54.043,"1000": 50.58,"1025": 45.131,"1050": 43.714,"1075": 41.456,"1100": 38.922,"1125": 36.481,"1150": 35.368,"1175": 32.525,"1200": 31.307,"1225": 29.404,"1250": 25.841,"1275": 23.348,"1300": 20.205,"1325": 18.752,"1350": 17.667,"1375": 17.035,"1400": 15.193,"1425": 14.464,"1450": 13.039,"1475": 12.822,"1500": 12.064,"1525": 11.552,"1550": 10.963,"1575": 10.002,"1600": 10.064,"1625": 8.839,"1650": 8.017,"1675": 7.165,"1700": 6.528,"1725": 6.218,"1750": 4.559,"1775": 3.767,"1800": 2.822,"1825": 1.783,"1850": 1.457,"1875": 0.481,"1900": 0.279,"1925": 0.031,"1950": 0.109,"1975": 0.047}}}