{"type":"Feature","properties":{"GID_3":"ESP.5.3.6_1","GID_0":"ESP","country":"Spain","GID_1":"ESP.5_1","province":"CastillayLeón","NL_NAME_1":"NA","GID_2":"ESP.5.3_1","county":"León","NL_NAME_2":"NA","city":"n.a.(153)","VARNAME_3":"NA","NL_NAME_3":"NA","TYPE_3":"Comarca","ENGTYPE_3":"Comarca","CC_3":"NA","HASC_3":"NA","name":"n.a.(153).city"},
"geometry":{"type": "MultiPolygon","coordinates": [[[[-5.9526,42.4145,847.7286],[-5.9524,42.4186,891.143],[-5.9505,42.4205,897.1517],[-5.9298,42.4192,813.95],[-5.9177,42.4166,805.9611],[-5.9122,42.4097,802.3275],[-5.9085,42.4096,803.3165],[-5.9096,42.4076,801.9385],[-5.9039,42.4045,802.1089],[-5.8996,42.4064,799.5267],[-5.8976,42.4006,797.596],[-5.8896,42.3991,798.0103],[-5.8932,42.3953,796.363],[-5.8837,42.396,796.054],[-5.8853,42.4001,796.6598],[-5.882,42.4004,796.4876],[-5.8809,42.3972,795.736],[-5.8768,42.3954,794.2],[-5.8752,42.3967,795.0532],[-5.8724,42.4015,805.5068],[-5.8729,42.418,808.3257],[-5.8767,42.4272,823.7766],[-5.8736,42.4363,816.0632],[-5.8785,42.452,811.4194],[-5.878,42.4584,815.9465],[-5.8635,42.459,826.3552],[-5.8673,42.4611,828.5767],[-5.8668,42.4638,828.4616],[-5.8597,42.4675,837.3141],[-5.8692,42.4697,829.5351],[-5.8774,42.4695,826.8386],[-5.8818,42.474,826.5903],[-5.8824,42.4826,829.3448],[-5.8883,42.4889,827.3812],[-5.8853,42.4913,827.4704],[-5.8846,42.4978,834.8036],[-5.8747,42.5179,839.8247],[-5.8653,42.5253,855.751],[-5.8585,42.5285,847.9265],[-5.8584,42.5321,868.1736],[-5.8548,42.5317,857.8784],[-5.8378,42.5461,855.5697],[-5.8371,42.5502,855.5059],[-5.8319,42.5524,860.9003],[-5.8297,42.5591,867.3388],[-5.8234,42.568,874.7566],[-5.8121,42.5669,893.3429],[-5.8033,42.5758,908.0562],[-5.7978,42.5795,918.7567],[-5.7926,42.5803,933.2885],[-5.7914,42.5861,935.8711],[-5.7848,42.5911,927.4873],[-5.7776,42.6005,979.9312],[-5.7784,42.61,1002.8319],[-5.8098,42.6082,892.754],[-5.8154,42.6249,888.6818],[-5.8178,42.64,899.6979],[-5.8263,42.6491,900.2604],[-5.8253,42.6537,903.7255],[-5.8275,42.6565,909.7174],[-5.8207,42.6589,903.1208],[-5.8262,42.6713,912.4839],[-5.8241,42.6715,912.5577],[-5.8201,42.6819,925.2628],[-5.8253,42.6888,918.395],[-5.8274,42.6965,924.4641],[-5.8626,42.7023,1123.3934],[-5.8656,42.712,1076.5615],[-5.8753,42.7182,1110.9183],[-5.8855,42.7168,1059.8005],[-5.9158,42.7249,1017.8822],[-5.9329,42.7252,985.7086],[-5.9615,42.7372,1235.7795],[-5.9746,42.74,1294.9495],[-6.0196,42.7413,1356.5382],[-6.0285,42.7452,1434.4536],[-6.0713,42.7571,1534.4236],[-6.0937,42.7556,1565.7882],[-6.1042,42.7567,1557.9877],[-6.1133,42.7544,1531.3567],[-6.1139,42.75,1503.201],[-6.1283,42.748,1551.6213],[-6.1242,42.7386,1502.0745],[-6.1175,42.7352,1439.2802],[-6.1154,42.7322,1355.8054],[-6.1195,42.7269,1432.7073],[-6.12,42.7167,1318.8225],[-6.1242,42.7141,1365.7983],[-6.1386,42.711,1340.0872],[-6.1392,42.7095,1317.8809],[-6.1472,42.7101,1313.9498],[-6.1577,42.7053,1271.7567],[-6.1602,42.7015,1309.2319],[-6.1785,42.6975,1281.027],[-6.1965,42.7032,992.5001],[-6.2,42.7008,1055.8896],[-6.1985,42.6987,1224.1543],[-6.2004,42.6964,1281.7006],[-6.2107,42.6932,1260.8309],[-6.2126,42.6831,1133.6173],[-6.205,42.6797,1293.5693],[-6.1941,42.6791,1319.2852],[-6.1972,42.6759,1275.8119],[-6.1978,42.6695,1223.4685],[-6.2011,42.6659,1221.5494],[-6.2006,42.661,1225.053],[-6.2213,42.6589,1224.6101],[-6.2269,42.6492,1191.1251],[-6.2346,42.6468,1176.8801],[-6.2398,42.6265,1132.323],[-6.257,42.6203,1119.9631],[-6.2561,42.6104,1074.6035],[-6.2734,42.6056,967.7823],[-6.2818,42.6073,1027.8484],[-6.2867,42.6042,1008.4925],[-6.2924,42.6035,982.4282],[-6.2949,42.5993,945.3694],[-6.3086,42.5949,825.6512],[-6.2893,42.5871,925.7551],[-6.2714,42.5775,984.6887],[-6.271,42.5734,1079.5933],[-6.2626,42.5686,1160.2585],[-6.2564,42.5601,1186.5504],[-6.2437,42.557,1373.4227],[-6.2515,42.5516,1366.7424],[-6.2732,42.5501,1492.5162],[-6.2861,42.5474,1490.9351],[-6.2929,42.5496,1513.6951],[-6.2972,42.5377,1289.4443],[-6.3006,42.5345,1269.6455],[-6.2961,42.5306,1299.7477],[-6.3054,42.5317,1285.5734],[-6.3018,42.5273,1313.1619],[-6.3023,42.5232,1183.2896],[-6.3073,42.5195,1288.9122],[-6.3032,42.5149,1302.7948],[-6.3124,42.5152,1269.6046],[-6.3128,42.5121,1281.7789],[-6.3105,42.5093,1305.9891],[-6.3219,42.5019,1239.4094],[-6.3301,42.5075,1202.2352],[-6.3459,42.5086,1380.7537],[-6.3554,42.5058,1422.095],[-6.3687,42.512,1417.9664],[-6.3732,42.5001,1295.5361],[-6.3815,42.5008,1203.6733],[-6.3895,42.4957,1454.5636],[-6.3944,42.4956,1509.7688],[-6.4136,42.4893,1500.3149],[-6.4154,42.4753,1019.8487],[-6.407,42.4701,1089.2856],[-6.4078,42.4642,1315.2716],[-6.427,42.4383,1657.3771],[-6.4132,42.4379,1606.4458],[-6.3898,42.4417,1617.0203],[-6.3792,42.4397,1627.6926],[-6.3613,42.4397,1483.0853],[-6.3503,42.4328,1404.38],[-6.3237,42.4309,1361.2136],[-6.3069,42.4245,1331.9336],[-6.2975,42.4246,1373.1411],[-6.2765,42.4192,1225.8135],[-6.2728,42.4218,1229.3633],[-6.2716,42.4191,1230.4956],[-6.2678,42.4205,1231.8411],[-6.2579,42.4166,1265.6177],[-6.2537,42.4127,1278.4178],[-6.2475,42.4102,1277.3835],[-6.2066,42.3997,1102.2047],[-6.2089,42.3979,1101.3499],[-6.2148,42.3786,1053.5923],[-6.2064,42.3719,1009.0526],[-6.2015,42.3629,1002.2402],[-6.1859,42.357,969.8966],[-6.1759,42.3565,961.0677],[-6.1685,42.3593,977.9885],[-6.1604,42.359,990.611],[-6.155,42.3669,1022.915],[-6.1456,42.3762,1080.3827],[-6.1186,42.3657,1053.5909],[-6.0702,42.3546,929.4409],[-6.0284,42.3523,878.4285],[-6.0199,42.359,879.8869],[-6.0069,42.3559,875.3281],[-6.0062,42.3621,887.7914],[-6.0089,42.3622,892.8563],[-6.0008,42.3808,820.412],[-6.0031,42.3859,822.7364],[-5.9982,42.394,822.753],[-6.0002,42.3962,824.105],[-5.9994,42.3982,825.0707],[-5.9927,42.4004,821.4263],[-5.9819,42.4072,810.4149],[-5.9682,42.3932,803.6957],[-5.9558,42.3992,803.3674],[-5.9611,42.4054,802.7937],[-5.9599,42.4072,806.2872],[-5.9528,42.4089,815.5809],[-5.9526,42.4145,847.7286]]]]}}