{"type": "Feature","id": "5836","bbox": [-2.33853,37.38104,-0.70124,38.75409],"geometry": {"type": "MultiPolygon","coordinates": [[[[-0.74014,37.70246,1.9804],[-0.74185,37.72553,0.0],[-0.73274,37.74775,1.7764],[-0.73754,37.75365,0.0],[-0.74364,37.76398,0.0],[-0.74698,37.76822,0.808],[-0.7482,37.77049,1.9484],[-0.7482,37.77318,1.6285],[-0.74942,37.77489,1.067],[-0.75451,37.7744,0.0],[-0.75031,37.74604,0.0],[-0.75121,37.71328,0.0],[-0.7469,37.68378,0.0],[-0.72647,37.66519,24.3464],[-0.74014,37.70246,1.9804]]],
[[[-1.07786,38.68761,658.9711],[-1.1053,38.70751,700.8903],[-1.10925,38.71376,727.5665],[-1.11192,38.72051,760.7546],[-1.11274,38.72787,813.183],[-1.11429,38.73469,833.6986],[-1.11993,38.74006,841.7816],[-1.12843,38.74337,843.1115],[-1.1645,38.75262,824.1785],[-1.17419,38.75409,857.0771],[-1.23338,38.74213,750.6832],[-1.24317,38.73808,735.1455],[-1.25281,38.73187,720.4932],[-1.27824,38.71159,755.7676],[-1.3342,38.68673,833.9312],[-1.34534,38.68658,846.0151],[-1.35286,38.69046,829.9662],[-1.35777,38.6964,839.8039],[-1.3635,38.70131,847.4185],[-1.37149,38.7027,876.8027],[-1.38578,38.69691,904.6653],[-1.40283,38.68498,883.3084],[-1.43363,38.65583,833.4903],[-1.45032,38.62772,769.7107],[-1.45326,38.61235,695.9138],[-1.45293,38.60493,680.1652],[-1.45427,38.58969,641.3556],[-1.45867,38.58286,625.6006],[-1.46453,38.5762,625.8833],[-1.47624,38.56979,610.4844],[-1.48515,38.56292,591.1034],[-1.49745,38.54586,580.8037],[-1.49998,38.54059,583.706],[-1.502,38.53491,588.0886],[-1.50132,38.52917,608.6802],[-1.50014,38.52333,617.0026],[-1.49835,38.51935,618.8312],[-1.49479,38.51341,654.2024],[-1.48965,38.5,645.5781],[-1.48572,38.4837,686.1016],[-1.48303,38.45223,611.2404],[-1.48329,38.43569,736.8039],[-1.47848,38.41145,451.5905],[-1.47794,38.40368,460.609],[-1.47905,38.39569,462.0944],[-1.48102,38.38828,474.4105],[-1.48528,38.38138,505.2776],[-1.49471,38.37311,544.4536],[-1.56731,38.32621,468.2939],[-1.62674,38.31141,476.2233],[-1.6363,38.31079,553.7744],[-1.64615,38.31224,409.3917],[-1.6546,38.31466,381.5623],[-1.6678,38.31968,304.4975],[-1.67346,38.32278,306.4531],[-1.67806,38.32691,313.1041],[-1.68193,38.33156,333.1912],[-1.684,38.3366,351.3828],[-1.68516,38.3419,368.9757],[-1.68447,38.34732,315.9514],[-1.68167,38.35254,319.1415],[-1.68188,38.35761,319.0582],[-1.68312,38.36244,333.7956],[-1.68656,38.36662,322.0052],[-1.69087,38.37022,329.5695],[-1.69599,38.37288,336.2719],[-1.70266,38.37363,333.9676],[-1.71904,38.37135,464.1456],[-1.72501,38.37363,493.0481],[-1.73637,38.37939,421.874],[-1.74309,38.3805,356.6591],[-1.75053,38.38034,346.0658],[-1.75991,38.37812,350.4969],[-1.76715,38.37507,373.2569],[-1.77387,38.36949,481.1804],[-1.78647,38.36709,502.4864],[-1.79107,38.36693,428.4094],[-1.79278,38.3651,532.5288],[-1.79262,38.35983,637.9288],[-1.79572,38.35391,668.1656],[-1.84802,38.32908,578.9937],[-1.88585,38.30624,639.6733],[-1.91034,38.29552,719.7438],[-1.92618,38.29105,768.0395],[-1.95812,38.28666,838.6471],[-1.98481,38.27927,843.4751],[-1.99279,38.27952,900.9218],[-1.99889,38.28216,911.8751],[-2.016,38.29508,804.6339],[-2.02336,38.29898,846.1337],[-2.03173,38.29991,873.4072],[-2.04289,38.29836,972.9524],[-2.05907,38.29038,1175.2375],[-2.08506,38.26583,1203.0812],[-2.12741,38.23519,1369.5623],[-2.13909,38.23033,1330.9509],[-2.15875,38.2271,1404.3718],[-2.17033,38.22382,1415.2468],[-2.18281,38.2179,1392.4491],[-2.21193,38.19594,1343.1035],[-2.22221,38.18284,1099.6747],[-2.25053,38.13628,1346.0468],[-2.28097,38.10323,1616.0297],[-2.31882,38.06936,1781.6587],[-2.32422,38.06238,1730.3796],[-2.33853,38.02649,1360.9863],[-2.3043,38.00636,1290.1927],[-2.29624,38.00057,1315.1731],[-2.29569,37.9998,1264.0975],[-2.295,37.99835,1217.4237],[-2.28182,37.97828,1116.5896],[-2.26143,37.95352,1140.8448],[-2.23224,37.92642,1425.2859],[-2.20965,37.91567,1443.3811],[-2.20965,37.91567,1443.3811],[-2.1718,37.89645,1220.134],[-2.12547,37.89875,1189.9369],[-2.11268,37.89531,1162.803],[-2.07697,37.8811,1111.3096],[-1.98279,37.87082,941.8924],[-1.97569,37.86585,834.2656],[-1.97613,37.86014,802.5917],[-1.98737,37.84813,771.8317],[-1.99168,37.84115,747.1849],[-1.99326,37.83384,730.5999],[-1.99334,37.81599,870.9685],[-1.99411,37.80968,898.6979],[-2.00142,37.79428,763.7996],[-2.00282,37.78803,798.8227],[-1.99998,37.75248,1089.5609],[-1.99613,37.7423,1135.7129],[-1.9952,37.73547,1373.3569],[-1.99871,37.72214,1207.5725],[-2.00297,37.71186,1160.9867],[-2.00445,37.70455,911.2964],[-2.0046,37.6885,739.9028],[-2.00553,37.68085,711.532],[-2.00424,37.66395,713.7744],[-2.00073,37.65383,821.1547],[-1.99659,37.64783,841.2141],[-1.98783,37.63899,949.4688],[-1.83841,37.45482,383.4515],[-1.82645,37.44536,325.587],[-1.81893,37.44157,298.0434],[-1.81123,37.4388,292.846],[-1.8057,37.43746,283.194],[-1.80345,37.44133,276.7913],[-1.80224,37.44635,301.7172],[-1.79766,37.44999,293.976],[-1.7927,37.45074,289.4425],[-1.74152,37.44133,230.3132],[-1.73242,37.43844,223.7983],[-1.64162,37.38104,13.832],[-1.61872,37.39228,11.5677],[-1.56774,37.40994,5.3468],[-1.55297,37.41218,55.2726],[-1.54373,37.41498,0.0],[-1.52392,37.42866,0.0],[-1.515,37.43321,2.1684],[-1.50817,37.43268,6.35],[-1.5028,37.42927,0.0],[-1.49694,37.4278,110.588],[-1.48835,37.43321,40.3222],[-1.48729,37.43976,3.447],[-1.47667,37.47272,27.2957],[-1.47411,37.47761,27.8562],[-1.4709,37.48225,31.5749],[-1.46349,37.48798,25.041],[-1.45556,37.4927,31.1205],[-1.45023,37.4947,48.8375],[-1.43037,37.49811,0.0],[-1.41369,37.50654,5.525],[-1.36917,37.54137,3.0332],[-1.35326,37.54991,0.0],[-1.32374,37.56199,0.0],[-1.28978,37.55842,0.0],[-1.26167,37.55766,17.9121],[-1.25767,37.56701,2.9372],[-1.2427,37.5792,13.4472],[-1.22899,37.57608,2.8696],[-1.19973,37.56656,0.0],[-1.17859,37.56388,0.0],[-1.17341,37.55508,0.0],[-1.16706,37.54376,122.9285],[-1.13717,37.538,0.0],[-1.10577,37.53213,0.0],[-1.11685,37.54938,0.0],[-1.11998,37.55903,10.2957],[-1.11465,37.56867,51.1534],[-1.10342,37.5764,137.7792],[-1.08776,37.58088,340.4649],[-1.06994,37.58259,6.1179],[-1.00642,37.58145,0.0],[-0.9735,37.5764,8.6645],[-0.93371,37.56102,181.4348],[-0.92516,37.55589,63.8891],[-0.90062,37.56904,180.4073],[-0.88671,37.57429,158.1889],[-0.87389,37.5764,3.0694],[-0.83642,37.5764,0.0],[-0.80797,37.58845,220.8715],[-0.79149,37.59146,109.7623],[-0.76403,37.5996,30.7903],[-0.75451,37.60432,49.4502],[-0.74568,37.59943,1.7409],[-0.73664,37.59943,0.0],[-0.72789,37.60342,0.0],[-0.71972,37.61054,74.6846],[-0.70531,37.61953,0.0],[-0.70124,37.63133,2.1124],[-0.708,37.64301,0.0],[-0.72647,37.65152,0.0],[-0.73485,37.63935,0.0],[-0.75479,37.6413,0.4361],[-0.7777,37.65009,0.0],[-0.80993,37.6669,0.0],[-0.81981,37.6767,0.0],[-0.85261,37.72378,0.0],[-0.85611,37.7425,7.8257],[-0.84781,37.75609,7.2436],[-0.82555,37.76138,1.7269],[-0.81241,37.77009,0.2527],[-0.78799,37.82282,8.738],[-0.76073,37.79613,-0.25],[-0.75609,37.80606,0.0],[-0.76057,37.84585,0.0],[-0.76057,37.8459,0.0],[-0.76103,37.84591,0.0],[-0.77971,37.84291,6.1209],[-0.7871,37.84428,16.6703],[-0.79155,37.84637,21.3255],[-0.79692,37.85107,25.9041],[-0.80426,37.85619,37.3889],[-0.81255,37.8603,48.7587],[-0.83056,37.8642,71.6364],[-0.8387,37.86797,85.4862],[-0.881,37.90296,173.7598],[-0.8887,37.90802,200.1056],[-0.91668,37.93355,260.364],[-0.92306,37.9413,295.9935],[-0.93438,37.96047,146.4253],[-0.94802,37.97753,105.5778],[-0.955,37.98432,110.0832],[-0.96572,38.00001,88.5969],[-0.96588,38.00011,88.5969],[-0.96627,38.00065,79.925],[-0.98223,38.02641,29.8746],[-1.00311,38.05272,28.7514],[-1.00699,38.05682,28.2486],[-1.01327,38.06171,27.9747],[-1.02004,38.0685,30.3402],[-1.02585,38.07886,76.6859],[-1.03081,38.09705,237.322],[-1.0329,38.1169,115.5573],[-1.0281,38.13535,89.1913],[-1.02283,38.1463,94.0808],[-0.99365,38.18098,122.2676],[-0.98595,38.19519,152.6157],[-0.98316,38.20299,197.5111],[-0.97645,38.23441,444.0449],[-0.97345,38.2419,556.7197],[-0.96942,38.2587,519.1956],[-0.96916,38.27084,408.8889],[-0.98363,38.31092,475.7082],[-0.99466,38.32495,491.4476],[-0.99978,38.32854,488.4486],[-1.01187,38.33482,503.8925],[-1.04869,38.34471,524.8689],[-1.06817,38.34707,632.0042],[-1.07667,38.3497,610.6688],[-1.08099,38.35931,590.1126],[-1.08396,38.37461,620.1292],[-1.08445,38.41569,668.0206],[-1.0821,38.43114,692.9221],[-1.07561,38.44212,667.2789],[-1.06895,38.44964,641.803],[-1.03071,38.47719,810.1676],[-1.02401,38.48339,889.809],[-1.01944,38.49062,1059.8914],[-1.01655,38.49843,1200.2483],[-1.0188,38.52163,795.8055],[-1.01526,38.53703,739.189],[-1.00567,38.56462,685.1721],[-1.00544,38.59031,573.5934],[-1.02213,38.65454,686.6099],[-1.07786,38.68761,658.9711]]]]}
,"properties": {"ISO3166-1-Alpha-3": "ESP","country": "Spain","fill": "#F0F","name": "Murcia","area_km2": 11303.121,"hist_schema_id": "Elevation0-9000","hist_area_km2": {"0": 124.838,"25": 289.748,"50": 306.538,"75": 267.139,"100": 278.085,"125": 304.488,"150": 361.738,"175": 375.39,"200": 372.258,"225": 337.988,"250": 309.974,"275": 298.666,"300": 337.983,"325": 317.842,"350": 295.841,"375": 281.748,"400": 281.032,"425": 272.247,"450": 269.127,"475": 273.625,"500": 282.254,"525": 281.925,"550": 338.472,"575": 317.146,"600": 283.801,"625": 276.776,"650": 283.295,"675": 263.094,"700": 253.489,"725": 228.098,"750": 203.92,"775": 196.564,"800": 182.147,"825": 165.32,"850": 155.597,"875": 142.24,"900": 125.118,"925": 110.426,"950": 98.114,"975": 86.963,"1000": 80.885,"1025": 73.694,"1050": 65.865,"1075": 66.141,"1100": 70.572,"1125": 78.571,"1150": 81.349,"1175": 70.838,"1200": 68.397,"1225": 57.71,"1250": 48.218,"1275": 42.612,"1300": 38.357,"1325": 34.887,"1350": 32.236,"1375": 25.897,"1400": 22.294,"1425": 19.443,"1450": 15.803,"1475": 13.401,"1500": 12.532,"1525": 9.728,"1550": 8.059,"1575": 5.873,"1600": 5.356,"1625": 3.954,"1650": 3.204,"1675": 2.82,"1700": 2.203,"1725": 1.652,"1750": 1.452,"1775": 1.569,"1800": 1.486,"1825": 1.152,"1850": 1.052,"1875": 0.684,"1900": 0.868,"1925": 0.584,"1950": 0.25,"1975": 0.317,"2000": 0.1}}}