{"type":"Feature","properties":{"GID_1":"ESP.18_1","GID_0":"ESP","country":"Spain","province":"RegióndeMurcia","VARNAME_1":"Murcia|RegiãodeMúrcia|Regióde","NL_NAME_1":"NA","TYPE_1":"ComunidadAutónoma","ENGTYPE_1":"AutonomousCommunity","CC_1":"14","HASC_1":"ES.MU","ISO_1":"NA","name":"Regiónde_Murcia.province"},
"geometry":{"type": "MultiPolygon","coordinates": [[[[-0.9682,37.5581,0.0],[-0.9668,37.5601,5.0312],[-0.9715,37.5596,0.0853],[-0.9713,37.5585,0.0],[-0.9682,37.5581,0.0]]],
[[[-0.8432,37.5785,0.0],[-0.8313,37.5782,3.4068],[-0.8204,37.5749,0.0],[-0.8137,37.5785,0.0],[-0.8132,37.581,13.8205],[-0.8107,37.5826,47.8775],[-0.804,37.5843,0.0],[-0.8038,37.586,57.0524],[-0.7904,37.5865,0.0],[-0.7874,37.5913,10.5381],[-0.7829,37.594,7.8975],[-0.7765,37.5932,0.0],[-0.7712,37.5968,0.939],[-0.7507,37.5974,1.8715],[-0.7431,37.5999,0.5521],[-0.7315,37.601,1.4652],[-0.7287,37.6043,1.5631],[-0.7179,37.6065,0.0],[-0.7179,37.6115,31.8892],[-0.716,37.6126,18.7779],[-0.7143,37.6171,3.9295],[-0.7076,37.6188,0.8679],[-0.7076,37.6215,4.1673],[-0.7051,37.6249,17.9659],[-0.7021,37.624,0.0],[-0.7029,37.6265,1.7735],[-0.7015,37.6304,0.2265],[-0.6937,37.6296,0.0],[-0.6865,37.6338,0.0],[-0.6882,37.6343,0.0],[-0.6879,37.6371,0.0],[-0.689,37.6371,0.0],[-0.6979,37.6329,2.7677],[-0.7107,37.6421,0.0],[-0.714,37.6499,6.1338],[-0.7171,37.6532,-0.0188],[-0.7168,37.6554,0.0],[-0.7187,37.656,1.0868],[-0.7212,37.6613,0.0],[-0.719,37.6643,0.0],[-0.7232,37.6649,2.0788],[-0.726,37.6674,2.4498],[-0.7335,37.6838,0.009],[-0.7396,37.7024,0.0],[-0.741,37.7129,2.0383],[-0.7401,37.7215,1.2514],[-0.738,37.7257,0.0],[-0.7382,37.7363,0.2573],[-0.7332,37.7374,0.0],[-0.7349,37.739,0.2556],[-0.7337,37.7432,0.5752],[-0.7349,37.7443,1.2765],[-0.7298,37.7455,0.372],[-0.7288,37.7438,0.0835],[-0.7288,37.7468,0.0],[-0.7254,37.7449,0.0],[-0.7238,37.741,0.0],[-0.7218,37.741,0.0],[-0.7272,37.7501,0.0],[-0.7326,37.7485,1.7764],[-0.7354,37.751,0.0],[-0.7379,37.751,0.3608],[-0.7462,37.7601,1.1396],[-0.746,37.7693,1.3826],[-0.7421,37.7729,0.9006],[-0.7396,37.7721,0.0],[-0.7451,37.7846,0.0],[-0.7462,37.7821,0.0],[-0.7448,37.7799,0.0618],[-0.7526,37.7813,0.0004],[-0.7562,37.7879,0.0],[-0.7612,37.7888,0.0],[-0.7593,37.781,0.0],[-0.7545,37.7782,0.2386],[-0.7487,37.7687,0.0],[-0.7465,37.7562,0.2259],[-0.7421,37.7538,1.1108],[-0.7454,37.7501,0.0],[-0.7449,37.749,0.0],[-0.7432,37.7499,0.1205],[-0.7424,37.7468,0.0],[-0.7457,37.7474,0.1818],[-0.744,37.7421,0.0],[-0.739,37.7368,0.2573],[-0.7407,37.7349,0.0],[-0.7401,37.7271,0.0],[-0.746,37.7057,0.0],[-0.7437,37.706,2.0157],[-0.7421,37.704,0.0],[-0.7404,37.6918,0.0],[-0.7426,37.6899,0.0],[-0.739,37.6874,3.385],[-0.734,37.676,0.0],[-0.7334,37.6665,10.3479],[-0.7349,37.6635,0.0],[-0.7301,37.6624,2.3091],[-0.7332,37.6613,0.0],[-0.7363,37.6627,0.0],[-0.7401,37.6615,0.0],[-0.7407,37.6596,0.0],[-0.7368,37.6579,1.6587],[-0.7343,37.6607,1.9022],[-0.7304,37.661,0.0],[-0.724,37.6582,0.1066],[-0.7246,37.6512,0.0],[-0.7229,37.6501,-0.0505],[-0.7224,37.6429,0.1108],[-0.7251,37.6407,0.4366],[-0.7249,37.6374,0.3065],[-0.7276,37.6343,0.1714],[-0.734,37.6324,0.0],[-0.7424,37.6327,1.2352],[-0.751,37.6376,0.2433],[-0.7493,37.6393,0.0],[-0.7504,37.6424,0.0],[-0.7574,37.6418,2.3234],[-0.7596,37.6426,0.0966],[-0.759,37.6446,0.0],[-0.7657,37.6451,3.2949],[-0.7665,37.6474,0.0],[-0.7707,37.6465,1.9856],[-0.7868,37.6507,0.0],[-0.8054,37.6596,0.07],[-0.8235,37.6738,0.0],[-0.8257,37.6787,0.0],[-0.8279,37.6796,1.1109],[-0.8285,37.6832,1.7454],[-0.8338,37.6865,0.8228],[-0.8404,37.6974,0.0],[-0.8576,37.714,0.6905],[-0.8599,37.719,0.0],[-0.8596,37.7229,0.6116],[-0.8515,37.7304,0.0],[-0.8515,37.7343,0.1615],[-0.8479,37.7385,0.0],[-0.8485,37.7426,0.4794],[-0.8451,37.7482,5.506],[-0.8401,37.7526,1.4924],[-0.831,37.7537,0.0],[-0.8271,37.756,2.0023],[-0.8107,37.7724,1.216],[-0.8035,37.7771,0.0],[-0.8001,37.7826,0.5515],[-0.8026,37.799,2.3255],[-0.7965,37.8099,0.0],[-0.7924,37.8132,0.9007],[-0.7832,37.8149,0.697],[-0.7835,37.8193,4.4239],[-0.7749,37.819,0.4158],[-0.774,37.8254,-0.5],[-0.7729,37.8246,-0.5],[-0.7726,37.826,-0.5],[-0.7749,37.8268,4.3036],[-0.7768,37.8338,3.5115],[-0.7735,37.8385,-1.0],[-0.7679,37.8424,2.0113],[-0.7649,37.8421,1.0493],[-0.7674,37.8349,-0.491],[-0.7662,37.8268,-0.3572],[-0.7618,37.8246,-0.4161],[-0.7626,37.8271,0.5019],[-0.7607,37.8268,-0.5],[-0.7615,37.8238,-0.4161],[-0.7601,37.8207,-0.8854],[-0.7629,37.8221,-1.6079],[-0.7643,37.8191,0.8025],[-0.7612,37.8179,1.4888],[-0.761,37.8132,-0.5],[-0.7587,37.8118,-0.5],[-0.759,37.8079,-0.5],[-0.7571,37.8065,-0.5],[-0.7538,37.7985,0.9384],[-0.7543,37.7926,-0.2028],[-0.7613,37.7957,-0.25],[-0.7626,37.7932,0.0],[-0.7579,37.7921,-0.0204],[-0.7538,37.7882,0.0],[-0.7484,37.7899,0.0683],[-0.7479,37.7915,0.0],[-0.7515,37.7932,0.7188],[-0.7526,37.801,0.1023],[-0.7579,37.8154,0.5089],[-0.757,37.8181,0.6808],[-0.751,37.8213,0.0],[-0.751,37.8232,0.4038],[-0.7565,37.8235,1.3094],[-0.7587,37.8268,1.2865],[-0.7618,37.8374,0.6198],[-0.7624,37.847,1.5441],[-0.7708,37.8441,3.562],[-0.7816,37.8448,8.4292],[-0.7904,37.8484,18.2749],[-0.8035,37.859,38.3335],[-0.8302,37.8643,70.0761],[-0.8571,37.8853,122.7707],[-0.9001,37.9232,234.3678],[-0.9213,37.9445,304.6348],[-0.9341,37.9689,145.1889],[-0.959,37.9991,103.219],[-0.966,38.0127,163.9698],[-0.9819,38.0293,29.0507],[-0.9986,38.0515,28.8385],[-1.0065,38.055,28.9737],[-1.0222,38.0752,31.4007],[-1.0303,38.0971,201.6311],[-1.0305,38.1159,135.1652],[-1.0366,38.1374,149.8065],[-1.0087,38.1669,129.2506],[-0.9887,38.1996,171.1167],[-0.9762,38.2408,584.571],[-0.9677,38.2559,542.1323],[-0.9673,38.2722,402.447],[-0.9717,38.2907,426.5543],[-0.9842,38.3071,494.3418],[-0.989,38.3206,487.768],[-1.0281,38.3387,508.8439],[-1.0584,38.346,596.7003],[-1.0844,38.3465,604.5175],[-1.0881,38.3677,671.0425],[-1.0867,38.3983,651.6251],[-1.0883,38.4035,653.5894],[-1.085,38.4291,694.8765],[-1.076,38.4317,672.217],[-1.0941,38.4383,726.7977],[-1.0817,38.4419,690.2687],[-1.0681,38.4504,641.803],[-1.0417,38.4697,724.2112],[-1.0139,38.4971,1202.405],[-1.0262,38.5225,677.9094],[-1.0162,38.5371,735.3812],[-1.0091,38.559,698.5268],[-1.0015,38.5729,686.8246],[-1.0121,38.6058,618.1459],[-1.016,38.6351,600.5203],[-1.0241,38.6401,659.3137],[-1.0261,38.6557,694.0558],[-1.0337,38.6566,708.3415],[-1.045,38.662,740.0946],[-1.1159,38.7102,712.5649],[-1.12,38.7379,846.5908],[-1.1839,38.7544,933.2366],[-1.2052,38.7477,866.5862],[-1.2296,38.7443,753.5686],[-1.2426,38.7405,745.4617],[-1.2458,38.738,735.7479],[-1.2494,38.7384,735.5273],[-1.2657,38.7275,726.0322],[-1.2704,38.7203,730.9127],[-1.2867,38.7053,816.1409],[-1.3123,38.6956,844.2407],[-1.3283,38.685,843.9068],[-1.329,38.6825,844.0784],[-1.3429,38.6775,901.9525],[-1.3667,38.7043,855.7135],[-1.3835,38.6999,919.8217],[-1.4022,38.6913,915.4688],[-1.4222,38.6768,849.0078],[-1.4477,38.6494,845.5593],[-1.443,38.6364,790.0736],[-1.4484,38.6124,700.5277],[-1.4523,38.5818,629.4054],[-1.4666,38.5758,620.9577],[-1.4873,38.5632,590.4328],[-1.4984,38.5321,594.6895],[-1.4901,38.5157,640.4021],[-1.4807,38.4809,667.7071],[-1.4804,38.4667,611.6847],[-1.4782,38.456,649.6912],[-1.4777,38.4211,481.5522],[-1.4748,38.4089,466.4358],[-1.4783,38.3764,571.0052],[-1.517,38.3575,421.9221],[-1.5208,38.3538,433.1827],[-1.5351,38.3459,366.9283],[-1.5375,38.3459,390.769],[-1.542,38.3427,450.2763],[-1.5483,38.3327,486.449],[-1.5618,38.3241,466.4893],[-1.5893,38.3112,631.8931],[-1.5892,38.3126,633.9396],[-1.6006,38.3154,569.0436],[-1.6109,38.3145,523.3834],[-1.614,38.3125,533.0336],[-1.6286,38.3094,501.3842],[-1.6342,38.311,507.8569],[-1.6354,38.3097,554.3049],[-1.6699,38.3124,316.1259],[-1.6695,38.3162,303.7446],[-1.6726,38.322,304.6475],[-1.6839,38.3264,307.5027],[-1.6867,38.33,309.1514],[-1.6879,38.3358,309.5646],[-1.6925,38.3375,311.9927],[-1.6923,38.3468,313.8528],[-1.6848,38.3471,315.9514],[-1.6815,38.3499,321.0539],[-1.6852,38.352,316.9581],[-1.6819,38.3602,322.1012],[-1.6875,38.3659,322.0052],[-1.6922,38.3686,323.2864],[-1.6973,38.3693,337.5999],[-1.7002,38.3747,335.5868],[-1.7024,38.3749,330.8863],[-1.7073,38.3715,347.5937],[-1.7119,38.3718,329.8516],[-1.7139,38.3632,345.9161],[-1.7181,38.3641,333.7996],[-1.7172,38.3675,350.9712],[-1.7186,38.3689,411.7865],[-1.7223,38.3689,368.2452],[-1.7294,38.3726,447.3328],[-1.734,38.3716,342.0206],[-1.7343,38.3754,359.6495],[-1.7434,38.3813,356.6591],[-1.7514,38.3798,346.0658],[-1.7528,38.374,345.181],[-1.7548,38.3734,348.5101],[-1.7606,38.3772,348.3019],[-1.7681,38.3795,359.4149],[-1.7713,38.3786,350.2628],[-1.7711,38.3649,363.7192],[-1.7788,38.3657,428.5446],[-1.7798,38.3683,424.5],[-1.782,38.3687,424.5],[-1.7855,38.3661,424.5],[-1.7957,38.3703,424.5],[-1.7969,38.365,545.5674],[-1.7842,38.3562,813.0541],[-1.7923,38.3535,765.0149],[-1.8109,38.3514,690.9493],[-1.8218,38.3363,526.1571],[-1.8272,38.3339,559.3137],[-1.8425,38.3344,588.8338],[-1.8542,38.3303,609.8506],[-1.8686,38.3175,589.3934],[-1.8931,38.303,668.3181],[-1.9075,38.298,710.8024],[-1.9488,38.2893,777.0766],[-1.9628,38.2879,949.7673],[-1.9781,38.2822,937.4882],[-1.986,38.2817,862.5448],[-2.0001,38.284,980.2845],[-2.0209,38.3004,843.4077],[-2.0267,38.3007,861.0405],[-2.03,38.2993,873.4072],[-2.0489,38.3058,1278.1018],[-2.0637,38.2976,1201.7092],[-2.0761,38.2828,1213.0814],[-2.0839,38.2651,1178.5884],[-2.1136,38.2382,1366.5649],[-2.1391,38.2316,1366.1204],[-2.169,38.2265,1416.2043],[-2.1752,38.224,1427.3488],[-2.187,38.2143,1413.1261],[-2.2066,38.2071,1448.0254],[-2.2134,38.2018,1472.7908],[-2.2157,38.1938,1304.619],[-2.2226,38.1833,1099.6747],[-2.222,38.1775,1115.8413],[-2.2332,38.1603,1284.5969],[-2.2375,38.1578,1265.1655],[-2.2455,38.1483,1266.4459],[-2.2509,38.1392,1390.5842],[-2.2495,38.135,1390.37],[-2.2503,38.1284,1478.8082],[-2.2615,38.113,1610.0668],[-2.2933,38.0874,1838.3],[-2.3135,38.0781,1852.9167],[-2.3298,38.0654,1912.74],[-2.33,38.0602,1723.0718],[-2.3382,38.0473,1482.0447],[-2.3443,38.03,1421.0571],[-2.3415,38.026,1404.2162],[-2.323,38.014,1301.0931],[-2.3092,38.0089,1257.0728],[-2.2984,38.0022,1316.4584],[-2.2976,37.9903,1168.6611],[-2.2768,37.9601,1166.2534],[-2.2741,37.9595,1150.7402],[-2.2667,37.953,1115.7722],[-2.2587,37.95,1190.0459],[-2.2533,37.9396,1267.5917],[-2.2378,37.9285,1392.9221],[-2.2295,37.9262,1396.7715],[-2.2276,37.9237,1465.124],[-2.2223,37.9239,1450.2574],[-2.2216,37.9224,1400.5764],[-2.2076,37.9166,1459.2477],[-2.1848,37.9037,1242.3964],[-2.1846,37.9017,1253.9514],[-2.1719,37.8887,1220.0146],[-2.1644,37.8926,1220.9797],[-2.1567,37.8913,1210.0405],[-2.1506,37.8957,1193.0458],[-2.1516,37.8973,1190.6196],[-2.1351,37.8977,1196.9507],[-2.1299,37.9,1199.4788],[-2.1231,37.9005,1194.5894],[-2.118,37.8942,1183.1702],[-2.1104,37.8909,1149.8271],[-2.1064,37.8862,1185.254],[-2.108,37.8815,1265.655],[-2.1034,37.8814,1223.4746],[-2.0983,37.8777,1199.9849],[-2.0857,37.8749,1032.9729],[-2.0845,37.8724,984.8162],[-2.0773,37.8784,1093.0221],[-2.0738,37.8838,1113.2523],[-2.0703,37.8845,1065.0702],[-2.0622,37.8835,1112.5491],[-2.0595,37.8801,1076.1167],[-2.0499,37.8796,1019.643],[-2.0453,37.8762,977.9579],[-2.0459,37.8746,1016.7782],[-2.0424,37.8737,986.1979],[-2.0392,37.8754,929.5128],[-2.0217,37.8686,912.6989],[-2.0044,37.8807,1017.2899],[-2.0032,37.877,1003.0849],[-1.9988,37.8762,971.8755],[-1.9946,37.8805,1003.4438],[-1.9879,37.8738,1068.3596],[-1.9826,37.8739,1006.3451],[-1.9744,37.8685,834.3692],[-1.9773,37.8604,810.1087],[-1.9883,37.8535,771.5489],[-1.9952,37.8414,730.6379],[-1.9994,37.8232,714.7622],[-1.9964,37.819,859.901],[-2.0016,37.805,973.311],[-2.0087,37.775,1041.5381],[-2.0046,37.7662,952.3013],[-2.0024,37.7478,1071.8121],[-1.9957,37.7281,1246.9919],[-1.9998,37.723,1253.6837],[-2.004,37.7226,1293.6124],[-2.0076,37.7198,1476.5809],[-2.0081,37.7115,1201.4742],[-2.0125,37.7009,900.0625],[-2.0103,37.6988,856.738],[-2.0114,37.6925,791.1307],[-2.0097,37.6868,738.8944],[-2.0118,37.6735,712.7179],[-2.0076,37.6692,679.7132],[-2.0019,37.6556,778.933],[-1.9957,37.6503,856.9805],[-1.9927,37.6433,1019.8217],[-1.9874,37.6452,1005.9963],[-1.9817,37.6368,983.1495],[-1.9812,37.6284,927.8474],[-1.9784,37.6255,916.8149],[-1.9767,37.6188,891.7762],[-1.97,37.6142,860.5501],[-1.9651,37.6051,831.697],[-1.9556,37.601,807.276],[-1.9539,37.5975,789.9985],[-1.9556,37.5915,764.4276],[-1.9539,37.5883,753.9291],[-1.8708,37.4897,479.972],[-1.8646,37.4866,442.7317],[-1.8586,37.4791,414.2375],[-1.8452,37.4549,378.1122],[-1.8089,37.4335,259.3047],[-1.8117,37.4516,355.6517],[-1.7962,37.4522,299.7473],[-1.7797,37.447,248.6614],[-1.737,37.4427,226.8883],[-1.7049,37.4211,301.6372],[-1.6659,37.4009,78.3747],[-1.63,37.3753,1.9432],[-1.6299,37.3737,0.0],[-1.6257,37.3743,9.9861],[-1.6262,37.3757,0.0],[-1.6282,37.3754,14.2756],[-1.6265,37.3796,0.3975],[-1.6224,37.3804,0.0],[-1.6199,37.384,5.5744],[-1.6121,37.3843,0.0],[-1.6107,37.3871,1.7458],[-1.6124,37.3882,8.2847],[-1.6104,37.3899,4.2223],[-1.6085,37.3893,3.5592],[-1.6049,37.3954,2.4175],[-1.5968,37.3965,0.0],[-1.5974,37.3979,0.3423],[-1.589,37.4026,3.6832],[-1.5854,37.4023,4.1265],[-1.5824,37.3999,0.0],[-1.5751,37.4018,0.0],[-1.5771,37.4054,0.0],[-1.576,37.4068,0.0],[-1.5676,37.4074,3.6981],[-1.5654,37.4049,0.0],[-1.5662,37.4032,0.0],[-1.5599,37.4043,11.594],[-1.5585,37.4057,0.0],[-1.5613,37.4074,2.6238],[-1.5585,37.4076,0.0],[-1.5601,37.4096,0.0],[-1.5576,37.4118,0.0],[-1.5482,37.4113,1.2328],[-1.5415,37.4169,0.0],[-1.5412,37.419,45.5432],[-1.5299,37.4221,8.297],[-1.526,37.4276,3.788],[-1.5179,37.4319,0.0],[-1.5107,37.4327,4.0508],[-1.5068,37.4307,3.9019],[-1.5032,37.4327,3.0471],[-1.4974,37.4218,0.0],[-1.4901,37.421,5.9344],[-1.4846,37.4251,0.0],[-1.4821,37.4249,0.0],[-1.481,37.4276,43.7834],[-1.4779,37.4282,0.0],[-1.4763,37.431,0.0],[-1.4768,37.4332,28.8608],[-1.4835,37.4337,33.7554],[-1.4846,37.4365,0.0],[-1.4799,37.451,0.1928],[-1.4812,37.4535,1.7123],[-1.4776,37.4557,2.5415],[-1.4776,37.4582,2.8512],[-1.476,37.4588,0.0],[-1.4732,37.4668,0.0],[-1.4718,37.4671,1.7628],[-1.4724,37.4696,7.9919],[-1.4685,37.471,3.803],[-1.4671,37.4785,9.8912],[-1.4646,37.481,8.2972],[-1.4601,37.4815,6.1783],[-1.4601,37.4863,15.2077],[-1.4535,37.4915,1.234],[-1.4426,37.4949,0.0],[-1.4407,37.4985,16.1678],[-1.4307,37.5004,0.0],[-1.4282,37.5032,0.0],[-1.4226,37.5021,6.3894],[-1.416,37.5071,21.8238],[-1.414,37.5054,0.0],[-1.4104,37.5071,42.1583],[-1.4018,37.5068,0.0],[-1.4013,37.5082,5.4757999999999996],[-1.4029,37.5096,3.4492],[-1.4013,37.5096,0.0],[-1.3926,37.5246,3.5299],[-1.384,37.5265,2.8826],[-1.3824,37.5301,3.8383],[-1.3779,37.5293,3.1425],[-1.376,37.5318,4.7644],[-1.3726,37.5318,0.0],[-1.3715,37.5354,3.4425],[-1.3635,37.5451,2.6318],[-1.3587,37.5474,0.7875],[-1.3562,37.5507,2.3968],[-1.3443,37.5543,0.0],[-1.3415,37.5565,2.7712],[-1.3321,37.5563,0.0],[-1.3312,37.5601,1.0502],[-1.3257,37.5627,10.3692],[-1.3201,37.5629,1.2777],[-1.319,37.5604,0.0],[-1.3154,37.5629,2.0444],[-1.3112,37.5629,2.1417],[-1.3009,37.5601,0.0],[-1.2888,37.5596,2.0177],[-1.2868,37.5588,3.5721],[-1.2874,37.5563,0.0],[-1.2843,37.5588,2.6379],[-1.2787,37.5582,0.0],[-1.2782,37.5596,0.499],[-1.2757,37.5588,1.068],[-1.2754,37.556,0.0],[-1.2729,37.5563,-0.0641],[-1.2721,37.5585,0.0],[-1.2696,37.5595,2.2857],[-1.2596,37.5571,16.4978],[-1.2543,37.5579,0.0],[-1.2532,37.5604,0.0],[-1.2549,37.5635,0.1871],[-1.2531,37.5654,0.0],[-1.256,37.5632,0.1871],[-1.2582,37.5657,2.9372],[-1.2538,37.571,4.8634],[-1.249,37.5718,1.2303],[-1.2479,37.5749,0.0],[-1.2443,37.5771,7.5922],[-1.2262,37.576,6.1428],[-1.2262,37.5732,0.0],[-1.2249,37.5726,1.547],[-1.2204,37.5751,0.0],[-1.2145,37.5751,0.4177],[-1.2085,37.5729,1.8279],[-1.2088,37.5707,0.0],[-1.2074,37.5707,0.0],[-1.2062,37.5732,0.0],[-1.2024,37.5735,0.0],[-1.1899,37.5679,0.3823],[-1.1809,37.5665,0.4483],[-1.1699,37.5593,0.7189],[-1.1685,37.5565,0.186],[-1.171,37.5521,0.0],[-1.1749,37.5504,0.0],[-1.1715,37.5449,3.5192],[-1.1668,37.5421,52.3053],[-1.1538,37.5396,0.0],[-1.1471,37.5415,11.754],[-1.1443,37.5393,0.0],[-1.1362,37.5401,0.0],[-1.1321,37.5376,12.0985],[-1.124,37.5385,0.0],[-1.1201,37.5366,62.4059],[-1.1199,37.534,5.1976],[-1.1182,37.5335,0.0],[-1.1071,37.5351,0.0],[-1.1143,37.5407,21.5188],[-1.1171,37.5449,30.3962],[-1.1196,37.5446,42.2717],[-1.1271,37.5485,25.3245],[-1.1257,37.5507,7.1472],[-1.1271,37.5524,30.7416],[-1.1221,37.5565,0.0],[-1.1215,37.559,16.4588],[-1.1185,37.5599,10.2957],[-1.1176,37.5632,3.0155],[-1.1149,37.5638,12.3062],[-1.1107,37.5677,29.9686],[-1.0949,37.569,8.5047],[-1.0915,37.5749,8.8923],[-1.0851,37.5774,29.7343],[-1.0821,37.5768,0.0],[-1.0793,37.5812,13.2085],[-1.0763,37.5812,3.3825],[-1.0746,37.5838,15.8778],[-1.0715,37.5838,36.9235],[-1.0668,37.5796,0.0],[-1.059,37.5793,0.0],[-1.0576,37.5824,64.9381],[-1.054,37.5826,22.226],[-1.0451,37.579,23.0414],[-1.0329,37.5796,5.603],[-1.0229,37.5729,0.92],[-1.0199,37.574,12.7958],[-1.0176,37.5726,0.7435],[-1.0124,37.5749,8.1489],[-1.0118,37.5815,36.7301],[-1.0079,37.5829,0.0],[-1.0082,37.5857,9.6951],[-0.9993,37.584,0.0],[-0.9982,37.5868,0.0],[-0.9946,37.5863,39.0897],[-0.9892,37.5812,1.2297],[-0.986,37.5846,5.4513],[-0.9843,37.5843,0.0],[-0.9885,37.5879,0.0],[-0.9857,37.5926,0.0],[-0.9876,37.5957,0.0],[-0.9932,37.5965,2.8457],[-0.9932,37.6001,3.705],[-0.9874,37.5957,0.0],[-0.9763,37.5963,1.6723],[-0.9746,37.5938,0.4203],[-0.9754,37.5904,5.3302],[-0.9837,37.5887,0.0],[-0.9768,37.5879,0.0],[-0.9799,37.5821,0.0],[-0.9758,37.5801,20.5785],[-0.9757,37.5765,7.5739],[-0.9696,37.5729,0.0],[-0.9599,37.5735,0.0],[-0.959,37.5726,0.0],[-0.9612,37.5715,0.0],[-0.9601,37.5696,0.0],[-0.9568,37.5707,1.0682],[-0.9526,37.5674,1.9601],[-0.9507,37.5679,2.7865],[-0.9512,37.5665,4.5127],[-0.9565,37.5654,8.9907],[-0.9596,37.5679,0.0],[-0.959,37.5649,1.1202],[-0.9604,37.5646,2.0645],[-0.9682,37.5699,0.0],[-0.9626,37.5638,1.4414],[-0.9629,37.5607,7.1179],[-0.9601,37.5582,0.0],[-0.9524,37.5574,19.2761],[-0.9435,37.5593,49.4978],[-0.9337,37.559,51.0896],[-0.9326,37.5571,0.0],[-0.9279,37.5551,0.0],[-0.9196,37.5537,0.0],[-0.9151,37.5591,158.6951],[-0.909,37.559,37.2799],[-0.9046,37.5629,42.2187],[-0.8787,37.5699,0.0],[-0.8785,37.5779,1.9045],[-0.8757,37.5785,1.3403],[-0.8715,37.5743,0.0],[-0.8671,37.5793,6.7772],[-0.8537,37.5788,1.9234],[-0.8512,37.5821,0.2331],[-0.8454,37.5815,0.1399],[-0.8432,37.5785,0.0]]],
[[[-0.6482,37.6563,0.0],[-0.6488,37.6571,0.0],[-0.6501,37.6549,0.0],[-0.649,37.6549,0.0],[-0.6482,37.6563,0.0]]],
[[[-0.7476,37.6651,0.0],[-0.7476,37.6662,0.0],[-0.7504,37.666,0.0],[-0.7496,37.6643,1.5045],[-0.7476,37.6651,0.0]]],
[[[-0.7701,37.7021,0.0],[-0.7721,37.7026,0.0],[-0.7749,37.7007,0.0],[-0.776,37.6951,0.0],[-0.7715,37.6904,0.0],[-0.7651,37.6904,0.0],[-0.7649,37.6957,0.0],[-0.7704,37.7007,0.0],[-0.7701,37.7021,0.0]]],
[[[-0.7982,37.7027,0.0],[-0.801,37.7038,0.0],[-0.804,37.701,0.4491],[-0.8009,37.7007,8.1934],[-0.7965,37.6954,0.0],[-0.796,37.6971,0.0],[-0.7979,37.6988,0.0],[-0.7966,37.7015,0.0],[-0.7982,37.7027,0.0]]],
[[[-0.7051,37.7293,4.7682],[-0.7051,37.7307,0.0],[-0.7087,37.7301,18.0861],[-0.7093,37.7257,3.7658],[-0.7062,37.7254,0.0],[-0.7043,37.7279,0.0],[-0.7051,37.7293,4.7682]]],
[[[-0.7474,37.7871,0.0],[-0.7482,37.7888,0.0683],[-0.7479,37.7865,0.0],[-0.746,37.7854,0.0],[-0.7457,37.7863,0.0],[-0.7474,37.7871,0.0]]],
[[[-1.5449,37.4091,0.0],[-1.5484,37.4096,0.0],[-1.549,37.4068,0.0],[-1.5454,37.4071,0.7546],[-1.544,37.4079,0.0],[-1.5449,37.4091,0.0]]],
[[[-1.2657,37.5563,15.1051],[-1.2663,37.5576,2.0129],[-1.269,37.5574,0.0],[-1.2701,37.5546,2.8398],[-1.2668,37.5546,6.1245],[-1.2657,37.5563,15.1051]]]]}}