{"type":"Feature","properties":{"GID_3":"ESP.5.9.4_1","GID_0":"ESP","country":"Spain","GID_1":"ESP.5_1","province":"CastillayLeón","NL_NAME_1":"NA","GID_2":"ESP.5.9_1","county":"Zamora","NL_NAME_2":"NA","city":"n.a.(271)","VARNAME_3":"NA","NL_NAME_3":"NA","TYPE_3":"Comarca","ENGTYPE_3":"Comarca","CC_3":"NA","HASC_3":"NA","name":"n.a.(271).city"},
"geometry":{"type": "MultiPolygon","coordinates": [[[[-6.0146,41.4958,619.5714],[-6.0215,41.4951,624.5087],[-6.0278,41.4905,627.4075],[-6.0398,41.4906,604.0177],[-6.0502,41.4861,606.9573],[-6.0523,41.4814,610.7707],[-6.0587,41.4757,611.6334],[-6.0526,41.4714,608.4309],[-6.0475,41.4712,614.1481],[-6.0328,41.466,619.1157],[-6.0178,41.4585,609.999],[-6.0019,41.4565,617.2473],[-5.9855,41.4608,644.5782],[-5.971,41.4547,613.6094],[-5.9563,41.4535,613.5997],[-5.927,41.4337,620.1953],[-5.9149,41.4313,599.6849],[-5.9156,41.4368,664.4384],[-5.9124,41.4399,607.5415],[-5.9036,41.4393,627.0532],[-5.8909,41.4439,640.9543],[-5.888,41.4481,604.0207],[-5.8953,41.4599,629.9839],[-5.8918,41.4639,614.3663],[-5.8818,41.4665,649.2546],[-5.8808,41.4696,613.6055],[-5.8839,41.4757,608.9044],[-5.8853,41.4899,606.3029],[-5.8798,41.502,604.1003],[-5.8704,41.5142,622.5901],[-5.8641,41.5195,610.3428],[-5.8595,41.5181,620.8386],[-5.8556,41.5095,610.5739],[-5.8563,41.5041,607.8091],[-5.8658,41.4934,622.5753],[-5.863,41.4875,609.6682],[-5.8641,41.4757,613.9541],[-5.8629,41.4725,612.0],[-5.8542,41.4669,624.7845],[-5.8378,41.4696,613.8781],[-5.8296,41.4777,618.3756],[-5.8202,41.4773,682.3781],[-5.8129,41.4724,695.8488],[-5.8103,41.4653,689.0164],[-5.8112,41.4609,701.8802],[-5.8034,41.4635,690.8356],[-5.7998,41.4607,683.8732],[-5.7946,41.4632,680.33],[-5.7934,41.4608,676.6181],[-5.7892,41.4604,658.9718],[-5.7782,41.4633,677.9097],[-5.7638,41.4585,670.4629],[-5.7498,41.4609,672.5571],[-5.7491,41.4636,661.5131],[-5.7336,41.4758,646.6187],[-5.7173,41.4751,652.0209],[-5.7168,41.4717,656.1934],[-5.7125,41.4745,651.3202],[-5.7051,41.4918,632.673],[-5.7074,41.5003,626.7963],[-5.7027,41.5086,621.3197],[-5.6896,41.5029,621.8108],[-5.6821,41.5047,624.3003],[-5.6804,41.5076,623.805],[-5.6884,41.5157,626.8076],[-5.6862,41.521,625.014],[-5.6709,41.5231,625.6193],[-5.6489,41.5116,633.6102],[-5.6486,41.5037,628.2653],[-5.6381,41.4994,633.3219],[-5.6337,41.5015,628.4015],[-5.6273,41.4998,625.8113],[-5.6198,41.4954,641.907],[-5.6061,41.4943,632.6256],[-5.6003,41.5002,626.1281],[-5.587,41.5048,637.077],[-5.5758,41.5192,631.9537],[-5.5711,41.5175,632.5744],[-5.5634,41.5265,628.2431],[-5.5536,41.5266,631.4885],[-5.5498,41.542,696.0569],[-5.5376,41.5675,746.8397],[-5.5412,41.5695,697.875],[-5.5298,41.5798,711.8513],[-5.5248,41.5709,759.8307],[-5.5193,41.5709,754.451],[-5.5154,41.5736,760.4603],[-5.5046,41.5681,756.9413],[-5.4935,41.5688,753.2104],[-5.4881,41.5712,749.2405],[-5.4874,41.57,750.6093],[-5.4788,41.5699,733.9345],[-5.4834,41.567,751.1187],[-5.4595,41.5496,737.1113],[-5.451,41.5458,727.1064],[-5.444,41.5496,702.5942],[-5.4267,41.5473,716.5816],[-5.4211,41.5489,708.5798],[-5.4126,41.5551,714.9888],[-5.4145,41.5584,718.5266],[-5.4025,41.5636,736.4364],[-5.3891,41.5645,756.0231],[-5.3761,41.5679,754.2976],[-5.3713,41.5668,754.0493],[-5.3635,41.5677,737.0328],[-5.3586,41.5619,725.7054],[-5.3453,41.5562,718.8508],[-5.3388,41.5551,702.7355],[-5.3392,41.5502,702.1413],[-5.3226,41.5656,704.7853],[-5.3184,41.5738,710.7709],[-5.3022,41.5754,719.142],[-5.2996,41.5716,707.8174],[-5.2934,41.5726,717.9335],[-5.2808,41.5847,753.4338],[-5.2678,41.59,777.9648],[-5.2665,41.593,793.4413],[-5.2706,41.5939,781.2577],[-5.2718,41.5964,792.835],[-5.2704,41.6011,790.0898],[-5.2774,41.6051,782.3476],[-5.2924,41.6089,730.4544],[-5.3056,41.6083,724.2899],[-5.3085,41.6117,729.6685],[-5.3201,41.6108,730.9095],[-5.3288,41.6159,734.8344],[-5.3241,41.6251,750.533],[-5.3252,41.6301,755.1888],[-5.3233,41.6342,747.085],[-5.3194,41.6368,741.4188],[-5.3246,41.6434,747.7404],[-5.3223,41.6626,794.7197],[-5.3281,41.6818,772.7751],[-5.3383,41.6868,740.3584],[-5.3407,41.6991,725.5228],[-5.3456,41.702,725.3042],[-5.358,41.6997,726.2291],[-5.3561,41.717,723.2061],[-5.3616,41.7288,698.7418],[-5.3655,41.7294,697.0809],[-5.3699,41.727,696.9379],[-5.3714,41.7213,695.8006],[-5.3751,41.7198,696.0616],[-5.3755,41.728,712.6477],[-5.3906,41.7526,744.2238],[-5.3913,41.7605,746.5227],[-5.3701,41.7778,746.1609],[-5.3494,41.7809,731.338],[-5.3414,41.7892,716.7458],[-5.3262,41.7898,713.7296],[-5.3225,41.7882,713.2308],[-5.2795,41.8134,710.335],[-5.2767,41.8229,712.4404],[-5.287,41.8277,717.4126],[-5.2904,41.8262,720.2434],[-5.2948,41.8275,715.006],[-5.2983,41.8255,716.1427],[-5.3063,41.8268,717.3276],[-5.3076,41.8257,717.3276],[-5.3264,41.8291,726.8199],[-5.3294,41.8311,727.5695],[-5.3271,41.8353,728.0892],[-5.3199,41.8398,723.872],[-5.3217,41.8408,725.5598],[-5.3064,41.8578,730.4095],[-5.3093,41.8639,718.9133],[-5.3052,41.8671,708.0915],[-5.3114,41.8827,704.9804],[-5.3103,41.8933,711.4125],[-5.2958,41.9112,728.0733],[-5.2936,41.9199,730.3177],[-5.2987,41.9221,734.084],[-5.3098,41.9322,716.285],[-5.3208,41.9375,701.6787],[-5.3351,41.9375,693.8503],[-5.3347,41.9401,694.1628],[-5.3314,41.9426,694.8882],[-5.3066,41.9528,725.1209],[-5.2995,41.9613,724.8616],[-5.2883,41.968,735.3662],[-5.2889,41.9709,722.9899],[-5.2852,41.9741,730.9144],[-5.2728,41.9801,746.3378],[-5.2632,41.9819,754.74],[-5.2545,41.9803,776.8824],[-5.2546,41.9816,775.5071],[-5.2604,41.9846,759.2867],[-5.2805,41.9788,741.6441],[-5.3031,41.9911,700.9913],[-5.3021,41.9928,701.7542],[-5.3094,42.0028,710.9431],[-5.3132,42.0026,712.2935],[-5.3177,42.0066,729.9584],[-5.3232,42.0189,721.0212],[-5.3254,42.0204,725.1783],[-5.3488,42.0226,752.3041],[-5.3682,42.0333,773.7784],[-5.3763,42.0396,780.683],[-5.3762,42.0415,793.9349],[-5.3843,42.0421,777.9766],[-5.3977,42.0346,789.8613],[-5.412,42.0304,769.8403],[-5.4202,42.0292,773.408],[-5.4215,42.0307,775.9933],[-5.4473,42.0136,758.3806],[-5.4477,42.0107,755.3696],[-5.443,42.0119,756.8276],[-5.4363,42.009,754.1215],[-5.4311,42.0024,755.0399],[-5.4334,41.9831,752.3173],[-5.4382,41.9674,754.9091],[-5.4448,41.9719,744.9316],[-5.456,41.9757,739.9761],[-5.4607,41.9747,734.9172],[-5.463,41.9754,726.6978],[-5.4627,41.9776,731.6951],[-5.4847,41.9846,743.3867],[-5.4883,41.9955,745.9023],[-5.4992,41.9904,741.6219],[-5.5076,41.99,737.7714],[-5.5141,41.9831,740.5566],[-5.5164,41.984,738.6418],[-5.5232,41.9766,740.5293],[-5.5285,41.9736,736.5242],[-5.5257,41.9686,742.6732],[-5.5351,41.9654,743.8501],[-5.5521,41.9705,737.9563],[-5.5591,41.9659,735.5676],[-5.5589,41.9584,737.0521],[-5.5847,41.9517,717.3945],[-5.5913,41.9524,715.3105],[-5.6068,41.9477,714.1606],[-5.6094,41.9224,707.8541],[-5.6284,41.9113,713.5934],[-5.6274,41.908,712.046],[-5.6397,41.9119,717.4479],[-5.6442,41.9059,716.9382],[-5.6428,41.9033,716.7675],[-5.6452,41.9023,716.5135],[-5.6352,41.8967,714.084],[-5.6406,41.8898,713.6944],[-5.6543,41.8993,718.1596],[-5.65,41.8903,716.0708],[-5.6459,41.8696,708.3223],[-5.6534,41.862,707.476],[-5.6703,41.8496,712.09],[-5.6673,41.8472,715.3118],[-5.7077,41.8263,718.2828],[-5.7018,41.8261,717.2369],[-5.6952,41.8085,717.891],[-5.6946,41.8025,724.0161],[-5.6988,41.7947,720.8896],[-5.727,41.7923,720.6406],[-5.7406,41.7934,720.4495],[-5.7535,41.7896,719.7721],[-5.7867,41.7856,714.1755],[-5.7972,41.7814,708.248],[-5.8111,41.7877,673.0],[-5.8225,41.7802,672.5],[-5.8258,41.7743,672.5],[-5.8254,41.7653,672.5],[-5.8289,41.7534,672.0],[-5.8239,41.7486,672.0],[-5.8022,41.7405,672.0],[-5.7994,41.7352,681.0757],[-5.8009,41.7333,672.0],[-5.8069,41.7326,672.0],[-5.8094,41.7274,671.5],[-5.7981,41.7243,673.9847],[-5.7983,41.7183,671.5],[-5.8069,41.7,674.0397],[-5.8104,41.6986,685.5574],[-5.8118,41.6997,671.5],[-5.8116,41.7061,671.5],[-5.8141,41.7107,675.2006],[-5.8207,41.7125,671.5],[-5.8261,41.7093,671.5],[-5.8337,41.7089,671.5],[-5.8364,41.7057,671.5],[-5.8372,41.6965,671.5],[-5.8414,41.6959,671.5],[-5.8523,41.7005,671.0],[-5.8569,41.6996,671.0],[-5.8602,41.6901,671.0],[-5.8675,41.6882,675.7855],[-5.8725,41.6844,671.0],[-5.8669,41.661,671.0],[-5.858,41.6513,671.0],[-5.8599,41.6472,671.0],[-5.869,41.6451,681.4545],[-5.8845,41.6529,671.0],[-5.8965,41.6524,696.8561],[-5.9038,41.6464,670.5],[-5.9157,41.6321,670.5],[-5.9247,41.6305,670.5],[-5.9285,41.6188,670.25],[-5.9278,41.6157,669.5],[-5.9192,41.6064,667.75],[-5.9231,41.6014,667.0],[-5.9299,41.5974,666.5],[-5.9368,41.5969,666.0],[-5.9405,41.5981,665.5],[-5.9471,41.605,664.5],[-5.9716,41.5964,662.0],[-5.981,41.5888,661.0],[-5.9833,41.5836,661.0],[-5.9869,41.5825,661.0],[-6.0,41.5834,661.0],[-6.0019,41.5864,668.4393],[-6.0068,41.5856,692.675],[-6.0098,41.5883,674.8553],[-6.0168,41.5895,684.5466],[-6.0195,41.5929,682.1033],[-6.0262,41.5934,714.2885],[-6.0415,41.6007,717.9117],[-6.0437,41.6001,717.7797],[-6.0519,41.6032,717.2398],[-6.0547,41.6012,752.2372],[-6.0857,41.5948,813.459],[-6.0835,41.5869,803.2196],[-6.0751,41.5772,806.5126],[-6.0668,41.5713,807.0182],[-6.0508,41.5654,801.8835],[-6.037,41.5564,792.3594],[-6.0319,41.5548,791.94],[-6.0248,41.556,783.1226],[-6.0229,41.5543,777.7949],[-6.019,41.5432,786.3834],[-6.0206,41.5416,788.9193],[-6.0106,41.5326,775.9944],[-6.0109,41.5258,768.134],[-6.0045,41.5221,757.2017],[-6.0002,41.5161,750.9883],[-5.9888,41.5151,651.5751],[-5.998,41.4961,599.0],[-6.0041,41.491,602.4422],[-6.0146,41.4958,619.5714]]]]}}