{"type":"Feature","properties":{"ISO3166-1-Alpha-3":"ESP","country":"Spain","fill":"#F00","id":"5802","name":"Albacete"},
"geometry":{"type": "Polygon","coordinates": [[[-1.44079,39.36623,452.0565],[-1.44575,39.3669,494.8941],[-1.44854,39.37377,493.9796],[-1.45001,39.37948,448.0998],[-1.45099,39.38553,487.7472],[-1.45239,39.39021,459.4155],[-1.45551,39.39424,477.7701],[-1.465,39.39674,476.9559],[-1.46771,39.4008,473.4558],[-1.46934,39.40416,482.893],[-1.47686,39.40607,470.8894],[-1.48174,39.40943,518.9127],[-1.48445,39.41537,527.3353],[-1.48701,39.41964,530.889],[-1.50101,39.42204,539.0718],[-1.73941,39.32111,750.4526],[-1.76996,39.28061,716.6411],[-1.8451,39.2861,711.2776],[-1.88697,39.30464,735.5037],[-1.98991,39.29365,735.449],[-2.02905,39.33793,746.4728],[-2.02081,39.35199,758.975],[-2.09066,39.35948,685.3639],[-2.04895,39.26677,668.3617],[-2.16836,39.28095,735.9371],[-2.28882,39.22673,714.4214],[-2.32107,39.2837,728.3543],[-2.34921,39.27889,721.2385],[-2.37393,39.23291,714.1708],[-2.51118,39.34203,705.4917],[-2.52936,39.32762,706.3896],[-2.56779,39.32694,709.3],[-2.61929,39.33997,691.0424],[-2.66218,39.32179,685.7998],[-2.74213,39.31802,678.4364],[-2.72223,39.26861,685.1237],[-2.84268,39.13443,724.0084],[-2.8098,39.0845,806.7584],[-2.80603,39.06824,851.4526],[-2.80744,39.05381,864.3514],[-2.8798,38.94551,874.9694],[-2.88212,38.93127,897.0895],[-2.87061,38.91213,902.2455],[-2.84776,38.90552,878.5345],[-2.79945,38.90793,863.6588],[-2.76238,38.88081,897.9351],[-2.74921,38.81125,961.4257],[-2.73177,38.7901,976.3478],[-2.68176,38.77706,982.7579],[-2.65069,38.74217,1008.0162],[-2.64384,38.7261,1005.2665],[-2.64529,38.70741,960.6661],[-2.66868,38.64924,1028.6522],[-2.67933,38.6355,904.7371],[-2.72849,38.62459,908.5803],[-2.7422,38.61589,925.9329],[-2.75097,38.60553,776.7164],[-2.76548,38.57367,818.796],[-2.74694,38.54692,687.0738],[-2.75603,38.53313,701.5462],[-2.71854,38.51429,771.8281],[-2.67521,38.50023,805.3322],[-2.65616,38.50633,806.0357],[-2.6428,38.50928,816.1371],[-2.62632,38.51083,834.605],[-2.59875,38.50995,904.1088],[-2.58221,38.50525,1188.8105],[-2.57384,38.50204,1241.271],[-2.5719,38.50054,1242.6497],[-2.57139,38.49987,1324.5325],[-2.57121,38.49874,1368.8571],[-2.57113,38.49558,1330.4048],[-2.57462,38.48359,1361.2271],[-2.57227,38.46967,1238.0428],[-2.57004,38.46272,1397.704],[-2.57066,38.4484,1279.4243],[-2.57325,38.44127,1039.3917],[-2.57402,38.43455,921.853],[-2.57152,38.42763,782.9068],[-2.56741,38.4228,708.5463],[-2.55718,38.41445,939.9983],[-2.48873,38.39874,1463.3662],[-2.48716,38.39308,1484.8909],[-2.48819,38.37885,1458.0308],[-2.48752,38.37109,1388.0023],[-2.48555,38.36376,1254.4032],[-2.48194,38.35701,1297.1334],[-2.4792,38.34192,1523.4432],[-2.48008,38.32629,1813.5275],[-2.47935,38.31735,1785.2788],[-2.47757,38.30813,1590.9203],[-2.47111,38.29818,1282.8525],[-2.44005,38.28275,871.6699],[-2.43248,38.27296,714.2664],[-2.43062,38.26562,838.8404],[-2.43026,38.2588,856.5918],[-2.43191,38.2525,919.0029],[-2.43287,38.2449,959.7239],[-2.43481,38.23885,857.6063],[-2.43729,38.23314,866.3963],[-2.44116,38.22847,838.0905],[-2.44561,38.22537,824.9123],[-2.44886,38.22227,739.9088],[-2.44845,38.21715,860.6624],[-2.44411,38.20514,834.0057],[-2.44295,38.19625,1032.0568],[-2.44481,38.18819,926.1484],[-2.50648,38.1253,1249.5593],[-2.51584,38.11191,1227.2841],[-2.52193,38.10506,1308.8584],[-2.5362,38.09308,1300.454],[-2.54738,38.08065,1290.3027],[-2.46584,38.04938,1709.478],[-2.36117,38.02435,1349.2634],[-2.35094,38.02362,1343.246],[-2.33853,38.02649,1360.9863],[-2.32422,38.06238,1730.3796],[-2.31882,38.06936,1781.6587],[-2.28097,38.10323,1616.0297],[-2.25053,38.13628,1346.0468],[-2.22221,38.18284,1099.6747],[-2.21193,38.19594,1343.1035],[-2.18281,38.2179,1392.4491],[-2.17033,38.22382,1415.2468],[-2.15875,38.2271,1404.3718],[-2.13909,38.23033,1330.9509],[-2.12741,38.23519,1369.5623],[-2.08506,38.26583,1203.0812],[-2.05907,38.29038,1175.2375],[-2.04289,38.29836,972.9524],[-2.03173,38.29991,873.4072],[-2.02336,38.29898,846.1337],[-2.016,38.29508,804.6339],[-1.99889,38.28216,911.8751],[-1.99279,38.27952,900.9218],[-1.98481,38.27927,843.4751],[-1.95812,38.28666,838.6471],[-1.92618,38.29105,768.0395],[-1.91034,38.29552,719.7438],[-1.88585,38.30624,639.6733],[-1.84802,38.32908,578.9937],[-1.79572,38.35391,668.1656],[-1.79262,38.35983,637.9288],[-1.79278,38.3651,532.5288],[-1.79107,38.36693,428.4094],[-1.78647,38.36709,502.4864],[-1.77387,38.36949,481.1804],[-1.76715,38.37507,373.2569],[-1.75991,38.37812,350.4969],[-1.75053,38.38034,346.0658],[-1.74309,38.3805,356.6591],[-1.73637,38.37939,421.874],[-1.72501,38.37363,493.0481],[-1.71904,38.37135,464.1456],[-1.70266,38.37363,333.9676],[-1.69599,38.37288,336.2719],[-1.69087,38.37022,329.5695],[-1.68656,38.36662,322.0052],[-1.68312,38.36244,333.7956],[-1.68188,38.35761,319.0582],[-1.68167,38.35254,319.1415],[-1.68447,38.34732,315.9514],[-1.68516,38.3419,368.9757],[-1.684,38.3366,351.3828],[-1.68193,38.33156,333.1912],[-1.67806,38.32691,313.1041],[-1.67346,38.32278,306.4531],[-1.6678,38.31968,304.4975],[-1.6546,38.31466,381.5623],[-1.64615,38.31224,409.3917],[-1.6363,38.31079,553.7744],[-1.62674,38.31141,476.2233],[-1.56731,38.32621,468.2939],[-1.49471,38.37311,544.4536],[-1.48528,38.38138,505.2776],[-1.48102,38.38828,474.4105],[-1.47905,38.39569,462.0944],[-1.47794,38.40368,460.609],[-1.47848,38.41145,451.5905],[-1.48329,38.43569,736.8039],[-1.48303,38.45223,611.2404],[-1.48572,38.4837,686.1016],[-1.48965,38.5,645.5781],[-1.49479,38.51341,654.2024],[-1.49835,38.51935,618.8312],[-1.50014,38.52333,617.0026],[-1.50132,38.52917,608.6802],[-1.502,38.53491,588.0886],[-1.49998,38.54059,583.706],[-1.49745,38.54586,580.8037],[-1.48515,38.56292,591.1034],[-1.47624,38.56979,610.4844],[-1.46453,38.5762,625.8833],[-1.45867,38.58286,625.6006],[-1.45427,38.58969,641.3556],[-1.45293,38.60493,680.1652],[-1.45326,38.61235,695.9138],[-1.45032,38.62772,769.7107],[-1.43363,38.65583,833.4903],[-1.40283,38.68498,883.3084],[-1.38578,38.69691,904.6653],[-1.37149,38.7027,876.8027],[-1.3635,38.70131,847.4185],[-1.35777,38.6964,839.8039],[-1.35286,38.69046,829.9662],[-1.34534,38.68658,846.0151],[-1.3342,38.68673,833.9312],[-1.27824,38.71159,755.7676],[-1.25281,38.73187,720.4932],[-1.24317,38.73808,735.1455],[-1.23338,38.74213,750.6832],[-1.17419,38.75409,857.0771],[-1.1645,38.75262,824.1785],[-1.12843,38.74337,843.1115],[-1.11993,38.74006,841.7816],[-1.11429,38.73469,833.6986],[-1.11274,38.72787,813.183],[-1.11192,38.72051,760.7546],[-1.10925,38.71376,727.5665],[-1.1053,38.70751,700.8903],[-1.07786,38.68761,658.9711],[-1.02213,38.65454,686.6099],[-1.00647,38.65831,735.3225],[-1.00143,38.65743,703.1733],[-0.97717,38.65645,572.2281],[-0.95715,38.65883,495.951],[-0.93958,38.664,490.0698],[-0.90816,38.68136,504.7812],[-0.90348,38.68508,521.0681],[-0.90348,38.6887,530.7115],[-0.90986,38.69622,591.808],[-0.9164,38.70242,605.7061],[-0.9273,38.71505,546.931],[-0.93309,38.72051,568.8494],[-0.94229,38.73118,633.6225],[-0.94888,38.74335,585.9421],[-0.95368,38.76265,634.7449],[-0.95299,38.77027,661.3616],[-0.94908,38.77727,818.2266],[-0.93965,38.77996,814.5199],[-0.93064,38.78551,687.3744],[-0.92048,38.79177,760.4946],[-0.91883,38.80841,755.0079],[-0.91513,38.81329,783.96],[-0.91257,38.8198,657.7073],[-0.91327,38.82458,611.7679],[-0.92622,38.85525,662.9657],[-0.92653,38.86342,724.2398],[-0.92154,38.87856,744.3856],[-0.92095,38.88615,800.5903],[-0.92653,38.89553,810.0363],[-0.95919,38.94003,1040.4921],[-0.97107,38.94625,979.8929],[-0.9813,38.94954,971.9055],[-0.99107,38.95121,973.2005],[-0.99854,38.95049,1018.5764],[-1.00425,38.94868,1049.7727],[-1.0196,38.94057,958.0564],[-1.03786,38.93731,888.7374],[-1.06611,38.93809,743.0479],[-1.09365,38.93323,681.114],[-1.12104,38.93259,678.1917],[-1.1344,38.93799,813.5024],[-1.15147,38.94853,963.7585],[-1.24837,39.03813,1191.8945],[-1.25581,39.04728,1009.8875],[-1.26131,39.06335,1002.8566],[-1.26211,39.07369,1055.3347],[-1.25969,39.08237,1119.6691],[-1.25674,39.08919,1111.8951],[-1.25498,39.09606,1088.5298],[-1.25139,39.10296,1088.2382],[-1.24118,39.1173,896.0199],[-1.23718,39.12477,825.4932],[-1.23131,39.13994,792.1064],[-1.22692,39.14681,840.2106],[-1.21486,39.15916,847.9636],[-1.20793,39.16443,830.5986],[-1.20181,39.17043,833.3212],[-1.19328,39.185,744.7765],[-1.19096,39.19177,708.1313],[-1.18625,39.20115,631.3259],[-1.18455,39.20696,726.727],[-1.18116,39.21321,808.9968],[-1.17858,39.22055,762.4937],[-1.17628,39.23523,735.2004],[-1.1776,39.24241,735.5968],[-1.17729,39.24996,747.5195],[-1.17829,39.25771,767.5065],[-1.17597,39.27337,616.2151],[-1.1738,39.28076,553.6231],[-1.17034,39.2883,539.8427],[-1.17147,39.29608,515.6974],[-1.17773,39.30411,436.5305],[-1.31048,39.33729,422.5921],[-1.32097,39.33825,394.9445],[-1.32909,39.33794,394.7455],[-1.33968,39.34173,427.1418],[-1.385,39.36499,434.0928],[-1.40624,39.37059,428.7344],[-1.41541,39.37028,480.562],[-1.42076,39.36765,475.6488],[-1.4265,39.36672,478.2326],[-1.43533,39.36726,494.4017],[-1.44079,39.36623,452.0565]]]}}