{"type": "Feature","id": "5816","bbox": [-5.03659,38.34887,-2.64384,39.57677],"geometry": {"type": "MultiPolygon","coordinates": [[[[-4.85538,39.37824,456.6815],[-4.85006,39.37873,463.0751],[-4.84262,39.38054,452.6731],[-4.83637,39.38385,468.766],[-4.81368,39.39238,486.1522],[-4.77792,39.40059,523.5953],[-4.76702,39.40465,526.5795],[-4.75296,39.41816,536.3324],[-4.76615,39.43435,623.6342],[-4.7421,39.47771,564.3234],[-4.74587,39.4912,587.0142],[-4.75403,39.50218,680.0702],[-4.77492,39.51942,696.5868],[-4.8627,39.55604,1039.5039],[-4.87374,39.55118,866.0735],[-4.89854,39.51701,700.5405],[-4.94437,39.39191,470.3625],[-4.88014,39.36687,473.0291],[-4.85538,39.37824,456.6815]]],
[[[-4.15872,39.57677,1323.6632],[-4.19271,39.49817,737.3953],[-4.24213,39.47794,752.3749],[-4.42678,39.50881,950.6967],[-4.43572,39.50683,883.8861],[-4.44102,39.50293,836.332],[-4.44714,39.49311,835.7753],[-4.45093,39.48932,827.9705],[-4.46379,39.48474,816.0156],[-4.47607,39.48616,756.8908],[-4.4878,39.49251,870.9847],[-4.49903,39.50274,733.2801],[-4.51224,39.54853,736.8611],[-4.53842,39.54811,715.684],[-4.55384,39.53943,739.3966],[-4.56235,39.52254,958.8668],[-4.56782,39.49747,686.2255],[-4.58356,39.49227,801.7947],[-4.60024,39.48289,752.4344],[-4.61333,39.46999,783.0056],[-4.61824,39.45426,840.9579],[-4.69273,39.44981,614.6187],[-4.67787,39.41759,654.7581],[-4.68136,39.40013,555.1491],[-4.69606,39.37837,619.0148],[-4.71095,39.34414,573.3619],[-4.72035,39.33483,522.5133],[-4.73027,39.32954,496.6735],[-4.74066,39.32794,507.6854],[-4.74939,39.32458,490.952],[-4.75676,39.31652,554.0688],[-4.75619,39.30615,494.6187],[-4.75355,39.29739,535.6565],[-4.73462,39.26096,736.8586],[-4.7172,39.23605,607.1494],[-4.71568,39.23208,616.9858],[-4.71061,39.22531,466.8599],[-4.69911,39.21812,539.3032],[-4.67043,39.19099,525.834],[-4.65839,39.17394,453.304],[-4.67141,39.17446,643.5557],[-4.67612,39.17562,649.3563],[-4.71118,39.18903,663.5443],[-4.71903,39.19316,729.5955],[-4.72733,39.1965,803.6699],[-4.74477,39.19882,738.6887],[-4.76262,39.19544,750.0232],[-4.77193,39.19482,801.4764],[-4.7811,39.19513,656.6235],[-4.79864,39.19911,773.1403],[-4.80678,39.1988,791.4037],[-4.8134,39.19446,715.8202],[-4.81965,39.18872,670.9027],[-4.82577,39.18203,688.701],[-4.83972,39.17027,786.4197],[-4.84704,39.16549,658.7021],[-4.85112,39.15898,586.0316],[-4.85556,39.14784,554.7742],[-4.8674,39.10614,545.7189],[-4.86748,39.09198,564.2749],[-4.86399,39.08162,563.785],[-4.85748,39.07622,570.2059],[-4.84024,39.06862,655.224],[-4.83363,39.06289,658.2903],[-4.83104,39.05426,605.3287],[-4.83471,39.04759,672.2281],[-4.859,39.03651,759.2693],[-4.8676,39.03364,752.7515],[-4.87729,39.0326,787.1279],[-4.89533,39.03767,760.1631],[-4.91993,39.04914,810.4138],[-4.92858,39.05152,697.796],[-4.93781,39.05307,582.0042],[-4.94639,39.05098,505.3504],[-4.95414,39.04558,490.618],[-4.95359,39.03896,498.5567],[-4.95117,39.0317,512.3639],[-4.9476,39.02439,503.8655],[-4.94639,39.01679,481.1292],[-4.94432,39.00966,485.6775],[-4.93951,39.00462,509.0963],[-4.93445,39.00152,523.7623],[-4.93127,39.00013,514.895],[-4.93093,38.99935,514.895],[-4.9298,38.99173,555.951],[-4.92959,38.98491,645.0778],[-4.92804,38.97747,565.8047],[-4.92502,38.97018,535.9803],[-4.92062,38.96413,576.9333],[-4.91383,38.95969,543.3828],[-4.87977,38.95225,814.8074],[-4.87321,38.94894,733.7083],[-4.84665,38.94597,819.5649],[-4.84006,38.93964,675.8417],[-4.83631,38.92853,513.1253],[-4.8414,38.91424,449.6722],[-4.84572,38.89204,544.1711],[-4.85076,38.88667,636.4366],[-4.85859,38.88615,753.4197],[-4.88634,38.8891,614.235],[-4.89579,38.88812,704.5558],[-4.90468,38.886,585.2567],[-4.9129,38.88228,481.6023],[-4.91975,38.87716,413.5078],[-4.92734,38.87032,428.1198],[-4.94287,38.84887,476.3516],[-4.94752,38.83936,387.9294],[-4.97165,38.76916,525.7576],[-4.98137,38.7496,401.6096],[-4.99078,38.73932,436.9146],[-4.99785,38.73583,361.7246],[-5.00282,38.7351,358.4624],[-5.00974,38.73536,346.0],[-5.02145,38.73423,356.0552],[-5.03659,38.72841,433.7565],[-4.9792,38.69438,405.0411],[-4.94597,38.68374,446.9125],[-4.92424,38.68332,396.2934],[-4.91282,38.68493,419.4517],[-4.88303,38.68524,536.3468],[-4.8735,38.68069,438.7603],[-4.86972,38.67387,404.7222],[-4.86737,38.65847,415.9847],[-4.86737,38.65079,383.6514],[-4.8659,38.63501,391.282],[-4.86109,38.62581,443.5909],[-4.84929,38.61485,402.8725],[-4.82849,38.60405,407.4517],[-4.81394,38.59976,427.1655],[-4.80125,38.59775,429.0392],[-4.78159,38.59733,481.2983],[-4.76898,38.59439,528.1343],[-4.72797,38.57976,458.8831],[-4.71493,38.57258,441.0213],[-4.70699,38.5654,511.2766],[-4.70397,38.55935,518.982],[-4.68524,38.55044,479.1452],[-4.668,38.54509,541.3994],[-4.63273,38.52354,501.3309],[-4.62382,38.51434,492.0651],[-4.61855,38.50597,487.7341],[-4.61049,38.49698,524.1819],[-4.60253,38.49259,497.7548],[-4.59333,38.49,511.9394],[-4.58418,38.49,522.5548],[-4.57044,38.48675,528.8037],[-4.55827,38.47881,531.8313],[-4.54305,38.47292,566.8303],[-4.51706,38.45551,584.7339],[-4.48889,38.43197,593.5947],[-4.46951,38.40954,603.6918],[-4.46006,38.40091,614.723],[-4.44975,38.39595,596.7248],[-4.40569,38.37957,623.0053],[-4.37975,38.37259,665.0026],[-4.36632,38.37117,645.0477],[-4.3018,38.35011,597.9105],[-4.29004,38.34887,530.4908],[-4.2755,38.35092,527.3848],[-4.27485,38.38799,600.8419],[-4.2718,38.39479,698.0808],[-4.26498,38.40143,701.5454],[-4.25607,38.40277,727.7339],[-4.23511,38.40339,864.5586],[-4.21553,38.40122,1031.2609],[-4.17759,38.39058,917.0342],[-3.89374,38.38161,787.5387],[-3.85994,38.38595,612.0587],[-3.83968,38.39262,938.1576],[-3.82968,38.40779,999.3912],[-3.82309,38.4152,1006.3124],[-3.80754,38.42311,1044.3633],[-3.79416,38.42608,920.2657],[-3.77837,38.42734,956.8777],[-3.76705,38.42654,971.0188],[-3.7578,38.4228,984.7613],[-3.74098,38.41815,992.8216],[-3.73266,38.42024,994.7629],[-3.72558,38.4228,929.9846],[-3.71747,38.4221,854.6257],[-3.69217,38.41347,940.97],[-3.67197,38.41156,1046.4493],[-3.61985,38.40143,1053.1512],[-3.60706,38.40169,1183.9178],[-3.59603,38.40399,1168.2585],[-3.58874,38.40768,1125.7808],[-3.58487,38.41365,958.1553],[-3.5806,38.4359,896.4821],[-3.57675,38.44349,855.672],[-3.56639,38.44913,979.2675],[-3.5536,38.45016,908.1605],[-3.54384,38.44882,904.2264],[-3.53807,38.44365,794.4323],[-3.53456,38.4374,811.4659],[-3.53311,38.43026,714.7935],[-3.5304,38.42339,737.8093],[-3.52637,38.41714,873.2247],[-3.51908,38.41334,999.043],[-3.48606,38.40644,792.4243],[-3.46958,38.40448,811.7119],[-3.45733,38.40484,950.3726],[-3.44521,38.40649,1031.3401],[-3.41906,38.41505,1029.4735],[-3.39594,38.42644,730.3806],[-3.38139,38.43864,733.3879],[-3.37666,38.44476,729.0967],[-3.37563,38.45176,741.9525],[-3.37361,38.45889,746.4393],[-3.36956,38.46623,761.0884],[-3.36188,38.47326,868.6631],[-3.34579,38.4798,969.0146],[-3.32281,38.48241,996.0149],[-3.30742,38.48189,888.4041],[-3.29571,38.47869,775.0248],[-3.27793,38.47166,714.9883],[-3.25956,38.46675,651.4064],[-3.24029,38.46372,755.1786],[-3.17083,38.46096,628.1237],[-3.13735,38.4528,738.3179],[-3.12327,38.4538,770.3832],[-3.11353,38.45755,808.7147],[-3.09849,38.46858,745.1221],[-3.0697,38.48272,821.9928],[-3.06061,38.48261,828.9325],[-3.05296,38.47897,837.7427],[-3.04635,38.47292,787.8292],[-3.02319,38.44634,828.3171],[-3.00937,38.43445,787.4694],[-3.00087,38.43006,764.6072],[-2.99707,38.43305,767.2756],[-2.99513,38.43853,773.4091],[-2.99273,38.45197,831.9441],[-2.98681,38.45721,783.4994],[-2.96656,38.46861,864.0066],[-2.9508,38.47447,854.7017],[-2.93814,38.47595,844.3301],[-2.92346,38.47633,855.2913],[-2.91312,38.47465,844.5436],[-2.90274,38.47192,826.3846],[-2.89504,38.4669,724.7673],[-2.88385,38.46155,674.9078],[-2.87899,38.4606,602.7705],[-2.8755,38.46194,693.8115],[-2.87333,38.46403,604.813],[-2.87065,38.46571,634.163],[-2.86517,38.46783,665.1063],[-2.86336,38.46905,634.815],[-2.8616,38.47091,600.3564],[-2.85964,38.47347,612.5109],[-2.85091,38.47995,626.9368],[-2.84489,38.48344,632.4352],[-2.81659,38.49584,670.201],[-2.81127,38.49755,654.6653],[-2.80737,38.49992,679.9325],[-2.8069,38.50049,655.556],[-2.79086,38.50706,673.4064],[-2.77008,38.52052,681.0204],[-2.76768,38.52421,707.2759],[-2.75603,38.53313,701.5462],[-2.74694,38.54692,687.0738],[-2.76548,38.57367,818.796],[-2.75097,38.60553,776.7164],[-2.7422,38.61589,925.9329],[-2.72849,38.62459,908.5803],[-2.67933,38.6355,904.7371],[-2.66868,38.64924,1028.6522],[-2.64529,38.70741,960.6661],[-2.64384,38.7261,1005.2665],[-2.65069,38.74217,1008.0162],[-2.68176,38.77706,982.7579],[-2.73177,38.7901,976.3478],[-2.74921,38.81125,961.4257],[-2.76238,38.88081,897.9351],[-2.79945,38.90793,863.6588],[-2.84776,38.90552,878.5345],[-2.87061,38.91213,902.2455],[-2.88212,38.93127,897.0895],[-2.8798,38.94551,874.9694],[-2.80744,39.05381,864.3514],[-2.80603,39.06824,851.4526],[-2.8098,39.0845,806.7584],[-2.84268,39.13443,724.0084],[-2.72223,39.26861,685.1237],[-2.74213,39.31802,678.4364],[-2.78915,39.39764,676.9893],[-2.83068,39.35508,666.3349],[-2.8825,39.35097,669.9877],[-2.89656,39.36674,671.125],[-2.86981,39.39043,663.9993],[-2.90722,39.43022,677.4019],[-2.93122,39.47141,676.5914],[-2.9779,39.44465,659.1089],[-3.0225,39.457,665.9215],[-3.06952,39.45013,717.2711],[-3.1433,39.49543,678.4013],[-3.18449,39.48789,673.8836],[-3.18517,39.47416,690.1663],[-3.29416,39.47073,644.9775],[-3.30547,39.46249,643.6753],[-3.31811,39.42398,638.1859],[-3.32672,39.41023,636.1718],[-3.34262,39.40467,636.4343],[-3.39876,39.40501,657.1724],[-3.47034,39.37225,672.6593],[-3.47686,39.34307,681.1225],[-3.55614,39.29914,854.4305],[-3.58668,39.30771,1049.2097],[-3.67898,39.29501,975.9023],[-3.72221,39.26985,901.172],[-3.73583,39.26961,751.9544],[-3.78038,39.29438,1044.0074],[-3.79863,39.29199,1060.4395],[-3.81426,39.28454,1139.6702],[-3.84165,39.25967,929.1349],[-3.87596,39.26209,705.3008],[-3.90238,39.28027,1008.9849],[-3.96691,39.29845,919.9843],[-3.97206,39.35232,1033.5132],[-4.07328,39.36537,953.5248],[-4.09767,39.34541,897.3609],[-4.10618,39.34231,899.9213],[-4.11593,39.34431,1008.9399],[-4.14032,39.35896,895.8903],[-4.14579,39.36794,1034.7111],[-4.14405,39.37722,879.2092],[-4.12784,39.40895,740.8611],[-4.11825,39.457,1230.1976],[-4.07981,39.45185,1227.3877],[-4.06511,39.46566,1231.793],[-4.06057,39.47355,1170.6495],[-4.05983,39.48382,1086.7141],[-4.06315,39.49117,927.0074],[-4.07508,39.50344,859.6439],[-4.07829,39.50968,835.9863],[-4.07546,39.52209,815.8437],[-4.06513,39.52769,828.1342],[-4.05218,39.5316,836.097],[-4.04152,39.53889,854.2418],[-4.03855,39.54679,869.1152],[-4.03951,39.567,1099.6384],[-4.04172,39.5754,1239.7294],[-4.12441,39.56373,1242.9377],[-4.15872,39.57677,1323.6632]]]]}
,"properties": {"ISO3166-1-Alpha-3": "ESP","country": "Spain","fill": "#00F","name": "Ciudad Real","area_km2": 19713.14,"hist_schema_id": "Elevation0-9000","hist_area_km2": {"350": 8.97,"375": 18.3,"400": 37.31,"425": 75.88,"450": 113.8,"475": 176.58,"500": 231.07,"525": 304.21,"550": 404.07,"575": 556.47,"600": 1000.61,"625": 2293.5,"650": 2907.65,"675": 2117.84,"700": 1349.25,"725": 1194.82,"750": 1058.81,"775": 1006.58,"800": 928.28,"825": 828.61,"850": 721.32,"875": 519.36,"900": 463.4,"925": 384.69,"950": 289.93,"975": 204.54,"1000": 243.49,"1025": 83.46,"1050": 53.62,"1075": 37.67,"1100": 27.28,"1125": 21.53,"1150": 15.59,"1175": 12.19,"1200": 8.51,"1225": 7.19,"1250": 4.49,"1275": 1.39,"1300": 0.51,"1325": 0.18,"1350": 0.18}}}