{"type":"Feature","properties":{"featurecla":"River","scalerank":7,"rivernum":562,"dissolve":"562River","name":"Zncara1","name_alt":null,"note":null,"min_zoom":6.0,"strokeweig":0.2,"name_en":"Zncara","min_label":7.0},
"geometry":{"type": "LineString","coordinates": [[-2.6177734374999768,39.69733307499412,775.3139],[-2.6104492187499768,39.683856512494117,784.481],[-2.575439453125,39.657831121869116,815.3833],[-2.5631591796874891,39.64581940311912,780.3224],[-2.5564453124999891,39.608758856244116,750.833],[-2.5774902343749768,39.54303619999412,771.8107],[-2.5662597656249768,39.51203034061912,763.1329],[-2.5654296875,39.50018952030662,753.2788],[-2.5805175781249829,39.46356842655662,721.3845],[-2.5835937499999768,39.447137762494116,720.2682],[-2.5786621093749891,39.42890045780662,711.1893],[-2.5719238281249939,39.411981512494116,704.163],[-2.5693847656249891,39.39374420780662,699.884],[-2.5768554687499829,39.371454168744116,695.2922],[-2.6057617187499891,39.35419342655662,694.8746],[-2.6346191406249768,39.341327215619117,692.7094],[-2.66796875,39.333270574994117,685.7968],[-2.7493164062499891,39.32977936405662,680.3829],[-2.7676757812499768,39.332635809369116,674.2186],[-2.78173828125,39.34747955936912,673.338],[-2.8238281249999768,39.37885162968162,673.9113],[-2.8516113281249891,39.36090729374412,674.6994],[-2.896728515625,39.35504791874412,663.632],[-3.0301757812499939,39.35382721561912,643.0364],[-3.12548828125,39.32367584843162,637.5546],[-3.1645996093749891,39.31659577030662,633.6754]]}}