{"type": "Feature","bbox": [0.3486,41.2741,1.0752,41.5894],"geometry": {"type": "MultiPolygon","coordinates": [[[[0.6777,41.3097,320.6165],[0.6808,41.3081,330.9483],[0.6957,41.3136,369.9363],[0.7066,41.3117,424.6612],[0.7131,41.3138,414.5639],[0.7245,41.3128,456.2398],[0.7422,41.3175,570.0887],[0.7516,41.3179,631.8402],[0.7505,41.3248,684.4967],[0.7613,41.3338,680.3567],[0.7921,41.3314,704.8049],[0.7948,41.3287,708.3575],[0.802,41.3304,723.5556],[0.813,41.3273,779.3066],[0.8195,41.3288,764.9674],[0.8322,41.3588,630.3789],[0.8448,41.362,640.2149],[0.8467,41.3549,653.8651],[0.8633,41.3381,812.4417],[0.8721,41.3408,848.468],[0.8931,41.3435,823.5281],[0.9016,41.3476,863.6008],[0.9118,41.3499,883.5665],[0.9219,41.3486,871.5389],[0.9342,41.3504,921.8788],[0.9394,41.3494,938.8236],[0.9643,41.3555,964.6249],[0.9669,41.3596,896.6902],[0.9631,41.3607,857.7802],[0.9623,41.3681,723.0125],[0.9726,41.3742,686.7942],[0.9736,41.3818,671.079],[0.9795,41.3866,678.1321],[0.9817,41.3922,638.114],[0.9917,41.3886,641.584],[0.9937,41.3913,638.2065],[0.993,41.3938,627.2656],[0.9983,41.3991,606.0239],[1.0037,41.4003,616.1577],[1.0011,41.4021,596.299],[1.0036,41.4049,595.8854],[1.0059,41.4059,596.4592],[1.0156,41.4043,576.1306],[1.027,41.4098,513.9538],[1.0321,41.4192,548.6243],[1.0309,41.4213,581.4244],[1.0378,41.4217,541.5433],[1.0399,41.4281,602.3095],[1.0463,41.4371,662.8934],[1.0465,41.4404,652.7505],[1.0504,41.4429,659.0126],[1.0551,41.4423,679.2592],[1.0624,41.4483,659.8936],[1.0612,41.4491,679.0604],[1.0641,41.4547,668.006],[1.0701,41.4557,697.6382],[1.0752,41.4599,709.0231],[1.0722,41.463,685.4475],[1.057,41.4663,641.5692],[1.0374,41.48,572.9602],[1.046,41.4844,549.3135],[1.0477,41.4875,575.5126],[1.0458,41.4913,564.7214],[1.0373,41.4983,483.2626],[1.0379,41.505,547.4097],[1.0316,41.5063,552.027],[1.0216,41.5033,533.7618],[1.0108,41.5123,492.721],[0.9971,41.5132,471.8515],[0.9786,41.5178,422.0277],[0.9808,41.5281,384.163],[0.9882,41.5366,406.4378],[0.9836,41.5463,356.7604],[0.9876,41.5467,368.3195],[0.9863,41.5503,361.5495],[0.9793,41.5567,350.6478],[0.972,41.5589,337.454],[0.969,41.565,313.3659],[0.9622,41.5678,306.7042],[0.9687,41.5778,312.6302],[0.9514,41.5844,298.5585],[0.9389,41.5841,290.5298],[0.9175,41.5894,275.645],[0.8969,41.5799,304.3379],[0.8887,41.5744,306.7574],[0.8819,41.5817,304.9554],[0.8807,41.5803,307.4853],[0.8691,41.5806,266.4467],[0.8704,41.5771,262.3674],[0.8671,41.5765,256.0905],[0.866,41.5742,260.8363],[0.8604,41.5754,253.8146],[0.8585,41.574,253.1033],[0.8514,41.5743,244.1306],[0.8532,41.5716,245.6521],[0.8603,41.5719,254.5775],[0.8612,41.5619,257.3061],[0.8666,41.5601,264.4431],[0.8737,41.5617,276.3845],[0.8698,41.5558,259.0706],[0.8746,41.5522,276.9035],[0.8746,41.5501,269.062],[0.8684,41.5398,300.5537],[0.8737,41.5364,309.7655],[0.8662,41.5257,279.1879],[0.8406,41.5345,253.4615],[0.8288,41.5309,264.635],[0.831,41.5247,276.3217],[0.8369,41.5253,271.528],[0.8356,41.5175,280.7787],[0.8384,41.5001,330.1709],[0.8368,41.4889,403.6925],[0.8433,41.4831,502.9609],[0.8431,41.4696,527.6299],[0.8448,41.4637,538.5374],[0.8364,41.4649,520.4467],[0.8223,41.4641,513.1047],[0.8194,41.4665,493.8207],[0.8192,41.4748,471.4493],[0.815,41.4838,453.4139],[0.8181,41.4899,374.9801],[0.8106,41.5186,323.7739],[0.8164,41.5328,264.032],[0.804,41.5418,246.0082],[0.7759,41.5452,232.2048],[0.7669,41.5209,239.5557],[0.7643,41.5217,240.6319],[0.7623,41.5278,227.6158],[0.7605,41.5283,227.6158],[0.7609,41.5328,221.8777],[0.7584,41.5382,225.653],[0.7504,41.5315,225.7971],[0.7475,41.5336,222.2902],[0.7465,41.5294,229.7993],[0.7449,41.5283,226.5766],[0.741,41.5296,220.3158],[0.731,41.5206,283.6798],[0.7263,41.5189,303.8145],[0.7099,41.5255,272.6724],[0.705,41.5187,263.2862],[0.7001,41.5051,285.3411],[0.6957,41.4996,278.4814],[0.6813,41.5054,269.4018],[0.6763,41.5116,258.5798],[0.6752,41.5104,256.7867],[0.6636,41.5158,237.8942],[0.6594,41.5225,230.8728],[0.6573,41.5231,227.5926],[0.6557,41.5331,219.3636],[0.6589,41.5366,217.5768],[0.657,41.5509,201.0826],[0.6316,41.5543,184.0532],[0.6272,41.5486,192.3482],[0.621,41.5447,200.2861],[0.6147,41.5322,171.2851],[0.611,41.5323,164.3463],[0.6091,41.5354,164.2162],[0.599,41.5371,154.7851],[0.5889,41.5455,149.8666],[0.5861,41.546,145.4608],[0.5746,41.5408,159.6212],[0.5735,41.5348,178.4063],[0.5696,41.5298,191.1512],[0.5704,41.5221,202.3643],[0.5748,41.5167,222.3412],[0.5773,41.5042,163.0686],[0.5748,41.4977,198.7865],[0.5614,41.5026,157.695],[0.5396,41.4997,171.1905],[0.5234,41.5049,144.4902],[0.5239,41.5024,149.3452],[0.518,41.5059,144.3289],[0.5193,41.5039,144.6597],[0.518,41.4956,144.3135],[0.5207,41.4922,148.7983],[0.5282,41.4881,163.2242],[0.527,41.4871,161.9182],[0.5305,41.4827,182.8327],[0.5398,41.4772,189.2977],[0.5438,41.4723,172.032],[0.5353,41.4698,190.3507],[0.5338,41.4609,226.9634],[0.5371,41.457,234.7204],[0.5375,41.4502,251.4317],[0.5419,41.4465,250.3788],[0.5289,41.4321,285.4162],[0.519,41.4305,264.3325],[0.4962,41.4407,214.7432],[0.4958,41.4453,195.8304],[0.4934,41.4463,193.0011],[0.4818,41.431399999999996,167.0072],[0.4731,41.428,200.3779],[0.4747,41.4223,230.0092],[0.4725,41.4184,233.9048],[0.4728,41.3887,301.3513],[0.46,41.3773,316.0816],[0.4726,41.3597,353.7859],[0.4678,41.3449,365.3864],[0.4649,41.3414,360.6713],[0.4509,41.3538,310.1409],[0.4373,41.3601,317.4355],[0.4286,41.3617,292.4312],[0.4061,41.36,214.4556],[0.4061,41.3573,212.8091],[0.4034,41.3554,215.6452],[0.4007,41.3566,195.446],[0.3975,41.3518,214.4264],[0.3936,41.3542,194.9296],[0.3935,41.3516,194.2395],[0.3918,41.3522,182.2134],[0.3886,41.3551,168.4417],[0.3872,41.3526,162.715],[0.3837,41.3532,150.337],[0.3738,41.3489,123.0955],[0.3738,41.3504,123.0955],[0.3668,41.3418,92.9796],[0.3592,41.342,68.5],[0.3486,41.3298,68.5],[0.3512,41.3252,68.5],[0.3655,41.3209,72.0618],[0.3683,41.3186,68.5],[0.3702,41.3115,68.5],[0.3657,41.304,68.5],[0.3696,41.2965,347.1256],[0.3857,41.2789,394.6511],[0.424,41.2741,470.6489],[0.4332,41.2761,465.1496],[0.4333,41.2875,464.5404],[0.436,41.2974,452.9015],[0.4323,41.3118,417.3368],[0.4348,41.3206,390.0014],[0.4418,41.3256,364.1497],[0.4515,41.3298,350.0004],[0.4563,41.33,395.9424],[0.4613,41.3349,377.1565],[0.4696,41.3308,365.5969],[0.4711,41.3279,356.1438],[0.4753,41.3268,372.9839],[0.4747,41.3251,374.2319],[0.4799,41.3235,361.7286],[0.4808,41.3174,363.1547],[0.4898,41.3103,366.3358],[0.4923,41.3052,325.5864],[0.4972,41.3031,287.8211],[0.5033,41.2898,320.8436],[0.518,41.2916,288.3706],[0.5252,41.2902,260.8875],[0.5301,41.3004,204.7552],[0.5347,41.3022,181.0615],[0.5419,41.3108,294.8147],[0.5456,41.323,355.0254],[0.5545,41.3267,332.3387],[0.5746,41.3185,291.7724],[0.5808,41.3201,344.8086],[0.5819,41.3113,332.5223],[0.5968,41.2936,150.66],[0.6039,41.2936,167.7465],[0.6051,41.2918,179.981],[0.6188,41.291,195.0324],[0.6251,41.2922,227.88],[0.6281,41.291,213.6151],[0.6291,41.2933,232.2674],[0.6368,41.2976,238.2272],[0.656,41.3013,277.9838],[0.6697,41.3096,312.0995],[0.6777,41.3097,320.6165]]]]}
,"properties": {"GID_3": "ESP.6.3.2_1","GID_0": "ESP","country": "Spain","GID_1": "ESP.6_1","province": "Cataluña","NL_NAME_1": "NA","GID_2": "ESP.6.3_1","county": "Lleida","NL_NAME_2": "NA","city": "n.a.(160)","VARNAME_3": "NA","NL_NAME_3": "NA","TYPE_3": "Comarca","ENGTYPE_3": "Comarca","CC_3": "NA","HASC_3": "NA","name": "n.a.(160).city","area_km2": 1074.5114,"hist_schema_id": "Elevation0-9000","hist_area_km2": {"75": 1.449,"100": 0.9872,"125": 1.2578,"150": 4.2593,"175": 19.6181,"200": 35.6815,"225": 44.3658,"250": 54.6722,"275": 73.4331,"300": 91.6641,"325": 76.3122,"350": 75.1221,"375": 66.762,"400": 62.6109,"425": 58.5451,"450": 59.5353,"475": 54.6822,"500": 55.2052,"525": 52.713,"550": 43.9554,"575": 39.3477,"600": 28.8222,"625": 24.3717,"650": 17.8354,"675": 11.8228,"700": 6.7318,"725": 4.2177,"750": 2.6898,"775": 1.4484,"800": 1.0504,"825": 0.7321,"850": 0.6844,"875": 0.5889,"900": 0.4138,"925": 0.2706,"950": 0.2706,"975": 0.1751,"1000": 0.191,"1025": 0.0159}}}