{"type":"Feature","properties":{"ISO3166-1-Alpha-3":"ESP","country":"Spain","fill":"#00F","id":"5823","name":"Gipuzkoa"},
"geometry":{"type": "Polygon","coordinates": [[[-1.79407,43.38602,77.4472],[-1.81127,43.39509,0.0],[-1.8474,43.38093,0.0],[-1.88492,43.35602,0.0],[-1.92569,43.34264,0.0],[-1.91885,43.33857,0.0],[-1.91023,43.33137,193.0809],[-1.90465,43.32844,84.223],[-1.91869,43.32099,0.4976],[-1.92658,43.32587,38.3913],[-1.93371,43.33564,1.4978],[-1.94563,43.34264,0.0],[-1.96036,43.34309,0.0],[-1.97179,43.33922,0.0],[-1.99462,43.32844,0.0],[-2.06554,43.3096,63.2836],[-2.08642,43.30724,0.0],[-2.09887,43.30414,0.0],[-2.1278,43.28742,3.8226],[-2.13484,43.28958,108.5698],[-2.13781,43.29422,0.0],[-2.14004,43.2989,0.0],[-2.14485,43.30109,0.0],[-2.15152,43.29999,0.0],[-2.15632,43.29767,0.0],[-2.15958,43.29536,0.0],[-2.16222,43.29426,0.0],[-2.17447,43.29743,0.0],[-2.18346,43.30451,0.0],[-2.19042,43.31159,0.0],[-2.19628,43.31476,0.0],[-2.20788,43.31399,0.0],[-2.24112,43.30724,0.0],[-2.28466,43.30349,0.0],[-2.32706,43.30683,0.0],[-2.36742,43.3157,0.0],[-2.40678,43.32931,0.0],[-2.44017,43.28813,381.8381],[-2.41819,43.26754,543.5155],[-2.45936,43.22731,648.7297],[-2.46469,43.22477,679.9886],[-2.46809,43.22477,579.1115],[-2.47696,43.22759,408.3558],[-2.49053,43.22235,269.9357],[-2.48895,43.18366,326.1566],[-2.49571,43.1684,505.7612],[-2.49895,43.16747,505.3442],[-2.50178,43.16783,428.5551],[-2.50433,43.16751,345.3076],[-2.50673,43.16457,305.9772],[-2.50705,43.16153,374.9493],[-2.49826,43.11868,525.526],[-2.50172,43.10323,535.2794],[-2.51401,43.09323,808.4566],[-2.54655,43.08804,521.0992],[-2.53223,43.04726,557.3549],[-2.53366,43.03445,363.5727],[-2.54131,43.02576,562.1679],[-2.58892,43.01012,527.228],[-2.59562,43.00377,589.0844],[-2.60282,42.98235,705.7687],[-2.55902,42.96283,866.4307],[-2.55482,42.96282,819.7585],[-2.54939,42.96459,684.1788],[-2.53778,42.9728,915.9735],[-2.53519,42.97338,983.0723],[-2.52919,42.96914,855.3691],[-2.50313,42.96062,1066.9303],[-2.3547,42.9501,1220.6311],[-2.30841,42.9286,1278.6277],[-2.29013,42.90598,1062.5048],[-2.28119,42.90099,1031.0565],[-2.25296,42.90007,978.2123],[-2.23751,42.92296,741.8617],[-2.2358,42.9287,648.366],[-2.23169,42.93516,712.2476],[-2.22544,42.94141,688.8118],[-2.21415,42.94963,874.1141],[-2.20082,42.95164,892.0636],[-2.18288,42.94591,769.0628],[-2.1741,42.94405,520.4448],[-2.15449,42.94596,743.8987],[-2.14379,42.94588,721.5132],[-2.13291,42.94694,763.4565],[-2.12276,42.94963,629.2479],[-2.11359,42.95616,582.3099],[-2.09475,42.97546,845.9348],[-2.08522,42.97965,851.5504],[-2.05728,42.98384,961.1298],[-2.0494,42.98823,1176.901],[-2.04266,42.99446,1221.3319],[-2.03959,43.0043,1236.884],[-2.03948,43.01226,1282.7156],[-2.04181,43.01954,1159.6804],[-2.04057,43.02755,1212.5425],[-2.03656,43.03644,741.0258],[-2.02858,43.04903,435.533],[-2.0146,43.06696,380.8546],[-1.96401,43.09329,594.7725],[-1.95075,43.09809,462.4458],[-1.93791,43.10559,423.2136],[-1.92672,43.11437,664.1729],[-1.91249,43.13515,794.3958],[-1.91109,43.14628,935.0717],[-1.91241,43.15571,519.5462],[-1.91608,43.16212,833.595],[-1.91758,43.16917,864.0276],[-1.91928,43.18455,579.2436],[-1.91866,43.19225,506.4966],[-1.91099,43.21351,310.8737],[-1.90853,43.21834,119.575],[-1.90241,43.21576,182.8715],[-1.88926,43.21163,120.8961],[-1.8837,43.21196,108.1529],[-1.8798,43.21413,196.6216],[-1.88001,43.21948,158.1878],[-1.8781,43.22465,167.765],[-1.8727,43.2277,154.1614],[-1.86412,43.22566,203.2367],[-1.85727,43.22287,268.4613],[-1.8474,43.22362,243.4939],[-1.83368,43.22951,280.6487],[-1.82107,43.2386,440.0007],[-1.80554,43.257,503.9664],[-1.79131,43.27741,666.776],[-1.78193,43.28446,653.6995],[-1.77345,43.28971,521.7217],[-1.74994,43.29475,199.9166],[-1.74973,43.29479,199.9166],[-1.75242,43.29909,407.3726],[-1.75578,43.31855,274.4983],[-1.76823,43.33092,180.1247],[-1.79691,43.34113,18.5347],[-1.79717,43.35332,2.548],[-1.79645,43.37438,7.1956],[-1.79407,43.38602,77.4472]]]}}