{"type":"Feature","properties":{"ISO3166-1-Alpha-3":"ESP","country":"Spain","fill":"#F0F","id":"5839","name":"Palencia"},
"geometry":{"type": "MultiPolygon","coordinates": [[[[-4.05795,42.13717,850.9985],[-4.05398,42.13948,869.754],[-4.05209,42.14352,850.3457],[-4.0544,42.15729,769.5542],[-4.05994,42.16595,769.0292],[-4.0707,42.17201,778.306],[-4.08301,42.17449,814.2144],[-4.09315,42.1724,818.9022],[-4.09731,42.16918,803.7739],[-4.10078,42.16496,791.5593],[-4.10299,42.16006,808.6943],[-4.10334,42.15482,782.2399],[-4.10005,42.14521,766.1083],[-4.09684,42.14112,762.5678],[-4.09255,42.13859,762.8842],[-4.07378,42.13378,772.6351],[-4.05795,42.13717,850.9985]]],
[[[-4.40081,43.03329,1924.3502],[-4.40965,43.03833,1990.9331],[-4.43396,43.04802,1918.533],[-4.44603,43.05086,1503.8721],[-4.46287,43.05094,1181.2698],[-4.48125,43.04254,1457.848],[-4.49086,43.0396,1516.7986],[-4.50566,43.03941,1359.3423],[-4.51871,43.03771,1386.1353],[-4.55238,43.02394,1566.201],[-4.56561,43.02324,1545.1707],[-4.60124,43.02554,1777.1202],[-4.63912,43.01978,1865.9883],[-4.6896,43.0196,1679.9626],[-4.70583,43.01572,2067.5261],[-4.72686,43.01593,2223.0117],[-4.76045,43.00539,1978.7538],[-4.7892,42.98979,2076.8621],[-4.80027,42.9752,1976.3026],[-4.81343,42.92572,1585.0837],[-4.82286,42.91695,1463.6041],[-4.84762,42.90236,1708.9225],[-4.85536,42.89177,1904.4465],[-4.86565,42.86052,1785.495],[-4.89015,42.86257,1539.7618],[-4.89679,42.85977,1635.9164],[-4.90034,42.85459,1629.476],[-4.90192,42.84806,1583.8579],[-4.90367,42.77957,1132.1934],[-4.90927,42.76921,1172.2675],[-4.92977,42.74723,1076.2441],[-4.93207,42.73999,1103.2268],[-4.92806,42.73262,1142.037],[-4.91996,42.72581,1138.5752],[-4.8875,42.71161,1127.0575],[-4.88102,42.70476,1122.3248],[-4.88193,42.69797,1110.5212],[-4.8924,42.68415,1088.7656],[-4.89809,42.66909,1086.2919],[-4.89526,42.62163,1056.1921],[-4.9144,42.54481,991.8278],[-4.88796,42.53691,995.3733],[-4.88805,42.518,987.2715],[-4.91271,42.40064,897.0989],[-4.91131,42.38147,883.8193],[-4.97274,42.37426,860.2249],[-4.97959,42.33789,846.8067],[-4.94251,42.34646,851.8634],[-4.95489,42.29602,804.1777],[-5.00223,42.28915,828.8099],[-5.01909,42.23027,820.6777],[-5.01455,42.18463,801.2212],[-5.02695,42.15395,798.6482],[-4.92743,42.15017,803.4418],[-4.92207,42.09187,789.1218],[-4.92404,42.08144,787.1086],[-4.92798,42.07162,788.981],[-4.94547,42.0543,772.1434],[-4.94744,42.04703,771.9581],[-4.9415,42.02604,769.5381],[-4.9441,42.01835,772.1317],[-4.95026,42.01411,768.7288],[-4.95763,42.01098,768.1776],[-4.96391,42.0066,768.6879],[-4.96669,42.00199,765.0582],[-4.97131,41.9867,756.4926],[-5.00505,41.93802,735.3185],[-4.98681,41.91339,775.1772],[-4.94973,41.93397,750.6995],[-4.92777,41.9151,757.2549],[-4.86909,41.93158,757.3608],[-4.8382,41.89863,844.9273],[-4.78913,41.81799,854.0939],[-4.75859,41.82587,854.8254],[-4.7289,41.85209,854.995],[-4.70928,41.8788,857.2559],[-4.69342,41.88969,858.254],[-4.67559,41.89691,858.1569],[-4.66697,41.89828,858.7318],[-4.66013,41.89738,859.9901],[-4.64595,41.89126,855.7108],[-4.64062,41.8865,852.3414],[-4.63264,41.86329,848.1755],[-4.57225,41.81593,707.6925],[-4.52111,41.82313,737.4995],[-4.49195,41.83857,870.4809],[-4.49367,41.78023,855.4581],[-4.46196,41.76681,872.6487],[-4.44346,41.76326,875.244],[-4.4351,41.76476,876.2396],[-4.41337,41.77741,867.9958],[-4.39974,41.78103,874.6381],[-4.31214,41.77163,847.5099],[-4.2911,41.77867,889.2991],[-4.25731,41.80136,894.5568],[-4.24013,41.80435,858.1307],[-4.15154,41.79842,904.9991],[-4.12304,41.80736,920.8096],[-4.09938,41.7744,829.9272],[-4.04103,41.76822,901.3892],[-4.03794,41.78984,895.1304],[-4.0901,41.83103,922.4685],[-4.08873,41.87048,875.4722],[-4.05327,41.86967,923.7263],[-3.99805,41.88567,937.6465],[-3.9911,41.89065,940.5001],[-3.9859,41.8973,936.0983],[-3.98265,41.90585,933.0407],[-3.98047,41.92528,916.1106],[-3.97609,41.93013,900.4588],[-3.91447,41.94271,906.3682],[-3.90113,41.9506,905.8002],[-3.89322,41.96276,901.7252],[-3.89246,41.97408,889.9772],[-3.8962,41.9843,890.0893],[-3.90392,41.99128,883.9662],[-3.91513,41.99292,898.5903],[-4.00603,41.95725,915.1052],[-4.02457,41.95752,925.7366],[-4.02901,41.97653,922.8174],[-3.97267,42.03076,901.6125],[-3.97095,42.03982,865.6495],[-3.9783,42.04845,878.518],[-3.98852,42.05154,852.1639],[-4.07993,42.04011,902.8843],[-4.08538,42.04268,903.6119],[-4.10418,42.06162,817.3234],[-4.12031,42.12821,758.2526],[-4.20541,42.13473,894.6014],[-4.19099,42.18106,902.8965],[-4.23808,42.21438,758.5051],[-4.23503,42.22907,761.3594],[-4.27698,42.38328,785.3597],[-4.27268,42.38558,785.7136],[-4.31747,42.38246,852.0482],[-4.32698,42.39074,872.4741],[-4.33076,42.40556,796.7129],[-4.3306,42.4387,831.446],[-4.32526,42.44928,877.4621],[-4.3159,42.45634,872.7648],[-4.30247,42.45936,871.2291],[-4.24393,42.45527,802.3631],[-4.24622,42.49201,807.0771],[-4.26317,42.53604,828.6657],[-4.276,42.55053,833.7994],[-4.29706,42.56662,855.3006],[-4.29928,42.56431,835.4238],[-4.30425,42.56883,825.3335],[-4.28263,42.57605,885.0414],[-4.29393,42.60521,891.0566],[-4.27405,42.61688,921.708],[-4.27577,42.65298,994.7592],[-4.28505,42.67597,936.2946],[-4.2829,42.68601,866.5962],[-4.26683,42.70541,998.4716],[-4.26537,42.70167,980.9565],[-4.25855,42.69727,972.029],[-4.24518,42.69237,947.4026],[-4.21845,42.70473,986.9686],[-4.1855,42.73631,1024.5717],[-4.15913,42.74875,927.2686],[-4.14588,42.75163,993.1533],[-4.13269,42.7478,991.471],[-4.11714,42.73739,942.2684],[-4.11152,42.73601,945.4017],[-4.10338,42.73876,955.508],[-4.09605,42.74574,1071.1965],[-4.08577,42.76313,1154.973],[-4.09613,42.7762,1171.6072],[-4.10148,42.78101,1188.3679],[-4.11039,42.78597,1096.5237],[-4.12044,42.78896,971.6968],[-4.14705,42.79052,880.2164],[-4.15858,42.79351,974.1051],[-4.17821,42.80622,1033.8186],[-4.18524,42.81196,958.14],[-4.18767,42.81767,910.8269],[-4.18467,42.82348,935.8905],[-4.17736,42.82684,953.465],[-4.1594,42.83106,979.3738],[-4.15023,42.8316,971.1511],[-4.14163,42.83454,956.8314],[-4.13553,42.8395,1068.8578],[-4.13271,42.84612,1132.6597],[-4.13444,42.85351,1074.1827],[-4.14116,42.85883,1008.1849],[-4.15015,42.86219,952.627],[-4.17449,42.85702,940.3775],[-4.18382,42.85235,939.5005],[-4.19664,42.84405,938.296],[-4.20131,42.84235,922.5721],[-4.20865,42.84273,962.2325],[-4.21596,42.84529,976.6461],[-4.22139,42.8502,970.9658],[-4.22348,42.85542,1000.8019],[-4.22452,42.85937,984.3679],[-4.22511,42.86545,1016.5354],[-4.22674,42.87206,1032.3688],[-4.22731,42.87973,1012.9677],[-4.22945,42.88663,1028.5592],[-4.23007,42.89387,1035.3887],[-4.23183,42.90108,1038.8372],[-4.23674,42.91516,1059.6497],[-4.23888,42.92921,1075.448],[-4.2379,42.93629,1053.7261],[-4.23759,42.94343,1090.7142],[-4.23992,42.95025,1136.2439],[-4.25413,42.95764,1431.2498],[-4.35655,42.98541,1807.5569],[-4.37043,42.99278,1856.6624],[-4.37645,42.9997,1940.2407],[-4.3774,43.00125,1964.6588],[-4.3811,43.00862,1961.9419],[-4.40081,43.03329,1924.3502]]]]}}