{"type": "Feature","bbox": [-5.0318,41.7586,-3.89,43.0607],"geometry": {"type": "MultiPolygon","coordinates": [[[[-4.0705,42.1558,762.5682],[-4.0671,42.1576,768.5081],[-4.0656,42.1635,768.3854],[-4.0689,42.1631,768.2645],[-4.0762,42.1678,780.0645],[-4.0942,42.1577,776.8773],[-4.1118,42.1586,808.1956],[-4.11,42.1432,767.7899],[-4.1027,42.1372,762.3738],[-4.09,42.142,762.3732],[-4.0813,42.1407,764.6831],[-4.07,42.1368,800.6641],[-4.0677,42.1331,836.3401],[-4.0621,42.1316,891.6854],[-4.0597,42.1362,892.6905],[-4.0638,42.1389,793.8729],[-4.0645,42.143,781.1991],[-4.0727,42.1518,766.4851],[-4.0744,42.1561,766.524],[-4.0705,42.1558,762.5682]]],
[[[-4.0242,42.0811,779.719],[-4.0256,42.0915,839.1608],[-4.0334,42.107,890.0104],[-4.0376,42.1026,899.183],[-4.0353,42.1015,868.587],[-4.0353,42.096,851.2097],[-4.0297,42.093,836.5004],[-4.0275,42.0878,833.4907],[-4.0319,42.0786,778.0769],[-4.0242,42.0811,779.719]]],
[[[-4.1903,41.8016,858.8634],[-4.1755,41.8028,885.9552],[-4.1702,41.8002,889.5984],[-4.1634,41.8012,894.015],[-4.1538,41.7962,903.9545],[-4.1507,41.7989,914.3419],[-4.1231,41.8073,920.8096],[-4.1178,41.8003,922.1429],[-4.1106,41.7947,911.0676],[-4.1085,41.7853,898.1237],[-4.0994,41.7744,829.9272],[-4.0965,41.7748,806.4628],[-4.09,41.7795,809.7805],[-4.0851,41.7791,804.6733],[-4.0715,41.7706,845.7795],[-4.064,41.7702,860.6404],[-4.0614,41.7747,882.7808],[-4.0408,41.7683,901.3892],[-4.0388,41.7727,893.6845],[-4.0379,41.7898,895.1304],[-4.0429,41.7911,905.3773],[-4.0488,41.8028,815.1022],[-4.0586,41.8048,912.8929],[-4.09,41.8309,922.4685],[-4.0907,41.8387,922.6387],[-4.088,41.8447,922.76],[-4.0792,41.8484,923.6116],[-4.0809,41.8621,922.2922],[-4.0842,41.864,924.3744],[-4.0887,41.8706,875.4722],[-4.0796,41.8741,910.344],[-4.0726,41.8741,900.3547],[-4.062,41.8769,877.1885],[-4.0582,41.8742,904.7097],[-4.0375,41.8728,893.9001],[-4.0195,41.8785,926.6802],[-4.007,41.8852,935.379],[-3.9982,41.8924,941.8257],[-3.9806,41.9006,938.9386],[-3.9837,41.927,913.3466],[-3.9813,41.9307,891.2235],[-3.9521,41.9353,876.7986],[-3.9471,41.9395,872.6687],[-3.9443,41.9445,869.2045],[-3.9458,41.9464,866.2532],[-3.9365,41.957,865.8892],[-3.9228,41.9604,876.8152],[-3.9147,41.9584,877.8831],[-3.9121,41.956,879.0103],[-3.8923,41.9576,888.3485],[-3.891,41.9605,897.0106],[-3.8939,41.9718,895.903],[-3.89,41.9866,884.9716],[-3.8914,41.9966,877.559],[-3.9101,41.997,883.6928],[-3.9148,41.992,901.0572],[-3.9234,41.9906,894.7993],[-3.9508,41.9795,874.5833],[-3.9562,41.981,840.6436],[-3.9725,41.969,896.319],[-3.9732,41.9665,905.8712],[-3.9785,41.9647,899.5593],[-3.9828,41.9653,881.2483],[-3.9906,41.9597,884.2206],[-4.0195,41.9584,923.9616],[-4.0241,41.9541,925.929],[-4.0329,41.9541,925.0275],[-4.0308,41.9689,924.1891],[-4.0273,41.9731,924.1635],[-4.029,41.9766,922.8174],[-4.0237,41.9819,917.4947],[-4.0147,41.9986,912.8805],[-3.9947,42.0054,884.4342],[-3.9852,42.0235,813.593],[-3.9832,42.0238,828.8785],[-3.9798,42.0211,827.9066],[-3.971,42.0332,887.2626],[-3.9762,42.0409,866.2989],[-3.9801,42.043,878.3771],[-3.9824,42.0513,891.9296],[-3.9887,42.0467,865.6355],[-3.9962,42.045,889.9856],[-3.9996,42.0489,822.0184],[-4.0108,42.0515,905.3149],[-4.0316,42.0495,916.0695],[-4.0392,42.0533,889.9364],[-4.0458,42.0508,908.5417],[-4.0478,42.0466,918.1979],[-4.0478,42.039,914.8079],[-4.0569,42.0397,912.385],[-4.0636,42.0436,885.5418],[-4.0798,42.0368,906.4835],[-4.0843,42.0389,899.0142],[-4.0921,42.0495,855.9437],[-4.0979,42.0525,882.3997],[-4.0999,42.0579,820.8602],[-4.104,42.0616,815.3757],[-4.103,42.087,763.6232],[-4.0946,42.0868,764.0614],[-4.0774,42.0827,775.3086],[-4.0664,42.086,779.1573],[-4.0661,42.0891,833.3043],[-4.0603,42.0913,837.9615],[-4.0561,42.1009,838.536],[-4.063,42.1012,835.0814],[-4.0763,42.1054,851.7066],[-4.0856,42.1032,852.9962],[-4.0924,42.1078,902.9586],[-4.1037,42.1097,899.3627],[-4.1075,42.1139,790.5677],[-4.1083,42.119,762.6946],[-4.1209,42.1283,757.5369],[-4.1269,42.1222,755.6008],[-4.1324,42.1234,755.082],[-4.1379,42.1197,755.227],[-4.142,42.1196,756.7878],[-4.1415,42.1236,759.4584],[-4.1443,42.1294,781.6099],[-4.1541,42.1317,903.6624],[-4.168,42.1296,902.3261],[-4.1767,42.1258,899.6213],[-4.1782,42.1307,898.7831],[-4.1868,42.1264,900.5403],[-4.2053,42.1346,894.6014],[-4.2034,42.1468,900.1799],[-4.2007,42.1502,899.811],[-4.206,42.154,901.644],[-4.1971,42.1572,904.7373],[-4.1909,42.1639,896.1061],[-4.1886,42.1764,898.0284],[-4.1909,42.181,902.8965],[-4.2058,42.1924,900.7538],[-4.2057,42.1971,903.7955],[-4.212,42.2008,903.284],[-4.2152,42.2069,903.1877],[-4.2206,42.2086,866.3661],[-4.2314,42.2084,755.6354],[-4.232,42.2173,759.5189],[-4.2268,42.2295,759.7004],[-4.2278,42.2318,759.1421],[-4.2341,42.233,762.6246],[-4.2372,42.2367,759.5737],[-4.2292,42.2419,761.7143],[-4.2285,42.2495,763.2991],[-4.2313,42.2561,766.9086],[-4.244,42.2594,762.3813],[-4.2409,42.269,766.9141],[-4.2418,42.2722,767.0604],[-4.2461,42.2741,772.1316],[-4.2463,42.2785,770.2594],[-4.2492,42.2804,768.184],[-4.2464,42.2848,769.1941],[-4.2527,42.2906,768.9053],[-4.2498,42.2944,771.5964],[-4.2518,42.31,772.0919],[-4.2618,42.3097,775.618],[-4.2631,42.3122,772.8466],[-4.2612,42.3198,776.5746],[-4.2635,42.3199,776.1319],[-4.265,42.3233,774.7742],[-4.2621,42.3257,776.996],[-4.2587,42.3244,776.1382],[-4.2586,42.3225,774.9833],[-4.2567,42.3228,774.9598],[-4.2568,42.3245,781.4618],[-4.2621,42.3276,775.1694],[-4.2673,42.3356,775.6335],[-4.2671,42.3381,776.7549],[-4.2696,42.3392,777.1692],[-4.27,42.3433,778.1286],[-4.2663,42.3472,778.0621],[-4.2647,42.3525,779.3224],[-4.2694,42.3571,781.0291],[-4.279,42.3612,780.8768],[-4.2804,42.3638,780.6817],[-4.2787,42.3658,781.4307],[-4.2764,42.365,782.9043],[-4.2766,42.3683,781.6622],[-4.2809,42.3729,783.3596],[-4.2803,42.3777,783.2403],[-4.2737,42.3751,785.2543],[-4.2713,42.3809,784.1461],[-4.2726,42.3857,785.7136],[-4.2775,42.3866,786.8173],[-4.2759,42.3919,793.4325],[-4.2817,42.389,787.8165],[-4.2934,42.3881,818.6311],[-4.3054,42.3834,836.166],[-4.3215,42.3799,861.4047],[-4.3309,42.3909,868.5734],[-4.3284,42.3955,869.948],[-4.33,42.4045,796.6881],[-4.3283,42.4096,796.8438],[-4.3304,42.4151,798.8622],[-4.3331,42.4162,798.8643],[-4.3349,42.4199,804.024],[-4.3332,42.4231,806.1379],[-4.3353,42.4306,818.5129],[-4.323,42.4445,860.0137],[-4.317,42.4589,875.2303],[-4.3069,42.4533,869.0207],[-4.3066,42.4551,870.4539],[-4.2847,42.4535,848.6436],[-4.2823,42.4552,850.5764],[-4.2759,42.4552,847.4319],[-4.2688,42.4535,843.3274],[-4.2514,42.4566,800.4651],[-4.2425,42.4562,802.3832],[-4.2436,42.4589,801.8102],[-4.2463,42.4587,800.9551],[-4.2471,42.4603,804.4918],[-4.2455,42.4628,807.1675],[-4.2474,42.4671,802.6904],[-4.2522,42.466,803.8781],[-4.2543,42.4684,804.8225],[-4.2503,42.4714,804.304],[-4.245,42.4718,809.0164],[-4.2506,42.4793,803.1717],[-4.246,42.4924,823.8592],[-4.247,42.4947,805.9359],[-4.2522,42.5032,807.835],[-4.2626,42.5118,812.0547],[-4.273,42.5104,818.4434],[-4.2861,42.512,841.3306],[-4.2766,42.5145,817.498],[-4.2721,42.52,814.2482],[-4.2753,42.5287,816.203],[-4.2795,42.5338,816.9048],[-4.2773,42.5354,815.9818],[-4.2789,42.5427,817.1048],[-4.2776,42.5447,819.8181],[-4.2997,42.5525,821.795],[-4.3032,42.5553,824.0667],[-4.303,42.559,822.071],[-4.2976,42.5604,822.4689],[-4.3053,42.5708,828.0499],[-4.2987,42.5706,872.3024],[-4.2937,42.5742,877.0596],[-4.2825,42.5759,885.0414],[-4.2767,42.5798,892.0247],[-4.2707,42.5814,897.7628],[-4.275,42.5831,900.2966],[-4.2842,42.5813,853.8631],[-4.2863,42.5831,850.3181],[-4.2824,42.5867,857.639],[-4.2861,42.5893,899.095],[-4.2852,42.5913,897.0867],[-4.2879,42.5933,902.7561],[-4.2887,42.5984,902.6698],[-4.2944,42.6029,872.1761],[-4.2925,42.6059,905.8381],[-4.2824,42.6097,900.3491],[-4.2738,42.6169,921.708],[-4.2638,42.6179,937.8024],[-4.2704,42.6233,948.6283],[-4.2674,42.6318,907.767],[-4.2707,42.6357,936.6316],[-4.2744,42.6371,931.8077],[-4.2771,42.6432,926.1772],[-4.2732,42.6454,949.08],[-4.2742,42.6527,1002.8572],[-4.2772,42.6522,984.7489],[-4.2718,42.6563,962.9733],[-4.2758,42.6668,940.6852],[-4.276,42.673,1007.0433],[-4.2848,42.6754,978.4597],[-4.2899,42.6792,917.0426],[-4.2898,42.6835,866.1433],[-4.2859,42.6835,867.1977],[-4.2866,42.6864,858.826],[-4.2931,42.6909,864.1082],[-4.284,42.6956,903.462],[-4.2809,42.6995,930.2532],[-4.2666,42.7053,1001.4115],[-4.2676,42.6943,959.1614],[-4.2638,42.6942,908.6565],[-4.257,42.6881,895.2396],[-4.2476,42.6941,995.9559],[-4.2488,42.6984,1031.7668],[-4.246,42.6971,1035.0057],[-4.237,42.6976,1041.7437],[-4.2257,42.7034,1053.0068],[-4.2185,42.7047,986.9686],[-4.2151,42.7088,941.7424],[-4.2165,42.7113,941.0386],[-4.2151,42.714,989.7838],[-4.2014,42.7176,1046.6925],[-4.201,42.721,1053.9236],[-4.1853,42.7362,1024.5717],[-4.1804,42.7379,980.4644],[-4.1738,42.7371,928.5339],[-4.1667,42.7419,911.608],[-4.1646,42.746,909.3113],[-4.1513,42.7479,934.1078],[-4.1461,42.7521,1042.9932],[-4.1399,42.7533,1112.1686],[-4.1247,42.7516,1142.4436],[-4.1259,42.7482,1048.3518],[-4.1199,42.7451,994.1987],[-4.1239,42.7361,932.1202],[-4.1095,42.7339,940.9412],[-4.0887,42.7517,1069.192],[-4.0852,42.7641,1138.0444],[-4.0813,42.7614,1107.3015],[-4.0853,42.7722,1086.2656],[-4.094,42.7733,1148.2019],[-4.0952,42.779,1013.1998],[-4.0996,42.7846,996.2578],[-4.0984,42.7912,859.9603],[-4.1129,42.7945,864.2938],[-4.1226,42.7946,857.5194],[-4.1374,42.7903,906.2365],[-4.1443,42.7913,888.7569],[-4.1498,42.7893,959.5018],[-4.1736,42.8085,963.5591],[-4.1787,42.8109,965.4518],[-4.1826,42.8103,1039.2224],[-4.1854,42.8173,913.1042],[-4.1785,42.8262,950.0458],[-4.1654,42.8282,1014.9747],[-4.1631,42.8301,991.5725],[-4.1617,42.8361,955.85],[-4.1565,42.8378,972.407],[-4.1509,42.8345,946.6827],[-4.1505,42.8314,971.1511],[-4.1455,42.8289,994.1116],[-4.1404,42.829,952.746],[-4.1409,42.8304,952.746],[-4.1373,42.8335,999.1348],[-4.137,42.8394,1068.8578],[-4.1284,42.8462,1109.9656],[-4.126,42.8566,1222.1582],[-4.139,42.8593,1033.0475],[-4.1411,42.8617,1023.4397],[-4.1452,42.8622,966.3105],[-4.1489,42.8657,943.7935],[-4.1442,42.8686,939.3425],[-4.1498,42.8711,930.6611],[-4.1693,42.8589,955.3802],[-4.1811,42.8587,970.9791],[-4.1855,42.8544,944.6605],[-4.1955,42.8491,943.6427],[-4.1993,42.8447,954.1555],[-4.2089,42.8448,953.858],[-4.2188,42.8505,982.3638],[-4.2256,42.8589,990.4528],[-4.2228,42.8647,1008.6639],[-4.2234,42.875,1001.0675],[-4.2305,42.8967,1029.7255],[-4.2307,42.9032,1032.7531],[-4.2247,42.9064,1173.8511],[-4.2225,42.9109,1170.3052],[-4.2366,42.9171,1077.2782],[-4.239,42.933,1065.5394],[-4.2384,42.9543,1233.3842],[-4.2459,42.9594,1415.1635],[-4.2621,42.9652,1684.8326],[-4.278,42.9654,1909.688],[-4.2894,42.9691,1913.9459],[-4.2989,42.9665,1908.0511],[-4.3036,42.9669,1915.2051],[-4.3154,42.9697,1863.9204],[-4.3472,42.9721,2051.0632],[-4.3721,42.9946,1873.9326],[-4.3748,42.9995,1958.7722],[-4.3743,43.006,2089.0813],[-4.3862,43.0165,2001.5576],[-4.3891,43.0257,2140.8972],[-4.3922,43.0273,2108.0757],[-4.398,43.0348,2047.9755],[-4.4139,43.042,2001.0249],[-4.4318,43.0457,1977.0773],[-4.4424,43.0559,1618.4049],[-4.4475,43.0585,1556.3367],[-4.4567,43.057,1332.4146],[-4.461,43.0607,1358.1692],[-4.463,43.06,1303.3899],[-4.4711,43.0517,994.5126],[-4.4764,43.0413,1447.4576],[-4.4756,43.0387,1440.0399],[-4.4939,43.0396,1423.2411],[-4.4958,43.0384,1373.4368],[-4.5208,43.0473,1485.3345],[-4.5584,43.0195,1648.4475],[-4.5742,43.0269,1562.8657],[-4.5905,43.0258,1783.3118],[-4.606,43.0357,1918.4598],[-4.6116,43.0305,1772.6511],[-4.6195,43.0265,1816.7759],[-4.6295,43.0239,1883.3159],[-4.6381,43.0166,1943.4679],[-4.6514,43.0208,1849.5432],[-4.6731,43.0213,1934.9226],[-4.6842,43.026,1816.3163],[-4.6994,43.0266,1882.8779],[-4.7087,43.025,2009.0122],[-4.7144,43.0196,2209.8467],[-4.7196,43.0172,2323.8567],[-4.7286,43.0187,2292.9106],[-4.731,43.0222,2496.1108],[-4.7369,43.021,2426.144],[-4.7388,43.0184,2378.7847],[-4.7569,43.0155,2368.7563],[-4.7668,43.0015,2207.4771],[-4.781,42.9979,2117.1003],[-4.7828,42.9935,2211.6387],[-4.7882,42.9925,2231.5601],[-4.7947,42.9866,2119.9961],[-4.7956,42.9738,2183.0149],[-4.8072,42.9677,2036.3987],[-4.8051,42.9618,1985.0239],[-4.8064,42.9565,1970.2742],[-4.8026,42.9495,2035.8458],[-4.8051,42.9418,1955.6277],[-4.8108,42.936,1801.0079],[-4.8091,42.9303,1626.359],[-4.813,42.9274,1584.4546],[-4.8137,42.924,1573.4038],[-4.8196,42.9223,1523.8582],[-4.8283,42.917,1473.9127],[-4.8304,42.9119,1515.844],[-4.8378,42.9067,1626.1843],[-4.836,42.8993,1818.1312],[-4.8383,42.8953,1938.0469],[-4.8459,42.8975,1902.3374],[-4.8554,42.8917,1904.4465],[-4.8594,42.8837,1585.0791],[-4.8583,42.8781,1503.4309],[-4.8605,42.871,1257.671],[-4.8655,42.8605,1750.4515],[-4.8684,42.8628,1769.9562],[-4.8804,42.8659,1741.8021],[-4.8983,42.8631,1694.6493],[-4.901,42.8574,1651.8728],[-4.9007,42.8516,1636.7513],[-4.8885,42.8411,1562.3885],[-4.8919,42.8322,1534.9329],[-4.8958,42.827,1518.2502],[-4.8969,42.8173,1342.7781],[-4.9028,42.8093,1233.8469],[-4.8988,42.8052,1199.0194],[-4.8989,42.8022,1195.4423],[-4.8965,42.7997,1156.7151],[-4.8958,42.7851,1194.207],[-4.9015,42.783,1177.6724],[-4.9027,42.7844,1193.7098],[-4.909,42.7794,1108.5535],[-4.9095,42.7742,1176.4259],[-4.9205,42.7574,1127.6707],[-4.925,42.7593,1059.5287],[-4.9285,42.7554,1062.5271],[-4.9355,42.7564,1099.3364],[-4.9334,42.7533,1079.7048],[-4.9363,42.7444,1094.0552],[-4.9282,42.7369,1129.4757],[-4.9184,42.7342,1136.3164],[-4.9158,42.7205,1091.4503],[-4.9109,42.7188,1128.8026],[-4.8972,42.7243,1152.0811],[-4.8912,42.7234,1145.0532],[-4.8848,42.7181,1146.9425],[-4.8837,42.7126,1137.1912],[-4.8716,42.708,1130.429],[-4.8799,42.704,1116.7921],[-4.886,42.6954,1112.0957],[-4.8905,42.6928,1088.7303],[-4.9003,42.6692,1061.8069],[-4.8961,42.6557,1094.1998],[-4.8983,42.6356,1071.3823],[-4.8946,42.6238,1057.6337],[-4.9047,42.6031,1037.6034],[-4.9047,42.5991,1035.7045],[-4.901,42.5947,1029.2526],[-4.9024,42.5779,1011.9756],[-4.9151,42.5602,999.9456],[-4.9144,42.5447,991.8278],[-4.9098,42.5412,982.2842],[-4.8879,42.537,995.3733],[-4.8911,42.5182,985.5154],[-4.8902,42.509,983.1871],[-4.8878,42.5089,984.6711],[-4.8999,42.4507,938.1873],[-4.9055,42.4492,942.7476],[-4.9134,42.4413,951.1389],[-4.9239,42.4361,918.3406],[-4.9098,42.4339,941.8022],[-4.9086,42.4284,938.0803],[-4.9049,42.4245,934.8781],[-4.906,42.4203,932.845],[-4.9147,42.4144,922.484],[-4.9125,42.4046,924.4858],[-4.9142,42.4012,894.2491],[-4.9083,42.3969,891.4816],[-4.9111,42.3923,919.7783],[-4.9031,42.3865,900.1144],[-4.9113,42.3815,883.8193],[-4.9332,42.3848,882.8658],[-4.9361,42.3821,873.6522],[-4.9462,42.3814,854.4572],[-4.9432,42.3793,862.0131],[-4.9455,42.3777,869.2605],[-4.9447,42.3764,876.3431],[-4.9612,42.3761,856.9902],[-4.9644,42.3797,863.0449],[-4.9687,42.3773,865.8455],[-4.9699,42.3748,863.9075],[-4.9724,42.3744,864.719],[-4.9716,42.3678,866.3049],[-4.9776,42.3555,859.7307],[-4.977,42.349,861.8028],[-4.9834,42.3424,851.2249],[-4.9841,42.3379,851.0146],[-4.9541,42.3442,825.7133],[-4.9528,42.3466,831.1151],[-4.9424,42.3465,851.8634],[-4.9406,42.3356,852.1078],[-4.9423,42.3275,849.6765],[-4.9491,42.3188,840.7189],[-4.947,42.3164,843.0543],[-4.9479,42.3109,834.0747],[-4.9505,42.3084,825.5775],[-4.9533,42.2971,814.9155],[-4.9702,42.2921,816.6555],[-4.9734,42.2887,810.6291],[-4.9866,42.2938,825.6184],[-4.9898,42.2918,827.8168],[-4.9947,42.2931,829.5458],[-5.002,42.2891,828.8099],[-5.0098,42.2665,825.7061],[-5.0086,42.2614,819.1481],[-5.0164,42.2589,826.0764],[-5.0187,42.2538,828.7521],[-5.0089,42.2422,814.7158],[-5.0102,42.2281,809.8619],[-5.0246,42.2199,827.7662],[-5.0203,42.2056,814.4857],[-5.0128,42.1946,803.8407],[-5.0145,42.1934,806.842],[-5.0123,42.1897,806.0195],[-5.0194,42.1788,805.1945],[-5.0318,42.1736,811.1184],[-5.0262,42.1656,806.3035],[-5.0269,42.1539,798.6482],[-5.0149,42.1568,791.4146],[-5.0152,42.1538,796.9674],[-5.0084,42.1486,793.3726],[-5.0023,42.1491,788.1691],[-4.9991,42.1465,783.3011],[-4.995,42.1478,780.9969],[-4.9942,42.1449,783.8207],[-4.9884,42.1444,776.1437],[-4.9811,42.1468,771.9711],[-4.9822,42.1488,773.754],[-4.9803,42.1507,772.8137],[-4.9663,42.1557,769.5151],[-4.9655,42.1515,768.6542],[-4.9623,42.1496,768.2146],[-4.9608,42.1515,770.0223],[-4.9441,42.1527,782.5328],[-4.9274,42.1502,803.4418],[-4.9297,42.1446,799.3615],[-4.9289,42.1305,798.0662],[-4.925,42.1207,800.977],[-4.9286,42.1183,798.0773],[-4.9242,42.1105,799.4482],[-4.9201,42.0965,789.1118],[-4.912,42.0913,780.3644],[-4.9177,42.0908,784.0456],[-4.9041,42.0784,769.1407],[-4.9167,42.0783,787.1039],[-4.9276,42.0735,790.5428],[-4.9496,42.051,763.8815],[-4.938,42.0199,770.7339],[-4.9359,42.0179,768.1576],[-4.9654,42.007,767.9006],[-4.9697,41.9976,765.8055],[-4.9702,41.9985,765.8055],[-4.9754,41.9935,759.7438],[-4.9714,41.989,759.7323],[-4.976,41.9736,751.3722],[-4.9829,41.9699,757.4236],[-4.9832,41.9667,754.7644],[-4.994,41.9626,749.1913],[-4.9953,41.958,750.4885],[-5.0024,41.948,749.7762],[-5.005,41.9472,747.7892],[-5.0014,41.9432,739.5236],[-5.0048,41.9379,735.3185],[-4.9972,41.9289,745.329],[-4.9899,41.9256,752.4094],[-4.987,41.9218,765.4979],[-4.9868,41.9134,775.1772],[-4.9836,41.91,778.3639],[-4.983,41.9119,774.6934],[-4.9764,41.9136,803.0034],[-4.9757,41.918,798.2798],[-4.9773,41.9185,792.1011],[-4.9718,41.9194,775.0626],[-4.9669,41.9247,769.7845],[-4.9571,41.9283,761.2719],[-4.9553,41.9311,757.0316],[-4.9495,41.9338,750.6995],[-4.9324,41.9266,748.5316],[-4.928,41.919,755.093],[-4.9299,41.918,754.852],[-4.9278,41.915,757.2549],[-4.9165,41.9178,756.9318],[-4.9157,41.9162,757.8963],[-4.9117,41.9156,758.2147],[-4.8998,41.9282,752.1925],[-4.8897,41.9328,754.8348],[-4.8739,41.933,756.4211],[-4.869,41.9317,757.3608],[-4.8676,41.9176,766.4029],[-4.8629,41.9183,766.5341],[-4.8591,41.9151,768.7991],[-4.8558,41.9156,767.1163],[-4.8578,41.9131,770.2446],[-4.856,41.9132,770.4471],[-4.8382,41.8985,844.9273],[-4.8324,41.8868,850.1083],[-4.8323,41.8804,855.2692],[-4.8292,41.875,856.2397],[-4.8228,41.8674,855.6015],[-4.8137,41.863,856.0997],[-4.7991,41.8341,856.2657],[-4.7948,41.8288,856.2406],[-4.7933,41.822,853.2762],[-4.7888,41.8195,856.2733],[-4.7892,41.818,854.0939],[-4.77,41.8231,852.3257],[-4.7691,41.8258,854.8179],[-4.7583,41.8258,854.0627],[-4.7543,41.8335,853.3679],[-4.748,41.8405,852.8184],[-4.7263,41.8545,854.7177],[-4.7322,41.8618,854.6428],[-4.7282,41.8688,856.1505],[-4.7187,41.8734,857.8667],[-4.701,41.8873,857.6547],[-4.686,41.891,857.6919],[-4.6778,41.898,857.9976],[-4.6783,41.8998,858.1292],[-4.6696,41.9005,858.9562],[-4.6583,41.8968,860.196],[-4.6581,41.8946,859.8668],[-4.6498,41.891,859.9707],[-4.6438,41.8912,855.6122],[-4.6372,41.8881,848.7603],[-4.6348,41.8836,839.3115],[-4.6364,41.8791,832.6247],[-4.6336,41.8758,834.9495],[-4.6349,41.871,828.8319],[-4.6319,41.8682,816.2812],[-4.6294,41.8683,824.7604],[-4.6327,41.8632,848.1755],[-4.6263,41.8582,804.2566],[-4.624,41.854,802.9429],[-4.618,41.8512,801.5299],[-4.6037,41.8386,765.5569],[-4.591,41.8368,744.1885],[-4.582,41.8224,717.6381],[-4.566,41.8126,699.0222],[-4.5672,41.8162,704.84],[-4.5646,41.8184,703.5078],[-4.5549,41.8164,703.9379],[-4.5509,41.8167,706.4669],[-4.548,41.819,704.305],[-4.5454,41.8261,700.0354],[-4.5501,41.8288,699.1846],[-4.5491,41.831,699.8292],[-4.5294,41.8278,722.7178],[-4.5209,41.8232,737.4995],[-4.512,41.8233,815.7439],[-4.509,41.8263,864.4915],[-4.5055,41.8268,863.6373],[-4.5052,41.83,870.9404],[-4.5085,41.8323,856.8148],[-4.4994,41.8332,873.2839],[-4.4918,41.8384,870.4809],[-4.4793,41.8382,870.1089],[-4.4783,41.8433,867.8064],[-4.4732,41.843,864.6983],[-4.4717,41.8405,857.5709],[-4.4733,41.832,861.5011],[-4.4782,41.8286,872.8663],[-4.4611,41.8203,872.5612],[-4.4657,41.8193,872.125],[-4.4685,41.8206,871.6843],[-4.4791,41.8183,853.1335],[-4.4836,41.8203,860.3008],[-4.4873,41.8201,843.2566],[-4.4936,41.7803,855.4581],[-4.4923,41.7786,808.2001],[-4.5011,41.7714,868.8963],[-4.4845,41.7695,867.0834],[-4.4542,41.7592,869.7815],[-4.4421,41.7586,875.0657],[-4.4213,41.7681,877.6183],[-4.4039,41.7832,875.1945],[-4.3916,41.7873,876.5204],[-4.3802,41.7864,876.3085],[-4.3825,41.7837,877.7045],[-4.3813,41.7823,876.0763],[-4.3525,41.7738,884.2889],[-4.3338,41.7721,850.1904],[-4.3176,41.7634,882.7103],[-4.3172,41.7685,856.8295],[-4.3134,41.7695,854.1427],[-4.3067,41.7759,821.1135],[-4.2865,41.7749,870.4792],[-4.2787,41.7886,882.4487],[-4.2712,41.792,880.4969],[-4.2602,41.8052,873.2217],[-4.2562,41.806399999999996,855.9641],[-4.2474,41.8029,880.2096],[-4.2363,41.8114,826.9974],[-4.2359,41.814,813.2367],[-4.2328,41.8081,821.2579],[-4.215,41.7996,833.6984],[-4.1943,41.804,847.4084],[-4.1903,41.8016,858.8634]],
[[-4.245,42.736,956.2328],[-4.2513,42.7265,907.4688],[-4.2631,42.7305,907.8311],[-4.2607,42.7387,963.0722],[-4.245,42.736,956.2328]]],
[[[-4.0317,42.7936,749.3479],[-4.0283,42.7903,770.0834],[-4.0298,42.7883,820.2301],[-4.0335,42.7866,783.2959],[-4.0378,42.7908,848.4681],[-4.0437,42.7888,804.978],[-4.0501,42.7798,830.1165],[-4.0496,42.7729,954.0634],[-4.0458,42.7666,1085.4042],[-4.0408,42.7673,1085.8907],[-4.0167,42.764,1082.3206],[-4.0093,42.7657,1073.7933],[-4.003,42.7633,1071.9187],[-4.0024,42.7684,1067.5298],[-3.9996,42.769,1069.462],[-3.9959,42.7862,718.5623],[-3.9975,42.7878,719.214],[-3.9964,42.7989,725.7887],[-4.0008,42.8098,872.5717],[-4.0,42.8241,1004.8807],[-4.0035,42.8314,1010.7324],[-4.011,42.8304,1009.5696],[-4.0207,42.8193,933.6413],[-4.0141,42.806399999999996,725.3951],[-4.0239,42.8063,745.5513],[-4.0328,42.8012,729.5389],[-4.0317,42.7936,749.3479]]],
[[[-4.0948,42.824,1003.3192],[-4.1019,42.8251,1020.8995],[-4.107,42.8277,1063.526],[-4.1124,42.8223,986.8096],[-4.113,42.8167,970.9075],[-4.1052,42.8088,833.2954],[-4.1088,42.8031,803.3884],[-4.101,42.7939,827.1957],[-4.089,42.7999,779.5944],[-4.0884,42.8185,966.4541],[-4.0948,42.824,1003.3192]]],
[[[-4.1669,42.8216,942.4743],[-4.1763,42.8234,962.4359],[-4.1823,42.8203,919.1136],[-4.1745,42.8116,909.7402],[-4.161,42.8131,863.7431],[-4.161,42.8184,893.9901],[-4.163,42.8209,937.1325],[-4.1669,42.8216,942.4743]]]]}
,"properties": {"GID_2": "ESP.5.4_1","GID_0": "ESP","country": "Spain","GID_1": "ESP.5_1","province": "CastillayLeón","NL_NAME_1": "NA","county": "Palencia","VARNAME_2": "NA","NL_NAME_2": "NA","TYPE_2": "Provincia","ENGTYPE_2": "Province","CC_2": "34","HASC_2": "ES.CL.PL","name": "Palencia.county","area_km2": 8038.263,"hist_schema_id": "Elevation0-9000","hist_area_km2": {"700": 22.074,"725": 186.549,"750": 711.05,"775": 654.318,"800": 720.473,"825": 672.729,"850": 748.979,"875": 720.1,"900": 601.797,"925": 470.891,"950": 260.078,"975": 219.938,"1000": 217.547,"1025": 184.085,"1050": 179.639,"1075": 170.627,"1100": 166.45,"1125": 147.425,"1150": 115.328,"1175": 77.978,"1200": 49.72,"1225": 42.744,"1250": 39.882,"1275": 41.494,"1300": 37.546,"1325": 37.853,"1350": 37.788,"1375": 37.324,"1400": 35.632,"1425": 33.441,"1450": 32.261,"1475": 29.234,"1500": 27.666,"1525": 25.695,"1550": 23.366,"1575": 21.952,"1600": 21.285,"1625": 20.274,"1650": 19.125,"1675": 18.659,"1700": 16.826,"1725": 15.567,"1750": 14.713,"1775": 13.299,"1800": 11.84,"1825": 11.249,"1850": 9.51,"1875": 8.284,"1900": 7.369,"1925": 7.011,"1950": 5.956,"1975": 5.258,"2000": 4.576,"2025": 4.358,"2050": 3.629,"2075": 3.257,"2100": 2.42,"2125": 2.745,"2150": 1.753,"2175": 1.442,"2200": 1.179,"2225": 1.024,"2250": 0.698,"2275": 0.667,"2300": 0.76,"2325": 0.527,"2350": 0.512,"2375": 0.357,"2400": 0.233,"2425": 0.171}}}