{"type":"Feature","properties":{"GID_3":"ESP.12.4.4_1","GID_0":"ESP","country":"Spain","GID_1":"ESP.12_1","province":"Galicia","NL_NAME_1":"NA","GID_2":"ESP.12.4_1","county":"Pontevedra","NL_NAME_2":"NA","city":"n.a.(210)","VARNAME_3":"NA","NL_NAME_3":"NA","TYPE_3":"Comarca","ENGTYPE_3":"Comarca","CC_3":"NA","HASC_3":"NA","name":"n.a.(210).city"},
"geometry":{"type": "MultiPolygon","coordinates": [[[[-8.4676,42.5446,549.358],[-8.4585,42.5384,480.8901],[-8.4494,42.5369,448.3706],[-8.4455,42.5288,336.1744],[-8.4317,42.5152,596.8639],[-8.4262,42.5131,678.793],[-8.4189,42.497,629.9667],[-8.417,42.4997,647.5574],[-8.4096,42.5003,677.2801],[-8.4047,42.4968,534.8901],[-8.4083,42.4938,590.3541],[-8.4079,42.491,565.6589],[-8.4099,42.4907,610.2813],[-8.4079,42.4859,578.8346],[-8.4056,42.4851,629.8435],[-8.3965,42.4867,755.3128],[-8.3827,42.4833,940.0414],[-8.3833,42.4772,965.0804],[-8.388,42.4723,926.6896],[-8.385,42.4729,948.4413],[-8.3733,42.4848,950.7151],[-8.3662,42.4873,937.0934],[-8.3525,42.4807,755.1924],[-8.3419,42.4844,796.8602],[-8.3403,42.4924,782.3121],[-8.3341,42.4912,775.098],[-8.3227,42.4949,857.6769],[-8.3121,42.4954,829.7217],[-8.3026,42.4902,691.1661],[-8.2912,42.496,822.3133],[-8.2884,42.5031,857.2037],[-8.2844,42.5061,831.4003],[-8.2746,42.5084,750.5175],[-8.2745,42.5137,738.8021],[-8.2724,42.5152,782.2197],[-8.2712,42.5207,864.304],[-8.2668,42.521,917.767],[-8.2636,42.5257,886.6901],[-8.2504,42.5309,762.2147],[-8.2393,42.5382,624.3095],[-8.2254,42.5382,759.2443],[-8.2174,42.5338,936.9687],[-8.1992,42.5518,803.4702],[-8.1841,42.5569,860.7776],[-8.1882,42.5621,788.1577],[-8.1863,42.5651,735.5289],[-8.1802,42.5672,617.6978],[-8.1737,42.572,711.6571],[-8.1675,42.5672,731.3478],[-8.1613,42.5573,756.252],[-8.1467,42.5487,809.8345],[-8.1365,42.5541,773.3536],[-8.1301,42.5524,760.3489],[-8.1113,42.5558,761.0496],[-8.0953,42.5537,742.9564],[-8.0893,42.5577,761.2232],[-8.0774,42.5533,785.4459],[-8.0647,42.5523,773.9922],[-8.0592,42.5487,826.8254],[-8.0525,42.551,842.2832],[-8.0483,42.5549,844.0065],[-8.0412,42.5509,765.1325],[-8.0385,42.5517,789.3031],[-8.0342,42.5503,801.7145],[-8.0313,42.5456,790.8088],[-8.0274,42.544,775.713],[-8.0162,42.5427,701.338],[-8.0132,42.5448,696.1957],[-8.0117,42.5519,735.8833],[-8.0023,42.5586,754.9169],[-8.0005,42.5665,792.5858],[-7.992,42.5725,837.4475],[-7.9731,42.5664,793.8892],[-7.9647,42.5666,817.1266],[-7.9491,42.5709,907.814],[-7.9191,42.5843,1096.3635],[-7.9126,42.5917,925.7189],[-7.9122,42.6009,1034.5469],[-7.9073,42.6041,1053.8491],[-7.9015,42.6184,1140.4214],[-7.8988,42.6196,1157.4069],[-7.8924,42.6296,1060.5068],[-7.8932,42.6384,1054.6292],[-7.8874,42.6609,956.5815],[-7.8919,42.6705,865.9594],[-7.8924,42.6776,925.2018],[-7.8872,42.6864,828.678],[-7.8746,42.6895,845.7208],[-7.8765,42.6955,813.1512],[-7.8737,42.6994,788.6278],[-7.866,42.6989,730.9629],[-7.8613,42.7062,801.5513],[-7.8665,42.7133,841.9081],[-7.8662,42.7206,857.4564],[-7.8727,42.7202,883.1528],[-7.9021,42.7333,885.1221],[-7.9179,42.7342,717.3671],[-7.9352,42.7397,767.1382],[-7.9426,42.7495,816.6953],[-7.9481,42.7532,926.1722],[-7.9523,42.7539,908.689],[-7.9652,42.7693,667.4418],[-7.9784,42.7789,750.6603],[-7.9818,42.7879,705.6523],[-7.9803,42.8113,586.4327],[-7.9754,42.8172,560.1353],[-7.9707,42.828,606.4091],[-7.9562,42.8397,449.7742],[-7.9638,42.842,423.0494],[-7.9687,42.8496,341.6069],[-7.9785,42.8473,341.1345],[-7.9792,42.845,335.9667],[-7.9842,42.8423,339.7966],[-7.9925,42.8471,345.9597],[-7.9967,42.8461,333.9155],[-7.9996,42.8489,327.7765],[-8.0106,42.8486,319.6494],[-8.0134,42.8502,316.7632],[-8.0159,42.847,318.6138],[-8.0241,42.8471,314.6802],[-8.0308,42.8403,308.4117],[-8.0352,42.8381,311.477],[-8.0413,42.838,305.1369],[-8.0458,42.8315,308.1013],[-8.0549,42.8333,295.9227],[-8.0542,42.8371,306.5994],[-8.063,42.8361,292.0882],[-8.0645,42.8406,294.7374],[-8.0606,42.8407,300.2837],[-8.0601,42.8431,295.5704],[-8.0679,42.8455,275.9334],[-8.0716,42.8524,266.5402],[-8.0809,42.8532,249.9485],[-8.0831,42.8547,253.107],[-8.0887,42.8536,242.5],[-8.1009,42.8472,242.5],[-8.1029,42.8498,242.5],[-8.1049,42.8484,242.5],[-8.1047,42.845,247.11],[-8.1112,42.847,242.5],[-8.1162,42.8411,242.5],[-8.1207,42.8464,242.5],[-8.12,42.8503,242.5],[-8.1262,42.85,246.4053],[-8.1349,42.8432,245.3148],[-8.1379,42.843,242.5],[-8.1399,42.8436,252.9829],[-8.1393,42.846,244.696],[-8.1429,42.8478,242.5],[-8.1518,42.8468,251.0862],[-8.1554,42.8505,245.7868],[-8.1597,42.8499,242.5],[-8.1637,42.8517,242.5],[-8.1647,42.8547,242.5],[-8.1751,42.8583,242.5],[-8.1805,42.858,242.5],[-8.1835,42.86,242.5],[-8.1978,42.8515,186.5544],[-8.2032,42.8443,187.0963],[-8.2074,42.8429,181.265],[-8.2105,42.8456,222.1907],[-8.2148,42.8462,170.2897],[-8.2206,42.8443,178.0143],[-8.2212,42.8424,166.5],[-8.2161,42.8406,182.3072],[-8.2123,42.834,156.9416],[-8.2058,42.8322,166.5222],[-8.206,42.826,154.261],[-8.2102,42.8237,188.7506],[-8.2286,42.8267,165.6063],[-8.2326,42.8289,148.5],[-8.2331,42.8322,164.3772],[-8.2362,42.8328,161.9042],[-8.244,42.8276,144.0148],[-8.2465,42.8278,154.5143],[-8.2478,42.8291,132.6113],[-8.2458,42.8334,153.8338],[-8.2551,42.8364,150.9196],[-8.2625,42.8322,131.7269],[-8.2634,42.8287,135.6691],[-8.2767,42.8216,125.0961],[-8.2767,42.8165,120.1996],[-8.274,42.813,116.1075],[-8.2793,42.8109,120.0655],[-8.2884,42.8179,121.438],[-8.2994,42.8189,113.73779999999999],[-8.2983,42.8254,118.571],[-8.2931,42.8281,115.1967],[-8.2933,42.8296,107.4522],[-8.3027,42.8318,105.692],[-8.3075,42.8297,119.3187],[-8.3102,42.8304,153.9432],[-8.3118,42.8339,107.1345],[-8.3104,42.8389,111.209],[-8.3137,42.8415,110.3689],[-8.3153,42.8459,139.4618],[-8.3213,42.8393,95.9602],[-8.3219,42.8334,119.3696],[-8.3259,42.8312,100.8681],[-8.3296,42.8421,100.4135],[-8.3349,42.8392,88.2728],[-8.3393,42.8406,94.9481],[-8.3455,42.8359,94.3784],[-8.3459,42.8322,87.6401],[-8.3425,42.8284,91.3992],[-8.334,42.8302,84.3216],[-8.3303,42.8273,109.0767],[-8.3296,42.8234,78.1545],[-8.3339,42.8172,76.4257],[-8.331,42.8148,74.0147],[-8.33,42.8111,81.3463],[-8.3334,42.7999,88.7196],[-8.3319,42.7942,66.4425],[-8.34,42.7932,66.9136],[-8.348,42.7885,64.0846],[-8.3476,42.7839,67.927],[-8.3542,42.7788,72.0432],[-8.3608,42.7836,72.0532],[-8.3687,42.7854,69.1531],[-8.3787,42.7841,75.4451],[-8.3826,42.7851,71.8291],[-8.3828,42.7895,66.2661],[-8.3921,42.7891,62.7136],[-8.3923,42.7861,75.8984],[-8.3886,42.7808,199.5509],[-8.3913,42.7767,225.5412],[-8.3981,42.7812,56.9993],[-8.4,42.7804,73.8901],[-8.4041,42.7723,51.4516],[-8.41,42.7684,55.2308],[-8.4133,42.7681,61.7004],[-8.4153,42.7642,77.4115],[-8.4064,42.7563,45.8167],[-8.4068,42.7542,46.7172],[-8.4104,42.7532,64.6554],[-8.4221,42.7544,61.7642],[-8.4302,42.7466,52.7714],[-8.4329,42.7459,50.1743],[-8.4449,42.7482,45.5553],[-8.4697,42.7436,53.4213],[-8.4879,42.7516,52.4041],[-8.493,42.7564,39.6379],[-8.5072,42.7561,40.2162],[-8.512,42.755,40.0769],[-8.5169,42.7513,42.9388],[-8.5226,42.7518,46.0621],[-8.5268,42.7554,33.986],[-8.5306,42.7561,33.9419],[-8.5333,42.7519,40.1537],[-8.5459,42.7537,31.1264],[-8.5485,42.7607,30.3133],[-8.5564,42.7606,28.8435],[-8.5594,42.7556,25.840699999999998],[-8.5545,42.7467,29.4048],[-8.5635,42.7462,45.7134],[-8.5716,42.7421,42.3952],[-8.579,42.7435,38.2453],[-8.5812,42.7414,31.2738],[-8.5934,42.7437,31.7225],[-8.5998,42.7431,18.6781],[-8.6074,42.7255,312.5563],[-8.604,42.7168,260.7607],[-8.6065,42.7151,292.7672],[-8.6043,42.7142,287.2595],[-8.6044,42.7088,324.6172],[-8.5951,42.7048,398.8366],[-8.5935,42.7022,393.2766],[-8.598,42.695,330.7039],[-8.5978,42.6882,350.2135],[-8.6014,42.6781,418.5815],[-8.6084,42.6745,316.5506],[-8.6158,42.6635,248.3569],[-8.6091,42.6508,273.432],[-8.6095,42.6437,255.7965],[-8.612,42.6388,264.3052],[-8.6091,42.6334,281.1241],[-8.6111,42.6322,261.5797],[-8.6112,42.6256,243.4193],[-8.6138,42.6212,203.7891],[-8.6116,42.6076,117.0],[-8.6073,42.6061,119.4779],[-8.6074,42.6019,117.0],[-8.596,42.598,125.5988],[-8.5905,42.5993,124.6159],[-8.5855,42.6081,148.099],[-8.5865,42.6111,129.9226],[-8.5849,42.6116,130.03],[-8.5766,42.6064,141.859],[-8.5744,42.6111,141.1333],[-8.5654,42.6127,147.2038],[-8.5661,42.6111,146.9138],[-8.5593,42.6073,153.4495],[-8.558,42.6036,168.7511],[-8.5526,42.603,198.6687],[-8.551,42.6056,190.9303],[-8.5473,42.602,217.6952],[-8.5444,42.6022,256.5016],[-8.541,42.5932,250.7133],[-8.5432,42.5887,275.1596],[-8.5258,42.5859,429.3181],[-8.5127,42.5893,557.1935],[-8.5097,42.5865,677.8977],[-8.5013,42.5884,787.0737],[-8.4992,42.5873,776.2573],[-8.4974,42.5781,735.4748],[-8.4835,42.5757,578.1073],[-8.473,42.5711,711.5234],[-8.4731,42.568,729.7182],[-8.4782,42.5664,752.7138],[-8.4793,42.5631,682.2775],[-8.474,42.5571,530.4998],[-8.4726,42.5512,612.9385],[-8.4676,42.5446,549.358]]]]}}