{"type":"Feature","properties":{"id":138193.0,"name":null,"lge_id":null,"pfafstette":41137.0,"lke_type":"N","altitude":670,"objectid":85963,"scalerank":12,"featurecla":"Lake","note":"_untitled_85963","funkyname":0,"min_zoom":7.0,"min_label":8.0},
"geometry":{"type": "Polygon","coordinates": [[[-6.0300186839787671,41.652350164837827,726.1383],[-6.0300186839787671,41.652350164837827,726.1383],[-6.0327042308537671,41.651129461712827,699.4884],[-6.0223892894475171,41.638067938275327,741.7552],[-6.0050553050725171,41.633490301556577,783.1234],[-5.9941300121037671,41.621344305462827,661.0],[-5.9892471996037671,41.613714910931577,684.9398],[-5.9849747386662671,41.598517157025327,729.3408],[-5.9804581371037671,41.582098699994077,678.0737],[-5.9789322581975171,41.564825750775327,732.9399],[-5.9825333324162671,41.550177313275327,660.5],[-5.9589737621037671,41.543219305462827,744.4288],[-5.9593399730412671,41.566839910931577,795.2657],[-5.9589737621037671,41.577887274212827,745.6007],[-5.9449967113225171,41.588263250775327,741.5643],[-5.9293106761662671,41.594183660931577,682.6641],[-5.9140518871037671,41.604620672650327,687.0244],[-5.9069718089787671,41.608710028119077,683.571],[-5.8945206371037671,41.640143133587827,689.2126],[-5.8867081371037671,41.648504949994077,768.7409],[-5.8730362621037671,41.650458074994077,677.4009],[-5.8585709300725171,41.656866766400327,671.0],[-5.8573502269475171,41.668097235150327,687.8789],[-5.8515518871037671,41.673895574994077,702.8527],[-5.8437393871037671,41.683661199994077,751.2352],[-5.8300675121037671,41.693426824994077,702.0499],[-5.8222550121037671,41.703192449994077,723.6447],[-5.8124893871037671,41.703192449994077,671.5],[-5.8056534496037671,41.708868719525327,671.5],[-5.8080948558537671,41.718268133587827,714.1194],[-5.8364151683537671,41.717047430462827,708.7703],[-5.8554581371037671,41.705145574994077,707.2158],[-5.8710831371037671,41.695379949994077,704.3041],[-5.8847550121037671,41.685614324994077,733.7499],[-5.9003800121037671,41.664129949994077,735.9266],[-5.9132584300725171,41.651983953900327,703.4833],[-5.9275406566350171,41.629523016400327,670.5],[-5.9277237621037671,41.621161199994077,670.5],[-5.9382218089787671,41.612799383587827,732.4246],[-5.9597672191350171,41.613165594525327,793.2306],[-5.9764908519475171,41.614996649212827,805.1626],[-5.9950455394475171,41.631659246869077,812.3025],[-6.0178116527287671,41.641363836712827,746.4535],[-6.0300186839787671,41.652350164837827,726.1383]]]}}