{"type": "Feature","bbox": [-2.1736,39.8468,0.7713,42.9245],"geometry": {"type": "MultiPolygon","coordinates": [[[[-0.8169,39.8986,1545.3063],[-0.8299,39.9068,1527.4675],[-0.8328,39.911,1495.5999],[-0.8331,39.9172,1539.1383],[-0.8374,39.9234,1536.0697],[-0.8404,39.925,1526.5862],[-0.8363,39.9284,1500.2139],[-0.8396,39.9419,1553.5095],[-0.8462,39.9477,1586.5229],[-0.8441,39.954,1560.9614],[-0.8396,39.9554,1545.1846],[-0.8357,39.96,1540.6045],[-0.8384,39.9665,1545.9196],[-0.8414,39.969,1558.3146],[-0.838,39.9723,1544.9492],[-0.8379,39.9766,1501.8896],[-0.8347,39.9794,1436.2551],[-0.8242,39.9824,1423.2454],[-0.8169,39.9823,1384.0286],[-0.8034,39.9905,1211.3969],[-0.7987,39.9914,1183.4607],[-0.7896,39.9899,1188.5947],[-0.7778,39.9983,1177.3966],[-0.7745,40.0043,1192.0614],[-0.7672,40.0101,1139.6091],[-0.7653,40.0268,1077.8989],[-0.7628,40.0303,1079.297],[-0.7622,40.0413,1119.6864],[-0.7536,40.0466,1010.0121],[-0.7475,40.0379,1096.8296],[-0.731,40.0424,964.9864],[-0.7188,40.0387,944.6573],[-0.7028,40.0466,926.7546],[-0.6829,40.0443,953.1875],[-0.6641,40.0515,977.4215],[-0.6458,40.0677,865.6931],[-0.6416,40.0676,849.8767],[-0.6379,40.0697,860.7983],[-0.6359,40.0675,841.6523],[-0.6358,40.0718,842.7324],[-0.6347,40.0727,855.236],[-0.6334,40.0707,842.4563],[-0.6307,40.071,832.7321],[-0.6312,40.0735,831.2987],[-0.6272,40.0762,829.2136],[-0.6231,40.0753,824.661],[-0.6231,40.0696,824.0104],[-0.619,40.0684,825.3908],[-0.6135,40.07,780.885],[-0.6286,40.1021,1003.8641],[-0.6065,40.1283,631.1358],[-0.604,40.1268,644.5117],[-0.5985,40.1286,643.6125],[-0.597,40.1321,658.9354],[-0.5908,40.1337,674.3477],[-0.5869,40.1315,676.4565],[-0.5784,40.1381,692.2981],[-0.5793,40.1476,720.9002],[-0.5747,40.1487,733.0366],[-0.5747,40.1526,736.4904],[-0.5705,40.1554,768.1557],[-0.5692,40.1592,764.4478],[-0.5707,40.16,764.4478],[-0.5696,40.162,772.1829],[-0.5739,40.173,842.047],[-0.5716,40.1749,829.9601],[-0.5704,40.1803,881.5598],[-0.5721,40.1815,848.7708],[-0.5637,40.1887,1048.085],[-0.5609,40.1974,1105.4541],[-0.5578,40.2009,1124.8116],[-0.559,40.2101,1185.0343],[-0.5478,40.2443,1689.7549],[-0.5441,40.2517,1628.1825],[-0.5292,40.2394,1611.5281],[-0.5105,40.2318,1494.0247],[-0.5015,40.2332,1492.4437],[-0.4945,40.2288,1367.1252],[-0.4866,40.2342,1213.2524],[-0.4772,40.2353,1036.4424],[-0.4699,40.2402,835.4756],[-0.4638,40.2339,823.9547],[-0.4518,40.2353,1019.7321],[-0.428,40.2438,1249.363],[-0.3836,40.2649,1642.9781],[-0.385,40.2744,1591.7848],[-0.3828,40.2783,1523.0635],[-0.3903,40.288,1244.2659],[-0.4001,40.2942,1186.4075],[-0.4001,40.2957,1184.7664],[-0.3939,40.2976,1191.5398],[-0.3946,40.3004,1171.7686],[-0.3927,40.2987,1191.5398],[-0.3899,40.2999,1176.5082],[-0.3914,40.3025,1170.9291],[-0.3901,40.3057,1201.3423],[-0.3877,40.3073,1213.0264],[-0.3845,40.3057,1141.4122],[-0.3789,40.31,1170.5518],[-0.3764,40.305,1145.5881],[-0.3725,40.3086,1120.1145],[-0.3724,40.3041,1105.176],[-0.3703,40.3044,1103.0209],[-0.37,40.3066,1086.3419],[-0.3662,40.3051,1095.4836],[-0.3672,40.3083,1085.0537],[-0.37,40.3099,1075.2837],[-0.3685,40.3121,1114.3153],[-0.3646,40.3137,1084.3218],[-0.3631,40.3166,1039.9021],[-0.3582,40.313,1043.036],[-0.3548,40.3148,1027.4885],[-0.3529,40.3134,1100.5315],[-0.352,40.3176,1023.904],[-0.3535,40.318,1080.5544],[-0.3485,40.3207,1015.5684],[-0.3497,40.328,996.3633],[-0.3477,40.3283,991.6987],[-0.3465,40.3251,987.6307],[-0.3431,40.3254,997.2026],[-0.3437,40.3271,978.4388],[-0.341,40.329,966.2902],[-0.343,40.3343,961.132],[-0.3406,40.34,990.3077],[-0.3376,40.3394,944.4682],[-0.3368,40.341,1020.0966],[-0.3324,40.3415,925.8122],[-0.3316,40.3448,913.3961],[-0.3212,40.3501,915.6799],[-0.319,40.3547,912.9183],[-0.3144,40.3584,858.6357],[-0.3086,40.3577,844.9251],[-0.3045,40.3627,864.3011],[-0.298,40.3617,822.2719],[-0.2892,40.3681,828.835],[-0.2891,40.3655,815.3239],[-0.2854,40.3665,825.8947],[-0.2823,40.3651,797.1318],[-0.2839,40.3687,843.5006],[-0.2825,40.3702,781.0673],[-0.28,40.3695,796.3109],[-0.2816,40.3734,822.2542],[-0.2807,40.3769,903.3573],[-0.2852,40.3863,998.7495],[-0.2959,40.3954,1121.1626],[-0.3013,40.3976,1154.1147],[-0.3072,40.4092,1311.1049],[-0.3166,40.4172,1377.4272],[-0.3279,40.4217,1598.4818],[-0.3328,40.4256,1584.5038],[-0.3411,40.4382,1367.6571],[-0.3473,40.444,1234.5847],[-0.3426,40.4435,1191.1852],[-0.3428,40.4466,1160.2661],[-0.3388,40.4489,1166.2244],[-0.339,40.4534,1167.2092],[-0.337,40.4566,1151.2411],[-0.3326,40.4591,1157.0172],[-0.3225,40.4601,1133.2921],[-0.3085,40.4658,1132.5541],[-0.2934,40.466,1122.2909],[-0.2954,40.4704,1132.1667],[-0.2903,40.4706,1101.0579],[-0.2873,40.4724,1118.3252],[-0.2857,40.4701,1114.2537],[-0.2832,40.4732,1110.5574],[-0.281,40.4739,1093.7317],[-0.2801,40.4724,1079.2175],[-0.2785,40.4754,1075.3546],[-0.2764,40.4758,1105.1915],[-0.2728,40.4737,1085.1646],[-0.2714,40.4785,1065.2733],[-0.2741,40.4817,1089.8286],[-0.2797,40.4835,1110.1498],[-0.2793,40.4886,1113.1265],[-0.2749,40.4934,1139.0343],[-0.2747,40.4969,1174.7921],[-0.2811,40.5052,1267.9827],[-0.2881,40.5096,1283.8848],[-0.2976,40.5058,1287.8644],[-0.2994,40.5131,1134.5],[-0.3018,40.516,1180.0294],[-0.2974,40.5313,982.8788],[-0.293,40.5366,986.7912],[-0.2901,40.544,972.1162],[-0.2925,40.5467,954.8965],[-0.2902,40.5531,951.2375],[-0.294,40.554,953.3773],[-0.2924,40.5561,936.603],[-0.296,40.5605,920.7372],[-0.2948,40.5702,898.7167],[-0.2993,40.5738,880.5258],[-0.2998,40.5774,928.1119],[-0.2952,40.581,870.5981],[-0.2943,40.584,854.7916],[-0.2953,40.586,857.3096],[-0.2934,40.5915,851.0901],[-0.2954,40.5953,844.6583],[-0.2933,40.5964,833.902],[-0.2947,40.5998,824.7673],[-0.2923,40.6044,813.1167],[-0.2932,40.6111,825.1976],[-0.2991,40.6129,812.2191],[-0.3115,40.6115,824.825],[-0.3176,40.6081,852.5152],[-0.322,40.6029,874.1321],[-0.3345,40.6074,884.9607],[-0.3432,40.6065,899.4538],[-0.344,40.6112,973.2521],[-0.3602,40.6155,1189.713],[-0.3704,40.6136,1220.6509],[-0.3775,40.618899999999996,1266.4238],[-0.3796,40.6236,1178.4784],[-0.3764,40.636,1011.2753],[-0.3719,40.6411,982.1002],[-0.3727,40.6476,935.9221],[-0.3707,40.6508,915.7335],[-0.3791,40.6568,959.1025],[-0.3815,40.6616,897.6359],[-0.378,40.6674,933.1959],[-0.372,40.6673,912.3549],[-0.3703,40.669,895.7557],[-0.3728,40.6706,927.0154],[-0.3696,40.6701,895.7557],[-0.3705,40.672,867.4885],[-0.3561,40.6777,978.6682],[-0.3288,40.6803,821.5286],[-0.3258,40.678,844.8398],[-0.3221,40.6777,850.2413],[-0.32,40.6678,922.8073],[-0.3169,40.6636,938.5287],[-0.3069,40.6595,1083.2207],[-0.3061,40.664,1081.3979],[-0.299,40.6677,1100.8542],[-0.2936,40.674,1063.0989],[-0.2894,40.6722,1059.7705],[-0.2789,40.6802,1078.5461],[-0.2609,40.6851,1074.6313],[-0.25,40.6908,1064.2395],[-0.2359,40.6911,1088.9695],[-0.2375,40.698,974.5011],[-0.2335,40.7086,976.1346],[-0.2363,40.7097,983.9313],[-0.2392,40.7181,944.1832],[-0.2371,40.7238,938.8024],[-0.2328,40.7262,924.3779],[-0.2316,40.7328,924.5692],[-0.2292,40.7357,921.6633],[-0.2304,40.7383,930.071],[-0.2268,40.7438,936.1041],[-0.227,40.7477,904.895],[-0.224,40.7542,919.7492],[-0.213,40.7581,907.8961],[-0.2104,40.7674,878.2548],[-0.2058,40.771,886.3688],[-0.2055,40.7734,889.2732],[-0.2024,40.7748,866.891],[-0.2007,40.7772,904.7983],[-0.2017,40.7796,909.5123],[-0.1944,40.7818,837.0272],[-0.1971,40.7845,855.537],[-0.1667,40.7858,848.4878],[-0.1649,40.7887,852.7717],[-0.1445,40.7855,534.5211],[-0.1471,40.7751,821.6123],[-0.1438,40.7687,849.9292],[-0.1385,40.7663,881.0272],[-0.1331,40.758,899.3375],[-0.1257,40.7529,867.7047],[-0.1129,40.7483,841.7173],[-0.1074,40.7434,774.3401],[-0.0864,40.7382,840.5778],[-0.0804,40.7337,897.8563],[-0.0647,40.7274,1088.3181],[-0.0559,40.7268,956.3405],[-0.0537,40.7279,892.2009],[-0.0307,40.7226,1168.7485],[-0.0286,40.7263,1139.592],[-0.0226,40.7302,1055.3092],[-0.0177,40.7312,1083.1072],[0.0158,40.7285,990.5001],[0.018,40.7259,997.0726],[0.0161,40.7233,995.1602],[0.0188,40.7196,974.2049],[0.0239,40.7176,977.9241],[0.0284,40.7132,1029.5447],[0.0245,40.7073,1061.2339],[0.0243,40.7024,1098.7241],[0.0269,40.7004,1176.3445],[0.0265,40.695,1225.9901],[0.0422,40.691,1052.4026],[0.0727,40.7143,1181.4738],[0.1125,40.7272,1280.0425],[0.1119,40.7247,1277.797],[0.1166,40.7251,1344.6177],[0.1238,40.7208,1333.5088],[0.1414,40.7185,1246.5487],[0.1639,40.7236,1309.967],[0.1647,40.7278,1321.0217],[0.1684,40.7295,1313.3733],[0.1708,40.7329,1337.5345],[0.1675,40.7395,1242.2286],[0.1645,40.7401,1234.7638],[0.1632,40.7425,1234.583],[0.1649,40.7433,1241.3702],[0.1592,40.7506,1184.8247],[0.1646,40.7487,1093.6914],[0.168,40.7448,1096.9967],[0.1754,40.7412,1072.6097],[0.1763,40.7438,1122.7006],[0.174,40.749,1153.2179],[0.1763,40.751,1183.7434],[0.1753,40.755,1174.9534],[0.1813,40.7533,1204.3712],[0.1841,40.7556,1175.2152],[0.185,40.7531,1203.135],[0.1902,40.7503,1155.9651],[0.1963,40.7586,1172.3918],[0.2016,40.7576,1124.5536],[0.212,40.7675,1191.7809],[0.2239,40.7656,880.3981],[0.23,40.7675,889.5876],[0.2294,40.7712,972.1086],[0.2347,40.7762,1149.4558],[0.2329,40.7794,1212.7073],[0.2336,40.787,1209.3113],[0.2444,40.7921,1066.767],[0.2499,40.7985,977.2852],[0.2578,40.8003,748.9964],[0.2586,40.8046,883.7894],[0.2652,40.8138,1130.2092],[0.2718,40.817,1181.1548],[0.272,40.8188,1019.7178],[0.2783,40.8211,874.3154],[0.2664,40.8315,654.4946],[0.2666,40.8335,624.8558],[0.2617,40.8373,611.3322],[0.2625,40.8388,725.8162],[0.26,40.8392,632.7948],[0.2587,40.8463,604.5035],[0.2554,40.8467,588.2632],[0.2577,40.8485,576.7176],[0.2552,40.8509,569.3044],[0.2558,40.8531,568.8886],[0.2508,40.8563,563.8445],[0.2534,40.86,560.8262],[0.2517,40.8627,561.4531],[0.2543,40.8663,542.8808],[0.2535,40.8702,530.063],[0.2554,40.8746,532.5691],[0.2518,40.8766,550.2089],[0.2505,40.8795,525.8368],[0.2453,40.8805,532.6501],[0.239,40.8849,500.6156],[0.2413,40.8868,499.0855],[0.246,40.8872,513.1525],[0.2459,40.8922,491.405],[0.2501,40.896,481.274],[0.2496,40.9016,483.8942],[0.2533,40.9066,473.3708],[0.2499,40.9073,472.7958],[0.2488,40.9105,472.9196],[0.2541,40.9118,462.1766],[0.2539,40.9197,454.4396],[0.2606,40.9285,442.9286],[0.2674,40.929,437.7567],[0.2743,40.9366,421.0627],[0.2717,40.9448,412.7621],[0.2761,40.9481,408.3043],[0.276,40.951,440.9589],[0.281,40.9512,419.2271],[0.2854,40.9604,404.7156],[0.2843,40.9647,422.0361],[0.2935,40.9706,396.7791],[0.2894,40.9743,400.6771],[0.2834,40.9728,384.6301],[0.2811,40.9749,383.8322],[0.2824,40.9822,375.0733],[0.2811,40.9872,403.3088],[0.2723,40.9935,362.4189],[0.2719,40.996,370.2631],[0.2685,40.9983,359.0668],[0.2694,41.0019,353.6884],[0.275,41.0053,354.6671],[0.2743,41.0072,351.1072],[0.2706,41.0095,356.1529],[0.2645,41.0103,345.778],[0.2589,41.0139,344.8521],[0.261,41.0189,344.9167],[0.2764,41.0181,332.8634],[0.2799,41.0198,346.191],[0.2709,41.026,330.832],[0.2625,41.0267,325.3882],[0.253,41.033,315.1909],[0.2462,41.0413,310.0299],[0.2435,41.0402,325.1435],[0.2424,41.0349,311.8094],[0.2343,41.0346,305.1034],[0.2304,41.037,304.6223],[0.2301,41.0398,296.22],[0.2348,41.046,311.2318],[0.2331,41.0471,305.8322],[0.2259,41.0461,289.8351],[0.2202,41.0417,294.1429],[0.2178,41.0437,284.3521],[0.2178,41.0466,284.5186],[0.2209,41.0498,282.4394],[0.2302,41.0539,274.9681],[0.2288,41.0588,293.0255],[0.2223,41.0592,269.264],[0.2182,41.0629,265.8681],[0.2204,41.0715,261.0264],[0.2168,41.0777,262.3768],[0.2198,41.0792,256.0564],[0.2201,41.0829,254.3767],[0.2157,41.0843,251.3364],[0.208,41.0828,253.845],[0.2012,41.0847,246.2581],[0.2009,41.1027,240.7496],[0.2064,41.1096,236.6161],[0.2054,41.1104,236.6161],[0.209,41.1169,226.819],[0.201,41.1246,210.8287],[0.2013,41.1268,209.385],[0.2199,41.1324,203.6614],[0.2194,41.1344,227.3449],[0.2129,41.1365,197.5562],[0.214,41.1373,211.2703],[0.237,41.1305,275.7726],[0.2479,41.1302,346.7351],[0.2518,41.134,340.539],[0.2506,41.1384,334.3619],[0.2562,41.1437,332.7201],[0.2548,41.145,334.6388],[0.256,41.1468,325.1811],[0.253,41.1502,331.4125],[0.2731,41.1488,256.7464],[0.292,41.1564,332.9823],[0.3034,41.1644,323.5678],[0.3005,41.1669,332.0971],[0.305,41.1723,315.5865],[0.306,41.1857,305.9001],[0.3083,41.1872,307.7292],[0.3098,41.1943,295.971],[0.3126,41.1967,303.0362],[0.3148,41.2071,272.1368],[0.3178,41.211,273.1758],[0.3189,41.2211,223.1161],[0.3224,41.2253,68.5],[0.3313,41.2227,68.5],[0.3384,41.2303,68.5],[0.3413,41.2311,134.4618],[0.3513,41.2268,68.5],[0.36,41.2255,73.8644],[0.3642,41.2277,68.5],[0.3646,41.2387,68.5],[0.3813,41.2365,68.5],[0.3788,41.2375,68.5],[0.3742,41.2449,191.255],[0.3737,41.2494,283.7686],[0.3779,41.2538,296.8714],[0.3768,41.2617,333.2468],[0.3816,41.2736,380.3528],[0.3857,41.2789,394.6511],[0.3696,41.2965,347.1256],[0.3657,41.304,68.5],[0.3702,41.3115,68.5],[0.3683,41.3186,68.5],[0.3655,41.3209,72.0618],[0.3512,41.3252,68.5],[0.3486,41.3298,68.5],[0.3592,41.342,68.5],[0.3668,41.3418,92.9796],[0.3738,41.3504,123.0955],[0.36,41.3705,347.7719],[0.3323,41.3862,205.3463],[0.32,41.3949,68.5],[0.3419,41.4138,71.4904],[0.3475,41.4273,79.655],[0.3464,41.4317,91.0561],[0.3483,41.4433,77.1686],[0.3554,41.4518,78.4346],[0.3546,41.4543,77.6041],[0.3457,41.4607,82.6042],[0.3446,41.4631,82.8498],[0.3449,41.471,83.1174],[0.3414,41.4809,86.13],[0.3421,41.484,86.9497],[0.3474,41.4878,88.39],[0.3709,41.4847,247.4294],[0.384,41.4859,142.8],[0.3979,41.4913,126.5569],[0.4181,41.5176,140.7753],[0.4271,41.5235,138.8682],[0.4323,41.531,135.3639],[0.443,41.5411,182.0783],[0.447,41.5423,209.5613],[0.4391,41.556,213.5071],[0.4304,41.5653,217.5952],[0.4329,41.569,203.017],[0.4302,41.5779,229.626],[0.4316,41.5814,229.2955],[0.4359,41.5849,232.7186],[0.4285,41.6024,248.8363],[0.4021,41.5927,238.5349],[0.3921,41.5953,249.9447],[0.3496,41.5995,224.8925],[0.3459,41.6219,215.6198],[0.358,41.6317,242.3624],[0.3489,41.6368,222.5465],[0.3329,41.6596,162.3501],[0.3263,41.6622,166.4207],[0.326,41.6747,170.5],[0.3282,41.6811,167.2581],[0.3421,41.6966,175.7832],[0.3687,41.7142,185.0036],[0.3693,41.7247,200.0386],[0.3728,41.7239,199.9191],[0.3848,41.7403,200.8792],[0.3955,41.732,183.9863],[0.395,41.7379,185.5648],[0.3994,41.7527,191.4218],[0.3987,41.7578,192.4284],[0.4006,41.7567,193.5476],[0.4089,41.7593,196.9382],[0.4383,41.7613,207.4845],[0.448,41.7647,221.688],[0.4647,41.7632,245.9249],[0.4697,41.7656,227.6082],[0.4738,41.7872,250.9904],[0.4833,41.8015,248.826],[0.4891,41.8052,246.6815],[0.4952,41.8045,254.4734],[0.499,41.807,255.6302],[0.5022,41.8144,266.2419],[0.5106,41.8206,272.4944],[0.5155,41.8224,277.4982],[0.5195,41.8209,280.162],[0.5251,41.8226,286.6659],[0.5424,41.8204,369.8906],[0.5494,41.8265,380.5785],[0.5534,41.8351,385.4098],[0.5536,41.8402,375.7674],[0.5516,41.8407,385.6163],[0.5525,41.8494,423.5551],[0.5574,41.8542,449.0753],[0.5622,41.8522,456.1346],[0.5622,41.8536,456.1346],[0.5801,41.8509,287.8765],[0.5822,41.8577,297.8322],[0.5801,41.8635,294.9301],[0.5908,41.8653,360.6483],[0.594,41.8681,431.7556],[0.6034,41.8691,434.7234],[0.6073,41.8723,459.6641],[0.6083,41.8783,505.865],[0.5928,41.8844,364.0],[0.5958,41.889,364.0],[0.601,41.9086,364.0],[0.5952,41.9153,364.0],[0.5949,41.918,364.0],[0.6075,41.9193,377.1057],[0.6029,41.9223,529.5632],[0.577,41.9292,724.8077],[0.5757,41.9307,756.517],[0.5625,41.9327,826.6177],[0.5619,41.9382,834.6765],[0.5782,41.9576,730.0792],[0.586,41.9618,658.2026],[0.587,41.9668,632.5071],[0.5926,41.9689,745.399],[0.6044,41.9607,365.3525],[0.6036,41.9654,372.8235],[0.61,41.9689,449.7701],[0.6164,41.9816,482.0],[0.6192,41.9833,482.0],[0.6169,41.9872,482.0],[0.6238,41.9918,584.348],[0.6386,41.9946,641.826],[0.6421,41.9869,569.2914],[0.642,41.9821,483.8299],[0.6454,41.9871,482.0],[0.6444,41.9924,490.0401],[0.6466,41.9968,482.0],[0.6573,42.0016,481.25],[0.6639,42.0146,504.2817],[0.657,42.0149,474.1661],[0.6517,42.0263,466.0],[0.6565,42.0315,466.0],[0.6568,42.0404,466.0],[0.666,42.0418,467.7787],[0.6712,42.0474,470.9271],[0.6686,42.0489,469.2191],[0.6679,42.0521,468.3872],[0.6688,42.0612,489.8039],[0.6793,42.0761,772.483],[0.6851,42.0918,511.3658],[0.6956,42.0991,496.7697],[0.6949,42.1014,496.6772],[0.6996,42.107,496.3101],[0.7022,42.1219,506.1392],[0.698,42.1265,511.42],[0.6954,42.1386,521.9198],[0.6959,42.152,536.3979],[0.7037,42.1584,665.6016],[0.714,42.1634,711.1326],[0.7016,42.1696,555.7422],[0.6986,42.1727,550.6472],[0.7034,42.185,569.006],[0.7026,42.1901,559.1595],[0.7066,42.1912,565.5167],[0.7094,42.1973,579.406],[0.7084,42.2043,588.1068],[0.7142,42.21,580.3502],[0.7134,42.2155,581.3835],[0.7174,42.2199,615.1727],[0.7142,42.2219,587.6592],[0.7149,42.2248,610.6695],[0.7201,42.2305,597.6042],[0.7249,42.2413,611.598],[0.7285,42.2459,619.7918],[0.7335,42.2487,618.9888],[0.735,42.2522,624.165],[0.7398,42.2691,643.2294],[0.7386,42.2815,652.6757],[0.7439,42.2857,752.3677],[0.7449,42.3012,717.4897],[0.7566,42.3093,931.3362],[0.7551,42.3135,1080.335],[0.7646,42.3225,1319.6199],[0.7592,42.3259,1267.2781],[0.7437,42.3263,834.733],[0.7404,42.3369,801.5],[0.7448,42.3376,805.2368],[0.7495,42.3433,801.5],[0.7536,42.3442,801.5],[0.7543,42.3467,808.4034],[0.7713,42.3507,897.7303],[0.7662,42.3534,869.6793],[0.7655,42.3562,933.3196],[0.7462,42.3569,848.5754],[0.7368,42.3621,945.1587],[0.7233,42.3656,1119.3733],[0.7228,42.3688,1076.0204],[0.7343,42.3715,1004.5752],[0.7353,42.3762,1066.8939],[0.7431,42.3791,811.7002],[0.7461,42.3848,820.4772],[0.7418,42.3919,902.5693],[0.7405,42.3916,902.5693],[0.7382,42.3997,932.7004],[0.7365,42.3993,1013.808],[0.726,42.4053,1015.8212],[0.7283,42.4079,899.9932],[0.7345,42.4079,854.5798],[0.7359,42.414,855.4208],[0.7263,42.4269,887.4537],[0.7192,42.429,884.7465],[0.7102,42.4364,893.96],[0.7107,42.4389,895.0898],[0.7065,42.4493,958.2222],[0.7063,42.4566,965.545],[0.7085,42.4589,985.3286],[0.7061,42.4647,1050.1904],[0.6969,42.4741,1209.76],[0.6905,42.4876,1337.0771],[0.698,42.4864,1304.5281],[0.7008,42.491,1160.5739],[0.6993,42.4952,1370.4419],[0.7005,42.4959,1415.0208],[0.7051,42.4944,1246.9237],[0.7133,42.4873,982.5165],[0.7265,42.4981,1537.1753],[0.7296,42.4973,1585.8185],[0.7333,42.5045,1606.6597],[0.7395,42.5052,1620.4926],[0.73,42.5124,1220.2744],[0.7193,42.5128,1022.2598],[0.7239,42.52,1030.6752],[0.7216,42.5252,1038.0051],[0.7248,42.5305,1045.2339],[0.7351,42.5401,1104.0649],[0.7454,42.5353,1734.9167],[0.7496,42.535,1948.303],[0.7409,42.545,1138.8923],[0.7481,42.5522,1250.5414],[0.7473,42.5566,1302.3218],[0.7586,42.5722,1328.2122],[0.7578,42.5762,1375.8022],[0.7599,42.5806,1422.0],[0.7611,42.5951,1422.0],[0.7659,42.6031,1482.0083],[0.7675,42.6113,1532.7827],[0.7491,42.6128,2326.6121],[0.7439,42.6154,2499.1943],[0.7397,42.6126,2525.1917],[0.7364,42.613,2581.0474],[0.7318,42.6156,2648.1511],[0.7232,42.6165,2779.9233],[0.7174,42.6196,2769.0864],[0.7084,42.6212,2731.4731],[0.6983,42.6293,2947.707],[0.6998,42.6328,2903.9014],[0.6951,42.6587,2627.22],[0.6919,42.6594,2490.897],[0.687,42.6643,2362.2449],[0.6805,42.6663,2546.9241],[0.6797,42.6688,2571.2502],[0.6758,42.6711,2558.116],[0.6734,42.6791,2533.9731],[0.6713,42.6812,2547.6128],[0.6659,42.6827,2453.0332],[0.66,42.6884,2493.2847],[0.6601,42.691,2538.1643],[0.6497,42.6933,2558.1069],[0.6415,42.6925,2445.9875],[0.6162,42.6958,2432.2317],[0.6034,42.7005,2368.0581],[0.597,42.7055,2557.9412],[0.5937,42.704,2622.4329],[0.5888,42.6955,2701.1885],[0.5803,42.6958,2663.6675],[0.5774,42.6937,2615.6694],[0.566,42.698,2799.8774],[0.5259,42.7021,2962.3491],[0.5202,42.696,3069.2104],[0.5193,42.6925,3138.7805],[0.5162,42.6917,3136.4126],[0.4933,42.6931,3031.7371],[0.4768,42.6996,3048.0889],[0.4681,42.6949,2971.373],[0.4625,42.6937,2840.541],[0.4469,42.6925,2627.2808],[0.4353,42.6896,2778.1821],[0.4341,42.6907,2768.8213],[0.422,42.6903,2669.7412],[0.4194,42.6927,2722.615],[0.4111,42.6951,2615.8782],[0.3961,42.6939,3033.187],[0.3923,42.7119,2963.7534],[0.3905,42.7127,2942.0764],[0.3837,42.7109,2854.7925],[0.3754,42.714,2544.4524],[0.3604,42.7237,2885.1675],[0.3584,42.7195,2834.9531],[0.3533,42.7184,2697.3555],[0.345,42.7111,2782.2417],[0.3277,42.7053,2801.5645],[0.3262,42.701,2576.8188],[0.3269,42.6973,2596.5642],[0.324,42.6948,2537.8499],[0.327,42.6909,2441.5525],[0.3209,42.6832,2624.0212],[0.3184,42.6842,2605.9727],[0.295,42.6734,2494.5295],[0.2932,42.6762,2449.9141],[0.2635,42.6938,2738.7637],[0.2664,42.6975,2635.74],[0.2669,42.7028,2603.4722],[0.2596,42.7158,2691.2104],[0.227,42.7174,2638.5718],[0.206,42.7293,2578.4983],[0.176,42.7356,2477.7896],[0.1754,42.7334,2296.9329],[0.1629,42.7265,2661.5825],[0.1623,42.7224,2658.9346],[0.1563,42.7235,2620.2915],[0.1421,42.7219,2734.2908],[0.1346,42.7178,2998.4204],[0.1341,42.7155,3051.4807],[0.112,42.7103,2759.873],[0.1071,42.71,2692.8909],[0.087,42.7164,2676.502],[0.0794,42.7147,2701.3499],[0.0704,42.7034,2673.5068],[0.0583,42.697,2436.5068],[0.0527,42.6975,2551.355],[0.0495,42.6957,2768.7856],[0.0266,42.7018,2885.8799],[0.021,42.7018,2940.9617],[0.0153,42.7008,2944.9102],[0.0118,42.6928,3224.8711],[0.0007,42.6852,2995.4028],[-0.0146,42.6848,2925.6135],[-0.0616,42.6947,2932.217],[-0.0688,42.7161,2462.1362],[-0.1031,42.7216,2384.5181],[-0.106,42.7209,2469.2305],[-0.1105,42.7254,2473.8962],[-0.1095,42.7318,2362.728],[-0.1125,42.7361,2573.425],[-0.1175,42.7382,2572.7485],[-0.1181,42.7436,2439.0332],[-0.1232,42.7504,2535.8542],[-0.1378,42.765,3017.5044],[-0.1453,42.7686,3143.4131],[-0.15,42.769,3202.0615],[-0.15,42.7728,3199.9971],[-0.1477,42.7739,3170.6492],[-0.1595,42.7807,2561.0654],[-0.1558,42.7859,2670.7236],[-0.1586,42.7957,2779.1575],[-0.1779,42.7853,2706.3091],[-0.1845,42.7876,2745.8318],[-0.1896,42.7871,2703.9148],[-0.1903,42.7906,2722.9634],[-0.1983,42.7948,2668.3286],[-0.2104,42.7968,2602.2107],[-0.2145,42.7959,2576.0015],[-0.2173,42.7993,2613.8533],[-0.2374,42.8077,2817.8164],[-0.2389,42.8099,2827.8291],[-0.2378,42.8133,2643.959],[-0.2388,42.8178,2810.5881],[-0.2429,42.8208,2837.8833],[-0.2433,42.8231,2902.5364],[-0.2454,42.8224,2864.0994],[-0.2452,42.8212,2811.7922],[-0.2533,42.8192,2719.0825],[-0.2729,42.8273,2831.4392],[-0.2785,42.8358,2706.0374],[-0.3064,42.8413,2559.3738],[-0.313,42.8475,2724.9722],[-0.3196,42.842,2462.6689],[-0.3212,42.8361,2431.2112],[-0.323,42.8364,2505.9229],[-0.3249,42.8342,2490.6838],[-0.3301,42.8341,2663.4377],[-0.3353,42.8372,2615.6597],[-0.3419,42.8351,2386.6504],[-0.3474,42.8354,2490.813],[-0.3508,42.8334,2382.6807],[-0.365,42.8163,2586.2695],[-0.3842,42.8039,2235.9927],[-0.3848,42.8013,2205.9441],[-0.3925,42.8001,2005.1305],[-0.3946,42.8021,1929.4297],[-0.4081,42.8059,2023.4386],[-0.4146,42.8054,1857.1952],[-0.4303,42.7989,2070.8843],[-0.4396,42.7971,2144.8708],[-0.4405,42.7955,2208.1875],[-0.4449,42.796,2195.1702],[-0.4493,42.8001,2229.6328],[-0.4786,42.8097,2222.856],[-0.4815,42.8132,2152.9624],[-0.4929,42.8167,2167.667],[-0.4985,42.8205,2245.2073],[-0.5025,42.8275,2239.0271],[-0.5101,42.8249,2188.0205],[-0.5139,42.8184,2195.6416],[-0.5241,42.8113,2093.5024],[-0.5254,42.8025,1879.6182],[-0.5231,42.7987,1671.3611],[-0.5297,42.7915,1675.8982],[-0.5373,42.7922,1694.2942],[-0.5444,42.7906,1670.853],[-0.5491,42.7849,1652.302],[-0.551,42.7777,1843.5669],[-0.5529,42.7802,1820.1359],[-0.5537,42.7791,1820.1359],[-0.5677,42.7809,1737.1755],[-0.5702,42.7844,1613.9116],[-0.5704,42.7908,1615.0162],[-0.5657,42.798,1602.3816],[-0.5676,42.8044,1677.7161],[-0.5736,42.8074,1623.4271],[-0.5919,42.8023,1757.4874],[-0.6004,42.8025,1874.3806],[-0.602,42.8256,2007.0144],[-0.6042,42.8281,2105.2642],[-0.6023,42.8301,2129.6958],[-0.6199,42.8379,2070.5205],[-0.6355,42.8526,2084.6748],[-0.6487,42.8551,1991.5955],[-0.6562,42.8588,1958.4569],[-0.662,42.8646,1983.0013],[-0.663,42.871,2054.2673],[-0.6794,42.8829,2050.7612],[-0.6984,42.879,2066.6646],[-0.7121,42.8851,1989.0723],[-0.7175,42.8858,2009.9351],[-0.7236,42.8895,1998.6853],[-0.7251,42.8924,1904.6938],[-0.7278,42.8925,1904.4092],[-0.7277,42.8943,1949.8464],[-0.733,42.898,2095.3474],[-0.732,42.901,2231.3687],[-0.735,42.9117,2180.5652],[-0.7275,42.9193,2385.2422],[-0.7441,42.9192,2274.8237],[-0.7458,42.9219,2245.4558],[-0.7534,42.9245,2136.0295],[-0.7832,42.9217,1688.8188],[-0.7898,42.9186,1689.3248],[-0.789,42.9171,1734.3398],[-0.8011,42.9078,1636.4993],[-0.8191,42.9007,1868.5963],[-0.8204,42.8933,1502.5339],[-0.8192,42.8892,1562.3124],[-0.8136,42.8882,1501.1288],[-0.8162,42.8848,1498.9977],[-0.8163,42.8786,1319.3335],[-0.8147,42.8769,1307.5392],[-0.82,42.8726,1422.2842],[-0.8185,42.8694,1404.5983],[-0.821,42.8675,1376.3619],[-0.8269,42.8671,1272.5074],[-0.8373,42.8615,1609.4043],[-0.8413,42.8529,2027.163],[-0.8568,42.8469,1684.7878],[-0.8572,42.8334,1514.1462],[-0.8547,42.8289,1584.233],[-0.8514,42.8076,1661.8827],[-0.8604,42.8023,1650.1848],[-0.86,42.7986,1572.9347],[-0.8499,42.7922,1477.4155],[-0.8475,42.7859,1472.5864],[-0.8595,42.7688,1140.5966],[-0.8627,42.7691,1162.8031],[-0.8648,42.7634,1190.0994],[-0.8733,42.759,1312.7914],[-0.8892,42.7626,1344.8217],[-0.8947,42.7627,1307.8927],[-0.9005,42.7605,1195.9268],[-0.9011,42.7527,1099.2333],[-0.8994,42.7469,1094.0132],[-0.9011,42.7427,1233.4033],[-0.923,42.744,1129.796],[-0.9247,42.7389,1049.3657],[-0.9358,42.7343,942.4518],[-0.9355,42.7299,983.5316],[-0.9384,42.7252,1043.5281],[-0.9441,42.7219,1041.3118],[-0.9462,42.7141,1051.0011],[-0.9486,42.7115,1036.1572],[-0.9586,42.7117,1009.7014],[-0.9692,42.7037,1149.576],[-0.9791,42.7047,1090.6853],[-0.9838,42.7022,1104.2986],[-1.0015,42.7,1235.5006],[-1.0168,42.7023,626.8461],[-1.0279,42.7001,1217.3022],[-1.0301,42.6965,1263.1793],[-1.029,42.6949,1272.1501],[-1.0392,42.6916,1390.9109],[-1.0368,42.6816,800.0992],[-1.0325,42.6756,683.9892],[-1.0396,42.6642,758.267],[-1.0394,42.6578,888.4714],[-1.0368,42.6516,1165.563],[-1.0382,42.6517,1155.1361],[-1.0386,42.6483,1132.9146],[-1.0532,42.6424,1127.5029],[-1.0694,42.6416,1187.9626],[-1.0874,42.6464,1291.4395],[-1.1204,42.645,1264.072],[-1.1438,42.6482,1302.2432],[-1.1524,42.6476,1260.1047],[-1.1546,42.6416,855.1485],[-1.1543,42.6324,681.9741],[-1.1576,42.6105,480.0],[-1.1613,42.6138,480.0],[-1.1708,42.6171,480.0],[-1.1787,42.6151,480.0],[-1.18,42.6079,676.3889],[-1.1695,42.6051,699.157],[-1.1581,42.5996,813.8217],[-1.1616,42.596,838.6132],[-1.1692,42.5973,775.3711],[-1.1875,42.5868,500.7267],[-1.1978,42.5789,479.9621],[-1.2019,42.5782,504.127],[-1.2043,42.5706,492.5119],[-1.204,42.5585,459.5364],[-1.2009,42.5525,454.4183],[-1.2028,42.5497,449.995],[-1.2067,42.5509,447.9784],[-1.2079,42.5496,445.9843],[-1.2183,42.5492,454.2649],[-1.2261,42.5422,433.6558],[-1.2322,42.5434,440.8923],[-1.2404,42.5486,428.6401],[-1.2561,42.5531,413.4333],[-1.2569,42.5552,413.7912],[-1.2647,42.5568,435.5543],[-1.2881,42.5228,498.6572],[-1.2892,42.5149,554.999],[-1.2934,42.511,594.4437],[-1.2875,42.5086,697.3807],[-1.2867,42.4985,1047.8494],[-1.2822,42.4989,977.1871],[-1.2751,42.4958,1003.3317],[-1.2756,42.4904,923.9258],[-1.2727,42.4824,830.1979],[-1.2818,42.4677,756.0332],[-1.2813,42.4645,731.433],[-1.2898,42.4574,658.6107],[-1.3152,42.4492,548.3851],[-1.3415,42.4239,455.2463],[-1.3429,42.4081,423.7343],[-1.3481,42.401,413.2779],[-1.35,42.3928,404.4243],[-1.3597,42.3784,392.4893],[-1.357,42.3744,393.1487],[-1.3506,42.3701,397.0125],[-1.3418,42.373,404.5514],[-1.3362,42.372,407.2956],[-1.3338,42.3651,409.9129],[-1.3297,42.3613,409.2412],[-1.3326,42.3592,406.0292],[-1.329,42.3554,404.7031],[-1.3374,42.3456,405.3203],[-1.3522,42.3395,403.1867],[-1.3588,42.3335,374.1341],[-1.3751,42.3157,375.6941],[-1.3836,42.3037,391.9734],[-1.399,42.2913,479.6603],[-1.3898,42.2785,415.0109],[-1.3913,42.2721,426.4731],[-1.3955,42.2695,450.5483],[-1.3949,42.2638,469.2976],[-1.3997,42.2564,451.968],[-1.3998,42.2455,427.8513],[-1.4163,42.222,441.2564],[-1.4174,42.2118,445.2592],[-1.4133,42.2022,424.6642],[-1.3952,42.1907,379.3151],[-1.3917,42.1796,366.203],[-1.3942,42.173,357.5769],[-1.394,42.1659,361.0716],[-1.3983,42.1564,357.0294],[-1.3941,42.155,380.3559],[-1.3928,42.1496,387.8331],[-1.3981,42.1358,618.8387],[-1.3999,42.1287,570.8368],[-1.3988,42.1262,572.9752],[-1.3667,42.107,553.45],[-1.3649,42.0926,536.5253],[-1.3594,42.0861,529.0342],[-1.3522,42.0731,626.6078],[-1.3463,42.0711,623.3607],[-1.3291,42.0731,627.4561],[-1.3105,42.0723,644.6229],[-1.3127,42.065,636.4698],[-1.3081,42.062,612.9929],[-1.3081,42.0589,628.848],[-1.3033,42.0518,597.0083],[-1.3081,42.0465,601.1766],[-1.3048,42.043,593.502],[-1.3281,42.028,491.1275],[-1.3395,42.018,442.0664],[-1.341,42.0124,414.0059],[-1.3541,41.9992,326.4675],[-1.3652,41.984,332.0156],[-1.3743,41.962,284.7722],[-1.386,41.957,236.5807],[-1.38,41.9504,238.3627],[-1.3822,41.9433,234.8879],[-1.3969,41.9389,238.6053],[-1.4035,41.9351,241.534],[-1.4022,41.9338,240.9273],[-1.4072,41.9278,247.3532],[-1.4073,41.9241,248.1144],[-1.4107,41.919,252.6824],[-1.4157,41.9169,256.8913],[-1.4182,41.9136,259.9762],[-1.4362,41.9145,264.6405],[-1.4407,41.9164,270.1837],[-1.4532,41.9157,283.3395],[-1.4739,41.9246,284.9911],[-1.5017,41.9243,321.8021],[-1.5061,41.9159,338.0152],[-1.5128,41.9149,342.6847],[-1.5233,41.9099,358.2815],[-1.5583,41.9138,415.8087],[-1.5962,41.9271,384.517],[-1.609,41.9449,391.1905],[-1.6168,41.9515,415.2617],[-1.6439,41.9591,403.4563],[-1.6541,41.9654,412.7883],[-1.6595,41.9622,410.4867],[-1.6581,41.9604,405.7086],[-1.6636,41.96,406.0953],[-1.6645,41.9624,393.5002],[-1.676,41.9665,386.0025],[-1.6769,41.9628,387.3964],[-1.6822,41.9573,392.6638],[-1.6815,41.956,394.98],[-1.6862,41.9535,399.9733],[-1.6932,41.9558,419.2847],[-1.7007,41.9539,422.128],[-1.7044,41.9572,421.2079],[-1.7152,41.957,440.094],[-1.7343,41.9639,456.2987],[-1.7668,41.9958,504.598],[-1.774,41.9955,523.8914],[-1.7853,41.9908,609.9408],[-1.7923,41.9897,630.2713],[-1.8103,41.998,685.8737],[-1.8336,41.9951,735.2466],[-1.8403,42.0042,637.2568],[-1.8471,42.008,559.6203],[-1.847,42.0025,601.6929],[-1.8513,41.9981,698.4196],[-1.844,41.9873,749.1977],[-1.8651,41.9776,604.4016],[-1.8565,41.9664,620.9856],[-1.8547,41.9592,635.0795],[-1.8565,41.946,665.1118],[-1.8549,41.9368,710.528],[-1.8585,41.9325,697.6784],[-1.8572,41.9095,722.8967],[-1.8387,41.889,745.347],[-1.8399,41.8753,694.8225],[-1.8321,41.8633,829.9583],[-1.8225,41.8654,790.5591],[-1.8202,41.8624,739.0758],[-1.8175,41.8534,814.5151],[-1.8203,41.8506,859.9607],[-1.8208,41.847,898.2296],[-1.8185,41.83,983.3869],[-1.8254,41.819,1079.8599],[-1.8338,41.8148,1177.2272],[-1.8437,41.806,1382.1313],[-1.8529,41.7896,1937.9131],[-1.8395,41.7871,2280.3779],[-1.8253,41.7784,2229.6313],[-1.8249,41.7736,2137.3247],[-1.8211,41.7661,2222.0793],[-1.8026,41.7512,1901.7893],[-1.8092,41.7367,1823.0994],[-1.7979,41.7326,1659.7954],[-1.7877,41.7341,1665.7582],[-1.7843,41.7285,1609.842],[-1.7753,41.7248,1489.7031],[-1.7849,41.717,1535.6804],[-1.7881,41.7028,1362.0431],[-1.7868,41.6994,1277.5078],[-1.7938,41.6977,1136.2727],[-1.7948,41.699,1244.5706],[-1.8016,41.6962,1141.3702],[-1.812,41.6865,1621.0353],[-1.809,41.6847,1603.9077],[-1.8062,41.6643,1447.5492],[-1.8131,41.6606,1481.1987],[-1.8291,41.6626,1391.3092],[-1.8345,41.6607,1371.1953],[-1.8589,41.6615,1217.3699],[-1.8739,41.638,1298.829],[-1.8788,41.6411,1274.5815],[-1.8978,41.6324,1202.3125],[-1.9003,41.6264,1192.3754],[-1.9135,41.6163,1171.2605],[-1.9141,41.6087,1097.3992],[-1.9183,41.6066,1077.1189],[-1.923,41.5983,1103.9771],[-1.958,41.6049,1001.5886],[-1.9692,41.6056,1095.6069],[-1.9759,41.6029,1262.1462],[-1.9844,41.6071,1179.2844],[-1.9933,41.6001,1113.5942],[-1.9919,41.5904,1092.699],[-1.995,41.5817,1066.4443],[-1.9936,41.5771,1073.2205],[-1.9806,41.5647,1089.0996],[-1.9818,41.562,1097.618],[-1.9767,41.5574,1116.2413],[-1.9735,41.558,1120.7408],[-1.9686,41.5508,1125.3668],[-1.9704,41.5487,1118.5013],[-1.9673,41.5461,1124.8118],[-1.973,41.5342,1020.776],[-1.9719,41.5328,1003.1986],[-1.9781,41.5267,938.5848],[-1.9749,41.5161,937.5419],[-1.9787,41.5041,978.3538],[-1.9766,41.4967,992.5067],[-1.981,41.4864,968.8804],[-1.9699,41.4815,955.3693],[-1.9532,41.4625,937.5728],[-1.9514,41.456,928.3732],[-1.9523,41.4455,922.1766],[-1.9487,41.4358,919.3429],[-1.9487,41.4296,924.6696],[-1.9536,41.4243,933.1343],[-1.9422,41.4199,899.0414],[-1.9365,41.4199,904.6124],[-1.9399,41.417,882.3732],[-1.9391,41.4127,881.6837],[-1.9372,41.4116,916.9222],[-1.9378,41.4074,865.4326],[-1.9527,41.4075,919.0889],[-1.9536,41.4086,919.0889],[-1.9625,41.4034,947.9486],[-1.9705,41.401,962.117],[-1.9818,41.4023,966.2296],[-1.9873,41.3959,982.0122],[-1.9918,41.3956,878.99],[-1.9934,41.3972,799.5842],[-1.9936,41.3954,798.0062],[-2.0019,41.3938,822.7295],[-2.0096,41.3858,907.6901],[-2.0166,41.385,895.943],[-2.0164,41.3836,891.2225],[-2.0292,41.3842,926.6348],[-2.0382,41.3893,997.1202],[-2.0423,41.389,1005.2268],[-2.0435,41.3972,989.0057],[-2.0347,41.4044,926.7917],[-2.0356,41.4269,956.0831],[-2.047,41.4343,962.4974],[-2.1015,41.4458,913.2411],[-2.1036,41.4396,897.4112],[-2.1117,41.4342,888.7065],[-2.1167,41.425,913.9521],[-2.116,41.4087,914.2447],[-2.1182,41.3962,892.654],[-2.1205,41.3943,880.2216],[-2.1194,41.3903,901.1814],[-2.1206,41.39,893.0811],[-2.1194,41.3843,932.8584],[-2.116,41.3821,938.976],[-2.1201,41.3797,938.6738],[-2.1257,41.3696,896.0618],[-2.1316,41.3684,868.3303],[-2.1498,41.3559,790.313],[-2.156,41.3569,774.4669],[-2.1631,41.3554,769.1426],[-2.1624,41.3479,770.6995],[-2.1566,41.3374,758.0631],[-2.1579,41.3316,785.7618],[-2.1643,41.3287,788.9845],[-2.1704,41.3188,828.3761],[-2.1673,41.3112,807.7866],[-2.169,41.3011,770.5094],[-2.1729,41.2958,811.8961],[-2.1736,41.2881,779.9474],[-2.1634,41.2832,819.2241],[-2.1586,41.2649,831.978],[-2.1548,41.2404,856.9147],[-2.1489,41.2188,910.8855],[-2.1462,41.1844,924.8831],[-2.1067,41.1752,965.5002],[-2.0798,41.171,1113.6803],[-2.0773,41.1631,1091.5464],[-2.0516,41.1469,1098.5841],[-2.0476,41.1527,1122.1615],[-2.0383,41.1551,1144.4507],[-2.0084,41.1564,1063.9758],[-1.9877,41.1612,995.3223],[-1.9827,41.1651,985.8748],[-1.959,41.1725,947.6259],[-1.9483,41.1669,937.0395],[-1.9477,41.1615,972.017],[-1.9391,41.1525,961.1116],[-1.9391,41.1474,961.9556],[-1.9324,41.1386,979.569],[-1.9216,41.1343,1024.6244],[-1.9057,41.1341,1029.0773],[-1.9009,41.1355,982.4689],[-1.8905,41.1333,990.9912],[-1.879,41.1238,1006.0588],[-1.8692,41.1079,1097.4878],[-1.8556,41.1025,1135.8726],[-1.8352,41.0992,1074.8198],[-1.8254,41.0949,1069.9231],[-1.8164,41.0953,1056.6227],[-1.814,41.093,1073.4688],[-1.8025,41.0892,1024.674],[-1.796,41.0801,1054.8604],[-1.7907,41.0759,1091.3578],[-1.7711,41.0666,1058.4584],[-1.7577,41.0551,1011.1666],[-1.7569,41.0527,1012.662],[-1.7593,41.052,1028.7537],[-1.7593,41.0482,1031.5099],[-1.7485,41.0413,1175.2983],[-1.7471,41.0339,1166.7563],[-1.7376,41.0313,1148.6385],[-1.7147,41.0121,1142.2437],[-1.6918,40.9956,1100.8601],[-1.6792,40.9893,1070.7056],[-1.6747,40.984,1073.1664],[-1.6664,40.9817,1090.1973],[-1.661,40.9783,1096.897],[-1.657,40.9694,1113.8663],[-1.654,40.969,1112.8699],[-1.6349,40.9527,1114.6204],[-1.6174,40.9437,1118.26],[-1.6118,40.9376,1120.2607],[-1.6078,40.9276,1138.0145],[-1.6104,40.9168,1127.2898],[-1.6156,40.9082,1136.8594],[-1.6259,40.8987,1152.6306],[-1.6202,40.8795,1154.2825],[-1.6034,40.8598,1162.8887],[-1.5963,40.8539,1171.4738],[-1.5936,40.8533,1178.0789],[-1.5887,40.845,1194.7542],[-1.5704,40.8301,1204.7621],[-1.5636,40.8315,1186.4841],[-1.5567,40.8288,1138.89],[-1.5539,40.8267,1161.3928],[-1.5533,40.8235,1170.9712],[-1.5446,40.8162,1161.7194],[-1.5423,40.8112,1154.083],[-1.5392,40.7927,1203.6328],[-1.5409,40.7851,1209.8431],[-1.5393,40.7808,1173.5736],[-1.5421,40.7771,1156.5336],[-1.5429,40.7684,1245.7883],[-1.5398,40.7607,1254.7266],[-1.5552,40.7501,1229.3563],[-1.562,40.7398,1432.7422],[-1.5588,40.7193,1479.8246],[-1.5541,40.7156,1520.2141],[-1.5533,40.7059,1506.9561],[-1.5434,40.6972,1517.3342],[-1.5356,40.687,1567.5237],[-1.5403,40.681399999999996,1566.5653],[-1.5389,40.6581,1363.015],[-1.5519,40.6431,1352.9528],[-1.5547,40.6304,1395.2438],[-1.5648,40.6148,1436.9309],[-1.5553,40.6072,1458.553],[-1.5549,40.6048,1470.7971],[-1.5454,40.5952,1501.1195],[-1.5496,40.5931,1474.4763],[-1.5556,40.586,1435.6584],[-1.5828,40.5695,1470.5936],[-1.5871,40.5694,1462.8931],[-1.5987,40.5621,1470.5293],[-1.6296,40.5761,1487.4021],[-1.6342,40.5798,1383.6003],[-1.6664,40.5821,1647.5645],[-1.6743,40.5922,1724.661],[-1.678,40.591,1699.4548],[-1.6858,40.5799,1711.5004],[-1.6932,40.5777,1767.7657],[-1.6896,40.5665,1701.4641],[-1.7018,40.5382,1698.7588],[-1.6955,40.5114,1748.5952],[-1.6951,40.4937,1602.296],[-1.6924,40.4868,1653.7434],[-1.7338,40.4725,1564.5105],[-1.7485,40.4629,1542.3096],[-1.7652,40.4433,1619.1628],[-1.7696,40.4349,1590.7588],[-1.7764,40.4305,1639.5731],[-1.7854,40.4132,1772.8071],[-1.7933,40.4179,1707.7197],[-1.7967,40.4178,1709.1194],[-1.8006,40.4142,1705.4905],[-1.8044,40.404,1692.9098],[-1.8038,40.4007,1603.002],[-1.8063,40.3983,1509.7502],[-1.7894,40.3974,1527.2368],[-1.7897,40.3921,1530.4294],[-1.7784,40.3921,1536.3314],[-1.7754,40.3875,1521.8346],[-1.7739,40.3882,1524.0555],[-1.7672,40.3824,1523.7832],[-1.7644,40.3755,1527.7838],[-1.7598,40.3725,1525.884],[-1.7535,40.364,1530.611],[-1.7532,40.3609,1529.4419],[-1.7506,40.3612,1534.6573],[-1.7422,40.3528,1534.1587],[-1.7412,40.3496,1536.7759],[-1.7361,40.3491,1546.197],[-1.7347,40.3469,1545.332],[-1.7203,40.3409,1576.6724],[-1.7075,40.3267,1565.2496],[-1.6976,40.3213,1574.6252],[-1.6972,40.3166,1597.5146],[-1.7068,40.3136,1658.854],[-1.7201,40.3185,1697.8578],[-1.7205,40.3133,1723.5839],[-1.7231,40.3119,1724.5613],[-1.7292,40.3032,1694.2524],[-1.7269,40.2883,1675.6179],[-1.7192,40.2771,1531.8262],[-1.7142,40.2768,1540.9359],[-1.71,40.2807,1650.9519],[-1.7105,40.2921,1694.5465],[-1.7003,40.3071,1661.9115],[-1.6903,40.3097,1679.8575],[-1.6798,40.3008,1682.7976],[-1.6655,40.2946,1729.3569],[-1.6591,40.2824,1686.1091],[-1.647,40.2743,1688.5598],[-1.6391,40.2659,1588.6541],[-1.6323,40.2617,1586.0516],[-1.6178,40.2486,1532.0809],[-1.6086,40.2428,1502.766],[-1.6037,40.243,1507.2737],[-1.5925,40.2363,1504.3079],[-1.5702,40.2136,1393.6025],[-1.5404,40.1908,1261.5128],[-1.5305,40.1936,1381.2832],[-1.5211,40.2022,1377.8333],[-1.5108,40.2037,1409.8373],[-1.4744,40.1851,1599.9209],[-1.4391,40.197,1475.5431],[-1.4423,40.1576,1482.8534],[-1.4488,40.1454,1548.2666],[-1.4333,40.1395,1516.8693],[-1.4297,40.1394,1499.629],[-1.4223,40.1424,1323.2025],[-1.4045,40.1392,1222.4829],[-1.3935,40.1344,1090.5714],[-1.3768,40.1403,1043.5732],[-1.3636,40.1386,1008.6165],[-1.3643,40.1327,1068.6707],[-1.3617,40.1297,1132.6699],[-1.357,40.1289,1124.592],[-1.336,40.1422,1122.8785],[-1.3197,40.1464,893.2531],[-1.3165,40.1497,948.6905],[-1.3194,40.1562,1084.5116],[-1.3172,40.1641,1123.6108],[-1.3225,40.1717,1179.3794],[-1.3229,40.1849,1183.5125],[-1.3149,40.2014,1161.1832],[-1.3109,40.2039,1154.0825],[-1.302,40.2058,1167.2644],[-1.2969,40.2099,1245.0869],[-1.2982,40.2117,1264.1221],[-1.293,40.2069,1252.5546],[-1.2967,40.1993,1192.9495],[-1.2869,40.1819,1134.9529],[-1.2843,40.1715,1068.0486],[-1.2764,40.1669,978.6786],[-1.2765,40.1622,983.3912],[-1.2524,40.1433,871.5021],[-1.2454,40.1471,764.4849],[-1.2442,40.146,756.4302],[-1.2472,40.1402,754.205],[-1.2461,40.1386,757.8187],[-1.2488,40.135,751.9829],[-1.2461,40.1272,749.731],[-1.2506,40.1239,745.9163],[-1.2449,40.1162,760.7007],[-1.2363,40.1134,792.3658],[-1.2207,40.1155,833.9224],[-1.2072,40.1102,840.7015],[-1.1927,40.1106,868.359],[-1.1655,40.1149,912.3553],[-1.1497,40.1148,945.8719],[-1.1473,40.114,945.8883],[-1.1439,40.1086,1006.5776],[-1.1356,40.1041,1023.746],[-1.1334,40.0974,1089.86],[-1.1223,40.0955,1208.1071],[-1.1178,40.0929,1280.4482],[-1.1118,40.0928,1378.5895],[-1.078,40.0688,1710.9188],[-1.0796,40.0678,1705.7421],[-1.0721,40.0605,1767.0],[-1.0717,40.0511,1776.733],[-1.079,40.0447,1760.3508],[-1.0842,40.0362,1690.5508],[-1.0978,40.0327,1500.0344],[-1.1097,40.0253,1485.5228],[-1.1158,40.024,1457.193],[-1.1361,40.0151,1343.3524],[-1.1462,40.0168,1309.0127],[-1.1534,40.0126,1402.3062],[-1.1651,40.0101,1463.921],[-1.1634,40.0002,1181.3278],[-1.1473,39.9886,1152.833],[-1.1423,39.9719,869.287],[-1.1302,39.9703,887.7593],[-1.1284,39.9629,983.6226],[-1.1217,39.9609,1025.6741],[-1.1238,39.966,1145.9984],[-1.1191,39.9682,1141.9597],[-1.1162,39.9721,1075.252],[-1.1127,39.9732,1036.4127],[-1.1098,39.969,970.9925],[-1.107,39.9706,1037.312],[-1.1078,39.9719,1037.312],[-1.105,39.975,1082.6177],[-1.0921,39.9678,1072.4586],[-1.0845,39.9719,1100.7372],[-1.0869,39.9732,1109.8125],[-1.0859,39.9764,1118.4219],[-1.0715,39.9797,1273.3268],[-1.0564,39.9804,1409.9431],[-1.0252,39.9746,1419.3472],[-1.0025,39.9819,1501.1373],[-0.999,39.9802,1482.5938],[-0.9913,39.9819,1493.7064],[-0.9762,39.9758,1512.3812],[-0.9684,39.9745,1522.6938],[-0.9521,39.967,1510.267],[-0.9491,39.9673,1487.5984],[-0.9445,39.9629,1492.5789],[-0.9347,39.9599,1499.0773],[-0.9318,39.9561,1514.0044],[-0.9245,39.9593,1411.1381],[-0.9204,39.9644,1369.4042],[-0.9157,39.9579,1348.3159],[-0.9171,39.9549,1357.9661],[-0.906,39.944,1363.9421],[-0.9026,39.9319,1258.1576],[-0.9034,39.9262,1243.0015],[-0.9075,39.928,1323.0278],[-0.9138,39.918,1413.182],[-0.9075,39.9005,1217.2058],[-0.9096,39.8986,1167.4401],[-0.9029,39.8971,1163.76],[-0.9002,39.8919,1087.1564],[-0.9036,39.8879,1067.542],[-0.9081,39.8861,1057.5541],[-0.9125,39.8724,1020.9205],[-0.9077,39.8657,1059.3208],[-0.8885,39.8521,1247.2607],[-0.8792,39.8523,1163.3291],[-0.874,39.8484,1162.0023],[-0.8701,39.8489,1109.1155],[-0.8674,39.8468,1102.5703],[-0.858,39.8505,997.8429],[-0.8564,39.8555,1057.2317],[-0.8493,39.857,1016.7696],[-0.839,39.8625,1118.6805],[-0.8291,39.8709,1348.7068],[-0.8149,39.8735,1423.5759],[-0.7976,39.8811,1475.6851],[-0.7975,39.8833,1439.783],[-0.8015,39.8847,1527.7629],[-0.8045,39.8921,1558.4091],[-0.8127,39.898,1553.2976],[-0.8169,39.8986,1545.3063]]]]}
,"properties": {"GID_1": "ESP.2_1","GID_0": "ESP","country": "Spain","province": "Aragón","VARNAME_1": "Aragão|Aragó|Aragón|Aragona|Arag","NL_NAME_1": "NA","TYPE_1": "ComunidadAutónoma","ENGTYPE_1": "AutonomousCommunity","CC_1": "15","HASC_1": "ES.AR","ISO_1": "NA","name": "Aragón.province","area_km2": 47671.62,"hist_schema_id": "Elevation0-9000","hist_area_km2": {"75": 21.09,"100": 31.8,"125": 193.58,"150": 325.86,"175": 484.67,"200": 642.14,"225": 926.44,"250": 988.9,"275": 1171.02,"300": 1297.84,"325": 1418.77,"350": 1550.8,"375": 1464.93,"400": 1362.42,"425": 1346.0,"450": 1170.08,"475": 1075.53,"500": 964.33,"525": 911.94,"550": 880.15,"575": 844.5,"600": 820.18,"625": 789.83,"650": 801.01,"675": 829.91,"700": 850.78,"725": 864.5,"750": 844.83,"775": 827.03,"800": 817.52,"825": 798.59,"850": 784.61,"875": 769.89,"900": 797.78,"925": 828.12,"950": 864.11,"975": 829.96,"1000": 929.12,"1025": 900.78,"1050": 813.3,"1075": 761.02,"1100": 712.4,"1125": 658.87,"1150": 630.31,"1175": 638.03,"1200": 641.34,"1225": 574.51,"1250": 540.56,"1275": 515.2,"1300": 483.29,"1325": 453.06,"1350": 440.2,"1375": 437.27,"1400": 428.8,"1425": 396.79,"1450": 369.39,"1475": 336.95,"1500": 290.1,"1525": 270.64,"1550": 245.03,"1575": 222.72,"1600": 203.74,"1625": 194.65,"1650": 171.84,"1675": 164.7,"1700": 140.89,"1725": 126.81,"1750": 112.88,"1775": 106.52,"1800": 100.31,"1825": 93.35,"1850": 76.71,"1875": 69.2,"1900": 67.21,"1925": 61.2,"1950": 56.36,"1975": 52.58,"2000": 48.69,"2025": 47.35,"2050": 44.93,"2075": 44.51,"2100": 40.63,"2125": 42.27,"2150": 40.96,"2175": 40.55,"2200": 37.94,"2225": 38.96,"2250": 37.98,"2275": 34.85,"2300": 35.27,"2325": 33.68,"2350": 32.88,"2375": 30.88,"2400": 28.76,"2425": 29.51,"2450": 28.09,"2475": 27.16,"2500": 24.66,"2525": 24.51,"2550": 21.65,"2575": 20.41,"2600": 18.07,"2625": 16.46,"2650": 14.4,"2675": 13.17,"2700": 12.38,"2725": 10.16,"2750": 9.76,"2775": 8.81,"2800": 7.19,"2825": 6.39,"2850": 5.6,"2875": 4.75,"2900": 4.4,"2925": 3.57,"2950": 3.16,"2975": 2.96,"3000": 2.4,"3025": 2.15,"3050": 1.57,"3075": 1.33,"3100": 1.26,"3125": 0.92,"3150": 0.92,"3175": 0.92,"3200": 0.67,"3225": 0.39}}}