{"type":"Feature","properties":{"GID_3":"ESP.10.2.4_1","GID_0":"ESP","country":"Spain","GID_1":"ESP.10_1","province":"ComunidadValenciana","NL_NAME_1":"NA","GID_2":"ESP.10.2_1","county":"Castellón","NL_NAME_2":"NA","city":"AltaMaestrat","VARNAME_3":"NA","NL_NAME_3":"NA","TYPE_3":"Comarca","ENGTYPE_3":"Comarca","CC_3":"NA","HASC_3":"NA","name":"Alta_Maestrat.city"},
"geometry":{"type": "MultiPolygon","coordinates": [[[[-0.1189,40.2473,455.0032],[-0.1221,40.2428,481.4054],[-0.113,40.2386,379.9616],[-0.1103,40.2341,339.8509],[-0.1049,40.2326,322.2682],[-0.1035,40.2391,318.5536],[-0.0995,40.2404,318.3405],[-0.0945,40.2368,320.4533],[-0.094,40.2281,307.7778],[-0.0983,40.2244,316.5972],[-0.0973,40.2224,306.2157],[-0.0854,40.22,296.8466],[-0.0847,40.2257,305.5038],[-0.0814,40.2263,307.3372],[-0.0773,40.2399,326.5446],[-0.0755,40.2534,346.1101],[-0.0813,40.2563,363.7267],[-0.0817,40.2609,370.8033],[-0.0704,40.2646,378.4998],[-0.0687,40.268,381.9261],[-0.0707,40.2704,383.972],[-0.069,40.2745,397.4005],[-0.0653,40.2746,396.6875],[-0.0683,40.2788,405.3533],[-0.0572,40.2849,413.8116],[-0.0558,40.299,440.7689],[-0.0485,40.3021,446.7699],[-0.0447,40.3145,463.0306],[-0.0398,40.3147,467.3391],[-0.0335,40.322,498.5333],[-0.0312,40.3178,536.819],[0.0066,40.318,883.9554],[0.023,40.3214,906.7709],[0.0394,40.3358,807.1304],[0.0494,40.3408,733.3263],[0.0816,40.3753,528.5231],[0.0862,40.3942,435.3716],[0.0852,40.3972,493.184],[0.0873,40.3984,487.9987],[0.0868,40.4022,512.6125],[0.0906,40.4083,585.5161],[0.1005,40.4183,583.6304],[0.0973,40.4219,588.0736],[0.1033,40.4237,574.9147],[0.1024,40.4285,616.3065],[0.108,40.429,545.4776],[0.1084,40.4392,438.8972],[0.1144,40.443,407.7703],[0.113,40.4444,394.9225],[0.1153,40.4481,398.2194],[0.1126,40.4501,408.0708],[0.0998,40.4522,464.6636],[0.0976,40.4534,474.748],[0.0963,40.4588,537.4214],[0.0923,40.4597,512.7777],[0.0936,40.4613,527.873],[0.092,40.4632,532.63],[0.0914,40.4724,623.4086],[0.0938,40.4785,703.3351],[0.0819,40.5016,623.1171],[0.0797,40.5028,665.2718],[0.0858,40.5149,640.1044],[0.0911,40.5196,518.1886],[0.0921,40.5249,586.9551],[0.0938,40.5256,575.8968],[0.0925,40.5289,680.7058],[0.0958,40.5362,847.6204],[0.0988,40.5373,851.387],[0.0984,40.5412,924.9977],[0.0951,40.5474,965.33989999999994],[0.0864,40.5494,1003.1409],[0.0832,40.5486,996.4846],[0.0761,40.542,934.8101],[0.0725,40.5353,918.6543],[0.0641,40.5302,642.694],[0.0608,40.5297,621.6],[0.0604,40.5321,614.9703],[0.0491,40.5327,860.3724],[0.0427,40.5314,911.6316],[0.0359,40.5336,925.1958],[0.03,40.5313,1005.1342],[0.0205,40.5313,886.8677],[0.0156,40.5335,891.3528],[0.0045,40.5317,1000.7224],[0.0092,40.5282,974.2983],[0.0042,40.5162,705.5721],[-0.0004,40.5138,712.0342],[-0.0033,40.5142,745.5638],[-0.0047,40.5103,771.2182],[-0.008,40.5112,738.2275],[-0.0104,40.4992,1026.4915],[-0.0187,40.4855,1134.4437],[-0.0235,40.483,1087.7507],[-0.0284,40.4769,1127.9774],[-0.0301,40.4722,1175.2581],[-0.0288,40.4701,1246.8302],[-0.0331,40.4654,1218.0693],[-0.0368,40.4569,1159.376],[-0.0405,40.4545,1122.8141],[-0.0368,40.4318,1003.5152],[-0.04,40.431399999999996,1022.0261],[-0.0403,40.4301,1006.3701],[-0.0393,40.4145,782.5935],[-0.0428,40.4138,730.4161],[-0.0524,40.4353,810.6411],[-0.0567,40.4403,908.6349],[-0.0555,40.4461,905.1776],[-0.058,40.4513,964.1885],[-0.0552,40.4581,1045.0193],[-0.0619,40.4657,1144.8892],[-0.0641,40.473,1099.606],[-0.068,40.4772,1078.7294],[-0.0752,40.4813,1088.6954],[-0.0751,40.4842,1057.7737],[-0.0733,40.4853,1057.7737],[-0.0739,40.4893,1044.7771],[-0.0759,40.4891,1040.8835],[-0.0761,40.4914,1034.3301],[-0.0788,40.4918,1037.5229],[-0.0839,40.5004,1067.9279],[-0.0861,40.5087,1166.2312],[-0.0936,40.5105,1068.0974],[-0.1017,40.5095,1070.9583],[-0.1104,40.5116,1067.7344],[-0.1241,40.5046,1064.1882],[-0.129,40.5096,1054.2067],[-0.1344,40.5085,1053.1985],[-0.1645,40.4814,1223.6899],[-0.1667,40.4761,1055.2959],[-0.1744,40.4675,1146.6569],[-0.1986,40.4663,1258.5725],[-0.2127,40.4635,1231.5209],[-0.2201,40.4669,1246.5189],[-0.2553,40.4737,1055.4596],[-0.2565,40.4744,1094.0178],[-0.254,40.4775,1094.3989],[-0.2579,40.4767,1062.4552],[-0.2579,40.4789,1079.4839],[-0.2626,40.478,1061.01],[-0.2608,40.4748,1080.8192],[-0.2665,40.4737,1077.3785],[-0.2683,40.4745,1068.3186],[-0.2682,40.4779,1081.5347],[-0.2714,40.4785,1065.2733],[-0.2728,40.4737,1085.1646],[-0.2764,40.4758,1105.1915],[-0.2785,40.4754,1075.3546],[-0.2801,40.4724,1079.2175],[-0.281,40.4739,1093.7317],[-0.2832,40.4732,1110.5574],[-0.2857,40.4701,1114.2537],[-0.2873,40.4724,1118.3252],[-0.2903,40.4706,1101.0579],[-0.2954,40.4704,1132.1667],[-0.2934,40.466,1122.2909],[-0.3085,40.4658,1132.5541],[-0.3225,40.4601,1133.2921],[-0.3326,40.4591,1157.0172],[-0.337,40.4566,1151.2411],[-0.339,40.4534,1167.2092],[-0.3388,40.4489,1166.2244],[-0.3428,40.4466,1160.2661],[-0.3426,40.4435,1191.1852],[-0.3473,40.444,1234.5847],[-0.3411,40.4382,1367.6571],[-0.3328,40.4256,1584.5038],[-0.3279,40.4217,1598.4818],[-0.3166,40.4172,1377.4272],[-0.3072,40.4092,1311.1049],[-0.3013,40.3976,1154.1147],[-0.2959,40.3954,1121.1626],[-0.2852,40.3863,998.7495],[-0.2807,40.3769,903.3573],[-0.2816,40.3734,822.2542],[-0.28,40.3695,796.3109],[-0.276,40.3672,777.2145],[-0.2739,40.3719,783.141],[-0.2714,40.3721,847.386],[-0.2715,40.3695,755.0939],[-0.261,40.3677,735.6249],[-0.2557,40.3732,726.3802],[-0.2519,40.3724,721.7778],[-0.2523,40.3755,764.6331],[-0.2497,40.3735,740.0515],[-0.2486,40.3757,759.5139],[-0.2452,40.3733,723.0253],[-0.2436,40.375,711.3991],[-0.2403,40.3735,713.2883],[-0.2373,40.3746,702.0277],[-0.2327,40.3725,683.0687],[-0.234,40.3707,698.7476],[-0.2278,40.3707,664.5583],[-0.2276,40.3729,685.1672],[-0.2221,40.3712,663.334],[-0.2232,40.3691,654.8127],[-0.2173,40.3683,641.3863],[-0.2164,40.3648,635.5641],[-0.2128,40.3655,687.9102],[-0.2147,40.3615,633.9829],[-0.217,40.3622,649.41],[-0.2145,40.3603,643.056],[-0.2198,40.3613,631.6576],[-0.219,40.3588,645.9253],[-0.2144,40.3576,625.3046],[-0.2129,40.3524,648.3572],[-0.2048,40.3535,607.7869],[-0.2031,40.3511,590.4551],[-0.2043,40.3478,620.8832],[-0.2092,40.3451,613.8568],[-0.2062,40.344,570.6144],[-0.2034,40.346,581.6978],[-0.203,40.3433,578.5438],[-0.2064,40.3401,606.5828],[-0.2033,40.3392,579.2513],[-0.203,40.3378,568.81],[-0.1995,40.3385,558.0117],[-0.1993,40.3369,552.2972],[-0.1975,40.3372,576.6821],[-0.1988,40.3352,555.3716],[-0.2031,40.336,553.9814],[-0.2022,40.3339,552.715],[-0.2056,40.3322,577.7319],[-0.2067,40.33,548.0711],[-0.2042,40.3303,584.8315],[-0.2094,40.3227,523.3773],[-0.2042,40.3221,559.4365],[-0.2061,40.316,520.3531],[-0.201,40.3175,521.5206],[-0.203,40.3119,513.8832],[-0.1983,40.3125,499.0059],[-0.1978,40.3092,487.0265],[-0.1947,40.3091,490.3507],[-0.194,40.3076,535.0866],[-0.1983,40.3072,489.0874],[-0.1953,40.3042,475.6752],[-0.1971,40.3006,490.5825],[-0.1933,40.3002,477.5362],[-0.196,40.2954,514.3531],[-0.1931,40.2941,468.0328],[-0.1956,40.2883,495.8409],[-0.1915,40.2868,465.2913],[-0.1888,40.288,448.0119],[-0.189,40.2896,453.1466],[-0.1866,40.2896,444.7755],[-0.1872,40.2866,481.2456],[-0.1848,40.2841,441.259],[-0.1812,40.2866,432.3869],[-0.1813,40.2886,429.8378],[-0.1732,40.2812,433.3738],[-0.1717,40.2843,428.5171],[-0.1684,40.2834,431.5725],[-0.169,40.2803,473.5397],[-0.1721,40.2776,432.7174],[-0.1698,40.2773,400.7798],[-0.1711,40.2747,407.1089],[-0.1685,40.2735,413.0819],[-0.1703,40.2706,441.6303],[-0.1697,40.2656,412.764],[-0.1624,40.2614,384.2422],[-0.1621,40.2576,411.4774],[-0.1596,40.257,417.3451],[-0.1607,40.2662,517.4738],[-0.1561,40.2739,546.5924],[-0.1418,40.2809,637.7198],[-0.1388,40.2851,668.961],[-0.1107,40.2742,547.9164],[-0.1133,40.2699,604.7054],[-0.1111,40.2617,643.9398],[-0.1187,40.2517,507.5876],[-0.1189,40.2473,455.0032]]]]}}