{"type":"Feature","properties":{"GID_3":"ESP.1.3.8_1","GID_0":"ESP","country":"Spain","GID_1":"ESP.1_1","province":"Andalucía","NL_NAME_1":"NA","GID_2":"ESP.1.3_1","county":"Córdoba","NL_NAME_2":"NA","city":"n.a.(92)","VARNAME_3":"NA","NL_NAME_3":"NA","TYPE_3":"Comarca","ENGTYPE_3":"Comarca","CC_3":"NA","HASC_3":"NA","name":"n.a.(92).city"},
"geometry":{"type": "MultiPolygon","coordinates": [[[[-4.2351,37.312,630.7596],[-4.239,37.3277,915.1992],[-4.2363,37.3359,842.6148],[-4.2284,37.3374,870.3933],[-4.2092,37.3525,850.0677],[-4.2039,37.3529,747.4218],[-4.1947,37.3505,678.6177],[-4.173,37.3487,698.8001],[-4.1618,37.342,665.9067],[-4.158,37.3422,682.3202],[-4.1544,37.3459,694.7555],[-4.1456,37.3617,743.8365],[-4.1301,37.3731,897.7051],[-4.1271,37.3783,883.7501],[-4.1199,37.3825,888.4749],[-4.1079,37.3862,821.9919],[-4.1022,37.3902,811.6543],[-4.1025,37.3939,816.282],[-4.0991,37.3954,804.4009],[-4.0981,37.4002,808.6697],[-4.0858,37.4038,905.885],[-4.0722,37.4024,854.0807],[-4.067,37.4046,823.9406],[-4.0527,37.4027,855.0803],[-4.0362,37.4061,896.8496],[-4.0267,37.4055,919.3654],[-4.0176,37.4014,931.2292],[-4.0007,37.4021,971.5354],[-4.0135,37.4164,1025.7881],[-4.0188,37.4198,952.7681],[-4.0217,37.4274,909.5983],[-4.0273,37.4344,845.1068],[-4.0289,37.4422,746.9399],[-4.0317,37.4425,721.2385],[-4.0309,37.4433,721.2385],[-4.0404,37.4588,592.3689],[-4.0446,37.4619,616.0854],[-4.048,37.468,569.7992],[-4.06,37.472,552.5208],[-4.0674,37.4717,544.8704],[-4.0726,37.4734,536.593],[-4.0814,37.4805,514.9912],[-4.0827,37.4838,519.144],[-4.0872,37.486,499.1337],[-4.0831,37.4897,533.5469],[-4.0743,37.4931,606.2418],[-4.0727,37.4964,630.0045],[-4.0597,37.5055,678.5783],[-4.0629,37.5074,655.623],[-4.0795,37.5093,522.3438],[-4.0853,37.5136,493.8507],[-4.095,37.51,451.2934],[-4.0956,37.5116,459.6176],[-4.0979,37.5116,447.8021],[-4.0991,37.5147,448.4146],[-4.0966,37.517,456.0322],[-4.099,37.5223,437.2836],[-4.0974,37.5277,467.77],[-4.1051,37.5341,421.99],[-4.1067,37.5324,422.9374],[-4.1091,37.5333,452.9308],[-4.1106,37.5375,414.3451],[-4.1135,37.54,414.0309],[-4.114,37.547,408.304],[-4.1165,37.5483,412.9479],[-4.1222,37.5469,416.2676],[-4.1225,37.5516,400.4258],[-4.12,37.5532,414.8536],[-4.1226,37.5549,410.7697],[-4.1253,37.5541,403.7053],[-4.1303,37.5586,404.863],[-4.1335,37.5583,434.4537],[-4.1366,37.5623,385.7777],[-4.1395,37.5604,397.1744],[-4.1453,37.5633,378.5632],[-4.1463,37.5666,379.2155],[-4.1445,37.5691,376.2371],[-4.1477,37.5706,387.442],[-4.1493,37.5676,396.0098],[-4.1499,37.5744,375.7916],[-4.1599,37.5745,367.0315],[-4.161,37.5761,372.7443],[-4.1577,37.5799,368.4085],[-4.1622,37.5822,396.5111],[-4.1602,37.5849,362.9022],[-4.1616,37.5893,367.6047],[-4.1689,37.5872,362.0306],[-4.1703,37.5888,397.6451],[-4.1663,37.5958,357.5787],[-4.1626,37.5979,360.5853],[-4.163,37.5993,376.8427],[-4.1737,37.6101,356.0],[-4.1761,37.6104,361.686],[-4.1812,37.6147,356.0],[-4.1875,37.6166,356.0],[-4.1946,37.6154,363.6101],[-4.1952,37.6121,356.0],[-4.1976,37.6117,364.2836],[-4.2017,37.6154,356.0],[-4.2057,37.613,356.0],[-4.206,37.611,356.0],[-4.2083,37.6108,356.0],[-4.2108,37.6162,359.9651],[-4.2196,37.62,356.0],[-4.2211,37.6225,356.0],[-4.2181,37.6266,356.0],[-4.2244,37.6264,387.311],[-4.2356,37.6196,479.1805],[-4.2482,37.6157,503.0293],[-4.2508,37.6095,576.1448],[-4.2573,37.6054,592.7511],[-4.2639,37.6045,588.2165],[-4.2932,37.5924,471.3561],[-4.2972,37.5878,436.9179],[-4.2995,37.5816,475.1271],[-4.3103,37.574,470.6099],[-4.3427,37.5668,661.5272],[-4.3493,37.5624,742.7691],[-4.3458,37.5546,753.7385],[-4.3504,37.5502,681.482],[-4.3534,37.537,958.7274],[-4.3584,37.5323,1057.8523],[-4.3681,37.5292,1113.1975],[-4.3807,37.5213,1137.8115],[-4.3772,37.5147,1100.9293],[-4.3632,37.5032,1064.0332],[-4.3546,37.4915,1086.3947],[-4.3496,37.4912,1064.9813],[-4.3543,37.4834,1106.3657],[-4.351,37.4646,764.0181],[-4.3536,37.4577,1012.1979],[-4.353,37.4457,908.3481],[-4.3477,37.4209,820.1771],[-4.3409,37.4112,766.8707],[-4.3654,37.41,814.4896],[-4.3707,37.4075,733.0833],[-4.3924,37.4164,744.4109],[-4.4073,37.4169,719.1947],[-4.4165,37.4149,637.9613],[-4.4217,37.4113,596.9231],[-4.4187,37.4071,607.2502],[-4.4211,37.3874,690.1282],[-4.4282,37.374,661.3239],[-4.4208,37.3544,506.817],[-4.4173,37.3288,404.882],[-4.417,37.3196,416.8907],[-4.4205,37.2979,575.5874],[-4.4148,37.2875,409.1359],[-4.4178,37.2824,333.0867],[-4.4127,37.2796,332.8206],[-4.4123,37.2771,330.7138],[-4.4064,37.2742,328.2706],[-4.4029,37.2766,328.3916],[-4.3974,37.275,329.7061],[-4.3941,37.2763,375.7001],[-4.3917,37.274,345.6669],[-4.389,37.274,333.9968],[-4.3833,37.2774,415.0],[-4.3796,37.2753,415.0],[-4.3776,37.2704,417.3267],[-4.3807,37.2634,514.7445],[-4.3801,37.2603,650.4936],[-4.3759,37.2573,733.0551],[-4.3798,37.2483,784.6384],[-4.3796,37.2458,760.3222],[-4.3771,37.2451,763.4415],[-4.3773,37.2418,773.2311],[-4.3849,37.2383,790.5912],[-4.3724,37.2159,755.1052],[-4.3449,37.2141,721.0501],[-4.3287,37.2053,598.2314],[-4.3225,37.2046,536.9952],[-4.326,37.2026,526.6085],[-4.3306,37.1966,547.2898],[-4.3321,37.1912,581.2689],[-4.3273,37.1862,592.2068],[-4.3275,37.1844,581.6085],[-4.3236,37.1901,680.8197],[-4.3205,37.1918,695.4438],[-4.2954,37.1994,810.5206],[-4.2919,37.2037,842.4578],[-4.283,37.2074,824.9319],[-4.2826,37.2101,812.9235],[-4.2633,37.2275,812.4471],[-4.2552,37.2296,653.0333],[-4.2575,37.2504,415.0],[-4.2607,37.2539,415.0],[-4.2631,37.2604,415.0],[-4.248,37.2692,746.988],[-4.2417,37.2889,815.491],[-4.2364,37.2972,762.0195],[-4.2351,37.312,630.7596]]]]}}