{"type": "Feature","bbox": [0.1592,40.523,0.879,41.025],"geometry": {"type": "MultiPolygon","coordinates": [[[[0.4359,40.5499,94.3324],[0.438,40.5471,82.5076],[0.4463,40.545,79.5156],[0.449,40.5413,76.3448],[0.4565,40.5403,68.1428],[0.4604,40.5376,64.1723],[0.477,40.532,46.9807],[0.4822,40.5319,40.4121],[0.4871,40.5292,34.6423],[0.4988,40.5279,20.7437],[0.5151,40.523,4.7437],[0.5188,40.5337,0.6874],[0.5224,40.5385,0.0],[0.5226,40.5426,0.7552],[0.5301,40.5507,1.3431],[0.5346,40.5513,0.0],[0.5326,40.554,0.0],[0.5382,40.5671,1.719],[0.5401,40.569,7.4835],[0.5424,40.5687,0.0],[0.5468,40.5737,0.0],[0.551,40.5693,0.0],[0.5568,40.5715,0.0],[0.5549,40.5724,0.0],[0.5512,40.5704,0.0],[0.5529,40.5726,0.0],[0.5496,40.5729,0.0],[0.5485,40.5749,0.9497],[0.561,40.5846,0.0],[0.5649,40.5899,0.7939],[0.5782,40.6001,0.0],[0.5915,40.6138,12.9793],[0.596,40.6138,0.0],[0.5982,40.6113,0.2764],[0.6035,40.6093,0.0],[0.5963,40.6146,0.0],[0.5976,40.6154,0.0],[0.5965,40.6174,0.4521],[0.601,40.6162,0.0],[0.5988,40.6146,0.0],[0.5996,40.6138,0.0],[0.6026,40.6154,0.0],[0.599,40.619,0.3802],[0.6001,40.6201,0.0],[0.6026,40.6193,0.0],[0.601,40.6221,0.5041],[0.6129,40.6232,0.0499],[0.6274,40.6221,-0.2108],[0.6526,40.6246,-0.0436],[0.6529,40.626,0.6077],[0.6568,40.6265,-0.0005],[0.6635,40.6263,-0.0103],[0.6835,40.634,0.0],[0.6832,40.636,-0.1539],[0.6865,40.6349,-0.0357],[0.6926,40.6365,0.0],[0.6929,40.6393,-0.4675],[0.6946,40.6368,0.0],[0.706,40.6376,-0.2582],[0.7088,40.6362,0.0],[0.7146,40.6387,0.0172],[0.7262,40.6393,-0.2464],[0.7443,40.6362,0.01],[0.7396,40.626,0.0],[0.7112,40.5926,-0.1096],[0.6949,40.5893,-0.9918],[0.684,40.5896,-0.0294],[0.6737,40.5932,-0.1819],[0.6693,40.5924,0.0],[0.6774,40.5893,-0.5205],[0.6599,40.5854,-1.5],[0.6651,40.5788,-1.2465],[0.6635,40.5776,-1.0186],[0.6604,40.579,-1.5],[0.6621,40.5776,-1.0186],[0.6607,40.576,-1.5],[0.6576,40.5774,-1.5],[0.6557,40.5874,-1.5],[0.6613,40.5879,-1.5],[0.6613,40.5918,-0.529],[0.6585,40.5913,-0.0161],[0.654,40.5854,-0.1236],[0.6432,40.5838,0.0],[0.6454,40.5821,0.0],[0.6518,40.584,-0.0112],[0.6568,40.5793,-0.7703],[0.6543,40.5785,0.0113],[0.6499,40.5815,-0.1035],[0.6501,40.5776,-0.1289],[0.6468,40.5765,0.0],[0.6435,40.5771,0.0],[0.6421,40.5793,0.0],[0.6415,40.5779,0.0],[0.6443,40.5757,0.0],[0.6432,40.5749,0.0148],[0.6315,40.5782,0.0],[0.6315,40.5812,0.0192],[0.6335,40.5815,0.0],[0.6337,40.5779,-0.0111],[0.6354,40.5774,-0.0878],[0.6363,40.5826,0.0],[0.6282,40.5824,0.0],[0.6182,40.5865,0.0],[0.6168,40.586,0.0],[0.6157,40.5782,0.0],[0.6132,40.5768,-0.0604],[0.6096,40.5782,0.0],[0.6029,40.576,-0.0219],[0.596,40.5765,-0.4059],[0.6035,40.5612,0.2025],[0.6065,40.5607,-0.0791],[0.6124,40.5557,-0.0944],[0.6185,40.554,-0.1898],[0.6343,40.5532,-0.0562],[0.6388,40.5557,-0.1513],[0.6487,40.5554,0.0],[0.6582,40.5574,0.0971],[0.6593,40.5599,-0.0026],[0.6704,40.5604,0.0],[0.6874,40.569,-0.0071],[0.704,40.581,0.0],[0.736,40.621,0.0251],[0.7568,40.6399,0.0],[0.769,40.6474,-0.1499],[0.846,40.6785,0.0],[0.8629,40.6893,0.0],[0.8696,40.696,0.0],[0.8788,40.7157,0.0],[0.879,40.7196,0.0],[0.8743,40.7318,0.0],[0.8688,40.7318,0.0],[0.8615,40.7349,0.0],[0.8435,40.731,0.0],[0.8304,40.7335,0.0],[0.8138,40.7482,-0.0038],[0.7974,40.7646,0.0],[0.7815,40.7835,0.0],[0.7718,40.7915,0.0],[0.7629,40.7938,0.0],[0.7476,40.7938,0.0],[0.7262,40.7901,0.0093],[0.7296,40.786,0.0],[0.7415,40.7865,-0.2042],[0.7826,40.7724,0.1325],[0.7701,40.7637,-0.0319],[0.7593,40.7632,0.0275],[0.7349,40.7676,0.0193],[0.7296,40.7699,-0.0805],[0.7243,40.7762,-0.1068],[0.709,40.786,0.0],[0.7043,40.786,-0.4723],[0.7038,40.7879,-1.0],[0.7054,40.7899,-0.0777],[0.6996,40.8015,0.0],[0.7015,40.8057,2.2126],[0.704,40.8063,0.6178],[0.7063,40.8096,8.5061],[0.7115,40.8093,0.0],[0.7149,40.8124,10.23],[0.7237,40.8162,2.2332],[0.7321,40.8176,0.0],[0.7324,40.8213,6.4903],[0.7349,40.8235,0.0],[0.7418,40.8229,1.5009],[0.7426,40.8332,6.4153],[0.7451,40.8385,0.0],[0.749,40.839,0.0],[0.7501,40.8413,0.0],[0.7488,40.8429,11.9932],[0.751,40.8451,14.7027],[0.7565,40.8471,15.4294],[0.7635,40.8471,2.3357],[0.7649,40.8524,5.2023],[0.7701,40.8579,2.675],[0.7793,40.8596,0.0],[0.7932,40.8674,4.1494],[0.796,40.8704,0.0],[0.7968,40.8746,0.9849],[0.8021,40.8793,0.1598],[0.8024,40.8771,0.0],[0.8037,40.8771,0.0],[0.8049,40.8826,8.418],[0.814,40.8913,0.0],[0.8168,40.8913,0.0],[0.819,40.896,8.9409],[0.8271,40.9029,0.0],[0.8271,40.906,1.6114],[0.8293,40.9087,0.0],[0.8337,40.9113,0.0],[0.834,40.9132,0.0],[0.8368,40.9137,0.0],[0.8376,40.919,4.954],[0.8418,40.9201,0.0],[0.8482,40.926,12.0071],[0.8507,40.9263,0.0],[0.8529,40.9321,19.3075],[0.8578,40.9347,0.0],[0.8421,40.9387,41.3366],[0.8365,40.9374,52.6777],[0.8295,40.9406,78.3894],[0.819,40.9408,102.4441],[0.7894,40.9388,201.4986],[0.7528,40.9322,183.5235],[0.7396,40.939,196.4067],[0.6989,40.9441,251.4488],[0.6933,40.9425,237.0324],[0.689,40.9436,216.5246],[0.6822,40.9404,212.2306],[0.6788,40.9449,191.5516],[0.6719,40.9459,179.4533],[0.666,40.9437,168.6744],[0.6623,40.9462,161.4446],[0.6579,40.9573,146.2878],[0.6589,40.9626,141.7406],[0.6559,40.9645,135.4175],[0.6576,40.9671,135.5615],[0.6564,40.9693,131.2709],[0.6515,40.9713,123.157],[0.6475,40.986,119.146],[0.6435,40.9871,98.006],[0.6411,40.9934,93.6943],[0.6429,40.9967,87.1636],[0.6243,41.0081,64.311],[0.6277,41.0091,60.3861],[0.6292,41.0144,91.2889],[0.6242,41.0138,46.9954],[0.626,41.0186,52.807],[0.6146,41.025,36.9886],[0.6044,41.0246,29.5531],[0.6001,41.0178,101.5853],[0.5958,41.0169,82.2262],[0.586,41.0055,173.0359],[0.5771,41.0001,138.6167],[0.5635,41.0071,47.7025],[0.5595,41.0146,317.2278],[0.5542,41.0098,165.591],[0.5458,41.0089,283.9174],[0.538,41.004,166.0874],[0.5375,41.002,61.6845],[0.5224,40.997,210.6399],[0.5156,40.9986,205.7904],[0.5067,40.995,210.6108],[0.5045,40.9928,226.6156],[0.5062,40.9912,211.4011],[0.4977,40.9875,188.4686],[0.4966,40.984,193.0335],[0.4888,40.9812,82.001],[0.4862,40.9767,218.5375],[0.482,40.9762,198.2672],[0.4686,40.9802,236.9174],[0.467,40.9781,244.8572],[0.4596,40.9773,265.2359],[0.4549,40.9785,292.1347],[0.4545,40.9759,298.6827],[0.4501,40.972,331.2434],[0.4498,40.9687,341.4206],[0.4458,40.9652,176.5625],[0.4387,40.9621,295.9063],[0.4225,40.9604,597.8054],[0.4153,40.9577,558.7972],[0.4099,40.9585,705.2373],[0.4024,40.9566,750.4521],[0.4004,40.9542,770.7408],[0.3939,40.9554,882.1981],[0.3908,40.9522,861.3379],[0.3922,40.9484,857.198],[0.3875,40.9453,991.7159],[0.383,40.9437,1000.5157],[0.3793,40.9455,922.5943],[0.3722,40.9422,1022.9173],[0.3708,40.9434,1025.8237],[0.3695,40.9389,957.7933],[0.3718,40.9372,983.6744],[0.3665,40.9332,1024.3629],[0.3694,40.9279,1010.7915],[0.3682,40.9192,937.7878],[0.3645,40.9168,1032.252],[0.3661,40.9132,955.8825],[0.3631,40.9084,1001.8276],[0.3683,40.9029,935.9362],[0.3648,40.9004,1009.6838],[0.3651,40.8972,974.4489],[0.3699,40.891,1049.5712],[0.3667,40.8862,1084.1785],[0.3607,40.8835,1126.0585],[0.3621,40.8808,1141.6318],[0.3568,40.8776,1146.8066],[0.3349,40.8545,1078.8777],[0.3332,40.8495,1037.6238],[0.3245,40.8443,1178.473],[0.3217,40.8448,1126.9187],[0.3105,40.84,1192.9951],[0.3059,40.8364,1158.1609],[0.2916,40.8163,1025.2861],[0.2818,40.819,902.9885],[0.2778,40.8179,963.2682],[0.2768,40.8195,949.668],[0.272,40.8188,1019.7178],[0.2718,40.817,1181.1548],[0.2652,40.8138,1130.2092],[0.2586,40.8046,883.7894],[0.2578,40.8003,748.9964],[0.2499,40.7985,977.2852],[0.2444,40.7921,1066.767],[0.2336,40.787,1209.3113],[0.2329,40.7794,1212.7073],[0.2347,40.7762,1149.4558],[0.2294,40.7712,972.1086],[0.23,40.7675,889.5876],[0.2239,40.7656,880.3981],[0.212,40.7675,1191.7809],[0.2016,40.7576,1124.5536],[0.1963,40.7586,1172.3918],[0.1902,40.7503,1155.9651],[0.185,40.7531,1203.135],[0.1841,40.7556,1175.2152],[0.1813,40.7533,1204.3712],[0.1753,40.755,1174.9534],[0.1763,40.751,1183.7434],[0.174,40.749,1153.2179],[0.1763,40.7438,1122.7006],[0.1754,40.7412,1072.6097],[0.168,40.7448,1096.9967],[0.1646,40.7487,1093.6914],[0.1592,40.7506,1184.8247],[0.1649,40.7433,1241.3702],[0.1632,40.7425,1234.583],[0.1645,40.7401,1234.7638],[0.1675,40.7395,1242.2286],[0.1708,40.7329,1337.5345],[0.1834,40.7282,1182.7103],[0.1911,40.7312,1288.0024],[0.1973,40.7242,1330.9272],[0.2171,40.7326,1264.063],[0.2262,40.7332,1252.7903],[0.2242,40.7257,1114.4562],[0.2275,40.715,904.8785],[0.2348,40.7063,571.7003],[0.236,40.7021,704.516],[0.2419,40.7004,937.9428],[0.2508,40.7046,1096.4733],[0.2619,40.706,1094.8433],[0.2695,40.7034,1057.7583],[0.2769,40.6944,1006.3401],[0.2919,40.6886,886.7307],[0.2924,40.6852,893.1769],[0.2857,40.6792,796.8482],[0.2822,40.6729,758.1711],[0.2753,40.6705,710.582],[0.2683,40.6596,390.8795],[0.2692,40.6479,369.2992],[0.2662,40.6462,354.0631],[0.2662,40.6442,342.9105],[0.271,40.6383,334.8867],[0.2759,40.6369,329.1896],[0.2789,40.6301,319.7288],[0.2923,40.6233,310.5928],[0.2985,40.626,314.6042],[0.3008,40.6226,300.7657],[0.3153,40.6143,284.1018],[0.3185,40.615,280.9163],[0.3453,40.6076,247.9971],[0.3508,40.6082,243.8828],[0.3711,40.6051,219.1929],[0.3748,40.6064,212.809],[0.3892,40.6066,193.2253],[0.3962,40.6025,182.8524],[0.402,40.6024,177.5804],[0.4064,40.5973,169.4358],[0.4046,40.5949,165.5884],[0.4307,40.5797,135.0425],[0.444,40.5782,122.4203],[0.4366,40.5727,128.4769],[0.4384,40.5702,121.3552],[0.4335,40.5654,103.0344],[0.4362,40.5588,96.5547],[0.4359,40.5499,94.3324]]],
[[[0.731,40.7799,0.0],[0.729,40.7807,0.0],[0.7268,40.7776,0.0],[0.7354,40.7726,0.0],[0.744,40.7715,0.0],[0.7451,40.7726,0.0],[0.7407,40.7743,0.0],[0.731,40.7799,0.0]]]]}
,"properties": {"GID_3": "ESP.6.4.7_1","GID_0": "ESP","country": "Spain","GID_1": "ESP.6_1","province": "Cataluña","NL_NAME_1": "NA","GID_2": "ESP.6.4_1","county": "Tarragona","NL_NAME_2": "NA","city": "n.a.(246)","VARNAME_3": "NA","NL_NAME_3": "NA","TYPE_3": "Comarca","ENGTYPE_3": "Comarca","CC_3": "NA","HASC_3": "NA","name": "n.a.(246).city","area_km2": 1788.992,"hist_schema_id": "Elevation0-9000","hist_area_km2": {"0": 388.97,"25": 96.387,"50": 94.694,"75": 100.41,"100": 89.691,"125": 102.386,"150": 97.411,"175": 84.535,"200": 72.846,"225": 63.876,"250": 56.694,"275": 51.316,"300": 44.738,"325": 40.083,"350": 33.945,"375": 29.914,"400": 25.85,"425": 21.068,"450": 18.322,"475": 16.238,"500": 14.12,"525": 12.868,"550": 12.82,"575": 12.081,"600": 10.88,"625": 10.044,"650": 10.045,"675": 9.677,"700": 8.778,"725": 8.458,"750": 7.158,"775": 6.356,"800": 5.827,"825": 5.602,"850": 4.864,"875": 5.056,"900": 4.912,"925": 4.8,"950": 4.929,"975": 6.181,"1000": 7.016,"1025": 8.845,"1050": 8.556,"1075": 8.284,"1100": 8.943,"1125": 9.232,"1150": 8.429,"1175": 8.975,"1200": 7.948,"1225": 6.728,"1250": 4.303,"1275": 3.291,"1300": 2.231,"1325": 1.092,"1350": 0.128,"1375": 0.096,"1400": 0.048,"1425": 0.016}}}