{"type":"Feature","properties":{"GID_3":"ESP.5.8.5_1","GID_0":"ESP","country":"Spain","GID_1":"ESP.5_1","province":"CastillayLeón","NL_NAME_1":"NA","GID_2":"ESP.5.8_1","county":"Valladolid","NL_NAME_2":"NA","city":"n.a.(267)","VARNAME_3":"NA","NL_NAME_3":"NA","TYPE_3":"Comarca","ENGTYPE_3":"Comarca","CC_3":"NA","HASC_3":"NA","name":"n.a.(267).city"},
"geometry":{"type": "MultiPolygon","coordinates": [[[[-5.4469,42.0109,755.3696],[-5.4473,42.0136,758.3806],[-5.4215,42.0307,775.9933],[-5.4247,42.0356,778.9451],[-5.4304,42.0351,786.9878],[-5.4386,42.0315,764.2476],[-5.4545,42.0407,751.6219],[-5.4641,42.0436,750.2444],[-5.4808,42.0524,744.4818],[-5.477,42.056399999999996,750.348],[-5.4833,42.0598,763.1055],[-5.4898,42.0738,718.8018],[-5.4984,42.0837,755.9989],[-5.5101,42.0911,776.0654],[-5.5103,42.0929,777.0697],[-5.5166,42.0934,765.3642],[-5.5208,42.0971,760.9906],[-5.5178,42.0906,765.1237],[-5.5183,42.0847,748.0518],[-5.5089,42.077,754.4368],[-5.5015,42.0665,717.1235],[-5.5028,42.0625,719.6354],[-5.5076,42.0575,718.3254],[-5.4961,42.0492,756.2508],[-5.4957,42.0456,729.8364],[-5.4864,42.0388,741.2678],[-5.4926,42.0333,736.2465],[-5.4882,42.03,731.0098],[-5.4876,42.0258,739.0129],[-5.4727,42.0136,745.6882],[-5.4716,42.0063,746.8757],[-5.4783,42.0044,743.5298],[-5.479,41.9992,746.4485],[-5.4883,41.9955,745.9023],[-5.4847,41.9846,743.3867],[-5.4627,41.9776,731.6951],[-5.463,41.9754,726.6978],[-5.4607,41.9747,734.9172],[-5.456,41.9757,739.9761],[-5.4448,41.9719,744.9316],[-5.4382,41.9674,754.9091],[-5.4334,41.9831,752.3173],[-5.4311,42.0024,755.0399],[-5.4363,42.009,754.1215],[-5.443,42.0119,756.8276],[-5.4469,42.0109,755.3696]]]]}}