{"type":"Feature","properties":{"GID_3":"ESP.15.1.6_1","GID_0":"ESP","country":"Spain","GID_1":"ESP.15_1","province":"LaRioja","NL_NAME_1":"NA","GID_2":"ESP.15.1_1","county":"LaRioja","NL_NAME_2":"NA","city":"n.a.(142)","VARNAME_3":"NA","NL_NAME_3":"NA","TYPE_3":"Comarca","ENGTYPE_3":"Comarca","CC_3":"NA","HASC_3":"NA","name":"n.a.(142).city"},
"geometry":{"type": "MultiPolygon","coordinates": [[[[-2.3868,42.2802,1197.2457],[-2.394,42.2708,1261.3075],[-2.3803,42.2488,1320.6228],[-2.3582,42.2385,1211.5818],[-2.3417,42.2355,1140.5697],[-2.3368,42.2364,1153.327],[-2.3397,42.2448,1101.4269],[-2.3371,42.2553,1186.9045],[-2.3305,42.2543,1158.9794],[-2.3249,42.2556,1154.5786],[-2.3213,42.2605,1150.3424],[-2.3146,42.2612,1104.4778],[-2.3088,42.2735,1019.2932],[-2.3117,42.2795,1022.0455],[-2.3079,42.2885,921.5009],[-2.3058,42.2887,903.8766],[-2.3024,42.2945,865.3657],[-2.2947,42.2936,689.2748],[-2.2926,42.2907,668.8083],[-2.2834,42.2881,1044.1622],[-2.2634,42.2717,1134.3376],[-2.253,42.2721,1227.2998],[-2.2444,42.2695,1307.9578],[-2.2401,42.259,1320.1642],[-2.2371,42.2616,1372.1421],[-2.2307,42.2623,1364.7109],[-2.2272,42.2586,1310.0667],[-2.2214,42.2608,1314.7849],[-2.2164,42.2603,1305.4351],[-2.2163,42.2629,1265.9364],[-2.2066,42.2708,1098.2516],[-2.204,42.2751,1041.0929],[-2.1888,42.2843,869.156],[-2.1804,42.2834,825.0904],[-2.1736,42.2877,769.0893],[-2.162,42.2912,721.9932],[-2.1521,42.2914,674.8565],[-2.1428,42.296,622.8133],[-2.1309,42.2974,581.095],[-2.1236,42.3005,537.5837],[-2.121,42.3067,506.3737],[-2.1218,42.313,549.4832],[-2.1125,42.3196,499.3181],[-2.1131,42.3236,501.0773],[-2.1096,42.3266,501.1167],[-2.109,42.3309,509.4899],[-2.1037,42.3313,497.79],[-2.0983,42.3393,477.4639],[-2.0899,42.347,411.8138],[-2.09,42.3555,379.0049],[-2.0873,42.3599,380.7961],[-2.0789,42.3665,347.3443],[-2.0789,42.3688,343.3884],[-2.0928,42.3758,365.4765],[-2.0875,42.3836,365.5935],[-2.1099,42.3935,432.5764],[-2.1156,42.3995,412.2888],[-2.105,42.4159,339.3886],[-2.1112,42.4196,336.5843],[-2.127,42.4203,402.6746],[-2.1278,42.419,402.6746],[-2.1329,42.4212,411.032],[-2.1396,42.4206,418.4654],[-2.1479,42.4161,323.4538],[-2.1517,42.4186,327.174],[-2.1552,42.4174,322.514],[-2.1584,42.4102,325.1422],[-2.1628,42.4085,336.1382],[-2.1764,42.4081,359.3299],[-2.1821,42.4164,327.5962],[-2.1867,42.4188,328.893],[-2.1989,42.4192,327.9318],[-2.2049,42.4154,327.999],[-2.2162,42.4156,329.2612],[-2.2113,42.4196,329.0745],[-2.2116,42.4225,329.9174],[-2.2142,42.4242,328.6484],[-2.2192,42.4257,329.8569],[-2.2325,42.4255,333.0155],[-2.2411,42.4301,349.201],[-2.2361,42.4374,331.8746],[-2.2379,42.4404,335.0121],[-2.2645,42.4499,337.3495],[-2.2693,42.4449,338.263],[-2.2737,42.4452,340.0596],[-2.277,42.4478,339.3407],[-2.2789,42.4558,345.0151],[-2.2876,42.4604,348.9303],[-2.288,42.4674,350.0901],[-2.2968,42.4681,345.4147],[-2.2969,42.4649,344.6847],[-2.2932,42.46,340.6886],[-2.2974,42.4575,341.6593],[-2.3087,42.4619,344.8591],[-2.3168,42.4621,351.3261],[-2.3258,42.4682,345.17],[-2.3319,42.4681,347.0148],[-2.3364,42.4642,346.7661],[-2.3314,42.4574,348.5725],[-2.3318,42.454,350.365],[-2.3458,42.4514,353.5458],[-2.3476,42.4527,349.4922],[-2.3522,42.4656,355.0997],[-2.3581,42.467,362.8058],[-2.363,42.4617,356.34],[-2.3709,42.4644,357.6478],[-2.3714,42.4707,360.2938],[-2.3767,42.4736,360.8607],[-2.384,42.4704,360.0127],[-2.39,42.4706,363.3717],[-2.3958,42.4735,364.2273],[-2.4001,42.4718,361.0923],[-2.4156,42.4906,393.9057],[-2.4207,42.4893,395.2175],[-2.4385,42.4894,408.2662],[-2.4491,42.4969,441.7432],[-2.4725,42.4925,428.7206],[-2.477,42.4868,373.9032],[-2.5147,42.4901,394.0158],[-2.5191,42.4957,377.3271],[-2.518,42.4996,373.8458],[-2.5101,42.505,380.1324],[-2.5053,42.5135,379.9454],[-2.5072,42.5187,381.1522],[-2.5097,42.5201,377.892],[-2.5139,42.5183,378.3008],[-2.5195,42.508,394.9181],[-2.5378,42.494,381.4915],[-2.5377,42.4901,384.7007],[-2.5293,42.4854,380.5],[-2.5298,42.4839,380.5],[-2.5568,42.4851,399.7921],[-2.5675,42.4941,397.4507],[-2.5745,42.491,397.1298],[-2.578,42.483,388.5555],[-2.5914,42.4826,403.306],[-2.5921,42.4803,391.8681],[-2.5872,42.4741,398.4338],[-2.5929,42.4722,394.7226],[-2.6005,42.4755,392.9156],[-2.6024,42.4795,402.4019],[-2.5982,42.4883,412.525],[-2.5937,42.4897,402.2863],[-2.5922,42.4918,397.6435],[-2.6054,42.5035,402.3187],[-2.6085,42.4987,399.8096],[-2.6094,42.4885,462.2127],[-2.6157,42.4871,474.532],[-2.6154,42.4825,514.7111],[-2.6196,42.4753,553.2665],[-2.62,42.4696,555.2222],[-2.6223,42.4663,497.8768],[-2.626,42.4654,554.6041],[-2.6222,42.4553,566.7567],[-2.6232,42.4422,738.4061],[-2.621,42.4303,783.0339],[-2.6185,42.4256,786.7125],[-2.6219,42.4225,811.8214],[-2.6161,42.4168,622.8142],[-2.6132,42.4101,604.0257],[-2.6156,42.4081,613.0518],[-2.6144,42.4054,634.9827],[-2.6178,42.4006,651.7372],[-2.6176,42.3939,723.0977],[-2.6202,42.3916,811.8066],[-2.6164,42.3926,744.6675],[-2.6154,42.3871,832.3034],[-2.6204,42.3913,811.8066],[-2.6236,42.3822,966.9081],[-2.6177,42.3703,975.282],[-2.6174,42.3625,970.9653],[-2.6086,42.3545,1054.5243],[-2.6075,42.3511,1096.276],[-2.6089,42.3465,1168.5848],[-2.6168,42.3354,1385.1279],[-2.6145,42.328,1486.4672],[-2.6065,42.3292,1432.911],[-2.6028,42.3342,1413.824],[-2.5979,42.3349,1401.5994],[-2.5935,42.3333,1402.7111],[-2.5874,42.3359,1352.321],[-2.5823,42.3341,1361.8719],[-2.5703,42.3411,1136.3875],[-2.553,42.3467,921.9458],[-2.5471,42.338,884.5779],[-2.5473,42.333,866.168],[-2.5439,42.3279,934.1288],[-2.5329,42.3279,878.161],[-2.529,42.3209,731.5222],[-2.5237,42.3182,602.18],[-2.5076,42.3225,574.9479],[-2.5018,42.3265,577.6781],[-2.4977,42.3229,662.2205],[-2.4925,42.321,772.0995],[-2.4911,42.3137,904.3715],[-2.4955,42.3045,1011.0511],[-2.4876,42.3039,1029.0936],[-2.48,42.2928,1230.0631],[-2.4776,42.2951,1252.9507],[-2.4672,42.2959,1263.7794],[-2.4583,42.3015,1154.5374],[-2.4508,42.3024,1175.756],[-2.4467,42.305,1142.656],[-2.4484,42.3068,1146.5514],[-2.4492,42.3199,1092.0587],[-2.4382,42.3278,934.7278],[-2.4332,42.3226,1089.5103],[-2.4277,42.3208,957.6453],[-2.4211,42.3214,858.4625],[-2.4186,42.3184,799.9526],[-2.407,42.3137,835.6677],[-2.4073,42.307,688.2435],[-2.3869,42.3015,988.5599],[-2.3842,42.299,1045.5491],[-2.3783,42.2973,1203.4099],[-2.3778,42.2954,1219.0419],[-2.3841,42.2855,1221.021],[-2.3864,42.2849,1230.0997],[-2.3868,42.2802,1197.2457]]]]}}