{"type": "Feature","bbox": [-0.4799,41.0466,0.3857,41.6023],"geometry": {"type": "MultiPolygon","coordinates": [[[[0.0114,41.079,329.423],[0.0132,41.0747,359.857],[0.0194,41.0679,353.9335],[0.0251,41.0648,370.5688],[0.037,41.0466,488.1064],[0.0413,41.0484,483.5366],[0.0467,41.0534,496.6919],[0.0497,41.053,500.6044],[0.0519,41.0548,505.7903],[0.0511,41.0592,498.5839],[0.0557,41.0667,502.08],[0.0547,41.0685,510.2818],[0.0576,41.0751,456.1308],[0.0725,41.0794,474.1841],[0.0933,41.0801,448.9993],[0.1183,41.0768,307.619],[0.1268,41.0718,342.5],[0.1446,41.0658,364.4345],[0.1459,41.0631,407.9668],[0.1673,41.0708,454.414],[0.1969,41.068,330.0952],[0.2204,41.0715,261.0264],[0.2168,41.0777,262.3768],[0.2198,41.0792,256.0564],[0.2201,41.0829,254.3767],[0.2157,41.0843,251.3364],[0.208,41.0828,253.845],[0.2012,41.0847,246.2581],[0.2009,41.1027,240.7496],[0.2064,41.1096,236.6161],[0.2054,41.1104,236.6161],[0.209,41.1169,226.819],[0.201,41.1246,210.8287],[0.2013,41.1268,209.385],[0.2199,41.1324,203.6614],[0.2194,41.1344,227.3449],[0.2129,41.1365,197.5562],[0.214,41.1373,211.2703],[0.237,41.1305,275.7726],[0.2479,41.1302,346.7351],[0.2518,41.134,340.539],[0.2506,41.1384,334.3619],[0.2562,41.1437,332.7201],[0.2548,41.145,334.6388],[0.256,41.1468,325.1811],[0.253,41.1502,331.4125],[0.2731,41.1488,256.7464],[0.292,41.1564,332.9823],[0.3034,41.1644,323.5678],[0.3005,41.1669,332.0971],[0.305,41.1723,315.5865],[0.306,41.1857,305.9001],[0.3083,41.1872,307.7292],[0.3098,41.1943,295.971],[0.3126,41.1967,303.0362],[0.3148,41.2071,272.1368],[0.3178,41.211,273.1758],[0.3189,41.2211,223.1161],[0.3224,41.2253,68.5],[0.3313,41.2227,68.5],[0.3384,41.2303,68.5],[0.3413,41.2311,134.4618],[0.3513,41.2268,68.5],[0.36,41.2255,73.8644],[0.3642,41.2277,68.5],[0.3646,41.2387,68.5],[0.3813,41.2365,68.5],[0.3788,41.2375,68.5],[0.3742,41.2449,191.255],[0.3737,41.2494,283.7686],[0.3779,41.2538,296.8714],[0.3768,41.2617,333.2468],[0.3816,41.2736,380.3528],[0.3857,41.2789,394.6511],[0.3696,41.2965,347.1256],[0.3657,41.304,68.5],[0.3702,41.3115,68.5],[0.3683,41.3186,68.5],[0.3655,41.3209,72.0618],[0.3512,41.3252,68.5],[0.3486,41.3298,68.5],[0.3592,41.342,68.5],[0.3668,41.3418,92.9796],[0.3738,41.3504,123.0955],[0.36,41.3705,347.7719],[0.3323,41.3862,205.3463],[0.32,41.3949,68.5],[0.335,41.4082,71.1398],[0.3163,41.4169,273.3681],[0.3089,41.4189,405.6498],[0.2451,41.4287,307.2336],[0.2366,41.4261,274.6277],[0.2303,41.4175,176.5937],[0.2249,41.4145,158.0781],[0.221,41.41,125.5891],[0.2191,41.4036,115.0],[0.1993,41.4034,115.5],[0.1892,41.3962,115.5],[0.1809,41.3946,115.5],[0.1755,41.3969,115.5],[0.1732,41.4036,115.5],[0.1703,41.4061,115.5],[0.1646,41.4068,115.5],[0.1574,41.3978,115.5],[0.131,41.3889,115.5],[0.1213,41.3793,115.5],[0.1177,41.3686,115.5],[0.1179,41.3628,115.5],[0.1063,41.3508,115.5],[0.0869,41.3505,160.595],[0.0803,41.3525,166.2902],[0.0793,41.3558,235.6431],[0.0773,41.3529,168.2418],[0.0368,41.3551,256.2549],[0.0169,41.3608,265.294],[0.0097,41.3605,286.5381],[0.0057,41.3683,278.2148],[0.0063,41.3729,301.3197],[-0.0029,41.3879,351.3453],[-0.0239,41.3969,352.1636],[-0.0241,41.3926,347.5439],[-0.0257,41.3921,347.5439],[-0.0241,41.3911,345.4279],[-0.0241,41.3863,358.0326],[-0.0279,41.3835,332.2114],[-0.0292,41.3778,342.3313],[-0.0187,41.3635,307.3485],[-0.0179,41.3597,339.196],[-0.0079,41.3478,349.79],[-0.0333,41.3581,342.9594],[-0.0494,41.3605,343.8365],[-0.0511,41.3664,338.9887],[-0.07,41.373,327.1313],[-0.0727,41.3772,330.2158],[-0.0741,41.3938,361.7144],[-0.0842,41.4166,344.6602],[-0.0844,41.4315,361.098],[-0.1049,41.4855,322.9847],[-0.1186,41.5002,312.8253],[-0.1348,41.5224,368.2398],[-0.1566,41.5353,357.831],[-0.1559,41.5403,379.7098],[-0.1593,41.5482,380.6413],[-0.1595,41.554,386.3681],[-0.1575,41.5582,384.7417],[-0.1574,41.5684,388.2326],[-0.1673,41.5811,379.911],[-0.1594,41.5853,374.8895],[-0.1564,41.59,378.2761],[-0.1843,41.5986,397.741],[-0.2057,41.6023,421.2954],[-0.2278,41.5865,459.2755],[-0.2395,41.5726,539.875],[-0.2459,41.5738,539.6819],[-0.2644,41.5891,557.8683],[-0.2739,41.5906,563.8409],[-0.2762,41.586,504.4768],[-0.2829,41.5818,450.5973],[-0.3028,41.561,396.4995],[-0.304,41.5565,382.1713],[-0.3099,41.5485,355.2489],[-0.3098,41.5451,350.2579],[-0.3225,41.5368,329.8167],[-0.3489,41.5306,309.0494],[-0.3555,41.5249,288.1365],[-0.3548,41.5229,284.7517],[-0.3493,41.5137,292.7594],[-0.3247,41.4964,283.4606],[-0.3051,41.4933,288.3597],[-0.2831,41.4984,305.0867],[-0.2369,41.493,341.1334],[-0.2122,41.4856,375.8949],[-0.2027,41.4803,381.0934],[-0.1982,41.471,379.5284],[-0.205,41.4469,365.0587],[-0.2117,41.4466,358.7665],[-0.2259,41.4385,363.5863],[-0.2624,41.4305,403.0163],[-0.2816,41.4313,377.0076],[-0.2892,41.4247,371.3509],[-0.2969,41.4211,373.5025],[-0.3085,41.4107,377.0145],[-0.3119,41.4053,352.4437],[-0.3176,41.4024,359.4123],[-0.3275,41.3937,332.8362],[-0.3537,41.3886,337.8323],[-0.3584,41.385,339.3012],[-0.3605,41.3779,347.7913],[-0.3756,41.3781,293.1649],[-0.3883,41.3679,222.9255],[-0.3988,41.3654,200.634],[-0.3968,41.3529,186.4249],[-0.4125,41.3375,170.2228],[-0.413,41.3338,143.3943],[-0.4224,41.3335,141.1502],[-0.43,41.3427,149.1286],[-0.4317,41.3486,145.3056],[-0.4443,41.3503,152.9763],[-0.4615,41.3458,182.3082],[-0.4701,41.3471,178.9637],[-0.4799,41.346,173.8686],[-0.4747,41.3241,271.3389],[-0.4701,41.3183,300.092],[-0.4597,41.316,299.8707],[-0.4594,41.3183,295.7269],[-0.444,41.3132,236.6918],[-0.4242,41.3135,159.6317],[-0.4242,41.3122,159.6317],[-0.4207,41.3118,178.1255],[-0.4266,41.3085,166.7544],[-0.4247,41.3051,169.0614],[-0.4269,41.3029,171.742],[-0.4257,41.298,175.737],[-0.4287,41.2941,179.1651],[-0.4204,41.2855,221.5816],[-0.4113,41.2791,252.4105],[-0.4058,41.2724,279.7631],[-0.3858,41.2655,251.8634],[-0.3779,41.2655,255.0844],[-0.358,41.253,263.2446],[-0.3399,41.2442,195.7834],[-0.3372,41.2414,165.9833],[-0.3305,41.2445,172.0063],[-0.323,41.2456,154.9507],[-0.3237,41.2553,149.2331],[-0.318,41.2576,157.0025],[-0.3133,41.2557,168.0912],[-0.2786,41.2268,211.3758],[-0.2726,41.218,238.6412],[-0.2686,41.215,253.8008],[-0.247,41.2122,236.9863],[-0.2431,41.2098,244.3087],[-0.2321,41.1959,284.9305],[-0.2252,41.19,304.6644],[-0.2224,41.1889,305.5649],[-0.2054,41.192,229.4011],[-0.1803,41.1879,193.2837],[-0.1504,41.1743,258.2718],[-0.1345,41.1628,272.83],[-0.1224,41.1567,279.9633],[-0.1035,41.1496,390.358],[-0.0784,41.1506,413.477],[-0.0714,41.144,319.5317],[-0.0532,41.1387,283.1133],[-0.0433,41.134,264.0765],[-0.0382,41.1291,262.9164],[-0.0257,41.1281,244.1416],[-0.0122,41.1203,220.5],[-0.0086,41.104,252.1416],[-0.0048,41.097,264.787],[0.0004,41.0893,285.3091],[0.0114,41.079,329.423]]]]}
,"properties": {"GID_3": "ESP.2.3.8_1","GID_0": "ESP","country": "Spain","GID_1": "ESP.2_1","province": "Aragón","NL_NAME_1": "NA","GID_2": "ESP.2.3_1","county": "Zaragoza","NL_NAME_2": "NA","city": "n.a.(281)","VARNAME_3": "NA","NL_NAME_3": "NA","TYPE_3": "Comarca","ENGTYPE_3": "Comarca","CC_3": "NA","HASC_3": "NA","name": "n.a.(281).city","area_km2": 1985.306,"hist_schema_id": "Elevation0-9000","hist_area_km2": {"75": 17.547,"100": 9.607,"125": 149.007,"150": 189.918,"175": 189.449,"200": 194.62,"225": 184.302,"250": 167.114,"275": 149.41,"300": 125.327,"325": 184.746,"350": 226.894,"375": 91.329,"400": 46.988,"425": 28.116,"450": 15.327,"475": 7.607,"500": 3.113,"525": 2.316,"550": 1.919,"575": 0.65}}}