{"type":"Feature","properties":{"GID_3":"ESP.5.5.1_1","GID_0":"ESP","country":"Spain","GID_1":"ESP.5_1","province":"CastillayLeón","NL_NAME_1":"NA","GID_2":"ESP.5.5_1","county":"Salamanca","NL_NAME_2":"NA","city":"n.a.(212)","VARNAME_3":"NA","NL_NAME_3":"NA","TYPE_3":"Comarca","ENGTYPE_3":"Comarca","CC_3":"NA","HASC_3":"NA","name":"n.a.(212).city"},
"geometry":{"type": "MultiPolygon","coordinates": [[[[-5.277,40.7238,956.2258],[-5.2656,40.7285,964.3014],[-5.2594,40.7327,979.0612],[-5.2571,40.7363,994.7384],[-5.2537,40.7343,1005.4229],[-5.2549,40.7395,970.4],[-5.2498,40.7429,986.9764],[-5.2321,40.7486,917.8689],[-5.2275,40.7532,961.3856],[-5.2143,40.7578,956.554],[-5.2169,40.7707,912.4746],[-5.2189,40.773,924.3939],[-5.2084,40.7791,930.0772],[-5.1843,40.7887,981.161],[-5.1782,40.7964,957.5466],[-5.1805,40.7975,958.3325],[-5.1775,40.8053,935.8387],[-5.1667,40.8112,910.1384],[-5.1658,40.8135,913.7679],[-5.1614,40.814,930.3967],[-5.1616,40.8179,947.3115],[-5.1586,40.8203,953.4174],[-5.1574,40.8241,949.423],[-5.1618,40.8281,931.8096],[-5.161,40.8296,937.4631],[-5.1638,40.831,937.5519],[-5.1638,40.8344,930.7307],[-5.1663,40.8342,925.725],[-5.1681,40.8365,925.2983],[-5.1688,40.84,917.4807],[-5.1655,40.8432,900.7599],[-5.163,40.8541,901.0131],[-5.1641,40.8568,914.0926],[-5.1614,40.8622,931.079],[-5.1637,40.8684,946.3763],[-5.1571,40.8701,958.9899],[-5.1524,40.874,952.7267],[-5.1519,40.8762,949.4642],[-5.1489,40.8773,947.1991],[-5.1493,40.8816,942.9479],[-5.1401,40.8876,926.7346],[-5.1368,40.8911,922.0548],[-5.1395,40.892,927.9711],[-5.1387,40.8937,928.0829],[-5.1339,40.8953,923.9589],[-5.1349,40.8965,926.0348],[-5.1299,40.9003,914.5829],[-5.127,40.9002,913.5955],[-5.1231,40.9024,927.3085],[-5.1214,40.901,929.3469],[-5.1154,40.9023,938.5936],[-5.1169,40.9046,936.5806],[-5.1125,40.9123,918.9504],[-5.1145,40.9136,918.9504],[-5.1111,40.9149,916.1962],[-5.1132,40.9176,904.6586],[-5.112,40.9187,903.8168],[-5.1169,40.9242,908.6245],[-5.1146,40.9264,903.4447],[-5.1173,40.9276,899.3621],[-5.1147,40.9293,898.6492],[-5.116,40.9308,899.1267],[-5.1208,40.9302,903.5854],[-5.1215,40.9315,902.7651],[-5.1181,40.933,897.077],[-5.1248,40.9436,901.2522],[-5.123,40.9454,898.2087],[-5.1232,40.9485,901.1366],[-5.1281,40.9486,909.1388],[-5.1275,40.9541,898.5368],[-5.1211,40.9562,881.9445],[-5.1166,40.9543,880.7021],[-5.1086,40.9584,879.8712],[-5.1086,40.9604,876.5842],[-5.1047,40.9603,870.5214],[-5.1063,40.9634,880.2158],[-5.0964,40.9785,863.7544],[-5.0963,40.9847,857.0994],[-5.0995,40.9896,854.9334],[-5.0897,40.9966,843.8904],[-5.0919,40.9985,844.0546],[-5.0919,41.0069,842.8492],[-5.1009,41.0143,836.8925],[-5.1,41.0169,835.9609],[-5.1026,41.0168,834.7527],[-5.1019,41.0218,832.3501],[-5.1052,41.0232,830.7641],[-5.1036,41.0265,828.3096],[-5.1078,41.0269,828.0878],[-5.1065,41.0295,825.1025],[-5.1312,41.0362,816.9379],[-5.1378,41.0394,817.5991],[-5.1407,41.0372,817.5751],[-5.1413,41.0405,816.7239],[-5.1464,41.0436,818.0782],[-5.1452,41.0467,813.2239],[-5.1482,41.048,811.7077],[-5.1469,41.0542,809.4667],[-5.1492,41.0553,808.5257],[-5.1491,41.0593,807.4952],[-5.1529,41.0637,809.2256],[-5.1502,41.0793,806.7111],[-5.1522,41.0819,801.0608],[-5.15,41.0838,797.1526],[-5.1513,41.0853,797.1526],[-5.1485,41.0921,800.0293],[-5.1433,41.0971,794.5248],[-5.1403,41.0968,790.9324],[-5.1394,41.0998,791.2825],[-5.1291,41.1054,791.2346],[-5.1248,41.132,781.4452],[-5.1284,41.1324,784.7538],[-5.1282,41.1336,784.7538],[-5.1322,41.1361,786.7331],[-5.1363,41.1412,790.3356],[-5.1361,41.144,774.4769],[-5.145,41.1476,769.7761],[-5.1486,41.1512,772.8276],[-5.16,41.1572,768.3757],[-5.1615,41.1567,768.5623],[-5.166,41.1603,769.1519],[-5.1744,41.1613,769.0692],[-5.1745,41.1633,769.283],[-5.1778,41.1631,770.0255],[-5.1785,41.1646,771.9359],[-5.1765,41.1652,771.119],[-5.1796,41.1673,779.5441],[-5.1815,41.166,778.3148],[-5.185,41.1667,781.0132],[-5.1912,41.1621,787.2163],[-5.1963,41.1632,791.2224],[-5.2004,41.1664,781.486],[-5.207,41.1649,779.1417],[-5.2078,41.1668,779.9833],[-5.2181,41.1596,783.3972],[-5.2223,41.1621,788.0013],[-5.2172,41.1675,794.6049],[-5.2222,41.1706,773.8478],[-5.2245,41.1765,776.3242],[-5.2235,41.1782,772.2272],[-5.2256,41.1784,774.9898],[-5.2248,41.1815,774.773],[-5.2283,41.1833,771.6257],[-5.2275,41.1867,771.1791],[-5.2292,41.1898,772.1812],[-5.2387,41.1939,779.5714],[-5.2424,41.1971,780.3251],[-5.2486,41.1961,783.2808],[-5.2477,41.1981,782.4587],[-5.2529,41.1998,783.8506],[-5.2555,41.1976,785.2526],[-5.2641,41.1973,785.0962],[-5.2685,41.1992,790.7256],[-5.2718,41.198,788.606],[-5.2705,41.1955,781.986],[-5.2739,41.1972,794.1696],[-5.2824,41.195,777.3702],[-5.2827,41.1962,795.427],[-5.2884,41.1956,782.0795],[-5.2918,41.1873,757.7533],[-5.2903,41.1865,776.8632],[-5.2915,41.1839,777.9039],[-5.2886,41.182,798.8179],[-5.2879,41.1773,794.5585],[-5.2922,41.1728,751.5848],[-5.2916,41.1696,748.8778],[-5.2985,41.1621,745.3721],[-5.2914,41.1515,770.7825],[-5.293,41.1498,787.9955],[-5.2905,41.1468,795.2367],[-5.2921,41.1461,792.7942],[-5.2977,41.1259,782.083],[-5.3174,41.1188,785.0293],[-5.3288,41.1172,784.2651],[-5.3317,41.118,785.3539],[-5.3287,41.1212,784.4564],[-5.3302,41.1229,780.6065],[-5.3324,41.1246,780.8411],[-5.3407,41.1234,785.1807],[-5.3476,41.1334,802.0296],[-5.3526,41.1334,790.4525],[-5.3569,41.1408,816.6277],[-5.3837,41.1343,816.228],[-5.384,41.1303,813.1838],[-5.3816,41.128,808.9805],[-5.3835,41.127,814.2753],[-5.381,41.1241,812.2676],[-5.3825,41.1217,808.7371],[-5.3787,41.1198,805.3638],[-5.3781,41.1176,802.3221],[-5.3806,41.1165,796.823],[-5.3769,41.1105,780.0756],[-5.3711,41.1103,791.9952],[-5.3684,41.1062,794.7972],[-5.3695,41.1053,793.4742],[-5.3658,41.1042,792.6241],[-5.3682,41.0974,798.2574],[-5.3675,41.0915,806.9039],[-5.3719,41.0796,826.8755],[-5.3814,41.0712,837.0983],[-5.3702,41.0754,834.8312],[-5.3652,41.0698,839.9182],[-5.3665,41.0674,843.1149],[-5.3637,41.0638,844.4304],[-5.3659,41.0629,850.107],[-5.3629,41.0586,830.576],[-5.3605,41.0589,839.4299],[-5.3586,41.0566,825.6095],[-5.3616,41.0558,828.7748],[-5.3617,41.051,836.0815],[-5.3651,41.049,841.9668],[-5.3597,41.0425,843.5805],[-5.3565,41.0418,840.6664],[-5.3559,41.0384,843.3017],[-5.3586,41.0359,845.9717],[-5.3564,41.0332,849.6004],[-5.3603,41.0297,856.4128],[-5.3758,41.0221,864.5682],[-5.3734,41.0164,864.4294],[-5.3849,41.0003,810.7006],[-5.3922,40.9941,804.5552],[-5.3906,40.9764,810.6116],[-5.3925,40.9745,811.3179],[-5.3898,40.9712,817.4724],[-5.3832,40.9706,833.0704],[-5.3771,40.9608,858.9628],[-5.3681,40.9561,858.9434],[-5.3666,40.9533,854.3152],[-5.3724,40.9493,856.5414],[-5.3704,40.9478,854.064],[-5.3793,40.9398,856.6238],[-5.3799,40.9363,848.7856],[-5.4053,40.9211,860.293],[-5.4175,40.9207,861.2056],[-5.4225,40.9155,856.8403],[-5.4157,40.9117,846.4847],[-5.4113,40.9116,844.776],[-5.4107,40.9084,840.2437],[-5.4015,40.9012,838.3955],[-5.4016,40.899,838.4999],[-5.3993,40.8974,821.0859],[-5.3972,40.898,817.573],[-5.3949,40.896,819.3268],[-5.3839,40.9019,824.5421],[-5.3778,40.8979,842.7091],[-5.3739,40.9008,833.9515],[-5.3733,40.8981,840.6002],[-5.37,40.8977,843.3654],[-5.37,40.8947,838.295],[-5.3642,40.896,865.5259],[-5.3631,40.8954,864.0125],[-5.3653,40.8935,857.5419],[-5.363,40.8929,860.7069],[-5.3591,40.8922,858.7682],[-5.3585,40.8936,858.7682],[-5.3556,40.8938,863.4343],[-5.355,40.8923,871.5609],[-5.3506,40.8913,885.4082],[-5.347,40.8928,877.7418],[-5.3448,40.8925,875.597],[-5.3442,40.8907,884.799],[-5.3425,40.8925,881.9107],[-5.3434,40.8906,884.799],[-5.3394,40.8893,873.6438],[-5.3352,40.8926,870.5425],[-5.3358,40.8888,878.5651],[-5.3321,40.8869,886.3948],[-5.3317,40.8849,887.7752],[-5.3287,40.8856,883.0996],[-5.3263,40.8806,890.9313],[-5.3289,40.8769,886.3723],[-5.3327,40.8752,874.4719],[-5.3342,40.8769,877.1652],[-5.342,40.8731,877.7455],[-5.3435,40.8745,873.3624],[-5.3518,40.8668,861.2477],[-5.3564,40.8676,860.2148],[-5.3636,40.8653,833.4019],[-5.3658,40.8628,833.1729],[-5.3705,40.8638,832.6526],[-5.3716,40.8653,832.6526],[-5.3788,40.8615,847.1503],[-5.3846,40.8613,841.8042],[-5.3847,40.8628,842.0736],[-5.3883,40.863,854.9919],[-5.3903,40.8609,846.3563],[-5.3888,40.8603,845.9965],[-5.3952,40.857,846.7804],[-5.3957,40.8475,848.8792],[-5.3915,40.8471,856.5927],[-5.3881,40.8424,862.4037],[-5.3847,40.8431,861.5912],[-5.3741,40.8307,886.8506],[-5.3704,40.8293,883.9447],[-5.3659,40.8309,876.0071],[-5.3602,40.8242,876.436],[-5.3447,40.8171,874.9438],[-5.3459,40.8161,877.2208],[-5.3444,40.8101,893.3973],[-5.3359,40.8049,907.3831],[-5.3376,40.8032,908.1336],[-5.3372,40.8002,908.6668],[-5.3318,40.7981,910.8739],[-5.3281,40.7921,918.728],[-5.3286,40.7864,910.3546],[-5.3453,40.7661,864.5005],[-5.3555,40.7605,894.2751],[-5.3548,40.7589,884.8719],[-5.3507,40.7607,873.2625],[-5.3477,40.7566,879.0979],[-5.3372,40.7541,893.5708],[-5.3346,40.7485,894.1851],[-5.3343,40.7387,907.5612],[-5.3297,40.7362,912.0613],[-5.3276,40.7324,916.6434],[-5.3289,40.7274,928.3016],[-5.327,40.7245,943.1126],[-5.3356,40.7205,942.204],[-5.3426,40.7201,944.0536],[-5.353,40.723,916.7577],[-5.3587,40.7227,891.8663],[-5.3676,40.7177,918.8292],[-5.3808,40.7141,943.0519],[-5.3831,40.7064,954.7425],[-5.3765,40.6987,970.8601],[-5.3727,40.6978,965.1858],[-5.3753,40.6958,971.3151],[-5.3701,40.6875,987.8611],[-5.3684,40.681,997.2156],[-5.3647,40.6794,1007.0613],[-5.3491,40.6871,951.559],[-5.3416,40.6869,959.3889],[-5.3371,40.6893,980.5581],[-5.332,40.6946,995.6616],[-5.3329,40.6977,990.1962],[-5.337,40.6995,979.6962],[-5.3302,40.7014,988.1485],[-5.3286,40.7054,979.7196],[-5.322,40.7055,957.752],[-5.3217,40.7031,964.3507],[-5.313,40.7036,941.3895],[-5.2927,40.7103,1025.0315],[-5.2896,40.7143,989.8063],[-5.2792,40.7202,949.1581],[-5.277,40.7238,956.2258]]]]}}