{"type":"Feature","properties":{"GID_1":"ESP.11_1","GID_0":"ESP","country":"Spain","province":"Extremadura","VARNAME_1":"Estremadura|Estrémadure","NL_NAME_1":"NA","TYPE_1":"ComunidadAutónoma","ENGTYPE_1":"AutonomousCommunity","CC_1":"11","HASC_1":"ES.EX","ISO_1":"ES-EX","name":"Extremadura.province"},
"geometry":{"type": "MultiPolygon","coordinates": [[[[-6.0639,37.9896,497.3145],[-6.0617,37.9915,491.306],[-6.0552,37.9923,511.7351],[-6.0522,37.9967,543.8276],[-6.0443,37.997,602.1301],[-6.0406,37.995,615.3834],[-6.0312,37.9977,622.7192],[-6.0241,37.9933,585.6639],[-6.017,37.9911,611.8964],[-6.0129,37.9934,573.6501],[-6.0061,37.9914,550.2854],[-5.9934,37.9996,381.3143],[-5.9868,37.998,378.9876],[-5.9774,37.9998,373.9639],[-5.9613,37.9997,335.0],[-5.9557,37.9984,335.0],[-5.9536,37.9954,335.0],[-5.945,38.007,336.4879],[-5.9448,38.0107,337.0061],[-5.9404,38.0149,335.0],[-5.9363,38.0244,334.5],[-5.9368,38.028,338.5668],[-5.9326,38.0315,343.6783],[-5.9366,38.0387,349.5477],[-5.9341,38.0469,366.779],[-5.9283,38.0502,387.3873],[-5.9192,38.0498,378.6545],[-5.9179,38.0562,377.9868],[-5.9132,38.0596,382.6034],[-5.9116,38.0628,389.4126],[-5.9089,38.0629,386.6449],[-5.9079,38.0683,393.282],[-5.9107,38.0782,399.9295],[-5.9292,38.0892,434.2041],[-5.9277,38.0912,434.424],[-5.9291,38.0964,450.6619],[-5.9276,38.0973,454.7161],[-5.9264,38.1044,476.904],[-5.9141,38.1176,612.6132],[-5.9128,38.1227,620.5901],[-5.9072,38.124,629.0586],[-5.8952,38.1305,711.1827],[-5.8808,38.1322,840.9527],[-5.8768,38.1379,697.2141],[-5.8785,38.1466,641.2628],[-5.8767,38.1484,624.4146],[-5.8774,38.1554,613.1522],[-5.8746,38.1584,579.9177],[-5.8565,38.1615,553.0906],[-5.8551,38.1695,544.664],[-5.8514,38.1719,541.675],[-5.8466,38.1714,542.8535],[-5.8377,38.1744,530.2247],[-5.823,38.1699,515.9461],[-5.8241,38.1722,515.7716],[-5.8222,38.1757,531.2202],[-5.8186,38.1751,507.6884],[-5.817,38.1777,530.1444],[-5.8153,38.1763,504.5493],[-5.8106,38.178,491.8124],[-5.8118,38.1748,492.5839],[-5.8105,38.1736,509.4817],[-5.803,38.1783,485.1351],[-5.7998,38.1745,485.2746],[-5.7917,38.1776,490.0201],[-5.7816,38.1859,479.6842],[-5.772,38.1834,464.8182],[-5.761,38.1828,462.474],[-5.7572,38.1806,467.4285],[-5.7552,38.1819,458.8614],[-5.7574,38.1839,490.2073],[-5.7566,38.1853,490.2073],[-5.7538,38.1843,455.4745],[-5.7485,38.1904,451.7391],[-5.7457,38.1895,444.4704],[-5.7419,38.1939,441.739],[-5.7314,38.1952,441.0538],[-5.728,38.1974,441.8679],[-5.725,38.1958,442.9204],[-5.7231,38.1925,448.7706],[-5.7146,38.189,435.8967],[-5.7141,38.1863,427.0154],[-5.7078,38.1883,423.5175],[-5.7049,38.1851,425.7531],[-5.7018,38.1864,422.0055],[-5.6979,38.185,419.3583],[-5.6946,38.1865,421.3405],[-5.6944,38.1835,423.0025],[-5.6987,38.1827,416.3361],[-5.6988,38.1809,416.9734],[-5.6977,38.1797,406.0915],[-5.6885,38.1819,406.8925],[-5.6874,38.1796,419.7326],[-5.6887,38.1712,458.3773],[-5.684,38.1608,522.4189],[-5.6841,38.1571,510.7169],[-5.686,38.1616,510.2525],[-5.6938,38.1682,476.524],[-5.6949,38.1711,426.6591],[-5.7019,38.1673,422.1857],[-5.7057,38.1694,429.357],[-5.7056,38.1641,428.0155],[-5.6946,38.1504,474.976],[-5.7043,38.1434,530.003],[-5.7088,38.1423,552.0084],[-5.7153,38.1338,536.9409],[-5.7186,38.1363,549.3073],[-5.7307,38.1371,485.2502],[-5.7387,38.1328,524.3157],[-5.7406,38.1266,612.2557],[-5.735,38.1145,619.2604],[-5.7339,38.0982,656.0187],[-5.7359,38.0945,676.8278],[-5.7348,38.0863,621.7225],[-5.7328,38.0875,611.4822],[-5.7194,38.0851,592.1745],[-5.7103,38.0811,570.7909],[-5.6935,38.0838,633.7543],[-5.6692,38.1018,669.0156],[-5.6669,38.1091,686.854],[-5.6458,38.1252,528.597],[-5.6441,38.1293,523.8307],[-5.6333,38.1381,486.7025],[-5.5847,38.1317,642.7988],[-5.5855,38.1404,629.5135],[-5.5739,38.1507,543.0009],[-5.5672,38.148,483.4329],[-5.5618,38.1508,440.5005],[-5.56,38.1486,427.8273],[-5.5566,38.1502,417.8944],[-5.5556,38.1534,401.1258],[-5.5535,38.1537,392.8019],[-5.5495,38.1611,351.6437],[-5.5413,38.1601,347.5047],[-5.5388,38.1617,343.7561],[-5.5357,38.1687,365.7018],[-5.5403,38.17,362.1931],[-5.5395,38.1718,364.484],[-5.542,38.1771,381.5572],[-5.5399,38.177,379.1631],[-5.5399,38.181,394.2388],[-5.5422,38.1814,384.4254],[-5.5436,38.1849,391.8387],[-5.5402,38.185,410.8191],[-5.5366,38.1919,410.8535],[-5.5391,38.1932,416.5222],[-5.5372,38.1965,416.1652],[-5.5388,38.1998,426.4691],[-5.5304,38.2033,443.493],[-5.5291,38.2019,465.1699],[-5.5266,38.2053,470.645],[-5.5209,38.2072,513.7254],[-5.5207,38.2108,522.3072],[-5.5233,38.213,534.484],[-5.5221,38.2139,549.9854],[-5.5242,38.2226,577.8793],[-5.5223,38.2304,608.0123],[-5.5237,38.2492,633.7485],[-5.5299,38.2552,628.7587],[-5.5258,38.2641,604.4306],[-5.5317,38.27,594.368],[-5.5374,38.273,588.6656],[-5.5373,38.2795,586.6436],[-5.541,38.2781,582.1204],[-5.5443,38.2823,577.9981],[-5.5415,38.2851,576.6309],[-5.5442,38.2885,574.3091],[-5.5469,38.2976,565.9506],[-5.5524,38.3035,562.7239],[-5.5505,38.3063,560.2385],[-5.5511,38.311,557.6351],[-5.5559,38.3183,555.3928],[-5.5676,38.3235,552.8433],[-5.5755,38.3296,553.9249],[-5.5736,38.3308,551.5476],[-5.5714,38.3384,549.8871],[-5.5722,38.3419,550.1508],[-5.5671,38.3513,547.306],[-5.5686,38.3567,544.2808],[-5.5668,38.3626,550.0685],[-5.5594,38.3661,541.9551],[-5.5595,38.3676,543.9413],[-5.5655,38.3669,545.7119],[-5.5664,38.3684,537.1696],[-5.563,38.372,547.7101],[-5.5667,38.3772,533.4758],[-5.5729,38.3784,532.3063],[-5.5773,38.3822,536.7399],[-5.5799,38.3811,530.4255],[-5.5849,38.3859,527.0997],[-5.5844,38.4003,523.6813],[-5.5726,38.4233,515.6614],[-5.5729,38.4269,514.6023],[-5.568,38.4334,513.4489],[-5.562,38.4356,512.6111],[-5.5527,38.4456,513.1909],[-5.5489,38.4467,510.5822],[-5.5463,38.45,507.3052],[-5.543,38.4499,510.5878],[-5.5307,38.4546,499.1999],[-5.5196,38.4632,496.171],[-5.5124,38.464,503.8127],[-5.5038,38.4567,505.384],[-5.4984,38.4595,499.6048],[-5.4947,38.4587,494.0798],[-5.491,38.4665,490.0626],[-5.4866,38.4658,505.2415],[-5.4843,38.4634,498.7352],[-5.4801,38.4743,486.1653],[-5.4811,38.4775,481.9493],[-5.4794,38.4847,482.0964],[-5.4741,38.486,491.1257],[-5.4692,38.4849,476.709],[-5.4583,38.4948,475.6871],[-5.4584,38.4992,484.3898],[-5.4504,38.4982,473.9624],[-5.4487,38.5021,477.6819],[-5.4447,38.5049,483.3886],[-5.4345,38.5044,468.2686],[-5.4277,38.5147,473.0947],[-5.4188,38.5125,459.3962],[-5.4158,38.5207,470.8598],[-5.4103,38.52,476.7465],[-5.4102,38.5241,462.6539],[-5.4134,38.5241,455.3793],[-5.4159,38.5302,452.1443],[-5.4035,38.5361,457.0965],[-5.4071,38.5433,452.325],[-5.3996,38.5466,447.7933],[-5.3966,38.5463,447.437],[-5.3904,38.5401,446.4247],[-5.3846,38.5392,442.696],[-5.3829,38.5411,442.4459],[-5.3835,38.5437,447.8752],[-5.3914,38.5489,440.9866],[-5.3927,38.5528,439.6856],[-5.3918,38.5547,439.3375],[-5.3857,38.5548,438.306],[-5.3833,38.5574,449.5506],[-5.3897,38.5622,437.2988],[-5.3859,38.5668,436.2177],[-5.3756,38.5683,434.8702],[-5.3696,38.5794,464.8727],[-5.3716,38.5836,466.9916],[-5.3565,38.5855,475.1013],[-5.347,38.5834,475.7541],[-5.3356,38.5785,460.0439],[-5.3288,38.5783,415.9703],[-5.3237,38.5806,417.0469],[-5.3095,38.5773,417.5773],[-5.3058,38.5808,410.0798],[-5.3066,38.586,408.9302],[-5.3106,38.59,408.5002],[-5.3097,38.5941,406.1364],[-5.3018,38.5982,405.0034],[-5.2932,38.6091,401.3687],[-5.287,38.613,400.7297],[-5.2792,38.6123,400.6252],[-5.2732,38.6157,431.0192],[-5.2705,38.6211,396.2499],[-5.2541,38.6261,426.9659],[-5.2539,38.6332,394.3503],[-5.2449,38.6321,397.3502],[-5.2473,38.6399,389.602],[-5.2419,38.6371,392.8322],[-5.2374,38.6377,406.3204],[-5.2355,38.6431,388.7856],[-5.2313,38.6443,384.6535],[-5.2293,38.6471,387.9036],[-5.2223,38.6489,384.1746],[-5.2238,38.6565,383.2587],[-5.2194,38.656,402.0636],[-5.2171,38.6492,388.8134],[-5.2146,38.6486,446.2946],[-5.2115,38.6518,378.8262],[-5.2122,38.656,378.2093],[-5.2079,38.6679,379.616],[-5.204,38.6661,375.7561],[-5.2014,38.6578,374.0546],[-5.1993,38.6564,406.3552],[-5.1976,38.6568,410.8022],[-5.1968,38.6605,391.3483],[-5.1984,38.6645,376.0929],[-5.1975,38.667,373.5935],[-5.1947,38.6668,392.6458],[-5.1902,38.6605,372.2976],[-5.1849,38.6594,371.454],[-5.179,38.6657,373.0128],[-5.1873,38.6704,383.0972],[-5.1856,38.6742,371.8891],[-5.1827,38.6761,369.0903],[-5.1679,38.6773,368.1991],[-5.1676,38.6817,392.5887],[-5.1733,38.6885,453.5395],[-5.1754,38.7005,546.9075],[-5.1812,38.7067,585.0861],[-5.1802,38.7123,496.6278],[-5.1844,38.7197,499.2231],[-5.1708,38.7173,489.6967],[-5.1693,38.7131,449.0725],[-5.1665,38.7117,441.9294],[-5.1639,38.714,456.4581],[-5.1553,38.7159,437.6328],[-5.1498,38.7164,424.0293],[-5.1424,38.7138,447.2984],[-5.1183,38.716,377.7238],[-5.1119,38.7119,376.8164],[-5.1007,38.7077,357.1817],[-5.0924,38.709,349.0993],[-5.09,38.7115,351.1911],[-5.0802,38.7154,346.0],[-5.0682,38.7176,347.4657],[-5.0631,38.7212,346.0],[-5.0615,38.7243,346.0],[-5.0498,38.7266,388.0888],[-5.0387,38.7333,400.8137],[-5.0165,38.7355,346.0],[-5.0096,38.7352,346.0],[-5.0039,38.733,352.7668],[-4.9899,38.7398,436.9146],[-4.9832,38.7515,452.0837],[-4.9727,38.7609,513.2044],[-4.9681,38.776,765.485],[-4.9607,38.7898,491.7539],[-4.9608,38.7966,523.025],[-4.9576,38.8036,526.1344],[-4.9586,38.8104,531.2726],[-4.9535,38.83,630.509],[-4.9444,38.8472,440.9728],[-4.9434,38.8544,488.0951],[-4.9345,38.8649,427.5282],[-4.9279,38.87,428.1198],[-4.9241,38.8768,388.1854],[-4.9191,38.8802,400.7231],[-4.9148,38.8875,411.4504],[-4.8997,38.8891,641.6731],[-4.8896,38.8866,738.4586],[-4.8652,38.887,757.9939],[-4.8477,38.8821,746.3939],[-4.8425,38.8953,521.9063],[-4.8458,38.8997,497.2768],[-4.841,38.9202,454.9799],[-4.837,38.9297,516.2701],[-4.831,38.9356,532.3656],[-4.8329,38.9393,573.5359],[-4.8437,38.9402,715.9353],[-4.8429,38.9451,791.2946],[-4.8518,38.9473,752.7647],[-4.8728,38.9488,733.7083],[-4.8765,38.9478,749.6797],[-4.8812,38.9492,774.4777],[-4.8916,38.9529,841.6348],[-4.8903,38.9569,710.4501],[-4.8935,38.96,620.8818],[-4.905,38.9633,563.6401],[-4.9132999999999996,38.9607,554.6295],[-4.9181,38.9571,537.4548],[-4.9336,38.9756,533.5707],[-4.9368,38.9857,537.2263],[-4.9371,38.9972,544.9173],[-4.9452,39.0088,485.6775],[-4.9512,39.0307,512.3639],[-4.9618,39.0524,462.0471],[-4.9624,39.0587,454.4454],[-4.9485,39.0563,628.8998],[-4.9361,39.0568,656.8403],[-4.9145,39.0486,817.4161],[-4.9027,39.041,775.1266],[-4.8822,39.0329,762.4484],[-4.875,39.032,781.5611],[-4.8685,39.034,783.8264],[-4.8609,39.0318,729.6464],[-4.8525,39.0388,712.9161],[-4.8491,39.0455,758.0378],[-4.8424,39.0476,782.5669],[-4.8386,39.0448,777.5352],[-4.8327,39.0462,723.3513],[-4.8322,39.0515,618.363],[-4.8257,39.0626,646.3044],[-4.8357,39.0709,608.4037],[-4.8583,39.0769,570.2059],[-4.8743,39.099,524.6536],[-4.8696,39.1135,532.5718],[-4.8571,39.1227,526.8151],[-4.856,39.1317,533.2731],[-4.858,39.1347,535.4398],[-4.8536,39.141,548.2771],[-4.8549,39.1473,558.9196],[-4.8535,39.1517,558.6003],[-4.8451,39.1614,612.6625],[-4.8386,39.1639,681.8298],[-4.8314,39.1642,702.0696],[-4.8313,39.1761,676.5975],[-4.8211,39.1809,682.2272],[-4.8131,39.191,695.7262],[-4.8091,39.1979,779.5955],[-4.8102,39.1994,819.7574],[-4.7735,39.1895,692.6182],[-4.7424,39.1945,654.2868],[-4.7143,39.1876,647.0286],[-4.6764,39.1696,729.9618],[-4.6752,39.1707,720.4601],[-4.6615,39.1662,695.0716],[-4.6489,39.1649,504.5593],[-4.6475,39.1687,440.722],[-4.6492,39.172,435.5603],[-4.6632999999999996,39.1793,427.8327],[-4.6632,39.1842,425.2932],[-4.6651,39.1861,425.3788],[-4.6723,39.1873,427.1912],[-4.6776,39.1918,424.9262],[-4.6825,39.193,423.0],[-4.6872,39.2024,422.5],[-4.6896,39.204,426.0491],[-4.7081,39.2099,422.5],[-4.7051,39.2138,507.4032],[-4.7108,39.2271,546.4481],[-4.7143,39.2422,667.3201],[-4.7134,39.2443,691.7032],[-4.7336,39.2526,759.4514],[-4.7315,39.2549,754.0037],[-4.7545,39.3115,630.1184],[-4.7609,39.3208,530.4995],[-4.7347,39.3267,504.2541],[-4.7137,39.3287,582.2457],[-4.7066,39.3277,579.2079],[-4.7059,39.3306,520.6356],[-4.7099,39.3458,600.4423],[-4.7041,39.3645,620.9863],[-4.6942,39.3736,620.2072],[-4.6953,39.3764,625.9098],[-4.693,39.3824,494.6162],[-4.6878,39.3858,498.3077],[-4.6877,39.3928,530.4357],[-4.6831,39.4007,531.8425],[-4.6721,39.4127,540.8171],[-4.6694,39.4245,573.4292],[-4.6728,39.4267,668.3225],[-4.6777,39.4354,674.2637],[-4.6817,39.4368,675.6393],[-4.6862,39.4415,672.9425],[-4.6876,39.4503,679.5923],[-4.6902,39.4518,624.2787],[-4.7146,39.4348,576.0914],[-4.7382,39.4236,541.9193],[-4.7415,39.4238,575.1191],[-4.7553,39.4157,526.4087],[-4.7639,39.4051,525.8527],[-4.7756,39.3969,527.4361],[-4.7887,39.3988,490.2848],[-4.7958,39.3969,496.1031],[-4.8106,39.3965,472.6391],[-4.8133,39.3944,475.0079],[-4.8319,39.3894,452.9056],[-4.8445,39.3796,440.3058],[-4.8463,39.3791,442.2804],[-4.8492,39.3816,438.0605],[-4.8531,39.3791,430.5041],[-4.8555,39.3789,433.2602],[-4.8564,39.381,438.2035],[-4.8612,39.3793,426.1352],[-4.8633,39.375,424.0098],[-4.8681,39.375,418.5],[-4.8708,39.3683,418.5],[-4.8765,39.3718,418.5],[-4.882,39.3729,418.0],[-4.8865,39.3706,418.0],[-4.903,39.3752,418.0],[-4.903,39.3788,418.0],[-4.9057,39.3798,418.0],[-4.9091,39.3785,418.0],[-4.9123,39.38,418.0],[-4.9214,39.3875,418.0],[-4.932,39.388,418.0],[-4.9338,39.3954,418.0],[-4.9496,39.3931,416.75],[-4.9636,39.4044,618.0558],[-4.9722,39.4089,639.3809],[-4.9851,39.4195,591.5696],[-4.998,39.4267,667.9517],[-5.0004,39.43,679.2091],[-5.0077,39.4344,636.3564],[-5.0257,39.4523,662.7939],[-5.0439,39.4771,796.3876],[-5.0588,39.4894,837.6738],[-5.0746,39.4869,902.2385],[-5.0838,39.4907,893.2062],[-5.1035,39.5088,932.4547],[-5.1237,39.5216,933.0818],[-5.1351,39.5361,1094.8864],[-5.1457,39.5465,1090.7609],[-5.1459,39.5494,1137.5378],[-5.1547,39.5536,1221.8695],[-5.1606,39.5615,1216.7334],[-5.1777,39.5725,1273.5183],[-5.2065,39.5972,1120.0287],[-5.2051,39.5999,1075.4235],[-5.1922,39.6083,848.8489],[-5.1871,39.6164,663.6979],[-5.1829,39.6177,646.6721],[-5.1773,39.6246,629.575],[-5.1725,39.6354,617.0878],[-5.1614,39.6431,588.0893],[-5.1619,39.6461,571.3265],[-5.1641,39.6468,569.1342],[-5.1616,39.6503,562.1539],[-5.1623,39.6554,553.821],[-5.1587,39.6551,567.5889],[-5.1513,39.6613,546.7749],[-5.1487,39.6681,571.4447],[-5.1563,39.6739,532.519],[-5.1517,39.696,531.5947],[-5.1462,39.706,497.7393],[-5.1377,39.715,470.5048],[-5.1451,39.7265,461.9212],[-5.1565,39.739,419.0964],[-5.1625,39.7406,443.6604],[-5.1737,39.7509,465.894],[-5.1743,39.7552,455.0988],[-5.1643,39.7559,422.8179],[-5.1583,39.7597,404.777],[-5.1606,39.7712,394.7395],[-5.1654,39.78,361.5774],[-5.1674,39.7902,350.6409],[-5.1668,39.7999,315.7997],[-5.1719,39.7983,324.3665],[-5.206,39.7977,316.4181],[-5.21,39.7927,313.6606],[-5.2316,39.7746,314.9236],[-5.244,39.767,349.2903],[-5.2446,39.7609,302.75],[-5.2541,39.7526,310.5382],[-5.2668,39.7524,304.0224],[-5.2759,39.7566,301.3699],[-5.2951,39.7609,299.3792],[-5.3087,39.7604,326.9323],[-5.3145,39.7676,301.7331],[-5.3161,39.7728,322.8104],[-5.3112,39.7872,307.5851],[-5.3151,39.7887,301.3281],[-5.3163,39.7966,362.388],[-5.3131,39.8063,342.4284],[-5.3125,39.8243,357.346],[-5.3103,39.8313,363.6877],[-5.3064,39.8363,352.4898],[-5.2952,39.844,351.419],[-5.2901,39.852,350.4053],[-5.2834,39.8572,338.7512],[-5.2839,39.8639,338.8967],[-5.292,39.8659,352.2011],[-5.2942,39.8749,372.218],[-5.31,39.8802,386.6076],[-5.3107,39.8865,354.9064],[-5.3174,39.8908,336.8583],[-5.3263,39.892,334.489],[-5.3694,39.8884,311.5771],[-5.3938,39.8791,312.4097],[-5.406,39.8777,323.1865],[-5.4046,39.883,324.8835],[-5.401,39.8857,320.8623],[-5.3951,39.9169,292.6847],[-5.3823,39.9421,292.6506],[-5.3727,39.9706,286.43],[-5.365,39.9839,289.4622],[-5.3656,39.9928,294.452],[-5.3623,40.0111,290.7786],[-5.364,40.0261,299.5765],[-5.3658,40.0386,290.0345],[-5.3737,40.0593,285.5642],[-5.3679,40.079,287.6915],[-5.3671,40.0879,298.5211],[-5.3689,40.1001,283.6496],[-5.3593,40.1084,283.2726],[-5.3466,40.1111,287.7945],[-5.3386,40.1158,291.3041],[-5.3359,40.1158,290.695],[-5.3369,40.1242,301.2853],[-5.3419,40.126,308.276],[-5.3458,40.1297,315.4946],[-5.3458,40.1335,322.4163],[-5.3567,40.1484,362.0838],[-5.3571,40.1528,381.3691],[-5.3601,40.1543,384.855],[-5.3601,40.1569,384.9306],[-5.3669,40.1604,394.0762],[-5.3679,40.1641,416.58],[-5.3647,40.1745,444.7339],[-5.3646,40.1819,471.2744],[-5.3664,40.1835,489.8943],[-5.3664,40.196,554.4363],[-5.3681,40.1991,582.5571],[-5.364,40.2033,627.4705],[-5.3694,40.211,719.7184],[-5.3696,40.2183,774.3176],[-5.3626,40.223,838.9404],[-5.3582,40.2283,932.551],[-5.3583,40.232,973.8221],[-5.3431,40.2641,2115.8425],[-5.3488,40.2652,2139.842],[-5.3577,40.263,2133.5254],[-5.3641,40.257,2116.3213],[-5.3786,40.2579,1994.5103],[-5.3949,40.2505,2220.1216],[-5.4125,40.2552,2226.6138],[-5.4297,40.2523,2173.9487],[-5.4397,40.2336,2209.7896],[-5.4522,40.2272,2240.7749],[-5.468,40.2242,2215.1433],[-5.4708,40.2079,2112.3108],[-5.488,40.2047,2095.8787],[-5.499,40.1989,2238.0684],[-5.4999,40.2008,2223.4155],[-5.5096,40.2019,2126.8755],[-5.5186,40.1969,2196.1167],[-5.5309,40.1947,2070.4082],[-5.5364,40.1966,2021.1692],[-5.541,40.1959,2028.1941],[-5.548,40.1972,2021.1323],[-5.5517,40.2006,2017.4741],[-5.5635,40.2026,1995.2322],[-5.5681,40.2064,2041.3506],[-5.5909,40.2153,2098.9668],[-5.5983,40.2168,2355.6489],[-5.6099,40.2155,2283.7666],[-5.6188,40.2239,2271.8462],[-5.6136,40.2333,2109.3628],[-5.6143,40.2359,2119.9387],[-5.6163,40.2363,2127.8047],[-5.621,40.2414,1994.5005],[-5.6219,40.2459,1990.469],[-5.6261,40.2477,1998.5369],[-5.6491,40.2497,1697.6421],[-5.6597,40.2574,1497.5326],[-5.6565,40.2702,1301.1453],[-5.6826,40.2839,1655.7152],[-5.6925,40.2921,2012.6008],[-5.7002,40.2889,2055.5125],[-5.7051,40.2912,2016.6061],[-5.7341,40.2925,2359.4141],[-5.7374,40.2941,2346.8882],[-5.7443,40.2889,2359.5093],[-5.7578,40.2825,2183.7227],[-5.7649,40.2808,2153.6216],[-5.793,40.2867,1556.702],[-5.8026,40.2976,1157.6252],[-5.7932,40.3003,1251.2107],[-5.7892,40.3065,1411.5957],[-5.7819,40.3125,1566.8735],[-5.7938,40.3485,1401.0752],[-5.7974,40.3533,1565.045],[-5.8083,40.35,1256.6956],[-5.8167,40.3509,1133.5687],[-5.8225,40.3479,1180.0388],[-5.8248,40.3442,1167.1119],[-5.847,40.3281,1051.761],[-5.8536,40.3315,859.4138],[-5.8498,40.3382,885.9943],[-5.8522,40.337,932.5651],[-5.8549,40.3384,973.2858],[-5.8577,40.3344,1025.5172],[-5.8675,40.3314,1035.8984],[-5.874,40.3266,1143.436],[-5.8841,40.3266,1183.4735],[-5.8936,40.3182,1077.7878],[-5.8922,40.3119,990.0054],[-5.896,40.3053,932.3853],[-5.9082,40.2901,828.1797],[-5.9139,40.2871,790.4117],[-5.9171,40.2777,598.5889],[-5.9207,40.2809,619.4009],[-5.9377,40.2811,577.4617],[-5.9416,40.2844,670.3978],[-5.9648,40.2915,561.8481],[-5.9684,40.2896,546.8555],[-5.9755,40.2932,536.9536],[-5.9788,40.297,571.3456],[-5.992,40.299,777.318],[-6.0061,40.3061,913.0389],[-6.0113,40.3133,961.0139],[-6.0163,40.3165,954.7474],[-6.0195,40.3226,891.4079],[-6.0159,40.3403,602.712],[-6.0276,40.3395,854.1744],[-6.0456,40.3429,968.3993],[-6.0521,40.3416,995.8867],[-6.0676,40.3475,819.4871],[-6.1056,40.3568,382.7672],[-6.1021,40.3584,380.0],[-6.0968,40.3565,380.0],[-6.0923,40.3617,380.0],[-6.0858,40.3608,380.0],[-6.0823,40.3632,380.0],[-6.0811,40.3731,380.0],[-6.0863,40.3751,385.9754],[-6.0862,40.378,388.9837],[-6.0841,40.38,389.0826],[-6.0747,40.3822,388.8246],[-6.0724,40.3876,380.5],[-6.0837,40.3885,385.045],[-6.0852,40.3899,386.7429],[-6.0835,40.3923,419.9244],[-6.0761,40.391,386.6797],[-6.0741,40.3958,450.8948],[-6.0669,40.3951,381.3223],[-6.0648,40.3966,382.2229],[-6.068,40.3993,386.9058],[-6.0738,40.4008,384.9117],[-6.075,40.4034,382.4757],[-6.0828,40.403,389.0362],[-6.085,40.407,392.1077],[-6.0876,40.4087,397.9377],[-6.0918,40.408,398.498],[-6.0927,40.4112,411.7724],[-6.0973,40.4131,406.2328],[-6.104,40.415,423.3025],[-6.107,40.414,423.4635],[-6.1179,40.4159,421.7114],[-6.1188,40.4193,451.4244],[-6.1294,40.4208,447.9041],[-6.125,40.4294,589.4259],[-6.1192,40.4351,764.8491],[-6.1169,40.4353,777.3668],[-6.116,40.4416,1162.4426],[-6.1201,40.4427,1117.2346],[-6.1322,40.4369,996.4917],[-6.1469,40.4361,641.7239],[-6.1558,40.4478,1006.176],[-6.1524,40.4526,972.4631],[-6.1576,40.457,938.7807],[-6.1691,40.4581,1239.6168],[-6.1803,40.4622,1235.4803],[-6.1865,40.4664,1217.2018],[-6.1876,40.4713,1387.6099],[-6.1911,40.4722,1436.0405],[-6.2013,40.4829,1578.14],[-6.2119,40.4827,1409.0298],[-6.2312,40.4867,1351.0042],[-6.2398,40.4859,1363.7557],[-6.2549,40.47,1126.2756],[-6.2647,40.4709,1119.0254],[-6.2683,40.4676,1075.0015],[-6.2709,40.4609,1105.4547],[-6.2752,40.4585,1228.8875],[-6.2877,40.4576,1249.6432],[-6.2943,40.452,1043.8928],[-6.3222,40.4505,1163.7704],[-6.3252,40.4477,1196.2745],[-6.3346,40.4475,1196.5074],[-6.3445,40.4428,1241.0516],[-6.3458,40.4371,1263.1213],[-6.3654,40.4224,1495.3613],[-6.3657,40.4173,1443.9833],[-6.3613,40.4154,1532.671],[-6.3629,40.4117,1504.53],[-6.3618,40.4071,1561.8405],[-6.3759,40.4002,1387.7937],[-6.3831,40.4007,1467.0381],[-6.3911,40.399,1352.3258],[-6.4077,40.402,1349.6215],[-6.4187,40.3993,1311.0544],[-6.4242,40.3915,1200.1342],[-6.4395,40.3816,1170.9818],[-6.441,40.378,1228.2856],[-6.4382,40.3728,1375.5413],[-6.4501,40.3709,1185.0585],[-6.462,40.3727,1138.0063],[-6.4746,40.3701,1179.4016],[-6.4857,40.3632,1204.614],[-6.4933,40.362,1146.0803],[-6.5362,40.3473,914.4028],[-6.5603,40.3291,825.6669],[-6.5646,40.3146,1070.4757],[-6.5566,40.306399999999996,1071.0144],[-6.5559,40.3042,1053.0759],[-6.5595,40.2958,1169.8588],[-6.5561,40.2908,1190.7825],[-6.5687,40.2828,1132.8174],[-6.5709,40.2795,1131.2112],[-6.5835,40.2745,1267.0332],[-6.5869,40.2707,1343.803],[-6.5973,40.2716,1199.9559],[-6.6147,40.2661,1167.4003],[-6.6251,40.2666,1184.1255],[-6.6345,40.2647,1180.6937],[-6.6398,40.2689,1056.8477],[-6.6716,40.2632,956.0201],[-6.6776,40.258,924.4957],[-6.6777,40.251,972.9438],[-6.6883,40.2466,912.4423],[-6.69,40.2427,945.5339],[-6.7031,40.2511,883.118],[-6.7097,40.2605,910.7923],[-6.7114,40.2669,946.8875],[-6.7181,40.2692,1009.2582],[-6.7266,40.265,1002.3896],[-6.7351,40.2572,985.7369],[-6.7413,40.2562,996.0143],[-6.7517,40.2499,1197.7085],[-6.7554,40.2463,1305.1406],[-6.7555,40.2389,1447.6509],[-6.778,40.2455,1028.8977],[-6.7814,40.2491,1086.9563],[-6.802,40.2496,1082.2961],[-6.8,40.2421,1233.021],[-6.8066,40.2415,1227.3645],[-6.8105,40.2444,1210.546],[-6.8211,40.2447,1214.9886],[-6.8232,40.2458,1248.4219],[-6.8226,40.2482,1278.1215],[-6.8344,40.2476,1233.7224],[-6.8371,40.2486,1224.4827],[-6.8398,40.2556,1228.7217],[-6.8467,40.2544,1200.2509],[-6.8648,40.2705,1217.3945],[-6.868,40.2643,1145.8876],[-6.8762,40.26,1121.8126],[-6.884,40.2579,1042.5193],[-6.8899,40.2605,1090.4222],[-6.9044,40.2572,991.8879],[-6.9073,40.2539,973.9926],[-6.9167,40.2561,968.6436],[-6.9193,40.2554,974.8177],[-6.9261,40.2583,968.301],[-6.9337,40.2571,984.0598],[-6.9381,40.2587,984.3237],[-6.9442,40.2565,995.2633],[-6.9514,40.2576,1011.3077],[-6.9551,40.2518,972.2233],[-6.9544,40.2492,1004.7967],[-6.9615,40.243,920.5277],[-6.9633,40.2382,899.4196],[-6.9719,40.2365,922.7574],[-6.9764,40.2406,874.9169],[-6.9791,40.2406,870.3241],[-6.9889,40.2364,803.8544],[-6.9983,40.2353,822.1411],[-7.0127,40.2254,820.4326],[-7.0107,40.2229,807.2614],[-7.0189,40.2057,809.387],[-7.0189,40.1973,851.3856],[-7.025,40.1943,807.1679],[-7.0283,40.1909,627.1599],[-7.03,40.1864,536.389],[-7.0285,40.1827,519.2035],[-7.0255,40.1808,498.0776],[-7.0213,40.1805,496.6943],[-7.0165,40.1765,468.3193],[-7.0182,40.1755,481.5574],[-7.0178,40.1701,451.9548],[-7.022,40.1674,426.3643],[-7.0144,40.1582,406.4195],[-7.016,40.1539,407.4526],[-7.0143,40.1493,391.1844],[-7.0178,40.1481,395.3158],[-7.0212,40.144,382.9646],[-7.0171,40.1426,390.0675],[-7.0156,40.1381,371.7152],[-7.0137,40.1376,385.1717],[-7.0152,40.1357,371.3808],[-7.0126,40.1341,367.4781],[-7.0146,40.1318,368.6196],[-7.0119,40.1322,366.3232],[-7.009,40.1301,370.7138],[-7.0131,40.1264,351.9969],[-7.0072,40.1251,351.4404],[-7.0073,40.1228,344.1915],[-7.0036,40.124,351.4601],[-7.0029,40.1213,339.0023],[-6.9993,40.1213,347.5573],[-6.9998,40.1191,346.6406],[-6.9933,40.1193,333.5023],[-6.993,40.1125,324.8866],[-6.9904,40.1135,338.5355],[-6.9898,40.1177,328.0324],[-6.9866,40.1191,325.1891],[-6.9821,40.117,344.2736],[-6.9786,40.119,334.8048],[-6.9761,40.1164,323.4478],[-6.9692,40.1149,321.7692],[-6.9623,40.117,314.146],[-6.9608,40.1155,314.146],[-6.9621,40.1129,315.0096],[-6.9608,40.1111,313.2967],[-6.958,40.1117,318.6171],[-6.9542,40.1156,327.6921],[-6.9483,40.11,324.2602],[-6.9409,40.1125,316.9828],[-6.941,40.1069,311.5947],[-6.9434,40.1059,303.7175],[-6.943,40.104,302.4523],[-6.9338,40.1035,310.4424],[-6.9317,40.0959,310.4425],[-6.9208,40.0871,307.3862],[-6.9188,40.0827,304.6637],[-6.9173,40.0661,287.6701],[-6.9094,40.0672,285.2122],[-6.9076,40.0632,296.1659],[-6.9037,40.0614,277.8404],[-6.8923,40.0602,286.4713],[-6.8972,40.0521,293.3304],[-6.8866,40.0467,301.9423],[-6.8809,40.0417,273.1716],[-6.8825,40.0334,289.0765],[-6.8743,40.0238,263.297],[-6.8773,40.0182,263.6041],[-6.8667,40.0152,261.5259],[-6.8638,40.012,260.2499],[-6.8658,40.0097,260.0179],[-6.8738,40.0075,258.8875],[-6.8744,40.0041,260.4525],[-6.8727,40.0003,261.8074],[-6.8739,39.9949,257.22],[-6.8867,39.9793,276.1405],[-6.8858,39.9769,263.4898],[-6.8796,39.9718,256.315],[-6.8873,39.9652,250.3264],[-6.8885,39.961,253.1333],[-6.8847,39.9548,245.622],[-6.8857,39.951,252.2943],[-6.8839,39.9459,250.9913],[-6.885,39.9407,243.5885],[-6.8907,39.9376,249.3514],[-6.8928,39.9325,239.288],[-6.9011,39.9308,247.6993],[-6.9014,39.9277,239.2504],[-6.9066,39.9238,234.1752],[-6.9036,39.9211,246.6207],[-6.9073,39.9197,235.2039],[-6.9075,39.9179,239.0142],[-6.9042,39.9168,238.7709],[-6.8995,39.9107,231.5499],[-6.9023,39.9057,233.8869],[-6.8994,39.9009,228.2662],[-6.906,39.8903,237.5524],[-6.902,39.8866,233.7031],[-6.9041,39.8765,250.935],[-6.9028,39.8731,222.7663],[-6.9036,39.8707,221.0931],[-6.9075,39.8688,240.9883],[-6.9095,39.8631,203.6485],[-6.9122,39.8623,198.456],[-6.9143,39.8588,198.0117],[-6.9239,39.8578,198.4057],[-6.9301,39.8536,191.4305],[-6.936,39.8428,190.5526],[-6.9342,39.8408,192.6888],[-6.9349,39.8386,207.4519],[-6.9391,39.8373,190.8776],[-6.9401,39.8341,190.4021],[-6.9438,39.8357,197.4773],[-6.9458,39.8343,191.9864],[-6.9484,39.8275,185.126],[-6.9582,39.8238,181.8634],[-6.9601,39.8251,181.7577],[-6.9709,39.825,179.4231],[-6.9751,39.8195,205.226],[-6.981,39.82,166.9847],[-6.9842,39.8142,178.6495],[-6.9839,39.8104,194.1841],[-6.9872,39.81,174.656],[-6.988,39.8007,174.5533],[-6.9866,39.7982,175.6795],[-6.9895,39.7947,164.6854],[-6.9835,39.7907,170.429],[-6.9817,39.7819,167.6262],[-6.9774,39.7777,166.4874],[-6.9768,39.7723,183.5763],[-6.9841,39.7681,167.7401],[-6.9872,39.7632,180.5789],[-6.987,39.7542,172.1138],[-6.9898,39.7522,166.7356],[-6.9939,39.7403,188.019],[-6.9918,39.7356,191.1528],[-6.9939,39.7316,182.1655],[-6.9873,39.7276,152.5958],[-6.9937,39.7218,162.6883],[-6.9953,39.7166,156.4514],[-6.9995,39.7142,191.335],[-7.0024,39.7052,145.4268],[-7.0054,39.7018,151.4034],[-7.0038,39.697,140.858],[-7.0067,39.6918,147.7931],[-7.0073,39.6847,175.055],[-7.0133,39.6793,129.7316],[-7.0155,39.6704,157.8269],[-7.065,39.658,114.0],[-7.0732,39.6582,128.824],[-7.0894,39.6634,120.0842],[-7.1228,39.6638,160.2704],[-7.128,39.6627,118.5275],[-7.1428,39.6538,132.0337],[-7.1514,39.6531,114.0],[-7.2015,39.6622,126.031],[-7.2157,39.6599,116.0746],[-7.2515,39.6668,116.5733],[-7.2865,39.6607,113.5],[-7.2952,39.6544,113.5],[-7.3184,39.6485,113.5],[-7.327,39.6427,116.7769],[-7.3337,39.6408,113.5],[-7.3752,39.6508,113.5],[-7.3918,39.6497,113.5],[-7.403,39.6463,117.3535],[-7.4253,39.6511,113.5],[-7.4397,39.6588,151.9072],[-7.4555,39.6624,116.8847],[-7.4769,39.6628,113.5],[-7.4918,39.6658,113.5],[-7.5317,39.6673,123.0247],[-7.5417,39.6637,86.4801],[-7.5372,39.6614,124.505],[-7.5321,39.6622,152.3165],[-7.5317,39.6584,115.5902],[-7.5276,39.6559,117.0803],[-7.5276,39.6475,122.1892],[-7.5247,39.6428,116.1573],[-7.5274,39.6349,141.973],[-7.5207,39.6262,134.4625],[-7.5101,39.6188,115.2558],[-7.5078,39.6067,134.1797],[-7.5046,39.6043,128.2643],[-7.5039,39.6008,144.8986],[-7.5001,39.5994,124.4698],[-7.4994,39.5896,133.3676],[-7.4949,39.5861,127.6005],[-7.4883,39.5868,137.831],[-7.4789,39.5788,143.0207],[-7.4669,39.577,182.2571],[-7.4655,39.5739,155.7506],[-7.4612,39.5728,144.9207],[-7.4598,39.5668,152.5615],[-7.4526,39.5627,155.8609],[-7.448,39.5518,159.0084],[-7.4446,39.5513,160.2552],[-7.4465,39.5481,161.5639],[-7.4435,39.5471,196.5381],[-7.4417,39.5432,162.2348],[-7.4303,39.5345,190.6796],[-7.4267,39.5327,168.7879],[-7.422,39.5345,171.6642],[-7.4184,39.5315,170.5446],[-7.4105,39.5323,196.9014],[-7.4062,39.5306,169.9029],[-7.4001,39.5338,219.5567],[-7.3907,39.5297,177.328],[-7.3928,39.5272,190.7276],[-7.3885,39.524,197.1921],[-7.3889,39.5138,218.7468],[-7.3877,39.5104,196.6814],[-7.39,39.5079,199.9074],[-7.3904,39.5032,228.4393],[-7.3872,39.5015,214.865],[-7.3864,39.4984,236.4173],[-7.3791,39.4964,199.2753],[-7.3788,39.4945,205.2616],[-7.3819,39.4912,213.3814],[-7.365,39.4862,232.8242],[-7.3649,39.4822,243.005],[-7.3625,39.4814,256.2895],[-7.3605,39.4834,263.1382],[-7.3478,39.488,261.686],[-7.3476,39.4834,267.4352],[-7.3438,39.4781,287.7819],[-7.3381,39.479,286.0319],[-7.3326,39.4762,279.4638],[-7.323,39.4747,282.0706],[-7.3192,39.4699,291.6083],[-7.3091,39.4676,286.9238],[-7.3044,39.4639,289.5057],[-7.3001,39.4631,291.2469],[-7.2943,39.4568,303.8256],[-7.2959,39.4538,323.1563],[-7.3056,39.4461,331.5138],[-7.3061,39.4392,344.0094],[-7.3049,39.4377,351.0142],[-7.3086,39.4303,377.6846],[-7.3014,39.4227,372.7051],[-7.3029,39.4199,374.9034],[-7.3011,39.4169,381.1087],[-7.3033,39.4152,379.204],[-7.3026,39.4122,380.6108],[-7.3055,39.4111,381.1198],[-7.3085,39.4046,402.3298],[-7.3075,39.4029,413.0526],[-7.3102,39.3985,402.8866],[-7.3135,39.3995,412.7469],[-7.3149,39.3941,468.7784],[-7.3214,39.3866,517.8388],[-7.3228,39.3813,556.5875],[-7.3211,39.378,558.3817],[-7.3178,39.3781,646.545],[-7.3156,39.3722,647.6699],[-7.3115,39.371,661.0353],[-7.3105,39.369,653.235],[-7.3104,39.3617,714.5973],[-7.3063,39.3563,702.4766],[-7.306,39.3511,647.0703],[-7.3103,39.341,866.0],[-7.3075,39.3361,947.4146],[-7.2998,39.3306,925.737],[-7.2923,39.3288,832.3317],[-7.2908,39.326,788.1697],[-7.2879,39.3247,719.9568],[-7.288,39.3231,686.9985],[-7.2815,39.3206,757.563],[-7.2726,39.3113,782.3388],[-7.2689,39.3094,787.9799],[-7.2702,39.3042,760.1157],[-7.267,39.301,728.8145],[-7.2315,39.2783,550.061],[-7.248,39.2534,482.8784],[-7.2458,39.2457,527.0834],[-7.242,39.2422,498.8934],[-7.2417,39.2344,570.9369],[-7.2447,39.2319,536.0776],[-7.2453,39.2276,485.4935],[-7.24,39.2179,550.9777],[-7.2415,39.2083,509.5977],[-7.2281,39.2007,440.4489],[-7.2207,39.1925,402.6682],[-7.2101,39.1895,387.5338],[-7.2079,39.1873,385.5897],[-7.2009,39.1859,375.647],[-7.1937,39.1873,370.9111],[-7.1878,39.1833,360.7499],[-7.1812,39.181399999999996,355.258],[-7.1634,39.1802,342.0378],[-7.1595,39.1769,343.3662],[-7.1508,39.1747,338.1954],[-7.1484,39.1722,329.0619],[-7.1406,39.1726,333.4092],[-7.1347,39.1712,322.9051],[-7.1341,39.1667,323.6179],[-7.1322,39.1647,316.4589],[-7.1344,39.163,329.2835],[-7.1329,39.161,311.5144],[-7.1404,39.1502,297.6804],[-7.1362,39.1447,279.167],[-7.138,39.1414,273.1225],[-7.1421,39.1392,275.1473],[-7.1437,39.1274,257.8355],[-7.1494,39.1216,254.5677],[-7.148,39.1145,247.5],[-7.144,39.1086,247.5],[-7.1053,39.0992,251.7672],[-7.1008,39.1046,286.1381],[-7.0962,39.1063,256.0947],[-7.0798,39.1089,259.7092],[-7.0678,39.1132,231.5309],[-7.0647,39.1128,246.8832],[-7.0557,39.1155,252.7743],[-7.0535,39.1177,248.355],[-7.0388,39.1184,212.3791],[-7.0282,39.1157,227.6833],[-7.009,39.1042,225.8796],[-6.996,39.0993,225.7947],[-6.9809,39.0878,217.8669],[-6.9771,39.0806,212.0493],[-6.9704,39.0726,207.4843],[-6.9689,39.0668,208.0497],[-6.9627,39.0608,205.5878],[-6.9594,39.0545,200.2154],[-6.9678,39.0395,191.9911],[-6.9511,39.0236,182.8825],[-6.9645,39.011,190.2526],[-6.9714,38.9982,221.7898],[-6.9751,38.9948,216.5808],[-6.9866,38.9763,201.8269],[-6.9923,38.9721,198.0239],[-6.9992,38.9627,207.958],[-7.0109,38.9518,204.8311],[-7.0204,38.9401,204.4958],[-7.0275,38.9229,192.5102],[-7.0327,38.9183,196.3212],[-7.0522,38.907,175.7722],[-7.0489,38.9027,169.6187],[-7.0448,38.9017,168.5583],[-7.0417,38.8979,168.4026],[-7.0392,38.8913,167.8188],[-7.0405,38.8838,165.4596],[-7.0356,38.8835,168.5332],[-7.033,38.8788,165.8115],[-7.0329,38.8773,166.117],[-7.0359,38.876,166.1875],[-7.0396,38.87,162.9888],[-7.0393,38.8647,163.0279],[-7.0441,38.8632,163.0479],[-7.0453,38.8651,163.7619],[-7.0532,38.858,161.9612],[-7.0612,38.8581,163.2894],[-7.0654,38.8543,160.9463],[-7.0686,38.8542,164.7648],[-7.0854,38.8308,153.1926],[-7.0892,38.821,157.6681],[-7.0964,38.816,156.8668],[-7.1081,38.8169,154.5468],[-7.1243,38.8155,154.6399],[-7.1286,38.8138,153.051],[-7.1533,38.7951,149.9288],[-7.1565,38.7912,148.4631],[-7.1579,38.7865,151.6536],[-7.1638,38.7798,147.3513],[-7.1812,38.7735,145.5],[-7.1854,38.7702,149.5795],[-7.1889,38.7707,152.9051],[-7.1882,38.769,145.5],[-7.1903,38.7701,145.5],[-7.1965,38.7653,145.5],[-7.1958,38.7612,147.5135],[-7.1976,38.7582,147.1215],[-7.2026,38.7522,154.1326],[-7.2124,38.745,146.89],[-7.2285,38.7367,145.5],[-7.2379,38.7369,145.5],[-7.2427,38.7352,145.5],[-7.2522,38.7302,145.5],[-7.2594,38.7242,147.6115],[-7.2604,38.72,145.5],[-7.258,38.7135,145.5],[-7.2672,38.6993,154.7848],[-7.2689,38.6879,145.5],[-7.2662,38.6814,145.5],[-7.2702,38.6666,145.5],[-7.2698,38.6485,145.5],[-7.2725,38.6384,145.5],[-7.2656,38.6273,147.0392],[-7.2468,38.6275,145.5],[-7.2436,38.624,145.5],[-7.254,38.6171,149.3392],[-7.2601,38.6109,145.5],[-7.2594,38.6038,145.5],[-7.2634,38.5945,145.5],[-7.2639,38.5879,145.5],[-7.2696,38.5846,145.5],[-7.2757,38.5755,145.5],[-7.2844,38.5755,145.5],[-7.2867,38.5711,145.5],[-7.286,38.5633,145.5],[-7.289,38.5581,145.5],[-7.3034,38.5431,145.5],[-7.3009,38.5269,145.5],[-7.3026,38.5211,145.5],[-7.3146,38.5139,145.5],[-7.3154,38.4965,145.5],[-7.3208,38.4854,145.5],[-7.3216,38.4783,145.5],[-7.3194,38.4748,145.5],[-7.3133,38.4741,145.5],[-7.3077,38.481,145.5],[-7.3004,38.483,145.5],[-7.296,38.4792,145.5],[-7.2986,38.4696,145.5],[-7.3037,38.4642,145.5],[-7.3133,38.4604,145.5],[-7.3145,38.4584,145.5],[-7.3125,38.4546,145.5],[-7.3151,38.4491,145.5],[-7.3303,38.4445,145.5],[-7.3359,38.4358,145.5],[-7.3338,38.4347,145.5],[-7.3301,38.4381,146.6747],[-7.3285,38.4366,148.8495],[-7.328,38.4388,149.1447],[-7.3223,38.44,145.5],[-7.3185,38.4391,145.5],[-7.3171,38.4403,145.5],[-7.3147,38.4392,148.4692],[-7.3144,38.4352,146.5302],[-7.3103,38.4358,145.5],[-7.3107,38.4337,158.021],[-7.3067,38.4328,147.6149],[-7.3071,38.4311,146.0672],[-7.3032,38.4319,148.3647],[-7.3025,38.4296,148.7039],[-7.3002,38.429,149.3215],[-7.2999,38.426,163.5178],[-7.2948,38.4258,156.6169],[-7.2944,38.4281,160.6516],[-7.2915,38.4277,169.0124],[-7.2931,38.4263,162.3261],[-7.2922,38.424,165.8747],[-7.2881,38.4251,163.4135],[-7.2879,38.4227,165.6265],[-7.2844,38.4233,164.6328],[-7.283,38.4208,164.7886],[-7.2839,38.4192,169.7624],[-7.2798,38.4197,167.1373],[-7.28,38.4133,177.0741],[-7.2713,38.3948,208.3398],[-7.2601,38.3822,230.4382],[-7.2566,38.3804,233.4301],[-7.2482,38.3695,208.6871],[-7.2322,38.3567,199.7161],[-7.2197,38.3425,158.5041],[-7.2145,38.3409,167.4156],[-7.2023,38.329,177.0027],[-7.1992,38.3211,196.7126],[-7.183,38.2969,193.8737],[-7.1755,38.2885,188.3827],[-7.1685,38.2842,166.141],[-7.1697,38.2793,171.0163],[-7.164,38.2813,173.3765],[-7.1609,38.2794,173.7999],[-7.162,38.2794,172.029],[-7.1555,38.2788,227.0082],[-7.1556,38.2759,186.889],[-7.1506,38.2758,197.5784],[-7.1533,38.2739,200.4961],[-7.1518,38.2723,189.3736],[-7.1534,38.2702,191.4914],[-7.152,38.2675,181.931],[-7.1499,38.2701,216.935],[-7.1475,38.27,210.6238],[-7.147,38.2689,210.6238],[-7.1487,38.2685,196.0632],[-7.1459,38.2653,200.8385],[-7.1472,38.2627,200.8934],[-7.145,38.2636,208.7508],[-7.143,38.2617,207.5693],[-7.1452,38.2583,210.0726],[-7.1427,38.2556,218.5281],[-7.1448,38.2509,213.9547],[-7.1432,38.2489,218.576],[-7.1429,38.2406,224.577],[-7.1398,38.2355,230.9087],[-7.1344,38.2271,265.5463],[-7.1238,38.217,257.4818],[-7.122,38.2127,239.4707],[-7.1178,38.2114,227.0611],[-7.1158,38.2064,212.2364],[-7.1127,38.2063,203.0803],[-7.1136,38.2034,189.1031],[-7.1106,38.199,182.519],[-7.1099,38.1936,186.2757],[-7.1071,38.1926,168.8274],[-7.1078,38.1878,146.7229],[-7.1027,38.1868,148.0816],[-7.1002,38.1814,146.6291],[-7.0972,38.179,145.2055],[-7.0892,38.1786,151.6515],[-7.0851,38.1692,148.1717],[-7.0752,38.1765,164.4782],[-7.0662,38.179,168.2082],[-7.0652,38.1828,166.2216],[-7.0663,38.1865,154.232],[-7.058,38.1866,158.0263],[-7.056,38.1853,157.8447],[-7.0552,38.1831,158.4129],[-7.0599,38.1797,160.1112],[-7.0594,38.1777,162.312],[-7.0561,38.1802,159.7578],[-7.0519,38.1795,162.6154],[-7.0479,38.1809,159.6037],[-7.0435,38.1873,164.9681],[-7.0373,38.1864,164.5148],[-7.0286,38.1825,170.0607],[-7.0212,38.1867,173.7782],[-7.0171,38.1918,230.6286],[-7.0167,38.1972,174.8795],[-7.0104,38.1958,172.6849],[-7.0093,38.1984,184.1787],[-7.0118,38.2029,191.2897],[-7.0112,38.2045,173.0606],[-6.9952,38.2038,177.4691],[-6.9805,38.2113,186.7568],[-6.9781,38.2068,191.0818],[-6.972,38.2021,178.7521],[-6.9566,38.217,188.2665],[-6.9477,38.2177,204.2844],[-6.9496,38.2128,188.7147],[-6.9465,38.2117,215.3551],[-6.9423,38.2181,189.6409],[-6.9367,38.2207,197.658],[-6.9357,38.2193,189.2237],[-6.9383,38.2122,191.124],[-6.9378,38.2069,207.1048],[-6.932,38.2085,192.7621],[-6.9268,38.2044,196.6213],[-6.9246,38.2053,202.1063],[-6.925,38.2019,224.1095],[-6.9223,38.2003,267.7706],[-6.9014,38.2013,268.0352],[-6.8979,38.1985,313.3292],[-6.8941,38.198,306.4382],[-6.8923,38.1954,329.7775],[-6.8828,38.1933,439.5763],[-6.858,38.1799,506.9176],[-6.8222,38.1738,535.4152],[-6.8056,38.1787,483.2438],[-6.795,38.1785,511.2678],[-6.7927,38.173,527.9089],[-6.7928,38.1666,543.1768],[-6.7943,38.1596,512.0295],[-6.7988,38.1552,503.8661],[-6.7994,38.1438,454.369],[-6.8101,38.1327,432.7388],[-6.8157,38.1201,299.3158],[-6.8082,38.1112,305.3397],[-6.7998,38.1148,312.7251],[-6.7977,38.1139,329.9942],[-6.7972,38.1107,309.8933],[-6.789,38.1092,318.9848],[-6.7847,38.1116,324.5603],[-6.7822,38.1118,326.3334],[-6.7799,38.109,326.8892],[-6.7753,38.1125,351.2434],[-6.7696,38.112,328.1364],[-6.7735,38.1047,355.3935],[-6.7716,38.1032,350.1887],[-6.7648,38.106,345.0411],[-6.7644,38.1024,348.0635],[-6.7699,38.0997,344.715],[-6.7609,38.0979,350.3801],[-6.7581,38.0927,353.2339],[-6.7544,38.095,361.328],[-6.7472,38.0914,368.5336],[-6.7421,38.0933,365.6096],[-6.7319,38.0901,374.5321],[-6.7303,38.0924,373.1555],[-6.735,38.0935,387.2269],[-6.7284,38.1,386.8429],[-6.7265,38.0973,384.4555],[-6.7236,38.0971,384.4797],[-6.7196,38.1006,403.1516],[-6.7168,38.0999,391.4069],[-6.7153,38.0926,399.9966],[-6.7068,38.0965,405.7301],[-6.6917,38.095,422.7366],[-6.6898,38.1,415.9017],[-6.682,38.0968,435.4359],[-6.6799,38.0974,440.4906],[-6.6761,38.0953,458.9095],[-6.6609,38.0925,448.2944],[-6.6592,38.0926,448.4308],[-6.6586,38.0953,458.9878],[-6.6536,38.0965,463.2279],[-6.65,38.0953,461.6547],[-6.6513,38.0931,459.5531],[-6.6492,38.09,475.4662],[-6.646,38.0913,466.5022],[-6.6416,38.0976,481.1055],[-6.6372,38.0962,480.0225],[-6.6271,38.0983,490.2544],[-6.6223,38.0972,504.5787],[-6.6123,38.0859,553.2062],[-6.6073,38.0834,562.1466],[-6.604,38.0773,592.7985],[-6.5994,38.075,599.2308],[-6.5942,38.0669,602.2157],[-6.5804,38.0528,713.4008],[-6.5843,38.0442,740.9225],[-6.5837,38.0343,692.1091],[-6.587,38.0268,726.2172],[-6.5846,38.0266,707.507],[-6.586,38.0237,732.3811],[-6.5822,38.0209,722.3455],[-6.5787,38.0221,667.4398],[-6.572,38.0202,658.0872],[-6.5695,38.0227,632.3917],[-6.5714,38.0241,656.29],[-6.5651,38.027,668.9355],[-6.5456,38.0281,768.2253],[-6.5247,38.0215,691.0699],[-6.4949,38.0191,509.3337],[-6.4927,38.0164,435.3081],[-6.4955,38.0152,442.7677],[-6.4916,38.0121,423.0296],[-6.4916,38.0095,422.0585],[-6.4842,38.008,468.341],[-6.4799,38.0096,507.4937],[-6.4785,38.0081,493.1932],[-6.4704,38.01,505.5656],[-6.4692,38.0121,530.9015],[-6.4653,38.011,529.3533],[-6.4646,38.0138,651.0005],[-6.4721,38.0158,612.5049],[-6.4737,38.0244,804.7114],[-6.4695,38.0311,645.1815],[-6.4657,38.0322,589.251],[-6.4657,38.0353,563.429],[-6.461,38.0357,555.2654],[-6.4522,38.0429,585.1572],[-6.4475,38.0437,603.0715],[-6.4442,38.0461,629.4705],[-6.4436,38.0476,643.6638],[-6.4523,38.056,635.5152],[-6.4431,38.0592,830.2115],[-6.4357,38.0575,840.2869],[-6.4138,38.0586,905.6774],[-6.4022,38.0525,919.6653],[-6.3883,38.0481,1000.3171],[-6.3671,38.0489,999.534],[-6.3671,38.0461,1035.3918],[-6.3629,38.0431,1029.5082],[-6.3581,38.0263,824.2343],[-6.359,38.0167,620.4316],[-6.3526,38.0074,618.7416],[-6.346,38.0024,601.282],[-6.3334,37.9981,569.6882],[-6.3292,37.9983,567.0598],[-6.3216,37.9934,550.9828],[-6.3196,37.9902,554.912],[-6.309,37.9852,533.3124],[-6.3032,37.9783,527.0009],[-6.2888,37.9766,517.3505],[-6.28,37.9735,506.4771],[-6.2524,37.9716,489.3958],[-6.2461,37.9659,491.8535],[-6.2459,37.9631,480.6393],[-6.2396,37.9591,475.9673],[-6.2331,37.958,471.8845],[-6.2144,37.9614,466.1386],[-6.2102,37.9607,479.435],[-6.2093,37.9586,469.9288],[-6.2052,37.9597,463.8695],[-6.2039,37.9622,480.7378],[-6.2011,37.9619,456.5541],[-6.2003,37.9606,471.1674],[-6.202,37.9595,446.2574],[-6.194,37.9547,433.5894],[-6.1961,37.9491,430.3794],[-6.1856,37.9451,427.6149],[-6.1801,37.941,425.3424],[-6.1773,37.9461,424.399],[-6.1678,37.9519,442.7686],[-6.1677,37.9558,445.2586],[-6.1544,37.9576,447.1846],[-6.1485,37.9626,460.8239],[-6.1492,37.9661,465.7038],[-6.1423,37.9658,471.0581],[-6.1361,37.9722,497.0779],[-6.1297,37.9731,523.866],[-6.1152,37.9818,582.1697],[-6.0943,37.9816,714.8932],[-6.09,37.9845,625.2043],[-6.0827,37.9857,581.2096],[-6.0777,37.9846,585.6899],[-6.0639,37.9896,497.3145]]]]}}