{"type":"Feature","properties":{"ISO3166-1-Alpha-3":"ESP","country":"Spain","fill":"#FF0","id":"5837","name":"Navarra"},
"geometry":{"type": "MultiPolygon","coordinates": [[[[-1.17633,42.40367,794.0704],[-1.16558,42.41193,783.5416],[-1.15814,42.42599,834.3073],[-1.15814,42.43674,898.1947],[-1.16393,42.44087,843.7253],[-1.17302,42.43591,776.2463],[-1.18625,42.43095,766.565],[-1.19452,42.42434,866.1964],[-1.197,42.41193,749.9073],[-1.19039,42.40284,690.5029],[-1.17633,42.40367,794.0704]]],
[[[-1.06719,42.43674,1030.1614],[-1.06719,42.44583,851.4584],[-1.07463,42.45079,811.3083],[-1.08538,42.45906,836.0389],[-1.09448,42.4632,786.8319],[-1.0953,42.47477,676.0701],[-1.09861,42.48221,650.3144],[-1.10605,42.48304,638.7619],[-1.11267,42.48221,745.6279],[-1.12424,42.47312,848.8309],[-1.12838,42.4665,881.6436],[-1.13334,42.45658,916.1927],[-1.13416,42.44666,971.4199],[-1.12341,42.44005,996.6887],[-1.10853,42.43674,1017.3817],[-1.08703,42.43343,987.6736],[-1.07546,42.4326,977.3095],[-1.06719,42.43674,1030.1614]]],
[[[-1.64504,43.29237,239.4575],[-1.65491,43.29754,289.207],[-1.67387,43.30415,248.0658],[-1.68302,43.30493,299.6396],[-1.70333,43.29862,269.7055],[-1.72483,43.29653,233.3148],[-1.73656,43.29232,100.924],[-1.74736,43.291,147.7686],[-1.74973,43.29479,199.9166],[-1.74994,43.29475,199.9166],[-1.77345,43.28971,521.7217],[-1.78193,43.28446,653.6995],[-1.79131,43.27741,666.776],[-1.80554,43.257,503.9664],[-1.82107,43.2386,440.0007],[-1.83368,43.22951,280.6487],[-1.8474,43.22362,243.4939],[-1.85727,43.22287,268.4613],[-1.86412,43.22566,203.2367],[-1.8727,43.2277,154.1614],[-1.8781,43.22465,167.765],[-1.88001,43.21948,158.1878],[-1.8798,43.21413,196.6216],[-1.8837,43.21196,108.1529],[-1.88926,43.21163,120.8961],[-1.90241,43.21576,182.8715],[-1.90853,43.21834,119.575],[-1.91099,43.21351,310.8737],[-1.91866,43.19225,506.4966],[-1.91928,43.18455,579.2436],[-1.91758,43.16917,864.0276],[-1.91608,43.16212,833.595],[-1.91241,43.15571,519.5462],[-1.91109,43.14628,935.0717],[-1.91249,43.13515,794.3958],[-1.92672,43.11437,664.1729],[-1.93791,43.10559,423.2136],[-1.95075,43.09809,462.4458],[-1.96401,43.09329,594.7725],[-2.0146,43.06696,380.8546],[-2.02858,43.04903,435.533],[-2.03656,43.03644,741.0258],[-2.04057,43.02755,1212.5425],[-2.04181,43.01954,1159.6804],[-2.03948,43.01226,1282.7156],[-2.03959,43.0043,1236.884],[-2.04266,42.99446,1221.3319],[-2.0494,42.98823,1176.901],[-2.05728,42.98384,961.1298],[-2.08522,42.97965,851.5504],[-2.09475,42.97546,845.9348],[-2.11359,42.95616,582.3099],[-2.12276,42.94963,629.2479],[-2.13291,42.94694,763.4565],[-2.14379,42.94588,721.5132],[-2.15449,42.94596,743.8987],[-2.1741,42.94405,520.4448],[-2.18288,42.94591,769.0628],[-2.20082,42.95164,892.0636],[-2.21415,42.94963,874.1141],[-2.22544,42.94141,688.8118],[-2.23169,42.93516,712.2476],[-2.2358,42.9287,648.366],[-2.23751,42.92296,741.8617],[-2.25296,42.90007,978.2123],[-2.23913,42.85831,704.9773],[-2.23978,42.84943,1090.0737],[-2.24231,42.83919,967.6122],[-2.26342,42.81372,972.3525],[-2.27443,42.79098,1016.792],[-2.27652,42.77605,755.5837],[-2.27699,42.75964,860.3761],[-2.27942,42.75093,1077.1807],[-2.28492,42.74468,1149.8583],[-2.31208,42.73775,1064.4816],[-2.32037,42.72899,980.5645],[-2.32071,42.72101,886.481],[-2.31202,42.68292,559.866],[-2.30686,42.68008,618.4719],[-2.29593,42.67791,562.5433],[-2.29316,42.67202,690.9637],[-2.2927,42.66308,774.3884],[-2.29846,42.65776,892.5092],[-2.32843,42.64298,1082.9227],[-2.3383,42.63949,1211.2889],[-2.34809,42.63812,1290.0902],[-2.36587,42.63791,1079.4038],[-2.37259,42.64184,925.7644],[-2.38096,42.65285,618.4102],[-2.3853,42.65613,588.8218],[-2.39104,42.65859,594.345],[-2.39951,42.65993,626.5275],[-2.40871,42.66021,693.2217],[-2.41801,42.65753,746.993],[-2.43786,42.64556,689.8715],[-2.45067,42.63481,719.7186],[-2.47018,42.62285,732.3208],[-2.47868,42.6191,832.6638],[-2.49274,42.60934,856.4254],[-2.49455,42.602,739.1827],[-2.49328,42.59531,680.8729],[-2.48809,42.58991,664.3728],[-2.48137,42.58588,726.9023],[-2.47336,42.58471,687.1967],[-2.45801,42.57812,637.2109],[-2.45005,42.57601,718.2467],[-2.44173,42.57898,699.1031],[-2.42132,42.5988,863.804],[-2.41331,42.59828,857.8038],[-2.40587,42.59611,756.4431],[-2.40067,42.59073,756.5859],[-2.39807,42.58396,672.8438],[-2.39401,42.56497,670.1328],[-2.40287,42.51224,458.5041],[-2.40607,42.4971,423.2623],[-2.38447,42.49467,395.2903],[-2.34326,42.48304,395.9852],[-2.27838,42.48986,421.1937],[-2.26789,42.48692,445.8708],[-2.23872,42.47198,414.1476],[-2.2303,42.46568,390.5823],[-2.21823,42.45343,367.1846],[-2.20601,42.4464,343.3037],[-2.19139,42.44294,357.7863],[-2.17195,42.44144,357.8431],[-2.10496,42.44516,438.7407],[-2.07651,42.44258,368.2136],[-2.05527,42.42842,401.659],[-2.06015,42.42356,368.7834],[-2.0648,42.41731,334.2752],[-2.06956,42.41478,315.7574],[-2.05561,42.39907,325.4405],[-2.0324,42.39297,389.7472],[-1.97675,42.39305,400.6711],[-1.90133,42.32538,368.7542],[-1.86347,42.30491,375.9117],[-1.86141,42.29943,376.7537],[-1.86215,42.29199,394.8132],[-1.86192,42.28419,297.5015],[-1.85727,42.27757,308.6158],[-1.85125,42.27618,303.363],[-1.8358,42.27814,336.2075],[-1.82931,42.27757,381.6438],[-1.82001,42.27287,390.6007],[-1.79578,42.25649,324.175],[-1.74741,42.236,272.3427],[-1.72694,42.23148,269.6868],[-1.69707,42.21582,267.0607],[-1.69775,42.19453,264.7345],[-1.69165,42.18704,263.1825],[-1.6886,42.18076,262.5078],[-1.68912,42.17681,273.0952],[-1.6901,42.1744,273.3525],[-1.69178,42.17153,279.5758],[-1.69227,42.16678,279.3714],[-1.68999,42.15639,310.9904],[-1.68578,42.14903,320.3052],[-1.68819,42.14306,325.3316],[-1.69413,42.13846,329.0332],[-1.70317,42.13634,335.7867],[-1.71309,42.13614,328.0401],[-1.73467,42.14422,363.4551],[-1.74459,42.14663,324.3823],[-1.75407,42.14639,317.6982],[-1.77423,42.13996,320.6302],[-1.78273,42.13929,320.6967],[-1.79231,42.14112,317.8768],[-1.8043,42.1459,320.2648],[-1.81459,42.14694,330.803],[-1.82342,42.14562,337.8474],[-1.82911,42.14079,355.0671],[-1.83198,42.13443,370.2663],[-1.83577,42.12787,380.1052],[-1.84182,42.12203,394.1962],[-1.85639,42.11154,424.9182],[-1.89605,42.07614,613.2854],[-1.89993,42.06937,566.9415],[-1.90148,42.06193,544.7589],[-1.9021,42.05438,443.9082],[-1.90133,42.0456,468.5808],[-1.89732,42.0356,505.6948],[-1.8906,42.02532,566.2487],[-1.85241,42.00121,609.5885],[-1.84128,42.00188,647.5762],[-1.83867,42.00085,679.5788],[-1.83639,42.00028,704.0374],[-1.83461,41.99891,704.0374],[-1.82389,41.99465,706.3652],[-1.81484,41.99527,702.6423],[-1.77658,41.99299,547.3778],[-1.76772,41.99062,495.7303],[-1.7595,41.987,491.9813],[-1.75214,41.98142,466.6653],[-1.7396,41.9693,465.6744],[-1.73203,41.96467,452.7235],[-1.72361,41.96059,458.7741],[-1.70418,41.95506,424.5959],[-1.69465,41.95331,417.9328],[-1.68493,41.95398,403.0122],[-1.66643,41.96033,401.7614],[-1.65715,41.96217,421.7824],[-1.6394,41.95759,403.826],[-1.62194,41.95124,421.7265],[-1.61421,41.947,399.4904],[-1.60729,41.94188,391.7211],[-1.59636,41.93015,399.3327],[-1.58943,41.92519,393.2888],[-1.57375,41.91674,402.5537],[-1.55595,41.9116,421.7691],[-1.54664,41.91067,403.7159],[-1.53714,41.91088,389.8522],[-1.51833,41.91341,354.2945],[-1.503,41.92,324.6971],[-1.49789,41.92163,313.1934],[-1.4907,41.92266,302.7462],[-1.48329,41.92217,296.4154],[-1.4544,41.91519,287.6805],[-1.44474,41.91439,277.0728],[-1.42639,41.91098,264.0038],[-1.41929,41.90886,261.2048],[-1.41466,41.91083,256.3749],[-1.40903,41.91574,251.1796],[-1.40342,41.92545,246.0208],[-1.39399,41.93274,240.0767],[-1.38314,41.94369,234.8879],[-1.38066,41.95312,237.9847],[-1.37451,41.96046,284.7722],[-1.36118,41.98377,315.1174],[-1.34299,42.00697,374.8153],[-1.32237,42.02777,523.5274],[-1.31596,42.03715,619.7027],[-1.31245,42.05428,609.0258],[-1.31645,42.06276,632.2004],[-1.32392,42.06725,633.1381],[-1.33335,42.06746,635.5947],[-1.34242,42.06922,640.3331],[-1.35066,42.07273,597.8895],[-1.35671,42.07867,524.3527],[-1.36175,42.08534,528.6237],[-1.36436,42.09224,536.5253],[-1.36852,42.09877,545.6495],[-1.37342,42.10469,502.9918],[-1.38717,42.11474,427.4223],[-1.39247,42.12079,474.3742],[-1.39422,42.12758,479.7752],[-1.39371,42.14161,450.573],[-1.39477,42.14962,381.8122],[-1.39534,42.16942,363.6388],[-1.39663,42.17797,359.7039],[-1.40043,42.18515,349.1396],[-1.40541,42.19153,366.0373],[-1.41115,42.19758,395.7547],[-1.41544,42.20489,427.521],[-1.41704,42.21195,445.2592],[-1.41642,42.22058,441.2564],[-1.41254,42.23019,420.5704],[-1.4049,42.24427,396.1709],[-1.40087,42.25391,420.4955],[-1.39585,42.26977,450.5483],[-1.395,42.27716,400.845],[-1.39089,42.28729,430.2968],[-1.38402,42.30042,405.6755],[-1.36412,42.32315,371.4404],[-1.33449,42.34987,398.6959],[-1.33102,42.35798,405.1252],[-1.3334,42.36413,409.9129],[-1.33883,42.36961,406.34],[-1.34549,42.37294,398.4344],[-1.34911,42.37917,399.4306],[-1.35038,42.38679,409.2503],[-1.34805,42.39739,410.1768],[-1.34195,42.41483,435.4004],[-1.32066,42.44092,518.2135],[-1.29441,42.45984,604.3824],[-1.27948,42.47699,739.8582],[-1.27268,42.48764,827.6104],[-1.27369,42.49477,971.1115],[-1.27576,42.49849,936.5232],[-1.28033,42.50477,724.9812],[-1.28304,42.51012,634.2294],[-1.28452,42.51658,547.3217],[-1.28219,42.52417,473.978],[-1.27816,42.53203,460.4538],[-1.27149,42.54154,430.9243],[-1.26501,42.54846,435.7391],[-1.25741,42.55322,423.6394],[-1.24604,42.55337,420.959],[-1.22803,42.54939,451.4817],[-1.21966,42.55063,448.9141],[-1.21201,42.55389,449.1198],[-1.20535,42.5581,459.0282],[-1.20305,42.5666,483.8919],[-1.19576,42.57533,507.3333],[-1.18496,42.58456,513.0828],[-1.16054,42.59608,838.2288],[-1.15478,42.60179,630.3817],[-1.15328,42.60544,480.0],[-1.16892,42.61109,499.9057],[-1.17233,42.61347,480.0],[-1.16553,42.61505,480.0],[-1.15553,42.61864,504.5605],[-1.15452,42.6236,569.1024],[-1.15429,42.62934,618.9901],[-1.15166,42.63592,705.4299],[-1.14502,42.64138,885.4058],[-1.08523,42.64701,1281.6472],[-1.07567,42.64536,1262.2296],[-1.05549,42.64536,1102.678],[-1.04445,42.64996,1112.2361],[-1.04027,42.65585,966.8383],[-1.035,42.66918,809.3468],[-1.0337,42.67626,683.9892],[-1.03438,42.68308,880.0529],[-1.03166,42.69011,1124.7739],[-1.02463,42.69613,934.0181],[-0.97712,42.70571,997.3436],[-0.96451,42.71029,1046.3333],[-0.95175,42.7167,1016.36],[-0.92498,42.73558,956.7183],[-0.90436,42.74256,1238.0686],[-0.89643,42.75501,1071.0044],[-0.89022,42.75889,1163.4431],[-0.87754,42.76375,1046.5608],[-0.86702,42.76995,1078.1218],[-0.85694,42.7869,1268.244],[-0.851,42.81656,1651.4133],[-0.85253,42.83227,1451.0918],[-0.85038,42.84049,1382.0453],[-0.84622,42.84948,1758.3812],[-0.8192,42.87609,1288.4166],[-0.81566,42.88214,1438.9819],[-0.81635,42.88886,1501.76],[-0.8131,42.8963,1489.0386],[-0.80622,42.90436,1583.5535],[-0.77145,42.91836,1942.1067],[-0.74525,42.91872,2202.7188],[-0.74503,42.91873,2202.7188],[-0.75966,42.9465,1940.036],[-0.78643,42.95327,1732.8195],[-0.86353,42.94306,1147.626],[-0.94322,42.9479,1347.9994],[-0.98146,42.95704,1300.3386],[-1.01629,42.97624,1335.7114],[-1.02849,42.98671,1300.569],[-1.04507,42.99022,1182.142],[-1.0797,42.9934,1154.6372],[-1.08719,42.998,1067.7538],[-1.10373,43.00575,1025.1592],[-1.11241,43.00825,975.4537],[-1.14993,43.00572,1062.0137],[-1.18253,43.02528,1044.2867],[-1.2169,43.03926,1030.4512],[-1.27488,43.04683,1101.8735],[-1.29369,43.0552,696.3306],[-1.31059,43.06949,485.599],[-1.31508,43.08288,588.6199],[-1.30697,43.09598,372.1642],[-1.28604,43.10918,333.0276],[-1.30862,43.11357,635.3889],[-1.33105,43.10734,1180.1438],[-1.34826,43.09308,1123.4613],[-1.35518,43.07303,655.0967],[-1.35761,43.04683,867.3518],[-1.36614,43.03332,1057.9827],[-1.38314,43.02921,959.4448],[-1.41053,43.03091,1073.2301],[-1.43502,43.03572,956.7953],[-1.45714,43.04507,607.0766],[-1.47528,43.06014,1044.3905],[-1.48784,43.08182,541.906],[-1.47962,43.09026,975.491],[-1.43843,43.1228,777.7081],[-1.42577,43.13528,718.1113],[-1.41053,43.1669,764.554],[-1.39968,43.20674,561.0043],[-1.4035,43.24333,671.3404],[-1.43223,43.26501,477.3875],[-1.44422,43.26511,639.7485],[-1.45528,43.26222,644.6504],[-1.46639,43.26077,402.0919],[-1.50809,43.27677,92.0625],[-1.5392,43.28356,143.5037],[-1.55905,43.28408,101.944],[-1.57398,43.27744,126.7016],[-1.58189,43.26036,436.7062],[-1.58757,43.2516,444.1673],[-1.59848,43.247,401.1562],[-1.61109,43.24581,332.5826],[-1.62189,43.247,234.3868],[-1.63408,43.25111,440.6237],[-1.63904,43.25568,282.5481],[-1.64633,43.27279,215.5804],[-1.64798,43.28155,142.5378],[-1.64519,43.28764,174.566],[-1.64504,43.29237,239.4575]]]]}}