{"type":"Feature","properties":{"GID_3":"ESP.5.1.4_1","GID_0":"ESP","country":"Spain","GID_1":"ESP.5_1","province":"CastillayLeón","NL_NAME_1":"NA","GID_2":"ESP.5.1_1","county":"Ávila","NL_NAME_2":"NA","city":"n.a.(26)","VARNAME_3":"NA","NL_NAME_3":"NA","TYPE_3":"Comarca","ENGTYPE_3":"Comarca","CC_3":"NA","HASC_3":"NA","name":"n.a.(26).city"},
"geometry":{"type": "MultiPolygon","coordinates": [[[[-5.3228,40.289,2113.3823],[-5.3256,40.2816,2236.4312],[-5.3188,40.2749,2308.3438],[-5.3156,40.264,2216.0898],[-5.308,40.2589,2335.1279],[-5.2997,40.2564,2435.3823],[-5.2981,40.2469,2516.2654],[-5.2935,40.2431,2421.2747],[-5.283,40.2417,2342.4558],[-5.2738,40.2484,2189.7061],[-5.2699,40.2492,2321.4575],[-5.269,40.2517,2307.3911],[-5.2563,40.2508,2223.6816],[-5.2462,40.245,2036.645],[-5.2251,40.2539,2064.9883],[-5.2226,40.2589,2107.2339],[-5.2075,40.2627,2069.0928],[-5.1991,40.2678,2197.2847],[-5.1928,40.267,2196.3325],[-5.1824,40.26,2265.0295],[-5.1808,40.2667,2268.1106],[-5.1755,40.2665,2208.5879],[-5.1738,40.27,2165.3931],[-5.1681,40.2717,2147.7473],[-5.161,40.2776,2068.5461],[-5.1544,40.2812,2033.0581],[-5.1479,40.2817,2065.4351],[-5.1314,40.2909,2138.3318],[-5.115,40.2949,2112.4312],[-5.1096,40.2934,1919.1591],[-5.1034,40.2951,1960.3652],[-5.097,40.2941,1923.7283],[-5.0975,40.2958,1932.293],[-5.0911,40.3006,1863.6771],[-5.0869,40.3004,1866.0051],[-5.0854,40.303,1877.0056],[-5.0745,40.3072,1840.9091],[-5.0689,40.3077,1824.083],[-5.0627,40.3121,1905.115],[-5.0571,40.3088,1936.1404],[-5.0329,40.3159,1834.6562],[-5.0287,40.3186,1824.9559],[-5.0205,40.3189,1585.2317],[-5.0149,40.3224,1385.3784],[-5.0123,40.3293,1318.3347],[-5.0132,40.3382,1290.879],[-5.0149,40.3396,1277.8955],[-5.0126,40.3515,1251.1201],[-5.0147,40.3529,1241.1071],[-5.0155,40.3697,1218.3256],[-5.0064,40.3727,1230.1119],[-4.9969,40.3725,1352.5488],[-4.9815,40.3658,1411.916],[-4.9721,40.3594,1450.7871],[-4.9529,40.3546,1420.4126],[-4.9438,40.3551,1358.4078],[-4.9405,40.3443,1466.0857],[-4.9281,40.3298,1544.0879],[-4.9294,40.3281,1541.7518],[-4.9283,40.3059,1680.0544],[-4.9272,40.3041,1630.5652],[-4.9207,40.3027,1625.3344],[-4.9087,40.3003,1943.4504],[-4.9033,40.3079,2033.673],[-4.8962,40.3112,2138.1973],[-4.8797,40.3136,2071.4526],[-4.875,40.3197,2039.8486],[-4.867,40.3236,2032.2206],[-4.8575,40.3236,2005.6708],[-4.8531,40.3277,1945.7311],[-4.8411,40.3301,1952.2618],[-4.8331,40.3364,1880.2831],[-4.8266,40.338,1957.7814],[-4.8125,40.3317,1571.9124],[-4.8098,40.3374,1402.2275],[-4.7998,40.3475,1264.1926],[-4.7996,40.3574,1107.1375],[-4.8011,40.3606,1060.2567],[-4.7976,40.3639,1036.343],[-4.7971,40.3674,985.8114],[-4.8003,40.3729,964.5649],[-4.8004,40.3784,904.0124],[-4.8096,40.3908,940.3237],[-4.8131,40.4042,915.4199],[-4.8168,40.412,1013.975],[-4.8269,40.4134,1029.0911],[-4.8286,40.4191,1173.3921],[-4.8178,40.4207,1041.2195],[-4.8139,40.4265,925.1227],[-4.8076,40.4282,918.4927],[-4.8078,40.4347,967.6911],[-4.7962,40.434,940.111],[-4.7925,40.4316,903.2369],[-4.7907,40.4336,910.7152],[-4.7824,40.4322,940.7447],[-4.7858,40.4342,944.444],[-4.7848,40.4362,953.6439],[-4.79,40.4418,1013.7269],[-4.7904,40.4519,1055.3392],[-4.7871,40.4561,1090.6844],[-4.7865,40.4639,1211.6199],[-4.7898,40.4686,1403.0321],[-4.787,40.4692,1409.7245],[-4.7871,40.4735,1629.0229],[-4.7895,40.4751,1718.8667],[-4.7839,40.4807,1707.3586],[-4.7897,40.4799,1761.6962],[-4.7902,40.4775,1784.9581],[-4.7934,40.4763,1808.4221],[-4.8003,40.4751,1790.3489],[-4.8135,40.4813,1704.7177],[-4.8185,40.4815,1735.99],[-4.823,40.4858,1746.3495],[-4.8329,40.4872,1950.8563],[-4.8341,40.4903,1906.0923],[-4.8374,40.4917,1821.2988],[-4.8454,40.4907,1992.3036],[-4.8613,40.4939,2025.5646],[-4.8808,40.4894,2002.957],[-4.8977,40.4822,2113.6074],[-4.894,40.4801,2081.5876],[-4.8909,40.474,1945.0747],[-4.8917,40.4686,1839.561],[-4.8956,40.4626,1767.3391],[-4.905,40.4561,1654.4297],[-4.8948,40.4733,1872.4233],[-4.9006,40.4831,2077.4551],[-4.9105,40.4823,1963.7804],[-4.9204,40.4792,1935.1277],[-4.9263,40.4805,1928.8257],[-4.9419,40.4764,1844.0558],[-4.9594,40.4752,1850.5349],[-4.9687,40.4831,1899.1278],[-4.9778,40.4798,1882.4083],[-4.9843,40.4824,1913.8193],[-4.9984,40.4761,1901.9758],[-4.9994,40.4728,1853.7577],[-5.0063,40.4658,1708.7831],[-5.0251,40.4524,1461.9573],[-5.0262,40.4569,1469.5883],[-5.0183,40.4642,1511.8717],[-5.0104,40.4754,1575.6431],[-5.0292,40.4779,1588.4559],[-5.0375,40.4871,1745.4585],[-5.048,40.4814,1726.9122],[-5.0745,40.4773,2032.692],[-5.0932,40.4711,1968.0471],[-5.1089,40.4766,1912.5784],[-5.1188,40.4748,1918.4895],[-5.1342,40.4759,1912.7988],[-5.1419,40.4623,1778.3094],[-5.1448,40.4619,1772.4697],[-5.1487,40.4579,1709.0565],[-5.1817,40.4552,1872.7546],[-5.1863,40.4594,1911.1746],[-5.1924,40.4616,1913.8806],[-5.1981,40.4563,1896.1539],[-5.2079,40.4547,1867.4517],[-5.2312,40.4392,1860.4216],[-5.2522,40.4358,1923.0537],[-5.2609,40.4351,1920.6649],[-5.2689,40.4372,1949.0619],[-5.2781,40.4354,1950.7131],[-5.2815,40.4279,1940.5996],[-5.2938,40.42,1878.7054],[-5.2948,40.4164,1873.9987],[-5.3067,40.4091,1878.2871],[-5.3188,40.4046,1845.9275],[-5.3163,40.3955,1797.7734],[-5.3268,40.3654,1670.7356],[-5.3256,40.3641,1665.3005],[-5.345,40.3603,1547.853],[-5.3477,40.3584,1564.4028],[-5.3484,40.3538,1518.8395],[-5.344,40.3504,1499.8336],[-5.3518,40.3427,1306.0498],[-5.3619,40.3391,1263.8225],[-5.371,40.3384,1285.6387],[-5.3572,40.3251,1372.8025],[-5.3512,40.3227,1419.2581],[-5.3383,40.3219,1589.7216],[-5.3301,40.3149,1756.099],[-5.3264,40.3099,1813.4724],[-5.3273,40.3054,1842.1666],[-5.3248,40.2915,2094.8508],[-5.3228,40.289,2113.3823]]]]}}