{"type": "Feature","bbox": [-3.1043,42.3695,-3.0644,42.4224],"geometry": {"type": "MultiPolygon","coordinates": [[[[-3.0903,42.4224,851.41],[-3.0905,42.4199,827.8474],[-3.0963,42.4169,849.864],[-3.1013,42.4168,814.0975],[-3.0988,42.4085,873.3993],[-3.0957,42.4052,850.0343],[-3.0969,42.3986,873.5208],[-3.1034,42.3903,924.8675],[-3.1043,42.3854,942.2651],[-3.0948,42.3837,1116.739],[-3.0848,42.3854,955.2751],[-3.0707,42.3695,1083.094],[-3.0644,42.3733,1191.2841],[-3.0678,42.38,1164.6436],[-3.0735,42.3856,1145.103],[-3.075,42.3916,1128.8699],[-3.0786,42.3914,1097.5115],[-3.0826,42.3974,1061.7211],[-3.0785,42.4075,920.6714],[-3.0781,42.4157,815.3568],[-3.0903,42.4224,851.41]]]]}
,"properties": {"GID_3": "ESP.15.1.8_1","GID_0": "ESP","country": "Spain","GID_1": "ESP.15_1","province": "LaRioja","NL_NAME_1": "NA","GID_2": "ESP.15.1_1","county": "LaRioja","NL_NAME_2": "NA","city": "n.a.(65)","VARNAME_3": "NA","NL_NAME_3": "NA","TYPE_3": "Comarca","ENGTYPE_3": "Comarca","CC_3": "NA","HASC_3": "NA","name": "n.a.(65).city","area_km2": 7.922772,"hist_schema_id": "Elevation0-9000","hist_area_km2": {"800": 0.203486,"825": 0.90789,"850": 1.001863,"875": 0.438357,"900": 0.407074,"925": 0.469729,"950": 0.485391,"975": 0.595033,"1000": 0.548062,"1025": 0.548079,"1050": 0.70469,"1075": 0.422834,"1100": 0.407186,"1125": 0.328893,"1150": 0.313238,"1175": 0.109641,"1200": 0.031327}}}