{"type":"Feature","properties":{"GID_3":"ESP.3.1.8_1","GID_0":"ESP","country":"Spain","GID_1":"ESP.3_1","province":"Cantabria","NL_NAME_1":"NA","GID_2":"ESP.3.1_1","county":"Cantabria","NL_NAME_2":"NA","city":"n.a.(196)","VARNAME_3":"NA","NL_NAME_3":"NA","TYPE_3":"Comarca","ENGTYPE_3":"Comarca","CC_3":"NA","HASC_3":"NA","name":"n.a.(196).city"},
"geometry":{"type": "MultiPolygon","coordinates": [[[[-4.3716,43.0497,1991.0237],[-4.3626,43.0469,2003.583],[-4.3531,43.0508,1867.0947],[-4.354,43.0641,1618.9758],[-4.3506,43.0779,1493.1545],[-4.3535,43.0863,1558.1313],[-4.3398,43.0979,1782.9678],[-4.3273,43.1036,1622.9496],[-4.3298,43.1101,1445.8542],[-4.326,43.1269,1084.3243],[-4.3267,43.129,1105.2002],[-4.331,43.1301,1116.9114],[-4.3347,43.1334,1094.8987],[-4.3379,43.1509,1093.1141],[-4.335,43.1535,1068.2418],[-4.3338,43.1579,1058.7039],[-4.3379,43.1676,1066.1047],[-4.3349,43.1735,988.0339],[-4.3297,43.1772,992.3878],[-4.3328,43.1842,913.0823],[-4.3304,43.1891,863.8965],[-4.3327,43.1988,848.1383],[-4.3313,43.2012,881.0679],[-4.3382,43.2138,824.0738],[-4.3424,43.218,841.1846],[-4.3433,43.2224,867.2861],[-4.3576,43.2281,770.2853],[-4.3611,43.2322,731.8092],[-4.3733,43.2355,727.2054],[-4.3768,43.235,747.4729],[-4.3813,43.2377,710.7976],[-4.3766,43.2454,507.4172],[-4.3813,43.2475,308.3397],[-4.3812,43.2548,263.0194],[-4.3645,43.266,526.362],[-4.3641,43.2679,611.2057],[-4.3676,43.2702,760.8801],[-4.3745,43.2682,814.3677],[-4.3823,43.2704,812.4136],[-4.3869,43.2738,820.8235],[-4.3911,43.2777,907.3557],[-4.3917,43.2842,703.0461],[-4.3897,43.2903,598.6199],[-4.3918,43.293,637.7931],[-4.4111,43.3007,555.7593],[-4.4214,43.3012,475.127],[-4.4185,43.3138,432.3566],[-4.423,43.321,547.6989],[-4.428,43.3201,482.2607],[-4.4299,43.3248,274.5047],[-4.4392,43.3318,317.835],[-4.4471,43.3353,348.3463],[-4.4555,43.3344,386.7648],[-4.459,43.3315,390.3243],[-4.4875,43.3351,121.7757],[-4.4979,43.337,34.1659],[-4.4988,43.3386,28.9221],[-4.5057,43.3381,33.2718],[-4.51,43.3358,62.4184],[-4.5223,43.3357,182.8563],[-4.527,43.3276,200.9059],[-4.519,43.3099,230.1161],[-4.5185,43.294,471.9997],[-4.5216,43.2806,511.1148],[-4.5234,43.2781,643.6295],[-4.5326,43.2753,703.4502],[-4.5359,43.2702,864.0292],[-4.5477,43.2686,1053.4244],[-4.5527,43.2719,1111.1666],[-4.5508,43.2846,878.2581],[-4.5552,43.2881,849.1143],[-4.5694,43.2918,782.3678],[-4.5732,43.2894,786.6906],[-4.5802,43.2896,767.6526],[-4.5817,43.2915,797.6772],[-4.5909,43.2932,778.7149],[-4.5983,43.2985,622.77],[-4.6065,43.3005,125.22],[-4.6075,43.2952,90.41],[-4.6184,43.2905,85.9631],[-4.6204,43.2879,93.7886],[-4.6238,43.2883,86.9458],[-4.6267,43.2816,106.9646],[-4.6311,43.2777,80.5213],[-4.636,43.2764,86.6364],[-4.6364,43.2717,102.408],[-4.6348,43.2687,103.9593],[-4.6318,43.2676,129.7795],[-4.6375,43.2643,163.8687],[-4.6373,43.2615,178.8755],[-4.64,43.2595,196.8946],[-4.6357,43.2545,580.4914],[-4.6292,43.2508,282.609],[-4.628,43.2477,575.5685],[-4.6045,43.2407,1035.3711],[-4.6079,43.238,1201.728],[-4.6008,43.232,946.2163],[-4.595,43.2322,793.8786],[-4.5952,43.2274,925.5347],[-4.578,43.2329,269.504],[-4.5595,43.2244,932.6116],[-4.557,43.2213,952.8851],[-4.5584,43.2155,1067.7047],[-4.5541,43.2132,1055.2533],[-4.5468,43.2034,1270.7856],[-4.542,43.2029,1355.2693],[-4.536,43.1993,1371.9595],[-4.525,43.1957,1526.2025],[-4.5208,43.1836,1569.0397],[-4.5121,43.1723,1795.3108],[-4.5021,43.1667,1868.6968],[-4.4997,43.163,1853.7749],[-4.4919,43.1616,1891.4604],[-4.478,43.1525,1955.1392],[-4.4643,43.1469,1886.8079],[-4.4674,43.1435,1687.7518],[-4.4682,43.1391,1590.6891],[-4.4708,43.1365,1557.6399],[-4.4749,43.137,1443.8792],[-4.4762,43.1295,1432.6852],[-4.4814,43.1276,1359.1986],[-4.4839,43.1231,1423.7578],[-4.4753,43.1149,1366.4774],[-4.4671,43.1136,1447.0978],[-4.4671,43.1078,1456.6382],[-4.471,43.1009,1485.6348],[-4.4691,43.0984,1456.426],[-4.4734,43.0892,1252.6154],[-4.4673,43.0836,1228.6672],[-4.4655,43.0795,1145.9198],[-4.4674,43.0766,1187.6476],[-4.4665,43.0714,1175.7422],[-4.4688,43.0632,1311.1431],[-4.463,43.06,1303.3899],[-4.461,43.0607,1358.1692],[-4.4567,43.057,1332.4146],[-4.4475,43.0585,1556.3367],[-4.4424,43.0559,1618.4049],[-4.4318,43.0457,1977.0773],[-4.4139,43.042,2001.0249],[-4.4039,43.0381,2126.0159],[-4.4002,43.0438,2003.0328],[-4.3919,43.046,2026.8916],[-4.3894,43.0485,2092.4229],[-4.3773,43.0476,2008.8986],[-4.3716,43.0497,1991.0237]]]]}}