{"type": "Feature","bbox": [-5.4218,35.1712,-4.2974,35.9182],"geometry": {"type": "MultiPolygon","coordinates": [[[[-4.2978,35.1712,2.7076],[-4.2974,35.1721,0.0],[-4.3012,35.1729,2.0434],[-4.3012,35.1715,0.0],[-4.2978,35.1712,2.7076]]],
[[[-5.3849,35.9115,9.5274],[-5.3766,35.8877,155.0867],[-5.3774,35.8836,176.6726],[-5.3412,35.8746,1.1327],[-5.3354,35.8793,6.0437],[-5.3279,35.8782,0.0],[-5.3204,35.8862,7.8267],[-5.3149,35.8868,0.0],[-5.3062,35.884,11.3047],[-5.2999,35.886,17.3755],[-5.2971,35.889,10.3448],[-5.2937,35.8885,0.0],[-5.2865,35.8907,2.9846],[-5.2835,35.8943,48.9922],[-5.2799,35.8943,0.8492],[-5.2782,35.8971,0.0],[-5.2785,35.901,0.0],[-5.2829,35.9012,1.906],[-5.289,35.9071,0.0],[-5.2907,35.904,0.0],[-5.2982,35.9021,0.0],[-5.301,35.8954,4.5942],[-5.3071,35.896,0.0],[-5.3065,35.8946,0.0],[-5.3043,35.8949,0.0],[-5.3038,35.8929,1.3786],[-5.3074,35.8913,3.0328],[-5.3093,35.8926,0.0],[-5.3096,35.8904,5.3946],[-5.3129,35.8901,2.877],[-5.3157,35.8915,0.0],[-5.3143,35.8937,0.7827],[-5.3185,35.8926,1.9244],[-5.3235,35.8971,0.0],[-5.3204,35.8982,0.0],[-5.3143,35.8954,0.0],[-5.3113,35.896,0.7121],[-5.3204,35.8993,0.0],[-5.3307,35.8974,0.0],[-5.3332,35.8946,3.2793],[-5.336,35.8943,2.8322],[-5.341,35.8996,0.7565],[-5.344,35.8999,21.9601],[-5.3479,35.9085,2.715],[-5.3571,35.9118,5.0647],[-5.3657,35.9182,2.5161],[-5.3707,35.9165,8.9338],[-5.3796,35.9168,0.8049],[-5.3849,35.9115,9.5274]]],
[[[-5.4168,35.916,0.0],[-5.419,35.9162,10.4029],[-5.4218,35.9124,0.0],[-5.4165,35.9121,7.9238],[-5.4168,35.916,0.0]]]]}
,"properties": {"GID_2": "ESP.7.1_1","GID_0": "ESP","country": "Spain","GID_1": "ESP.7_1","province": "CeutayMelilla","NL_NAME_1": "NA","county": "Ceuta","VARNAME_2": "NA","NL_NAME_2": "NA","TYPE_2": "CiudadAutónoma","ENGTYPE_2": "AutonomousCity","CC_2": "51","HASC_2": "ES.CE.CE","name": "Ceuta.county","area_km2": 20.9721,"hist_schema_id": "Elevation0-9000","hist_area_km2": {"0": 2.74857,"25": 3.02295,"50": 3.04016,"75": 2.59362,"100": 1.78628,"125": 1.75189,"150": 1.49428,"175": 1.15078,"200": 0.84159,"225": 0.8416,"250": 0.54963,"275": 0.60115,"300": 0.42939,"325": 0.12023}}}