{"type":"Feature","properties":{"GID_3":"ESP.6.3.5_1","GID_0":"ESP","country":"Spain","GID_1":"ESP.6_1","province":"Cataluña","NL_NAME_1":"NA","GID_2":"ESP.6.3_1","county":"Lleida","NL_NAME_2":"NA","city":"n.a.(163)","VARNAME_3":"NA","NL_NAME_3":"NA","TYPE_3":"Comarca","ENGTYPE_3":"Comarca","CC_3":"NA","HASC_3":"NA","name":"n.a.(163).city"},
"geometry":{"type": "MultiPolygon","coordinates": [[[[0.9574,42.2878,1133.4287],[0.95009999999999994,42.2844,1072.1221],[0.9376,42.2877,741.8827],[0.939,42.2926,658.8639],[0.9369,42.2961,683.4161],[0.9324,42.2919,819.2505],[0.9284,42.2914,867.2642],[0.9248,42.2936,995.441],[0.9225,42.2921,1054.845],[0.9169,42.2929,1094.3153],[0.9074,42.2977,1220.7183],[0.8994,42.2992,1353.3169],[0.8954,42.2983,1454.6128],[0.8867,42.3053,1679.3369],[0.8829,42.3048,1669.0109],[0.8805,42.3009,1656.5342],[0.874,42.2989,1675.5828],[0.8705,42.3018,1615.6895],[0.8658,42.3026,1546.4697],[0.8635,42.3056,1487.1526],[0.8566,42.3067,1476.4434],[0.8581,42.3097,1544.4717],[0.8463,42.3144,1603.3452],[0.815,42.3149,1637.3657],[0.7994,42.3203,1787.9585],[0.7906,42.3278,1676.9343],[0.7712,42.3334,1510.7993],[0.776,42.3411,1013.9905],[0.7682,42.3436,914.7786],[0.7633,42.3478,856.3329],[0.7592,42.3484,894.272],[0.7578,42.3467,862.9233],[0.7543,42.3467,808.4034],[0.7536,42.3442,801.5],[0.7495,42.3433,801.5],[0.7448,42.3376,805.2368],[0.7404,42.3369,801.5],[0.7437,42.3263,834.733],[0.7592,42.3259,1267.2781],[0.7646,42.3225,1319.6199],[0.7551,42.3135,1080.335],[0.7566,42.3093,931.3362],[0.7449,42.3012,717.4897],[0.7439,42.2857,752.3677],[0.7386,42.2815,652.6757],[0.7398,42.2691,643.2294],[0.735,42.2522,624.165],[0.7335,42.2487,618.9888],[0.7285,42.2459,619.7918],[0.7249,42.2413,611.598],[0.7201,42.2305,597.6042],[0.7149,42.2248,610.6695],[0.7142,42.2219,587.6592],[0.7174,42.2199,615.1727],[0.7134,42.2155,581.3835],[0.7142,42.21,580.3502],[0.7084,42.2043,588.1068],[0.7094,42.1973,579.406],[0.7066,42.1912,565.5167],[0.7026,42.1901,559.1595],[0.7034,42.185,569.006],[0.6986,42.1727,550.6472],[0.7016,42.1696,555.7422],[0.714,42.1634,711.1326],[0.7037,42.1584,665.6016],[0.6959,42.152,536.3979],[0.6954,42.1386,521.9198],[0.698,42.1265,511.42],[0.7022,42.1219,506.1392],[0.6996,42.107,496.3101],[0.6949,42.1014,496.6772],[0.6956,42.0991,496.7697],[0.6851,42.0918,511.3658],[0.6793,42.0761,772.483],[0.6807,42.07,685.5032],[0.6895,42.0637,1287.9713],[0.6927,42.0594,1386.9187],[0.7033,42.0571,1421.6261],[0.7082,42.0536,1438.7224],[0.7245,42.0509,1547.9044],[0.7356,42.053,1509.1379],[0.7431,42.0526,1498.4962],[0.7458,42.0466,1544.3617],[0.7602,42.0407,1584.6703],[0.7909,42.041,1578.7162],[0.7982,42.043,1538.5353],[0.8054,42.0409,1573.2023],[0.832,42.0412,1503.2366],[0.8502,42.0358,1371.3281],[0.8577,42.0354,1196.1416],[0.8742,42.0368,891.6467],[0.8862,42.0424,619.221],[0.9073,42.0287,1263.4492],[0.9162,42.0253,1349.2206],[0.9187,42.0224,1385.229],[0.9221,42.0219,1471.7827],[0.9482,42.024,1655.801],[0.9534,42.0212,1590.6687],[0.9657,42.0201,1611.722],[0.9839,42.022,1520.5927],[0.994,42.0212,1350.0757],[1.0064,42.0234,1413.016],[1.0103,42.0216,1410.5403],[1.0114,42.0251,1356.6707],[1.0218,42.034,1047.5016],[1.0283,42.0312,1025.5668],[1.0353,42.0314,1144.0502],[1.0442,42.0345,995.8582],[1.068,42.0365,1032.4852],[1.0768,42.0457,1098.0715],[1.0785,42.0499,1100.7603],[1.0945,42.0581,1146.1659],[1.0976,42.0621,1132.0122],[1.1018,42.0762,1042.6587],[1.1118,42.0872,1088.2643],[1.1195,42.0893,1192.5612],[1.125,42.0998,1225.6827],[1.1356,42.1112,1308.0977],[1.1382,42.1176,1301.6782],[1.1405,42.1194,1301.4303],[1.1438,42.1184,1291.4207],[1.1465,42.1153,1279.0303],[1.1489,42.1184,1252.2449],[1.1519,42.116,1278.791],[1.1563,42.118,1141.4313],[1.1581,42.1227,1099.8979],[1.1555,42.1356,1016.2322],[1.1615,42.1415,993.8226],[1.1608,42.1517,919.8281],[1.168,42.154,1092.5889],[1.1736,42.1535,1086.0696],[1.1763,42.1582,1214.9473],[1.1824,42.1623,1308.6389],[1.1821,42.168,1386.144],[1.1863,42.171,1316.5076],[1.1827,42.1818,1234.2017],[1.1738,42.1832,1319.5549],[1.1611,42.1902,1657.1013],[1.1625,42.1967,1524.9043],[1.1677,42.2026,1549.9962],[1.1675,42.212,1859.2135],[1.165,42.2193,1856.6541],[1.1543,42.2205,1896.6907],[1.1537,42.2238,1815.5645],[1.1416,42.2282,1993.6655],[1.1429,42.2291,1985.5679],[1.1397,42.2379,2056.1116],[1.1449,42.2403,2039.5507],[1.1485,42.24,1921.182],[1.1589,42.2467,1922.6327],[1.1501,42.2621,1828.978],[1.1487,42.2601,1847.0353],[1.1395,42.2601,1826.8972],[1.1314,42.2626,1845.4448],[1.116,42.2733,1693.2512],[1.1176,42.2686,1704.4578],[1.0944,42.2741,1306.0201],[1.0866,42.2775,1170.6921],[1.0763,42.2759,970.48],[1.0631,42.277,807.7983],[1.0547,42.2819,730.95],[1.0393,42.282,622.3568],[1.0385,42.2856,573.3506],[1.0279,42.2893,1035.1442],[1.0251,42.2852,907.4243],[1.0149,42.2894,766.5863],[1.0136,42.2913,814.0918],[1.0025,42.2919,898.1094],[0.9973,42.2937,976.0937],[0.9943,42.2969,1079.2112],[0.9747,42.2982,1376.5695],[0.9737,42.3138,1433.8126],[0.9662,42.3088,1263.6071],[0.9641,42.3051,1331.0239],[0.961,42.2878,1202.6515],[0.9574,42.2878,1133.4287]]],
[[[0.7662,42.3534,869.6793],[0.7713,42.3507,897.7303],[0.767,42.3489,948.6835],[0.7726,42.3463,1109.4243],[0.7956,42.3476,1398.953],[0.7978,42.3522,1171.3378],[0.806,42.3543,1324.5779],[0.8088,42.3577,1440.2726],[0.7993,42.3627,1553.7434],[0.7908,42.3737,1457.595],[0.7896,42.3717,1475.9423],[0.7861,42.3711,1508.9769],[0.7823,42.3743,1556.4354],[0.7705,42.3759,1581.0916],[0.7663,42.3697,1304.1605],[0.7614,42.3667,1288.3665],[0.7625,42.3601,973.4581],[0.7599,42.3585,973.3586],[0.7606,42.3571,969.4247],[0.7655,42.3562,933.3196],[0.7662,42.3534,869.6793]]]]}}