{"type":"Feature","properties":{"GID_3":"ESP.1.2.5_1","GID_0":"ESP","country":"Spain","GID_1":"ESP.1_1","province":"Andalucía","NL_NAME_1":"NA","GID_2":"ESP.1.2_1","county":"Cádiz","NL_NAME_2":"NA","city":"LaJanda","VARNAME_3":"NA","NL_NAME_3":"NA","TYPE_3":"Comarca","ENGTYPE_3":"Comarca","CC_3":"NA","HASC_3":"NA","name":"La_Janda.city"},
"geometry":{"type": "MultiPolygon","coordinates": [[[[-5.8175,36.1746,78.5892],[-5.8011,36.1895,47.8574],[-5.7898,36.2128,19.9879],[-5.7822,36.2201,5.5252],[-5.7889,36.2346,5.1504],[-5.7913,36.252,4.6093],[-5.766,36.265,63.9544],[-5.7491,36.2573,65.3147],[-5.7334,36.243,135.4938],[-5.6949,36.2151,204.62],[-5.6944,36.222,294.6025],[-5.6984,36.2364,321.6383],[-5.7072,36.2475,350.9208],[-5.6991,36.2546,375.1897],[-5.6949,36.25,345.5358],[-5.6843,36.2464,227.4813],[-5.6716,36.2492,416.1447],[-5.6555,36.2495,579.5634],[-5.6537,36.2534,545.4952],[-5.6495,36.2548,610.5527],[-5.652,36.2555,619.4467],[-5.6457,36.2677,585.3434],[-5.6501,36.2746,504.2258],[-5.6358,36.2926,375.8372],[-5.6271,36.2966,367.6264],[-5.6264,36.3016,266.0659],[-5.6161,36.3175,362.3058],[-5.6054,36.3184,334.4286],[-5.5886,36.3331,285.4261],[-5.5836,36.3339,308.0636],[-5.5772,36.3409,459.762],[-5.5736,36.342,491.9225],[-5.5732,36.3505,557.0936],[-5.5767,36.3524,527.011],[-5.5799,36.36,562.4708],[-5.5786,36.3649,483.0286],[-5.5879,36.3887,451.2751],[-5.5776,36.4234,355.6994],[-5.5738,36.4294,321.9146],[-5.5744,36.4342,309.7631],[-5.5706,36.4391,336.0186],[-5.5593,36.5002,604.459],[-5.5599,36.5035,612.5995],[-5.5719,36.5126,687.3829],[-5.5829,36.5139,823.0067],[-5.5982,36.5085,941.4806],[-5.6081,36.5123,1078.1191],[-5.6077,36.5162,1047.4143],[-5.6351,36.5267,844.8831],[-5.6491,36.5377,398.1004],[-5.6638,36.5444,372.8094],[-5.7183,36.5563,211.6371],[-5.756,36.5545,313.3451],[-5.7806,36.5495,222.468],[-5.7861,36.5508,200.9971],[-5.7959,36.5493,148.4256],[-5.83,36.5382,220.4434],[-5.8429,36.5374,183.297],[-5.8469,36.5353,148.6073],[-5.8953,36.5354,50.1073],[-5.9186,36.5288,59.2113],[-5.9457,36.5265,99.3693],[-5.9691,36.5223,113.6697],[-5.98,36.5186,103.7294],[-6.0191,36.4933,87.0838],[-6.0293,36.4893,129.362],[-6.0429,36.4808,107.3926],[-6.0631,36.4743,103.2059],[-6.0706,36.4686,81.5949],[-6.0716,36.4635,83.7667],[-6.072,36.4615,78.9305],[-6.0564,36.4484,98.2783],[-6.0484,36.435,44.1633],[-6.0357,36.4243,63.7886],[-6.0249,36.4043,112.1124],[-5.9995,36.3773,139.5678],[-5.9936,36.3729,81.6835],[-5.9987,36.3698,100.9447],[-6.0018,36.3573,64.4572],[-6.0005,36.3527,42.7031],[-6.0032,36.348,55.2758],[-6.0179,36.3425,72.0762],[-6.0473,36.3465,94.2342],[-6.0861,36.3431,62.0277],[-6.1355,36.3411,29.3088],[-6.1615,36.3305,13.4899],[-6.151,36.306,1.7739],[-6.1418,36.2951,0.0],[-6.1374,36.2924,0.0],[-6.1346,36.2929,0.3614],[-6.1382,36.2962,1.4421],[-6.1346,36.2949,0.0],[-6.1329,36.2971,13.3751],[-6.1188,36.2935,0.0],[-6.1149,36.2943,11.0492],[-6.0871,36.2707,1.3746],[-6.081,36.2554,2.0215],[-6.079,36.2449,1.6294],[-6.0757,36.2385,0.0],[-6.0662,36.2262,4.3531],[-6.0579,36.2101,0.0],[-6.0538,36.2062,0.0],[-6.054,36.2029,0.0],[-6.0507,36.1999,0.4125],[-6.0468,36.1993,2.316],[-6.0379,36.1904,1.4588],[-6.0354,36.186,2.3259],[-6.0362,36.1824,9.7405],[-6.0349,36.1807,0.0],[-6.029,36.181,0.0],[-6.0271,36.1862,2.3566],[-6.021,36.1862,1.5733],[-6.0157,36.1843,0.0],[-6.0099,36.1849,0.0],[-6.0062,36.1824,2.2921],[-5.9854,36.1768,0.0],[-5.9771,36.1765,0.0],[-5.9554,36.1815,0.0],[-5.9454,36.1871,11.498],[-5.9393,36.1865,5.6791],[-5.9376,36.1835,0.0],[-5.9329,36.1815,0.0],[-5.9315,36.1862,3.9145],[-5.9276,36.1857,2.4978],[-5.9262,36.1821,0.7358],[-5.926,36.186,3.315],[-5.9196,36.1865,2.452],[-5.9093,36.1829,0.1938],[-5.9076,36.1801,0.0517],[-5.8985,36.1754,0.4583],[-5.8879,36.1662,0.0],[-5.8765,36.1604,0.541],[-5.8613,36.146,0.3708],[-5.854,36.1418,1.2687],[-5.8482,36.1349,1.6467],[-5.8424,36.1312,5.802],[-5.841,36.1276,3.1629],[-5.8386,36.136,1.6062],[-5.8229,36.1668,46.3725],[-5.8175,36.1746,78.5892]]]]}}