{"type": "Feature","bbox": [-7.3359,37.941,-4.6475,39.4518],"geometry": {"type": "MultiPolygon","coordinates": [[[[-6.4657,38.0322,589.251],[-6.4657,38.0353,563.429],[-6.461,38.0357,555.2654],[-6.4522,38.0429,585.1572],[-6.4475,38.0437,603.0715],[-6.4442,38.0461,629.4705],[-6.4436,38.0476,643.6638],[-6.4523,38.056,635.5152],[-6.4431,38.0592,830.2115],[-6.4357,38.0575,840.2869],[-6.4138,38.0586,905.6774],[-6.4022,38.0525,919.6653],[-6.3883,38.0481,1000.3171],[-6.3671,38.0489,999.534],[-6.3671,38.0461,1035.3918],[-6.3629,38.0431,1029.5082],[-6.3581,38.0263,824.2343],[-6.359,38.0167,620.4316],[-6.3526,38.0074,618.7416],[-6.346,38.0024,601.282],[-6.3334,37.9981,569.6882],[-6.3292,37.9983,567.0598],[-6.3216,37.9934,550.9828],[-6.3196,37.9902,554.912],[-6.309,37.9852,533.3124],[-6.3032,37.9783,527.0009],[-6.2888,37.9766,517.3505],[-6.28,37.9735,506.4771],[-6.2524,37.9716,489.3958],[-6.2461,37.9659,491.8535],[-6.2459,37.9631,480.6393],[-6.2396,37.9591,475.9673],[-6.2331,37.958,471.8845],[-6.2144,37.9614,466.1386],[-6.2102,37.9607,479.435],[-6.2093,37.9586,469.9288],[-6.2052,37.9597,463.8695],[-6.2039,37.9622,480.7378],[-6.2011,37.9619,456.5541],[-6.2003,37.9606,471.1674],[-6.202,37.9595,446.2574],[-6.194,37.9547,433.5894],[-6.1961,37.9491,430.3794],[-6.1856,37.9451,427.6149],[-6.1801,37.941,425.3424],[-6.1773,37.9461,424.399],[-6.1678,37.9519,442.7686],[-6.1677,37.9558,445.2586],[-6.1544,37.9576,447.1846],[-6.1485,37.9626,460.8239],[-6.1492,37.9661,465.7038],[-6.1423,37.9658,471.0581],[-6.1361,37.9722,497.0779],[-6.1297,37.9731,523.866],[-6.1152,37.9818,582.1697],[-6.0943,37.9816,714.8932],[-6.09,37.9845,625.2043],[-6.0827,37.9857,581.2096],[-6.0777,37.9846,585.6899],[-6.0652,37.9885,508.9665],[-6.0617,37.9915,491.306],[-6.0552,37.9923,511.7351],[-6.0522,37.9967,543.8276],[-6.0443,37.997,602.1301],[-6.0406,37.995,615.3834],[-6.0312,37.9977,622.7192],[-6.0241,37.9933,585.6639],[-6.017,37.9911,611.8964],[-6.0129,37.9934,573.6501],[-6.0061,37.9914,550.2854],[-5.9934,37.9996,381.3143],[-5.9868,37.998,378.9876],[-5.9774,37.9998,373.9639],[-5.9613,37.9997,335.0],[-5.9557,37.9984,335.0],[-5.9536,37.9954,335.0],[-5.945,38.007,336.4879],[-5.9448,38.0107,337.0061],[-5.9404,38.0149,335.0],[-5.9363,38.0244,334.5],[-5.9368,38.028,338.5668],[-5.9326,38.0315,343.6783],[-5.9366,38.0387,349.5477],[-5.9341,38.0469,366.779],[-5.9283,38.0502,387.3873],[-5.9192,38.0498,378.6545],[-5.9179,38.0562,377.9868],[-5.9132,38.0596,382.6034],[-5.9116,38.0628,389.4126],[-5.9089,38.0629,386.6449],[-5.9079,38.0683,393.282],[-5.9107,38.0782,399.9295],[-5.9292,38.0892,434.2041],[-5.9277,38.0912,434.424],[-5.9291,38.0964,450.6619],[-5.9276,38.0973,454.7161],[-5.9264,38.1044,476.904],[-5.9141,38.1176,612.6132],[-5.9128,38.1227,620.5901],[-5.9072,38.124,629.0586],[-5.8952,38.1305,711.1827],[-5.8808,38.1322,840.9527],[-5.8768,38.1379,697.2141],[-5.8785,38.1466,641.2628],[-5.8767,38.1484,624.4146],[-5.8774,38.1554,613.1522],[-5.8746,38.1584,579.9177],[-5.8565,38.1615,553.0906],[-5.8551,38.1695,544.664],[-5.8514,38.1719,541.675],[-5.8466,38.1714,542.8535],[-5.8377,38.1744,530.2247],[-5.823,38.1699,515.9461],[-5.8241,38.1722,515.7716],[-5.8222,38.1757,531.2202],[-5.8186,38.1751,507.6884],[-5.817,38.1777,530.1444],[-5.8153,38.1763,504.5493],[-5.8106,38.178,491.8124],[-5.8118,38.1748,492.5839],[-5.8105,38.1736,509.4817],[-5.803,38.1783,485.1351],[-5.7998,38.1745,485.2746],[-5.7917,38.1776,490.0201],[-5.7816,38.1859,479.6842],[-5.772,38.1834,464.8182],[-5.761,38.1828,462.474],[-5.7572,38.1806,467.4285],[-5.7552,38.1819,458.8614],[-5.7574,38.1839,490.2073],[-5.7566,38.1853,490.2073],[-5.7538,38.1843,455.4745],[-5.7485,38.1904,451.7391],[-5.7457,38.1895,444.4704],[-5.7419,38.1939,441.739],[-5.7314,38.1952,441.0538],[-5.728,38.1974,441.8679],[-5.725,38.1958,442.9204],[-5.7231,38.1925,448.7706],[-5.7146,38.189,435.8967],[-5.7141,38.1863,427.0154],[-5.7078,38.1883,423.5175],[-5.7049,38.1851,425.7531],[-5.7018,38.1864,422.0055],[-5.6979,38.185,419.3583],[-5.6946,38.1865,421.3405],[-5.6944,38.1835,423.0025],[-5.6987,38.1827,416.3361],[-5.6988,38.1809,416.9734],[-5.6977,38.1797,406.0915],[-5.6885,38.1819,406.8925],[-5.6874,38.1796,419.7326],[-5.6887,38.1712,458.3773],[-5.684,38.1608,522.4189],[-5.6841,38.1571,510.7169],[-5.686,38.1616,510.2525],[-5.6938,38.1682,476.524],[-5.6949,38.1711,426.6591],[-5.7019,38.1673,422.1857],[-5.7057,38.1694,429.357],[-5.7056,38.1641,428.0155],[-5.6946,38.1504,474.976],[-5.7043,38.1434,530.003],[-5.7088,38.1423,552.0084],[-5.7153,38.1338,536.9409],[-5.7186,38.1363,549.3073],[-5.7307,38.1371,485.2502],[-5.7387,38.1328,524.3157],[-5.7406,38.1266,612.2557],[-5.735,38.1145,619.2604],[-5.7339,38.0982,656.0187],[-5.7359,38.0945,676.8278],[-5.7348,38.0863,621.7225],[-5.7328,38.0875,611.4822],[-5.7194,38.0851,592.1745],[-5.7103,38.0811,570.7909],[-5.6935,38.0838,633.7543],[-5.6692,38.1018,669.0156],[-5.6669,38.1091,686.854],[-5.6458,38.1252,528.597],[-5.6441,38.1293,523.8307],[-5.6333,38.1381,486.7025],[-5.5847,38.1317,642.7988],[-5.5855,38.1404,629.5135],[-5.5739,38.1507,543.0009],[-5.5672,38.148,483.4329],[-5.5618,38.1508,440.5005],[-5.56,38.1486,427.8273],[-5.5566,38.1502,417.8944],[-5.5556,38.1534,401.1258],[-5.5535,38.1537,392.8019],[-5.5495,38.1611,351.6437],[-5.5413,38.1601,347.5047],[-5.5388,38.1617,343.7561],[-5.5357,38.1687,365.7018],[-5.5403,38.17,362.1931],[-5.5395,38.1718,364.484],[-5.542,38.1771,381.5572],[-5.5399,38.177,379.1631],[-5.5399,38.181,394.2388],[-5.5422,38.1814,384.4254],[-5.5436,38.1849,391.8387],[-5.5402,38.185,410.8191],[-5.5366,38.1919,410.8535],[-5.5391,38.1932,416.5222],[-5.5372,38.1965,416.1652],[-5.5388,38.1998,426.4691],[-5.5304,38.2033,443.493],[-5.5291,38.2019,465.1699],[-5.5266,38.2053,470.645],[-5.5209,38.2072,513.7254],[-5.5207,38.2108,522.3072],[-5.5233,38.213,534.484],[-5.5221,38.2139,549.9854],[-5.5242,38.2226,577.8793],[-5.5223,38.2304,608.0123],[-5.5237,38.2492,633.7485],[-5.5299,38.2552,628.7587],[-5.5258,38.2641,604.4306],[-5.5317,38.27,594.368],[-5.5374,38.273,588.6656],[-5.5373,38.2795,586.6436],[-5.541,38.2781,582.1204],[-5.5443,38.2823,577.9981],[-5.5415,38.2851,576.6309],[-5.5442,38.2885,574.3091],[-5.5469,38.2976,565.9506],[-5.5524,38.3035,562.7239],[-5.5505,38.3063,560.2385],[-5.5511,38.311,557.6351],[-5.5559,38.3183,555.3928],[-5.5676,38.3235,552.8433],[-5.5755,38.3296,553.9249],[-5.5736,38.3308,551.5476],[-5.5714,38.3384,549.8871],[-5.5722,38.3419,550.1508],[-5.5671,38.3513,547.306],[-5.5686,38.3567,544.2808],[-5.5668,38.3626,550.0685],[-5.5594,38.3661,541.9551],[-5.5595,38.3676,543.9413],[-5.5655,38.3669,545.7119],[-5.5664,38.3684,537.1696],[-5.563,38.372,547.7101],[-5.5667,38.3772,533.4758],[-5.5729,38.3784,532.3063],[-5.5773,38.3822,536.7399],[-5.5799,38.3811,530.4255],[-5.5849,38.3859,527.0997],[-5.5844,38.4003,523.6813],[-5.5726,38.4233,515.6614],[-5.5729,38.4269,514.6023],[-5.568,38.4334,513.4489],[-5.562,38.4356,512.6111],[-5.5527,38.4456,513.1909],[-5.5489,38.4467,510.5822],[-5.5463,38.45,507.3052],[-5.543,38.4499,510.5878],[-5.5307,38.4546,499.1999],[-5.5196,38.4632,496.171],[-5.5124,38.464,503.8127],[-5.5038,38.4567,505.384],[-5.4984,38.4595,499.6048],[-5.4947,38.4587,494.0798],[-5.491,38.4665,490.0626],[-5.4866,38.4658,505.2415],[-5.4843,38.4634,498.7352],[-5.4801,38.4743,486.1653],[-5.4811,38.4775,481.9493],[-5.4794,38.4847,482.0964],[-5.4741,38.486,491.1257],[-5.4692,38.4849,476.709],[-5.4583,38.4948,475.6871],[-5.4584,38.4992,484.3898],[-5.4504,38.4982,473.9624],[-5.4487,38.5021,477.6819],[-5.4447,38.5049,483.3886],[-5.4345,38.5044,468.2686],[-5.4277,38.5147,473.0947],[-5.4188,38.5125,459.3962],[-5.4158,38.5207,470.8598],[-5.4103,38.52,476.7465],[-5.4102,38.5241,462.6539],[-5.4134,38.5241,455.3793],[-5.4159,38.5302,452.1443],[-5.4035,38.5361,457.0965],[-5.4071,38.5433,452.325],[-5.3996,38.5466,447.7933],[-5.3966,38.5463,447.437],[-5.3904,38.5401,446.4247],[-5.3846,38.5392,442.696],[-5.3829,38.5411,442.4459],[-5.3835,38.5437,447.8752],[-5.3914,38.5489,440.9866],[-5.3927,38.5528,439.6856],[-5.3918,38.5547,439.3375],[-5.3857,38.5548,438.306],[-5.3833,38.5574,449.5506],[-5.3897,38.5622,437.2988],[-5.3859,38.5668,436.2177],[-5.3756,38.5683,434.8702],[-5.3696,38.5794,464.8727],[-5.3716,38.5836,466.9916],[-5.3565,38.5855,475.1013],[-5.347,38.5834,475.7541],[-5.3356,38.5785,460.0439],[-5.3288,38.5783,415.9703],[-5.3237,38.5806,417.0469],[-5.3095,38.5773,417.5773],[-5.3058,38.5808,410.0798],[-5.3066,38.586,408.9302],[-5.3106,38.59,408.5002],[-5.3097,38.5941,406.1364],[-5.3018,38.5982,405.0034],[-5.2932,38.6091,401.3687],[-5.287,38.613,400.7297],[-5.2792,38.6123,400.6252],[-5.2732,38.6157,431.0192],[-5.2705,38.6211,396.2499],[-5.2541,38.6261,426.9659],[-5.2539,38.6332,394.3503],[-5.2449,38.6321,397.3502],[-5.2473,38.6399,389.602],[-5.2419,38.6371,392.8322],[-5.2374,38.6377,406.3204],[-5.2355,38.6431,388.7856],[-5.2313,38.6443,384.6535],[-5.2293,38.6471,387.9036],[-5.2223,38.6489,384.1746],[-5.2238,38.6565,383.2587],[-5.2194,38.656,402.0636],[-5.2171,38.6492,388.8134],[-5.2146,38.6486,446.2946],[-5.2115,38.6518,378.8262],[-5.2122,38.656,378.2093],[-5.2079,38.6679,379.616],[-5.204,38.6661,375.7561],[-5.2014,38.6578,374.0546],[-5.1993,38.6564,406.3552],[-5.1976,38.6568,410.8022],[-5.1968,38.6605,391.3483],[-5.1984,38.6645,376.0929],[-5.1975,38.667,373.5935],[-5.1947,38.6668,392.6458],[-5.1902,38.6605,372.2976],[-5.1849,38.6594,371.454],[-5.179,38.6657,373.0128],[-5.1873,38.6704,383.0972],[-5.1856,38.6742,371.8891],[-5.1827,38.6761,369.0903],[-5.1679,38.6773,368.1991],[-5.1676,38.6817,392.5887],[-5.1733,38.6885,453.5395],[-5.1754,38.7005,546.9075],[-5.1812,38.7067,585.0861],[-5.1802,38.7123,496.6278],[-5.1844,38.7197,499.2231],[-5.1708,38.7173,489.6967],[-5.1693,38.7131,449.0725],[-5.1665,38.7117,441.9294],[-5.1639,38.714,456.4581],[-5.1553,38.7159,437.6328],[-5.1498,38.7164,424.0293],[-5.1424,38.7138,447.2984],[-5.1183,38.716,377.7238],[-5.1119,38.7119,376.8164],[-5.1007,38.7077,357.1817],[-5.0924,38.709,349.0993],[-5.09,38.7115,351.1911],[-5.0802,38.7154,346.0],[-5.0682,38.7176,347.4657],[-5.0631,38.7212,346.0],[-5.0615,38.7243,346.0],[-5.0498,38.7266,388.0888],[-5.0387,38.7333,400.8137],[-5.0165,38.7355,346.0],[-5.0096,38.7352,346.0],[-5.0039,38.733,352.7668],[-4.9899,38.7398,436.9146],[-4.9832,38.7515,452.0837],[-4.9727,38.7609,513.2044],[-4.9681,38.776,765.485],[-4.9607,38.7898,491.7539],[-4.9608,38.7966,523.025],[-4.9576,38.8036,526.1344],[-4.9586,38.8104,531.2726],[-4.9535,38.83,630.509],[-4.9444,38.8472,440.9728],[-4.9434,38.8544,488.0951],[-4.9345,38.8649,427.5282],[-4.9279,38.87,428.1198],[-4.9241,38.8768,388.1854],[-4.9191,38.8802,400.7231],[-4.9148,38.8875,411.4504],[-4.8997,38.8891,641.6731],[-4.8896,38.8866,738.4586],[-4.8652,38.887,757.9939],[-4.8477,38.8821,746.3939],[-4.8425,38.8953,521.9063],[-4.8458,38.8997,497.2768],[-4.841,38.9202,454.9799],[-4.837,38.9297,516.2701],[-4.831,38.9356,532.3656],[-4.8329,38.9393,573.5359],[-4.8437,38.9402,715.9353],[-4.8429,38.9451,791.2946],[-4.8518,38.9473,752.7647],[-4.8728,38.9488,733.7083],[-4.8765,38.9478,749.6797],[-4.8812,38.9492,774.4777],[-4.8916,38.9529,841.6348],[-4.8903,38.9569,710.4501],[-4.8935,38.96,620.8818],[-4.905,38.9633,563.6401],[-4.9132999999999996,38.9607,554.6295],[-4.9181,38.9571,537.4548],[-4.9336,38.9756,533.5707],[-4.9368,38.9857,537.2263],[-4.9371,38.9972,544.9173],[-4.9452,39.0088,485.6775],[-4.9512,39.0307,512.3639],[-4.9618,39.0524,462.0471],[-4.9624,39.0587,454.4454],[-4.9485,39.0563,628.8998],[-4.9361,39.0568,656.8403],[-4.9145,39.0486,817.4161],[-4.9027,39.041,775.1266],[-4.8822,39.0329,762.4484],[-4.875,39.032,781.5611],[-4.8685,39.034,783.8264],[-4.8609,39.0318,729.6464],[-4.8525,39.0388,712.9161],[-4.8491,39.0455,758.0378],[-4.8424,39.0476,782.5669],[-4.8386,39.0448,777.5352],[-4.8327,39.0462,723.3513],[-4.8322,39.0515,618.363],[-4.8257,39.0626,646.3044],[-4.8357,39.0709,608.4037],[-4.8583,39.0769,570.2059],[-4.8743,39.099,524.6536],[-4.8696,39.1135,532.5718],[-4.8571,39.1227,526.8151],[-4.856,39.1317,533.2731],[-4.858,39.1347,535.4398],[-4.8536,39.141,548.2771],[-4.8549,39.1473,558.9196],[-4.8535,39.1517,558.6003],[-4.8451,39.1614,612.6625],[-4.8386,39.1639,681.8298],[-4.8314,39.1642,702.0696],[-4.8313,39.1761,676.5975],[-4.8211,39.1809,682.2272],[-4.8131,39.191,695.7262],[-4.8091,39.1979,779.5955],[-4.8102,39.1994,819.7574],[-4.7735,39.1895,692.6182],[-4.7424,39.1945,654.2868],[-4.7143,39.1876,647.0286],[-4.6764,39.1696,729.9618],[-4.6752,39.1707,720.4601],[-4.6615,39.1662,695.0716],[-4.6489,39.1649,504.5593],[-4.6475,39.1687,440.722],[-4.6492,39.172,435.5603],[-4.6632999999999996,39.1793,427.8327],[-4.6632,39.1842,425.2932],[-4.6651,39.1861,425.3788],[-4.6723,39.1873,427.1912],[-4.6776,39.1918,424.9262],[-4.6825,39.193,423.0],[-4.6872,39.2024,422.5],[-4.6896,39.204,426.0491],[-4.7081,39.2099,422.5],[-4.7051,39.2138,507.4032],[-4.7108,39.2271,546.4481],[-4.7143,39.2422,667.3201],[-4.7134,39.2443,691.7032],[-4.7336,39.2526,759.4514],[-4.7315,39.2549,754.0037],[-4.7545,39.3115,630.1184],[-4.7609,39.3208,530.4995],[-4.7347,39.3267,504.2541],[-4.7137,39.3287,582.2457],[-4.7066,39.3277,579.2079],[-4.7059,39.3306,520.6356],[-4.7099,39.3458,600.4423],[-4.7041,39.3645,620.9863],[-4.6942,39.3736,620.2072],[-4.6953,39.3764,625.9098],[-4.693,39.3824,494.6162],[-4.6878,39.3858,498.3077],[-4.6877,39.3928,530.4357],[-4.6831,39.4007,531.8425],[-4.6721,39.4127,540.8171],[-4.6694,39.4245,573.4292],[-4.6728,39.4267,668.3225],[-4.6777,39.4354,674.2637],[-4.6817,39.4368,675.6393],[-4.6862,39.4415,672.9425],[-4.6876,39.4503,679.5923],[-4.6902,39.4518,624.2787],[-4.7146,39.4348,576.0914],[-4.7382,39.4236,541.9193],[-4.7415,39.4238,575.1191],[-4.7553,39.4157,526.4087],[-4.7639,39.4051,525.8527],[-4.7756,39.3969,527.4361],[-4.7887,39.3988,490.2848],[-4.7958,39.3969,496.1031],[-4.8106,39.3965,472.6391],[-4.8133,39.3944,475.0079],[-4.8319,39.3894,452.9056],[-4.8445,39.3796,440.3058],[-4.8463,39.3791,442.2804],[-4.8492,39.3816,438.0605],[-4.8531,39.3791,430.5041],[-4.8555,39.3789,433.2602],[-4.8564,39.381,438.2035],[-4.8612,39.3793,426.1352],[-4.8633,39.375,424.0098],[-4.8681,39.375,418.5],[-4.8708,39.3683,418.5],[-4.8765,39.3718,418.5],[-4.882,39.3729,418.0],[-4.8865,39.3706,418.0],[-4.903,39.3752,418.0],[-4.903,39.3788,418.0],[-4.9057,39.3798,418.0],[-4.9091,39.3785,418.0],[-4.9123,39.38,418.0],[-4.9214,39.3875,418.0],[-4.932,39.388,418.0],[-4.9338,39.3954,418.0],[-4.9496,39.3931,416.75],[-4.9524,39.395,416.0],[-4.9731,39.395,413.0],[-4.9749,39.3938,413.0],[-4.9695,39.3829,413.0],[-4.9786,39.3797,413.0],[-4.9841,39.3718,413.0],[-4.9919,39.3707,413.0],[-5.0088,39.3783,413.0],[-5.0151,39.3745,413.0],[-5.0195,39.3683,358.0096],[-5.0411,39.3665,480.5917],[-5.0537,39.3624,512.5832],[-5.0745,39.38,556.7173],[-5.0905,39.3906,569.4537],[-5.1136,39.3873,567.1122],[-5.1108,39.3677,552.6391],[-5.1117,39.3575,541.544],[-5.1169,39.3435,523.891],[-5.1234,39.3365,462.8527],[-5.1502,39.321,392.9786],[-5.1718,39.3155,372.2015],[-5.1755,39.317,373.1353],[-5.1862,39.3159,382.8804],[-5.2475,39.3018,438.6666],[-5.283,39.3195,489.8655],[-5.3031,39.3196,586.6449],[-5.3102,39.3252,604.9086],[-5.3231,39.3314,609.0332],[-5.3308,39.3313,616.6653],[-5.3399,39.3333,619.181],[-5.3529,39.2833,554.1257],[-5.3551,39.2603,499.3712],[-5.3527,39.2542,439.0149],[-5.347,39.248,414.2254],[-5.347,39.2392,400.8332],[-5.3533,39.2243,375.8587],[-5.3671,39.213,366.0574],[-5.376,39.1866,343.0707],[-5.3839,39.1742,330.9661],[-5.3939,39.169,325.899],[-5.3976,39.1686,324.4326],[-5.3989,39.1659,323.0985],[-5.4137,39.1567,315.4966],[-5.4245,39.1586,312.0165],[-5.4238,39.1601,312.4608],[-5.4278,39.1625,313.3223],[-5.4412,39.1596,308.0841],[-5.4536,39.161,303.7027],[-5.4597,39.1584,302.1893],[-5.465,39.1607,305.6988],[-5.4695,39.169,311.8851],[-5.4787,39.1781,316.5676],[-5.4934,39.1825,335.4552],[-5.5001,39.1876,345.7303],[-5.5113,39.199,418.63],[-5.5145,39.2097,433.7999],[-5.5184,39.2042,421.8106],[-5.524,39.2018,397.8966],[-5.528,39.1915,373.3956],[-5.5413,39.2064,343.3601],[-5.5477,39.2107,332.4184],[-5.5507,39.2157,323.3186],[-5.5566,39.2087,326.9237],[-5.5641,39.2106,320.2082],[-5.5704,39.2048,313.5037],[-5.5839,39.2001,313.9656],[-5.5896,39.201,316.1038],[-5.6052,39.1907,308.0],[-5.6131,39.1882,308.4183],[-5.6056,39.1758,303.5992],[-5.5936,39.1666,299.9377],[-5.5872,39.1581,294.9298],[-5.5764,39.1509,307.9888],[-5.5793,39.1431,301.8633],[-5.5835,39.1391,308.5923],[-5.5919,39.1348,309.638],[-5.6007999999999996,39.1344,311.5053],[-5.6019,39.1285,299.4768],[-5.5951,39.1263,296.2262],[-5.5835,39.1181,291.516],[-5.5927,39.1079,307.5463],[-5.5985,39.108,314.0454],[-5.6037,39.1006,312.885],[-5.6106,39.0992,299.682],[-5.6375,39.1001,280.5511],[-5.6458,39.1023,287.5309],[-5.6641,39.0884,328.6459],[-5.6708,39.0808,324.678],[-5.69,39.083,294.8758],[-5.7015,39.0899,287.6844],[-5.7228,39.1073,283.5832],[-5.7265,39.1122,283.5085],[-5.7534,39.1297,273.4351],[-5.7551,39.1323,274.8883],[-5.763,39.1354,274.394],[-5.8103,39.1446,273.7264],[-5.8192,39.1295,267.9245],[-5.8188,39.1226,266.4449],[-5.8163,39.1198,266.4428],[-5.8339,39.1102,277.997],[-5.8476,39.1096,266.2897],[-5.8542,39.1064,267.6501],[-5.872,39.1043,271.0946],[-5.9246,39.0832,270.0527],[-5.9375,39.0838,265.8087],[-5.9254,39.0939,272.8055],[-5.9245,39.098,274.3041],[-5.9265,39.1046,276.7914],[-5.9378,39.1089,266.8897],[-5.9418,39.1087,265.7525],[-5.9471,39.1025,264.9086],[-5.9497,39.103,263.8648],[-5.9542,39.0975,262.4698],[-5.9608,39.0938,263.873],[-5.9615,39.0902,264.12],[-5.9665,39.0876,262.9543],[-5.968,39.0827,259.4331],[-5.982,39.0687,258.2357],[-5.9867,39.0696,255.3341],[-5.9896,39.0682,253.5203],[-6.0096,39.0526,249.5689],[-6.0105,39.0552,247.6993],[-6.0076,39.0597,249.7762],[-6.0115,39.0633,248.516],[-6.0102,39.0673,249.4421],[-6.0119,39.0712,253.315],[-6.0125,39.0891,255.0937],[-6.015,39.0934,255.6431],[-6.0163,39.1019,257.0852],[-6.0141,39.1067,258.9413],[-6.0161,39.1161,262.2557],[-6.0147,39.1293,262.4572],[-6.0185,39.1291,277.9789],[-6.0312,39.1199,269.1086],[-6.0384,39.1177,271.1563],[-6.0622,39.1021,297.6282],[-6.0785,39.0937,341.6959],[-6.0895,39.0846,354.1758],[-6.1061,39.0646,395.1154],[-6.1126,39.0611,351.9544],[-6.1251,39.05,332.4171],[-6.131,39.0395,359.4892],[-6.1364,39.0341,348.0305],[-6.142,39.0316,349.243],[-6.1462,39.0424,365.5161],[-6.1526,39.0473,367.2217],[-6.1516,39.0511,368.6167],[-6.1538,39.0536,320.167],[-6.1678,39.0589,363.6434],[-6.203,39.0565,337.2941],[-6.2155,39.0686,350.8292],[-6.225,39.0848,323.1823],[-6.2307,39.0898,336.2742],[-6.2599,39.0924,312.6397],[-6.2686,39.0953,368.2213],[-6.2952,39.0982,341.8154],[-6.2997,39.1042,369.3853],[-6.3118,39.1122,362.8419],[-6.3125,39.1161,371.9167],[-6.3096,39.1229,382.5719],[-6.3122,39.1325,390.3396],[-6.308,39.1403,407.9473],[-6.3074,39.1467,412.7414],[-6.3102,39.1534,440.3671],[-6.3093,39.1559,445.9511],[-6.3154,39.1613,452.5816],[-6.3163,39.1663,436.5642],[-6.3214,39.1717,430.2212],[-6.3193,39.1845,542.0066],[-6.3273,39.1867,513.4984],[-6.3409,39.1839,455.434],[-6.3554,39.1776,407.0417],[-6.3654,39.1669,394.1594],[-6.3712,39.163,366.528],[-6.379,39.1628,348.3151],[-6.3969,39.1667,344.7085],[-6.406,39.165,332.047],[-6.4185,39.1669,326.9685],[-6.4303,39.1738,325.2448],[-6.4386,39.1759,377.5926],[-6.445,39.1734,352.2762],[-6.4692,39.1733,351.2671],[-6.491,39.1679,345.7511],[-6.5402,39.1817,438.6081],[-6.5359,39.176,413.7946],[-6.5359,39.1634,379.5266],[-6.5386,39.1553,407.1406],[-6.5741,39.1584,358.1493],[-6.574,39.1677,374.5081],[-6.5781,39.1704,378.4362],[-6.5843,39.1711,386.4638],[-6.5832,39.1754,392.2855],[-6.5791,39.179,409.3328],[-6.58,39.1798,418.9269],[-6.6057,39.188,458.1778],[-6.6147,39.1888,540.4315],[-6.6193,39.1918,506.4468],[-6.6267,39.1919,425.3828],[-6.6268,39.1941,394.5546],[-6.6333,39.1969,376.8777],[-6.6451,39.1934,359.2416],[-6.6596,39.1991,331.2006],[-6.6809,39.1772,476.773],[-6.6891,39.1783,450.0031],[-6.7071,39.1846,412.275],[-6.7399,39.19,409.8565],[-6.7505,39.194,353.6683],[-6.7531,39.1939,360.1316],[-6.7612,39.1885,323.324],[-6.7674,39.1884,337.7179],[-6.7848,39.2015,296.5602],[-6.7877,39.2091,332.1036],[-6.7917,39.2106,301.6526],[-6.7946,39.215,256.2593],[-6.7978,39.22,257.3098],[-6.7968,39.2263,276.6331],[-6.8007,39.2311,251.0743],[-6.8007,39.2394,286.7859],[-6.7927,39.2476,270.6509],[-6.7842,39.2529,285.4283],[-6.7788,39.2654,336.424],[-6.7668,39.2697,348.0767],[-6.7617,39.2758,321.6446],[-6.7512,39.3036,307.3381],[-6.7503,39.3124,331.2739],[-6.7471,39.3158,338.4865],[-6.7466,39.3218,366.8577],[-6.7486,39.3258,401.6191],[-6.7706,39.3286,360.597],[-6.7789,39.336,355.906],[-6.7971,39.3448,295.9736],[-6.7948,39.3521,342.2096],[-6.7948,39.3617,343.5302],[-6.7909,39.3675,380.5091],[-6.8014,39.3839,403.6395],[-6.802,39.3895,349.7271],[-6.8113,39.3914,387.698],[-6.8309,39.3884,414.5014],[-6.8468,39.3875,430.0325],[-6.8566,39.3888,451.9272],[-6.8721,39.3824,477.8243],[-6.8831,39.3828,402.6866],[-6.8969,39.3895,499.1421],[-6.9076,39.3889,435.5815],[-6.9239,39.3946,587.4068],[-6.9357,39.3968,578.3887],[-6.9776,39.4125,660.6733],[-6.9806,39.4143,645.1348],[-6.9825,39.4194,534.2377],[-6.9893,39.4198,516.2308],[-6.9953,39.4246,514.5361],[-7.0295,39.4318,511.579],[-7.0321,39.4305,502.8231],[-7.0493,39.4367,551.9948],[-7.0669,39.4143,489.6848],[-7.0496,39.402,479.0065],[-7.0381,39.3965,440.8331],[-7.0174,39.392,425.4812],[-7.0092,39.3885,426.4443],[-7.0187,39.3831,406.1052],[-7.0181,39.3786,390.978],[-7.0213,39.3713,398.2964],[-7.0325,39.3676,430.7095],[-7.0293,39.3592,405.8505],[-7.0299,39.3509,370.2681],[-7.0479,39.3335,421.1231],[-7.0487,39.3294,414.5958],[-7.044,39.3269,408.0396],[-7.0503,39.3216,404.187],[-7.077,39.3102,376.8391],[-7.0812,39.3132,366.3549],[-7.0841,39.323,412.0889],[-7.0826,39.3353,474.2956],[-7.0882,39.3404,467.4887],[-7.102,39.3464,477.2265],[-7.1027,39.3553,470.2101],[-7.0985,39.3591,454.5403],[-7.079,39.3514,438.6894],[-7.0692,39.3667,419.4625],[-7.0629,39.3723,442.1615],[-7.0701,39.3742,442.0864],[-7.0738,39.3812,465.5591],[-7.0797,39.3793,460.0151],[-7.0931,39.38,441.7341],[-7.0987,39.3851,435.4303],[-7.1043,39.386,429.4913],[-7.1188,39.3837,436.2126],[-7.1254,39.3812,429.5833],[-7.1337,39.3748,441.8586],[-7.1371,39.3768,445.1264],[-7.1542,39.3675,496.9539],[-7.1613,39.3608,519.7528],[-7.1614,39.3571,534.7166],[-7.1649,39.3514,516.5699],[-7.1771,39.3376,463.2337],[-7.1777,39.3308,430.1733],[-7.1766,39.3274,439.3948],[-7.1684,39.3202,357.0165],[-7.1657,39.3261,426.2018],[-7.1601,39.3306,433.9212],[-7.1553,39.3297,421.8921],[-7.1519,39.3215,346.8608],[-7.1554,39.3174,338.1268],[-7.1551,39.3145,332.2413],[-7.1612,39.3121,342.1618],[-7.1696,39.3059,355.0392],[-7.1716,39.2977,333.1759],[-7.1886,39.2847,467.4119],[-7.1942,39.2754,418.2581],[-7.2037,39.2657,505.6555],[-7.2321,39.2789,570.734],[-7.2465,39.2564,488.2512],[-7.248,39.2534,482.8784],[-7.2468,39.2488,545.3607],[-7.242,39.2422,498.8934],[-7.2417,39.2344,570.9369],[-7.2447,39.2319,536.0776],[-7.2453,39.2276,485.4935],[-7.24,39.2179,550.9777],[-7.2415,39.2083,509.5977],[-7.2281,39.2007,440.4489],[-7.2207,39.1925,402.6682],[-7.2101,39.1895,387.5338],[-7.2079,39.1873,385.5897],[-7.2009,39.1859,375.647],[-7.1937,39.1873,370.9111],[-7.1878,39.1833,360.7499],[-7.1812,39.181399999999996,355.258],[-7.1634,39.1802,342.0378],[-7.1595,39.1769,343.3662],[-7.1508,39.1747,338.1954],[-7.1484,39.1722,329.0619],[-7.1406,39.1726,333.4092],[-7.1347,39.1712,322.9051],[-7.1341,39.1667,323.6179],[-7.1322,39.1647,316.4589],[-7.1344,39.163,329.2835],[-7.1329,39.161,311.5144],[-7.1404,39.1502,297.6804],[-7.1362,39.1447,279.167],[-7.138,39.1414,273.1225],[-7.1421,39.1392,275.1473],[-7.1437,39.1274,257.8355],[-7.1494,39.1216,254.5677],[-7.148,39.1145,247.5],[-7.144,39.1086,247.5],[-7.1053,39.0992,251.7672],[-7.1008,39.1046,286.1381],[-7.0962,39.1063,256.0947],[-7.0798,39.1089,259.7092],[-7.0678,39.1132,231.5309],[-7.0647,39.1128,246.8832],[-7.0557,39.1155,252.7743],[-7.0535,39.1177,248.355],[-7.0388,39.1184,212.3791],[-7.0282,39.1157,227.6833],[-7.009,39.1042,225.8796],[-6.996,39.0993,225.7947],[-6.9809,39.0878,217.8669],[-6.9771,39.0806,212.0493],[-6.9704,39.0726,207.4843],[-6.9689,39.0668,208.0497],[-6.9627,39.0608,205.5878],[-6.9594,39.0545,200.2154],[-6.9678,39.0395,191.9911],[-6.9511,39.0236,182.8825],[-6.9645,39.011,190.2526],[-6.9714,38.9982,221.7898],[-6.9751,38.9948,216.5808],[-6.9866,38.9763,201.8269],[-6.9923,38.9721,198.0239],[-6.9992,38.9627,207.958],[-7.0109,38.9518,204.8311],[-7.0204,38.9401,204.4958],[-7.0275,38.9229,192.5102],[-7.0327,38.9183,196.3212],[-7.0522,38.907,175.7722],[-7.0489,38.9027,169.6187],[-7.0448,38.9017,168.5583],[-7.0417,38.8979,168.4026],[-7.0392,38.8913,167.8188],[-7.0405,38.8838,165.4596],[-7.0356,38.8835,168.5332],[-7.033,38.8788,165.8115],[-7.0329,38.8773,166.117],[-7.0359,38.876,166.1875],[-7.0396,38.87,162.9888],[-7.0393,38.8647,163.0279],[-7.0441,38.8632,163.0479],[-7.0453,38.8651,163.7619],[-7.0532,38.858,161.9612],[-7.0612,38.8581,163.2894],[-7.0654,38.8543,160.9463],[-7.0686,38.8542,164.7648],[-7.0854,38.8308,153.1926],[-7.0892,38.821,157.6681],[-7.0964,38.816,156.8668],[-7.1081,38.8169,154.5468],[-7.1243,38.8155,154.6399],[-7.1286,38.8138,153.051],[-7.1533,38.7951,149.9288],[-7.1565,38.7912,148.4631],[-7.1579,38.7865,151.6536],[-7.1638,38.7798,147.3513],[-7.1812,38.7735,145.5],[-7.1854,38.7702,149.5795],[-7.1889,38.7707,152.9051],[-7.1882,38.769,145.5],[-7.1903,38.7701,145.5],[-7.1965,38.7653,145.5],[-7.1958,38.7612,147.5135],[-7.1976,38.7582,147.1215],[-7.2026,38.7522,154.1326],[-7.2124,38.745,146.89],[-7.2285,38.7367,145.5],[-7.2379,38.7369,145.5],[-7.2427,38.7352,145.5],[-7.2522,38.7302,145.5],[-7.2594,38.7242,147.6115],[-7.2604,38.72,145.5],[-7.258,38.7135,145.5],[-7.2672,38.6993,154.7848],[-7.2689,38.6879,145.5],[-7.2662,38.6814,145.5],[-7.2702,38.6666,145.5],[-7.2698,38.6485,145.5],[-7.2725,38.6384,145.5],[-7.2656,38.6273,147.0392],[-7.2468,38.6275,145.5],[-7.2436,38.624,145.5],[-7.254,38.6171,149.3392],[-7.2601,38.6109,145.5],[-7.2594,38.6038,145.5],[-7.2634,38.5945,145.5],[-7.2639,38.5879,145.5],[-7.2696,38.5846,145.5],[-7.2757,38.5755,145.5],[-7.2844,38.5755,145.5],[-7.2867,38.5711,145.5],[-7.286,38.5633,145.5],[-7.289,38.5581,145.5],[-7.3034,38.5431,145.5],[-7.3009,38.5269,145.5],[-7.3026,38.5211,145.5],[-7.3146,38.5139,145.5],[-7.3154,38.4965,145.5],[-7.3208,38.4854,145.5],[-7.3216,38.4783,145.5],[-7.3194,38.4748,145.5],[-7.3133,38.4741,145.5],[-7.3077,38.481,145.5],[-7.3004,38.483,145.5],[-7.296,38.4792,145.5],[-7.2986,38.4696,145.5],[-7.3037,38.4642,145.5],[-7.3133,38.4604,145.5],[-7.3145,38.4584,145.5],[-7.3125,38.4546,145.5],[-7.3151,38.4491,145.5],[-7.3303,38.4445,145.5],[-7.3359,38.4358,145.5],[-7.3338,38.4347,145.5],[-7.3301,38.4381,146.6747],[-7.3285,38.4366,148.8495],[-7.328,38.4388,149.1447],[-7.3223,38.44,145.5],[-7.3185,38.4391,145.5],[-7.3171,38.4403,145.5],[-7.3147,38.4392,148.4692],[-7.3144,38.4352,146.5302],[-7.3103,38.4358,145.5],[-7.3107,38.4337,158.021],[-7.3067,38.4328,147.6149],[-7.3071,38.4311,146.0672],[-7.3032,38.4319,148.3647],[-7.3025,38.4296,148.7039],[-7.3002,38.429,149.3215],[-7.2999,38.426,163.5178],[-7.2948,38.4258,156.6169],[-7.2944,38.4281,160.6516],[-7.2915,38.4277,169.0124],[-7.2931,38.4263,162.3261],[-7.2922,38.424,165.8747],[-7.2881,38.4251,163.4135],[-7.2879,38.4227,165.6265],[-7.2844,38.4233,164.6328],[-7.283,38.4208,164.7886],[-7.2839,38.4192,169.7624],[-7.2798,38.4197,167.1373],[-7.28,38.4133,177.0741],[-7.2713,38.3948,208.3398],[-7.2601,38.3822,230.4382],[-7.2566,38.3804,233.4301],[-7.2482,38.3695,208.6871],[-7.2322,38.3567,199.7161],[-7.2197,38.3425,158.5041],[-7.2145,38.3409,167.4156],[-7.2023,38.329,177.0027],[-7.1992,38.3211,196.7126],[-7.183,38.2969,193.8737],[-7.1755,38.2885,188.3827],[-7.1685,38.2842,166.141],[-7.1697,38.2793,171.0163],[-7.164,38.2813,173.3765],[-7.1609,38.2794,173.7999],[-7.162,38.2794,172.029],[-7.1555,38.2788,227.0082],[-7.1556,38.2759,186.889],[-7.1506,38.2758,197.5784],[-7.1533,38.2739,200.4961],[-7.1518,38.2723,189.3736],[-7.1534,38.2702,191.4914],[-7.152,38.2675,181.931],[-7.1499,38.2701,216.935],[-7.1475,38.27,210.6238],[-7.147,38.2689,210.6238],[-7.1487,38.2685,196.0632],[-7.1459,38.2653,200.8385],[-7.1472,38.2627,200.8934],[-7.145,38.2636,208.7508],[-7.143,38.2617,207.5693],[-7.1452,38.2583,210.0726],[-7.1427,38.2556,218.5281],[-7.1448,38.2509,213.9547],[-7.1432,38.2489,218.576],[-7.1429,38.2406,224.577],[-7.1398,38.2355,230.9087],[-7.1344,38.2271,265.5463],[-7.1238,38.217,257.4818],[-7.122,38.2127,239.4707],[-7.1178,38.2114,227.0611],[-7.1158,38.2064,212.2364],[-7.1127,38.2063,203.0803],[-7.1136,38.2034,189.1031],[-7.1106,38.199,182.519],[-7.1099,38.1936,186.2757],[-7.1071,38.1926,168.8274],[-7.1078,38.1878,146.7229],[-7.1027,38.1868,148.0816],[-7.1002,38.1814,146.6291],[-7.0972,38.179,145.2055],[-7.0892,38.1786,151.6515],[-7.0851,38.1692,148.1717],[-7.0752,38.1765,164.4782],[-7.0662,38.179,168.2082],[-7.0652,38.1828,166.2216],[-7.0663,38.1865,154.232],[-7.058,38.1866,158.0263],[-7.056,38.1853,157.8447],[-7.0552,38.1831,158.4129],[-7.0599,38.1797,160.1112],[-7.0594,38.1777,162.312],[-7.0561,38.1802,159.7578],[-7.0519,38.1795,162.6154],[-7.0479,38.1809,159.6037],[-7.0435,38.1873,164.9681],[-7.0373,38.1864,164.5148],[-7.0286,38.1825,170.0607],[-7.0212,38.1867,173.7782],[-7.0171,38.1918,230.6286],[-7.0167,38.1972,174.8795],[-7.0104,38.1958,172.6849],[-7.0093,38.1984,184.1787],[-7.0118,38.2029,191.2897],[-7.0112,38.2045,173.0606],[-6.9952,38.2038,177.4691],[-6.9805,38.2113,186.7568],[-6.9781,38.2068,191.0818],[-6.972,38.2021,178.7521],[-6.9566,38.217,188.2665],[-6.9477,38.2177,204.2844],[-6.9496,38.2128,188.7147],[-6.9465,38.2117,215.3551],[-6.9423,38.2181,189.6409],[-6.9367,38.2207,197.658],[-6.9357,38.2193,189.2237],[-6.9383,38.2122,191.124],[-6.9378,38.2069,207.1048],[-6.932,38.2085,192.7621],[-6.9268,38.2044,196.6213],[-6.9246,38.2053,202.1063],[-6.925,38.2019,224.1095],[-6.9223,38.2003,267.7706],[-6.9014,38.2013,268.0352],[-6.8979,38.1985,313.3292],[-6.8941,38.198,306.4382],[-6.8923,38.1954,329.7775],[-6.8828,38.1933,439.5763],[-6.858,38.1799,506.9176],[-6.8222,38.1738,535.4152],[-6.8056,38.1787,483.2438],[-6.795,38.1785,511.2678],[-6.7927,38.173,527.9089],[-6.7928,38.1666,543.1768],[-6.7943,38.1596,512.0295],[-6.7988,38.1552,503.8661],[-6.7994,38.1438,454.369],[-6.8101,38.1327,432.7388],[-6.8157,38.1201,299.3158],[-6.8082,38.1112,305.3397],[-6.7998,38.1148,312.7251],[-6.7977,38.1139,329.9942],[-6.7972,38.1107,309.8933],[-6.789,38.1092,318.9848],[-6.7847,38.1116,324.5603],[-6.7822,38.1118,326.3334],[-6.7799,38.109,326.8892],[-6.7753,38.1125,351.2434],[-6.7696,38.112,328.1364],[-6.7735,38.1047,355.3935],[-6.7716,38.1032,350.1887],[-6.7648,38.106,345.0411],[-6.7644,38.1024,348.0635],[-6.7699,38.0997,344.715],[-6.7609,38.0979,350.3801],[-6.7581,38.0927,353.2339],[-6.7544,38.095,361.328],[-6.7472,38.0914,368.5336],[-6.7421,38.0933,365.6096],[-6.7319,38.0901,374.5321],[-6.7303,38.0924,373.1555],[-6.735,38.0935,387.2269],[-6.7284,38.1,386.8429],[-6.7265,38.0973,384.4555],[-6.7236,38.0971,384.4797],[-6.7196,38.1006,403.1516],[-6.7168,38.0999,391.4069],[-6.7153,38.0926,399.9966],[-6.7068,38.0965,405.7301],[-6.6917,38.095,422.7366],[-6.6898,38.1,415.9017],[-6.682,38.0968,435.4359],[-6.6799,38.0974,440.4906],[-6.6761,38.0953,458.9095],[-6.6609,38.0925,448.2944],[-6.6592,38.0926,448.4308],[-6.6586,38.0953,458.9878],[-6.6536,38.0965,463.2279],[-6.65,38.0953,461.6547],[-6.6513,38.0931,459.5531],[-6.6492,38.09,475.4662],[-6.646,38.0913,466.5022],[-6.6416,38.0976,481.1055],[-6.6372,38.0962,480.0225],[-6.6271,38.0983,490.2544],[-6.6223,38.0972,504.5787],[-6.6123,38.0859,553.2062],[-6.6073,38.0834,562.1466],[-6.604,38.0773,592.7985],[-6.5994,38.075,599.2308],[-6.5942,38.0669,602.2157],[-6.5804,38.0528,713.4008],[-6.5843,38.0442,740.9225],[-6.5837,38.0343,692.1091],[-6.587,38.0268,726.2172],[-6.5846,38.0266,707.507],[-6.586,38.0237,732.3811],[-6.5822,38.0209,722.3455],[-6.5787,38.0221,667.4398],[-6.572,38.0202,658.0872],[-6.5695,38.0227,632.3917],[-6.5714,38.0241,656.29],[-6.5651,38.027,668.9355],[-6.5456,38.0281,768.2253],[-6.5247,38.0215,691.0699],[-6.4949,38.0191,509.3337],[-6.4927,38.0164,435.3081],[-6.4955,38.0152,442.7677],[-6.4916,38.0121,423.0296],[-6.4916,38.0095,422.0585],[-6.4842,38.008,468.341],[-6.4799,38.0096,507.4937],[-6.4785,38.0081,493.1932],[-6.4704,38.01,505.5656],[-6.4692,38.0121,530.9015],[-6.4653,38.011,529.3533],[-6.4646,38.0138,651.0005],[-6.4721,38.0158,612.5049],[-6.4737,38.0244,804.7114],[-6.4695,38.0311,645.1815],[-6.4657,38.0322,589.251]]]]}
,"properties": {"GID_2": "ESP.11.1_1","GID_0": "ESP","country": "Spain","GID_1": "ESP.11_1","province": "Extremadura","NL_NAME_1": "NA","county": "Badajoz","VARNAME_2": "NA","NL_NAME_2": "NA","TYPE_2": "Provincia","ENGTYPE_2": "Province","CC_2": "06","HASC_2": "ES.EX.BD","name": "Badajoz.county","area_km2": 21754.57,"hist_schema_id": "Elevation0-9000","hist_area_km2": {"150": 81.01,"175": 479.06,"200": 878.05,"225": 1036.22,"250": 1400.8,"275": 1395.05,"300": 1310.99,"325": 1222.21,"350": 1312.84,"375": 1229.61,"400": 1208.71,"425": 1233.68,"450": 1177.69,"475": 1120.37,"500": 1124.51,"525": 1179.53,"550": 1266.39,"575": 1055.19,"600": 714.47,"625": 405.32,"650": 262.73,"675": 177.66,"700": 139.08,"725": 107.16,"750": 79.94,"775": 51.63,"800": 35.55,"825": 23.68,"850": 16.25,"875": 10.53,"900": 7.39,"925": 4.42,"950": 2.3,"975": 1.77,"1000": 1.32,"1025": 0.78,"1050": 0.53}}}