{"type": "Feature","bbox": [-7.0071,37.4743,-6.4277,37.8106],"geometry": {"type": "MultiPolygon","coordinates": [[[[-6.5889,37.5255,100.5882],[-6.5812,37.5262,95.9515],[-6.5816,37.5351,82.9788],[-6.5758,37.5335,174.6382],[-6.5721,37.5289,131.8545],[-6.54,37.5184,240.9989],[-6.531,37.5181,239.6852],[-6.5238,37.5155,238.3695],[-6.5243,37.5056,214.976],[-6.5131,37.503,205.2022],[-6.4948,37.5034,218.1237],[-6.4692,37.5105,229.9015],[-6.4626,37.5157,254.3],[-6.4564,37.516,228.7102],[-6.4524,37.5278,269.9792],[-6.4529,37.5312,291.0492],[-6.4553,37.5332,306.273],[-6.4536,37.5392,331.7526],[-6.4574,37.5424,352.821],[-6.4594,37.5487,371.0584],[-6.4586,37.5703,403.1992],[-6.4543,37.5844,391.2878],[-6.4495,37.5855,368.218],[-6.4485,37.5892,389.2927],[-6.4497,37.5896,389.2927],[-6.4345,37.6033,402.0656],[-6.4277,37.6212,407.7745],[-6.4311,37.6203,416.8662],[-6.4352,37.6226,343.7729],[-6.4385,37.6214,333.2152],[-6.4431,37.6234,320.0114],[-6.4492,37.6205,304.3331],[-6.4545,37.6208,297.7886],[-6.4559,37.623,314.8751],[-6.4612,37.6211,287.2147],[-6.4648,37.6215,274.6596],[-6.4654,37.6201,275.3674],[-6.4698,37.6213,267.2085],[-6.4718,37.6202,280.9167],[-6.4734,37.6225,269.3185],[-6.4764,37.6194,253.7235],[-6.4808,37.6197,263.1992],[-6.4813,37.6211,253.3039],[-6.4841,37.6203,244.582],[-6.4847,37.6161,246.8765],[-6.489,37.6179,232.2227],[-6.4899,37.621,229.9256],[-6.4967,37.6172,214.7878],[-6.4973,37.6195,231.7565],[-6.4995,37.6183,225.1527],[-6.5009,37.62,222.7748],[-6.4978,37.621,210.0664],[-6.4985,37.6227,217.6149],[-6.5005,37.6216,208.6757],[-6.5039,37.6244,224.7442],[-6.5078,37.6212,194.9534],[-6.5085,37.6247,201.6212],[-6.5109,37.6226,189.2311],[-6.5135,37.6252,189.9459],[-6.5204,37.6208,176.6886],[-6.5225,37.6219,187.5015],[-6.5219,37.6196,191.65],[-6.5263,37.6182,183.5799],[-6.5279,37.6158,174.4032],[-6.5301,37.619,176.2849],[-6.533,37.6191,164.4398],[-6.5321,37.6201,174.4279],[-6.5351,37.6215,160.4771],[-6.5364,37.6208,160.4771],[-6.5384,37.6267,156.7868],[-6.5334,37.6298,186.3908],[-6.5334,37.633,152.236],[-6.5304,37.6342,158.9843],[-6.5295,37.6368,162.5636],[-6.5365,37.6405,191.3246],[-6.5335,37.6469,195.9936],[-6.536,37.651,217.422],[-6.5332,37.6569,203.3185],[-6.5299,37.6576,204.0587],[-6.5254,37.6641,209.0316],[-6.5215,37.6644,213.749],[-6.5192,37.6622,213.9593],[-6.5158,37.6654,229.5338],[-6.5117,37.6647,220.0288],[-6.5076,37.6683,242.0],[-6.5036,37.666,242.0],[-6.5022,37.6668,242.0],[-6.5004,37.6704,242.0],[-6.5008,37.6772,242.0],[-6.498,37.6823,242.0],[-6.5013,37.6887,246.3102],[-6.4929,37.689,253.0351],[-6.4939,37.6913,280.1888],[-6.4907,37.6949,257.4429],[-6.4911,37.6963,256.1769],[-6.4888,37.698,253.1456],[-6.4848,37.6977,252.5839],[-6.4847,37.7012,256.5836],[-6.4794,37.7053,271.3068],[-6.4793,37.711,273.9972],[-6.4764,37.712,274.6127],[-6.4745,37.7088,282.4351],[-6.4733,37.7091,282.4351],[-6.4758,37.7147,281.928],[-6.48,37.7154,307.134],[-6.4829,37.7208,293.5273],[-6.4819,37.7267,317.5939],[-6.484,37.7313,395.8264],[-6.4818,37.7365,492.0206],[-6.4774,37.7397,527.8534],[-6.4762,37.745,553.8608],[-6.4801,37.7462,572.13],[-6.4805,37.7644,471.0513],[-6.4847,37.7699,483.6465],[-6.4803,37.7761,547.6086],[-6.4707,37.7772,556.1302],[-6.4781,37.79,554.6839],[-6.4782,37.7938,560.3331],[-6.4732,37.7987,550.0839],[-6.4748,37.8083,443.0845],[-6.4803,37.81,426.6882],[-6.4986,37.8106,391.4498],[-6.5139,37.8081,360.462],[-6.5222,37.8099,352.4454],[-6.5272,37.8081,347.8801],[-6.5314,37.8088,341.5845],[-6.5323,37.8106,356.5963],[-6.5356,37.8068,339.6349],[-6.5333,37.805,335.5109],[-6.5367,37.8027,332.4299],[-6.5452,37.8011,323.0211],[-6.5488,37.7979,316.6899],[-6.5543,37.8021,326.4611],[-6.5603,37.7995,306.2312],[-6.5645,37.8039,330.2242],[-6.5693,37.7988,302.3544],[-6.5723,37.8003,300.2453],[-6.5761,37.7987,304.5935],[-6.5807,37.7996,293.8746],[-6.6013,37.7963,294.6638],[-6.6125,37.7891,357.2913],[-6.6173,37.7877,288.0967],[-6.6238,37.7787,465.7696],[-6.6409,37.7683,356.3836],[-6.6449,37.7624,361.6951],[-6.6438,37.7517,417.7239],[-6.6707,37.7501,206.128],[-6.6776,37.7463,192.984],[-6.6801,37.7411,192.5712],[-6.6829,37.7401,193.6748],[-6.6807,37.7361,187.1546],[-6.6918,37.7287,187.0463],[-6.6938,37.7295,192.2827],[-6.6921,37.7322,201.5378],[-6.6957,37.7323,186.5505],[-6.7001,37.7287,194.1318],[-6.706,37.7285,187.2761],[-6.7089,37.7236,253.5579],[-6.7131,37.7214,177.8557],[-6.7279,37.7245,180.2693],[-6.7343,37.7183,158.079],[-6.7425,37.7144,149.6459],[-6.7503,37.7154,152.1543],[-6.7543,37.7184,147.5076],[-6.7579,37.719,151.4213],[-6.7607,37.7177,138.5822],[-6.7706,37.7178,136.447],[-6.7737,37.7138,126.2895],[-6.7823,37.7157,133.4204],[-6.7866,37.7109,127.9343],[-6.7876,37.7071,117.5739],[-6.794,37.7036,110.0757],[-6.7959,37.7007,107.9682],[-6.7984,37.6911,137.0252],[-6.7965,37.6866,104.8115],[-6.8044,37.6876,98.5808],[-6.8071,37.6863,100.711],[-6.8081,37.6847,127.7407],[-6.8055,37.6806,114.9639],[-6.8062,37.678,100.0152],[-6.8106,37.675,98.5403],[-6.8166,37.677,105.2072],[-6.819,37.6803,94.4741],[-6.8155,37.6815,112.9225],[-6.813,37.6892,99.5705],[-6.8154,37.6898,100.6542],[-6.8165,37.6867,102.3948],[-6.8187,37.6871,101.9991],[-6.8198,37.6906,105.4897],[-6.8161,37.6954,135.1608],[-6.8122,37.695,124.3366],[-6.8139,37.7035,144.4459],[-6.809,37.7068,118.7444],[-6.8141,37.7094,198.9864],[-6.8162,37.707,166.0402],[-6.8204,37.7064,261.3893],[-6.8265,37.7073,290.2756],[-6.8287,37.7096,277.9214],[-6.8377,37.7092,264.1469],[-6.8423,37.7111,247.3366],[-6.8442,37.7151,275.9226],[-6.8542,37.7167,268.392],[-6.8534,37.7233,368.3611],[-6.8684,37.7219,295.3752],[-6.8715,37.718,229.5571],[-6.8948,37.7071,184.0428],[-6.9176,37.7036,171.2626],[-6.963,37.7014,180.126],[-6.9638,37.6982,174.6483],[-6.9615,37.696,172.6483],[-6.9616,37.6933,169.8661],[-6.9655,37.6918,157.3898],[-6.9665,37.6886,165.1695],[-6.9641,37.6832,140.3577],[-6.9662,37.679,133.6951],[-6.9728,37.6763,122.7361],[-6.9725,37.6712,132.0205],[-6.974,37.6688,115.375],[-6.9767,37.6668,113.1652],[-6.9999,37.668,109.0109],[-7.0071,37.6667,94.1071],[-7.0048,37.6616,87.8307],[-7.002,37.6595,91.6501],[-6.9978,37.6606,91.2044],[-6.9961,37.6595,84.5126],[-6.9959,37.6515,82.1728],[-7.0017,37.6449,89.5347],[-7.0017,37.6416,96.6529],[-6.9965,37.6388,81.9076],[-6.9994,37.6338,83.4708],[-6.9954,37.632,75.7501],[-6.9994,37.6294,76.569],[-6.9996,37.6266,89.721],[-6.9945,37.6244,72.6359],[-6.9934,37.6198,93.8883],[-6.9886,37.6191,84.3065],[-6.9927,37.6123,66.8932],[-6.985,37.6112,68.5042],[-6.9779,37.6046,64.078],[-6.978,37.5989,61.6699],[-6.9803,37.5961,70.3668],[-6.9843,37.5975,66.1688],[-6.9852,37.5963,109.3453],[-6.9811,37.5917,59.7417],[-6.9807,37.5799,66.3873],[-6.975,37.5833,54.736],[-6.9734,37.5826,67.2382],[-6.9753,37.5747,53.7097],[-6.9803,37.5731,62.5681],[-6.985,37.5736,52.0856],[-6.9862,37.5715,51.9784],[-6.9832,37.5648,54.0409],[-6.9875,37.5621,69.7701],[-6.9873,37.5555,44.9718],[-6.9908,37.5526,49.6429],[-6.987,37.547,52.4297],[-6.9892,37.5439,46.4627],[-6.989,37.5389,58.4882],[-6.9918,37.5362,62.8736],[-6.9872,37.5334,37.0378],[-6.9854,37.5271,37.1699],[-6.9867,37.5243,32.9127],[-6.9822,37.5229,54.8437],[-6.9811,37.5166,44.8827],[-6.9767,37.5146,29.2511],[-6.9759,37.508,37.2402],[-6.9706,37.5067,49.8817],[-6.9723,37.5012,43.2517],[-6.9771,37.4954,66.1439],[-6.9743,37.4934,65.2729],[-6.9785,37.4889,24.5115],[-6.9741,37.4847,62.7705],[-6.9797,37.4819,29.9797],[-6.9821,37.4764,23.1457],[-6.9812,37.4753,42.0231],[-6.9741,37.4757,29.2761],[-6.9705,37.4743,16.5148],[-6.9711,37.4778,17.3633],[-6.9686,37.4796,29.3586],[-6.9633,37.4796,23.2809],[-6.9589,37.4858,39.9389],[-6.945,37.4826,19.7695],[-6.9386,37.4874,25.0488],[-6.9347,37.5028,26.4782],[-6.9313,37.5058,27.6961],[-6.9307,37.5115,27.9872],[-6.9239,37.5157,35.4066],[-6.9216,37.5201,33.4466],[-6.9112,37.5195,30.0522],[-6.9063,37.5236,32.8201],[-6.9,37.5242,36.4331],[-6.8984,37.5293,36.6385],[-6.8945,37.5302,40.3477],[-6.8931,37.5361,33.0479],[-6.8799,37.541,42.6611],[-6.879,37.5471,64.2715],[-6.8682,37.5502,52.207],[-6.8718,37.5577,43.6614],[-6.8684,37.5577,42.5732],[-6.8665,37.5547,43.1746],[-6.862,37.5556,52.8486],[-6.8589,37.5544,79.2705],[-6.8568,37.5496,68.6512],[-6.854,37.5484,76.8781],[-6.8556,37.5486,74.772],[-6.8567,37.5467,74.6386],[-6.8545,37.5438,84.2393],[-6.8569,37.5426,81.6978],[-6.8574,37.5403,85.7614],[-6.8554,37.5382,94.9519],[-6.8514,37.5381,91.0867],[-6.8514,37.5364,128.5031],[-6.8483,37.5358,103.9799],[-6.8461,37.5316,123.7296],[-6.8399,37.531,124.5097],[-6.8382,37.5289,118.4233],[-6.8376,37.5302,118.4233],[-6.8336,37.5304,131.6287],[-6.8274,37.5281,139.5433],[-6.825,37.5212,159.3516],[-6.8201,37.5157,177.9123],[-6.8097,37.5151,190.8058],[-6.8074,37.5135,203.7112],[-6.8005,37.5143,211.4375],[-6.7774,37.5086,215.4858],[-6.7601,37.5001,167.3904],[-6.7548,37.4954,122.8148],[-6.7511,37.4982,140.837],[-6.7451,37.4971,152.423],[-6.7292,37.4996,166.3954],[-6.7195,37.506,214.985],[-6.7177,37.5095,190.3074],[-6.7049,37.5125,218.21],[-6.6954,37.511,242.4511],[-6.6865,37.5158,264.9623],[-6.6807,37.5085,252.8895],[-6.6735,37.5114,237.654],[-6.6703,37.5109,246.1061],[-6.665,37.5224,281.9957],[-6.6664,37.5289,280.3537],[-6.664,37.5304,290.6051],[-6.6529,37.5301,301.9764],[-6.6448,37.5273,305.3938],[-6.6396,37.53,277.0173],[-6.6376,37.529,268.0583],[-6.6355,37.5272,269.3601],[-6.6351,37.5224,307.4151],[-6.6298,37.5189,290.5549],[-6.6194,37.5165,278.4904],[-6.6243,37.5077,232.3481],[-6.6223,37.5048,219.9897],[-6.619,37.5066,234.0716],[-6.6182,37.5131,256.9293],[-6.6131,37.5163,271.311],[-6.6012,37.5104,208.785],[-6.5935,37.5113,186.2667],[-6.588,37.5144,216.5039],[-6.5847,37.5172,183.0827],[-6.5928,37.5201,250.3434],[-6.5908,37.5212,236.4565],[-6.5901,37.5259,106.401],[-6.5889,37.5255,100.5882]]]]}
,"properties": {"GID_3": "ESP.1.5.3_1","GID_0": "ESP","country": "Spain","GID_1": "ESP.1_1","province": "Andalucía","NL_NAME_1": "NA","GID_2": "ESP.1.5_1","county": "Huelva","NL_NAME_2": "NA","city": "n.a.(135)","VARNAME_3": "NA","NL_NAME_3": "NA","TYPE_3": "Comarca","ENGTYPE_3": "Comarca","CC_3": "NA","HASC_3": "NA","name": "n.a.(135).city","area_km2": 1126.8813,"hist_schema_id": "Elevation0-9000","hist_area_km2": {"0": 0.0337,"25": 2.1025,"50": 8.0189,"75": 20.6213,"100": 40.3412,"125": 56.8009,"150": 65.8624,"175": 82.3148,"200": 93.2573,"225": 104.9227,"250": 117.5127,"275": 104.7864,"300": 81.5894,"325": 80.2822,"350": 76.6151,"375": 58.7335,"400": 36.5397,"425": 25.977,"450": 17.8035,"475": 13.2587,"500": 12.1522,"525": 10.7106,"550": 8.5313,"575": 4.8274,"600": 2.2631,"625": 0.7378,"650": 0.2348,"675": 0.0503}}}