{"type": "Feature","bbox": [-3.7699,36.8613,-3.4051,37.0558],"geometry": {"type": "MultiPolygon","coordinates": [[[[-3.5997,36.8861,1249.1531],[-3.5933,36.8835,1163.0183],[-3.5842,36.8767,1165.1836],[-3.5793,36.8771,1074.1287],[-3.5682,36.8736,1177.6113],[-3.5704,36.8692,1199.665],[-3.5673,36.8668,1185.9442],[-3.5513,36.8717,1099.3553],[-3.5497,36.8769,1104.0076],[-3.5369,36.8715,810.9426],[-3.5241,36.8701,827.0026],[-3.5132,36.8739,737.1885],[-3.5081,36.8742,656.7379],[-3.4996,36.8716,506.9327],[-3.4941,36.8738,411.804],[-3.4845,36.8741,230.0],[-3.4856,36.88,230.0],[-3.4894,36.8804,247.6794],[-3.4949,36.8854,230.0],[-3.4972,36.8854,269.1475],[-3.4967,36.8869,233.48],[-3.5052,36.8963,390.7723],[-3.5146,36.901,369.6598],[-3.5207,36.8976,447.4698],[-3.5246,36.9007,427.4124],[-3.5083,36.9226,834.9341],[-3.5068,36.9286,933.677],[-3.5086,36.9323,1021.409],[-3.5072,36.9352,1082.5557],[-3.5014,36.9378,1172.6886],[-3.4944,36.9473,1427.0804],[-3.4772,36.9561,1924.4528],[-3.4734,36.9623,2141.9834],[-3.4745,36.9715,2260.6917],[-3.4716,36.9822,2428.9487],[-3.4655,36.9856,2467.6226],[-3.4617,36.9922,2521.9204],[-3.4502,36.9997,2668.6619],[-3.4464,37.0046,2761.5261],[-3.4461,37.0075,2814.1733],[-3.4395,37.0119,2877.71],[-3.4412,37.0142,2915.1699],[-3.431,37.0233,2919.7173],[-3.4167,37.0292,3023.603],[-3.4051,37.0398,3121.3193],[-3.4126,37.0405,2918.2974],[-3.4172,37.0452,2785.1863],[-3.4162,37.0491,2743.293],[-3.4195,37.0529,2730.9373],[-3.4299,37.0558,2558.4199],[-3.4486,37.0537,2338.4883],[-3.4525,37.0549,2300.4365],[-3.4638,37.0498,2216.9265],[-3.4814,37.0449,2008.4884],[-3.4979,37.0521,1891.0853],[-3.5044,37.0532,1880.4698],[-3.5095,37.0519,1776.5453],[-3.5146,37.0527,1831.1627],[-3.5182,37.0493,1806.7518],[-3.5241,37.0518,1686.3489],[-3.533,37.0517,1725.39],[-3.5364,37.0489,1493.3611],[-3.5457,37.0488,1312.4152],[-3.5523,37.0431,1469.913],[-3.5656,37.0404,1414.2507],[-3.5733,37.0404,1423.42],[-3.5783,37.0439,1321.4761],[-3.5819,37.0438,1422.8469],[-3.5853,37.0413,1443.6715],[-3.5931,37.0396,1494.175],[-3.5976,37.0426,1361.0323],[-3.6011,37.0419,1322.6731],[-3.6062,37.0439,1267.9102],[-3.6197,37.0455,1111.562],[-3.6237,37.0487,1146.1069],[-3.6341,37.0477,1069.1868],[-3.6485,37.0495,858.4729],[-3.6505,37.0554,840.0555],[-3.6633,37.0506,850.7382],[-3.6664,37.0522,847.4555],[-3.6731,37.0499,845.4929],[-3.6761,37.0471,828.0729],[-3.677,37.0435,864.4722],[-3.6817,37.0405,928.2617],[-3.6897,37.0403,949.6882],[-3.6999,37.0345,1050.407],[-3.7096,37.0354,1021.0308],[-3.7132,37.0327,938.6063],[-3.714,37.03,1034.9738],[-3.7195,37.0273,1033.3804],[-3.7304,37.0271,1022.5308],[-3.7361,37.0252,1048.1733],[-3.7421,37.0267,1077.2275],[-3.7467,37.0242,1080.5837],[-3.7516,37.016,1112.4597],[-3.7487,37.0079,1159.5244],[-3.7563,36.9969,1236.2819],[-3.7568,36.9898,1257.4194],[-3.7614,36.984,1344.2908],[-3.7616,36.981,1356.9644],[-3.753,36.9794,1355.733],[-3.7505,36.9765,1341.5719],[-3.7437,36.9748,1399.1914],[-3.7487,36.9671,1282.9867],[-3.7477,36.9626,1273.553],[-3.7515,36.9371,1285.0618],[-3.759,36.9168,1107.9679],[-3.7559,36.9067,1222.3939],[-3.7648,36.893,1337.2308],[-3.7699,36.8901,1330.8639],[-3.7645,36.8731,1414.2903],[-3.7598,36.876,1372.3909],[-3.754,36.8755,1297.6932],[-3.749,36.8716,1287.7915],[-3.7464,36.8736,1288.394],[-3.7384,36.8738,1320.8313],[-3.7294,36.8709,1295.2266],[-3.7232,36.8717,1322.3809],[-3.7215,36.87,1241.3394],[-3.7117,36.8677,1263.6232],[-3.7063,36.8684,1323.2627],[-3.7047,36.8659,1266.8521],[-3.7065,36.8638,1241.4688],[-3.7011,36.8613,1255.5555],[-3.6957,36.8644,1260.9648],[-3.6885,36.8642,1256.9276],[-3.6861,36.8689,1204.3223],[-3.6803,36.871,1320.4468],[-3.6767,36.8796,1241.3861],[-3.6815,36.8838,1248.626],[-3.6812,36.8859,1237.639],[-3.6627,36.8938,1164.46],[-3.6599,36.8978,1197.8842],[-3.6432,36.8944,1214.6317],[-3.6346,36.8976,1232.6001],[-3.6311,36.895,1155.0244],[-3.627,36.8954,1141.8806],[-3.625,36.8932,1136.9885],[-3.618,36.8939,1218.3937],[-3.6117,36.8918,1285.168],[-3.6102,36.8872,1253.9445],[-3.6042,36.8855,1242.9858],[-3.5997,36.8861,1249.1531]]]]}
,"properties": {"GID_3": "ESP.1.4.7_1","GID_0": "ESP","country": "Spain","GID_1": "ESP.1_1","province": "Andalucía","NL_NAME_1": "NA","GID_2": "ESP.1.4_1","county": "Granada","NL_NAME_2": "NA","city": "n.a.(115)","VARNAME_3": "NA","NL_NAME_3": "NA","TYPE_3": "Comarca","ENGTYPE_3": "Comarca","CC_3": "NA","HASC_3": "NA","name": "n.a.(115).city","area_km2": 461.1513,"hist_schema_id": "Elevation0-9000","hist_area_km2": {"225": 0.4409,"250": 0.1526,"275": 0.3052,"300": 0.4748,"325": 0.5257,"350": 0.5596,"375": 0.7969,"400": 0.763,"425": 0.8478,"450": 0.9665,"475": 2.7293,"500": 2.7971,"525": 3.5258,"550": 4.2544,"575": 4.051,"600": 4.2543,"625": 4.7968,"650": 4.8134,"675": 4.7794,"700": 5.5759,"725": 12.6194,"750": 14.3643,"775": 14.9912,"800": 13.636,"825": 14.888,"850": 17.4616,"875": 13.7544,"900": 11.7059,"925": 9.7404,"950": 10.4012,"975": 9.9265,"1000": 11.0274,"1025": 13.9564,"1050": 13.6005,"1075": 10.6894,"1100": 10.9105,"1125": 10.6734,"1150": 9.5061,"1175": 11.4036,"1200": 11.6752,"1225": 11.3032,"1250": 12.9313,"1275": 14.474,"1300": 14.5245,"1325": 12.5732,"1350": 11.0469,"1375": 5.6915,"1400": 5.996,"1425": 4.6913,"1450": 3.4887,"1475": 2.5737,"1500": 1.7778,"1525": 1.947,"1550": 1.71,"1575": 1.71,"1600": 1.7777,"1625": 1.7269,"1650": 1.9301,"1675": 2.184,"1700": 1.9131,"1725": 1.7946,"1750": 1.8115,"1775": 1.5067,"1800": 1.7098,"1825": 1.6253,"1850": 1.7269,"1875": 1.6084,"1900": 1.6423,"1925": 1.4052,"1950": 1.3715,"1975": 1.1682,"2000": 1.236,"2025": 1.2021,"2050": 1.1852,"2075": 1.1851,"2100": 1.0497,"2125": 1.3544,"2150": 0.9989,"2175": 1.0327,"2200": 1.0836,"2225": 1.0496,"2250": 1.0327,"2275": 1.1174,"2300": 1.1511,"2325": 1.168,"2350": 0.7956,"2375": 0.9819,"2400": 0.9649,"2425": 1.1342,"2450": 0.9649,"2475": 0.8464,"2500": 0.9988,"2525": 0.8125,"2550": 0.9648,"2575": 0.7786,"2600": 0.8125,"2625": 0.6094,"2650": 0.7279,"2675": 0.6771,"2700": 0.6094,"2725": 0.6771,"2750": 0.5755,"2775": 0.3555,"2800": 0.5755,"2825": 0.457,"2850": 0.3724,"2875": 0.3386,"2900": 0.3724,"2925": 0.3047,"2950": 0.22,"2975": 0.2031,"3000": 0.1185,"3025": 0.1015,"3050": 0.1016,"3075": 0.0846,"3100": 0.0846}}}