{"type": "Feature","bbox": [-7.5227,37.1718,-6.8534,37.8656],"geometry": {"type": "MultiPolygon","coordinates": [[[[-7.3343,37.191,0.071],[-7.334,37.1921,0.0],[-7.336,37.1893,0.0],[-7.3307,37.1865,-0.288],[-7.3307,37.1882,-0.0449],[-7.3335,37.1888,0.0787],[-7.3343,37.191,0.071]]],
[[[-7.438,37.3762,0.0],[-7.4364,37.3642,0.0],[-7.4372,37.3571,0.0],[-7.4441,37.3486,0.0],[-7.445,37.3448,0.0],[-7.439,37.3269,0.0],[-7.4422,37.3113,0.0],[-7.4333,37.2881,0.0],[-7.4217,37.2738,0.0],[-7.423,37.27,0.0],[-7.432,37.2594,0.0],[-7.4336,37.2501,0.0],[-7.431,37.2452,0.0],[-7.4196,37.2381,0.0],[-7.4135,37.2254,0.0],[-7.4137,37.2106,0.0],[-7.4073,37.1834,0.0],[-7.4036,37.1777,0.0],[-7.3985,37.1793,1.0967],[-7.3879,37.1743,0.0],[-7.3768,37.1718,0.0],[-7.3507,37.1774,1.8068],[-7.3451,37.1829,7.6752],[-7.3449,37.1824,7.6752],[-7.3457,37.1815,3.882],[-7.3435,37.1815,3.4923],[-7.3435,37.1835,7.6752],[-7.3329,37.1849,2.2431],[-7.3393,37.1899,0.1634],[-7.3379,37.196,0.1907],[-7.3321,37.2001,0.0],[-7.3318,37.2035,0.0],[-7.3335,37.2049,0.2567],[-7.3435,37.2046,0.0061],[-7.3537,37.2007,0.0735],[-7.3607,37.2029,0.1859],[-7.3596,37.2038,0.8659],[-7.3554,37.2021,0.4536],[-7.3385,37.2074,0.2157],[-7.3318,37.206,0.0],[-7.3332,37.2088,0.2459],[-7.3408,37.2107,0.0303],[-7.3426,37.2143,0.113],[-7.3416,37.2161,0.4843],[-7.3357,37.2172,0.6446],[-7.3342,37.221,0.4002],[-7.3342,37.2192,0.0098],[-7.33,37.2204,0.7889],[-7.3282,37.2234,2.8533],[-7.3271,37.2215,0.225],[-7.3148,37.22,0.497],[-7.3118,37.2291,26.3224],[-7.3157,37.2451,48.5644],[-7.3309,37.2566,28.0077],[-7.3351,37.2646,35.1155],[-7.3314,37.2607,28.5082],[-7.3135,37.2633,37.5593],[-7.2993,37.259,53.8086],[-7.2807,37.2648,38.3394],[-7.2754,37.2769,58.2854],[-7.2724,37.2911,68.9663],[-7.2678,37.2934,67.2623],[-7.2589,37.3065,64.747],[-7.2613,37.323,76.0342],[-7.2794,37.3403,121.0825],[-7.2905,37.3427,127.8987],[-7.3039,37.3514,140.8678],[-7.3039,37.3532,132.496],[-7.3064,37.3546,121.2353],[-7.3044,37.3644,107.6518],[-7.3084,37.3712,97.0645],[-7.3069,37.3723,97.198],[-7.3059,37.3835,114.9304],[-7.3019,37.3874,119.2328],[-7.2932,37.4063,85.5039],[-7.2899,37.4095,92.6262],[-7.281,37.4105,106.9438],[-7.2453,37.4048,94.3066],[-7.239,37.4013,66.5],[-7.2316,37.4014,78.1508],[-7.2128,37.3937,143.2877],[-7.1964,37.3947,160.9883],[-7.1685,37.3839,108.5698],[-7.1473,37.3721,80.9647],[-7.1375,37.3737,92.2257],[-7.1306,37.3731,103.3316],[-7.1166,37.3667,122.4864],[-7.1019,37.3719,127.5979],[-7.0971,37.3849,143.8049],[-7.0807,37.3937,114.0792],[-7.0718,37.4141,128.6916],[-7.061,37.4215,130.916],[-7.0448,37.4295,96.5147],[-7.0547,37.4583,49.7043],[-7.0582,37.4585,51.512],[-7.065,37.4631,51.6863],[-7.0703,37.4615,55.9884],[-7.0837,37.4659,58.3042],[-7.0829,37.4681,55.3529],[-7.0772,37.4701,67.4602],[-7.079,37.4731,60.594],[-7.0835,37.4737,66.5184],[-7.0837,37.4761,66.9395],[-7.0757,37.4828,66.9268],[-7.0694,37.4813,108.028],[-7.0622,37.482,119.7924],[-7.0633,37.4855,118.7343],[-7.0613,37.4996,121.3045],[-7.0655,37.5079,119.6461],[-7.0625,37.5115,108.8172],[-7.0626,37.5202,120.7374],[-7.0714,37.5247,113.7569],[-7.072,37.5215,104.1759],[-7.0774,37.5217,101.399],[-7.0805,37.5189,101.1709],[-7.0858,37.5189,99.3095],[-7.0893,37.525,94.5786],[-7.0918,37.5236,115.7384],[-7.0942,37.5261,104.8708],[-7.0919,37.5295,104.0603],[-7.0883,37.5304,101.7602],[-7.0888,37.5323,111.416],[-7.0863,37.5359,106.3787],[-7.0741,37.5323,130.9522],[-7.0536,37.5303,125.9969],[-7.0266,37.5165,143.0787],[-7.0145,37.5039,128.7201],[-7.013,37.5001,119.068],[-7.0068,37.4958,118.5896],[-7.0052,37.4899,100.1208],[-7.0003,37.4867,93.9177],[-6.9953,37.4792,81.934],[-6.9909,37.4757,95.3637],[-6.9783,37.4711,93.3713],[-6.9752,37.4738,35.4069],[-6.9729,37.4709,11.4428],[-6.9705,37.4743,16.5148],[-6.9821,37.4764,23.1457],[-6.9797,37.4819,29.9797],[-6.9741,37.4847,62.7705],[-6.9785,37.4889,24.5115],[-6.9743,37.4934,65.2729],[-6.9771,37.4954,66.1439],[-6.9723,37.5012,43.2517],[-6.9706,37.5067,49.8817],[-6.9759,37.508,37.2402],[-6.9767,37.5146,29.2511],[-6.9811,37.5166,44.8827],[-6.9822,37.5229,54.8437],[-6.9867,37.5243,32.9127],[-6.9854,37.5271,37.1699],[-6.9872,37.5334,37.0378],[-6.9918,37.5362,62.8736],[-6.989,37.5389,58.4882],[-6.9892,37.5439,46.4627],[-6.987,37.547,52.4297],[-6.9908,37.5526,49.6429],[-6.9873,37.5555,44.9718],[-6.9875,37.5621,69.7701],[-6.9832,37.5648,54.0409],[-6.9862,37.5715,51.9784],[-6.985,37.5736,52.0856],[-6.9803,37.5731,62.5681],[-6.9753,37.5747,53.7097],[-6.9734,37.5826,67.2382],[-6.975,37.5833,54.736],[-6.9807,37.5799,66.3873],[-6.9811,37.5917,59.7417],[-6.9852,37.5963,109.3453],[-6.9843,37.5975,66.1688],[-6.9803,37.5961,70.3668],[-6.978,37.5989,61.6699],[-6.9779,37.6046,64.078],[-6.985,37.6112,68.5042],[-6.9927,37.6123,66.8932],[-6.9886,37.6191,84.3065],[-6.9934,37.6198,93.8883],[-6.9945,37.6244,72.6359],[-6.9996,37.6266,89.721],[-6.9994,37.6294,76.569],[-6.9954,37.632,75.7501],[-6.9994,37.6338,83.4708],[-6.9965,37.6388,81.9076],[-7.0017,37.6416,96.6529],[-7.0017,37.6449,89.5347],[-6.9959,37.6515,82.1728],[-6.9961,37.6595,84.5126],[-6.9978,37.6606,91.2044],[-7.002,37.6595,91.6501],[-7.0048,37.6616,87.8307],[-7.0071,37.6667,94.1071],[-6.9999,37.668,109.0109],[-6.9767,37.6668,113.1652],[-6.974,37.6688,115.375],[-6.9725,37.6712,132.0205],[-6.9728,37.6763,122.7361],[-6.9662,37.679,133.6951],[-6.9641,37.6832,140.3577],[-6.9665,37.6886,165.1695],[-6.9655,37.6918,157.3898],[-6.9616,37.6933,169.8661],[-6.9615,37.696,172.6483],[-6.9638,37.6982,174.6483],[-6.963,37.7014,180.126],[-6.9176,37.7036,171.2626],[-6.8948,37.7071,184.0428],[-6.8715,37.718,229.5571],[-6.8684,37.7219,295.3752],[-6.8534,37.7233,368.3611],[-6.8633,37.78,327.4673],[-6.8624,37.7695,325.487],[-6.8936,37.7652,323.3221],[-6.9025,37.7705,316.3461],[-6.9075,37.7758,315.3463],[-6.9211,37.7849,335.2589],[-6.918,37.8029,337.1598],[-6.9216,37.8101,338.8399],[-6.9218,37.8172,360.6459],[-6.9342,37.8015,340.6328],[-6.9483,37.7965,331.217],[-6.9738,37.7829,295.043],[-7.015,37.7759,236.5439],[-7.0276,37.7788,239.482],[-7.0439,37.785,267.7691],[-7.0498,37.7918,278.9268],[-7.0476,37.7953,284.9524],[-7.0477,37.8057,309.6493],[-7.0459,37.8118,318.8134],[-7.0494,37.8161,333.4223],[-7.0556,37.8177,347.8719],[-7.0577,37.8299,412.7874],[-7.0614,37.8346,489.5804],[-7.0664,37.8376,537.0568],[-7.0707,37.8349,586.6979],[-7.0912,37.8308,630.1211],[-7.1252,37.8269,559.2901],[-7.1294,37.8334,520.1074],[-7.135,37.8368,493.7823],[-7.1373,37.842,421.5021],[-7.1449,37.845,420.6038],[-7.1548,37.8452,394.8512],[-7.1561,37.8481,395.2954],[-7.168,37.8498,388.26],[-7.1741,37.8485,370.7524],[-7.1792,37.8511,332.6971],[-7.1821,37.8502,327.3238],[-7.1876,37.8516,299.5392],[-7.1902,37.8498,294.3725],[-7.1927,37.8517,293.4376],[-7.2051,37.8542,261.0314],[-7.2101,37.8502,251.3201],[-7.226,37.8529,222.126],[-7.2268,37.8543,235.1143],[-7.2321,37.8538,221.1709],[-7.2335,37.8517,220.9449],[-7.2381,37.8543,220.5821],[-7.2389,37.8524,202.0199],[-7.2416,37.8567,198.3382],[-7.244,37.857,197.5482],[-7.2484,37.8609,193.4706],[-7.2494,37.859,177.2243],[-7.2511,37.861,189.1259],[-7.2546,37.859,175.2975],[-7.2569,37.8614,167.1706],[-7.2587,37.8591,165.7503],[-7.2604,37.8606,178.9789],[-7.2622,37.86,166.085],[-7.2623,37.8622,202.3813],[-7.264,37.8622,191.0938],[-7.2667,37.8597,157.4188],[-7.2753,37.8595,154.5372],[-7.2778,37.8609,147.2088],[-7.2782,37.864,161.0354],[-7.2793,37.8626,141.8427],[-7.2799,37.8651,140.2259],[-7.2813,37.8627,141.8427],[-7.2865,37.8656,122.3591],[-7.2895,37.8612,147.9247],[-7.2976,37.8567,138.7917],[-7.3021,37.8404,115.735],[-7.3101,37.8358,110.5535],[-7.3139,37.8288,115.108],[-7.32,37.8239,108.5692],[-7.3212,37.8189,105.8114],[-7.3248,37.8155,142.8193],[-7.3335,37.8125,128.044],[-7.3418,37.8066,111.0672],[-7.3467,37.8055,101.9148],[-7.3516,37.8006,105.7859],[-7.3571,37.7988,108.4641],[-7.3605,37.7937,108.553],[-7.3661,37.7927,98.7792],[-7.3686,37.7874,107.7134],[-7.3788,37.7823,121.4495],[-7.3826,37.775,95.4044],[-7.3909,37.7713,94.2563],[-7.3967,37.764,93.9462],[-7.4076,37.7672,88.5177],[-7.4094,37.7666,91.6709],[-7.41,37.7628,86.0156],[-7.4132999999999996,37.7598,88.4278],[-7.4214,37.7589,99.6743],[-7.4227,37.755,96.7926],[-7.4188,37.7488,106.1373],[-7.4187,37.7438,84.6509],[-7.4286,37.741,79.2738],[-7.4287,37.7371,92.6694],[-7.4264,37.734,81.9204],[-7.4313,37.7206,72.4438],[-7.4362,37.7183,75.1964],[-7.4402,37.7063,77.4993],[-7.4394,37.7004,113.2846],[-7.4412,37.6997,69.0987],[-7.4437,37.702,65.7739],[-7.4478,37.6975,70.7326],[-7.4438,37.6886,71.078],[-7.4476,37.6817,84.5489],[-7.4523,37.6774,68.1918],[-7.4489,37.6747,62.9979],[-7.4436,37.6646,75.1278],[-7.4556,37.6622,54.1283],[-7.4514,37.6586,59.1237],[-7.4546,37.6548,52.0],[-7.4531,37.6485,55.3813],[-7.4544,37.6464,56.3678],[-7.458,37.6463,52.0],[-7.4638,37.6497,54.5292],[-7.4672,37.6494,59.0512],[-7.4636,37.6419,65.108],[-7.4667,37.6372,53.3423],[-7.471,37.6349,52.0],[-7.4703,37.625,52.0],[-7.4779,37.6258,52.0],[-7.4823,37.6241,52.0],[-7.4797,37.6184,53.2194],[-7.4863,37.6123,52.0],[-7.4856,37.6096,52.0],[-7.4888,37.604,52.0],[-7.4909,37.6035,58.9447],[-7.4971,37.6071,57.5157],[-7.5038,37.6048,52.0],[-7.5003,37.5973,52.0],[-7.4965,37.5947,52.0],[-7.4975,37.5906,52.0],[-7.5018,37.5853,52.0],[-7.5013,37.578,52.0],[-7.5077,37.576,52.0],[-7.5141,37.5718,52.0],[-7.5155,37.5688,52.0],[-7.5134,37.5659,52.0],[-7.5102,37.5675,54.4517],[-7.5075,37.5668,52.0],[-7.5069,37.5568,52.0],[-7.5127,37.5602,52.0],[-7.5194,37.5595,52.0],[-7.5225,37.5566,12.8499],[-7.5227,37.5531,0.0],[-7.5201,37.5474,6.1322],[-7.5123,37.5378,1.0715],[-7.5117,37.5249,0.0],[-7.5052,37.5224,8.8775],[-7.4954,37.5234,11.7053],[-7.4922,37.5222,0.0],[-7.4903,37.5184,6.8862],[-7.4909,37.5089,9.8678],[-7.4841,37.4983,0.0],[-7.4797,37.4954,16.5783],[-7.4708,37.4933,1.0321],[-7.4638,37.4872,13.0881],[-7.4639,37.4838,4.1025],[-7.4693,37.4785,0.0],[-7.4688,37.4685,2.657],[-7.4652,37.461,0.0],[-7.4567,37.4524,0.8954],[-7.4592,37.4399,0.0],[-7.4575,37.4293,0.0],[-7.4455,37.4194,5.6108],[-7.448,37.4155,4.5262],[-7.4613,37.4131,0.0],[-7.4627,37.409,0.0],[-7.461,37.4067,0.7776],[-7.449,37.401,0.0],[-7.4424,37.3942,0.0],[-7.4405,37.391,0.0],[-7.438,37.3762,0.0]]]]}
,"properties": {"GID_3": "ESP.1.5.2_1","GID_0": "ESP","country": "Spain","GID_1": "ESP.1_1","province": "Andalucía","NL_NAME_1": "NA","GID_2": "ESP.1.5_1","county": "Huelva","NL_NAME_2": "NA","city": "n.a.(134)","VARNAME_3": "NA","NL_NAME_3": "NA","TYPE_3": "Comarca","ENGTYPE_3": "Comarca","CC_3": "NA","HASC_3": "NA","name": "n.a.(134).city","area_km2": 2287.294,"hist_schema_id": "Elevation0-9000","hist_area_km2": {"0": 55.074,"25": 42.989,"50": 83.933,"75": 105.22,"100": 198.738,"125": 291.847,"150": 345.222,"175": 318.672,"200": 299.157,"225": 224.574,"250": 135.895,"275": 68.388,"300": 44.557,"325": 26.947,"350": 14.09,"375": 8.308,"400": 6.364,"425": 5.125,"450": 3.349,"475": 2.864,"500": 2.294,"525": 1.541,"550": 1.105,"575": 0.703,"600": 0.285,"625": 0.05}}}