{"type": "Feature","bbox": [0.7748,40.9346,1.456,41.4486],"geometry": {"type": "MultiPolygon","coordinates": [[[[0.9301,40.9904,0.0],[0.941,41.0062,9.9963],[0.9488,41.0124,6.4219],[0.9529,41.0182,10.9433],[0.9662,41.0285,0.0],[0.9721,41.0304,0.0],[0.9876,41.0412,1.1207],[1.004,41.0432,0.0],[1.0168,41.0518,0.55],[1.0237,41.0521,2.813],[1.0321,41.0571,2.4273],[1.0443,41.0612,0.8458],[1.0454,41.0632,3.3317],[1.056,41.0649,4.6874],[1.0621,41.0624,0.0],[1.0596,41.0646,0.6335],[1.0632,41.0651,0.0],[1.0626,41.0604,0.0],[1.0651,41.0629,0.0],[1.0651,41.0651,0.0],[1.0676,41.0662,1.4046],[1.0846,41.064,3.6357],[1.1015,41.0704,1.9948],[1.1143,41.0721,1.5131],[1.1188,41.0743,3.5011],[1.1304,41.0749,1.1116],[1.1299,41.0724,0.0],[1.134,41.074,1.7163],[1.144,41.0726,3.392],[1.1443,41.0701,0.0],[1.1482,41.0679,4.5534],[1.1479,41.0654,0.0],[1.1571,41.0646,4.5543],[1.1621,41.059,10.4535],[1.1607,41.0568,0.0],[1.1615,41.0554,0.0],[1.1676,41.0565,4.2765],[1.1676,41.0551,0.0],[1.1724,41.0546,0.0],[1.1749,41.0596,7.3182],[1.1818,41.0638,12.8945],[1.1801,41.0668,4.01],[1.1782,41.0671,0.8523],[1.1785,41.0696,1.7095],[1.1904,41.0874,1.4824],[1.1946,41.0907,0.812],[1.1962,41.0913,0.812],[1.2013,41.0854,0.0],[1.2085,41.0815,0.0],[1.2001,41.0879,0.0],[1.1971,41.0924,1.7644],[1.2143,41.1035,2.9998],[1.216,41.1018,2.1053],[1.2143,41.0996,0.8735],[1.2174,41.1004,0.0],[1.2193,41.1037,0.0],[1.2221,41.1037,0.3911],[1.2246,41.0996,0.1222],[1.2282,41.099,0.0],[1.2371,41.1029,0.0],[1.2371,41.106,0.4826],[1.2413,41.1049,0.0],[1.2424,41.1085,0.0],[1.2485,41.1087,1.328],[1.2474,41.106,1.2778],[1.244,41.1063,1.0093],[1.2432,41.1035,1.0745],[1.2324,41.0996,0.0],[1.2318,41.0965,5.9133],[1.2279,41.096,0.0],[1.224,41.091,0.0],[1.226,41.0887,0.7592],[1.2254,41.0874,0.7592],[1.2201,41.0838,0.0],[1.2215,41.0835,0.0],[1.2276,41.0879,0.0],[1.2374,41.1001,9.2304],[1.2407,41.0993,6.9528],[1.2413,41.101,4.095],[1.2479,41.1032,2.1668],[1.2496,41.1068,2.7862],[1.2524,41.1063,0.0],[1.2549,41.1087,0.0],[1.2563,41.1124,6.6159],[1.2618,41.114,5.4118],[1.266,41.1124,0.9928],[1.2713,41.1129,0.0],[1.2749,41.1157,0.0],[1.2746,41.1193,6.2912],[1.2821,41.1196,0.0],[1.2843,41.1226,6.0755],[1.2871,41.1237,1.137],[1.289,41.1226,1.4402],[1.2965,41.1279,5.1181],[1.3218,41.1301,1.1726],[1.3246,41.1274,9.5487],[1.3365,41.1282,0.0],[1.344,41.1246,0.0],[1.3454,41.1279,1.2859],[1.3485,41.1285,0.0],[1.3499,41.1268,0.0],[1.3579,41.1276,0.0],[1.3629,41.1307,3.6977],[1.3737,41.1338,2.6614],[1.3846,41.1343,6.189],[1.3863,41.1321,10.2324],[1.3901,41.1312,0.0],[1.3949,41.1312,0.0],[1.3987,41.1332,0.0],[1.4018,41.1321,0.2531],[1.4054,41.1354,0.0],[1.4021,41.1374,2.3913],[1.4046,41.1407,4.7731],[1.4104,41.1421,4.4001],[1.4279,41.1515,0.5191],[1.4397,41.156,1.1793],[1.4319,41.1626,16.2549],[1.4245,41.1647,50.585],[1.421,41.1717,58.9177],[1.4223,41.1778,84.9351],[1.4173,41.1865,92.1214],[1.4168,41.1949,136.0235],[1.4108,41.199,183.142],[1.4132,41.2073,252.1993],[1.4174,41.2116,308.731],[1.4099,41.2125,222.5464],[1.4045,41.2101,210.1119],[1.4011,41.2062,190.9456],[1.3961,41.2059,214.2559],[1.3906,41.2209,209.0441],[1.3989,41.2215,243.8593],[1.4054,41.226,262.8769],[1.4061,41.2377,264.2407],[1.4133,41.2412,254.3045],[1.4157,41.2455,282.5896],[1.4215,41.2487,280.0257],[1.4268,41.2482,262.9973],[1.4356,41.2514,232.2728],[1.4519,41.2474,291.3525],[1.456,41.2508,247.2342],[1.4531,41.2561,261.1325],[1.4386,41.2706,366.9186],[1.4393,41.2723,368.9482],[1.4331,41.2829,367.0767],[1.4358,41.2863,357.3023],[1.4133,41.2878,329.0648],[1.3988,41.2922,346.5806],[1.4102,41.2995,417.3702],[1.4154,41.299,440.4907],[1.4195,41.3036,473.5853],[1.424,41.3047,486.5123],[1.4258,41.3085,513.845],[1.4201,41.314,421.9962],[1.4041,41.3211,376.9538],[1.4026,41.325,403.1391],[1.3766,41.3316,367.5623],[1.3642,41.3295,339.0157],[1.3613,41.3251,286.3423],[1.3579,41.324,262.36],[1.3579,41.3225,267.9512],[1.3525,41.319,267.7267],[1.3375,41.3296,325.911],[1.3426,41.3416,348.5084],[1.3498,41.3505,370.3765],[1.3492,41.3608,381.3496],[1.354,41.3671,393.1962],[1.3656,41.361,318.4213],[1.367,41.3651,320.0169],[1.3651,41.3786,349.1099],[1.3614,41.3818,341.5615],[1.3691,41.384,349.6573],[1.3681,41.3859,356.1967],[1.3697,41.3872,375.2405],[1.3819,41.3902,468.7499],[1.3799,41.3954,522.5111],[1.3661,41.3965,392.985],[1.3596,41.399,418.9207],[1.351,41.4054,493.3413],[1.3553,41.4195,660.6679],[1.3519,41.4279,814.8908],[1.341,41.4307,909.6407],[1.3284,41.4271,704.1614],[1.327,41.4281,729.8325],[1.3278,41.4408,840.9913],[1.3213,41.4486,879.4104],[1.3177,41.4425,841.8187],[1.3143,41.4417,834.3519],[1.3114,41.4373,820.3375],[1.3089,41.437,821.4456],[1.306,41.4292,850.1132],[1.3,41.4288,820.3395],[1.2927,41.4259,745.4218],[1.2875,41.4182,694.9959],[1.2834,41.4182,699.5299],[1.2712,41.4082,553.6705],[1.2593,41.4039,528.7628],[1.2612,41.3991,531.5394],[1.256,41.3906,537.5961],[1.2526,41.3879,568.1562],[1.2538,41.3851,671.1221],[1.241,41.3843,604.2651],[1.2387,41.38,776.5802],[1.2402,41.3762,831.549],[1.2324,41.375,620.063],[1.2285,41.3703,702.6537],[1.2255,41.3611,688.9622],[1.2268,41.3532,717.3416],[1.2215,41.3426,645.5256],[1.2117,41.3341,632.3833],[1.1961,41.3281,534.5247],[1.1911,41.3155,468.9962],[1.1841,41.3204,245.3832],[1.1848,41.3193,247.5565],[1.1754,41.3207,265.7716],[1.1719,41.3171,268.6733],[1.1574,41.315,397.8611],[1.1512,41.3112,418.192],[1.1471,41.3117,473.6567],[1.1447,41.3092,463.2162],[1.1458,41.3069,474.8903],[1.1439,41.3026,541.3181],[1.1344,41.2934,813.4689],[1.1252,41.2905,832.9366],[1.1305,41.2854,739.8328],[1.1365,41.2855,687.9138],[1.1378,41.277,571.1228],[1.1402,41.2742,534.5693],[1.1388,41.2714,533.9292],[1.1332,41.27,538.8816],[1.1312,41.2726,616.547],[1.1229,41.2693,369.1654],[1.1093,41.2765,451.581],[1.0986,41.2719,840.099],[1.1015,41.2677,897.5355],[1.0997,41.2663,895.2633],[1.0887,41.2638,912.7794],[1.0534,41.268,1058.9219],[1.0401,41.2752,994.5965],[1.0396,41.2712,1002.1243],[1.0356,41.271,986.1309],[1.0271,41.265,1020.7342],[1.0171,41.2653,989.48],[1.0153,41.2596,993.4776],[1.0063,41.2636,948.907],[1.0044,41.2595,854.9135],[0.9971,41.2594,842.8666],[0.9963,41.2579,830.2864],[1.0011,41.2537,926.2769],[0.9996,41.2504,958.3897],[1.0007,41.2494,958.3897],[0.9928,41.241,717.0199],[0.9888,41.2336,562.5972],[0.981,41.2357,698.1779],[0.9836,41.2315,662.6008],[0.9859,41.2314,640.717],[0.9858,41.2296,663.635],[0.9886,41.2288,622.6329],[0.9883,41.2272,714.8433],[0.9803,41.2263,594.319],[0.973,41.2293,675.3091],[0.9711,41.2272,671.9406],[0.9677,41.2273,688.4489],[0.9615,41.2233,649.8818],[0.9569,41.2236,615.3796],[0.9558,41.2213,632.9578],[0.9525,41.2209,648.6637],[0.9425,41.2223,689.671],[0.9393,41.2212,617.4981],[0.9398,41.2223,707.7049],[0.9346,41.2237,651.9912],[0.9298,41.2192,768.2706],[0.923,41.2168,841.9819],[0.9211,41.2132,871.4471],[0.9212,41.2051,779.0581],[0.9229,41.2031,761.7054],[0.9161,41.1975,650.1699],[0.904,41.1943,674.6566],[0.8786,41.1936,400.7415],[0.8793,41.1906,447.6099],[0.8771,41.1879,522.278],[0.8794,41.1833,581.8165],[0.8909,41.1805,536.5878],[0.9063,41.1799,591.9331],[0.903,41.1751,578.8737],[0.9011,41.1749,582.6088],[0.9018,41.1704,698.2232],[0.9061,41.1652,750.3401],[0.8957,41.1458,698.6464],[0.8908,41.1409,666.9856],[0.8845,41.117,570.3531],[0.8774,41.1106,723.4427],[0.8652,41.1123,605.1832],[0.8637,41.1109,661.3127],[0.8533,41.11,683.9839],[0.8512,41.1129,622.2684],[0.841,41.1161,409.0274],[0.8323,41.1223,308.3431],[0.8269,41.1199,283.2187],[0.831,41.1141,387.1694],[0.8342,41.1154,459.3358],[0.837,41.1135,452.264],[0.8392,41.1057,576.3633],[0.8431,41.0998,781.5432],[0.8504,41.0945,771.1185],[0.8625,41.0927,899.7347],[0.8731,41.0839,816.8962],[0.8709,41.0823,829.1981],[0.8705,41.0785,739.6726],[0.8724,41.0763,687.7089],[0.8713,41.0756,711.2599],[0.8662,41.0785,702.9354],[0.8689,41.0816,773.7939],[0.8693,41.0849,782.5688],[0.8627,41.0862,798.6198],[0.8583,41.0845,754.4572],[0.8568,41.081,762.5326],[0.8518,41.0778,689.7951],[0.8548,41.0752,690.0588],[0.8533,41.0723,666.3677],[0.8562,41.0705,627.8846],[0.8569,41.0633,655.704],[0.855,41.0604,587.6073],[0.8533,41.0608,634.4315],[0.8523,41.0565,579.4526],[0.8432,41.0554,518.5642],[0.8438,41.0534,531.6129],[0.8372,41.0541,545.5654],[0.8358,41.0527,527.3523],[0.8174,41.0622,491.1785],[0.8052,41.0536,607.6786],[0.7963,41.039,547.235],[0.781,41.029,644.4676],[0.7863,41.0248,704.011],[0.7829,41.0217,644.5518],[0.7844,41.0168,658.1754],[0.7789,41.0065,534.5146],[0.7787,40.9999,529.8663],[0.7748,40.9965,539.3035],[0.7769,40.993899999999996,510.2028],[0.7763,40.9901,510.4449],[0.7814,40.9919,506.9849],[0.7927,40.9724,520.7538],[0.7986,40.9685,570.8721],[0.798,40.9664,578.5005],[0.8034,40.9531,294.1769],[0.81,40.9474,164.7666],[0.8223,40.943,79.9263],[0.819,40.9408,102.4441],[0.8295,40.9406,78.3894],[0.8365,40.9374,52.6777],[0.8421,40.9387,41.3366],[0.8579,40.9346,0.0],[0.8571,40.9374,0.0],[0.8626,40.9471,14.5789],[0.8754,40.9512,2.7889],[0.8799,40.9551,0.0],[0.8804,40.9593,4.7656],[0.886,40.9618,0.0],[0.8974,40.9746,4.9707],[0.9035,40.9765,0.0],[0.9074,40.9821,12.1705],[0.9154,40.9888,5.9387],[0.9268,40.989,8.3474],[0.9276,40.9868,0.0],[0.931,40.9882,0.0],[0.9301,40.9904,0.0]]]]}
,"properties": {"GID_3": "ESP.6.4.3_1","GID_0": "ESP","country": "Spain","GID_1": "ESP.6_1","province": "Cataluña","NL_NAME_1": "NA","GID_2": "ESP.6.4_1","county": "Tarragona","NL_NAME_2": "NA","city": "n.a.(242)","VARNAME_3": "NA","NL_NAME_3": "NA","TYPE_3": "Comarca","ENGTYPE_3": "Comarca","CC_3": "NA","HASC_3": "NA","name": "n.a.(242).city","area_km2": 1269.554,"hist_schema_id": "Elevation0-9000","hist_area_km2": {"0": 38.1109,"25": 81.274,"50": 85.8656,"75": 80.4594,"100": 78.206,"125": 75.4084,"150": 70.9067,"175": 63.373,"200": 57.2035,"225": 56.0787,"250": 65.6942,"275": 51.9352,"300": 48.0949,"325": 45.544,"350": 41.7151,"375": 38.4167,"400": 34.4486,"425": 32.3338,"450": 28.4451,"475": 26.6904,"500": 23.5323,"525": 23.9453,"550": 19.8126,"575": 16.6704,"600": 14.4671,"625": 11.0699,"650": 9.726,"675": 7.9844,"700": 6.7226,"725": 5.9091,"750": 4.2688,"775": 3.4884,"800": 3.552,"825": 2.4534,"850": 2.263,"875": 1.5782,"900": 1.9448,"925": 1.9606,"950": 2.3112,"975": 1.9286,"1000": 2.0559,"1025": 1.4184,"1050": 0.2869}}}