{"type":"Feature","properties":{"ISO3166-1-Alpha-3":"ESP","country":"Spain","fill":"#F0F","id":"5805","name":"Asturias"},
"geometry":{"type": "Polygon","coordinates": [[[-4.51383,43.40283,0.0],[-4.73493,43.4171,9.5973],[-4.75499,43.42166,17.4401],[-4.83654,43.44977,0.0],[-4.90762,43.46064,0.0],[-4.93025,43.46951,0.0],[-4.94103,43.47175,0.0],[-4.95254,43.47008,0.0],[-4.96711,43.46088,19.7217],[-4.97517,43.45877,22.0674],[-5.04503,43.47431,0.0],[-5.05704,43.46861,73.4469],[-5.0677,43.48139,0.0],[-5.09166,43.48627,0.0],[-5.17789,43.48937,0.0],[-5.2119,43.49836,0.0],[-5.28401,43.53347,0.0],[-5.29988,43.53767,0.0],[-5.34195,43.54064,0.0],[-5.3568,43.5386,0.0],[-5.36221,43.53339,0.0],[-5.3651,43.52672,96.1684],[-5.37243,43.52021,52.3797],[-5.38264,43.51638,9.9131],[-5.40368,43.51109,0.0],[-5.41393,43.50654,0.3861],[-5.42081,43.51337,150.7403],[-5.40355,43.52542,157.0148],[-5.39074,43.54133,35.6198],[-5.39387,43.55524,0.0],[-5.42422,43.56114,0.0],[-5.6256,43.55496,0.0],[-5.67748,43.56114,0.0],[-5.6892,43.57856,0.0],[-5.69677,43.58283,0.0],[-5.70198,43.56863,4.0417],[-5.70885,43.56863,13.3548],[-5.72741,43.58954,0.0],[-5.78234,43.63703,0.0],[-5.80382,43.6505,0.0],[-5.83633,43.66222,0.0],[-5.8522,43.66295,0.0],[-5.85904,43.65363,77.18],[-5.86351,43.64142,0.0],[-5.87515,43.63679,0.0],[-5.90738,43.63683,0.0],[-5.90534,43.63382,0.0],[-5.90258,43.62649,9.8437],[-5.90062,43.62324,43.2262],[-5.91308,43.61286,10.1253],[-5.90884,43.60493,88.9182],[-5.90217,43.59752,46.2294],[-5.90738,43.58845,39.1935],[-6.02351,43.58845,0.0],[-6.03921,43.58312,0.0],[-6.05419,43.57457,0.0],[-6.06916,43.56969,0.0],[-6.08495,43.57538,0.0],[-6.10041,43.5692,0.0],[-6.17805,43.57538,0.0],[-6.19099,43.57856,64.8538],[-6.22277,43.59589,0.0],[-6.2364,43.59431,0.0],[-6.24389,43.5893,0.0],[-6.24999,43.58405,0.0],[-6.27392,43.57962,0.0],[-6.30004,43.57062,0.0],[-6.31461,43.56863,0.0],[-6.36612,43.56863,0.0],[-6.41763,43.56114,0.0],[-6.43179,43.56342,0.0],[-6.45531,43.57335,0.0],[-6.46911,43.57538,0.0],[-6.46727,43.57087,-0.0738],[-6.46475,43.55968,70.1953],[-6.46296,43.55496,73.7391],[-6.48827,43.55512,0.0],[-6.49966,43.55309,0.0],[-6.51012,43.54747,14.0915],[-6.54662,43.56184,0.0],[-6.59773,43.57522,0.0],[-6.64867,43.57905,0.0],[-6.70372,43.55756,61.1251],[-6.72964,43.55976,19.0228],[-6.77082,43.56863,0.0],[-6.83072,43.56513,45.5728],[-6.84594,43.56863,0.0],[-6.94396,43.56599,30.7118],[-7.00137,43.55667,0.0],[-7.01037,43.53323,21.7812],[-7.02375,43.52582,0.0],[-7.02953,43.51215,35.5225],[-7.0327,43.49547,5.0576],[-7.03832,43.47919,130.9682],[-7.04385,43.47919,39.7736],[-7.04459,43.47919,39.7736],[-7.04692,43.48368,0.0],[-7.04889,43.47789,1.1822],[-7.05052,43.47634,0.1623],[-7.08114,43.45606,107.5007],[-7.09501,43.44006,32.2769],[-7.10512,43.43306,12.6927],[-7.11274,43.42934,76.6548],[-7.11995,43.42869,71.3819],[-7.12744,43.42882,149.3611],[-7.13762,43.43146,77.5377],[-7.14855,43.43146,101.5854],[-7.1609,43.42913,339.129],[-7.16687,43.4234,224.8642],[-7.16881,43.41678,298.609],[-7.17162,43.39611,208.3388],[-7.17013,43.39084,299.1769],[-7.16695,43.38622,274.1428],[-7.15359,43.38138,349.3333],[-7.13661,43.38211,429.9988],[-7.13005,43.37862,519.4983],[-7.12605,43.3727,462.605],[-7.12527,43.36521,342.9305],[-7.12548,43.3572,178.6664],[-7.12481,43.34821,305.9744],[-7.1216,43.33679,540.4937],[-7.11535,43.32655,580.8381],[-7.10837,43.31904,758.4752],[-7.09488,43.30867,657.9626],[-7.08649,43.30702,836.3029],[-7.07835,43.30309,887.5161],[-7.07127,43.29772,826.5553],[-7.06279,43.25488,802.2705],[-7.0568,43.24465,833.7933],[-7.05096,43.23731,769.2527],[-7.04341,43.23168,719.233],[-7.02135,43.21876,772.5253],[-7.0136,43.21736,753.5235],[-7.00696,43.217,664.4369],[-6.9959,43.20605,760.186],[-6.97996,43.2001,388.4197],[-6.97184,43.19842,500.6804],[-6.96556,43.19501,431.7918],[-6.96518,43.18961,593.9352],[-6.96585,43.18326,659.5884],[-6.97267,43.16886,800.1118],[-6.97378,43.15923,898.3347],[-6.97091,43.15173,920.0781],[-6.96569,43.1446,1055.6746],[-6.95929,43.13884,1141.8613],[-6.95153,43.13458,1103.6974],[-6.94342,43.13261,1001.8757],[-6.92665,43.13804,867.4706],[-6.90792,43.14641,739.2173],[-6.89846,43.14912,505.8721],[-6.89118,43.15318,638.1818],[-6.88627,43.1584,639.5613],[-6.88425,43.16468,698.3611],[-6.87996,43.1706,570.354],[-6.87381,43.17463,351.8529],[-6.86629,43.1753,218.196],[-6.85738,43.16925,515.8688],[-6.84759,43.15923,590.9366],[-6.83216,43.1399,952.0494],[-6.8296,43.12887,1105.3989],[-6.83154,43.12016,1207.1284],[-6.86898,43.0953,927.08],[-6.87722,43.09179,767.9463],[-6.91324,43.08057,623.1728],[-6.9226,43.08011,687.8464],[-6.93272,43.08099,474.628],[-6.93939,43.07959,242.3782],[-6.9452,43.07672,304.9928],[-6.94885,43.07207,308.9126],[-6.95218,43.06621,308.102],[-6.9552,43.05947,439.3836],[-6.95825,43.0498,393.4459],[-6.96345,43.04259,279.6679],[-6.97122,43.03861,483.5374],[-6.97957,43.03662,643.4626],[-6.98613,43.03022,838.6525],[-6.98846,43.01934,872.9342],[-6.98331,43.00797,781.4287],[-6.97585,42.99831,644.1692],[-6.96639,42.99428,377.3069],[-6.96197,42.99567,278.3974],[-6.95768,42.99794,290.7803],[-6.95598,42.99988,397.519],[-6.95489,43.00159,392.6172],[-6.95373,43.00492,525.2072],[-6.95358,43.02378,548.2638],[-6.95133,43.02513,604.2234],[-6.9452,43.02461,761.0959],[-6.92448,43.00239,906.9698],[-6.922,43.00019,885.6852],[-6.91371,42.99474,945.3674],[-6.90585,42.99208,959.7732],[-6.8964,42.99071,1010.4717],[-6.87738,42.99128,1028.2227],[-6.86885,42.98867,905.22],[-6.84565,42.97141,1081.3438],[-6.83689,42.9627,1131.2285],[-6.83366,42.95237,1153.5908],[-6.82829,42.9148,1322.7512],[-6.79532,42.91087,1325.4241],[-6.77723,42.9041,1398.9692],[-6.77087,42.89407,1589.0249],[-6.76348,42.89283,1535.0754],[-6.75237,42.89743,1484.1655],[-6.74436,42.90309,1497.8479],[-6.73762,42.90953,1613.0149],[-6.72979,42.91526,1622.8868],[-6.71943,42.92022,1594.2942],[-6.70111,42.92451,1455.7112],[-6.68251,42.92689,1582.2468],[-6.63574,42.9273,1704.0498],[-6.62298,42.92544,1388.847],[-6.61473,42.92327,1472.6212],[-6.60845,42.9196,1607.6051],[-6.5621,42.91666,1581.7762],[-6.55122,42.91785,1586.2418],[-6.5158,42.9287,1420.9604],[-6.50156,42.92971,1395.5718],[-6.44903,42.95107,1255.7107],[-6.44485,42.95771,1298.1543],[-6.44407,42.96399,1455.3109],[-6.45035,42.96813,1511.0767],[-6.4682,42.97314,1498.3848],[-6.47632,42.97686,1582.0527],[-6.48123,42.98239,1481.8811],[-6.48027,42.98787,1730.0096],[-6.47557,42.99185,1727.1433],[-6.44694,42.99278,1439.9377],[-6.42614,42.99758,1560.3083],[-6.4187,43.00053,1562.0031],[-6.41475,43.00487,1657.3033],[-6.41475,43.01029,1727.9388],[-6.41366,43.0165,1763.093],[-6.40872,43.02215,1733.4534],[-6.40188,43.02864,1426.5999],[-6.39873,43.03518,1758.9302],[-6.39276,43.04221,1622.3701],[-6.36485,43.05143,1769.724],[-6.34728,43.0481,1862.9479],[-6.33793,43.04345,1970.0806],[-6.32981,43.03786,1736.908],[-6.31038,43.0336,1860.2366],[-6.29728,43.03396,1805.1786],[-6.25359,43.01799,1663.3652],[-6.23445,43.01435,1477.6936],[-6.22628,43.01544,1439.9758],[-6.22168,43.02009,1514.4279],[-6.21897,43.0336,1635.5441],[-6.21279,43.03887,1766.8267],[-6.19975,43.04104,1764.7897],[-6.17546,43.03784,1751.7461],[-6.14807,43.02957,1901.9148],[-6.13551,43.02712,1855.27],[-6.12202,43.02792,1959.3678],[-6.10239,43.03479,1906.3657],[-6.09575,43.0419,1811.038],[-6.09272,43.04952,1759.6919],[-6.09128,43.05649,1729.1301],[-6.08833,43.0621,1933.5618],[-6.07911,43.0651,1697.0984],[-6.02999,43.05789,1784.1121],[-6.01676,43.05732,1520.8232],[-5.98779,43.06233,1701.8173],[-5.97637,43.05768,1895.3779],[-5.97126,43.0514,1944.7036],[-5.96761,43.03706,2143.1929],[-5.96459,43.03004,1914.5977],[-5.96041,43.02339,1901.2544],[-5.95467,43.01758,2283.2979],[-5.93092,43.00652,1794.0854],[-5.91865,42.9988,1720.1863],[-5.90485,42.9927,1612.1821],[-5.89372,42.98999,1690.3933],[-5.88901,42.98565,1697.1038],[-5.86294,42.97795,1759.8224],[-5.85486,42.97428,1822.2175],[-5.84483,42.97169,1421.7334],[-5.80483,42.97061,1580.3842],[-5.78928,42.97236,1727.0503],[-5.77869,42.97466,1531.2041],[-5.76993,42.98161,1445.8818],[-5.76631,42.98766,1428.5681],[-5.76228,42.99316,1344.2523],[-5.7598,42.99867,1390.5217],[-5.75915,43.00146,1379.5377],[-5.75817,43.00425,1423.7225],[-5.75533,43.01009,1450.2126],[-5.7506,43.01613,1746.3984],[-5.74386,43.02195,1960.2144],[-5.73866,43.0282,1789.4233],[-5.73517,43.03448,1861.8057],[-5.72998,43.04058,1659.6643],[-5.71954,43.04512,1691.8025],[-5.70518,43.04879,1583.051],[-5.67993,43.04965,1801.4115],[-5.66515,43.04828,1976.1262],[-5.63709,43.03799,1839.9142],[-5.61544,43.03458,1689.0162],[-5.60082,43.03469,1821.6003],[-5.57898,43.03117,1817.1876],[-5.57077,43.02652,1783.708],[-5.5617,43.02296,1780.979],[-5.55157,43.02102,1890.6643],[-5.541,43.02179,1803.9774],[-5.51731,43.02905,1855.4011],[-5.49875,43.02786,1785.7742],[-5.49077,43.02864,1787.3029],[-5.48584,43.03355,1634.2438],[-5.48139,43.03991,1573.761],[-5.47863,43.04624,1846.6116],[-5.47338,43.05112,1842.4961],[-5.41876,43.05187,1869.4684],[-5.40806,43.05357,1801.1534],[-5.3985,43.05649,1711.9539],[-5.3899,43.06378,1528.4662],[-5.38284,43.08533,1770.7222],[-5.37401,43.08967,1811.7756],[-5.36104,43.09153,1639.7745],[-5.30747,43.08548,1661.0273],[-5.212,43.09396,1634.1764],[-5.15955,43.11318,1705.6964],[-5.1504,43.11416,1799.5515],[-5.14002,43.10959,1782.8721],[-5.12984,43.10719,1882.6808],[-5.11813,43.10858,1595.5303],[-5.10284,43.11954,1390.2421],[-5.09547,43.12832,1136.0472],[-5.08819,43.14419,806.9357],[-5.0862,43.15145,593.3344],[-5.08245,43.15804,503.8601],[-5.07211,43.17246,629.5778],[-5.06289,43.17876,1152.6609],[-5.04589,43.18527,1491.2998],[-5.00829,43.19292,1017.0925],[-4.97716,43.20558,2084.157],[-4.96147,43.21623,2197.4509],[-4.90848,43.23731,1474.61],[-4.89838,43.23855,946.8025],[-4.88858,43.23752,469.5925],[-4.879,43.23516,1118.2527],[-4.85941,43.22341,1891.4033],[-4.83187,43.18868,2233.9373],[-4.81973,43.1876,2458.4839],[-4.79001,43.19111,1810.6682],[-4.7804,43.19362,1956.2275],[-4.77092,43.19493,1573.3821],[-4.75185,43.19194,1615.9537],[-4.74268,43.19214,1814.0485],[-4.73454,43.1969,2224.1912],[-4.72795,43.20775,1990.6003],[-4.72531,43.21643,1805.024],[-4.72464,43.22449,1529.5985],[-4.72325,43.23139,1404.8656],[-4.72113,43.23824,1310.625],[-4.72363,43.25199,1176.0931],[-4.72154,43.2587,1344.0785],[-4.71568,43.2647,1137.5654],[-4.70361,43.2695,1211.4724],[-4.69312,43.27188,925.0728],[-4.68278,43.2725,893.3472],[-4.67364,43.27111,870.4841],[-4.66395,43.27074,672.1767],[-4.64317,43.27219,503.4317],[-4.63369,43.27571,92.1061],[-4.6287,43.27855,210.6748],[-4.62429,43.28413,306.7258],[-4.61741,43.28986,87.6286],[-4.60222,43.29684,287.8848],[-4.59261,43.29816,639.0973],[-4.58189,43.29736,557.6384],[-4.56354,43.29421,683.2956],[-4.5568,43.29056,778.459],[-4.55116,43.27917,938.6505],[-4.54517,43.27581,924.3749],[-4.53716,43.2772,671.8401],[-4.52982,43.2817,520.8533],[-4.52354,43.2879,546.2556],[-4.52036,43.29622,416.3693],[-4.51871,43.30599,286.2029],[-4.52186,43.31997,93.568],[-4.53088,43.33823,198.2486],[-4.53514,43.34226,105.7144],[-4.53731,43.34831,22.5029],[-4.53445,43.35461,19.4985],[-4.52197,43.37063,20.1535],[-4.51326,43.38435,0.0],[-4.51437,43.3965,0.0],[-4.51383,43.40283,0.0]]]}}