{"type": "Feature","bbox": [-7.1821,42.8828,-4.5105,43.6615],"geometry": {"type": "MultiPolygon","coordinates": [[[[-6.5567,42.9138,1774.5767],[-6.5411,42.9125,1901.1853],[-6.5382,42.9196,1708.7678],[-6.5344,42.9221,1566.6185],[-6.5226,42.9235,1415.0044],[-6.5104,42.9287,1499.5906],[-6.4963,42.9215,1722.7349],[-6.4896,42.9202,1899.3064],[-6.486,42.929,1623.1045],[-6.4771,42.9339,1699.1093],[-6.4511,42.9355,1676.311],[-6.4422,42.9393,1605.489],[-6.433,42.9397,1705.8169],[-6.4415,42.9473,1587.8149],[-6.4335,42.9641,1447.8864],[-6.4422,42.9668,1467.6086],[-6.4516,42.9659,1562.9014],[-6.4622,42.9676,1688.9226],[-6.4684,42.9661,1718.4214],[-6.4729,42.9677,1766.4731],[-6.4745,42.9706,1609.7014],[-6.4723,42.9773,1559.1703],[-6.4781,42.9801,1512.5413],[-6.4788,42.9897,1697.191],[-6.4772,42.9919,1740.1925],[-6.4707,42.9916,1720.6899],[-6.4657,42.9863,1686.6038],[-6.4589,42.9836,1466.3584],[-6.4463,42.9821,1703.2599],[-6.437,42.993,1963.3763],[-6.4275,42.9876,1878.9846],[-6.4249,42.9876,1866.2771],[-6.4074,42.9995,1711.9341],[-6.4103,43.0016,1725.7067],[-6.412,43.0086,1730.5327],[-6.411,43.0169,1842.0996],[-6.4078,43.0185,1831.6232],[-6.4022,43.0162,1704.833],[-6.3942,43.0166,1654.8347],[-6.3907,43.0258,1650.5979],[-6.3916,43.0312,1783.3087],[-6.3949,43.0326,1784.974],[-6.3969,43.0383,1842.8726],[-6.39,43.0405,1799.7169],[-6.3734,43.0411,1866.5367],[-6.3739,43.0462,1902.7224],[-6.3644,43.0502,1793.7354],[-6.3619,43.0541,1786.9863],[-6.3633,43.0573,1860.1624],[-6.359,43.0595,1850.8882],[-6.3578,43.0566,1854.8677],[-6.3507999999999996,43.0531,1888.0956],[-6.348,43.0497,1918.8783],[-6.3406,43.0491,1943.1399],[-6.3381,43.0459,2046.6868],[-6.333,43.0465,2001.9889],[-6.3296,43.0425,1849.9021],[-6.3264,43.0313,2010.1213],[-6.3135,43.0313,2012.9891],[-6.3112,43.0288,1990.4825],[-6.295,43.0269,1923.6527],[-6.2902,43.0344,1839.4169],[-6.2851,43.0363,1871.8743],[-6.2735,43.0262,1832.6404],[-6.2697,43.025,1806.7446],[-6.2689,43.0214,1744.1157],[-6.2647,43.0171,1736.5399],[-6.2426,43.0135,1549.3529],[-6.2383,43.0143,1508.6549],[-6.2267,43.0089,1387.9392],[-6.2138,43.0466,1926.7186],[-6.1942,43.0428,1844.5786],[-6.186,43.0495,1963.1649],[-6.1783,43.0478,2000.8655],[-6.171,43.043,1999.2284],[-6.1673,43.0424,1853.0619],[-6.1625,43.033,1945.9985],[-6.1592,43.0355,1870.5579],[-6.1483,43.0332,1980.021],[-6.1365,43.021,1998.4795],[-6.1203,43.0242,2120.5327],[-6.1124,43.0294,2006.2687],[-6.106,43.0293,1946.5189],[-6.1013,43.0319,1970.04],[-6.0968,43.0306,2041.1427],[-6.0953,43.0339,1910.8176],[-6.0897,43.0381,1875.2756],[-6.0903,43.0439,1912.6062],[-6.0949,43.0488,1783.5062],[-6.0902,43.0598,1770.5066],[-6.0917,43.0669,1997.821],[-6.0848,43.0691,1808.7002],[-6.0818,43.0757,1901.0934],[-6.0672,43.0657,1800.4675],[-6.0622,43.0647,1828.8573],[-6.0521,43.068,1766.1683],[-6.0498,43.0656,1702.7107],[-6.0375,43.0632,1933.0271],[-6.0201,43.0548,1736.8303],[-5.9963,43.0597,1740.4587],[-5.9891,43.0678,1912.3051],[-5.9804,43.0642,2006.4895],[-5.974,43.0649,2006.4441],[-5.9713,43.0572,2038.5487],[-5.9698,43.0564,2025.6885],[-5.967,43.0583,2082.292],[-5.9706,43.0506,1944.7036],[-5.9677,43.0449,2076.0017],[-5.9701,43.0413,2178.4126],[-5.961,43.0291,2239.4956],[-5.9566,43.0186,2314.4824],[-5.9433,43.0129,1961.2814],[-5.9336,43.0108,1965.5458],[-5.9311,43.0059,1794.0854],[-5.9253,43.006,1793.8431],[-5.9251,43.0039,1798.1345],[-5.9195,43.0028,1686.1031],[-5.9129,42.9962,1696.7831],[-5.9145,42.9927,1817.2891],[-5.9065,42.99,1669.652],[-5.8871,42.994,1840.6488],[-5.8915,42.9894,1701.5029],[-5.8919,42.985,1790.0969],[-5.889,42.979,1807.0286],[-5.8638,42.9813,1807.0916],[-5.8635,42.9789,1774.552],[-5.8502,42.9674,1604.1171],[-5.843,42.9642,1818.7606],[-5.8394,42.9662,1861.4104],[-5.8242,42.9681,1751.3691],[-5.807,42.965,1801.8075],[-5.8039,42.9626,1850.3689],[-5.8,42.9654,1822.0439],[-5.7905,42.9679,1830.6454],[-5.7799,42.967,1698.2112],[-5.7655,42.9692,1709.2509],[-5.7628,42.9711,1774.8195],[-5.7613,42.9738,1776.498],[-5.7664,42.986,1470.3107],[-5.7593,42.9927,1385.7223],[-5.7587,42.9992,1401.4795],[-5.7509,43.0055,1690.9851],[-5.7482,43.0172,1876.259],[-5.7438,43.0207,1960.2144],[-5.74,43.0206,1999.673],[-5.7356,43.0232,1930.8021],[-5.7341,43.0341,1861.8057],[-5.7295,43.0374,1727.4478],[-5.7283,43.0425,1735.7783],[-5.721,43.0429,1702.7705],[-5.7165,43.0462,1748.8353],[-5.7008,43.0518,1733.1042],[-5.6932,43.0564,1860.5289],[-5.6882,43.0568,1993.626],[-5.6735,43.052,1996.4403],[-5.6717,43.0529,1984.0682],[-5.6589,43.0456,2067.9214],[-5.6499,43.0447,2083.417],[-5.643,43.0378,2016.5704],[-5.6386,43.0385,1906.9648],[-5.6366,43.0353,1737.1819],[-5.6274,43.0342,1646.5306],[-5.613,43.0354,1728.2571],[-5.609,43.034,1725.5845],[-5.6037,43.036,1825.8572],[-5.5951,43.0334,1830.5878],[-5.5745,43.0322,1891.1316],[-5.57,43.0227,1872.8256],[-5.5579,43.0225,1800.0874],[-5.5561,43.0205,1880.0491],[-5.5403,43.0183,1890.05],[-5.5301,43.0226,1846.2391],[-5.5285,43.0258,1859.3499],[-5.5059,43.0286,1987.2336],[-5.4936,43.0213,2056.5569],[-5.4902,43.0305,1711.8264],[-5.4874,43.0315,1699.9705],[-5.4809,43.0421,1683.9225],[-5.4806,43.0535,1993.4738],[-5.4784,43.0549,1979.6658],[-5.4755,43.0555,2011.691],[-5.4667,43.0505,1951.738],[-5.4481,43.0554,1927.6427],[-5.4338,43.0527,1890.7465],[-5.4168,43.0521,1871.0316],[-5.4107,43.0491,1877.0052],[-5.4058,43.0499,1936.876],[-5.4003,43.0478,1907.0613],[-5.3949,43.0476,1942.6921],[-5.3903,43.0493,2021.187],[-5.383,43.0872,1878.7844],[-5.3777,43.0883,1804.5878],[-5.369,43.0945,1781.8557],[-5.3447,43.0942,1861.6667],[-5.3389,43.0915,1953.557],[-5.3413,43.0837,1972.217],[-5.3366,43.0819,1933.5173],[-5.3204,43.0793,1792.7302],[-5.3171,43.0827,1826.9421],[-5.3114,43.0841,1847.8242],[-5.2969,43.0792,1749.3276],[-5.282,43.0774,1783.4185],[-5.2781,43.0833,1729.2128],[-5.2684,43.0875,1832.4281],[-5.2402,43.0885,1828.1948],[-5.2287,43.0842,1710.8512],[-5.2259,43.0855,1627.8309],[-5.2201,43.0836,1507.9503],[-5.2096,43.0868,1570.2983],[-5.2067,43.0923,1782.3562],[-5.2011,43.0902,1691.5403],[-5.1989,43.0927,1638.2379],[-5.1911,43.0953,1608.7444],[-5.1885,43.0997,1583.1165],[-5.1753,43.1,1568.2758],[-5.1678,43.1024,1586.7155],[-5.163,43.1092,1799.4088],[-5.1599,43.111,1787.8003],[-5.1575,43.1099,1773.053],[-5.1534,43.1109,1770.0658],[-5.1477,43.1151,1934.8411],[-5.1406,43.1029,1994.8942],[-5.1204,43.1006,1673.1112],[-5.1016,43.1018,1818.1005],[-5.0956,43.1077,1652.1422],[-5.0992,43.1158,1605.7739],[-5.091,43.1295,984.4437],[-5.0903,43.134,862.5679],[-5.0948,43.143,637.2378],[-5.0856,43.1482,803.8873],[-5.0874,43.1531,569.8336],[-5.0828,43.1582,503.8601],[-5.0784,43.1604,453.9778],[-5.0762,43.1726,441.4689],[-5.0781,43.1752,424.717],[-5.0758,43.1815,403.9364],[-5.0543,43.1795,1498.7394],[-5.0532,43.1827,1559.62],[-5.0408,43.1846,1526.4924],[-5.0307,43.1836,1776.0082],[-5.0208,43.1851,1816.7268],[-5.0174,43.1819,1496.0309],[-5.0014,43.1763,1460.3511],[-4.9968,43.1731,1246.1914],[-4.9965,43.1854,1090.134],[-4.9789,43.2005,2174.853],[-4.9702,43.2022,2302.811],[-4.971,43.2044,2281.3096],[-4.9638,43.2124,2289.2271],[-4.9519,43.2144,2204.5647],[-4.9519,43.2193,2217.0044],[-4.9422,43.2249,2037.3083],[-4.9322,43.2249,1854.7711],[-4.9194,43.2275,1831.8264],[-4.9125,43.2368,1380.6083],[-4.9074,43.2379,1474.61],[-4.8935,43.2384,589.6764],[-4.882,43.232,849.3167],[-4.8735,43.2296,1597.5574],[-4.8672,43.2246,1931.1948],[-4.8601,43.2184,2132.3545],[-4.8595,43.2155,2145.0388],[-4.8625,43.2122,2195.3101],[-4.8601,43.2084,2258.1587],[-4.8616,43.2056,2064.8826],[-4.8568,43.2041,2323.2832],[-4.8527,43.1963,2509.0935],[-4.8391,43.1897,2437.6863],[-4.8409,43.1807,2503.0356],[-4.8308,43.1786,2248.3076],[-4.819,43.1789,2499.8394],[-4.8174,43.184,2497.7153],[-4.8111,43.1813,2349.5723],[-4.8054,43.1821,2198.498],[-4.7895,43.1855,2076.2195],[-4.7778,43.192,1924.1672],[-4.7533,43.1846,1837.2605],[-4.7457,43.1841,2303.5203],[-4.7383,43.1863,2124.5869],[-4.7337,43.1904,2294.2815],[-4.7334,43.1946,2381.5898],[-4.7368,43.1995,2143.105],[-4.736,43.2089,2110.103],[-4.7282,43.2167,1869.0989],[-4.7319,43.2209,1754.3435],[-4.7298,43.224,1617.2875],[-4.7216,43.2295,1503.178],[-4.7207,43.2392,1321.0955],[-4.7285,43.2479,1297.2074],[-4.7309,43.2573,1397.5874],[-4.7256,43.2563,1331.0515],[-4.7232,43.2582,1344.0785],[-4.7115,43.2609,1214.2627],[-4.706,43.2668,1372.4631],[-4.7048,43.2653,1402.1296],[-4.6967,43.2658,1395.5317],[-4.6933,43.2639,1398.1309],[-4.6898,43.2664,1463.559],[-4.6861,43.2653,1491.161],[-4.6829,43.2676,1455.739],[-4.6776,43.268,1332.6074],[-4.6693,43.2652,1315.8195],[-4.6591,43.2645,1180.7333],[-4.6537,43.2658,1113.1469],[-4.6502,43.2688,904.777],[-4.6318,43.2676,129.7795],[-4.6348,43.2687,103.9593],[-4.6364,43.2717,102.408],[-4.636,43.2764,86.6364],[-4.6311,43.2777,80.5213],[-4.6267,43.2816,106.9646],[-4.6238,43.2883,86.9458],[-4.6204,43.2879,93.7886],[-4.6184,43.2905,85.9631],[-4.6075,43.2952,90.41],[-4.6065,43.3005,125.22],[-4.5983,43.2985,622.77],[-4.5909,43.2932,778.7149],[-4.5817,43.2915,797.6772],[-4.5802,43.2896,767.6526],[-4.5732,43.2894,786.6906],[-4.5694,43.2918,782.3678],[-4.5552,43.2881,849.1143],[-4.5508,43.2846,878.2581],[-4.5527,43.2719,1111.1666],[-4.5477,43.2686,1053.4244],[-4.5359,43.2702,864.0292],[-4.5326,43.2753,703.4502],[-4.5234,43.2781,643.6295],[-4.5185,43.294,471.9997],[-4.519,43.3099,230.1161],[-4.527,43.3276,200.9059],[-4.5223,43.3357,182.8563],[-4.5229,43.3381,262.1036],[-4.5394,43.3439,43.5473],[-4.5367,43.3443,31.2623],[-4.5374,43.3468,20.1017],[-4.5342,43.3512,66.6745],[-4.5343,43.3534,7.5089],[-4.5387,43.3554,37.1149],[-4.5351,43.3585,7.5873],[-4.5307,43.3587,34.9741],[-4.5353,43.3647,5.7684],[-4.5344,43.3683,23.0469],[-4.5208,43.3661,1.72],[-4.5229,43.3686,1.235],[-4.5213,43.3716,1.8061],[-4.5105,43.3806,0.0],[-4.513,43.3896,0.0],[-4.5122,43.3932,4.1601],[-4.5235,43.3976,0.0],[-4.5301,43.3979,0.0],[-4.5346,43.4004,26.4681],[-4.5471,43.3999,0.0],[-4.5501,43.3968,10.6877],[-4.5565,43.3985,1.0419],[-4.5576,43.3976,0.0],[-4.5568,43.3937,71.4975],[-4.5596,43.3929,9.4549],[-4.5615,43.394,0.0],[-4.5682,43.3932,0.0],[-4.5701,43.3951,0.0],[-4.5743,43.3943,0.0],[-4.5812,43.3996,0.0],[-4.5907,43.3974,0.0],[-4.6015,43.3971,0.0],[-4.6154,43.3976,0.0],[-4.6187,43.3993,0.0],[-4.6243,43.3979,7.9729],[-4.6412,43.4032,0.0],[-4.6538,43.401,11.0287],[-4.6632,43.4046,6.0607],[-4.6643,43.4065,7.9606],[-4.6712,43.4082,5.5376],[-4.6829,43.4096,0.0],[-4.6918,43.4082,10.0241],[-4.6957,43.4093,5.6013],[-4.699,43.4132,0.0],[-4.7046,43.4124,0.0],[-4.7063,43.4107,0.0],[-4.7096,43.4129,0.0],[-4.7129,43.4118,21.1088],[-4.7126,43.4154,0.0],[-4.7215,43.4165,10.9667],[-4.7249,43.4193,0.0],[-4.7407,43.4179,0.0],[-4.7454,43.4196,0.0],[-4.7462,43.4224,0.0],[-4.7501,43.4218,0.9753],[-4.7507,43.4235,1.0346],[-4.7568,43.4257,0.0],[-4.7638,43.426,1.2301],[-4.7654,43.429,0.0],[-4.7707,43.4307,0.0],[-4.7868,43.4321,0.0],[-4.7888,43.4329,0.0],[-4.7874,43.4349,4.6813],[-4.7882,43.436,0.0],[-4.791,43.4354,10.6406],[-4.7929,43.4326,0.0],[-4.7962,43.4346,0.0],[-4.7993,43.4332,0.0],[-4.8068,43.4338,0.0],[-4.8099,43.4351,4.0222],[-4.8093,43.4388,0.0],[-4.814,43.4399,3.0653],[-4.8235,43.4385,3.8527],[-4.824,43.4368,3.4421],[-4.8262,43.4365,2.5626],[-4.8249,43.4379,0.0],[-4.8257,43.439,0.0],[-4.8349,43.441,2.0627],[-4.8393,43.4401,14.8992],[-4.839,43.4465,3.2452],[-4.8487,43.4457,0.0],[-4.8504,43.4449,2.4727],[-4.8493,43.4432,0.0],[-4.8521,43.4421,0.0],[-4.8546,43.4424,1.7371],[-4.8549,43.4463,3.3445],[-4.874,43.4421,0.0],[-4.8829,43.4485,0.0],[-4.8963,43.4496,0.0],[-4.8968,43.4518,6.3763],[-4.904,43.4524,0.0],[-4.904,43.454,0.0],[-4.9118,43.4538,0.0],[-4.916,43.4574,0.0],[-4.9238,43.4579,4.6869],[-4.9268,43.4599,2.4531],[-4.9263,43.4626,0.0],[-4.9299,43.4626,0.0],[-4.9351,43.4593,8.5127],[-4.936,43.461,0.0],[-4.9393,43.4593,3.6278],[-4.9457,43.4615,0.0],[-4.9549,43.4607,0.0],[-4.9729,43.4624,0.0],[-4.9763,43.4624,0.0],[-4.9801,43.459,2.2115],[-4.9843,43.4615,1.5563],[-4.9868,43.4604,10.047],[-4.9882,43.4618,0.6858],[-4.9915,43.4593,4.5782],[-5.0124,43.4604,10.5584],[-5.0135,43.4588,10.5584],[-5.0218,43.4618,16.9785],[-5.036,43.4607,9.8057],[-5.0515,43.4632,38.8766],[-5.0543,43.4646,1.6027],[-5.0563,43.4693,0.0],[-5.0643,43.469,0.0],[-5.066,43.4654,6.4229],[-5.0735,43.466,2.9168],[-5.0757,43.4671,8.0722],[-5.0746,43.4704,0.0],[-5.0854,43.4762,0.0],[-5.0949,43.4774,0.0],[-5.1029,43.4749,21.3908],[-5.1157,43.4768,48.6322],[-5.1187,43.4829,7.5714],[-5.1226,43.4849,1.7621],[-5.1293,43.484,0.7685],[-5.1351,43.4799,4.5242],[-5.1493,43.4774,11.5788],[-5.1529,43.479,0.0],[-5.1599,43.4787,13.1354],[-5.1649,43.4765,59.9067],[-5.1699,43.4765,23.042],[-5.1712,43.4746,22.2695],[-5.1788,43.4743,18.479],[-5.1815,43.4762,9.1926],[-5.1854,43.4754,45.8039],[-5.1932,43.4779,9.868],[-5.1957,43.4751,15.8027],[-5.2032,43.4768,0.0],[-5.2076,43.474,0.0],[-5.2151,43.4735,5.2463],[-5.2254,43.4801,1.0781],[-5.2251,43.4815,1.652],[-5.2229,43.4815,0.0],[-5.2238,43.4843,5.5186],[-5.2296,43.486,3.4806],[-5.2329,43.4901,6.2025],[-5.2387,43.4915,22.1778],[-5.2501,43.5013,0.0],[-5.2557,43.5015,0.0],[-5.2624,43.4993,10.7343],[-5.2629,43.5026,0.0],[-5.2701,43.5082,0.0],[-5.2668,43.5118,5.313],[-5.2679,43.5149,11.0538],[-5.2651,43.5176,16.7962],[-5.2721,43.5201,24.7708],[-5.2793,43.5262,3.4448],[-5.2854,43.5276,23.1942],[-5.2876,43.5304,24.8115],[-5.2921,43.531,34.5134],[-5.2949,43.5351,0.0],[-5.2988,43.5357,0.0],[-5.3068,43.5326,27.8221],[-5.3124,43.5337,12.5385],[-5.3212,43.5326,26.6372],[-5.3268,43.5343,0.0],[-5.3362,43.5321,0.0],[-5.3474,43.5343,0.0],[-5.354,43.5304,58.4077],[-5.3649,43.5329,7.0562],[-5.3682,43.5374,0.0],[-5.3729,43.5399,8.9235],[-5.3749,43.5337,14.0357],[-5.3854,43.5326,4.237],[-5.3868,43.526,3.9625],[-5.3813,43.5271,1.7535],[-5.379,43.5243,0.3458],[-5.3821,43.5215,6.7486],[-5.3835,43.5218,6.7486],[-5.3835,43.5238,0.0],[-5.3912,43.5224,0.0],[-5.3899,43.5207,0.0],[-5.3926,43.5193,0.0],[-5.3918,43.5171,0.0],[-5.3932,43.5135,0.7748],[-5.4157,43.509,1.7581],[-5.414,43.511,14.083],[-5.4068,43.5115,0.0],[-5.4054,43.5137,0.0],[-5.3954,43.5151,0.0],[-5.3946,43.5168,0.0],[-5.3968,43.5182,0.0],[-5.3993,43.5157,0.0],[-5.3996,43.5204,0.0],[-5.3879,43.526,3.9625],[-5.3865,43.5285,10.3444],[-5.3868,43.531,0.0],[-5.389,43.5318,25.1984],[-5.3887,43.5357,42.2339],[-5.386,43.5374,0.0],[-5.3879,43.5379,0.0],[-5.3876,43.5401,0.0],[-5.3987,43.5443,9.152],[-5.396,43.5474,0.0],[-5.396,43.5501,0.0],[-5.4093,43.5543,3.8622],[-5.4151,43.5546,0.0],[-5.4304,43.5504,49.2007],[-5.4385,43.5524,0.0],[-5.4493,43.5507,3.8874],[-5.4743,43.551,17.175],[-5.4904,43.5462,21.1182],[-5.4943,43.5438,0.0],[-5.4985,43.5496,0.0],[-5.5046,43.5504,32.1842],[-5.5096,43.5485,61.7791],[-5.516,43.5521,0.0],[-5.5251,43.5499,21.1128],[-5.5279,43.5451,23.4344],[-5.5471,43.5504,52.9729],[-5.5626,43.5496,18.3821],[-5.569,43.5515,0.0],[-5.579,43.5488,8.3069],[-5.5865,43.5496,12.1784],[-5.589,43.5476,2.4357],[-5.5938,43.5488,0.0],[-5.5976,43.5476,16.4738],[-5.6004,43.5493,5.5917],[-5.6093,43.5499,29.4496],[-5.6132,43.5568,0.0],[-5.6199,43.5579,0.0],[-5.6238,43.5518,23.5777],[-5.6279,43.5504,68.4091],[-5.639,43.5524,0.0],[-5.6393,43.5488,0.0],[-5.6429,43.5496,0.0],[-5.644,43.5465,0.0],[-5.6479,43.5454,0.0],[-5.6451,43.5426,7.3688],[-5.6454,43.5401,8.5816],[-5.6579,43.5421,1.3682],[-5.661,43.5443,1.6062],[-5.6596,43.5485,3.207],[-5.6646,43.5507,0.0],[-5.6696,43.5476,0.0],[-5.6674,43.5451,0.0],[-5.6701,43.5415,12.7978],[-5.6799,43.5418,2.7811],[-5.6812,43.5451,1.7831],[-5.6924,43.5432,5.9261],[-5.6946,43.5457,2.3384],[-5.6837,43.5565,4.4459],[-5.6835,43.5588,0.7694],[-5.6862,43.5604,1.7306],[-5.6851,43.5571,0.0],[-5.6879,43.5576,0.0],[-5.6907,43.5551,0.7139],[-5.6904,43.5529,3.5361],[-5.696,43.5507,2.1137],[-5.6971,43.5532,5.2876],[-5.696,43.5554,2.0992],[-5.6924,43.5557,0.0],[-5.6985,43.5588,0.0],[-5.6954,43.5618,0.8732],[-5.6996,43.5618,1.7356],[-5.7001,43.5632,0.0],[-5.6971,43.5643,0.0],[-5.6993,43.5649,0.6316],[-5.6999,43.5671,2.455],[-5.6924,43.5635,0.8957],[-5.6904,43.5654,0.0],[-5.6849,43.5662,0.0],[-5.6832,43.5696,2.7902],[-5.6932,43.5665,5.2957],[-5.6965,43.5676,4.2454],[-5.6993,43.569,6.9951],[-5.6962,43.5732,1.8237],[-5.6982,43.5757,0.0],[-5.7007,43.5718,42.6693],[-5.7051,43.5724,1.8604],[-5.7118,43.5701,0.0],[-5.7121,43.5687,8.3867],[-5.7168,43.5685,28.0524],[-5.7271,43.5735,3.5441],[-5.7349,43.5732,15.7381],[-5.7385,43.579,0.0],[-5.7435,43.5801,0.0],[-5.7429,43.5821,0.0],[-5.7449,43.584,0.0],[-5.7499,43.5851,9.5837],[-5.7543,43.5838,0.0],[-5.7585,43.586,0.0],[-5.761,43.5879,7.2504],[-5.7593,43.5949,0.0],[-5.7654,43.594,5.3915],[-5.7651,43.5968,0.0],[-5.7674,43.5965,6.9702],[-5.7665,43.5996,0.0],[-5.7712,43.6012,0.3623],[-5.7671,43.6046,0.5645],[-5.7688,43.6071,0.0],[-5.7757,43.6063,9.5967],[-5.7755,43.6076,2.1651],[-5.7776,43.6085,23.2766],[-5.7768,43.6104,0.0],[-5.7799,43.6101,8.6379],[-5.7793,43.6135,0.0],[-5.7829,43.6135,0.0],[-5.7826,43.6099,1.881],[-5.784,43.6096,4.0142],[-5.7857,43.6104,19.1522],[-5.7843,43.6129,0.0],[-5.7888,43.6124,0.0],[-5.7888,43.6138,0.0],[-5.791,43.614,0.0],[-5.7854,43.6165,0.0],[-5.7879,43.619,8.8264],[-5.7813,43.6226,11.896],[-5.7807,43.629,0.0],[-5.784,43.631,0.9051],[-5.7865,43.6294,4.1887],[-5.7937,43.6299,11.8171],[-5.7946,43.6368,0.9669],[-5.8057,43.6351,10.7742],[-5.8076,43.6299,31.6199],[-5.8093,43.629,0.0],[-5.809,43.6382,0.0],[-5.8107,43.6424,0.0],[-5.8229,43.6435,8.6716],[-5.8249,43.6401,4.1983],[-5.8288,43.6404,9.5318],[-5.8351,43.6476,21.5966],[-5.8337,43.649,0.0],[-5.834,43.6543,0.0],[-5.8365,43.6524,0.1841],[-5.8401,43.6535,9.1372],[-5.8415,43.6571,2.5918],[-5.839,43.6601,0.0],[-5.8399,43.6615,0.0],[-5.8455,43.6574,0.0],[-5.8532,43.6576,1.9814],[-5.8582,43.6557,0.0],[-5.861,43.6479,0.0],[-5.8579,43.6382,24.54],[-5.8601,43.6357,0.0],[-5.8663,43.6351,8.6061],[-5.866,43.6315,13.2745],[-5.8771,43.6301,3.0745],[-5.8768,43.6254,6.2344],[-5.886,43.6226,34.5287],[-5.8949,43.6268,8.7834],[-5.8979,43.6265,0.0],[-5.8996,43.6285,1.6952],[-5.9018,43.6257,9.8437],[-5.9054,43.6257,0.0],[-5.9071,43.6235,42.7196],[-5.9107,43.6249,5.6377],[-5.9151,43.6243,0.0],[-5.9157,43.6196,0.0],[-5.9113,43.6157,8.115],[-5.9143,43.6143,0.0],[-5.9151,43.611,0.0],[-5.9129,43.6079,51.5628],[-5.9174,43.6037,11.9238],[-5.9251,43.5988,5.7409],[-5.9326,43.6015,12.0119],[-5.9368,43.6001,30.1328],[-5.9418,43.6007,0.0],[-5.946,43.5988,0.0],[-5.9465,43.5954,0.0],[-5.9446,43.5938,3.1287],[-5.9321,43.5943,22.7769],[-5.924,43.5913,0.0],[-5.916,43.5904,0.0],[-5.9174,43.5882,1.5219],[-5.9215,43.5885,0.0],[-5.9185,43.5824,3.0224],[-5.9196,43.5776,2.6145],[-5.9176,43.5676,0.0],[-5.919,43.5629,1.5385],[-5.9174,43.5593,0.0],[-5.9199,43.5588,0.0],[-5.9215,43.5612,5.5921],[-5.9212,43.5726,2.9398],[-5.9229,43.5765,1.2251],[-5.9229,43.5854,0.0],[-5.9246,43.5857,2.3933],[-5.9237,43.5885,1.6483],[-5.9262,43.5899,0.0],[-5.9268,43.5882,3.7566],[-5.9293,43.5885,3.833],[-5.9304,43.5921,2.4003],[-5.9432,43.5932,0.0],[-5.9426,43.5918,0.0],[-5.9449,43.589,0.0],[-5.9424,43.5879,0.0],[-5.9429,43.5857,3.519],[-5.9504,43.581,1.4949],[-5.9615,43.5774,0.0],[-5.9662,43.5774,0.0],[-5.966,43.581,0.0],[-5.9688,43.5796,10.2781],[-5.9757,43.5821,0.0],[-5.9796,43.5774,11.4928],[-5.9826,43.5771,0.0],[-5.9829,43.5796,7.1939],[-5.9882,43.581,0.0],[-5.989,43.5779,14.5495],[-5.9918,43.5796,0.0],[-5.9924,43.5774,0.0],[-5.9951,43.5757,0.0],[-5.9951,43.5721,8.3427],[-5.9979,43.574,0.0],[-5.9976,43.5793,0.0],[-6.0032,43.5804,3.1486],[-6.006,43.5774,4.7487],[-6.0074,43.5796,0.0],[-6.0115,43.5796,4.0981],[-6.0162,43.5824,0.0],[-6.0162,43.5874,0.0],[-6.0187,43.5876,0.0],[-6.0376,43.5835,0.0],[-6.0349,43.5788,11.9095],[-6.0626,43.5665,7.6871],[-6.076,43.5651,0.0],[-6.0782,43.5563,0.42],[-6.0757,43.5554,0.0],[-6.0751,43.5524,3.7834],[-6.0804,43.5493,0.0],[-6.0804,43.5465,0.0],[-6.0735,43.5393,0.0],[-6.0765,43.5357,5.58],[-6.0857,43.5357,0.2222],[-6.0874,43.5371,0.0],[-6.0874,43.5382,0.0],[-6.0763,43.539,0.0],[-6.0815,43.5424,0.0],[-6.0815,43.5443,0.0],[-6.0862,43.5501,1.4346],[-6.0835,43.5549,0.0],[-6.0793,43.5571,0.5105],[-6.0776,43.5654,1.3992],[-6.0818,43.5657,0.0],[-6.0846,43.5626,10.0232],[-6.0901,43.5624,0.0],[-6.0924,43.5579,20.063],[-6.1035,43.5601,29.3587],[-6.1065,43.5565,24.067],[-6.1107,43.5574,0.0],[-6.1162,43.5549,10.9385],[-6.1232,43.5574,62.4278],[-6.1238,43.5615,0.4694],[-6.1265,43.5593,11.8826],[-6.1321,43.5588,1.1305],[-6.1351,43.5607,0.0],[-6.1357,43.5643,2.7013],[-6.1465,43.5649,2.0839],[-6.1474,43.5682,0.0],[-6.1507,43.5699,0.0],[-6.1579,43.5662,55.0257],[-6.1613,43.569,0.0306],[-6.1654,43.5674,0.0],[-6.1707,43.5696,0.0],[-6.1732,43.5685,6.9225],[-6.1737,43.5662,36.6259],[-6.1785,43.5679,0.0],[-6.1824,43.564,37.1211],[-6.1854,43.5632,1.635],[-6.1896,43.5643,5.8877],[-6.1921,43.5693,0.0],[-6.1874,43.5771,2.5548],[-6.1882,43.5807,0.0],[-6.191,43.5801,8.6602],[-6.1907,43.5818,0.0],[-6.1924,43.5821,0.0559],[-6.1949,43.5801,0.0],[-6.1951,43.5757,0.0],[-6.1974,43.5754,4.5833],[-6.1996,43.5724,1.6708],[-6.2026,43.5726,0.0],[-6.206,43.5768,27.8256],[-6.2076,43.586,0.0],[-6.2104,43.5851,1.5542],[-6.211,43.5818,60.038],[-6.2138,43.5799,22.8478],[-6.2207,43.5788,0.0],[-6.2204,43.5824,0.4573],[-6.2243,43.5835,7.0764],[-6.2232,43.586,0.0],[-6.2265,43.5899,0.0],[-6.231,43.589,0.0],[-6.2326,43.5918,0.0],[-6.2354,43.5907,0.0],[-6.2362,43.5938,0.0],[-6.2407,43.5927,0.0],[-6.2415,43.596,0.0],[-6.2435,43.5971,0.0],[-6.2457,43.5962,0.0],[-6.2454,43.5929,4.0568],[-6.2424,43.5893,0.0],[-6.2463,43.5874,0.0],[-6.2457,43.584,29.6524],[-6.2496,43.5829,0.8576],[-6.2554,43.5782,5.645],[-6.2726,43.5776,0.0],[-6.274,43.5743,0.0],[-6.2821,43.5737,0.0],[-6.2815,43.5718,6.1869],[-6.2843,43.5699,42.423],[-6.2976,43.571,0.786],[-6.2979,43.569,7.1725],[-6.2954,43.5671,15.7869],[-6.2974,43.5654,85.6541],[-6.3024,43.5651,0.0],[-6.3035,43.5635,37.5096],[-6.3146,43.5646,0.6441],[-6.3196,43.564,0.4591],[-6.3207,43.5618,26.5286],[-6.3257,43.5626,0.0],[-6.3287,43.5604,80.8084],[-6.3326,43.5612,8.9994],[-6.3326,43.5596,63.4036],[-6.3349,43.5601,0.0],[-6.3354,43.5585,40.3067],[-6.3393,43.5601,0.0546],[-6.3393,43.5576,5.416],[-6.3465,43.5526,31.4242],[-6.3521,43.5526,0.0],[-6.3554,43.551,12.7364],[-6.361,43.5518,48.5889],[-6.3621,43.5535,6.5085],[-6.3657,43.5515,21.2309],[-6.3718,43.5524,36.7171],[-6.3663,43.5593,0.0],[-6.3765,43.5557,0.0],[-6.3785,43.5574,0.0],[-6.3818,43.556,20.3582],[-6.3862,43.5565,22.2089],[-6.3962,43.5601,20.6157],[-6.3993,43.5599,0.0],[-6.4029,43.5563,16.0654],[-6.4171,43.559,0.0964],[-6.421,43.5532,65.9169],[-6.4299,43.5526,45.5694],[-6.4371,43.5593,0.0],[-6.4435,43.5596,0.0],[-6.4451,43.5626,0.0],[-6.4485,43.561,3.807],[-6.454,43.564,0.0],[-6.4587,43.5643,5.2249],[-6.4601,43.5654,5.2249],[-6.4601,43.5693,0.0],[-6.466,43.569,2.7959],[-6.4682,43.5707,-0.0738],[-6.4713,43.5704,6.2154],[-6.4738,43.5682,11.3248],[-6.4735,43.5646,7.1426],[-6.476,43.5643,0.0],[-6.4718,43.5493,3.1082],[-6.4751,43.549,6.4236],[-6.4815,43.5526,0.0],[-6.4893,43.5513,0.0],[-6.491,43.5493,0.0],[-6.5026,43.5518,0.0],[-6.5046,43.5493,8.374],[-6.5076,43.551,0.0],[-6.5126,43.5471,0.0],[-6.5226,43.551,0.0],[-6.5299,43.5488,0.0],[-6.5324,43.5504,11.1718],[-6.5338,43.5488,11.1718],[-6.5363,43.5493,0.0],[-6.5346,43.5476,0.5998],[-6.5351,43.546,3.0735],[-6.5374,43.5468,19.138],[-6.5385,43.5504,0.0438],[-6.5421,43.5493,0.0],[-6.539,43.5518,0.0],[-6.5418,43.5557,0.0],[-6.554,43.5526,0.0],[-6.559,43.5563,0.0],[-6.5779,43.5585,0.6152],[-6.5813,43.5554,14.9485],[-6.5862,43.554,0.0],[-6.5974,43.5538,0.0],[-6.5987,43.5568,3.1654],[-6.6029,43.5565,0.0],[-6.601,43.564,0.0],[-6.6029,43.5662,0.0],[-6.6051,43.5662,0.0],[-6.6087,43.5624,0.0],[-6.6163,43.5621,0.0],[-6.6154,43.5665,1.8858],[-6.6196,43.5662,0.0],[-6.6221,43.5715,0.0],[-6.6262,43.5729,0.3577],[-6.626,43.5751,0.0],[-6.6279,43.5713,0.0],[-6.6321,43.571,0.0],[-6.6337,43.569,0.0],[-6.6451,43.5693,0.0],[-6.6454,43.5665,5.8713],[-6.6507,43.5682,3.4002],[-6.6549,43.5665,10.1262],[-6.6607,43.569,0.0],[-6.6604,43.5674,0.0],[-6.6721,43.564,0.0],[-6.6776,43.5593,0.0],[-6.6793,43.5604,0.0],[-6.6849,43.5596,3.6799],[-6.6907,43.5629,0.0],[-6.6965,43.5612,0.0],[-6.6971,43.5643,0.0],[-6.7015,43.5629,4.3904],[-6.7104,43.5643,0.0],[-6.7126,43.5615,10.5664],[-6.7143,43.5621,0.0],[-6.7176,43.5588,0.0],[-6.7196,43.5588,0.0],[-6.7215,43.5549,5.7318],[-6.7251,43.5551,1.4013],[-6.7243,43.5315,0.3568],[-6.7268,43.5354,0.1434],[-6.7263,43.5426,1.0164],[-6.7293,43.5499,11.9621],[-6.726,43.5515,0.0],[-6.7254,43.5579,0.0],[-6.7318,43.5615,0.0],[-6.7326,43.5651,1.7531],[-6.7404,43.5629,2.1424],[-6.7451,43.5676,0.0],[-6.751,43.5654,11.2146],[-6.7518,43.5676,0.0],[-6.7543,43.5674,0.0],[-6.7535,43.5643,2.3812],[-6.7551,43.5649,0.0],[-6.7585,43.5621,0.0],[-6.7621,43.5638,0.0],[-6.7626,43.5685,0.0],[-6.7651,43.5704,0.0],[-6.771,43.5671,0.0],[-6.7743,43.569,0.0],[-6.7776,43.5668,0.0],[-6.7776,43.5649,15.3741],[-6.7818,43.566,0.0],[-6.7835,43.564,0.0],[-6.7813,43.5601,0.0],[-6.7829,43.5574,0.0],[-6.7887,43.556,0.0],[-6.7901,43.5574,-0.1019],[-6.7954,43.5576,0.0],[-6.8001,43.5554,55.2908],[-6.8035,43.5593,0.0],[-6.811,43.5546,9.1901],[-6.8168,43.5565,25.2223],[-6.8185,43.5624,0.0],[-6.824,43.5654,0.0],[-6.8376,43.5676,0.0],[-6.8399,43.5665,4.2183],[-6.8396,43.5646,1.673],[-6.8449,43.566,0.0],[-6.8501,43.5638,0.0],[-6.8504,43.5662,0.0],[-6.8543,43.5682,11.6848],[-6.854,43.571,0.0],[-6.8563,43.5701,1.0485],[-6.8565,43.5682,20.4353],[-6.866,43.5671,3.4882],[-6.8654,43.5701,0.0],[-6.8668,43.5715,0.0],[-6.8718,43.566,7.2803],[-6.8729,43.5671,0.0],[-6.8754,43.5662,6.3093],[-6.8732,43.5649,2.5581],[-6.8749,43.5629,2.7357],[-6.8832,43.5663,1.3312],[-6.8899,43.5713,0.0],[-6.8924,43.5693,0.7314],[-6.9021,43.5707,0.0],[-6.9082,43.5679,0.0],[-6.9101,43.5701,0.0],[-6.9129,43.5702,1.0003],[-6.9149,43.5732,0.6341],[-6.9232,43.5718,5.8676],[-6.9249,43.576,0.0],[-6.9307,43.571,0.0],[-6.9376,43.5715,0.0904],[-6.9421,43.5746,1.2386],[-6.946,43.5751,3.412],[-6.9474,43.5746,3.412],[-6.9465,43.5726,0.0],[-6.9507,43.5707,0.0],[-6.949,43.5687,0.0],[-6.949,43.5654,17.5258],[-6.9504,43.5676,2.7443],[-6.9546,43.569,0.0],[-6.9568,43.5638,0.0],[-6.961,43.5643,0.0],[-6.9635,43.561,1.8687],[-6.966,43.5629,0.0],[-6.9715,43.5621,0.0],[-6.9737,43.5579,3.5739],[-6.9826,43.5593,0.3016],[-6.9865,43.5563,0.0],[-6.9971,43.5551,0.0],[-7.0037,43.5582,3.0467],[-7.0057,43.5563,0.346],[-7.016,43.5565,9.4114],[-7.0182,43.5593,0.2786],[-7.0229,43.5604,1.1651],[-7.0232,43.5565,7.9139],[-7.0293,43.5574,0.0],[-7.0257,43.5532,0.0],[-7.024,43.5537,2.9753],[-7.0221,43.5521,2.9753],[-7.0218,43.5485,17.0324],[-7.0304,43.544,0.0],[-7.0301,43.5412,15.8276],[-7.0246,43.5379,2.0319],[-7.0215,43.5337,0.0],[-7.0132,43.5313,3.7435],[-7.0076,43.5318,3.7684],[-7.0076,43.5293,20.949],[-7.0135,43.5246,8.9104],[-7.0154,43.5262,0.0],[-7.019,43.5249,15.4431],[-7.0268,43.5254,12.0799],[-7.0299,43.529,1.8977],[-7.0321,43.5282,13.7957],[-7.0396,43.5163,0.0],[-7.0393,43.5129,0.0],[-7.0413,43.5118,5.3205],[-7.0429,43.5032,0.0],[-7.0413,43.4993,0.0],[-7.0382,43.4976,11.6447],[-7.034,43.499,2.4663],[-7.0338,43.4976,2.4855],[-7.0429,43.4932,0.0],[-7.0457,43.4901,1.2526],[-7.0474,43.4851,0.0],[-7.0463,43.4774,4.408],[-7.0558,43.4724,0.6967],[-7.0617,43.474,20.0916],[-7.0692,43.4701,8.5236],[-7.0715,43.4658,1.0243],[-7.0779,43.4649,1.2802],[-7.0902,43.4539,12.8291],[-7.0897,43.4478,59.6713],[-7.0853,43.4445,91.9492],[-7.0861,43.4433,20.8425],[-7.0892,43.4453,2.226],[-7.0978,43.4417,3.54],[-7.0991,43.4399,3.4731],[-7.097,43.4329,18.6235],[-7.1047,43.4325,12.6927],[-7.1004,43.4295,35.0089],[-7.1027,43.427,19.0415],[-7.1085,43.429,62.5161],[-7.1126,43.4253,40.9756],[-7.1176,43.4262,33.6037],[-7.1293,43.4237,23.5721],[-7.1297,43.4252,35.5726],[-7.1419,43.4307,70.347],[-7.152,43.4287,219.2351],[-7.1618,43.432,351.2331],[-7.1728,43.4304,397.7591],[-7.1746,43.4246,263.1952],[-7.1696,43.4221,229.6615],[-7.1767,43.4146,352.9817],[-7.1712,43.409,100.6027],[-7.1689,43.4088,86.3747],[-7.1684,43.4035,54.0862],[-7.1744,43.4053,52.0946],[-7.1725,43.4018,54.2222],[-7.1801,43.3962,73.2777],[-7.1821,43.392,87.4237],[-7.1774,43.3921,77.3058],[-7.1785,43.388,83.1159],[-7.1752,43.3862,87.3642],[-7.1766,43.3825,89.2173],[-7.1723,43.3834,70.3237],[-7.1671,43.3793,104.5399],[-7.1628,43.3802,129.6899],[-7.1594,43.3747,175.9731],[-7.1561,43.3745,202.6839],[-7.1503,43.3796,252.7221],[-7.1389,43.3833,417.9155],[-7.1369,43.3827,429.9988],[-7.1342,43.3774,546.9522],[-7.1274,43.3726,464.9862],[-7.1313,43.3634,438.8284],[-7.1281,43.3556,175.1761],[-7.1326,43.3477,162.6012],[-7.1302,43.3415,378.5131],[-7.1306,43.3302,498.1317],[-7.1255,43.3317,597.3663],[-7.1151,43.3261,580.8381],[-7.1114,43.3163,788.791],[-7.1071,43.3141,780.3645],[-7.1011,43.3041,851.6313],[-7.0973,43.3014,913.0829],[-7.0785,43.3004,910.0416],[-7.0738,43.3057,916.9156],[-7.0675,43.3069,887.5891],[-7.0596,43.3053,859.8615],[-7.0651,43.2991,811.8293],[-7.0645,43.2887,790.2269],[-7.0681,43.2832,758.4931],[-7.0663,43.2796,772.4926],[-7.0696,43.2794,745.7729],[-7.069,43.2754,748.9711],[-7.0704,43.2758,745.7971],[-7.0714,43.2712,805.2315],[-7.0651,43.2494,810.8176],[-7.0614,43.244,852.7102],[-7.0505,43.2378,772.8976],[-7.0464,43.2312,746.4479],[-7.0411,43.2286,774.1978],[-7.034,43.2281,843.1058],[-7.0199,43.2132,699.5663],[-7.0168,43.2148,702.3888],[-7.0171,43.2216,634.247],[-7.0094,43.2228,600.5427],[-7.0013,43.2072,722.9226],[-6.9926,43.2086,710.7258],[-6.9862,43.2021,609.0404],[-6.9709,43.2042,328.5467],[-6.9657,43.1947,431.7918],[-6.965,43.187,595.9439],[-6.9739,43.1789,740.3356],[-6.9806,43.1668,742.0911],[-6.9733,43.1495,1022.6048],[-6.9649,43.1487,1009.9538],[-6.9614,43.1456,1142.6348],[-6.957,43.1397,1180.9053],[-6.9572,43.1354,1153.918],[-6.9414,43.1318,998.7542],[-6.9385,43.1329,1027.5436],[-6.9372,43.1393,785.9821],[-6.9295,43.1428,744.183],[-6.9267,43.1405,799.9935],[-6.9193,43.141,983.2039],[-6.9142,43.1469,949.113],[-6.9057,43.1497,821.2881],[-6.902,43.1551,712.5153],[-6.8927,43.1549,720.3586],[-6.8853,43.1568,611.4104],[-6.882,43.1605,622.9309],[-6.8861,43.1667,645.6971],[-6.8802,43.1702,607.369],[-6.8764,43.1758,459.7418],[-6.8745,43.1868,340.673],[-6.8703,43.1878,236.9154],[-6.8681,43.19,220.986],[-6.8716,43.1798,214.0],[-6.8672,43.1819,331.5654],[-6.8617,43.1822,461.7913],[-6.8558,43.1722,504.4244],[-6.8469,43.167,508.3887],[-6.8388,43.1661,233.4568],[-6.8367,43.1576,348.9802],[-6.8297,43.1519,525.1308],[-6.8262,43.1458,819.9796],[-6.8214,43.1432,989.4337],[-6.8245,43.1403,1049.0173],[-6.8238,43.137,1054.3105],[-6.8267,43.1313,1096.2385],[-6.8275,43.1231,1204.5419],[-6.8515,43.109,1112.6318],[-6.8555,43.1085,1113.5813],[-6.8564,43.1062,1090.6271],[-6.8651,43.1011,927.9638],[-6.8712,43.0912,895.6396],[-6.8902,43.0905,549.6937],[-6.8938,43.0918,503.2359],[-6.8989,43.088,308.8394],[-6.9009,43.0838,227.9594],[-6.9109,43.078,570.3639],[-6.9155,43.0734,892.5295],[-6.9232,43.0818,700.0638],[-6.9341,43.0816,433.5914],[-6.938,43.0867,215.75],[-6.9401,43.0806,258.3918],[-6.9442,43.0774,224.0382],[-6.9517,43.0762,230.2158],[-6.9503,43.0682,224.7262],[-6.9572,43.0681,234.6246],[-6.9559,43.0635,310.1636],[-6.9611,43.0611,246.2765],[-6.966,43.0613,239.0841],[-6.9679,43.0557,251.8981],[-6.962,43.0524,297.6211],[-6.9646,43.0504,296.9178],[-6.9632,43.0443,268.3885],[-6.9659,43.0377,251.5243],[-6.9645,43.0346,296.692],[-6.969,43.0351,445.022],[-6.9689,43.0327,448.0895],[-6.9723,43.0303,454.0028],[-6.9757,43.0319,710.4988],[-6.9778,43.0379,644.7369],[-6.9818,43.0413,517.499],[-6.9871,43.0292,859.2169],[-6.9911,43.0308,886.3162],[-6.9968,43.0277,834.786],[-6.9948,43.0263,850.0966],[-6.997,43.0194,820.4394],[-6.9857,43.0142,817.1897],[-6.9836,43.004,799.9954],[-6.9795,43.0048,616.7131],[-6.975,42.9963,674.8499],[-6.9724,42.9963,654.033],[-6.972,42.994,624.093],[-6.9621,42.9906,298.7253],[-6.9618,42.9938,303.3269],[-6.9637,42.9928,275.1794],[-6.9636,42.9957,293.6933],[-6.9559,42.9961,317.7401],[-6.9619,43.0008,272.8402],[-6.9598,43.0044,293.9345],[-6.962,43.0057,268.0793],[-6.9598,43.0072,268.8669],[-6.9619,43.012,268.446],[-6.9594,43.0144,264.3482],[-6.9638,43.0196,256.7441],[-6.9606,43.0212,260.4832],[-6.9605,43.0229,260.4196],[-6.9643,43.0265,276.9767],[-6.9578,43.0291,419.3542],[-6.9577,43.0335,468.1724],[-6.9559,43.0346,505.7004],[-6.957,43.0367,448.7833],[-6.9464,43.0324,752.9008],[-6.9405,43.0114,791.6478],[-6.9354,43.0103,736.4739],[-6.9323,43.0086,744.4843],[-6.9307,43.0046,815.0916],[-6.9219,43.0013,899.3167],[-6.9102,42.9901,969.1598],[-6.8936,42.9879,1049.1013],[-6.8805,42.9913,1152.3556],[-6.8716,42.9889,928.2128],[-6.8677,42.9837,982.6566],[-6.8647,42.9838,927.6443],[-6.8618,42.9793,964.2573],[-6.8359,42.9577,1193.1654],[-6.8345,42.9409,1176.1406],[-6.8417,42.9282,1418.0934],[-6.8357,42.9163,1245.5378],[-6.8009,42.9101,1452.1893],[-6.7896,42.9045,1703.1874],[-6.7705,42.8986,1600.1577],[-6.768,42.8949,1582.0221],[-6.7678,42.8902,1700.9375],[-6.7732,42.8866,1797.563],[-6.7736,42.8828,1842.7595],[-6.7603,42.884,1697.321],[-6.7565,42.883,1833.0522],[-6.7491,42.8941,1715.0375],[-6.7405,42.8994,1726.8074],[-6.7344,42.9076,1676.8623],[-6.7225,42.9175,1720.8223],[-6.7126,42.915,1788.9957],[-6.6958,42.9189,1864.6501],[-6.6909,42.9223,1829.8622],[-6.6671,42.9245,1789.3333],[-6.6605,42.9228,1752.0847],[-6.6568,42.9245,1833.2544],[-6.6466,42.9238,1646.5024],[-6.6386,42.9254,1805.6008],[-6.6321,42.9232,1682.2052],[-6.6284,42.9195,1645.7098],[-6.6128,42.9245,1611.2234],[-6.6064,42.9161,1643.6938],[-6.5977,42.9185,1610.194],[-6.5902,42.9167,1693.3555],[-6.5793,42.9185,1655.6879],[-6.571,42.917,1607.5077],[-6.5689,42.9147,1621.9156],[-6.5567,42.9138,1774.5767]]],
[[[-6.9868,43.5618,1.6891],[-6.9887,43.5624,0.0],[-6.9879,43.5601,0.0],[-6.9896,43.5599,0.0],[-6.9896,43.5579,0.0],[-6.9871,43.5576,4.0896],[-6.9849,43.5601,0.0],[-6.9849,43.5618,0.4757],[-6.9868,43.5618,1.6891]]],
[[[-6.9496,43.5749,0.0],[-6.9479,43.5754,3.412],[-6.9476,43.5782,0.0],[-6.9504,43.5765,0.0],[-6.9496,43.5749,0.0]]],
[[[-4.574,43.3974,4.1663],[-4.5749,43.4001,2.753],[-4.5771,43.3985,1.2758],[-4.576,43.3971,1.2758],[-4.574,43.3974,4.1663]]],
[[[-6.0304,43.5907,5.7],[-6.0326,43.5913,2.1576],[-6.0343,43.5893,10.5225],[-6.0315,43.5887,0.0],[-6.0304,43.5907,5.7]]]]}
,"properties": {"GID_1": "ESP.17_1","GID_0": "ESP","country": "Spain","province": "PrincipadodeAsturias","VARNAME_1": "Astúrias|Asturie|Asturien|Asturi","NL_NAME_1": "NA","TYPE_1": "ComunidadAutónoma","ENGTYPE_1": "AutonomousCommunity","CC_1": "03","HASC_1": "ES.AS","ISO_1": "NA","name": "Principadode_Asturias.province","area_km2": 10583.222,"hist_schema_id": "Elevation0-9000","hist_area_km2": {"-25": 0.215,"0": 87.093,"25": 192.046,"50": 244.14,"75": 263.177,"100": 248.178,"125": 235.616,"150": 252.19,"175": 263.859,"200": 269.234,"225": 264.154,"250": 260.553,"275": 260.276,"300": 254.153,"325": 250.303,"350": 236.065,"375": 230.8,"400": 230.523,"425": 226.662,"450": 221.324,"475": 213.762,"500": 214.979,"525": 213.274,"550": 212.374,"575": 212.191,"600": 213.123,"625": 210.301,"650": 210.215,"675": 207.931,"700": 199.414,"725": 195.348,"750": 187.632,"775": 182.07,"800": 176.328,"825": 171.082,"850": 164.479,"875": 158.089,"900": 149.079,"925": 143.672,"950": 137.95,"975": 136.409,"1000": 131.236,"1025": 121.559,"1050": 117.798,"1075": 112.269,"1100": 105.103,"1125": 99.774,"1150": 96.211,"1175": 90.992,"1200": 87.904,"1225": 84.97,"1250": 76.877,"1275": 72.777,"1300": 67.053,"1325": 64.704,"1350": 62.012,"1375": 60.499,"1400": 55.967,"1425": 54.375,"1450": 50.691,"1475": 50.848,"1500": 47.83,"1525": 46.19,"1550": 44.628,"1575": 41.656,"1600": 38.669,"1625": 37.091,"1650": 32.712,"1675": 30.097,"1700": 27.263,"1725": 24.693,"1750": 21.793,"1775": 19.795,"1800": 17.162,"1825": 14.838,"1850": 11.244,"1875": 8.966,"1900": 7.819,"1925": 6.611,"1950": 5.743,"1975": 4.815,"2000": 3.946,"2025": 2.924,"2050": 3.125,"2075": 2.351,"2100": 2.258,"2125": 1.732,"2150": 1.376,"2175": 1.376,"2200": 1.623,"2225": 1.577,"2250": 1.391,"2275": 1.36,"2300": 0.974,"2325": 0.943,"2350": 0.587,"2375": 0.464,"2400": 0.448,"2425": 0.541,"2450": 0.294,"2475": 0.201,"2500": 0.093,"2525": 0.124}}}