{"type": "Feature","bbox": [-4.9239,42.3396,-4.5061,42.7429],"geometry": {"type": "MultiPolygon","coordinates": [[[[-4.6753,42.393,844.6141],[-4.6723,42.3942,844.8349],[-4.6755,42.401,847.3651],[-4.6725,42.4015,847.655],[-4.6624,42.396,844.3114],[-4.6595,42.3995,845.2779],[-4.6417,42.4079,861.7404],[-4.6301,42.4116,884.9756],[-4.6282,42.4161,878.1916],[-4.63,42.4222,882.4705],[-4.6319,42.423,885.8667],[-4.6256,42.4379,874.8721],[-4.6267,42.4452,866.6365],[-4.6324,42.4499,863.0342],[-4.6347,42.4501,865.0421],[-4.637,42.4585,889.642],[-4.641,42.4633,931.7136],[-4.6107,42.4703,862.6713],[-4.6172,42.4761,868.7971],[-4.6204,42.4838,882.5959],[-4.6249,42.4889,882.0338],[-4.627,42.4942,894.0243],[-4.6264,42.4982,899.601],[-4.6235,42.5009,887.199],[-4.6274,42.5022,891.0655],[-4.622,42.509,920.3295],[-4.6192,42.5086,911.4622],[-4.6145,42.5013,885.047],[-4.6044,42.5011,898.5542],[-4.6027,42.5036,901.4073],[-4.6059,42.5097,961.3289],[-4.6006,42.5126,927.3647],[-4.5952,42.5238,964.6656],[-4.6004,42.5281,981.7925],[-4.5978,42.5329,982.20719999999994],[-4.5878,42.5228,986.668],[-4.5813,42.5204,984.1513],[-4.574,42.5137,981.0429],[-4.5732,42.5105,963.5377],[-4.565,42.5041,933.3365],[-4.5529,42.5088,892.9563],[-4.5526,42.5145,875.1661],[-4.5422,42.5191,861.149],[-4.5449,42.5244,864.2538],[-4.5391,42.5309,910.0605],[-4.5335,42.5341,930.3696],[-4.5295,42.5421,941.9455],[-4.5246,42.5445,914.3086],[-4.5204,42.5504,940.2764],[-4.5114,42.5537,982.752],[-4.5139,42.5579,985.8601],[-4.5081,42.5666,988.6746],[-4.5082,42.5794,981.4501],[-4.5061,42.586,996.2164],[-4.5125,42.5947,996.5099],[-4.5202,42.585,958.5582],[-4.5243,42.5826,952.8745],[-4.5273,42.5917,999.0307],[-4.5201,42.5982,1003.9074],[-4.5374,42.6131,1009.8804],[-4.5413,42.6142,1013.3851],[-4.5495,42.6249,1021.311],[-4.5471,42.6254,1017.1286],[-4.5438,42.6303,1010.5305],[-4.5458,42.6356,1014.8839],[-4.5495,42.6375,1022.4381],[-4.5525,42.642,1025.5197],[-4.5582,42.6549,1038.3923],[-4.5559,42.664,1041.7417],[-4.5582,42.6724,1065.5426],[-4.562,42.677,1063.7832],[-4.5604,42.6826,1044.5023],[-4.558,42.6844,997.9286],[-4.56,42.6854,1009.371],[-4.5594,42.6881,996.3251],[-4.5502,42.6857,985.7758],[-4.5569,42.7077,1072.667],[-4.5415,42.7149,1057.6602],[-4.541,42.7262,1061.298],[-4.5621,42.7246,1094.5818],[-4.568,42.7268,1091.7927],[-4.5621,42.7374,1118.6632],[-4.5702,42.7328,1080.3929],[-4.5801,42.734,1047.8274],[-4.584,42.7331,1062.801],[-4.591,42.7374,1064.2129],[-4.5942,42.7429,1080.922],[-4.5944,42.7415,1076.9716],[-4.5995,42.7408,1094.9001],[-4.6065,42.7421,1095.9642],[-4.6184,42.74,1089.1129],[-4.6257,42.7329,1050.5682],[-4.6412,42.7253,980.1035],[-4.6399,42.7229,977.9203],[-4.6413,42.7216,972.5436],[-4.6439,42.7223,973.634],[-4.649,42.7202,1003.3465],[-4.6621,42.7058,1085.8241],[-4.674,42.7204,1086.4091],[-4.6785,42.7215,1087.7451],[-4.6819,42.7315,1107.2491],[-4.6885,42.7323,1057.1526],[-4.6953,42.7375,1074.781],[-4.6979,42.7417,1085.271],[-4.7131,42.7328,1118.5519],[-4.7234,42.7235,1109.0466],[-4.7282,42.7057,1107.0719],[-4.7409,42.7051,1081.2847],[-4.7454,42.7086,1085.7646],[-4.7527,42.7102,1116.7489],[-4.7627,42.7049,1117.6121],[-4.7717,42.6909,1102.5609],[-4.7691,42.6819,1093.8743],[-4.7856,42.6726,1092.8833],[-4.7977,42.6716,1090.2144],[-4.8113,42.6659,1024.9955],[-4.8272,42.6665,1036.3446],[-4.839,42.6639,1055.6226],[-4.8602,42.6635,1072.5046],[-4.862,42.6554,1078.9312],[-4.8961,42.6557,1094.1998],[-4.8983,42.6356,1071.3823],[-4.8946,42.6238,1057.6337],[-4.9047,42.6031,1037.6034],[-4.9047,42.5991,1035.7045],[-4.901,42.5947,1029.2526],[-4.9011,42.5845,1018.1008],[-4.9024,42.5779,1011.9756],[-4.9151,42.5602,999.9456],[-4.9156,42.5499,986.0941],[-4.9144,42.5447,991.8278],[-4.9098,42.5412,982.2842],[-4.8879,42.537,995.3733],[-4.8911,42.5182,985.5154],[-4.8902,42.509,983.1871],[-4.8878,42.5089,984.6711],[-4.8999,42.4507,938.1873],[-4.9055,42.4492,942.7476],[-4.9134,42.4413,951.1389],[-4.9239,42.4361,918.3406],[-4.9098,42.4339,941.8022],[-4.9086,42.4284,938.0803],[-4.9049,42.4245,934.8781],[-4.906,42.4203,932.845],[-4.9147,42.4144,922.484],[-4.9125,42.4046,924.4858],[-4.9142,42.4012,894.2491],[-4.9083,42.3969,891.4816],[-4.9111,42.3923,919.7783],[-4.9031,42.3865,900.1144],[-4.9167,42.3785,862.4913],[-4.9205,42.3724,866.6514],[-4.9175,42.3687,855.4534],[-4.9177,42.3652,849.6005],[-4.9124,42.3596,841.5432],[-4.8999,42.3567,856.0386],[-4.8991,42.3536,859.5201],[-4.8937,42.3534,873.6886],[-4.8907,42.347,865.7783],[-4.869,42.3435,884.9045],[-4.8561,42.3441,898.647],[-4.8449,42.3396,896.5131],[-4.8435,42.342,894.1642],[-4.8328,42.3451,877.7557],[-4.8324,42.35,882.1531],[-4.8301,42.3516,888.0358],[-4.8301,42.3543,893.3315],[-4.8257,42.3563,897.2729],[-4.8261,42.3584,894.0654],[-4.8152,42.3591,882.9714],[-4.7966,42.3633,882.9913],[-4.7905,42.3525,878.746],[-4.7812,42.3521,869.4836],[-4.7682,42.358,860.1802],[-4.7581,42.3774,863.0043],[-4.7475,42.3917,861.9033],[-4.7359,42.3982,862.1055],[-4.7446,42.3894,860.3383],[-4.7245,42.3785,852.5248],[-4.7247,42.3858,854.8669],[-4.7,42.39,848.3835],[-4.6859,42.3903,845.6276],[-4.6832,42.3918,846.0247],[-4.6801,42.3887,844.2337],[-4.6776,42.3888,844.0853],[-4.6753,42.393,844.6141]]]]}
,"properties": {"GID_3": "ESP.5.4.1_1","GID_0": "ESP","country": "Spain","GID_1": "ESP.5_1","province": "CastillayLeón","NL_NAME_1": "NA","GID_2": "ESP.5.4_1","county": "Palencia","NL_NAME_2": "NA","city": "n.a.(200)","VARNAME_3": "NA","NL_NAME_3": "NA","TYPE_3": "Comarca","ENGTYPE_3": "Comarca","CC_3": "NA","HASC_3": "NA","name": "n.a.(200).city","area_km2": 985.0656,"hist_schema_id": "Elevation0-9000","hist_area_km2": {"850": 30.6228,"875": 114.0494,"900": 124.8679,"925": 133.3943,"950": 115.7118,"975": 89.6859,"1000": 110.8935,"1025": 93.521,"1050": 80.4385,"1075": 61.1852,"1100": 25.9128,"1125": 4.7825}}}