{"type":"Feature","properties":{"GID_3":"ESP.9.1.2_1","GID_0":"ESP","country":"Spain","GID_1":"ESP.9_1","province":"ComunidadForaldeNavarra","NL_NAME_1":"NA","GID_2":"ESP.9.1_1","county":"Navarra","NL_NAME_2":"NA","city":"n.a.(186)","VARNAME_3":"NA","NL_NAME_3":"NA","TYPE_3":"Comarca","ENGTYPE_3":"Comarca","CC_3":"NA","HASC_3":"NA","name":"n.a.(186).city"},
"geometry":{"type": "MultiPolygon","coordinates": [[[[-1.6806,42.6292,548.5903],[-1.6862,42.6452,644.8997],[-1.6833,42.6513,608.1992],[-1.6844,42.6561,564.7877],[-1.688,42.6608,520.0984],[-1.693,42.6602,499.7039],[-1.6934,42.6635,493.3041],[-1.6997,42.6662,467.7629],[-1.7072,42.6641,469.96],[-1.7073,42.6556,485.0432],[-1.703,42.6508,537.4199],[-1.6982,42.6386,616.8778],[-1.6913,42.6281,577.937],[-1.6859,42.6239,558.8082],[-1.6806,42.6292,548.5903]]]]}}