{"type":"Feature","properties":{"GID_3":"ESP.5.9.3_1","GID_0":"ESP","country":"Spain","GID_1":"ESP.5_1","province":"CastillayLeón","NL_NAME_1":"NA","GID_2":"ESP.5.9_1","county":"Zamora","NL_NAME_2":"NA","city":"n.a.(270)","VARNAME_3":"NA","NL_NAME_3":"NA","TYPE_3":"Comarca","ENGTYPE_3":"Comarca","CC_3":"NA","HASC_3":"NA","name":"n.a.(270).city"},
"geometry":{"type": "MultiPolygon","coordinates": [[[[-6.0248,41.556,783.1226],[-6.0319,41.5548,791.94],[-6.037,41.5564,792.3594],[-6.0508,41.5654,801.8835],[-6.0668,41.5713,807.0182],[-6.0751,41.5772,806.5126],[-6.0835,41.5869,803.2196],[-6.0857,41.5948,813.459],[-6.0547,41.6012,752.2372],[-6.0519,41.6032,717.2398],[-6.0437,41.6001,717.7797],[-6.0415,41.6007,717.9117],[-6.0262,41.5934,714.2885],[-6.0195,41.5929,682.1033],[-6.0168,41.5895,684.5466],[-6.0098,41.5883,674.8553],[-6.0068,41.5856,692.675],[-6.0019,41.5864,668.4393],[-6.0,41.5834,661.0],[-5.9869,41.5825,661.0],[-5.9833,41.5836,661.0],[-5.981,41.5888,661.0],[-5.9716,41.5964,662.0],[-5.9471,41.605,664.5],[-5.9405,41.5981,665.5],[-5.9368,41.5969,666.0],[-5.9299,41.5974,666.5],[-5.9231,41.6014,667.0],[-5.9192,41.6064,667.75],[-5.9278,41.6157,669.5],[-5.9285,41.6188,670.25],[-5.9247,41.6305,670.5],[-5.9157,41.6321,670.5],[-5.9038,41.6464,670.5],[-5.8965,41.6524,696.8561],[-5.8845,41.6529,671.0],[-5.869,41.6451,681.4545],[-5.8599,41.6472,671.0],[-5.858,41.6513,671.0],[-5.8669,41.661,671.0],[-5.8725,41.6844,671.0],[-5.8675,41.6882,675.7855],[-5.8602,41.6901,671.0],[-5.8569,41.6996,671.0],[-5.8523,41.7005,671.0],[-5.8414,41.6959,671.5],[-5.8372,41.6965,671.5],[-5.8364,41.7057,671.5],[-5.8337,41.7089,671.5],[-5.8261,41.7093,671.5],[-5.8207,41.7125,671.5],[-5.8174,41.7126,671.5],[-5.8141,41.7107,675.2006],[-5.8116,41.7061,671.5],[-5.8118,41.6997,671.5],[-5.8104,41.6986,685.5574],[-5.8069,41.7,674.0397],[-5.7983,41.7183,671.5],[-5.7981,41.7243,673.9847],[-5.8094,41.7274,671.5],[-5.8069,41.7326,672.0],[-5.8009,41.7333,672.0],[-5.7994,41.7352,681.0757],[-5.8022,41.7405,672.0],[-5.8239,41.7486,672.0],[-5.8289,41.7534,672.0],[-5.8254,41.7653,672.5],[-5.8258,41.7743,672.5],[-5.8225,41.7802,672.5],[-5.8111,41.7877,673.0],[-5.7972,41.7814,708.248],[-5.7867,41.7856,714.1755],[-5.7535,41.7896,719.7721],[-5.7406,41.7934,720.4495],[-5.727,41.7923,720.6406],[-5.6988,41.7947,720.8896],[-5.6946,41.8025,724.0161],[-5.6952,41.8085,717.891],[-5.7018,41.8261,717.2369],[-5.7077,41.8263,718.2828],[-5.6898,41.8362,719.1035],[-5.7122,41.835,728.9383],[-5.733,41.829,732.0886],[-5.7387,41.8286,736.2299],[-5.7575,41.8324,729.5273],[-5.7693,41.8425,739.3887],[-5.7673,41.8478,727.6526],[-5.7697,41.8553,715.1642],[-5.7781,41.8639,739.2079],[-5.7791,41.8673,754.0246],[-5.7862,41.8663,687.0162],[-5.838,41.8752,783.4186],[-5.8474,41.8787,785.9097],[-5.8905,41.888,770.4955],[-5.9046,41.8853,796.6976],[-5.9054,41.8879,794.9881],[-5.9224,41.8869,786.9242],[-5.9286,41.8881,798.2715],[-5.9289,41.891,812.9148],[-5.9427,41.8979,768.003],[-5.9523,41.8982,799.4826],[-5.9582,41.8939,821.833],[-5.9623,41.896,808.9537],[-5.9872,41.8991,863.0435],[-5.9879,41.9028,844.8403],[-5.9927,41.9053,868.0573],[-5.9919,41.922,750.4283],[-5.999,41.9317,792.8646],[-6.0024,41.9332,799.0756],[-6.0105,41.9303,798.9669],[-6.0159,41.9315,794.2943],[-6.0269,41.9232,798.5281],[-6.0339,41.9202,806.2602],[-6.0798,41.9292,793.8986],[-6.0997,41.9285,819.6304],[-6.1112,41.931,823.6693],[-6.1157,41.9234,985.5534],[-6.1301,41.9221,939.99],[-6.1336,41.9244,952.1628],[-6.1489,41.9281,992.0945],[-6.1521,41.9267,1005.6413],[-6.1551,41.9225,1041.7697],[-6.1632,41.9205,974.775],[-6.1679,41.9135,1063.2649],[-6.1364,41.8974,862.5008],[-6.144,41.8732,1119.0215],[-6.1519,41.8709,1103.5731],[-6.1577,41.874,1102.3947],[-6.1778,41.8789,1122.9677],[-6.1901,41.8841,1157.0035],[-6.2021,41.8832,1060.7344],[-6.2105,41.8808,1007.9029],[-6.214,41.879,1048.9618],[-6.2146,41.8769,1096.6879],[-6.2532,41.8932,1163.9027],[-6.2559,41.891,1118.801],[-6.2742,41.8927,1169.2224],[-6.2769,41.8898,1120.1665],[-6.2823,41.8882,1147.6379],[-6.3024,41.8963,1149.3066],[-6.3176,41.8964,1137.724],[-6.3274,41.9004,1130.3621],[-6.3249,41.9286,849.2507],[-6.326,41.9302,840.988],[-6.3372,41.9353,832.235],[-6.3399,41.9329,834.0378],[-6.3432,41.9342,855.4493],[-6.3522,41.9402,862.1505],[-6.3672,41.9554,926.2052],[-6.374,41.9537,913.7782],[-6.3749,41.9523,913.7782],[-6.3743,41.9336,849.7274],[-6.3807,41.9335,855.8813],[-6.388,41.937,850.8897],[-6.4012,41.921,1025.2841],[-6.406,41.924,983.2354],[-6.4122,41.9225,1089.6263],[-6.4213,41.9229,1113.2458],[-6.423,41.9204,1138.9628],[-6.4341,41.9205,1049.6841],[-6.4444,41.9263,1100.6536],[-6.4663,41.9308,1132.0181],[-6.4673,41.9259,1191.8302],[-6.4658,41.9227,1210.1771],[-6.4874,41.9245,1048.3411],[-6.504,41.9236,1011.3821],[-6.5389,41.9252,862.186],[-6.5458,41.9307,732.2117],[-6.5499,41.9293,717.4548],[-6.5476,41.9277,708.1577],[-6.5501,41.926,710.0462],[-6.5488,41.9233,723.3019],[-6.5577,41.9103,803.2414],[-6.5569,41.9074,786.368],[-6.5613,41.8959,741.085],[-6.5658,41.894,799.9532],[-6.5712,41.8835,875.9182],[-6.5378,41.8767,763.5011],[-6.5176,41.8751,701.2341],[-6.5155,41.8716,631.272],[-6.5201,41.8648,627.859],[-6.5257,41.8601,623.2178],[-6.5224,41.8541,620.4373],[-6.5275,41.8498,624.6335],[-6.5283,41.8469,678.02],[-6.526,41.843,640.3705],[-6.53,41.8399,609.179],[-6.5322,41.8354,619.2632],[-6.532,41.8331,608.772],[-6.5287,41.8308,603.6925],[-6.5303,41.8288,631.3685],[-6.5283,41.8282,601.166],[-6.5315,41.8226,598.6735],[-6.5274,41.8208,592.9257],[-6.5358,41.8181,598.2782],[-6.5331,41.8156,601.2441],[-6.5333,41.814,593.601],[-6.5386,41.8127,620.614],[-6.5371,41.8075,579.5577],[-6.5428,41.8055,581.7491],[-6.5391,41.8013,582.0139],[-6.5432,41.8003,574.0284],[-6.543,41.7964,587.1193],[-6.547,41.795,602.4446],[-6.5434,41.7891,589.7834],[-6.5438,41.7839,588.4219],[-6.5472,41.78,599.4681],[-6.5436,41.7785,584.3965],[-6.5497,41.7768,561.0466],[-6.5501,41.773,573.8887],[-6.5551,41.7672,575.795],[-6.5552,41.7575,542.5574],[-6.5582,41.7534,566.2758],[-6.5647,41.7515,543.5561],[-6.5689,41.7436,538.3032],[-6.5665,41.7417,545.6652],[-6.5614,41.7418,546.215],[-6.5592,41.7384,559.1147],[-6.556,41.7374,534.2914],[-6.5577,41.7345,542.2812],[-6.5553,41.7252,579.6594],[-6.5517,41.7265,528.7792],[-6.5488,41.7255,531.9742],[-6.5549,41.721,526.8855],[-6.5501,41.7186,542.0978],[-6.5537,41.7168,582.425],[-6.5486,41.7143,557.1471],[-6.5483,41.7128,535.8045],[-6.5502,41.7115,525.1058],[-6.546,41.7077,524.5208],[-6.5471,41.7042,551.8027],[-6.5431,41.704,551.0109],[-6.5425,41.7011,538.4848],[-6.5453,41.6986,539.1991],[-6.5495,41.7023,546.1392],[-6.5522,41.7023,542.5167],[-6.5544,41.7009,525.8667],[-6.5549,41.6982,508.2992],[-6.553,41.6956,516.2446],[-6.5538,41.6933,514.6688],[-6.5483,41.6856,724.1345],[-6.5417,41.6805,677.8475],[-6.5343,41.6766,681.6088],[-6.5276,41.6753,761.5093],[-6.519,41.6689,800.6046],[-6.5125,41.6612,737.0226],[-6.4995,41.6571,795.9622],[-6.4887,41.6575,747.6427],[-6.4694,41.6662,755.9008],[-6.4573,41.6666,798.8372],[-6.4525,41.6754,825.3302],[-6.4523,41.6809,922.267],[-6.4443,41.6848,928.8862],[-6.4405,41.6844,928.2437],[-6.4362,41.6807,949.8809],[-6.4343,41.6821,930.9376],[-6.4256,41.6794,885.6777],[-6.4137,41.6785,773.3074],[-6.406,41.6809,848.9387],[-6.396,41.6772,879.4678],[-6.3745,41.6737,820.14],[-6.3546,41.6764,883.7772],[-6.3,41.6609,894.6824],[-6.283,41.6523,874.3392],[-6.2544,41.633,873.1915],[-6.2358,41.607,763.1519],[-6.2301,41.6037,766.0759],[-6.2087,41.5991,726.4099],[-6.2014,41.5945,758.909],[-6.1969,41.5895,681.0624],[-6.196,41.5846,681.9463],[-6.1892,41.575,546.5139],[-6.176,41.5771,572.2155],[-6.1733,41.5812,609.0756],[-6.1588,41.5816,562.25],[-6.1502,41.5771,562.5],[-6.148,41.5675,570.3506],[-6.1307,41.5638,652.2461],[-6.1274,41.5579,584.7974],[-6.1081,41.5533,565.0961],[-6.11,41.5247,593.9326],[-6.1062,41.5209,593.3616],[-6.0972,41.5191,577.1121],[-6.0916,41.5207,609.3488],[-6.0875,41.5194,608.3947],[-6.0837,41.5153,588.7037],[-6.0849,41.5017,578.399],[-6.0924,41.4919,568.1277],[-6.0905,41.4893,575.5303],[-6.086,41.4882,570.085],[-6.0849,41.4917,592.2977],[-6.0805,41.4943,596.5],[-6.0703,41.4822,608.5677],[-6.0587,41.4757,611.6334],[-6.0523,41.4814,610.7707],[-6.0502,41.4861,606.9573],[-6.0398,41.4906,604.0177],[-6.0278,41.4905,627.4075],[-6.0215,41.4951,624.5087],[-6.0146,41.4958,619.5714],[-6.0041,41.491,602.4422],[-5.998,41.4961,599.0],[-5.9888,41.5151,651.5751],[-6.0002,41.5161,750.9883],[-6.0045,41.5221,757.2017],[-6.0109,41.5258,768.134],[-6.0106,41.5326,775.9944],[-6.0206,41.5416,788.9193],[-6.019,41.5432,786.3834],[-6.0229,41.5543,777.7949],[-6.0248,41.556,783.1226]]]]}}