{"type":"Feature","properties":{"featurecla":"River","scalerank":9,"rivernum":1120,"dissolve":"1120River","name":"Segre1","name_alt":null,"note":null,"min_zoom":7.1,"strokeweig":0.2,"name_en":"Segre","min_label":8.1},
"geometry":{"type": "LineString","coordinates": [[1.551171875000023,42.377801824994116,1346.6519],[1.4833984375,42.373553778119117,1148.6853],[1.44970703125,42.367206121869117,735.8656],[1.420166015625,42.35297272343162,716.6498],[1.380273437500023,42.32684967655662,703.3357],[1.362939453125023,42.311151434369116,768.203],[1.3515625,42.29071686405662,612.0646],[1.300439453125023,42.078973699994116,440.7327],[1.294091796875023,42.06452057499412,476.2371],[1.2333984375,41.97589752811912,483.4181],[1.213525390625023,41.95404694218162,424.6736],[1.187255859375,41.93427155155662,450.1275],[1.164794921875,41.927264715619117,356.346],[1.034814453125023,41.910272528119116,332.7257],[0.967187500000023,41.913934637494116,302.3867],[0.932519531250023,41.911395574994117,298.8358],[0.901025390625023,41.90021393436912,659.8525],[0.835693359375,41.85455963749412,245.7434],[0.825097656250023,41.84528229374412,229.0],[0.812890625000023,41.825946356244117,230.3548],[0.788964843750023,41.760028387494117,208.6385],[0.771484375,41.73505280155662,192.6868],[0.705810546875,41.67035553593162,171.81],[0.679443359375,41.65680573124412,161.1009],[0.65771484375,41.64154694218162,154.1973],[0.6171875,41.602655340619116,139.672],[0.610498046875023,41.593768621869117,141.8165],[0.606103515625023,41.58649323124412,134.512],[0.599853515625,41.58026764530662,129.9499],[0.587646484375,41.57428619999412,128.9786],[0.577539062500023,41.572040106244117,132.5974],[0.557861328125,41.571405340619116,126.5797],[0.548242187500023,41.569842840619117,129.8789],[0.524169921875,41.557635809369117,120.168],[0.470117187500023,41.498895574994116,104.3585],[0.337060546875023,41.406756903119117,77.0673],[0.312402343750023,41.37250397343162,126.8858]]}}