{"type":"Feature","properties":{"featurecla":"River","scalerank":5,"rivernum":155,"dissolve":"155River","name":"Ebro2","name_alt":null,"note":null,"min_zoom":4.7,"strokeweig":0.25,"name_en":"Ebro","min_label":5.7},
"geometry":{"type": "LineString","coordinates": [[-1.7476074218749891,42.23590729374412,272.3427],[-1.727148437499977,42.23139069218162,269.6868],[-1.691748046874977,42.21283600468162,266.0258],[-1.66875,42.208612371869116,263.5134],[-1.6552734375,42.203876043744117,265.3421],[-1.585058593749977,42.15265534061912,258.9943],[-1.579931640624977,42.141717840619116,258.8683],[-1.583105468749977,42.102167059369116,256.0135],[-1.578222656249977,42.08893463749412,272.4965],[-1.566650390625,42.07684967655662,273.5034],[-1.5421630859374891,42.05780670780662,331.1458],[-1.512792968749977,42.039667059369116,288.2303],[-1.4399902343749891,42.012811590619116,294.3869],[-1.4111816406249891,41.996356512494117,320.1895],[-1.2910644531249891,41.89240143436912,236.3428],[-1.2536132812499829,41.87470123905662,227.1742],[-1.250732421875,41.872821356244117,226.1787],[-1.2445800781249829,41.87091705936912,225.936],[-1.229101562499977,41.86078522343162,222.9915],[-1.210546874999977,41.844501043744117,220.5732],[-1.1926757812499891,41.83808014530662,219.8274],[-1.183349609375,41.836444403119117,220.6997],[-1.1630371093749829,41.835565496869116,304.9081],[-1.151708984374977,41.83185455936912,256.2586],[-1.14501953125,41.82465241093162,301.2549],[-1.142333984375,41.815545965619116,288.5969],[-1.1382324218749891,41.80780670780662,294.3672],[-1.127197265625,41.80451080936912,267.6976],[-1.086279296874977,41.80451080936912,330.2437],[-1.08251953125,41.80243561405662,351.5947],[-1.0830078125,41.79303619999412,211.2736],[-1.0791015625,41.790887762494116,209.7316],[-1.0735351562499891,41.792254949994117,215.0694],[-1.066015624999977,41.79730866093162,251.3584],[-1.062353515624977,41.79706452030662,273.9032],[-1.004980468749977,41.75592682499412,363.935],[-0.990332031249977,41.749872137494116,347.4016],[-0.971777343749977,41.74579498905662,296.2402],[-0.954687499999977,41.73554108280662,269.6059],[-0.925146484374977,41.70892975468162,236.8906],[-0.921142578125,41.70709869999412,267.8179],[-0.908203125,41.70331452030662,299.8501],[-0.904736328124983,41.70148346561912,310.6306],[-0.903759765624983,41.697040106244117,245.749],[-0.904541015625,41.69098541874412,199.8955],[-0.907177734374983,41.686786199994117,197.8614],[-0.911474609374977,41.68781159061912,198.1027],[-0.909716796874989,41.68512604374412,197.7174],[-0.906420898437489,41.67706940311912,193.6587],[-0.904736328124983,41.674188543744116,194.8758],[-0.899755859374977,41.67255280155662,199.9897],[-0.886181640624983,41.673456121869116,202.4051],[-0.880468749999977,41.670770574994116,197.5689],[-0.8720703125,41.66474030155662,203.0492],[-0.861865234374989,41.66168854374412,208.2928],[-0.839453124999977,41.660516668744116,196.407],[-0.834326171874977,41.65680573124412,193.8726],[-0.815283203124977,41.63263580936912,187.3738],[-0.795996093749977,41.618670965619117,184.1326],[-0.7265625,41.58539459843162,177.1548],[-0.637792968749977,41.56122467655662,169.4267],[-0.624316406249989,41.561053778119117,172.6678],[-0.567480468749977,41.53119537968162,179.6585],[-0.558349609375,41.52338287968162,171.4311],[-0.547460937499977,41.51691315311912,165.5458],[-0.531201171874983,41.488788153119117,164.3016],[-0.51708984375,41.48236725468162,159.9173],[-0.500292968749989,41.48053619999412,162.7332],[-0.489062499999989,41.47455475468162,160.7529],[-0.486083984375,41.46393463749412,158.2705],[-0.49375,41.448260809369117,156.7358],[-0.4794921875,41.449725653119117,155.6497],[-0.468505859375,41.448846746869116,156.6381],[-0.461474609374989,41.443377996869117,172.2042],[-0.459033203124989,41.43121979374412,165.5754],[-0.458349609374977,41.41449616093162,155.7441],[-0.455908203124977,41.40534088749412,151.1045],[-0.441943359374989,41.38996002811912,173.7356],[-0.419531249999977,41.37238190311912,213.3749],[-0.413818359375,41.365985418744117,219.091],[-0.410937499999989,41.35455963749412,215.5704],[-0.411718749999977,41.34223053593162,211.8699],[-0.410888671875,41.330829168744117,145.9848],[-0.403076171875,41.322040106244117,175.9008],[-0.394140624999977,41.32001373905662,189.4845],[-0.361914062499977,41.322381903119116,176.8013],[-0.322363281249977,41.318231512494116,212.0819],[-0.28564453125,41.320917059369116,251.3964],[-0.273535156249977,41.31976959843162,210.8227],[-0.243408203125,41.311639715619116,162.5329],[-0.134033203125,41.30121491093162,177.4524],[-0.058056640624983,41.277606512494117,145.5326],[-0.030322265624989,41.276385809369117,152.3667],[-0.003759765624977,41.27057526249412,134.3531],[0.0048828125,41.27155182499412,116.0],[0.01171875,41.27789948124412,116.0],[0.013330078125023,41.28534577030662,133.4511],[0.010058593750017,41.300799871869117,116.0],[0.010546875000017,41.308124090619117,116.0],[0.015039062500023,41.316278387494116,130.9438],[0.020166015625023,41.31842682499412,171.7499],[0.026269531250023,41.31647369999412,171.5152],[0.041162109375023,41.30805084843162,128.6531],[0.047900390625017,41.30585358280662,140.4632],[0.055273437500006,41.30670807499412,116.0],[0.0640625,41.31146881718162,132.9756],[0.069531250000011,41.316669012494117,116.0],[0.078369140625,41.32855866093162,121.1119],[0.082910156250023,41.33331940311912,117.378],[0.091064453125,41.33734772343162,115.5],[0.099316406250011,41.338153387494117,115.5],[0.107861328125011,41.33795807499412,129.6143],[0.116845703125023,41.33869049686912,115.5],[0.1279296875,41.34747955936912,160.2307],[0.13037109375,41.36347077030662,150.5054],[0.130517578125023,41.38190338749412,139.6653],[0.134765625,41.398065496869116,147.8469],[0.146484375,41.409442449994117,204.3471],[0.161376953125,41.41449616093162,229.6926],[0.228662109375023,41.41437409061912,181.3014],[0.244531250000023,41.411639715619117,316.4329],[0.2607421875,41.403924871869116,322.3481],[0.2880859375,41.382098699994117,216.7322],[0.297998046875023,41.376092840619116,123.1319],[0.30712890625,41.37299225468162,68.5],[0.3349609375,41.36884186405662,240.9603],[0.3515625,41.362420965619116,184.444],[0.364892578125023,41.35248444218162,202.5341],[0.373779296875,41.33881256718162,153.1848],[0.377099609375023,41.32135651249412,209.5152],[0.352197265625023,41.27912018436912,211.0589],[0.35400390625,41.25617096561912,68.5],[0.39501953125,41.25433991093162,159.0591]]}}