{"type": "Feature","bbox": [-2.9499,36.9715,-2.4434,37.2801],"geometry": {"type": "MultiPolygon","coordinates": [[[[-2.5424,36.9749,247.1401],[-2.5423,36.9819,249.2324],[-2.5379,36.9884,269.7023],[-2.5364,37.0008,314.4289],[-2.5383,37.0168,349.7365],[-2.5362,37.0224,366.3914],[-2.5384,37.0245,373.5998],[-2.5378,37.0328,394.7887],[-2.5333,37.0378,440.3312],[-2.5336,37.0416,421.7252],[-2.532,37.0442,437.1586],[-2.5161,37.0439,514.8503],[-2.5108,37.0422,532.4038],[-2.5059,37.0439,593.5469],[-2.5053,37.0407,610.7281],[-2.4837,37.0519,418.0529],[-2.4824,37.0546,475.5309],[-2.4869,37.0571,450.2287],[-2.4889,37.0606,466.5572],[-2.4788,37.0581,490.2992],[-2.4785,37.0711,479.4632],[-2.4748,37.0754,490.4899],[-2.4749,37.0779,508.9736],[-2.4783,37.0795,505.98],[-2.4803,37.0832,527.7881],[-2.4768,37.0879,556.9983],[-2.4644,37.0967,718.0142],[-2.4586,37.109,784.2155],[-2.4457,37.1229,943.4169],[-2.4434,37.129,1026.6766],[-2.448,37.1417,1023.9661],[-2.4509,37.14,986.4152],[-2.4564,37.141,899.5108],[-2.4602,37.132,813.3232],[-2.4648,37.1322,794.2048],[-2.4734,37.128,700.7648],[-2.475,37.1288,747.4034],[-2.474,37.1309,775.6636],[-2.4825,37.1334,822.3739],[-2.4847,37.1391,951.8017],[-2.4838,37.1416,965.0087],[-2.4914,37.1506,1112.5601],[-2.4944,37.1577,1200.4807],[-2.5027,37.1631,1216.4783],[-2.5062,37.1628,1250.9731],[-2.5114,37.1668,1258.8973],[-2.5194,37.1781,1369.8916],[-2.528,37.1964,1639.6124],[-2.5252,37.2147,2036.032],[-2.5303,37.2201,2103.8555],[-2.5385,37.222,2108.4556],[-2.5486,37.2216,2150.156],[-2.5513,37.2415,1596.8754],[-2.5561,37.2477,1442.531],[-2.5649,37.2515,1385.0902],[-2.57,37.2452,1648.7532],[-2.5763,37.2471,1670.4497],[-2.5788,37.2456,1682.3771],[-2.6063,37.2419,1894.0625],[-2.6192,37.2423,1680.2107],[-2.6506,37.2352,1946.7706],[-2.6575,37.229,1915.9246],[-2.66,37.212,1985.9888],[-2.6643,37.2118,2014.6508],[-2.669,37.2172,2032.563],[-2.6767,37.216,2076.0557],[-2.6905,37.2185,2028.9626],[-2.6924,37.2172,2028.9626],[-2.6936,37.2204,2020.7332],[-2.6993,37.2228,1952.9778],[-2.7048,37.2228,1929.8656],[-2.7066,37.2251,1930.3427],[-2.7098,37.2255,1947.4524],[-2.7105,37.2288,1932.1648],[-2.7184,37.2338,1897.4404],[-2.7252,37.2312,1924.9492],[-2.7303,37.2329,1920.332],[-2.7329,37.2374,1957.9807],[-2.7364,37.2323,1903.1431],[-2.7398,37.2307,1880.676],[-2.7399,37.2288,1874.73],[-2.7589,37.2268,1922.7957],[-2.7646,37.2317,1920.5408],[-2.762,37.2331,1926.5796],[-2.7679,37.2379,1914.7789],[-2.7721,37.2393,1927.1149],[-2.7785,37.2517,2051.2026],[-2.7746,37.2537,2033.0138],[-2.779,37.2569,2028.79],[-2.7771,37.2601,2006.6398],[-2.7789,37.2627,2013.1281],[-2.7944,37.2634,1958.8979],[-2.8021,37.2682,2011.4296],[-2.8148,37.2709,1903.9677],[-2.8193,37.2784,1866.9968],[-2.8303,37.2801,1871.5928],[-2.8346,37.2778,1821.0396],[-2.8453,37.2793,1730.4059],[-2.851,37.2762,1691.3203],[-2.8557,37.2683,1568.8171],[-2.8555,37.2644,1550.3328],[-2.8597,37.2538,1448.3872],[-2.859,37.2505,1362.3219],[-2.8638,37.2471,1451.0271],[-2.8693,37.2456,1492.189],[-2.8664,37.2431,1507.488],[-2.8747,37.2318,1294.3718],[-2.8751,37.2245,1241.1884],[-2.8727,37.2199,1206.6592],[-2.8802,37.204,1089.9408],[-2.8791,37.1926,1017.5885],[-2.8809,37.1871,991.1365],[-2.8827,37.1879,992.9984],[-2.888,37.183,1058.8481],[-2.8896,37.1762,1094.3575],[-2.8952,37.1671,1131.0089],[-2.9112,37.1633,1192.2799],[-2.9146,37.1585,1368.7764],[-2.9282,37.1573,1445.632],[-2.9293,37.1561,1482.9111],[-2.9283,37.1525,1452.5952],[-2.9313,37.1434,1687.4561],[-2.9305,37.1398,1746.2814],[-2.9336,37.1353,1837.3052],[-2.9369,37.1347,1819.0771],[-2.9408,37.1307,1730.9298],[-2.9416,37.1247,1754.7278],[-2.944,37.1224,1803.788],[-2.9469,37.1222,1823.7584],[-2.9436,37.1187,1828.2469],[-2.9428,37.1112,1942.3137],[-2.9457,37.1066,2088.1924],[-2.9482,37.1062,2097.7153],[-2.9499,37.0995,2271.4448],[-2.9489,37.0966,2333.7156],[-2.9396,37.0969,2314.2183],[-2.9257,37.0908,2433.4604],[-2.9184,37.0921,2300.5149],[-2.9118,37.0881,2491.115],[-2.9079,37.0909,2405.6973],[-2.9049,37.0903,2403.0376],[-2.9012,37.0922,2370.4146],[-2.8954,37.0903,2462.1226],[-2.8897,37.0922,2426.2524],[-2.8836,37.0905,2385.4531],[-2.8786,37.0912,2405.7007],[-2.8653,37.0844,2372.8005],[-2.8542,37.0828,2440.5447],[-2.8514,37.0805,2407.1553],[-2.8455,37.0816,2352.2749],[-2.8351,37.0795,2358.8794],[-2.8289,37.0825,2300.9236],[-2.8122,37.0836,2243.0762],[-2.804,37.0816,2162.1321],[-2.7974,37.0879,1871.3273],[-2.7974,37.0927,1846.4657],[-2.7912,37.0956,1819.3792],[-2.7844,37.0935,1777.0762],[-2.7859,37.0904,1762.0272],[-2.7761,37.0898,1756.8767],[-2.7688,37.0867,1636.958],[-2.7437,37.0842,1336.1876],[-2.7386,37.0859,1277.8237],[-2.7299,37.0817,1239.2227],[-2.7177,37.0813,1462.3868],[-2.7032,37.0727,1696.6461],[-2.6913,37.0683,1505.0359],[-2.6845,37.0537,1254.6211],[-2.672,37.0347,854.8312],[-2.6624,37.027,698.1046],[-2.6459,37.0272,639.5955],[-2.6422,37.0232,607.8281],[-2.6339,37.0191,528.7308],[-2.6327,37.0147,525.7107],[-2.6282,37.0138,483.2974],[-2.6226,37.0083,477.3741],[-2.6141,37.0068,406.667],[-2.6133,37.0048,417.1697],[-2.6032,37.0001,389.3943],[-2.5969,36.995,370.3464],[-2.5941,36.9893,327.813],[-2.5891,36.9875,276.8976],[-2.5889,36.981,263.0204],[-2.5733,36.98,254.9079],[-2.5668,36.9764,251.0647],[-2.5611,36.9777,300.9637],[-2.5528,36.9735,229.2684],[-2.5428,36.9715,225.1293],[-2.5424,36.9749,247.1401]]]]}
,"properties": {"GID_3": "ESP.1.1.3_1","GID_0": "ESP","country": "Spain","GID_1": "ESP.1_1","province": "Andalucía","NL_NAME_1": "NA","GID_2": "ESP.1.1_1","county": "Almería","NL_NAME_2": "NA","city": "n.a.(17)","VARNAME_3": "NA","NL_NAME_3": "NA","TYPE_3": "Comarca","ENGTYPE_3": "Comarca","CC_3": "NA","HASC_3": "NA","name": "n.a.(17).city","area_km2": 780.5367,"hist_schema_id": "Elevation0-9000","hist_area_km2": {"225": 0.1186,"250": 0.6098,"275": 1.3549,"300": 2.1845,"325": 3.4374,"350": 4.978,"375": 5.3333,"400": 5.096,"425": 5.2819,"450": 5.2981,"475": 6.2962,"500": 7.091,"525": 9.392,"550": 8.6467,"575": 9.3736,"600": 10.9633,"625": 10.9284,"650": 10.6739,"675": 13.3449,"700": 17.3678,"725": 24.0968,"750": 26.8851,"775": 22.6061,"800": 19.1215,"825": 18.6799,"850": 18.6613,"875": 18.5242,"900": 18.2193,"925": 18.2187,"950": 17.3222,"975": 15.9523,"1000": 16.0542,"1025": 15.1238,"1050": 15.0058,"1075": 14.701,"1100": 13.7044,"1125": 13.6201,"1150": 12.9105,"1175": 13.1129,"1200": 13.045,"1225": 12.9268,"1250": 11.862,"1275": 12.0473,"1300": 11.7947,"1325": 11.2705,"1350": 10.7457,"1375": 11.0501,"1400": 10.4069,"1425": 9.0723,"1450": 9.2749,"1475": 8.2947,"1500": 7.8556,"1525": 7.8382,"1550": 8.0245,"1575": 7.4665,"1600": 7.9737,"1625": 8.1925,"1650": 7.2808,"1675": 7.348,"1700": 7.3134,"1725": 8.0743,"1750": 7.4998,"1775": 8.6988,"1800": 8.4282,"1825": 8.1739,"1850": 8.7143,"1875": 9.2197,"1900": 9.6929,"1925": 11.3477,"1950": 6.4175,"1975": 4.4081,"2000": 3.0065,"2025": 2.4998,"2050": 2.196,"2075": 1.5375,"2100": 1.6388,"2125": 1.6897,"2150": 0.8959,"2175": 0.5581,"2200": 0.7103,"2225": 0.5412,"2250": 0.5074,"2275": 0.5412,"2300": 0.4905,"2325": 0.4059,"2350": 0.4567,"2375": 0.2875,"2400": 0.2875,"2425": 0.1522,"2450": 0.0338,"2475": 0.0338,"2500": 0.0169}}}