{"type":"Feature","properties":{"GID_3":"ESP.4.1.6_1","GID_0":"ESP","country":"Spain","GID_1":"ESP.4_1","province":"Castilla-LaMancha","NL_NAME_1":"NA","GID_2":"ESP.4.1_1","county":"Albacete","NL_NAME_2":"NA","city":"n.a.(8)","VARNAME_3":"NA","NL_NAME_3":"NA","TYPE_3":"Comarca","ENGTYPE_3":"Comarca","CC_3":"NA","HASC_3":"NA","name":"n.a.(8).city"},
"geometry":{"type": "MultiPolygon","coordinates": [[[[-2.3612,38.8516,1010.4582],[-2.3585,38.8539,1028.5356],[-2.3345,38.8566,977.9307],[-2.3141,38.8615,976.827],[-2.2978,38.8521,900.7913],[-2.2916,38.8413,989.4463],[-2.2823,38.8473,975.8738],[-2.2714,38.8497,952.7122],[-2.259,38.8581,929.2343],[-2.2536,38.8587,917.8091],[-2.2445,38.8663,915.2714],[-2.2388,38.8677,928.2174],[-2.2335,38.8665,904.8907],[-2.2024,38.8732,788.1248],[-2.1875,38.896,843.686],[-2.1676,38.9088,796.9755],[-2.155,38.9359,736.6831],[-2.1499,38.973,730.1955],[-2.2087,38.9646,770.9848],[-2.2186,38.9656,780.1356],[-2.2575,38.975,843.6004],[-2.2668,38.9866,822.6797],[-2.2737,39.0039,814.0466],[-2.281,39.0095,831.8126],[-2.2825,39.0172,833.095],[-2.2898,39.03,831.0083],[-2.2928,39.0424,844.777],[-2.2905,39.051,810.5301],[-2.292,39.0574,798.624],[-2.3003,39.0714,835.8721],[-2.2753,39.0835,784.8632],[-2.2404,39.1108,744.1113],[-2.2106,39.1041,726.8186],[-2.1803,39.1002,724.9756],[-2.0679,39.1287,700.8596],[-2.0556,39.1358,701.9863],[-2.0455,39.1349,702.3386],[-2.0375,39.1367,702.9669],[-2.0661,39.1534,704.0457],[-2.0568,39.1646,707.8236],[-2.0659,39.1798,710.2955],[-2.0632,39.1838,711.6671],[-2.0446,39.1936,715.5361],[-2.0386,39.1925,714.9027],[-2.0301,39.1876,712.7214],[-2.0138,39.1851,709.875],[-2.0103,39.1875,688.1462],[-2.0058,39.1965,652.6674],[-1.9986,39.1939,650.3514],[-1.9871,39.1953,652.8639],[-1.9825,39.1924,660.1932],[-1.9784,39.1871,646.1041],[-1.9676,39.1828,646.5538],[-1.9622,39.176,645.5918],[-1.9569,39.1726,647.2299],[-1.9477,39.1742,643.2783],[-1.9353,39.1801,644.1757],[-1.9321,39.1786,641.5662],[-1.9272,39.169,640.3864],[-1.9227,39.1681,650.7847],[-1.9198,39.1706,642.7928],[-1.9203,39.1761,644.0097],[-1.9054,39.1753,637.709],[-1.8973,39.1712,642.7437],[-1.8875,39.1711,641.0057],[-1.8819,39.1712,639.9365],[-1.8711,39.1747,637.4997],[-1.8664,39.1731,638.9426],[-1.8575,39.1755,642.0652],[-1.8468,39.1756,644.8685],[-1.8355,39.165,635.4133],[-1.8341,39.1598,628.9664],[-1.8312,39.158,636.7479],[-1.8263,39.1596,631.8738],[-1.8264,39.1681,663.4626],[-1.8243,39.1687,641.8299],[-1.8379,39.1924,698.3401],[-1.8471,39.2025,695.8934],[-1.857,39.2327,688.5857],[-1.8574,39.241,704.5928],[-1.8503,39.2586,716.9329],[-1.8451,39.2861,711.2776],[-1.8711,39.295,713.9503],[-1.887,39.3048,735.5037],[-1.9368,39.304,734.2048],[-1.9665,39.3001,724.1876],[-1.9897,39.2937,735.449],[-1.9947,39.3094,739.8128],[-2.0191,39.3258,739.0908],[-2.0289,39.3381,746.4728],[-2.0203,39.3519,758.975],[-2.0443,39.3592,759.0623],[-2.0545,39.3565,761.9088],[-2.0666,39.3555,758.7169],[-2.0811,39.3586,745.4692],[-2.0962,39.3589,679.9562],[-2.0905,39.3516,679.6143],[-2.0912,39.3493,677.6572],[-2.0862,39.3472,678.5656],[-2.0884,39.344,679.4712],[-2.0878,39.3394,680.1617],[-2.0824,39.3335,672.7504],[-2.0782,39.3321,676.4722],[-2.0773,39.3259,670.5554],[-2.0736,39.3211,670.6509],[-2.0732,39.3168,668.8512],[-2.0771,39.3127,668.7033],[-2.077,39.3077,667.6],[-2.071,39.3023,668.7914],[-2.0698,39.2989,666.659],[-2.0668,39.2981,667.9592],[-2.0674,39.2892,668.26],[-2.065,39.2864,675.1791],[-2.0594,39.2855,667.2661],[-2.0575,39.2776,663.3154],[-2.0587,39.2724,663.082],[-2.0509,39.2667,663.0407],[-2.0749,39.2661,727.087],[-2.1214,39.2746,740.0055],[-2.1521,39.2758,744.8431],[-2.1684,39.2811,735.9371],[-2.1786,39.2783,732.7559],[-2.1819,39.2735,735.1351],[-2.1818,39.2693,734.9041],[-2.2059,39.2664,728.502],[-2.208,39.2617,729.9399],[-2.2188,39.2615,731.6671],[-2.2453,39.2449,718.4092],[-2.2886,39.2267,714.4214],[-2.2917,39.2351,713.6802],[-2.2974,39.2412,717.0962],[-2.3025,39.2519,717.8245],[-2.3002,39.2591,724.2256],[-2.3018,39.2636,725.2823],[-2.315,39.2771,725.817],[-2.3198,39.2782,725.8135],[-2.3211,39.2838,728.8118],[-2.3291,39.2861,728.5372],[-2.3441,39.2822,724.0574],[-2.3501,39.2782,722.8809],[-2.3612,39.2561,714.6225],[-2.3596,39.2514,713.7241],[-2.361,39.2466,713.0344],[-2.3641,39.2452,714.9419],[-2.3692,39.2371,713.3989],[-2.374,39.2328,714.1708],[-2.3876,39.2453,713.2952],[-2.4184,39.2638,714.9634],[-2.4316,39.2771,712.1178],[-2.4538,39.2919,711.5552],[-2.4673,39.3065,711.6714],[-2.4825,39.3147,711.0206],[-2.511,39.3422,706.0427],[-2.5294,39.3276,706.3896],[-2.5324,39.3289,707.5316],[-2.5508,39.3235,697.895],[-2.5708,39.3283,709.1128],[-2.5851,39.3369,703.0568],[-2.5926,39.3392,702.1662],[-2.6192,39.3402,691.0424],[-2.6287,39.3342,693.991],[-2.6349,39.3268,692.9742],[-2.6487,39.3252,687.574],[-2.6529,39.3262,685.6102],[-2.6623,39.322,685.7998],[-2.6651,39.323,683.6613],[-2.6777,39.3207,684.9633],[-2.6837,39.3222,682.0406],[-2.6917,39.3179,689.2781],[-2.7021,39.3218,681.2407],[-2.7301,39.3209,678.0935],[-2.7422,39.3182,678.4364],[-2.7436,39.316,683.8777],[-2.7391,39.3085,676.4196],[-2.7367,39.2976,685.4352],[-2.7343,39.293,687.6154],[-2.7267,39.2864,683.0419],[-2.7233,39.2777,681.8888],[-2.722,39.2687,685.1237],[-2.7231,39.2648,686.3286],[-2.7303,39.255,693.514],[-2.7597,39.2304,696.9762],[-2.7711,39.2154,699.9887],[-2.7731,39.2094,700.5999],[-2.7823,39.1959,705.1862],[-2.8077,39.177,709.5037],[-2.8228,39.1535,719.2788],[-2.8426,39.1345,724.0084],[-2.8335,39.1209,750.1229],[-2.8341,39.1123,764.7012],[-2.8311,39.1053,771.735],[-2.8224,39.0927,792.8327],[-2.8156,39.0941,785.2377],[-2.8049,39.079,831.6005],[-2.8076,39.0717,843.2768],[-2.8059,39.0699,850.0959],[-2.8092,39.0543,864.0815],[-2.8068,39.0434,880.7753],[-2.8098,39.0239,960.6956],[-2.8167,39.0253,984.0524],[-2.8211,39.0232,971.315],[-2.8322,39.0233,951.6152],[-2.8374,39.0139,959.2399],[-2.8381,39.0038,919.8397],[-2.8439,38.9875,889.8524],[-2.8586,38.9751,880.5507],[-2.8654,38.9666,870.3097],[-2.8707,38.9657,841.6122],[-2.8725,38.96,785.1006],[-2.8801,38.9532,855.0891],[-2.8828,38.9385,906.595],[-2.8796,38.9364,907.4554],[-2.8761,38.9255,896.5861],[-2.867,38.9288,857.262],[-2.8576,38.9274,889.2282],[-2.8477,38.9206,897.4659],[-2.8421,38.9148,905.26],[-2.8399,38.9084,911.0901],[-2.8357,38.906,919.3329],[-2.8031,38.9082,864.9123],[-2.7992,38.9081,863.6588],[-2.7981,38.9058,865.9829],[-2.7924,38.9056,875.689],[-2.7929,38.8978,871.2423],[-2.7906,38.8916,885.3234],[-2.7841,38.8878,895.178],[-2.7721,38.8851,902.9175],[-2.7618,38.8804,900.1187],[-2.7612,38.8687,926.5916],[-2.7563,38.8678,953.2113],[-2.7549,38.8581,953.1475],[-2.7511,38.8484,962.9302],[-2.7492,38.8316,954.6697],[-2.7523,38.8232,957.6137],[-2.7526,38.8148,955.8159],[-2.7502,38.8071,965.9224],[-2.7344,38.7953,976.3477],[-2.7322,38.7819,965.8735],[-2.722,38.7838,973.09],[-2.7172,38.7944,982.5314],[-2.698,38.8144,965.0896],[-2.6722,38.8279,955.8976],[-2.6678,38.8268,966.0379],[-2.6661,38.8288,955.804],[-2.6636,38.8277,959.8873],[-2.659,38.8305,963.7473],[-2.657,38.8286,959.2214],[-2.6513,38.8293,962.0612],[-2.6439,38.8331,968.2651],[-2.6412,38.8306,972.207],[-2.6362,38.8324,968.1362],[-2.6327,38.8292,968.2422],[-2.6299,38.8297,968.5191],[-2.6277,38.8281,968.6823],[-2.617,38.8331,968.2771],[-2.6161,38.8378,966.7993],[-2.6137,38.8385,969.6708],[-2.6088,38.8373,969.8689],[-2.6049,38.8342,976.1458],[-2.6171,38.8454,986.4354],[-2.621,38.8539,977.0544],[-2.637,38.8727,974.8395],[-2.642,38.8765,975.6636],[-2.6371,38.8897,971.7162],[-2.6223,38.8982,977.2059],[-2.6116,38.89,973.9774],[-2.6011,38.8847,974.2213],[-2.5863,38.8808,982.0714],[-2.5796,38.8741,993.3683],[-2.5692,38.8715,986.0347],[-2.5508,38.8702,986.3729],[-2.5466,38.8683,987.6827],[-2.5208,38.8721,1004.9785],[-2.4979,38.8785,1068.9614],[-2.4674,38.8932,1029.1232],[-2.4526,38.9042,1043.1619],[-2.4373,38.9027,1030.72],[-2.4086,38.892,1019.8341],[-2.3997,38.8859,1025.8904],[-2.3809,38.8676,1005.0829],[-2.3795,38.8537,1009.1705],[-2.3763,38.8498,1005.6981],[-2.3763,38.8344,936.5323],[-2.3713,38.8433,983.1066],[-2.3612,38.8516,1010.4582]]]]}}