{"type": "Feature","bbox": [1.4731,41.1926,1.944,41.5133],"geometry": {"type": "MultiPolygon","coordinates": [[[[1.6821,41.2018,1.8833],[1.6879,41.204,1.4054],[1.6888,41.206,2.198],[1.6965,41.2079,2.3225],[1.7076,41.2071,0.8149],[1.7107,41.2096,3.6374],[1.7218,41.2132,1.7536],[1.7276,41.2129,0.206],[1.7285,41.2115,0.5455],[1.7271,41.2099,0.0],[1.7293,41.2076,0.0],[1.729,41.2096,1.7744],[1.7315,41.2129,0.0],[1.7307,41.2151,0.0],[1.7359,41.2154,0.3054],[1.7371,41.2113,2.2124],[1.7343,41.2113,0.5084],[1.7335,41.2085,0.0],[1.729,41.2065,0.0],[1.7313,41.2057,0.0],[1.7351,41.2099,0.3746],[1.7388,41.2104,0.0],[1.7365,41.2163,2.6146],[1.7515,41.2176,4.2258],[1.7524,41.2193,5.1667],[1.7624,41.2182,0.0],[1.7629,41.2196,2.8488],[1.7713,41.2204,0.0],[1.7771,41.2235,0.0],[1.7843,41.2232,0.0],[1.7971,41.2307,3.9937],[1.8062,41.2343,4.8725],[1.8126,41.234,8.1227],[1.814,41.236,4.8471],[1.8207,41.2357,8.3849],[1.821,41.2329,0.0],[1.8246,41.2318,0.0],[1.8274,41.2332,0.0],[1.8282,41.236,6.2295],[1.8549,41.2337,0.0],[1.8562,41.2354,0.0],[1.8604,41.2357,7.3549],[1.8618,41.239,5.4493],[1.8663,41.239,0.0],[1.8651,41.2363,0.0],[1.8663,41.2363,0.0],[1.8679,41.2371,0.0],[1.8671,41.2399,0.0],[1.8693,41.2421,11.7062],[1.8929,41.2493,62.9068],[1.9007,41.2487,0.0],[1.9037,41.254,10.1392],[1.9182,41.2568,0.0],[1.9218,41.2593,2.2452],[1.9232,41.2562,0.0],[1.9299,41.2585,0.0],[1.9288,41.2615,1.0197],[1.944,41.264,1.8234],[1.9395,41.2693,94.9603],[1.9373,41.2748,224.1802],[1.9433,41.2793,284.1249],[1.9427,41.2803,284.1249],[1.9316,41.2851,422.6103],[1.9258,41.2907,458.3381],[1.9149,41.2889,522.1049],[1.9084,41.2825,476.6141],[1.9056,41.2827,484.7657],[1.9014,41.2802,441.6626],[1.8892,41.2835,421.1701],[1.8856,41.2819,418.2482],[1.8858,41.28,421.925],[1.8828,41.2783,426.8171],[1.8714,41.2789,371.4221],[1.8693,41.2812,391.9943],[1.8729,41.2935,373.7239],[1.8692,41.2962,241.2774],[1.8636,41.2962,237.2876],[1.8597,41.2993,239.5831],[1.8585,41.2981,226.0278],[1.8551,41.2988,223.1575],[1.8468,41.306399999999996,290.8353],[1.8504,41.3162,495.3842],[1.8478,41.3194,521.4324],[1.8526,41.32,506.6025],[1.8608,41.3334,325.5912],[1.8716,41.3386,403.97],[1.8698,41.3427,502.8779],[1.8737,41.3443,500.5945],[1.8824,41.3439,617.2924],[1.8919,41.3505,553.2258],[1.8959,41.3515,595.3657],[1.8979,41.3548,557.2909],[1.8909,41.3629,414.6736],[1.8881,41.3708,468.8469],[1.8816,41.3732,588.3669],[1.8706,41.3807,431.7784],[1.8694,41.3872,493.0243],[1.8764,41.3895,500.0392],[1.8747,41.395,545.1826],[1.8776,41.4041,591.3938],[1.8825,41.4056,589.6248],[1.8851,41.4082,622.2891],[1.881,41.4118,594.658],[1.8825,41.4147,532.9456],[1.8878,41.418,491.9287],[1.8894,41.4225,580.4775],[1.8872,41.424,548.5341],[1.8916,41.4304,538.2695],[1.8948,41.4302,565.4258],[1.897,41.4334,475.3557],[1.894,41.4383,416.194],[1.877,41.4552,71.9283],[1.8817,41.4553,70.9969],[1.8838,41.459,81.8331],[1.8922,41.4622,60.896],[1.9093,41.4655,59.5275],[1.9113,41.4683,61.3357],[1.9066,41.4696,75.2311],[1.9058,41.4754,113.8117],[1.8973,41.4779,143.6034],[1.8992,41.4862,88.3141],[1.895,41.4862,94.6949],[1.8924,41.4897,124.9719],[1.8948,41.491,146.1806],[1.8934,41.4929,147.1184],[1.8981,41.493,121.4337],[1.8982,41.4958,123.3419],[1.8897,41.5012,163.7382],[1.8943,41.5034,126.3319],[1.9022,41.5012,117.7414],[1.905,41.5019,98.1546],[1.9028,41.5044,106.4429],[1.8862,41.508,137.2305],[1.8641,41.506,223.3355],[1.8556,41.5087,237.9251],[1.8517,41.5066,255.7204],[1.8451,41.507,280.1648],[1.8411,41.5047,264.1899],[1.8383,41.4984,282.5644],[1.835,41.4991,275.5371],[1.8326,41.4964,265.9112],[1.824,41.4816,158.6001],[1.8095,41.4808,214.6059],[1.8067,41.4735,267.6532],[1.8032,41.473,289.5002],[1.7932,41.4765,307.8982],[1.7926,41.4738,299.2007],[1.7979,41.4672,275.7675],[1.7874,41.4671,272.8402],[1.7799,41.4635,257.683],[1.7774,41.4648,215.0669],[1.7743,41.4631,198.625],[1.7762,41.4508,136.7685],[1.7689,41.4457,176.4099],[1.7493,41.4533,241.0137],[1.7516,41.4577,202.6666],[1.7415,41.4614,307.1173],[1.7374,41.4608,329.1125],[1.7296,41.4642,359.5408],[1.7252,41.4636,312.4536],[1.7222,41.4656,314.2828],[1.712,41.4677,331.6115],[1.7068,41.4728,333.6098],[1.7024,41.4742,285.8226],[1.6903,41.488,334.3442],[1.6799,41.5072,533.6912],[1.6682,41.5088,503.0206],[1.6656,41.5068,470.77],[1.635,41.5072,486.6099],[1.6151,41.5133,623.6106],[1.6059,41.513,714.0427],[1.61,41.5096,623.8652],[1.6106,41.5048,623.7887],[1.6021,41.5048,556.1176],[1.5995,41.5001,551.9395],[1.601,41.4995,524.5076],[1.5999,41.4969,493.1219],[1.6023,41.4952,501.291],[1.5827,41.4902,633.0682],[1.5785,41.4851,673.5063],[1.5707,41.4809,696.4952],[1.5703,41.4723,699.3311],[1.5844,41.4613,502.9382],[1.5914,41.4614,490.9699],[1.5942,41.4511,772.7705],[1.5721,41.4433,695.8835],[1.5712,41.4463,654.1624],[1.5642,41.4508,676.6887],[1.5539,41.4512,743.2391],[1.5517,41.4466,690.7855],[1.5438,41.4462,604.6217],[1.5422,41.4414,577.5352],[1.5367,41.4454,642.3832],[1.533,41.4417,623.3696],[1.5355,41.44,610.5641],[1.5225,41.4383,791.1984],[1.5107,41.4346,753.0005],[1.503,41.4281,721.0975],[1.4952,41.4356,910.0739],[1.4912,41.4354,862.2437],[1.4834,41.4303,826.4118],[1.4777,41.4332,828.7258],[1.4751,41.4295,831.3761],[1.4771,41.4235,729.1795],[1.4838,41.4222,705.2051],[1.4818,41.4167,674.365],[1.485,41.4135,686.7119],[1.4902,41.4015,787.2656],[1.4825,41.3986,660.2141],[1.4803,41.3879,687.7684],[1.4731,41.3808,561.3582],[1.4775,41.383,645.6426],[1.4786,41.3819,643.1919],[1.4847,41.3824,702.092],[1.4949,41.39,713.5947],[1.5052,41.3915,654.3192],[1.5093,41.3945,749.9821],[1.5119,41.3944,770.6748],[1.5189,41.3888,589.2278],[1.5311,41.3877,642.9173],[1.5368,41.3854,658.0939],[1.5457,41.3792,573.2417],[1.5468,41.3737,502.0743],[1.5522,41.3681,461.663],[1.5598,41.368,469.6344],[1.563,41.3698,408.972],[1.5694,41.3684,392.8593],[1.5705,41.3614,372.7086],[1.5741,41.3633,355.4948],[1.578,41.3625,364.1467],[1.5788,41.3564,312.2453],[1.5736,41.3554,343.6564],[1.5587,41.3432,541.3363],[1.5658,41.3397,463.0236],[1.5692,41.3326,402.4799],[1.5686,41.3305,366.2708],[1.5737,41.3249,290.4296],[1.5748,41.3152,254.8406],[1.5783,41.3159,227.9614],[1.5924,41.3116,201.42],[1.595,41.3094,207.9894],[1.5957,41.3076,206.2541],[1.5882,41.294,162.1296],[1.5959,41.2923,162.5225],[1.599,41.2893,155.0907],[1.6042,41.289,152.0404],[1.6028,41.2868,151.3867],[1.6074,41.2873,148.1946],[1.6089,41.2854,149.046],[1.6121,41.2852,146.6902],[1.6164,41.2931,144.8369],[1.6249,41.2967,157.9336],[1.6278,41.296,155.1569],[1.6312,41.2989,155.4871],[1.6368,41.296,148.5787],[1.6334,41.2945,144.188],[1.6278,41.2947,145.6436],[1.6292,41.2828,154.4757],[1.62,41.2771,128.85],[1.6238,41.2763,121.7898],[1.6236,41.2738,118.8816],[1.6259,41.273,117.2224],[1.6275,41.2696,125.7603],[1.6229,41.2668,125.8676],[1.6223,41.2639,134.1915],[1.6239,41.2626,157.2218],[1.621,41.2565,188.9636],[1.622,41.255,197.8377],[1.6197,41.2537,185.5879],[1.6177,41.2547,178.8429],[1.6166,41.2525,184.1928],[1.6114,41.2506,164.3844],[1.606,41.2504,172.2338],[1.6025,41.2534,150.0412],[1.597,41.2534,133.928],[1.5992,41.2563,132.6038],[1.595,41.2555,123.9834],[1.5962,41.2567,127.7489],[1.5935,41.258,119.1952],[1.5943,41.259,124.3973],[1.5851,41.2575,116.4298],[1.5702,41.2608,135.4145],[1.575,41.2562,114.5432],[1.5756,41.2497,101.7469],[1.5817,41.2372,89.7678],[1.5936,41.234,103.3652],[1.6026,41.2349,144.2343],[1.6142,41.2296,212.5654],[1.6142,41.226,192.6021],[1.6214,41.2232,164.2531],[1.6311,41.2245,124.1512],[1.6341,41.231,176.9126],[1.641,41.2354,166.7097],[1.6461,41.2288,131.7001],[1.644,41.2204,150.9564],[1.6476,41.2165,105.7424],[1.6479,41.2123,77.4264],[1.6532,41.2074,31.3394],[1.6463,41.2086,45.5856],[1.6466,41.2119,58.4628],[1.6413,41.2118,79.3559],[1.6408,41.2038,26.8662],[1.6452,41.1957,1.9817],[1.6543,41.1963,0.6702],[1.6535,41.1943,0.0695],[1.6487,41.1926,0.0],[1.6571,41.1935,0.0],[1.656,41.196,0.4257],[1.659,41.1968,0.3626],[1.6735,41.1974,0.2377],[1.6821,41.2018,1.8833]],
[[1.6397,41.3111,153.1213],[1.6354,41.3095,147.7818],[1.629,41.3107,148.6482],[1.6333,41.3135,153.3088],[1.6425,41.313,151.14],[1.6397,41.3111,153.1213]]]]}
,"properties": {"GID_3": "ESP.6.1.12_1","GID_0": "ESP","country": "Spain","GID_1": "ESP.6_1","province": "Cataluña","NL_NAME_1": "NA","GID_2": "ESP.6.1_1","county": "Barcelona","NL_NAME_2": "NA","city": "n.a.(38)","VARNAME_3": "NA","NL_NAME_3": "NA","TYPE_3": "Comarca","ENGTYPE_3": "Comarca","CC_3": "NA","HASC_3": "NA","name": "n.a.(38).city","area_km2": 796.4427,"hist_schema_id": "Elevation0-9000","hist_area_km2": {"0": 10.6215,"25": 19.9638,"50": 21.4901,"75": 18.964,"100": 23.7,"125": 31.9993,"150": 46.7807,"175": 65.4491,"200": 75.7773,"225": 82.423,"250": 68.2476,"275": 51.313,"300": 38.2634,"325": 31.1023,"350": 26.0412,"375": 23.7327,"400": 22.5528,"425": 18.2416,"450": 16.3449,"475": 18.4071,"500": 15.037,"525": 11.1737,"550": 7.756,"575": 6.9137,"600": 5.5473,"625": 6.263,"650": 5.9929,"675": 8.0124,"700": 5.7551,"725": 4.6265,"750": 3.5296,"775": 2.6552,"800": 1.1607,"825": 0.3656,"850": 0.159,"875": 0.0636,"900": 0.0159}}}