{"type": "Feature","bbox": [-3.2578,37.5958,-2.7742,38.0462],"geometry": {"type": "MultiPolygon","coordinates": [[[[-3.0266,37.6158,555.9451],[-3.0244,37.6117,565.7769],[-3.0218,37.6117,547.8771],[-3.0214,37.6101,548.5477],[-3.0033,37.6082,556.8551],[-3.0017,37.6057,601.4639],[-2.9953,37.6032,690.666],[-2.9897,37.6039,739.5621],[-2.9831,37.6015,797.906],[-2.9781,37.6028,826.571],[-2.9761,37.6064,806.3936],[-2.9843,37.6143,856.3599],[-2.9784,37.6169,840.9098],[-2.9739,37.6229,806.9581],[-2.9733,37.6253,808.2063],[-2.9778,37.634,830.6362],[-2.9381,37.65,844.7275],[-2.9195,37.6597,870.0616],[-2.9021,37.6657,905.7811],[-2.8911,37.6731,901.2957],[-2.8839,37.681399999999996,940.5351],[-2.8988,37.6848,902.0153],[-2.9014,37.6893,937.9532],[-2.904,37.7099,951.6487],[-2.9006,37.7232,943.7595],[-2.9012,37.7248,965.4077],[-2.9047,37.7251,857.7975],[-2.9071,37.7292,890.071],[-2.9023,37.739,977.2086],[-2.9037,37.7512,1062.5233],[-2.8992,37.7567,1157.7532],[-2.89,37.7615,1138.7495],[-2.8802,37.76,1083.2622],[-2.8747,37.7782,1318.4277],[-2.8759,37.7829,1292.2054],[-2.8726,37.7921,1079.8282],[-2.8599,37.8039,1263.1184],[-2.8573,37.8093,1369.2725],[-2.8473,37.8139,1743.2228],[-2.8435,37.8178,1813.1296],[-2.8405,37.8214,1831.1606],[-2.8395,37.8287,1893.4673],[-2.8343,37.8307,1916.1034],[-2.8332,37.8349,1927.8132],[-2.8288,37.8372,1957.2832],[-2.8304,37.8392,1944.8136],[-2.8271,37.844,1927.8147],[-2.8234,37.846,1881.0448],[-2.8199,37.852,1798.2736],[-2.8196,37.8555,1858.8539],[-2.8215,37.858,1825.3721],[-2.8177,37.8718,1908.5698],[-2.8195,37.8762,1970.7688],[-2.8061,37.881,1982.9163],[-2.7998,37.8893,1946.5405],[-2.7963,37.9007,1903.8667],[-2.7891,37.9074,1919.4146],[-2.785,37.9171,1948.8784],[-2.7742,37.9256,1932.5228],[-2.7756,37.93,1763.9852],[-2.7823,37.9334,1661.6909],[-2.7801,37.9431,1680.5372],[-2.7819,37.9452,1641.8943],[-2.7891,37.9448,1585.1875],[-2.7942,37.941,1558.9775],[-2.801,37.948,1481.9341],[-2.7993,37.9507,1559.1061],[-2.8,37.956,1468.2615],[-2.8051,37.9563,1412.2651],[-2.805,37.9588,1431.8464],[-2.8154,37.9656,1279.1864],[-2.8149,37.9682,1278.6754],[-2.8191,37.9694,1142.095],[-2.8185,37.9749,1039.0353],[-2.8142,37.9797,975.5009],[-2.8144,37.9864,952.2965],[-2.8163,37.988,948.6193],[-2.825,37.9889,998.8782],[-2.8289,37.9943,922.2152],[-2.8481,38.0021,877.4626],[-2.8498,38.0041,768.3407],[-2.8486,38.0057,915.6344],[-2.8512,38.0079,784.251],[-2.8588,38.0092,726.8846],[-2.8611,38.0154,719.9393],[-2.8675,38.0168,666.8647],[-2.8737,38.0097,680.9062],[-2.8728,38.0075,677.983],[-2.8778,38.0033,689.6924],[-2.8778,38.0007,683.4097],[-2.8806,37.9972,688.5769],[-2.8843,37.9968,699.573],[-2.8819,37.9994,707.4925],[-2.8844,38.0051,760.6412],[-2.8888,38.0085,818.4181],[-2.8977,38.0107,963.8457],[-2.902,38.0227,1462.0542],[-2.904,38.0237,1458.8427],[-2.9193,38.0168,1491.5664],[-2.9329,38.0236,1429.0254],[-2.937,38.0308,1335.2776],[-2.9427,38.0335,1212.9032],[-2.95,38.0338,1093.3009],[-2.9549,38.0378,1072.6389],[-2.9555,38.0405,1042.5601],[-2.9617,38.0393,1140.2778],[-2.9681,38.0401,1223.7217],[-2.9729,38.038,1251.9934],[-2.9784,38.0291,1211.3279],[-2.9926,38.0408,962.0256],[-2.9967,38.0419,991.5097],[-3.0096,38.0401,911.3278],[-3.0191,38.0413,780.8502],[-3.0282,38.0404,752.649],[-3.0403,38.0373,671.8396],[-3.0446,38.032,640.6147],[-3.0506,38.0313,643.0246],[-3.0527,38.0348,594.3512],[-3.0574,38.0357,516.28],[-3.0658,38.0426,442.1295],[-3.0738,38.0434,415.4899],[-3.0797,38.0462,415.0727],[-3.0877,38.0418,410.8937],[-3.0871,38.035,416.9366],[-3.0896,38.034,405.3236],[-3.0937,38.0353,407.0948],[-3.0988,38.0415,404.4274],[-3.1034,38.0413,405.5184],[-3.1093,38.0346,402.0152],[-3.112,38.0343,401.7253],[-3.1166,38.0356,402.0301],[-3.1177,38.0374,401.0424],[-3.116,38.0413,399.8002],[-3.1184,38.042,398.9123],[-3.1253,38.0318,399.0519],[-3.1354,38.0366,407.727],[-3.1377,38.0326,399.4781],[-3.1332,38.0268,391.583],[-3.1338,38.0246,390.3886],[-3.1482,38.0191,388.7269],[-3.144,38.0165,386.912],[-3.1436,38.0127,389.0957],[-3.1468,38.0111,393.0272],[-3.152,38.0137,385.5638],[-3.1585,38.0088,383.5418],[-3.1568,38.0042,383.6025],[-3.1515,38.001,378.9611],[-3.153,37.9984,387.4368],[-3.159,37.9962,376.5532],[-3.1606,37.9872,375.5465],[-3.1589,37.9799,387.1893],[-3.1727,37.9739,378.5812],[-3.1753,37.968,372.6532],[-3.1843,37.9667,376.1189],[-3.1855,37.9603,375.6659],[-3.1907,37.9587,363.2816],[-3.1928,37.9557,362.6066],[-3.1984,37.958,363.3233],[-3.2128,37.9507,359.238],[-3.2151,37.9562,365.4442],[-3.2186,37.9565,357.2274],[-3.2211,37.9519,357.3301],[-3.2186,37.9492,359.5818],[-3.2184,37.9452,375.4327],[-3.2291,37.9455,355.2743],[-3.2326,37.9473,364.9322],[-3.2364,37.944,353.6849],[-3.2359,37.9404,352.7331],[-3.2324,37.9394,351.894],[-3.2323,37.9353,370.9606],[-3.2363,37.934,348.6822],[-3.2383,37.9349,364.0444],[-3.2416,37.9381,352.1207],[-3.2414,37.9426,351.8477],[-3.2431,37.943,352.0616],[-3.25,37.9381,347.3816],[-3.2501,37.935,355.0863],[-3.2555,37.9352,349.6433],[-3.2578,37.9309,351.0446],[-3.2537,37.9298,348.1757],[-3.2543,37.9251,347.6765],[-3.2461,37.9291,348.4977],[-3.2466,37.9324,358.7766],[-3.2451,37.9327,353.7068],[-3.2435,37.9319,350.335],[-3.2436,37.9266,351.5701],[-3.2418,37.9255,351.0984],[-3.2361,37.9281,352.4806],[-3.2314,37.9282,353.3605],[-3.2304,37.9267,354.1466],[-3.2343,37.9186,361.1175],[-3.2273,37.9185,358.947],[-3.2222,37.9158,359.5187],[-3.2212,37.9096,369.5248],[-3.2234,37.9087,362.0884],[-3.2255,37.9044,361.9506],[-3.2239,37.9026,363.2524],[-3.2199,37.9021,364.3437],[-3.2171,37.9036,364.8912],[-3.2128,37.9027,366.5646],[-3.2159,37.8967,369.7665],[-3.2094,37.8904,371.7383],[-3.2133,37.8731,382.1031],[-3.2088,37.8706,383.3175],[-3.2085,37.8673,388.5616],[-3.2192,37.8613,381.9626],[-3.2165,37.8555,385.2845],[-3.2065,37.8555,412.1068],[-3.2039,37.8461,391.9323],[-3.208,37.8386,398.3403],[-3.2209,37.8356,420.3185],[-3.2264,37.8304,461.8257],[-3.2202,37.8216,522.2399],[-3.2235,37.8169,546.5106],[-3.2228,37.8104,609.5222],[-3.183,37.8014,636.0917],[-3.1664,37.785,554.6537],[-3.1644,37.78,563.5099],[-3.1489,37.769,511.1273],[-3.1631,37.755,573.7007],[-3.1661,37.7487,598.0462],[-3.1701,37.7471,628.8113],[-3.1862,37.7304,764.1687],[-3.197,37.7264,840.7426],[-3.1889,37.72,839.2625],[-3.1817,37.7165,849.8159],[-3.166,37.6933,906.5537],[-3.1602,37.6811,936.3456],[-3.1656,37.6619,948.4753],[-3.1585,37.6525,909.9895],[-3.1573,37.6415,837.4308],[-3.1493,37.6313,739.432],[-3.1477,37.626,729.4431],[-3.1249,37.6106,761.9636],[-3.0996,37.6055,707.3231],[-3.0993,37.6022,709.2759],[-3.0916,37.5966,635.6821],[-3.086,37.5958,627.1071],[-3.0837,37.5992,634.1084],[-3.0764,37.5993,615.5454],[-3.0734,37.6034,612.8909],[-3.0687,37.603,613.657],[-3.0691,37.6042,607.6793],[-3.0661,37.6042,605.8589],[-3.0662,37.6053,605.8589],[-3.0611,37.605,618.7851],[-3.0612,37.6067,596.9634],[-3.0578,37.6067,596.7146],[-3.0552,37.6111,588.8912],[-3.0564,37.6128,586.8693],[-3.052,37.6149,600.0717],[-3.0515,37.6182,581.6646],[-3.0479,37.6184,589.551],[-3.0434,37.6159,579.3636],[-3.0406,37.6179,572.9359],[-3.035,37.6186,563.6999],[-3.035,37.6174,563.6999],[-3.0309,37.6155,561.0981],[-3.0298,37.6162,559.1685],[-3.0286,37.6141,574.6663],[-3.0266,37.6158,555.9451]]]]}
,"properties": {"GID_3": "ESP.1.6.1_1","GID_0": "ESP","country": "Spain","GID_1": "ESP.1_1","province": "Andalucía","NL_NAME_1": "NA","GID_2": "ESP.1.6_1","county": "Jaén","NL_NAME_2": "NA","city": "AltoGuadalquivir","VARNAME_3": "NA","NL_NAME_3": "NA","TYPE_3": "Comarca","ENGTYPE_3": "Comarca","CC_3": "NA","HASC_3": "NA","name": "Alto_Guadalquivir.city","area_km2": 1333.198,"hist_schema_id": "Elevation0-9000","hist_area_km2": {"350": 3.344,"375": 9.548,"400": 23.413,"425": 34.663,"450": 41.044,"475": 41.748,"500": 41.266,"525": 45.61,"550": 41.608,"575": 43.007,"600": 43.502,"625": 41.554,"650": 40.939,"675": 42.351,"700": 38.886,"725": 36.458,"750": 35.554,"775": 37.047,"800": 42.701,"825": 43.509,"850": 33.519,"875": 29.261,"900": 28.758,"925": 20.519,"950": 19.464,"975": 24.005,"1000": 26.049,"1025": 18.518,"1050": 15.85,"1075": 15.865,"1100": 15.866,"1125": 14.611,"1150": 15.331,"1175": 14.645,"1200": 14.929,"1225": 14.042,"1250": 13.724,"1275": 13.524,"1300": 14.444,"1325": 13.539,"1350": 14.679,"1375": 13.272,"1400": 13.054,"1425": 13.222,"1450": 13.908,"1475": 13.658,"1500": 12.436,"1525": 12.184,"1550": 12.234,"1575": 12.786,"1600": 13.088,"1625": 12.352,"1650": 12.001,"1675": 10.226,"1700": 7.214,"1725": 7.081,"1750": 5.274,"1775": 5.19,"1800": 5.056,"1825": 4.302,"1850": 3.297,"1875": 3.347,"1900": 2.945,"1925": 2.142,"1950": 1.757,"1975": 0.803,"2000": 0.87,"2025": 0.318,"2050": 0.184,"2075": 0.1}}}