{"type": "Feature","bbox": [-2.3443,37.8685,-1.5789,38.3813],"geometry": {"type": "MultiPolygon","coordinates": [[[[-1.9879,37.8738,1068.3596],[-1.9826,37.8739,1006.3451],[-1.9744,37.8685,834.3692],[-1.9725,37.871,821.9664],[-1.9733,37.8796,832.2982],[-1.9351,37.9039,920.0485],[-1.894,37.9274,789.1052],[-1.8494,37.9598,878.7284],[-1.8225,37.9702,902.6257],[-1.8194,37.9699,892.0944],[-1.8081,37.9621,882.1838],[-1.7926,37.9542,956.8256],[-1.78,37.95,947.0973],[-1.7458,37.945,894.4353],[-1.733,37.9492,891.0986],[-1.7296,37.9525,898.8655],[-1.7244,37.9545,874.4564],[-1.7218,37.9595,859.5402],[-1.7026,37.9739,819.5463],[-1.672,37.988,854.548],[-1.6728,37.9904,852.7534],[-1.6633,37.9955,683.2109],[-1.6616,38.0016,654.9186],[-1.6314,38.0346,563.4482],[-1.6248,38.0391,536.4182],[-1.6194,38.0485,556.524],[-1.6183,38.0545,563.1503],[-1.6151,38.0564,569.0489],[-1.6256,38.0897,674.0883],[-1.6326,38.1635,413.2369],[-1.6161,38.1758,340.5441],[-1.5893,38.19,385.2968],[-1.5789,38.222,578.4124],[-1.5844,38.2765,295.8097],[-1.595,38.3051,540.9565],[-1.5892,38.3126,633.9396],[-1.6006,38.3154,569.0436],[-1.6109,38.3145,523.3834],[-1.614,38.3125,533.0336],[-1.6286,38.3094,501.3842],[-1.6342,38.311,507.8569],[-1.6354,38.3097,554.3049],[-1.6699,38.3124,316.1259],[-1.6695,38.3162,303.7446],[-1.6726,38.322,304.6475],[-1.6839,38.3264,307.5027],[-1.6867,38.33,309.1514],[-1.6879,38.3358,309.5646],[-1.6925,38.3375,311.9927],[-1.6923,38.3468,313.8528],[-1.6848,38.3471,315.9514],[-1.6815,38.3499,321.0539],[-1.6852,38.352,316.9581],[-1.6819,38.3602,322.1012],[-1.6875,38.3659,322.0052],[-1.6922,38.3686,323.2864],[-1.6973,38.3693,337.5999],[-1.7002,38.3747,335.5868],[-1.7024,38.3749,330.8863],[-1.7073,38.3715,347.5937],[-1.7119,38.3718,329.8516],[-1.7139,38.3632,345.9161],[-1.7181,38.3641,333.7996],[-1.7172,38.3675,350.9712],[-1.7186,38.3689,411.7865],[-1.7223,38.3689,368.2452],[-1.7294,38.3726,447.3328],[-1.734,38.3716,342.0206],[-1.7343,38.3754,359.6495],[-1.7434,38.3813,356.6591],[-1.7514,38.3798,346.0658],[-1.7528,38.374,345.181],[-1.7548,38.3734,348.5101],[-1.7606,38.3772,348.3019],[-1.7681,38.3795,359.4149],[-1.7713,38.3786,350.2628],[-1.7711,38.3649,363.7192],[-1.7788,38.3657,428.5446],[-1.7798,38.3683,424.5],[-1.782,38.3687,424.5],[-1.7855,38.3661,424.5],[-1.7957,38.3703,424.5],[-1.7969,38.365,545.5674],[-1.7842,38.3562,813.0541],[-1.7923,38.3535,765.0149],[-1.8109,38.3514,690.9493],[-1.8218,38.3363,526.1571],[-1.8272,38.3339,559.3137],[-1.8425,38.3344,588.8338],[-1.8542,38.3303,609.8506],[-1.8686,38.3175,589.3934],[-1.8931,38.303,668.3181],[-1.9075,38.298,710.8024],[-1.9488,38.2893,777.0766],[-1.9628,38.2879,949.7673],[-1.9781,38.2822,937.4882],[-1.986,38.2817,862.5448],[-2.0001,38.284,980.2845],[-2.0209,38.3004,843.4077],[-2.0267,38.3007,861.0405],[-2.03,38.2993,873.4072],[-2.0489,38.3058,1278.1018],[-2.0637,38.2976,1201.7092],[-2.0761,38.2828,1213.0814],[-2.0839,38.2651,1178.5884],[-2.1136,38.2382,1366.5649],[-2.1391,38.2316,1366.1204],[-2.169,38.2265,1416.2043],[-2.1752,38.224,1427.3488],[-2.187,38.2143,1413.1261],[-2.2066,38.2071,1448.0254],[-2.2134,38.2018,1472.7908],[-2.2157,38.1938,1304.619],[-2.2226,38.1833,1099.6747],[-2.222,38.1775,1115.8413],[-2.2332,38.1603,1284.5969],[-2.2375,38.1578,1265.1655],[-2.2455,38.1483,1266.4459],[-2.2509,38.1392,1390.5842],[-2.2495,38.135,1390.37],[-2.2503,38.1284,1478.8082],[-2.2615,38.113,1610.0668],[-2.2933,38.0874,1838.3],[-2.3135,38.0781,1852.9167],[-2.3298,38.0654,1912.74],[-2.33,38.0602,1723.0718],[-2.3382,38.0473,1482.0447],[-2.3443,38.03,1421.0571],[-2.3415,38.026,1404.2162],[-2.323,38.014,1301.0931],[-2.3092,38.0089,1257.0728],[-2.2984,38.0022,1316.4584],[-2.2976,37.9903,1168.6611],[-2.2768,37.9601,1166.2534],[-2.2741,37.9595,1150.7402],[-2.2667,37.953,1115.7722],[-2.2587,37.95,1190.0459],[-2.2533,37.9396,1267.5917],[-2.2378,37.9285,1392.9221],[-2.2295,37.9262,1396.7715],[-2.2276,37.9237,1465.124],[-2.2223,37.9239,1450.2574],[-2.2216,37.9224,1400.5764],[-2.2076,37.9166,1459.2477],[-2.1848,37.9037,1242.3964],[-2.1846,37.9017,1253.9514],[-2.1719,37.8887,1220.0146],[-2.1644,37.8926,1220.9797],[-2.1567,37.8913,1210.0405],[-2.1506,37.8957,1193.0458],[-2.1516,37.8973,1190.6196],[-2.1351,37.8977,1196.9507],[-2.1299,37.9,1199.4788],[-2.1231,37.9005,1194.5894],[-2.118,37.8942,1183.1702],[-2.1104,37.8909,1149.8271],[-2.1064,37.8862,1185.254],[-2.108,37.8815,1265.655],[-2.1034,37.8814,1223.4746],[-2.0983,37.8777,1199.9849],[-2.0857,37.8749,1032.9729],[-2.0845,37.8724,984.8162],[-2.0773,37.8784,1093.0221],[-2.0738,37.8838,1113.2523],[-2.0703,37.8845,1065.0702],[-2.0622,37.8835,1112.5491],[-2.0595,37.8801,1076.1167],[-2.0499,37.8796,1019.643],[-2.0453,37.8762,977.9579],[-2.0459,37.8746,1016.7782],[-2.0424,37.8737,986.1979],[-2.0392,37.8754,929.5128],[-2.0254,37.8689,836.0479],[-2.0217,37.8686,912.6989],[-2.0044,37.8807,1017.2899],[-2.0032,37.877,1003.0849],[-1.9988,37.8762,971.8755],[-1.9946,37.8805,1003.4438],[-1.9879,37.8738,1068.3596]]]]}
,"properties": {"GID_3": "ESP.18.1.7_1","GID_0": "ESP","country": "Spain","GID_1": "ESP.18_1","province": "RegióndeMurcia","NL_NAME_1": "NA","GID_2": "ESP.18.1_1","county": "Murcia","NL_NAME_2": "NA","city": "Noroeste","VARNAME_3": "NA","NL_NAME_3": "NA","TYPE_3": "Comarca","ENGTYPE_3": "Comarca","CC_3": "NA","HASC_3": "NA","name": "Noroeste.city","area_km2": 2377.703,"hist_schema_id": "Elevation0-9000","hist_area_km2": {"225": 0.033,"250": 8.508,"275": 17.331,"300": 30.551,"325": 37.479,"350": 46.723,"375": 53.82,"400": 55.176,"425": 58.076,"450": 56.904,"475": 60.362,"500": 58.859,"525": 58.415,"550": 56.959,"575": 53.063,"600": 45.554,"625": 38.759,"650": 34.727,"675": 30.779,"700": 31.035,"725": 28.93,"750": 31.856,"775": 39.222,"800": 39.913,"825": 45.631,"850": 57.278,"875": 70.006,"900": 75.256,"925": 76.747,"950": 72.122,"975": 65.541,"1000": 62.565,"1025": 58.117,"1050": 52.593,"1075": 54.738,"1100": 60.391,"1125": 70.979,"1150": 72.955,"1175": 64.546,"1200": 63.762,"1225": 52.41,"1250": 43.218,"1275": 37.745,"1300": 34.376,"1325": 31.624,"1350": 29.44,"1375": 23.703,"1400": 21.103,"1425": 18.787,"1450": 14.898,"1475": 12.496,"1500": 11.428,"1525": 9.059,"1550": 7.525,"1575": 5.506,"1600": 4.905,"1625": 3.821,"1650": 2.937,"1675": 2.67,"1700": 2.203,"1725": 1.619,"1750": 1.569,"1775": 1.602,"1800": 1.386,"1825": 1.202,"1850": 1.168,"1875": 0.785,"1900": 0.935,"1925": 0.634,"1950": 0.267,"1975": 0.317,"2000": 0.1}}}