{"type": "Feature","bbox": [-5.6658,42.0292,-5.2368,42.5965],"geometry": {"type": "MultiPolygon","coordinates": [[[[-5.603,42.0803,714.6442],[-5.5967,42.0791,712.6519],[-5.5972,42.0765,711.8304],[-5.5938,42.076,713.1453],[-5.5913,42.0786,712.834],[-5.5884,42.0773,713.1678],[-5.5893,42.0725,731.5312],[-5.5864,42.0712,714.894],[-5.5834,42.066,722.3348],[-5.5888,42.0529,711.5292],[-5.5865,42.0509,717.7513],[-5.5801,42.0584,716.0411],[-5.5793,42.0644,743.5507],[-5.5776,42.0654,743.5507],[-5.5746,42.0646,770.3854],[-5.5697,42.0578,768.8682],[-5.5647,42.0592,767.1622],[-5.5606,42.056,751.0406],[-5.5573,42.0607,766.5618],[-5.5527,42.0637,769.2809],[-5.5493,42.0703,770.8451],[-5.5481,42.0791,778.2106],[-5.5439,42.0862,780.9844],[-5.5442,42.0924,783.181],[-5.5417,42.0981,783.3589],[-5.5433,42.0994,783.4596],[-5.5269,42.1043,773.3619],[-5.5166,42.0934,765.3642],[-5.5103,42.0929,777.0697],[-5.5101,42.0911,776.0654],[-5.4984,42.0837,755.9989],[-5.4898,42.0738,718.8018],[-5.4833,42.0598,763.1055],[-5.477,42.056399999999996,750.348],[-5.4808,42.0524,744.4818],[-5.4641,42.0436,750.2444],[-5.4545,42.0407,751.6219],[-5.4386,42.0315,764.2476],[-5.4304,42.0351,786.9878],[-5.4247,42.0356,778.9451],[-5.4202,42.0292,773.408],[-5.412,42.0304,769.8403],[-5.3977,42.0346,789.8613],[-5.3843,42.0421,777.9766],[-5.3762,42.0415,793.9349],[-5.3743,42.0432,788.6458],[-5.3755,42.0468,782.4628],[-5.3711,42.0514,777.0485],[-5.3743,42.0681,764.4142],[-5.3779,42.075,758.312],[-5.3896,42.0873,745.3474],[-5.39,42.0898,740.6174],[-5.3763,42.0995,755.942],[-5.3806,42.1072,758.0466],[-5.3799,42.1128,759.3788],[-5.3775,42.1129,760.0788],[-5.3778,42.1142,757.4088],[-5.3726,42.1183,751.267],[-5.3751,42.1214,748.3962],[-5.3751,42.1267,732.9384],[-5.3714,42.13,730.3076],[-5.381,42.1507,751.9999],[-5.3813,42.1593,759.8932],[-5.3795,42.1633,764.0121],[-5.3866,42.1686,771.9122],[-5.3888,42.1754,781.4527],[-5.387,42.1894,791.4399],[-5.3801,42.1979,788.6345],[-5.3884,42.2053,819.2332],[-5.388,42.2214,824.0583],[-5.3807,42.2254,796.0721],[-5.3755,42.2224,790.7192],[-5.3611,42.2251,824.739],[-5.3528,42.2192,808.6393],[-5.3456,42.2197,810.41],[-5.337,42.2308,813.5957],[-5.3412,42.2327,815.0486],[-5.3405,42.2467,825.7427],[-5.3459,42.251,830.4174],[-5.3471,42.2592,832.4074],[-5.3452,42.2678,834.4649],[-5.3371,42.2697,822.9575],[-5.3284,42.2741,836.0057],[-5.3202,42.2672,831.5597],[-5.3063,42.2716,826.6076],[-5.3016,42.2692,825.8297],[-5.2957,42.2701,825.8576],[-5.294,42.277,827.2078],[-5.2858,42.2751,814.6085],[-5.2844,42.2756,816.052],[-5.2849,42.2781,814.9069],[-5.2814,42.2788,805.1523],[-5.2785,42.2816,802.2534],[-5.2636,42.2801,794.8672],[-5.2565,42.2891,777.1891],[-5.2538,42.2869,775.186],[-5.2368,42.2939,818.5455],[-5.2412,42.2999,820.5855],[-5.2456,42.2993,815.1425],[-5.2542,42.2949,786.3268],[-5.2597,42.3016,781.3365],[-5.2617,42.3134,804.0792],[-5.2521,42.3205,841.6398],[-5.2513,42.3335,844.5153],[-5.2551,42.3391,846.8298],[-5.2528,42.341,847.5812],[-5.2587,42.3415,838.0574],[-5.2664,42.3466,841.0108],[-5.2564,42.3769,857.3047],[-5.2599,42.3817,850.5997],[-5.2626,42.3827,857.6192],[-5.2594,42.3996,862.4996],[-5.2607,42.4098,863.6844],[-5.2652,42.4144,859.334],[-5.269,42.4145,857.077],[-5.2695,42.4159,858.21],[-5.2665,42.4321,864.6677],[-5.2587,42.4334,869.9401],[-5.2544,42.4399,875.1203],[-5.2394,42.4524,883.7329],[-5.2567,42.46,880.9347],[-5.2652,42.4616,872.3408],[-5.2658,42.4805,877.6402],[-5.2678,42.4857,879.349],[-5.2822,42.5002,875.228],[-5.2926,42.518,874.8096],[-5.2959,42.52,864.7481],[-5.3142,42.5171,850.3472],[-5.3146,42.5159,866.5238],[-5.3195,42.5168,836.033],[-5.3266,42.5231,821.2146],[-5.3269,42.525,819.0207],[-5.3249,42.526,820.4814],[-5.3277,42.5264,818.9366],[-5.3337,42.5317,831.8079],[-5.3327,42.5369,826.3602],[-5.3311,42.5373,816.4346],[-5.3261,42.534,815.1289],[-5.3235,42.5354,830.9699],[-5.3179,42.5422,828.7379],[-5.3058,42.5518,820.5474],[-5.3175,42.553,818.8726],[-5.3205,42.5561,825.9628],[-5.3256,42.557,861.4672],[-5.3286,42.5529,878.5023],[-5.332,42.553,879.0278],[-5.3351,42.5578,860.9893],[-5.3344,42.5597,884.2681],[-5.3389,42.5603,896.302],[-5.341,42.5624,911.0516],[-5.3406,42.5672,924.2231],[-5.3622,42.5594,895.2621],[-5.3672,42.5549,908.2698],[-5.3708,42.5612,907.1207],[-5.3829,42.5679,833.6543],[-5.3864,42.5715,857.7532],[-5.3904,42.5808,899.5298],[-5.3887,42.5853,898.6734],[-5.3838,42.5879,948.994],[-5.3865,42.5923,873.3477],[-5.4027,42.5965,819.0889],[-5.4242,42.5811,816.1563],[-5.4242,42.5781,818.8519],[-5.4358,42.569,806.1682],[-5.4401,42.5603,816.8113],[-5.4524,42.5536,807.1888],[-5.458,42.5466,806.1331],[-5.4684,42.5539,812.4851],[-5.4831,42.56,829.5385],[-5.491,42.5583,844.6396],[-5.5029,42.5527,864.9354],[-5.5082,42.5562,879.0153],[-5.5097,42.5602,869.4433],[-5.5233,42.5577,858.1927],[-5.5296,42.558,884.8132],[-5.5325,42.5585,860.1497],[-5.5342,42.5639,862.045],[-5.5624,42.5562,806.6929],[-5.5644,42.5543,803.9929],[-5.5782,42.5504,805.6233],[-5.5831,42.5469,813.5867],[-5.5813,42.5364,808.7028],[-5.5836,42.5358,808.9925],[-5.5871,42.5307,807.4579],[-5.5867,42.5285,806.4983],[-5.5919,42.5281,808.1123],[-5.5902,42.5172,807.7346],[-5.601,42.5071,839.0935],[-5.6143,42.5105,849.071],[-5.6173,42.513,851.8953],[-5.6258,42.5122,848.3782],[-5.6297,42.5042,849.0293],[-5.622,42.4965,845.8838],[-5.622,42.491,843.6873],[-5.6193,42.4886,842.0164],[-5.6156,42.4885,841.6252],[-5.6119,42.4845,836.6644],[-5.6094,42.4846,835.793],[-5.5964,42.4715,817.0421],[-5.5847,42.4652,805.2064],[-5.5653,42.4702,788.4916],[-5.5641,42.4688,788.0607],[-5.5606,42.4699,787.4418],[-5.557,42.4509,787.2288],[-5.5511,42.4466,771.2208],[-5.5491,42.4265,781.1245],[-5.5508,42.4182,761.6559],[-5.5502,42.4126,762.3323],[-5.5617,42.403,761.0915],[-5.5545,42.375,756.2141],[-5.5588,42.3715,756.3392],[-5.5642,42.3721,766.0805],[-5.5663,42.3743,769.9365],[-5.5778,42.3773,797.5944],[-5.584,42.3772,795.5952],[-5.5916,42.3733,798.5594],[-5.5982,42.3823,811.6013],[-5.6017,42.3804,811.4882],[-5.6076,42.3808,813.3604],[-5.6133,42.3768,812.3651],[-5.6299,42.3711,812.2769],[-5.6447,42.3588,813.6176],[-5.6525,42.3494,807.4474],[-5.6493,42.3417,805.2646],[-5.6544,42.3389,805.7104],[-5.6542,42.3349,803.2293],[-5.6474,42.3327,802.5732],[-5.6457,42.324,800.6901],[-5.6333,42.3183,798.9694],[-5.6329,42.3165,798.3048],[-5.6356,42.3156,798.7521],[-5.6348,42.3141,797.9405],[-5.6399,42.3076,795.4153],[-5.6389,42.3038,794.3557],[-5.6351,42.3037,794.7859],[-5.6345,42.2959,792.4352],[-5.6372,42.2928,791.8824],[-5.6368,42.2896,791.3868],[-5.6412,42.2855,791.0962],[-5.6297,42.2801,787.7275],[-5.63,42.271,785.5128],[-5.6241,42.2677,784.5679],[-5.6181,42.2614,778.1548],[-5.6062,42.2552,773.9202],[-5.6094,42.2516,771.7441],[-5.6106,42.2428,772.3973],[-5.6017,42.2329,792.0959],[-5.6026,42.2294,796.48],[-5.608,42.226,788.6971],[-5.6094,42.2046,780.9812],[-5.6071,42.2027,771.4613],[-5.6104,42.2018,774.3452],[-5.6145,42.1979,796.3741],[-5.6174,42.1854,782.8755],[-5.6153,42.1848,777.6635],[-5.6216,42.1762,797.9458],[-5.6212,42.1694,771.3865],[-5.6191,42.1676,766.1324],[-5.6231,42.1658,773.6334],[-5.6331,42.1555,772.2927],[-5.6343,42.156,772.2927],[-5.6436,42.1459,778.3333],[-5.6579,42.1504,778.3239],[-5.6654,42.1437,765.9911],[-5.6658,42.1369,778.1036],[-5.6451,42.1321,755.6014],[-5.6381,42.1221,745.7423],[-5.6215,42.1087,737.7476],[-5.6194,42.105,728.2408],[-5.6242,42.0926,735.1085],[-5.6383,42.0851,733.1394],[-5.6369,42.0838,730.024],[-5.6341,42.0814,725.5311],[-5.6248,42.0835,720.4407],[-5.6061,42.0795,714.6461],[-5.603,42.0803,714.6442]]]]}
,"properties": {"GID_3": "ESP.5.3.9_1","GID_0": "ESP","country": "Spain","GID_1": "ESP.5_1","province": "CastillayLeón","NL_NAME_1": "NA","GID_2": "ESP.5.3_1","county": "León","NL_NAME_2": "NA","city": "n.a.(156)","VARNAME_3": "NA","NL_NAME_3": "NA","TYPE_3": "Comarca","ENGTYPE_3": "Comarca","CC_3": "NA","HASC_3": "NA","name": "n.a.(156).city","area_km2": 1357.055,"hist_schema_id": "Elevation0-9000","hist_area_km2": {"700": 0.976,"725": 106.104,"750": 196.602,"775": 257.905,"800": 336.269,"825": 230.553,"850": 158.858,"875": 61.635,"900": 7.309,"925": 0.796,"950": 0.047}}}