{"type":"Feature","properties":{"ISO3166-1-Alpha-3":"ESP","country":"Spain","fill":"#F0F","id":"5851","name":"Bizkaia"},
"geometry":{"type": "Polygon","coordinates": [[[-2.40678,43.32931,0.0],[-2.46443,43.34923,0.0],[-2.48351,43.37063,0.0],[-2.50601,43.37714,0.0],[-2.5489,43.38361,0.0],[-2.60692,43.40188,0.0],[-2.63809,43.40595,95.3437],[-2.64932,43.40953,220.7175],[-2.6612,43.41193,0.0],[-2.67296,43.41035,83.4297],[-2.67781,43.4062,80.3011],[-2.67878,43.40058,127.9834],[-2.67846,43.39464,22.3101],[-2.67927,43.38984,88.9659],[-2.687,43.37145,1.7951],[-2.69103,43.36754,4.7401],[-2.69494,43.38862,24.6293],[-2.70653,43.41368,103.5927],[-2.7152,43.42451,0.0],[-2.73493,43.43879,0.0],[-2.75585,43.45026,197.102],[-2.76863,43.4525,0.0],[-2.78596,43.44786,0.6237],[-2.807,43.44168,0.0],[-2.85424,43.43826,0.0],[-2.90526,43.43989,0.0],[-2.93008,43.43793,0.0],[-2.94669,43.43077,7.9788],[-2.94669,43.42459,79.4544],[-2.93993,43.42459,105.6563],[-2.93993,43.4171,29.5973],[-2.95592,43.41385,0.0],[-2.99942,43.39435,0.0],[-3.01098,43.38414,0.0],[-3.02432,43.38093,0.0],[-3.02929,43.37617,58.4406],[-3.02929,43.37214,77.1071],[-3.02343,43.36494,78.7439],[-3.02001,43.35257,0.0],[-3.00817,43.32844,9.4872],[-3.00817,43.32091,6.4794],[-3.05785,43.35236,0.0],[-3.08951,43.36689,0.0],[-3.11238,43.35407,3.7731],[-3.1315,43.35578,0.0],[-3.1506,43.36015,0.0],[-3.1505,43.35368,0.0],[-3.14954,43.32444,300.1289],[-3.15391,43.31503,318.6019],[-3.16024,43.3078,459.3443],[-3.20355,43.29229,502.7806],[-3.2129,43.2932,447.153],[-3.2352,43.29909,435.1004],[-3.26104,43.29676,219.8242],[-3.32294,43.3001,581.2175],[-3.33581,43.29529,487.9686],[-3.34715,43.28759,463.2925],[-3.4309,43.24346,610.9813],[-3.44164,43.2333,378.9453],[-3.44503,43.22424,275.131],[-3.44172,43.21731,361.402],[-3.44033,43.20987,447.6961],[-3.44004,43.20214,462.2514],[-3.44146,43.19514,496.3255],[-3.44095,43.18806,560.965],[-3.43777,43.18114,473.701],[-3.43312,43.17398,416.4576],[-3.42565,43.15313,573.4766],[-3.42379,43.14062,982.3634],[-3.36242,43.15793,660.8019],[-3.27848,43.19731,718.5545],[-3.26832,43.19995,558.9535],[-3.25946,43.20119,528.1914],[-3.25248,43.20044,746.9576],[-3.24659,43.19809,754.287],[-3.22975,43.18698,444.8192],[-3.2075,43.18439,276.953],[-3.17357,43.18398,448.1058],[-3.15151,43.18145,419.5165],[-3.14593,43.17837,479.7061],[-3.14215,43.17478,483.2578],[-3.14184,43.16512,310.9813],[-3.11674,43.14975,321.0788],[-3.10408,43.14522,276.7086],[-3.04326,43.15471,261.897],[-3.03147,43.16088,187.6294],[-3.02527,43.17041,166.7481],[-3.02184,43.19168,334.4686],[-3.01538,43.19984,706.6377],[-2.99933,43.20498,493.8545],[-2.98431,43.20182,965.595],[-2.97048,43.19326,514.4958],[-2.95037,43.17348,593.3381],[-2.93591,43.14686,169.2325],[-2.93674,43.13539,165.0078],[-2.95402,43.10928,529.9639],[-2.95679,43.09602,635.9984],[-2.94827,43.08387,582.2767],[-2.89539,43.04748,593.8721],[-2.86268,43.04882,970.9972],[-2.8512,43.04688,946.786],[-2.82926,43.03717,911.2389],[-2.78186,43.02671,1271.6642],[-2.73837,43.03316,721.2115],[-2.69791,43.02062,735.085],[-2.6869,43.02148,594.7292],[-2.66795,43.02723,669.9008],[-2.64052,43.02272,657.035],[-2.63665,43.02284,636.6626],[-2.63313,43.02487,585.3657],[-2.6298,43.03547,616.67],[-2.63524,43.04714,603.5122],[-2.65726,43.06975,628.3777],[-2.65866,43.07289,624.3742],[-2.65685,43.07576,663.2059],[-2.63744,43.08547,745.4613],[-2.62245,43.08766,806.3605],[-2.60024,43.08146,854.9986],[-2.54655,43.08804,521.0992],[-2.51401,43.09323,808.4566],[-2.50172,43.10323,535.2794],[-2.49826,43.11868,525.526],[-2.50705,43.16153,374.9493],[-2.50673,43.16457,305.9772],[-2.50433,43.16751,345.3076],[-2.50178,43.16783,428.5551],[-2.49895,43.16747,505.3442],[-2.49571,43.1684,505.7612],[-2.48895,43.18366,326.1566],[-2.49053,43.22235,269.9357],[-2.47696,43.22759,408.3558],[-2.46809,43.22477,579.1115],[-2.46469,43.22477,679.9886],[-2.45936,43.22731,648.7297],[-2.41819,43.26754,543.5155],[-2.44017,43.28813,381.8381],[-2.40678,43.32931,0.0]],
[[-3.2992,43.21687,552.9735],[-3.30424,43.22215,349.2555],[-3.3042,43.26068,622.265],[-3.28615,43.25636,304.8105],[-3.26891,43.23759,204.3069],[-3.26736,43.22739,253.674],[-3.2992,43.21687,552.9735]]]}}