{"type": "Feature","bbox": [-3.449,43.0199,-2.4124,43.4568],"geometry": {"type": "MultiPolygon","coordinates": [[[[-2.9729,43.0954,362.6275],[-2.9607,43.0931,609.8926],[-2.9409,43.0789,492.8452],[-2.9425,43.0765,473.3636],[-2.9302,43.0732,440.7189],[-2.9187,43.0603,541.514],[-2.9066,43.0552,548.5081],[-2.8941,43.0464,597.7127],[-2.8902,43.0458,592.8525],[-2.8882,43.0488,497.8136],[-2.8837,43.0504,638.5205],[-2.8638,43.0519,993.2028],[-2.8219,43.035,965.9765],[-2.7811,43.034,1462.337],[-2.7747,43.0311,1410.3616],[-2.7739,43.0291,1378.5635],[-2.7697,43.0268,1185.572],[-2.7578,43.0283,931.4443],[-2.7512,43.0265,942.9843],[-2.749,43.0273,947.438],[-2.7456,43.0334,764.3975],[-2.7398,43.0341,742.1329],[-2.7349,43.0291,680.5559],[-2.7337,43.0253,663.7911],[-2.7297,43.0239,652.7094],[-2.7153,43.0308,628.4195],[-2.7082,43.0299,612.0424],[-2.7039,43.0311,613.8134],[-2.7021,43.0278,601.0985],[-2.6987,43.0269,585.1016],[-2.6921,43.0217,612.939],[-2.6877,43.0237,576.5234],[-2.687,43.0216,594.7292],[-2.6765,43.0264,765.4811],[-2.6739,43.0259,766.95],[-2.6668,43.0314,548.1179],[-2.6567,43.0263,543.0],[-2.6532,43.03,550.066],[-2.6534,43.0271,592.6758],[-2.6433,43.0214,661.0211],[-2.6336,43.0199,685.4548],[-2.6305,43.0287,577.0124],[-2.6338,43.0336,582.6154],[-2.6337,43.0448,574.6753],[-2.6373,43.0463,587.5154],[-2.6482,43.058,611.2559],[-2.6526,43.0597,577.8154],[-2.6571,43.0645,593.7452],[-2.6612,43.0653,574.9196],[-2.6616,43.0743,585.4437],[-2.633,43.087,760.989],[-2.6244,43.0856,778.2943],[-2.6115,43.0859,918.3444],[-2.6065,43.0835,915.9732],[-2.5924,43.0812,890.783],[-2.56,43.0851,347.0757],[-2.5466,43.0882,521.0992],[-2.5446,43.0918,495.6483],[-2.5259,43.0955,781.7875],[-2.5138,43.0901,1027.6748],[-2.5011,43.0965,447.8239],[-2.5051,43.0971,491.5855],[-2.5013,43.1187,501.6543],[-2.4962,43.1234,606.7493],[-2.5035,43.1399,469.0797],[-2.5006,43.1513,365.1656],[-2.5097,43.1614,336.6646],[-2.5079,43.1659,265.3029],[-2.5028,43.1654,411.4523],[-2.5016,43.1674,428.5551],[-2.4869,43.1694,366.6267],[-2.4848,43.1716,278.4178],[-2.49,43.1798,148.5702],[-2.4924,43.1807,262.3177],[-2.489,43.187,399.2656],[-2.4868,43.2014,755.4221],[-2.4912,43.2019,692.0748],[-2.4994,43.2098,675.8754],[-2.4977,43.2203,471.2065],[-2.4941,43.2257,299.844],[-2.49,43.2238,264.0554],[-2.4832,43.2244,411.364],[-2.4732,43.2218,527.6279],[-2.4632,43.2235,680.7556],[-2.4451,43.2367,426.7807],[-2.4429,43.241,342.4235],[-2.4366,43.2437,433.5662],[-2.439,43.2518,456.8495],[-2.4228,43.2616,370.6581],[-2.4183,43.2681,543.5155],[-2.4216,43.2737,480.2118],[-2.4255,43.2756,516.0],[-2.4297,43.2821,401.7427],[-2.44,43.2881,381.8381],[-2.4368,43.2996,312.5005],[-2.432,43.3023,317.8018],[-2.4286,43.3089,347.6915],[-2.4199,43.3128,263.4168],[-2.4155,43.32,130.2528],[-2.4124,43.3215,1.6657],[-2.4196,43.323,3.515],[-2.4196,43.3251,0.0],[-2.4168,43.3257,0.0],[-2.4279,43.3324,0.0],[-2.4365,43.3346,0.0],[-2.4468,43.3335,39.8209],[-2.4543,43.3374,0.0],[-2.4601,43.336,25.4398],[-2.4693,43.3465,20.5726],[-2.4701,43.3499,0.0],[-2.4726,43.3521,0.0],[-2.4763,43.3524,6.1633],[-2.4782,43.356,0.0],[-2.4849,43.3574,65.553],[-2.486,43.3621,0.0],[-2.4899,43.3651,1.6156],[-2.4918,43.3629,11.7807],[-2.501,43.3629,0.0],[-2.4988,43.3671,0.0],[-2.5026,43.3668,23.891],[-2.5038,43.3715,10.8784],[-2.5062,43.3732,23.1715],[-2.5057,43.3746,2.4671],[-2.5101,43.3774,0.0],[-2.514,43.3774,0.0],[-2.5174,43.3754,136.1436],[-2.5329,43.3771,0.0],[-2.539,43.3757,0.0],[-2.541,43.3732,26.6739],[-2.5451,43.3732,20.7764],[-2.5507,43.3743,9.5974],[-2.5538,43.3826,0.0],[-2.5582,43.3846,5.7643],[-2.5585,43.3882,0.0],[-2.5637,43.3913,0.0],[-2.5724,43.3901,10.5887],[-2.5782,43.3871,0.0],[-2.5832,43.389,0.0],[-2.5885,43.3879,0.0],[-2.5929,43.3918,2.5652],[-2.5979,43.3915,45.5933],[-2.6021,43.3946,6.7109],[-2.6196,43.3921,3.4629],[-2.6262,43.3943,9.7053],[-2.6354,43.4018,55.5185],[-2.636,43.4121,0.0],[-2.6432,43.4154,129.1767],[-2.649,43.4157,0.0],[-2.6529,43.4124,0.0],[-2.6554,43.4129,0.0],[-2.6568,43.4099,0.0],[-2.6635,43.4096,21.2921],[-2.6638,43.4113,7.4821],[-2.6699,43.4129,0.9993],[-2.6782,43.4124,0.0],[-2.6815,43.4101,0.0],[-2.6851,43.4024,12.5446],[-2.6843,43.3963,13.4834],[-2.6821,43.3951,5.6254],[-2.6832,43.394,0.0],[-2.6826,43.3885,0.0],[-2.684,43.3882,0.0],[-2.6771,43.3774,0.0],[-2.6793,43.3735,0.0],[-2.6793,43.3671,0.0],[-2.6804,43.3649,0.6571],[-2.6835,43.3643,0.2014],[-2.6813,43.3671,0.0],[-2.6849,43.3699,2.9553],[-2.6882,43.3757,0.0],[-2.6876,43.3851,7.6429],[-2.6915,43.389,2.7444],[-2.6918,43.3954,0.0],[-2.6937,43.394,4.3969],[-2.6943,43.4018,0.0],[-2.696,43.4043,0.0],[-2.6996,43.4046,4.7875],[-2.6957,43.4054,0.0],[-2.6971,43.4104,10.7964],[-2.7007,43.4124,0.0],[-2.7012,43.4157,0.0],[-2.7118,43.419,0.0],[-2.7124,43.421,0.0],[-2.714,43.4201,0.0],[-2.714,43.4179,5.2891],[-2.7168,43.4188,0.0],[-2.7165,43.4199,0.0],[-2.7093,43.4226,0.0],[-2.7188,43.4207,0.0],[-2.7218,43.4265,6.5609],[-2.7301,43.4268,10.8666],[-2.7385,43.4296,46.0492],[-2.7413,43.4338,0.0],[-2.7415,43.4374,0.0],[-2.7476,43.4449,13.8832],[-2.7465,43.4518,39.0713],[-2.7521,43.4568,7.9401],[-2.7613,43.4496,10.6272],[-2.7715,43.4487,51.9035],[-2.776,43.4457,0.0],[-2.7829,43.4454,11.2115],[-2.7854,43.4487,0.6237],[-2.7874,43.4476,0.0],[-2.7874,43.4454,0.0],[-2.7851,43.4457,3.8384],[-2.7851,43.4446,16.8098],[-2.7965,43.4399,4.3751],[-2.801,43.4321,0.0],[-2.8051,43.4326,0.0],[-2.8065,43.4313,0.0],[-2.8238,43.4343,0.0],[-2.829,43.4315,35.171],[-2.8471,43.4332,0.0],[-2.8496,43.4301,52.0856],[-2.8657,43.4304,34.0708],[-2.8699,43.4329,21.7491],[-2.8699,43.4351,4.3042],[-2.8813,43.4365,7.4177],[-2.8932,43.4349,8.6219],[-2.8935,43.4326,4.8382],[-2.8982,43.4346,0.0],[-2.8996,43.4321,0.0],[-2.9012,43.4321,3.8289],[-2.9035,43.4349,4.7046],[-2.901,43.4357,0.0],[-2.9038,43.4388,0.0],[-2.9057,43.4376,0.0],[-2.9179,43.4385,35.0812],[-2.9357,43.4343,4.1096],[-2.9471,43.436,0.3539],[-2.9465,43.4313,7.9788],[-2.9476,43.4299,61.5476],[-2.9524,43.4296,0.0],[-2.9537,43.4276,19.1958],[-2.9529,43.4246,7.0716],[-2.9549,43.424,0.0],[-2.9557,43.4215,0.0],[-2.9529,43.4207,1.3067],[-2.9532,43.4176,0.0],[-2.9457,43.4188,12.4436],[-2.9446,43.4176,6.0626],[-2.9457,43.409,1.4951],[-2.9479,43.4093,13.0367],[-2.9501,43.4124,0.0],[-2.9588,43.4126,14.4672],[-2.9599,43.4154,15.6274],[-2.9707,43.4129,0.0],[-2.9751,43.4032,5.7961],[-2.9857,43.3988,0.0],[-2.9863,43.3949,26.0473],[-2.9896,43.3951,4.629],[-2.9921,43.3904,33.8565],[-3.0035,43.3857,0.0],[-3.0051,43.3821,7.1234],[-3.0138,43.3826,0.0],[-3.0154,43.3799,25.5173],[-3.021,43.3782,24.8433],[-3.0301,43.3782,5.5271],[-3.0371,43.3732,0.0],[-3.0371,43.3704,0.0],[-3.0338,43.3674,55.9956],[-3.019,43.3579,32.256],[-3.0199,43.3515,0.0],[-3.0124,43.3465,0.0],[-3.0132,43.3413,10.6656],[-3.0218,43.341,0.0],[-3.0179,43.3374,0.0],[-3.0126,43.3387,0.0],[-3.0101,43.3371,1.5091],[-3.0149,43.3293,4.1825],[-3.0182,43.329,0.0],[-3.0171,43.3271,2.614],[-3.0187,43.326,4.0644],[-3.0268,43.329,0.0],[-3.029,43.3357,0.0],[-3.0388,43.3365,5.168],[-3.0426,43.3387,5.4235],[-3.0421,43.3393,3.0069],[-3.0379,43.3374,2.0888],[-3.0307,43.3368,0.0],[-3.0307,43.3393,1.8315],[-3.0393,43.341,0.7176],[-3.0371,43.3426,3.8483],[-3.0318,43.341,0.0],[-3.0326,43.3462,2.2712],[-3.0388,43.3451,5.219],[-3.0413,43.3418,4.0138],[-3.0446,43.3435,5.5263],[-3.0385,43.3485,4.7084],[-3.0388,43.3499,1.939],[-3.0424,43.3499,0.0],[-3.0474,43.3421,4.751],[-3.0507,43.3418,4.4184],[-3.0515,43.3443,6.1243],[-3.0571,43.3435,9.1784],[-3.0665,43.3476,9.4719],[-3.0743,43.3543,4.3542],[-3.0707,43.3618,3.9023],[-3.0596,43.3613,3.3848],[-3.046,43.3582,0.0],[-3.0454,43.3593,0.8938],[-3.0599,43.3624,0.0],[-3.0724,43.3629,0.0],[-3.0746,43.356,2.0778],[-3.079,43.3546,2.3574],[-3.0829,43.3593,2.0026],[-3.0904,43.3607,3.5787],[-3.0904,43.3646,0.0],[-3.0926,43.3629,0.8297],[-3.104,43.3643,0.0],[-3.1024,43.3668,2.3707],[-3.0829,43.3774,0.0],[-3.0849,43.3782,1.1654],[-3.1057,43.3649,4.3341],[-3.1096,43.3646,1.1796],[-3.1118,43.359,27.6817],[-3.114,43.3582,5.1494],[-3.1126,43.3501,5.5271],[-3.1188,43.3429,6.5377],[-3.1215,43.3451,15.7029],[-3.1224,43.3501,0.0],[-3.129,43.3554,4.6235],[-3.1312,43.3551,0.0],[-3.1329,43.3524,11.9917],[-3.141,43.3529,0.0],[-3.141,43.3518,48.2245],[-3.1476,43.3515,27.0901],[-3.1532,43.3535,14.6557],[-3.1509,43.3488,80.6426],[-3.1543,43.3408,124.9016],[-3.1496,43.3194,369.1836],[-3.1515,43.3068,604.4811],[-3.1573,43.3013,520.0438],[-3.1805,43.2997,421.3315],[-3.1842,43.2981,394.6331],[-3.1932,43.2984,490.3255],[-3.199,43.2928,488.4137],[-3.2052,43.2909,555.701],[-3.2095,43.2835,723.3338],[-3.2183,43.2868,710.7152],[-3.2179,43.2917,641.3652],[-3.225,43.2979,639.4366],[-3.2252,43.3089,713.6362],[-3.2486,43.3032,304.113],[-3.2543,43.2966,155.98],[-3.261,43.294,241.8479],[-3.2644,43.296,300.5522],[-3.2686,43.295,401.5655],[-3.2794,43.29,534.3592],[-3.2911,43.2903,607.988],[-3.2946,43.2928,646.0948],[-3.2927,43.2965,547.3548],[-3.2949,43.3007,400.6885],[-3.3134,43.2974,663.9713],[-3.3153,43.295,747.8591],[-3.3236,43.2924,475.6199],[-3.3324,43.3019,288.8344],[-3.3341,43.2988,324.355],[-3.3429,43.2944,643.3355],[-3.3395,43.2822,673.5584],[-3.3401,43.278,702.2813],[-3.3585,43.2723,623.1804],[-3.3686,43.2746,591.3348],[-3.378,43.2708,608.4174],[-3.3829,43.2705,630.3871],[-3.3884,43.2642,668.0012],[-3.3916,43.2526,136.3096],[-3.3989,43.2458,564.6306],[-3.4066,43.2507,603.8771],[-3.4134,43.2499,724.1337],[-3.4105,43.247,735.2808],[-3.4184,43.241,638.0426],[-3.423,43.2399,537.4907],[-3.4303,43.2421,610.9813],[-3.4381,43.2347,526.5866],[-3.4457,43.2376,323.5232],[-3.4487,43.2361,269.6656],[-3.449,43.2325,295.7871],[-3.4467,43.2305,296.546],[-3.4438,43.2211,325.5941],[-3.4326,43.2055,332.8953],[-3.435,43.198,339.6871],[-3.4334,43.171,453.5081],[-3.429,43.1602,477.1549],[-3.4272,43.1602,477.1549],[-3.4259,43.1556,500.7534],[-3.4224,43.1527,555.8586],[-3.4176,43.1334,1297.0311],[-3.4103,43.1345,1323.2561],[-3.4071,43.1374,1240.6753],[-3.3888,43.14,1120.2324],[-3.3719,43.1488,1091.1832],[-3.371,43.1514,1105.2009],[-3.3506,43.1543,888.2136],[-3.3419,43.1668,980.9854],[-3.3385,43.1675,982.1581],[-3.3337,43.1657,1048.944],[-3.3202,43.1697,978.5702],[-3.3195,43.1712,1009.7668],[-3.3093,43.1725,901.5564],[-3.3057,43.177,972.2469],[-3.3005,43.1791,849.1042],[-3.2974,43.1826,875.3552],[-3.2776,43.19,1013.9437],[-3.2781,43.1944,934.7115],[-3.2679,43.1942,788.0833],[-3.2624,43.1963,783.0544],[-3.2562,43.1953,895.0903],[-3.2534,43.1986,816.8507],[-3.2375,43.1858,329.1586],[-3.2334,43.179,245.8825],[-3.2311,43.1789,265.2632],[-3.2301,43.1764,194.797],[-3.2278,43.1763,188.3489],[-3.2235,43.1722,194.6895],[-3.224,43.1701,192.377],[-3.218,43.1752,191.2748],[-3.2126,43.1741,175.4396],[-3.2109,43.1778,202.26],[-3.2078,43.1794,171.3487],[-3.2047,43.1744,221.8533],[-3.1989,43.1709,242.2144],[-3.1875,43.1692,336.1754],[-3.1856,43.1692,392.685],[-3.1788,43.1752,628.0635],[-3.168,43.1786,641.9108],[-3.1625,43.177,641.6483],[-3.1574,43.1778,629.5245],[-3.1482,43.174,635.8162],[-3.1428,43.1682,459.9597],[-3.1413,43.1615,183.8405],[-3.1382,43.1632,168.3998],[-3.1324,43.1565,326.1631],[-3.125,43.1557,430.8054],[-3.1166,43.1463,239.2084],[-3.1113,43.1435,176.9975],[-3.0936,43.1515,418.9605],[-3.088,43.1512,476.3639],[-3.0816,43.1478,403.402],[-3.0747,43.1463,514.4014],[-3.0659,43.1558,595.2719],[-3.0269,43.1614,136.8291],[-3.0277,43.1691,134.1437],[-3.0186,43.1822,480.8767],[-3.0211,43.1923,388.9357],[-3.0175,43.1942,473.4962],[-3.0214,43.1996,494.2817],[-3.0165,43.2028,517.0493],[-3.0287,43.2051,356.3593],[-3.04,43.2099,66.3951],[-3.0332,43.2168,62.0961],[-3.0272,43.217,80.8995],[-3.0184,43.2098,412.6153],[-3.0196,43.2066,629.4041],[-3.0149,43.2057,633.9462],[-3.0122,43.2001,764.8538],[-3.0067,43.1966,848.3032],[-2.98,43.2018,941.4937],[-2.973,43.1863,703.7851],[-2.9615,43.1763,760.1119],[-2.9464,43.1709,642.3768],[-2.9541,43.1597,460.9905],[-2.9496,43.157,430.2382],[-2.9388,43.1453,120.9537],[-2.9375,43.1427,118.4481],[-2.9392,43.1388,122.3604],[-2.9358,43.1362,132.9128],[-2.9413,43.1326,174.053],[-2.9427,43.1289,187.2135],[-2.9485,43.1248,220.2684],[-2.956,43.1152,603.6088],[-2.9577,43.1152,603.6088],[-2.9648,43.1043,484.7181],[-2.9754,43.0995,300.0294],[-2.9729,43.0954,362.6275]],
[[-3.2997,43.2489,512.8215],[-3.3056,43.2526,621.3324],[-3.3032,43.2562,631.4758],[-3.3046,43.2587,641.9996],[-3.2886,43.2619,445.5937],[-3.2794,43.2619,325.1174],[-3.2713,43.2663,260.1194],[-3.2669,43.2669,237.8396],[-3.2494,43.2596,332.1173],[-3.2515,43.2475,229.8126],[-3.2573,43.2401,253.5058],[-3.2689,43.2341,232.8863],[-3.2702,43.2295,238.8715],[-3.2663,43.2228,253.1842],[-3.2713,43.2175,280.7608],[-3.265,43.2062,366.2229],[-3.2697,43.2021,455.554],[-3.2837,43.2,677.8435],[-3.285,43.1977,726.0223],[-3.291,43.2036,708.8615],[-3.2979,43.2067,688.7999],[-3.2946,43.2107,653.5088],[-3.2925,43.2191,623.6951],[-3.2964,43.2214,571.0932],[-3.2968,43.2299,516.6332],[-3.2927,43.2411,438.4998],[-3.2964,43.2434,464.6388],[-3.2997,43.2489,512.8215]]],
[[[-2.4946,43.3665,11.2773],[-2.4935,43.3676,14.948],[-2.4957,43.3682,3.2908],[-2.4976,43.3654,0.0],[-2.4951,43.3649,0.0],[-2.4946,43.3665,11.2773]]],
[[[-2.6849,43.4265,3.2737],[-2.6874,43.4274,0.0],[-2.6849,43.4246,2.1046],[-2.6815,43.4238,2.8561],[-2.6821,43.4257,0.0],[-2.6849,43.4265,3.2737]]]]}
,"properties": {"GID_2": "ESP.16.3_1","GID_0": "ESP","country": "Spain","GID_1": "ESP.16_1","province": "PaísVasco","NL_NAME_1": "NA","county": "Vizcaya","VARNAME_2": "NA","NL_NAME_2": "NA","TYPE_2": "Provincia","ENGTYPE_2": "Province","CC_2": "48","HASC_2": "ES.PV.VZ","name": "Vizcaya.county","area_km2": 2179.505,"hist_schema_id": "Elevation0-9000","hist_area_km2": {"0": 49.362,"25": 83.048,"50": 100.921,"75": 116.992,"100": 116.768,"125": 120.994,"150": 123.283,"175": 122.396,"200": 120.036,"225": 111.507,"250": 109.078,"275": 100.515,"300": 91.1,"325": 84.588,"350": 74.98,"375": 66.057,"400": 60.358,"425": 54.939,"450": 48.266,"475": 44.187,"500": 39.645,"525": 35.426,"550": 34.959,"575": 36.964,"600": 34.184,"625": 31.414,"650": 26.542,"675": 20.463,"700": 16.458,"725": 12.761,"750": 11.634,"775": 9.608,"800": 7.799,"825": 6.778,"850": 6.144,"875": 5.882,"900": 5.511,"925": 4.644,"950": 3.948,"975": 3.608,"1000": 3.236,"1025": 3.438,"1050": 3.345,"1075": 3.748,"1100": 2.819,"1125": 2.076,"1150": 1.905,"1175": 1.348,"1200": 1.053,"1225": 0.682,"1250": 0.558,"1275": 0.356,"1300": 0.248,"1325": 0.232,"1350": 0.17,"1375": 0.17,"1400": 0.139,"1425": 0.108,"1450": 0.093,"1475": 0.031}}}