{"type":"Feature","properties":{"GID_2":"ESP.12.3_1","GID_0":"ESP","country":"Spain","GID_1":"ESP.12_1","province":"Galicia","NL_NAME_1":"NA","county":"Ourense","VARNAME_2":"NA","NL_NAME_2":"NA","TYPE_2":"Provincia","ENGTYPE_2":"Province","CC_2":"32","HASC_2":"ES.GA.OR","name":"Ourense.county"},
"geometry":{"type": "MultiPolygon","coordinates": [[[[-7.4308,41.8337,364.3549],[-7.4272,41.8331,360.9568],[-7.4257,41.8294,361.1303],[-7.4266,41.8259,359.8265],[-7.4303,41.8248,360.8363],[-7.4309,41.8229,360.6088],[-7.4247,41.8165,363.2625],[-7.4295,41.8124,374.2704],[-7.4276,41.8074,358.3216],[-7.4211,41.8113,366.124],[-7.4163,41.8116,365.9279],[-7.4157,41.8135,366.288],[-7.4088,41.8167,369.9874],[-7.4027,41.8218,381.277],[-7.4026,41.8255,379.3411],[-7.3976,41.8264,383.5883],[-7.3952,41.8295,382.6259],[-7.3948,41.8332,389.0081],[-7.3916,41.835,389.7019],[-7.3904,41.8423,401.2947],[-7.3862,41.8413,442.6737],[-7.3726,41.849,564.9973],[-7.3696,41.8488,624.5328],[-7.3658,41.8528,654.9526],[-7.3639,41.8528,678.6087],[-7.3564,41.8405,757.8528],[-7.3349,41.8451,1038.9198],[-7.3153,41.8425,935.7664],[-7.3051,41.8473,806.6605],[-7.301,41.8516,807.4335],[-7.2838,41.8522,691.8037],[-7.272,41.8596,752.1861],[-7.2622,41.8628,800.6614],[-7.2578,41.8659,803.1307],[-7.245,41.8688,595.5873],[-7.232,41.8673,644.6799],[-7.2195,41.8728,667.7866],[-7.2083,41.88,625.8039],[-7.2049,41.879,650.4164],[-7.1967,41.88,692.3254],[-7.1852,41.8964,726.9479],[-7.1816,41.9084,587.6255],[-7.182,41.9129,523.6537],[-7.1735,41.9191,545.3814],[-7.1787,41.921,565.4482],[-7.1755,41.9226,568.7334],[-7.1783,41.9253,557.0784],[-7.18,41.9317,553.7794],[-7.1838,41.933,561.7686],[-7.1852,41.9354,611.3729],[-7.1833,41.9377,586.4722],[-7.1857,41.9378,579.1847],[-7.187,41.9414,571.4816],[-7.1895,41.9417,578.9827],[-7.1838,41.9447,604.3234],[-7.1874,41.9475,584.8997],[-7.1821,41.9518,612.4702],[-7.1833,41.9567,586.8704],[-7.1877,41.9567,603.2896],[-7.185,41.9622,613.3657],[-7.1866,41.9694,585.3878],[-7.1782,41.9801,669.5458],[-7.1649,41.9796,648.3251],[-7.1584,41.9762,656.1356],[-7.1544,41.98,840.1616],[-7.1519,41.9866,892.0062],[-7.1414,41.9907,975.4486],[-7.1331,41.988,1042.9312],[-7.119,41.9866,1138.2175],[-7.1111,41.9821,1073.0413],[-7.0875,41.9735,1116.9059],[-7.0846,41.964,1065.8881],[-7.0769,41.9519,746.647],[-7.0683,41.949,757.9111],[-7.0622,41.9505,754.2435],[-7.0512,41.9495,763.3405],[-7.0461,41.9546,742.7148],[-7.043,41.955,744.3184],[-7.0364,41.9511,873.1997],[-7.0108,41.9494,982.6075],[-7.0062,41.9506,973.9866],[-6.9999,41.9618,987.3273],[-6.9834,41.9729,979.7968],[-6.9904,41.9826,971.0684],[-6.9915,41.9859,957.0869],[-6.9902,41.9897,976.9229],[-6.9863,41.9948,993.632],[-6.9869,41.997,1000.4512],[-6.9794,42.0002,1013.5721],[-6.9762,42.009,1052.5121],[-6.9695,42.0153,1142.9873],[-6.9663,42.0238,1373.1157],[-6.961,42.0272,1457.9175],[-6.9645,42.0337,1240.1316],[-6.973,42.0391,1343.3248],[-6.9746,42.0551,1635.1083],[-6.9945,42.0514,1306.5232],[-7.0125,42.0527,1105.5365],[-7.0219,42.0609,1353.9661],[-7.0309,42.0633,1456.5173],[-7.0339,42.0715,1413.2279],[-7.0334,42.0742,1391.1766],[-7.0199,42.0831,960.8871],[-7.0168,42.0812,981.1778],[-7.0123,42.0851,976.9111],[-7.0031,42.0839,984.5519],[-7.003,42.0877,984.0842],[-7.0002,42.0897,992.6849],[-7.002,42.091,1009.11],[-7.0027,42.0963,1006.3821],[-6.9978,42.1008,1015.8009],[-6.995,42.1016,1006.5812],[-6.9945,42.0997,1008.0562],[-6.9913,42.0995,1017.2858],[-6.9899,42.1025,1034.5],[-6.9921,42.1047,1047.0032],[-6.9917,42.1066,1067.5883],[-6.9893,42.1077,1034.5],[-6.9887,42.1119,1034.5],[-6.9908,42.1151,1034.5],[-6.989,42.1165,1048.8247],[-6.9897,42.1213,1041.3353],[-6.9863,42.1242,1042.5421],[-6.9814,42.1233,1216.0723],[-6.9732,42.1247,1325.0146],[-6.9652,42.1285,1425.8987],[-6.9563,42.1294,1405.2377],[-6.9444,42.1417,1330.9109],[-6.9465,42.1456,1215.1709],[-6.9409,42.1668,1487.2026],[-6.9434,42.1722,1520.9575],[-6.9382,42.1774,1486.8943],[-6.9146,42.1894,1601.2982],[-6.9109,42.1884,1642.772],[-6.9009,42.1896,1685.9089],[-6.8887,42.2018,1673.7828],[-6.8931,42.2072,1745.8828],[-6.8867,42.2143,1738.4387],[-6.8697,42.2237,1637.0892],[-6.8678,42.2231,1637.0892],[-6.8566,42.2271,1721.45],[-6.8435,42.2283,1625.6562],[-6.8296,42.2261,1683.8307],[-6.8158,42.2208,1761.8771],[-6.8022,42.2184,1795.7256],[-6.7966,42.209,1894.5441],[-6.7946,42.2122,1936.5544],[-6.787,42.2157,1936.5812],[-6.7908,42.2183,1889.6243],[-6.7949,42.2245,1951.6108],[-6.7949,42.2277,2007.1577],[-6.8017,42.2345,2007.4873],[-6.803,42.2387,2031.4871],[-6.8013,42.2408,2023.7168],[-6.7957,42.2423,2097.449],[-6.7928,42.2466,2064.2571],[-6.794,42.2494,2091.6934],[-6.7874,42.2542,1985.8877],[-6.7758,42.2555,2050.9526],[-6.774,42.2542,2078.9165],[-6.7669,42.2574,1938.6517],[-6.7646,42.2679,1878.0],[-6.7658,42.271,1860.0214],[-6.7552,42.2828,1791.1627],[-6.7524,42.2887,1688.3135],[-6.741,42.2986,1828.1794],[-6.743,42.3033,1782.7615],[-6.736,42.311,1811.4801],[-6.7363,42.3186,1781.9999],[-6.7396,42.3212,1781.6033],[-6.7339,42.318,1804.5729],[-6.7369,42.325,1810.7551],[-6.7406,42.3284,1844.6165],[-6.7381,42.3401,1797.9454],[-6.7389,42.3448,1775.821],[-6.7338,42.3591,1870.8273],[-6.7494,42.3628,1749.2657],[-6.7577,42.3675,1692.8053],[-6.7664,42.365,1454.1603],[-6.7688,42.373,1418.9977],[-6.774,42.3788,1441.7465],[-6.7878,42.3826,1270.2457],[-6.7958,42.382,1315.2988],[-6.8017,42.3837,1266.7361],[-6.8021,42.3863,1111.4404],[-6.8094,42.3846,1165.2904],[-6.8207,42.3856,901.6794],[-6.8233,42.3919,833.3298],[-6.8334,42.3954,516.8658],[-6.8434,42.4058,360.826],[-6.8379,42.4091,367.2704],[-6.8311,42.4083,421.0047],[-6.8288,42.4168,362.1684],[-6.8208,42.4214,420.7645],[-6.8247,42.4259,377.9111],[-6.8145,42.4269,390.3417],[-6.8216,42.4333,369.9298],[-6.8201,42.4377,372.4368],[-6.8222,42.4539,386.9343],[-6.8113,42.4612,394.4912],[-6.8085,42.4694,403.9097],[-6.8146,42.4739,610.2737],[-6.8191,42.4823,837.0959],[-6.8253,42.4857,687.856],[-6.8226,42.4908,736.3608],[-6.8266,42.4929,631.4163],[-6.8329,42.4922,481.826],[-6.8372,42.4956,512.3343],[-6.8409,42.4889,781.9115],[-6.8487,42.487,876.1375],[-6.8599,42.4887,847.1024],[-6.8766,42.4992,804.645],[-6.8971,42.5039,1020.8228],[-6.9062,42.5078,1062.7977],[-6.9131,42.5071,963.7187],[-6.9164,42.5084,973.0397],[-6.9146,42.5101,879.3885],[-6.9249,42.5194,840.0114],[-6.9321,42.5205,993.7687],[-6.9348,42.5192,1028.4612],[-6.9599,42.5177,1072.3972],[-6.9654,42.5127,1089.7563],[-6.9734,42.494,1463.8384],[-6.9789,42.4932,1501.6588],[-6.9972,42.4995,1490.2354],[-7.0006,42.502,1521.1732],[-7.0008,42.5057,1597.8171],[-7.0195,42.5015,1463.2201],[-7.0285,42.4978,1363.3859],[-7.0325,42.5043,1351.9183],[-7.0456,42.5078,1282.2769],[-7.0517,42.5086,1298.6704],[-7.0597,42.5066,1240.5942],[-7.0737,42.5067,1429.8335],[-7.0769,42.5082,1503.3953],[-7.0762,42.4965,1220.3943],[-7.0826,42.4917,1202.0824],[-7.0874,42.4851,1196.8418],[-7.0932,42.4724,1228.0283],[-7.1001,42.4678,1119.189],[-7.0999,42.4586,1011.5986],[-7.1122,42.4573,975.8995],[-7.121,42.4518,1124.979],[-7.123,42.449,1175.882],[-7.1297,42.4466,1236.2717],[-7.1307,42.441,1209.9894],[-7.1361,42.4419,1198.5005],[-7.1479,42.4371,1163.0048],[-7.1516,42.4324,1100.9106],[-7.1515,42.4264,1062.4045],[-7.147,42.4216,998.7562],[-7.1584,42.4128,831.7968],[-7.1584,42.411,831.1543],[-7.162,42.4095,804.1802],[-7.1661,42.4044,700.4103],[-7.1642,42.4019,652.0415],[-7.165,42.3959,435.841],[-7.1676,42.3925,297.3739],[-7.1717,42.3792,633.7613],[-7.1772,42.3763,679.4932],[-7.182,42.376,678.3724],[-7.1856,42.3713,676.5156],[-7.1822,42.3656,660.9357],[-7.1904,42.364,720.0422],[-7.1956,42.3526,846.0597],[-7.1938,42.3446,774.6749],[-7.1979,42.3329,323.4495],[-7.2025,42.3257,322.3183],[-7.2175,42.3369,354.0311],[-7.2308,42.3591,375.0388],[-7.2268,42.3717,342.3445],[-7.2297,42.376,300.4202],[-7.2232,42.3836,320.9467],[-7.2177,42.3847,289.9873],[-7.2199,42.3872,437.2664],[-7.2329,42.3917,664.9114],[-7.2477,42.3899,923.8087],[-7.2535,42.3952,1003.2278],[-7.2557,42.3999,1057.6984],[-7.2597,42.4031,1095.3179],[-7.2601,42.4057,1098.9235],[-7.2647,42.4075,1133.8483],[-7.2693,42.4149,1216.1632],[-7.2753,42.4119,1137.7537],[-7.2907,42.4146,1032.6475],[-7.2966,42.4234,1076.5811],[-7.3018,42.4277,1107.3643],[-7.3068,42.4294,1052.5378],[-7.3175,42.4263,976.8565],[-7.3441,42.4296,1028.2183],[-7.3481,42.429,1022.0575],[-7.3459,42.4262,1013.9765],[-7.3585,42.4266,999.3741],[-7.3697,42.4213,993.4639],[-7.382,42.4307,690.8295],[-7.3991,42.4355,327.83],[-7.4032,42.431,226.0],[-7.4017,42.4297,226.0],[-7.403,42.4288,257.6292],[-7.4352,42.4162,229.8823],[-7.4474,42.407,243.2824],[-7.4657,42.4071,276.8237],[-7.4708,42.4034,226.0],[-7.4795,42.4012,229.3498],[-7.501,42.3887,226.0],[-7.5283,42.3838,237.6122],[-7.5408,42.3844,226.0],[-7.5494,42.387,226.0],[-7.5655,42.401,226.0],[-7.5746,42.4048,226.0],[-7.595,42.3968,236.5109],[-7.6012,42.3898,226.0],[-7.6165,42.3842,255.7083],[-7.62,42.3854,227.9261],[-7.6244,42.393,226.0],[-7.6274,42.3947,226.0],[-7.6307,42.4066,226.0],[-7.639,42.409,226.0],[-7.6473,42.4139,242.6588],[-7.6568,42.4152,156.4932],[-7.662,42.423,165.3883],[-7.6715,42.4217,188.4167],[-7.6818,42.4225,147.1469],[-7.6942,42.4279,159.0364],[-7.7013,42.4326,177.295],[-7.7048,42.444,136.5289],[-7.713,42.4524,145.3582],[-7.7305,42.4538,112.2284],[-7.739,42.4566,183.7959],[-7.7526,42.451,445.2285],[-7.7618,42.4547,503.6127],[-7.764,42.4582,575.1458],[-7.7656,42.4568,588.5963],[-7.7759,42.4606,654.4293],[-7.7811,42.4681,661.7637],[-7.7835,42.4686,662.9001],[-7.7887,42.466,626.4473],[-7.7881,42.468,635.7133],[-7.7908,42.4709,668.7021],[-7.7882,42.4735,670.7125],[-7.7815,42.4721,682.5193],[-7.7734,42.4769,681.103],[-7.7633,42.4789,621.4199],[-7.7597,42.4764,564.2595],[-7.7528,42.476,501.0926],[-7.7508,42.4791,463.1586],[-7.7481,42.48,377.5157],[-7.7528,42.487,396.2777],[-7.757,42.4867,447.8992],[-7.7613,42.4888,434.5281],[-7.7644,42.4937,477.4139],[-7.7733,42.4946,536.3009],[-7.7795,42.492,584.3795],[-7.7847,42.4861,652.8653],[-7.7996,42.48,712.9009],[-7.8067,42.4811,691.0157],[-7.8105,42.4878,704.1129],[-7.8194,42.4918,699.699],[-7.8238,42.4906,697.5281],[-7.8281,42.4934,681.3282],[-7.8419,42.4905,675.9452],[-7.8427,42.4967,673.5479],[-7.845,42.4983,695.8979],[-7.8477,42.4982,688.6146],[-7.8613,42.5041,700.8159],[-7.8777,42.5026,620.2612],[-7.8794,42.5063,620.4925],[-7.8753,42.5109,600.226],[-7.8885,42.511,680.4943],[-7.8967,42.5056,676.6031],[-7.913,42.5084,757.8126],[-7.9106,42.5125,847.8568],[-7.9025,42.5145,791.6747],[-7.9014,42.5213,730.8881],[-7.9238,42.525,993.1115],[-7.9118,42.5273,775.4321],[-7.9073,42.5309,725.7775],[-7.9026,42.529,757.2239],[-7.9001,42.5316,772.1807],[-7.9019,42.535,730.795],[-7.9009,42.5362,708.4027],[-7.894,42.5393,685.3287],[-7.8886,42.5381,680.7587],[-7.8899,42.5502,763.7095],[-7.9114,42.5561,962.7158],[-7.9173,42.5617,955.1806],[-7.9278,42.5785,1008.6751],[-7.9647,42.5666,817.1266],[-7.9731,42.5664,793.8892],[-7.992,42.5725,837.4475],[-8.0005,42.5665,792.5858],[-8.0023,42.5586,754.9169],[-8.0117,42.5519,735.8833],[-8.0132,42.5448,696.1957],[-8.0162,42.5427,701.338],[-8.0274,42.544,775.713],[-8.0313,42.5456,790.8088],[-8.0342,42.5503,801.7145],[-8.0385,42.5517,789.3031],[-8.0412,42.5509,765.1325],[-8.0483,42.5549,844.0065],[-8.0525,42.551,842.2832],[-8.0592,42.5487,826.8254],[-8.0647,42.5523,773.9922],[-8.0774,42.5533,785.4459],[-8.0893,42.5577,761.2232],[-8.0953,42.5537,742.9564],[-8.1113,42.5558,761.0496],[-8.1301,42.5524,760.3489],[-8.1365,42.5541,773.3536],[-8.1467,42.5487,809.8345],[-8.1613,42.5573,756.252],[-8.1675,42.5672,731.3478],[-8.1737,42.572,711.6571],[-8.1802,42.5672,617.6978],[-8.1863,42.5651,735.5289],[-8.1882,42.5621,788.1577],[-8.1841,42.5569,860.7776],[-8.1992,42.5518,803.4702],[-8.2174,42.5338,936.9687],[-8.2254,42.5382,759.2443],[-8.2393,42.5382,624.3095],[-8.2504,42.5309,762.2147],[-8.2636,42.5257,886.6901],[-8.2668,42.521,917.767],[-8.2712,42.5207,864.304],[-8.2724,42.5152,782.2197],[-8.2745,42.5137,738.8021],[-8.2746,42.5084,750.5175],[-8.2844,42.5061,831.4003],[-8.2884,42.5031,857.2037],[-8.2912,42.496,822.3133],[-8.3026,42.4902,691.1661],[-8.3121,42.4954,829.7217],[-8.3227,42.4949,857.6769],[-8.3341,42.4912,775.098],[-8.3403,42.4924,782.3121],[-8.3419,42.4844,796.8602],[-8.3525,42.4807,755.1924],[-8.3662,42.4873,937.0934],[-8.3478,42.4688,748.7567],[-8.342,42.4659,765.3304],[-8.3389,42.4574,796.578],[-8.3393,42.4529,831.4153],[-8.3357,42.448,865.1464],[-8.339,42.4414,891.6736],[-8.3381,42.4334,896.0915],[-8.3301,42.4206,915.7651],[-8.317,42.3828,997.3164],[-8.3145,42.381,975.3329],[-8.3171,42.3753,932.9768],[-8.3243,42.3692,935.3623],[-8.3173,42.3563,963.9315],[-8.3204,42.3524,977.925],[-8.3249,42.352,1017.4354],[-8.3245,42.345,993.7095],[-8.311,42.3438,885.5475],[-8.3051,42.34,911.4689],[-8.3028,42.3349,913.4766],[-8.2913,42.327,782.914],[-8.2886,42.3221,747.6538],[-8.2849,42.3203,761.1829],[-8.2846,42.3176,761.9468],[-8.2819,42.3165,773.4045],[-8.2783,42.3176,802.0026],[-8.2727,42.3144,949.7273],[-8.2618,42.315,1035.611],[-8.2621,42.3066,1109.6653],[-8.2666,42.2997,1107.3301],[-8.2674,42.286,1044.3647],[-8.2727,42.2824,1046.0466],[-8.2678,42.2719,1015.0131],[-8.2684,42.2635,967.0056],[-8.2644,42.2528,957.9863],[-8.2602,42.2523,908.2902],[-8.2503,42.2453,926.8171],[-8.2415,42.245,740.5173],[-8.2391,42.2398,686.2847],[-8.2329,42.2336,609.1941],[-8.2228,42.2332,660.3865],[-8.212,42.2358,719.6755],[-8.2033,42.2445,701.8716],[-8.1835,42.2434,437.4967],[-8.1649,42.246,145.8137],[-8.1617,42.2441,67.1187],[-8.1717,42.2376,67.7335],[-8.1726,42.2328,74.4139],[-8.1622,42.2273,70.8585],[-8.1639,42.2221,73.6045],[-8.1667,42.2201,69.8528],[-8.1736,42.22,94.977],[-8.1829,42.2169,90.5578],[-8.1896,42.2133,83.1681],[-8.1921,42.2091,63.0],[-8.1893,42.2075,63.0],[-8.1859,42.2098,62.5],[-8.1795,42.2099,69.515],[-8.1792,42.2076,62.5],[-8.1746,42.2038,80.4683],[-8.1771,42.1961,80.486],[-8.1759,42.1857,133.5406],[-8.1744,42.1838,104.6039],[-8.1614,42.1809,61.5],[-8.161,42.1791,61.0],[-8.1662,42.1727,69.956],[-8.1741,42.1711,68.9399],[-8.1752,42.1657,60.5],[-8.1806,42.1584,60.5],[-8.1995,42.1541,52.1357],[-8.1964,42.1527,62.9521],[-8.1954,42.1482,130.1408],[-8.1915,42.1428,142.9496],[-8.188,42.1436,190.2928],[-8.1908,42.1402,196.0298],[-8.1876,42.1375,183.4293],[-8.1896,42.1352,212.3197],[-8.1886,42.1337,250.7309],[-8.1935,42.1291,275.9288],[-8.1911,42.1182,329.8566],[-8.1918,42.1145,345.7327],[-8.1888,42.1112,352.4178],[-8.1859,42.0982,444.5894],[-8.1879,42.0924,489.5848],[-8.1849,42.0838,591.1818],[-8.1865,42.0814,610.1564],[-8.1854,42.0764,709.8976],[-8.1881,42.0739,759.8417],[-8.182,42.065,908.5679],[-8.1755,42.0653,1037.5428],[-8.1704,42.0673,1071.2726],[-8.1596,42.0758,1187.0128],[-8.1496,42.0793,1186.5142],[-8.1379,42.0758,1121.5308],[-8.1214,42.0828,1187.8617],[-8.1187,42.0823,1196.8427],[-8.0966,42.0723,1259.3971],[-8.0882,42.0576,1247.4038],[-8.0844,42.0473,1280.8776],[-8.0827,42.0282,1328.1449],[-8.086,42.0165,1279.0295],[-8.0931,42.0118,1164.0518],[-8.115,42.0049,1215.7368],[-8.1247,42.0066,1222.4757],[-8.1278,42.0056,1175.0424],[-8.1407,41.9887,975.5577],[-8.163,41.9827,718.7139],[-8.1628,41.9756,714.571],[-8.1692,41.9662,708.5414],[-8.1695,41.963,669.9155],[-8.1736,41.9624,646.1115],[-8.1762,41.9589,634.9516],[-8.1749,41.955,605.0814],[-8.1801,41.9537,586.5618],[-8.1979,41.9395,503.2556],[-8.1978,41.9375,491.2449],[-8.2025,41.9324,472.2114],[-8.2043,41.927,366.9405],[-8.2102,41.9236,357.7448],[-8.212,41.9186,335.2953],[-8.2168,41.9135,339.2727],[-8.2168,41.9053,325.0],[-8.2143,41.9012,325.0],[-8.2153,41.8982,325.0],[-8.2055,41.8937,334.4381],[-8.2013,41.8881,331.7338],[-8.2005,41.8828,325.0],[-8.1979,41.8795,325.0],[-8.2007,41.8782,325.0],[-8.2,41.8737,331.021],[-8.1925,41.8766,325.0],[-8.1829,41.875,325.0],[-8.1717,41.8791,325.0],[-8.1693,41.8765,339.7647],[-8.1664,41.8624,571.3135],[-8.1617,41.861,777.5137],[-8.165,41.8181,1207.7711],[-8.1543,41.818,1106.2001],[-8.1309,41.8089,770.4236],[-8.1244,41.8086,911.7842],[-8.1166,41.8127,1107.115],[-8.1045,41.8118,1231.6505],[-8.0939,41.808,1302.6683],[-8.0933,41.8111,1303.5865],[-8.0904,41.8124,1308.5708],[-8.0873,41.8129,1390.1155],[-8.0839,41.8107,1398.6368],[-8.0789,41.8136,1369.9844],[-8.0734,41.8132,1446.968],[-8.0655,41.8174,1394.7891],[-8.0576,41.8157,1331.8346],[-8.0552,41.8168,1362.8674],[-8.0534,41.8206,1487.2185],[-8.0508,41.8194,1475.3529],[-8.0457,41.8241,1424.7886],[-8.0413,41.8252,1511.5376],[-8.0416,41.8278,1512.3918],[-8.0387,41.83,1484.634],[-8.0301,41.8296,1410.4346],[-8.0193,41.8321,1267.5437],[-8.014,41.829,1312.7173],[-8.0058,41.8446,1294.2968],[-8.006,41.8471,1282.2915],[-8.003,41.8503,1308.1257],[-7.9957,41.8525,1344.6566],[-7.9944,41.8542,1352.3972],[-7.9956,41.858,1381.0011],[-7.9894,41.8595,1381.0133],[-7.9899,41.8625,1373.4196],[-7.9877,41.8692,1345.2214],[-7.9715,41.8764,1279.8934],[-7.9692,41.8744,1237.1365],[-7.9567,41.8752,1271.2268],[-7.9561,41.8732,1255.7083],[-7.9488,41.871,1196.9312],[-7.9285,41.8778,1367.6511],[-7.9212,41.8778,1360.9421],[-7.9197,41.8802,1361.4192],[-7.9213,41.8818,1355.5518],[-7.9101,41.9073,931.3359],[-7.9097,41.9225,838.7499],[-7.9063,41.9271,849.6119],[-7.8879,41.9268,870.43],[-7.8847,41.9243,873.2864],[-7.8837,41.9184,861.8823],[-7.8874,41.9073,853.1924],[-7.8844,41.8891,1022.7664],[-7.8848,41.8809,1002.1303],[-7.8884,41.8697,1119.3938],[-7.8882,41.8661,1184.5861],[-7.8922,41.8595,1260.0088],[-7.8879,41.8556,1256.4724],[-7.8816,41.8561,1266.1631],[-7.8728,41.8449,1386.2949],[-7.8719,41.8501,1368.7642],[-7.8663,41.8589,1305.4766],[-7.859,41.8605,1352.7637],[-7.8584,41.8626,1364.0386],[-7.8494,41.8617,1315.9379],[-7.8415,41.8665,1354.0378],[-7.8452,41.8813,1306.7948],[-7.8028,41.8819,1122.0007],[-7.7869,41.8841,1221.2454],[-7.7783,41.8869,1176.2449],[-7.7635,41.899,1231.0411],[-7.7532,41.8982,1173.6901],[-7.7498,41.8948,1122.9285],[-7.745,41.8931,1087.1191],[-7.7333,41.8923,1272.6125],[-7.7221,41.9004,1346.6824],[-7.7008,41.9077,1336.6136],[-7.6878,41.9022,1210.3503],[-7.6781,41.8932,831.9382],[-7.6682,41.8933,788.9729],[-7.6654,41.8878,754.6096],[-7.6538,41.8812,741.2955],[-7.6254,41.8799,652.8783],[-7.6184,41.8851,667.7419],[-7.6076,41.8795,581.8631],[-7.5915,41.8807,581.1855],[-7.5872,41.8795,583.9048],[-7.5858,41.8819,573.4231],[-7.5833,41.8787,611.9944],[-7.5841,41.8757,609.5279],[-7.5886,41.8735,612.6252],[-7.5893,41.8711,611.5252],[-7.5983,41.8693,648.8186],[-7.6018,41.8665,658.0264],[-7.5994,41.8647,664.9127],[-7.6001,41.8604,674.3554],[-7.6072,41.8526,704.5438],[-7.6061,41.8487,715.9272],[-7.6096,41.8487,707.2021],[-7.6115,41.8467,718.978],[-7.6119,41.8406,741.6328],[-7.6143,41.8368,745.452],[-7.6139,41.8297,752.2487],[-7.6096,41.8296,776.0648],[-7.5988,41.8331,840.4973],[-7.5739,41.8297,858.3107],[-7.5662,41.8329,847.9995],[-7.559,41.8344,814.6909],[-7.5509,41.8337,797.3535],[-7.5491,41.8358,783.0646],[-7.5441,41.8354,761.6812],[-7.544,41.8368,750.9823],[-7.5406,41.8375,730.6591],[-7.5385,41.8366,648.8729],[-7.5213,41.8419,677.8216],[-7.5056,41.8508,533.5366],[-7.5076,41.8556,643.6135],[-7.5133,41.8621,807.5149],[-7.5113,41.8653,795.3839],[-7.5022,41.8694,726.0727],[-7.4913,41.8712,678.4385],[-7.4852,41.8613,542.7062],[-7.4742,41.8638,433.1166],[-7.4525,41.8651,365.3174],[-7.4456,41.8578,365.4502],[-7.4488,41.8528,364.1566],[-7.4467,41.8433,384.7687],[-7.4437,41.8394,390.8703],[-7.4397,41.8387,378.2928],[-7.4308,41.8337,364.3549]]]]}}