{"type":"Feature","properties":{"GID_3":"ESP.1.5.5_1","GID_0":"ESP","country":"Spain","GID_1":"ESP.1_1","province":"Andalucía","NL_NAME_1":"NA","GID_2":"ESP.1.5_1","county":"Huelva","NL_NAME_2":"NA","city":"n.a.(137)","VARNAME_3":"NA","NL_NAME_3":"NA","TYPE_3":"Comarca","ENGTYPE_3":"Comarca","CC_3":"NA","HASC_3":"NA","name":"n.a.(137).city"},
"geometry":{"type": "MultiPolygon","coordinates": [[[[-6.3531,36.855,0.0],[-6.3451,36.8891,0.0],[-6.338,36.8962,0.2803],[-6.3309,36.8988,0.0],[-6.3345,36.9033,0.0],[-6.3446,36.907,1.0027],[-6.3567,36.9191,1.0278],[-6.3709,36.9268,0.7084],[-6.3787,36.9347,0.9186],[-6.373,36.9366,0.6803],[-6.3637,36.9458,0.7448],[-6.3596,36.9597,1.075],[-6.361,36.9719,0.6956],[-6.3539,36.9863,0.6555],[-6.3567,37.0002,0.6761],[-6.3798,37.0484,0.6795],[-6.3806,37.0596,0.6857],[-6.3862,37.0744,1.0963],[-6.3854,37.0837,0.467],[-6.3765,37.0976,0.2557],[-6.3683,37.1043,0.3795],[-6.3562,37.1107,0.6029],[-6.3599,37.1173,1.316],[-6.3535,37.1182,1.0942],[-6.3494,37.1211,1.0445],[-6.3436,37.1207,1.0355],[-6.3422,37.123,1.0838],[-6.343,37.128,1.0642],[-6.3463,37.1292,0.9313],[-6.3485,37.1324,1.3419],[-6.3554,37.1345,1.2707],[-6.3595,37.1384,1.0161],[-6.3528,37.1474,1.2999],[-6.3528,37.1504,1.3828],[-6.3486,37.1524,1.6837],[-6.336,37.1696,7.4454],[-6.3504,37.1806,25.1613],[-6.3529,37.1961,16.6848],[-6.3519,37.1982,20.4862],[-6.3532,37.199,20.4044],[-6.3497,37.2031,19.217],[-6.3505,37.2077,20.0334],[-6.3478,37.2093,21.0935],[-6.3451,37.2183,23.1999],[-6.3597,37.2381,44.186],[-6.3554,37.2419,50.32],[-6.3511,37.2496,51.9364],[-6.3542,37.2555,53.453],[-6.3488,37.2661,57.7886],[-6.3369,37.2748,48.8382],[-6.3415,37.278,45.6167],[-6.3427,37.2812,41.863],[-6.3399,37.2831,47.1597],[-6.3383,37.2882,47.3982],[-6.3364,37.2895,51.6881],[-6.3329,37.2991,58.6231],[-6.3438,37.3131,70.1211],[-6.3713,37.3275,85.3572],[-6.3919,37.3428,94.9488],[-6.408,37.3335,122.1292],[-6.4199,37.3199,88.1052],[-6.4331,37.3287,92.2649],[-6.4402,37.331,95.985],[-6.4499,37.3397,106.1919],[-6.4569,37.3425,110.3291],[-6.4536,37.3564,135.3347],[-6.4472,37.3633,159.0864],[-6.4693,37.3719,167.5755],[-6.4817,37.3552,123.1499],[-6.4873,37.3502,139.7892],[-6.4869,37.3464,150.4233],[-6.4684,37.3358,142.5171],[-6.4719,37.3306,158.9245],[-6.4979,37.3155,125.2099],[-6.5041,37.3092,106.2437],[-6.517,37.3025,80.2903],[-6.5209,37.3016,67.9899],[-6.5241,37.3046,71.7233],[-6.5263,37.3045,82.5695],[-6.5325,37.3016,95.3974],[-6.5351,37.2965,85.4884],[-6.5352,37.2906,75.366],[-6.5376,37.2881,80.2669],[-6.5487,37.2876,99.4186],[-6.5592,37.291,108.8948],[-6.5658,37.2844,103.8425],[-6.5735,37.2815,77.8093],[-6.6128,37.2527,96.9607],[-6.6291,37.2464,87.2392],[-6.6393,37.2405,88.919],[-6.6679,37.2338,92.0532],[-6.6843,37.2206,70.8183],[-6.7256,37.1962,48.7164],[-6.7308,37.1991,48.673],[-6.7318,37.2039,50.9321],[-6.7343,37.2069,51.4616],[-6.7428,37.2112,53.7943],[-6.7055,37.2424,90.1304],[-6.715,37.2506,97.6124],[-6.7001,37.279,106.6982],[-6.7022,37.2818,107.3815],[-6.6998,37.2861,111.9912],[-6.7012,37.2878,112.8585],[-6.6987,37.2887,113.0866],[-6.6975,37.2912,116.2471],[-6.6988,37.2946,120.7493],[-6.6977,37.2967,122.5276],[-6.7018,37.2986,125.0137],[-6.7074,37.3041,89.3483],[-6.7099,37.3126,98.1789],[-6.7228,37.3288,8.8146],[-6.7266,37.3284,7.3029],[-6.7492,37.317,6.3488],[-6.7565,37.3099,6.5311],[-6.762,37.308,4.783],[-6.7668,37.3084,6.0479],[-6.7739,37.3028,5.9753],[-6.7779,37.3042,3.9771],[-6.7781,37.3063,3.2394],[-6.7857,37.3105,2.958],[-6.7977,37.3085,4.8778],[-6.8003,37.3049,2.247],[-6.8024,37.3045,2.3323],[-6.8044,37.3095,1.3389],[-6.8131,37.3099,1.2468],[-6.8191,37.312,1.348],[-6.8227,37.3104,1.4177],[-6.8259,37.3033,0.2063],[-6.829,37.3011,0.5035],[-6.8417,37.2963,0.6961],[-6.8462,37.304,1.1438],[-6.8529,37.3044,0.817],[-6.8562,37.3025,1.5376],[-6.8596,37.2932,0.0],[-6.866,37.2896,0.2666],[-6.8754,37.2735,1.381],[-6.876,37.269,0.0],[-6.8751,37.2679,0.0],[-6.8685,37.2732,0.0],[-6.8637,37.2732,0.7456],[-6.8679,37.2724,0.0],[-6.8749,37.2674,0.0],[-6.8796,37.2596,0.3391],[-6.9021,37.2407,0.3431],[-6.9071,37.2326,0.0],[-6.9343,37.2085,0.0],[-6.934,37.2063,0.0],[-6.9385,37.2071,0.0],[-6.9401,37.2057,0.0],[-6.939,37.2015,0.0],[-6.937,37.2021,5.7624],[-6.934,37.1991,4.1857],[-6.9349,37.1968,5.0248],[-6.9365,37.1968,3.6177],[-6.9385,37.1996,0.0],[-6.9374,37.1954,3.7217],[-6.9337,37.1968,5.0248],[-6.9307,37.1957,13.1957],[-6.9318,37.1924,5.5592],[-6.9362,37.1926,0.3113],[-6.9318,37.186,0.0],[-6.924,37.1829,1.0259],[-6.9196,37.1793,2.7757],[-6.9215,37.1765,0.0],[-6.9174,37.1768,0.0],[-6.909,37.1718,1.7503],[-6.9129,37.1701,0.0],[-6.9107,37.169,0.0],[-6.9085,37.1707,4.7885],[-6.9057,37.1688,2.7808],[-6.9082,37.1671,0.0],[-6.9046,37.1654,0.0],[-6.9057,37.1671,0.0],[-6.9037,37.1682,4.1023],[-6.8974,37.1641,2.6716],[-6.899,37.1607,0.0],[-6.8971,37.1601,0.0],[-6.8962,37.1624,2.0672],[-6.896,37.1607,0.1416],[-6.8904,37.1571,1.3398],[-6.8751,37.1488,3.6646],[-6.8715,37.1488,4.4817],[-6.8368,37.1363,7.494],[-6.8338,37.1346,0.4107],[-6.8338,37.1315,0.7528],[-6.8299,37.131,0.3564],[-6.8315,37.1296,1.0921],[-6.8351,37.1318,0.0],[-6.8318,37.1285,0.0],[-6.8293,37.1285,0.0],[-6.8279,37.1313,2.8072],[-6.826,37.1315,3.8394],[-6.821,37.1288,5.3948],[-6.8076,37.126,14.3143],[-6.7799,37.1151,4.6455],[-6.7468,37.0996,3.5091],[-6.5982,37.0238,7.5499],[-6.5171,36.9746,4.5011],[-6.4999,36.9601,1.9671],[-6.4615,36.9232,2.8279],[-6.4474,36.9057,4.1383],[-6.4268,36.8701,5.4295],[-6.4018,36.8179,2.8292],[-6.3971,36.8099,0.0],[-6.3904,36.8035,1.251],[-6.3699,36.7962,1.7616],[-6.3562,36.7969,0.0],[-6.3526,36.799,6.033],[-6.3488,36.7967,0.0],[-6.3444,36.7993,0.0],[-6.3422,36.8031,0.0],[-6.3447,36.8159,0.0],[-6.3517,36.8253,0.0],[-6.3538,36.8383,0.0],[-6.3531,36.855,0.0]]],
[[[-6.8363,37.1151,0.0],[-6.8371,37.1157,0.0],[-6.8324,37.1085,0.0],[-6.8346,37.1135,0.0],[-6.8363,37.1151,0.0]]],
[[[-6.8432,37.1226,0.0],[-6.844,37.1229,0.0],[-6.8374,37.1163,0.0],[-6.8374,37.1174,0.0],[-6.8432,37.1226,0.0]]],
[[[-6.8518,37.1291,0.9934],[-6.8537,37.1299,0.5987],[-6.8521,37.1279,0.0],[-6.8446,37.1235,0.0],[-6.8457,37.1251,0.0],[-6.8518,37.1291,0.9934]]],
[[[-6.9235,37.1629,1.0157],[-6.9245,37.1638,0.3535],[-6.926,37.1621,0.4143],[-6.924,37.1593,1.0238],[-6.8776,37.1407,1.3951],[-6.8551,37.1296,0.5987],[-6.8537,37.1301,0.5987],[-6.8626,37.1341,2.7645],[-6.8665,37.1387,1.4182],[-6.874,37.1418,1.7658],[-6.8779,37.141,1.3951],[-6.8965,37.1504,2.047],[-6.9026,37.1563,0.0],[-6.9062,37.1565,0.7698],[-6.9126,37.161,0.0],[-6.9235,37.1629,1.0157]]]]}}