{"type": "Feature","bbox": [-4.8743,38.9371,-3.7441,39.5768],"geometry": {"type": "MultiPolygon","coordinates": [[[[-4.2705,38.9379,789.0443],[-4.2603,38.9371,746.259],[-4.2543,38.9596,582.0311],[-4.2507,38.9667,740.6706],[-4.25,38.9747,727.7999],[-4.2451,38.9761,804.1953],[-4.2324,38.9706,766.6857],[-4.2098,38.9711,632.6766],[-4.1885,38.9681,797.7231],[-4.1821,38.9685,800.5303],[-4.1793,38.9736,804.1528],[-4.1713,38.9754,755.2737],[-4.1671,38.9977,659.4916],[-4.1595,39.0038,750.3224],[-4.1614,39.0063,805.8683],[-4.1586,39.0107,778.8077],[-4.1568,39.0125,761.8418],[-4.1471,39.0153,717.4825],[-4.1382,39.0143,742.2575],[-4.1319,39.0157,738.6213],[-4.1333,39.0233,736.6983],[-4.114,39.0379,792.2807],[-4.1127,39.0421,804.0917],[-4.1053,39.0466,778.4777],[-4.103,39.0503,753.7035],[-4.1088,39.0549,779.2622],[-4.1064,39.0581,730.86],[-4.1122,39.0669,728.777],[-4.1119,39.0793,745.9004],[-4.1164,39.0858,771.6843],[-4.1143,39.0869,745.6085],[-4.1139,39.09,782.264],[-4.1057,39.0924,793.4404],[-4.1066,39.0955,767.7646],[-4.1023,39.1029,764.9592],[-4.0893,39.1047,807.8037],[-4.0795,39.1141,824.3366],[-4.0726,39.112,805.6949],[-4.0652,39.1149,859.1602],[-4.0653,39.1194,861.5356],[-4.0704,39.125,817.9393],[-4.0762,39.1273,864.3202],[-4.0744,39.1324,801.0584],[-4.0667,39.1369,835.8632],[-4.0622,39.1376,883.2843],[-4.0609,39.1399,865.642],[-4.0234,39.1503,799.8785],[-4.008,39.1502,658.0825],[-3.9989,39.1536,646.6165],[-3.963,39.1547,701.4498],[-3.9373,39.1584,692.3768],[-3.9344,39.1601,702.1741],[-3.9135,39.1581,646.9652],[-3.9029,39.1552,640.358],[-3.888,39.1545,617.5327],[-3.8676,39.1482,632.2107],[-3.8327,39.1422,635.5469],[-3.8067,39.1343,616.6849],[-3.802,39.1345,628.8256],[-3.7784,39.1416,622.0721],[-3.7624,39.1524,635.3138],[-3.7656,39.1573,634.6277],[-3.7657,39.1923,644.2318],[-3.769,39.2002,649.8266],[-3.7709,39.2139,663.5336],[-3.7652,39.2121,658.5786],[-3.7573,39.2136,669.0374],[-3.7513,39.2248,893.9905],[-3.7527,39.2618,726.921],[-3.7441,39.2738,746.2408],[-3.7447,39.2828,757.9296],[-3.7568,39.2901,891.2599],[-3.7656,39.2933,1018.6868],[-3.7928,39.2923,1056.7671],[-3.8099,39.2881,1104.123],[-3.8127,39.2862,1137.2415],[-3.8153,39.2792,1154.5338],[-3.8282,39.269,1027.4772],[-3.8372,39.2669,1003.7471],[-3.8416,39.2596,929.1349],[-3.8572,39.2585,925.4237],[-3.8759,39.2621,705.3008],[-3.9004,39.2795,995.2626],[-3.9145,39.2843,768.1858],[-3.9269,39.2841,705.3729],[-3.9654,39.2982,898.9939],[-3.9668,39.2994,927.8647],[-3.9657,39.301,872.2264],[-3.9584,39.3072,921.9656],[-3.9588,39.3102,896.6733],[-3.9661,39.3165,953.4739],[-3.9654,39.3192,989.6974],[-3.9682,39.3235,977.0708],[-3.9646,39.3309,988.7035],[-3.9684,39.3325,994.3906],[-3.9677,39.3426,947.038],[-3.9719,39.3473,931.0654],[-3.9721,39.3522,1033.5132],[-4.0012,39.3515,1002.2697],[-4.0254,39.3583,980.0017],[-4.0415,39.3579,985.9939],[-4.047,39.3606,921.4612],[-4.0733,39.3654,953.5248],[-4.0805,39.3602,915.1116],[-4.0858,39.3495,1030.1744],[-4.1043,39.3411,890.8583],[-4.1086,39.3487,1042.6541],[-4.1141,39.3479,1052.8157],[-4.1154,39.3565,1031.0597],[-4.1204,39.3626,1039.1108],[-4.1279,39.3655,1050.4932],[-4.1354,39.363,1036.6038],[-4.1407,39.364,1014.8092],[-4.148,39.3628,1062.4607],[-4.1478,39.3666,1043.0308],[-4.1427,39.3725,1026.3926],[-4.1428,39.3765,939.8253],[-4.1324,39.3969,740.1381],[-4.135,39.4004,729.2313],[-4.1278,39.4089,740.8611],[-4.1297,39.4139,746.1294],[-4.1204,39.4355,908.0648],[-4.1203,39.4459,1053.1035],[-4.1162,39.4506,1126.947],[-4.118,39.4569,1230.1976],[-4.1085,39.4602,1229.4279],[-4.1036,39.4592,1187.8857],[-4.0999,39.4554,1143.9675],[-4.0812,39.4517,1227.3877],[-4.0756,39.4525,1226.1285],[-4.068,39.4571,1226.8491],[-4.0642,39.4623,1216.5266],[-4.0645,39.4669,1205.269],[-4.0621,39.4672,1156.2937],[-4.0587,39.4722,1168.3319],[-4.0634,39.4769,1043.2336],[-4.0631,39.4797,1027.1254],[-4.0676,39.4858,960.1536],[-4.065,39.4935,918.1682],[-4.068,39.5018,875.1129],[-4.0597,39.5219,821.7319],[-4.0498,39.5225,818.5488],[-4.042,39.5207,812.7767],[-4.0405,39.5219,812.7767],[-4.03,39.522,804.8516],[-4.0398,39.5592,939.506],[-4.0377,39.5657,1099.4979],[-4.0395,39.5677,1145.8589],[-4.0397,39.5742,1256.0762],[-4.0417,39.5754,1239.7294],[-4.0722,39.5722,1202.9897],[-4.0818,39.5681,1176.3844],[-4.0894,39.5692,1249.2452],[-4.1013,39.5658,1279.1002],[-4.1245,39.5636,1242.9377],[-4.1357,39.5652,1229.2839],[-4.1451,39.5692,1270.9871],[-4.1492,39.5734,1365.9307],[-4.1586,39.5768,1323.6632],[-4.1664,39.5669,985.3922],[-4.1931,39.4954,730.6808],[-4.196,39.4928,729.2783],[-4.2029,39.4906,727.6619],[-4.2044,39.4882,729.5855],[-4.242,39.4779,749.6752],[-4.244,39.4793,755.9714],[-4.2568,39.4808,762.3732],[-4.2734,39.4797,781.2359],[-4.2979,39.4845,821.4898],[-4.3205,39.4834,814.2828],[-4.3276,39.4877,838.9946],[-4.3448,39.4901,834.7079],[-4.3595,39.4955,847.9944],[-4.3771,39.496,842.9491],[-4.3952,39.5022,867.0526],[-4.4043,39.5036,872.0883],[-4.4092,39.5063,886.894],[-4.4211,39.507,891.9448],[-4.4245,39.5093,963.8258],[-4.4229,39.5122,996.5254],[-4.432,39.519,1155.6172],[-4.4435,39.5231,1071.4],[-4.4465,39.5181,1138.0961],[-4.453,39.5173,1105.4474],[-4.4594,39.4925,832.3846],[-4.4625,39.4893,833.803],[-4.4615,39.4786,811.1035],[-4.4802,39.4858,820.9117],[-4.4832,39.4884,847.4369],[-4.4833,39.4925,881.0427],[-4.4851,39.4935,875.2048],[-4.4881,39.5019,782.8669],[-4.4957,39.5078,725.724],[-4.5006,39.5186,832.4653],[-4.5067,39.522,706.6917],[-4.5111,39.5221,688.6785],[-4.5033,39.5279,705.8559],[-4.5016,39.5351,720.9111],[-4.4918,39.5382,849.3635],[-4.4834,39.5356,804.7291],[-4.4821,39.5388,851.998],[-4.4938,39.5449,825.7827],[-4.5043,39.5465,777.6341],[-4.5213,39.5559,787.5551],[-4.5223,39.5614,815.788],[-4.5253,39.5615,799.6443],[-4.527,39.5574,777.098],[-4.5312,39.5557,777.4332],[-4.5283,39.5473,727.3501],[-4.5301,39.5421,701.418],[-4.5347,39.5381,686.6821],[-4.531,39.5316,670.8464],[-4.5424,39.5383,685.8266],[-4.5426,39.544,698.9691],[-4.5609,39.5337,827.4302],[-4.5625,39.5307,884.9301],[-4.56,39.5271,881.8254],[-4.5596,39.5165,898.3256],[-4.5545,39.5108,975.5225],[-4.5575,39.5069,854.256],[-4.5673,39.5024,761.6908],[-4.5678,39.4973,686.2255],[-4.5854,39.4969,858.3393],[-4.5902,39.4998,1049.0319],[-4.6183,39.4847,806.9335],[-4.6139,39.4853,811.3182],[-4.6146,39.4659,815.1821],[-4.6115,39.4602,852.2921],[-4.618,39.4544,840.9579],[-4.6404,39.4498,713.4954],[-4.6596,39.4539,666.2789],[-4.6876,39.4503,679.5923],[-4.6862,39.4415,672.9425],[-4.6817,39.4368,675.6393],[-4.6777,39.4354,674.2637],[-4.6728,39.4267,668.3225],[-4.6694,39.4245,573.4292],[-4.6721,39.4127,540.8171],[-4.6831,39.4007,531.8425],[-4.6877,39.3928,530.4357],[-4.6878,39.3858,498.3077],[-4.693,39.3824,494.6162],[-4.6953,39.3764,625.9098],[-4.6942,39.3736,620.2072],[-4.7041,39.3645,620.9863],[-4.7099,39.3458,600.4423],[-4.7059,39.3306,520.6356],[-4.7066,39.3277,579.2079],[-4.7137,39.3287,582.2457],[-4.7347,39.3267,504.2541],[-4.7609,39.3208,530.4995],[-4.7545,39.3115,630.1184],[-4.7315,39.2549,754.0037],[-4.7336,39.2526,759.4514],[-4.7134,39.2443,691.7032],[-4.7143,39.2422,667.3201],[-4.7108,39.2271,546.4481],[-4.7051,39.2138,507.4032],[-4.7081,39.2099,422.5],[-4.6896,39.204,426.0491],[-4.6872,39.2024,422.5],[-4.6825,39.193,423.0],[-4.6776,39.1918,424.9262],[-4.6723,39.1873,427.1912],[-4.6651,39.1861,425.3788],[-4.6632,39.1842,425.2932],[-4.6632999999999996,39.1793,427.8327],[-4.6492,39.172,435.5603],[-4.6475,39.1687,440.722],[-4.6489,39.1649,504.5593],[-4.6615,39.1662,695.0716],[-4.6752,39.1707,720.4601],[-4.6764,39.1696,729.9618],[-4.7143,39.1876,647.0286],[-4.7424,39.1945,654.2868],[-4.7735,39.1895,692.6182],[-4.8102,39.1994,819.7574],[-4.8091,39.1979,779.5955],[-4.8131,39.191,695.7262],[-4.8211,39.1809,682.2272],[-4.8313,39.1761,676.5975],[-4.8314,39.1642,702.0696],[-4.8386,39.1639,681.8298],[-4.8451,39.1614,612.6625],[-4.8535,39.1517,558.6003],[-4.8549,39.1473,558.9196],[-4.8536,39.141,548.2771],[-4.858,39.1347,535.4398],[-4.856,39.1317,533.2731],[-4.8571,39.1227,526.8151],[-4.8696,39.1135,532.5718],[-4.8743,39.099,524.6536],[-4.8583,39.0769,570.2059],[-4.8357,39.0709,608.4037],[-4.8257,39.0626,646.3044],[-4.8176,39.0735,792.8132],[-4.8158,39.0737,791.4669],[-4.8069,39.0703,768.8539],[-4.7916,39.0589,773.6426],[-4.7763,39.0589,811.3719],[-4.7666,39.066,806.0569],[-4.7634,39.0709,795.1207],[-4.758,39.0697,810.1819],[-4.7488,39.0795,715.4912],[-4.7401,39.0842,800.9788],[-4.7326,39.0823,802.6508],[-4.7301,39.0782,789.2786],[-4.72,39.0801,785.8279],[-4.7103,39.0802,759.8589],[-4.705,39.0785,777.9209],[-4.7004,39.0679,746.7113],[-4.7017,39.061,717.3314],[-4.6811,39.0637,735.447],[-4.6808,39.0658,652.0789],[-4.6757,39.0639,653.4622],[-4.657,39.0629,645.1288],[-4.6453,39.0582,578.3662],[-4.6072,39.0549,767.9165],[-4.5957,39.0484,788.3898],[-4.5908,39.0489,702.9664],[-4.5748,39.0374,750.9914],[-4.5524,39.0336,840.828],[-4.5209,39.0154,616.3323],[-4.4977,38.9977,585.3035],[-4.4963,38.9937,606.9146],[-4.475,38.9681,603.9055],[-4.4761,38.9609,645.3489],[-4.4795,38.9551,662.845],[-4.4796,38.9486,683.6364],[-4.4654,38.9533,779.7932],[-4.4645,38.9577,774.446],[-4.4604,38.9602,773.9826],[-4.4439,38.9631,719.4153],[-4.4301,38.9627,731.9419],[-4.4248,38.9609,598.9119],[-4.4009,38.9696,776.7018],[-4.3922,38.9708,768.0999],[-4.3809,38.9647,793.5417],[-4.378,38.9647,785.061],[-4.3758,38.9586,798.0992],[-4.3715,38.9593,785.1447],[-4.3678,38.958,786.3611],[-4.3649,38.965,822.7104],[-4.3608,38.967,775.2971],[-4.3553,38.9685,753.4393],[-4.3485,38.9681,689.1794],[-4.3432,38.9708,695.0175],[-4.3306,38.9707,627.8989],[-4.3205,38.9677,657.1706],[-4.3125,38.9694,710.3466],[-4.3091,38.9667,686.6268],[-4.3093,38.9595,828.2382],[-4.307,38.9583,840.3093],[-4.3064,38.9536,799.821],[-4.2982,38.9537,817.6492],[-4.2973,38.9551,816.1796],[-4.2786,38.9506,669.0001],[-4.2767,38.9431,766.2812],[-4.2705,38.9379,789.0443]]]]}
,"properties": {"GID_3": "ESP.4.2.4_1","GID_0": "ESP","country": "Spain","GID_1": "ESP.4_1","province": "Castilla-LaMancha","NL_NAME_1": "NA","GID_2": "ESP.4.2_1","county": "CiudadReal","NL_NAME_2": "NA","city": "n.a.(82)","VARNAME_3": "NA","NL_NAME_3": "NA","TYPE_3": "Comarca","ENGTYPE_3": "Comarca","CC_3": "NA","HASC_3": "NA","name": "n.a.(82).city","area_km2": 3648.413,"hist_schema_id": "Elevation0-9000","hist_area_km2": {"425": 1.906,"450": 9.472,"475": 30.108,"500": 41.281,"525": 61.64,"550": 96.299,"575": 173.796,"600": 310.726,"625": 418.195,"650": 334.911,"675": 312.349,"700": 282.571,"725": 254.069,"750": 229.932,"775": 202.706,"800": 179.643,"825": 167.506,"850": 128.675,"875": 97.526,"900": 79.187,"925": 60.674,"950": 49.994,"975": 37.411,"1000": 27.996,"1025": 22.371,"1050": 11.321,"1075": 3.764,"1100": 3.862,"1125": 3.437,"1150": 3.174,"1175": 2.896,"1200": 2.847,"1225": 3.24,"1250": 1.897,"1275": 0.425,"1300": 0.245,"1325": 0.147,"1350": 0.18,"1375": 0.033}}}