{"type": "Feature","bbox": [-3.9015,37.9777,-3.2817,38.473],"geometry": {"type": "MultiPolygon","coordinates": [[[[-3.763,37.9782,239.0638],[-3.756,37.9829,240.0414],[-3.7522,37.9884,240.9154],[-3.7469,37.9897,241.7177],[-3.7314,37.9856,243.7851],[-3.7264,37.9871,248.6671],[-3.7122,37.987,248.7363],[-3.7002,37.9976,249.7681],[-3.6883,38.0022,245.8594],[-3.6839,38.007,248.4298],[-3.6624,38.0087,255.7776],[-3.6529,38.0184,263.6075],[-3.6451,38.0155,252.425],[-3.6334,38.0191,261.0619],[-3.6127,38.0384,255.5596],[-3.5993,38.0393,267.8997],[-3.5873,38.0424,257.4395],[-3.5854,38.0463,263.1824],[-3.5864,38.0584,258.6754],[-3.5853,38.0716,258.314],[-3.5831,38.0773,273.1666],[-3.5796,38.0808,281.1706],[-3.5706,38.0814,266.2037],[-3.5689,38.0828,264.9295],[-3.5679,38.0895,276.7099],[-3.5655,38.0925,299.6138],[-3.5495,38.0965,271.1247],[-3.5462,38.0999,272.8419],[-3.5403,38.101,271.4481],[-3.5359,38.1051,282.1042],[-3.5229,38.1108,274.8232],[-3.517,38.1179,288.9538],[-3.5268,38.1305,281.5844],[-3.5403,38.1417,285.0083],[-3.546,38.1439,302.7148],[-3.5507,38.1413,302.9328],[-3.557,38.1423,304.2449],[-3.5607,38.1462,305.6821],[-3.5638,38.1468,327.5078],[-3.5691,38.1446,330.8607],[-3.5737,38.146,326.5276],[-3.5751,38.1498,328.5643],[-3.58,38.1524,359.058],[-3.5723,38.1578,358.7884],[-3.5709,38.1573,362.8274],[-3.5711,38.1537,372.7021],[-3.5698,38.1538,351.4559],[-3.5668,38.1585,375.0254],[-3.5658,38.1656,370.8666],[-3.5637,38.1674,373.0275],[-3.5746,38.1846,448.0],[-3.5718,38.1867,448.0],[-3.5754,38.1902,452.8212],[-3.5689,38.201,448.0],[-3.5699,38.2029,448.0],[-3.5593,38.2045,471.6157],[-3.5574,38.2063,471.7173],[-3.5525,38.2151,503.6357],[-3.5512,38.2344,459.3741],[-3.542,38.2474,448.0],[-3.5374,38.248,448.0],[-3.534,38.2504,472.8425],[-3.5361,38.2583,448.9402],[-3.5306,38.2599,460.1057],[-3.5271,38.2628,462.2949],[-3.5309,38.2681,458.0869],[-3.5296,38.2704,448.0],[-3.5135,38.2682,474.7805],[-3.5066,38.2717,466.3335],[-3.507,38.2738,450.2246],[-3.5109,38.2765,454.0653],[-3.5101,38.2779,448.0],[-3.4986,38.282,464.3056],[-3.4818,38.283,471.0788],[-3.4804,38.2863,459.2246],[-3.4868,38.2933,460.1994],[-3.4841,38.2937,466.4089],[-3.4802,38.2912,473.064],[-3.4764,38.2931,509.9049],[-3.4824,38.2971,465.9541],[-3.4832,38.3011,476.2571],[-3.4762,38.3057,475.2236],[-3.4755,38.311,475.145],[-3.4765,38.3129,473.4746],[-3.4846,38.3164,481.4843],[-3.4813,38.3221,501.7258],[-3.4871,38.3231,504.903],[-3.4918,38.3261,497.6383],[-3.4977,38.3242,501.0796],[-3.4996,38.3262,501.6458],[-3.4996,38.3343,537.4446],[-3.4905,38.3386,587.5032],[-3.4962,38.3487,536.2118],[-3.4924,38.3562,590.224],[-3.4854,38.3618,581.1756],[-3.4745,38.367,680.118],[-3.4695,38.3664,712.3423],[-3.4514,38.3694,754.3273],[-3.4404,38.3678,803.916],[-3.4297,38.3622,782.832],[-3.4262,38.3577,799.934],[-3.4182,38.3556,664.7913],[-3.4032,38.3569,737.2457],[-3.3903,38.3516,559.6165],[-3.3858,38.356,566.2316],[-3.38,38.3542,560.8923],[-3.38,38.3571,633.2833],[-3.3782,38.3576,564.4119],[-3.3739,38.3536,570.5856],[-3.3707,38.3536,569.3287],[-3.3666,38.3622,585.3384],[-3.3441,38.3616,801.555],[-3.3404,38.3636,779.2657],[-3.2975,38.3693,656.3488],[-3.2899,38.3783,539.8898],[-3.2817,38.3801,528.7433],[-3.2869,38.3857,612.5951],[-3.2922,38.4001,742.5277],[-3.2899,38.4034,723.3857],[-3.29,38.4096,728.8834],[-3.2875,38.4115,723.9768],[-3.2894,38.4218,749.1345],[-3.3014,38.4356,810.1802],[-3.307,38.4381,798.7788],[-3.3099,38.4414,797.4282],[-3.3073,38.4452,807.0364],[-3.3105,38.449,792.3077],[-3.305,38.4593,813.4241],[-3.3049,38.4635,821.9601],[-3.3078,38.4665,841.6949],[-3.3074,38.4716,848.4942],[-3.3222,38.473,879.5347],[-3.3458,38.4659,844.8339],[-3.3472,38.4571,815.1189],[-3.3494,38.4547,833.5642],[-3.3535,38.4541,820.6549],[-3.364,38.4477,810.152],[-3.3803,38.4506,731.6457],[-3.3802,38.4455,729.7021],[-3.3753,38.4418,757.1281],[-3.3766,38.4396,761.8912],[-3.3894,38.4334,715.0317],[-3.4018,38.424,710.0334],[-3.4094,38.4241,731.5106],[-3.4229,38.4109,1088.0616],[-3.4247,38.4068,1133.7782],[-3.4331,38.4081,1124.3599],[-3.4385,38.4044,1070.9832],[-3.4422,38.4044,1066.7913],[-3.4531,38.4002,1042.6615],[-3.4725,38.398,909.0665],[-3.4775,38.4015,829.6313],[-3.4854,38.4041,797.1017],[-3.4961,38.4038,742.8864],[-3.5058,38.408,886.6202],[-3.5283,38.4087,1011.6025],[-3.528,38.411,975.8826],[-3.5332,38.4151,892.255],[-3.5349,38.4233,746.8098],[-3.5326,38.4263,729.2605],[-3.532,38.4311,727.7042],[-3.5351,38.4394,799.6616],[-3.5424,38.4457,887.3569],[-3.5525,38.4466,923.9608],[-3.5672,38.4521,987.6417],[-3.578,38.4504,1006.3956],[-3.583,38.4515,1022.6181],[-3.5862,38.4334,978.1765],[-3.5857,38.4056,1186.23],[-3.5981,38.3985,1219.1584],[-3.6017,38.3988,1244.0051],[-3.6204,38.394,1193.1035],[-3.6516,38.405,677.4532],[-3.6992,38.4129,618.8215],[-3.7299,38.4244,936.2672],[-3.7396,38.414,989.5993],[-3.7648,38.4244,963.6623],[-3.7855,38.4253,967.748],[-3.8011,38.42,1078.7267],[-3.8077,38.4218,1059.907],[-3.8166,38.419,990.9377],[-3.818,38.4157,978.5109],[-3.8242,38.4163,1013.0551],[-3.8299,38.4128,1040.1975],[-3.8324,38.3997,950.7493],[-3.8305,38.3929,924.1624],[-3.838,38.3858,840.394],[-3.8542,38.3752,825.588],[-3.8598,38.3734,931.754],[-3.8661,38.3609,783.1909],[-3.8573,38.3434,692.0555],[-3.86,38.3414,688.9486],[-3.8615,38.3359,671.9258],[-3.8569,38.3318,667.3929],[-3.8562,38.328,652.1917],[-3.8464,38.3219,647.0311],[-3.8401,38.3135,724.4307],[-3.837,38.2971,709.1971],[-3.8294,38.2916,683.218],[-3.8294,38.2872,707.3826],[-3.826,38.2818,628.4788],[-3.8253,38.2732,737.4553],[-3.8211,38.2657,745.8276],[-3.8275,38.2611,721.7269],[-3.8264,38.2582,702.6663],[-3.8277,38.2542,699.1279],[-3.8329,38.2502,706.1522],[-3.8421,38.2278,703.7833],[-3.8556,38.2148,707.3356],[-3.867,38.2077,718.2469],[-3.8583,38.196,717.2659],[-3.8593,38.1858,433.4429],[-3.8544,38.1796,375.4317],[-3.8547,38.1726,356.891],[-3.8517,38.1668,343.6331],[-3.8426,38.1596,349.8487],[-3.8382,38.1583,343.9849],[-3.8373,38.1523,320.4429],[-3.8321,38.1453,295.7765],[-3.8542,38.1475,356.3689],[-3.8632,38.15,424.1163],[-3.8728,38.1483,358.4528],[-3.8828,38.1518,380.6617],[-3.8959,38.149,456.1275],[-3.8951,38.1463,465.0178],[-3.9012,38.1312,449.8174],[-3.9015,38.1223,422.9922],[-3.892,38.1124,348.334],[-3.8856,38.1092,353.4345],[-3.8801,38.1086,333.6552],[-3.8695,38.1018,308.9318],[-3.8756,38.0943,375.2379],[-3.8748,38.0899,363.8516],[-3.8602,38.0865,316.9516],[-3.8577,38.082,297.8611],[-3.8607,38.081,299.1665],[-3.8602,38.0791,308.5407],[-3.8542,38.0775,277.4014],[-3.8504,38.0784,248.575],[-3.8484,38.0687,238.5618],[-3.8533,38.0644,240.8313],[-3.8522,38.0633,236.6747],[-3.8634,38.0506,224.6135],[-3.8663,38.0492,226.9409],[-3.8677,38.0443,220.319],[-3.8566,38.0396,258.8976],[-3.8489,38.0409,265.6824],[-3.8314,38.0401,275.4359],[-3.8368,38.027,246.1535],[-3.8247,38.0202,228.1442],[-3.8247,38.0126,235.3082],[-3.8196,38.008,229.6302],[-3.8104,38.0126,232.6137],[-3.8047,38.0129,234.0171],[-3.804,38.0108,230.4404],[-3.8079,38.006,236.6592],[-3.8065,37.9953,229.4972],[-3.8094,37.9844,236.26],[-3.8085,37.9825,237.7927],[-3.8061,37.9818,236.0429],[-3.7901,37.987,237.8446],[-3.7825,37.9863,236.3613],[-3.7773,37.9849,237.0092],[-3.7709,37.9777,237.0685],[-3.763,37.9782,239.0638]]]]}
,"properties": {"GID_3": "ESP.1.6.8_1","GID_0": "ESP","country": "Spain","GID_1": "ESP.1_1","province": "Andalucía","NL_NAME_1": "NA","GID_2": "ESP.1.6_1","county": "Jaén","NL_NAME_2": "NA","city": "SierraNorte","VARNAME_3": "NA","NL_NAME_3": "NA","TYPE_3": "Comarca","ENGTYPE_3": "Comarca","CC_3": "NA","HASC_3": "NA","name": "Sierra_Norte.city","area_km2": 1400.021,"hist_schema_id": "Elevation0-9000","hist_area_km2": {"225": 6.163,"250": 20.261,"275": 40.854,"300": 59.119,"325": 75.758,"350": 118.119,"375": 92.772,"400": 76.168,"425": 68.799,"450": 71.556,"475": 58.918,"500": 52.2,"525": 43.597,"550": 39.324,"575": 40.513,"600": 42.553,"625": 38.57,"650": 40.046,"675": 43.768,"700": 50.067,"725": 54.93,"750": 47.508,"775": 39.474,"800": 30.91,"825": 25.458,"850": 20.888,"875": 16.718,"900": 14.075,"925": 12.562,"950": 12.346,"975": 11.266,"1000": 9.388,"1025": 6.763,"1050": 5.999,"1075": 4.337,"1100": 2.709,"1125": 2.21,"1150": 1.346,"1175": 0.864,"1200": 0.515,"1225": 0.316,"1250": 0.183,"1275": 0.116,"1300": 0.017}}}