{"type": "Feature","bbox": [3.7907,39.9063,4.2133,40.0949],"geometry": {"type": "MultiPolygon","coordinates": [[[[4.0703,39.9449,79.8928],[4.0778,39.9581,75.9932],[4.0807,39.9563,84.7977],[4.0874,39.9591,91.5612],[4.0946,39.9552,89.058],[4.1118,39.9587,82.9808],[4.1145,39.9632,94.7107],[4.1237,39.9618,110.493],[4.1306,39.9556,148.1306],[4.1373,39.9558,147.2579],[4.1417,39.9679,114.4707],[4.1472,39.965,122.3202],[4.1678,39.9641,97.2428],[4.1685,39.9666,95.1799],[4.1763,39.9672,97.7244],[4.1798,39.9642,99.1605],[4.1904,39.9757,73.1797],[4.1959,39.9696,66.9878],[4.2023,39.9698,69.708],[4.2133,39.9773,20.8135],[4.2055,39.9853,8.9916],[4.2072,39.9893,2.2703],[4.2046,39.989,-1.2081],[4.2054,39.9954,1.2819],[4.2013,39.9965,0.0],[4.2015,40.0001,0.0],[4.1985,40.0043,34.7443],[4.2026,40.014,0.0],[4.1974,40.0115,3.6504],[4.1996,40.0129,2.0414],[4.1996,40.0149,0.0],[4.2024,40.016,0.0],[4.2015,40.0174,1.4815],[4.2032,40.0193,0.0],[4.2021,40.0229,0.0],[4.2004,40.021,2.1528],[4.1979,40.0221,12.9961],[4.1979,40.0251,6.4935],[4.194,40.0243,2.8411],[4.1968,40.0304,0.0],[4.1957,40.0321,0.0],[4.1915,40.0351,0.0],[4.1874,40.0337,4.9278],[4.186,40.0321,0.0],[4.1874,40.0304,11.8744],[4.1824,40.0257,2.9337],[4.1851,40.0226,3.8476],[4.1807,40.0218,15.0899],[4.1818,40.0243,0.0],[4.1801,40.0262,0.0],[4.1743,40.0246,1.6797],[4.1687,40.0276,8.59],[4.169,40.0304,3.8916],[4.1732,40.0329,0.0],[4.1715,40.0363,0.8516],[4.1696,40.0363,0.0],[4.1687,40.034,0.0],[4.1682,40.0365,0.0],[4.164,40.0371,0.0],[4.1643,40.0337,34.6702],[4.1607,40.0324,3.5797],[4.1604,40.0357,4.7515],[4.1624,40.0368,0.0],[4.1632,40.0407,1.4763],[4.1601,40.0429,0.0],[4.1665,40.0438,0.0],[4.1662,40.0465,0.0],[4.1632,40.0476,15.5588],[4.1671,40.0504,0.0],[4.1649,40.0524,0.0],[4.166,40.0551,0.0],[4.1646,40.056,0.0],[4.1651,40.0571,2.2756],[4.1707,40.0568,0.0],[4.1726,40.0612,0.0],[4.1685,40.061,6.4013],[4.1588,40.0646,21.3367],[4.1549,40.0682,8.0735],[4.146,40.0662,34.975],[4.1424,40.0676,9.3947],[4.1424,40.0704,0.0],[4.1363,40.0676,0.0],[4.1368,40.0601,0.0],[4.1412,40.0554,0.8827],[4.139,40.0546,0.0921],[4.1421,40.0488,2.0062],[4.1404,40.0476,0.7637],[4.1412,40.0449,1.0649],[4.1396,40.0415,6.7418],[4.1404,40.0349,4.0475],[4.139,40.0321,0.0],[4.1371,40.0321,0.0],[4.1374,40.0346,0.0],[4.1346,40.0357,0.0],[4.1299,40.0318,2.0585],[4.1332,40.0293,3.6938],[4.1271,40.0262,0.017],[4.1215,40.0315,1.1392],[4.1207,40.0363,-0.0054],[4.1235,40.0374,0.0604],[4.1276,40.0496,5.8295],[4.1338,40.0574,1.2403],[4.1346,40.0629,0.604],[4.1315,40.0651,1.259],[4.129,40.0621,9.0975],[4.1263,40.0632,0.0],[4.1249,40.0552,13.3724],[4.116,40.056,0.0],[4.1096,40.0546,0.0],[4.1093,40.0513,2.5187],[4.1065,40.0485,5.6024],[4.1071,40.0449,4.1644],[4.104,40.0443,0.3387],[4.1018,40.0488,1.1423],[4.0993,40.0501,12.3476],[4.1007,40.0546,0.7352],[4.099,40.0549,7.9886],[4.0988,40.0588,0.0],[4.0957,40.0574,0.0],[4.0932,40.0615,16.5763],[4.0968,40.0654,0.0],[4.0968,40.0693,0.0],[4.0932,40.0707,17.5792],[4.0951,40.0738,0.0],[4.0935,40.0749,9.7135],[4.0974,40.0776,0.0],[4.0946,40.0804,4.8539],[4.0968,40.081,0.0],[4.0996,40.0849,6.3271],[4.0979,40.0865,0.0],[4.0951,40.0846,26.6247],[4.094,40.0893,0.0],[4.0849,40.0879,7.5308],[4.0829,40.0904,0.7035],[4.0801,40.091,0.0],[4.0815,40.0876,0.0],[4.0896,40.0824,0.0],[4.0896,40.0774,0.0],[4.0868,40.0751,0.461],[4.0893,40.0693,0.0],[4.0879,40.0687,3.5939],[4.0882,40.0704,0.0],[4.084,40.0757,0.0],[4.0821,40.0682,9.1739],[4.079,40.0677,5.5574],[4.0779,40.0713,0.0],[4.0749,40.0674,0.0],[4.0749,40.0629,0.0],[4.0771,40.0626,5.3328],[4.0754,40.0615,5.7883],[4.0757,40.0596,8.6722],[4.0732,40.059,2.7457],[4.0718,40.0604,2.7457],[4.0665,40.0571,1.2792],[4.0637,40.0599,0.4785],[4.0618,40.0588,0.0],[4.0588,40.0601,0.0],[4.0538,40.0571,0.0],[4.054,40.051,1.5703],[4.0507,40.0537,0.8636],[4.049,40.0521,7.2584],[4.0463,40.0568,0.669],[4.0435,40.0549,1.5925],[4.0413,40.0557,0.0],[4.0404,40.0576,0.0],[4.0435,40.0571,0.3203],[4.044,40.0582,0.3203],[4.0413,40.0585,0.0],[4.0404,40.061,0.0],[4.036,40.0646,2.3335],[4.0276,40.066,0.0],[4.0263,40.0649,0.6089],[4.029,40.064,0.0],[4.029,40.0624,0.4758],[4.0265,40.0629,0.8019],[4.0226,40.0601,16.5889],[4.016,40.0593,4.4134],[4.0157,40.0565,24.3993],[4.0099,40.0596,0.5711],[3.9946,40.0588,0.0],[3.9878999999999998,40.0571,0.0],[3.9862,40.0526,1.8188],[3.9793,40.051,7.5602],[3.9776,40.051,9.5111],[3.9757,40.054,0.0],[3.974,40.0527,6.1593],[3.9688,40.0532,3.4721],[3.969,40.0554,3.3943],[3.9674,40.0571,1.3252],[3.9599,40.0615,9.1725],[3.9543,40.0588,8.9962],[3.951,40.0593,0.0],[3.949,40.0571,0.0],[3.9418,40.0563,21.4811],[3.9421,40.0582,0.0],[3.9379,40.0621,0.0],[3.9324,40.0626,0.0],[3.9285,40.061,0.0],[3.9307,40.0582,21.4575],[3.9276,40.059,0.0],[3.926,40.0568,51.4677],[3.9199,40.0568,11.369],[3.9207,40.0515,0.0],[3.9235,40.0501,0.0],[3.9224,40.0474,0.0],[3.9204,40.0468,6.9972],[3.9179,40.0488,0.0],[3.9151,40.0482,4.184],[3.9157,40.0513,0.0],[3.9129,40.0513,3.49],[3.9099,40.0485,26.8326],[3.9074,40.0543,0.0],[3.9051,40.0551,29.0561],[3.9051,40.0574,0.0],[3.8993,40.0599,9.5937],[3.8904,40.0571,0.0],[3.8868,40.0588,0.0],[3.8826,40.0585,20.0517],[3.8818,40.0571,0.0],[3.8837,40.0543,2.9207],[3.8826,40.0537,30.431],[3.8812,40.056,0.0],[3.8774,40.053,26.8841],[3.8726,40.0535,52.8719],[3.8682,40.0576,0.0],[3.8651,40.0546,0.0],[3.8624,40.0541,0.0],[3.8518,40.0554,36.0719],[3.839,40.0532,14.8496],[3.8371,40.0499,16.6288],[3.8324,40.0526,0.0],[3.8296,40.0521,4.4958],[3.8279,40.054,0.0],[3.8212,40.0501,0.0],[3.8204,40.0454,31.9281],[3.8174,40.0438,0.0],[3.8176,40.0396,4.0559],[3.8157,40.0401,7.7287],[3.8135,40.0385,1.6421],[3.8149,40.0368,22.8027],[3.8126,40.034,16.8973],[3.8071,40.034,0.0],[3.8057,40.031,0.0],[3.8101,40.0288,15.7317],[3.8096,40.0265,4.0288],[3.8029,40.0254,0.0],[3.8007,40.021,0.0],[3.7915,40.0193,3.0636],[3.7907,40.0146,0.0],[3.794,40.0132,0.8693],[3.7932,40.0118,0.0],[3.7949,40.0118,0.0],[3.7954,40.0096,0.0],[3.7932,40.0037,0.0],[3.7968,40.0026,6.3179],[3.7943,40.0004,0.0],[3.7949,39.9993,0.0],[3.8035,39.9971,5.96],[3.8079,39.9996,7.6965],[3.8129,39.9949,0.0],[3.8251,39.9965,2.8723],[3.8299,39.9929,1.9157],[3.8274,39.9921,0.7061],[3.8307,39.9793,0.5126],[3.8329,39.9807,4.3439],[3.8338,39.9796,0.0],[3.831,39.9762,6.1441],[3.8296,39.9696,0.0],[3.8324,39.9663,0.0],[3.834,39.9604,8.3492],[3.8243,39.9524,0.0],[3.826,39.9457,0.0],[3.8226,39.9435,6.1809],[3.8246,39.9401,10.4818],[3.8218,39.9374,0.0],[3.8218,39.9321,0.0],[3.8199,39.9287,0.0],[3.8232,39.9218,0.0],[3.8249,39.9232,1.2516],[3.8299,39.9229,0.0],[3.8318,39.9249,0.3364],[3.8368,39.9249,0.4187],[3.8399,39.9226,0.6077],[3.841,39.9254,0.0],[3.8435,39.9257,3.8613],[3.8446,39.9238,0.0],[3.8529,39.9226,1.575],[3.8535,39.9212,0.0],[3.856,39.9226,4.1891],[3.8579,39.9212,0.0],[3.8649,39.9212,0.6026],[3.8799,39.9229,3.8672],[3.8843,39.9215,0.0],[3.8851,39.9232,0.0],[3.891,39.924,1.3233],[3.8918,39.9271,3.3821],[3.8965,39.9271,3.1404],[3.896,39.9226,0.0],[3.8993,39.9218,0.0],[3.9024,39.9254,0.0],[3.9057,39.9238,4.3093],[3.9118,39.9251,0.0],[3.914,39.9271,0.0],[3.9146,39.9318,8.5345],[3.9171,39.929,3.797],[3.9201,39.9299,0.0],[3.9207,39.9315,5.0484],[3.9313,39.9313,3.3614],[3.9371,39.9343,0.0],[3.9368,39.9382,1.6316],[3.9393,39.9354,0.0],[3.9474,39.9332,0.0],[3.9601,39.9379,0.4997],[3.961,39.9357,0.0],[3.9576,39.9349,0.0],[3.9618,39.9318,0.0],[3.9693,39.9315,0.0],[3.9726,39.934,22.56],[3.9735,39.9315,0.0],[3.9824,39.9287,0.0],[3.9878999999999998,39.9293,9.5421],[3.9896,39.931,19.0036],[3.9896,39.9274,15.2481],[4.0024,39.9246,8.1915],[4.0046,39.9221,0.0],[4.0115,39.9199,0.0],[4.0179,39.9218,0.0],[4.0263,39.9204,2.0864],[4.0307,39.9176,1.5305],[4.0296,39.9154,0.0],[4.0312,39.9174,1.5305],[4.0354,39.9165,2.8818],[4.0362,39.9146,0.0],[4.0429,39.9132,5.2995],[4.0443,39.9099,0.0],[4.0468,39.9101,0.0],[4.0538,39.9063,0.0],[4.054,39.9076,1.4618],[4.0574,39.9068,0.0],[4.0567,39.9277,74.8932],[4.0669,39.931,66.4448],[4.0667,39.9374,43.9839],[4.0635,39.9374,51.2348],[4.0657,39.9415,61.0907],[4.0624,39.9435,70.2125],[4.0703,39.9449,79.8928]]],
[[[4.0324,40.0693,0.0],[4.0307,40.0699,0.0],[4.0307,40.066,0.0],[4.0337,40.0682,0.0],[4.0324,40.0693,0.0]]],
[[[4.1371,40.0471,0.0],[4.136,40.0479,0.0],[4.1357,40.046,0.0],[4.1379,40.0435,0.0],[4.1376,40.0465,0.0],[4.1371,40.0471,0.0]]],
[[[4.0763,40.0943,0.0],[4.0749,40.0949,0.0],[4.0724,40.0924,0.0],[4.0779,40.0913,0.0],[4.0763,40.0943,0.0]]]]}
,"properties": {"GID_3": "ESP.13.1.1_1","GID_0": "ESP","country": "Spain","GID_1": "ESP.13_1","province": "IslasBaleares","NL_NAME_1": "NA","GID_2": "ESP.13.1_1","county": "Baleares","NL_NAME_2": "NA","city": "n.a.(51)","VARNAME_3": "NA","NL_NAME_3": "NA","TYPE_3": "Comarca","ENGTYPE_3": "Comarca","CC_3": "NA","HASC_3": "NA","name": "n.a.(51).city","area_km2": 426.8755,"hist_schema_id": "Elevation0-9000","hist_area_km2": {"0": 42.8332,"25": 91.4394,"50": 78.9498,"75": 72.5084,"100": 78.4126,"125": 34.665,"150": 13.6439,"175": 7.4716,"200": 4.0769,"225": 1.9328,"250": 0.6009,"275": 0.2436,"300": 0.0162,"325": 0.065,"350": 0.0162}}}