{"type":"Feature","properties":{"ISO3166-1-Alpha-3":"ESP","country":"Spain","fill":"#0F0","id":"5811","name":"Cáceres"},
"geometry":{"type": "Polygon","coordinates": [[[-5.91245,40.28075,627.8534],[-5.92555,40.2815,684.9229],[-5.95154,40.28914,641.4003],[-5.98761,40.30323,721.328],[-6.0012,40.31152,896.1898],[-6.00952,40.31924,1012.7089],[-6.02301,40.32777,845.9755],[-6.04508,40.33769,799.66],[-6.08004,40.34839,742.3339],[-6.09316,40.35369,524.9101],[-6.09626,40.35756,383.0695],[-6.08957,40.36115,380.0],[-6.08663,40.36508,430.4496],[-6.08425,40.37294,389.6244],[-6.08234,40.37666,413.9496],[-6.07841,40.38074,391.7386],[-6.07562,40.38472,443.2487],[-6.07508,40.3887,380.5],[-6.06911,40.39629,382.6467],[-6.06913,40.40017,386.9058],[-6.07461,40.40474,391.9098],[-6.09559,40.41061,402.7052],[-6.10774,40.41552,459.2383],[-6.11582,40.42125,545.9394],[-6.11642,40.4274,591.7737],[-6.11797,40.43381,777.3668],[-6.13714,40.43753,905.8],[-6.14652,40.4413,528.0828],[-6.16259,40.45448,913.2266],[-6.1729,40.46092,1232.2212],[-6.20667,40.47756,1199.1462],[-6.22411,40.48032,1164.8555],[-6.23669,40.47944,1065.6332],[-6.24623,40.47526,1025.983],[-6.28021,40.45598,1148.8922],[-6.29258,40.45169,1033.4382],[-6.3055,40.44875,904.9274],[-6.32315,40.44632,1089.7188],[-6.33348,40.44159,903.7307],[-6.34242,40.43609,1035.9851],[-6.3495,40.43061,1260.2754],[-6.35446,40.4243,1222.6627],[-6.35772,40.41735,1423.8254],[-6.36273,40.4104,1513.7133],[-6.3724,40.40544,1222.2938],[-6.40221,40.40064,1368.4435],[-6.41281,40.39743,1228.8645],[-6.42131,40.3934,1200.3574],[-6.44226,40.37593,1235.9552],[-6.47983,40.36555,1179.1984],[-6.4874,40.36211,1196.3855],[-6.50784,40.35586,1097.6877],[-6.51554,40.35242,997.1441],[-6.54688,40.33364,853.9102],[-6.55308,40.32782,845.1536],[-6.55797,40.32157,887.8938],[-6.55812,40.3147,947.3737],[-6.55277,40.30085,952.0979],[-6.55319,40.29387,1097.4066],[-6.55611,40.2871,1098.5352],[-6.56223,40.2815,921.603],[-6.57101,40.27653,1068.8097],[-6.58515,40.27199,1311.8079],[-6.65504,40.26204,773.6171],[-6.6684,40.25816,738.7731],[-6.67742,40.25351,957.9178],[-6.68858,40.24974,903.2337],[-6.69871,40.25085,909.7752],[-6.71765,40.25894,898.4476],[-6.72633,40.25811,961.6229],[-6.75878,40.24483,1292.3846],[-6.77777,40.24648,1028.8977],[-6.78514,40.24871,1058.454],[-6.79439,40.24791,1052.3064],[-6.8047,40.24437,1202.5],[-6.81469,40.24442,1187.5403],[-6.82451,40.24636,1239.1893],[-6.83475,40.25031,1211.7776],[-6.84425,40.25579,1195.5966],[-6.86219,40.27175,1235.8263],[-6.87451,40.27919,1086.5898],[-6.87511,40.27124,1133.2679],[-6.87805,40.26524,1055.2855],[-6.89645,40.25548,1002.1191],[-6.91583,40.25444,949.8268],[-6.93541,40.25584,955.4443],[-6.9421,40.25498,933.1235],[-6.95469,40.25336,979.3354],[-6.99779,40.23171,717.4695],[-7.01577,40.2255,819.7297],[-7.02476,40.2162,665.5027],[-7.03458,40.19305,590.1368],[-7.04311,40.18137,633.3585],[-7.03484,40.16675,464.3314],[-7.02765,40.13264,397.6825],[-7.01577,40.11905,341.0717],[-7.00368,40.11631,336.9189],[-6.97717,40.11342,351.3791],[-6.96642,40.11032,358.2747],[-6.95572,40.10293,377.2008],[-6.94213,40.08634,325.4791],[-6.91991,40.06489,320.6361],[-6.8797,40.00919,312.8458],[-6.89691,39.98712,282.5354],[-6.90162,39.97648,292.7142],[-6.89976,39.96562,293.9104],[-6.90368,39.95668,279.1588],[-6.90952,39.93198,316.128],[-6.91257,39.92811,274.4168],[-6.92229,39.92242,279.5909],[-6.92523,39.91793,264.1562],[-6.92513,39.91224,275.8624],[-6.92156,39.90217,289.4732],[-6.92177,39.89715,280.3413],[-6.92347,39.88832,298.2694],[-6.92425,39.87157,295.9996],[-6.92766,39.86191,271.6663],[-6.95283,39.83287,264.1289],[-6.96234,39.82853,227.5558],[-6.98523,39.82114,194.535],[-6.99303,39.81607,236.3634],[-7.00027,39.80253,199.2603],[-6.99887,39.79178,267.0188],[-6.99458,39.78259,288.6262],[-6.99303,39.77421,303.4393],[-6.9968,39.76471,254.6428],[-7.00874,39.74832,265.4815],[-7.01334,39.73892,301.5026],[-7.01365,39.72962,265.2237],[-7.0107,39.7228,290.7911],[-7.00962,39.71546,256.0617],[-7.02114,39.69401,261.1496],[-7.03577,39.68926,300.9311],[-7.18289,39.6751,258.0328],[-7.21405,39.67618,303.4599],[-7.23576,39.68652,255.0237],[-7.25286,39.68233,197.7624],[-7.29275,39.68332,281.1254],[-7.31141,39.68032,311.9453],[-7.32784,39.67479,271.9284],[-7.34143,39.67184,199.2314],[-7.55729,39.6798,163.5658],[-7.55587,39.67721,167.0261],[-7.54824,39.66321,194.8403],[-7.51584,39.59376,293.7223],[-7.49786,39.58105,262.5158],[-7.46809,39.55025,305.2449],[-7.45135,39.53785,236.7061],[-7.41755,39.5242,261.0244],[-7.40892,39.51557,311.3528],[-7.39941,39.49366,286.8907],[-7.38417,39.484,302.5925],[-7.36293,39.47609,334.0612],[-7.32092,39.46741,342.6831],[-7.31353,39.45744,390.9059],[-7.31363,39.4361,398.9395],[-7.31885,39.41325,427.1155],[-7.32671,39.39884,472.5507],[-7.33193,39.38473,455.8561],[-7.33141,39.36261,601.7969],[-7.32665,39.34132,725.077],[-7.31926,39.32954,620.176],[-7.30045,39.31791,621.4126],[-7.25084,39.27063,408.9742],[-7.20399,39.26584,505.6555],[-7.15748,39.31416,334.316],[-7.155,39.31891,347.0479],[-7.15703,39.32552,397.7578],[-7.16796,39.33576,450.8562],[-7.17046,39.34339,456.9914],[-7.16936,39.34726,491.5124],[-7.16365,39.35842,522.5459],[-7.1611,39.36126,519.7528],[-7.11827,39.38001,441.2676],[-7.09671,39.38402,439.0872],[-7.07297,39.38059,464.0844],[-7.07831,39.33541,455.427],[-7.07286,39.316,398.5035],[-7.05319,39.31134,390.8625],[-7.04504,39.31492,386.7162],[-7.04014,39.32095,394.871],[-7.02205,39.37371,392.2371],[-7.02158,39.38207,396.0505],[-7.02379,39.38903,404.433],[-7.02839,39.39503,423.9792],[-7.03515,39.40049,489.0054],[-7.06707,39.41443,489.6848],[-7.04923,39.43674,551.9948],[-6.88878,39.38348,462.9226],[-6.87218,39.38253,477.8243],[-6.83364,39.38918,420.4976],[-6.81511,39.38781,359.398],[-6.79946,39.37705,354.8003],[-6.78024,39.34171,311.8898],[-6.76,39.32917,351.4643],[-6.75169,39.30274,307.3381],[-6.76209,39.27819,323.7053],[-6.80077,39.23942,286.7859],[-6.77812,39.19922,298.0679],[-6.76955,39.19061,327.0661],[-6.68104,39.17733,476.773],[-6.65973,39.19894,331.2006],[-6.58531,39.18182,436.5276],[-6.58025,39.17937,418.9269],[-6.57809,39.17587,392.3785],[-6.57657,39.1669,377.1369],[-6.57457,39.16245,366.5133],[-6.5707,39.15877,372.0976],[-6.56571,39.15617,382.6628],[-6.55498,39.15377,388.7667],[-6.54574,39.1557,480.7202],[-6.53539,39.16851,379.9509],[-6.52856,39.17413,404.4471],[-6.37147,39.1629,366.528],[-6.31931,39.18452,542.0066],[-6.31658,39.13042,375.7001],[-6.3122,39.11591,371.9167],[-6.29382,39.10027,343.5385],[-6.24893,39.09876,314.4744],[-6.23079,39.08983,336.2742],[-6.21287,39.06659,350.1621],[-6.20562,39.06106,351.8327],[-6.19668,39.05946,342.0269],[-6.17394,39.06,347.2814],[-6.16797,39.05892,363.6434],[-6.14223,39.03147,349.243],[-6.08973,39.08466,354.1758],[-6.02144,39.12756,285.2183],[-6.01199,39.06884,254.0689],[-6.0091,39.06579,256.8714],[-6.00309,39.06333,255.4977],[-5.9861,39.06554,259.9233],[-5.94184,39.10869,265.7525],[-5.92466,39.0833,270.0527],[-5.8581,39.10313,267.4549],[-5.82857,39.11917,273.2325],[-5.8104,39.14472,273.7264],[-5.76785,39.13682,272.2715],[-5.68994,39.08294,294.8758],[-5.64602,39.10218,287.5309],[-5.61442,39.10158,295.2058],[-5.60168,39.10597,312.9638],[-5.58994,39.1171,294.3648],[-5.57789,39.13758,303.5306],[-5.57795,39.14787,305.758],[-5.60715,39.18506,308.2737],[-5.61283,39.18853,308.4183],[-5.56628,39.20909,318.714],[-5.54165,39.2142,336.7434],[-5.51747,39.20906,434.9567],[-5.46903,39.17032,311.8851],[-5.44449,39.15864,307.2042],[-5.41039,39.16385,324.9981],[-5.39641,39.17164,331.1509],[-5.37129,39.19485,358.4503],[-5.34722,39.22875,393.9967],[-5.34613,39.23703,398.0793],[-5.34772,39.24372,408.9316],[-5.35367,39.25628,451.8574],[-5.35515,39.26305,523.3293],[-5.3487,39.30187,575.7377],[-5.33962,39.32359,605.1752],[-5.32139,39.32829,601.4533],[-5.24715,39.3102,529.6704],[-5.17876,39.30998,376.4472],[-5.14086,39.32676,409.8229],[-5.12279,39.33943,464.1293],[-5.11711,39.34747,513.6084],[-5.11529,39.35705,491.8386],[-5.11586,39.37788,559.9942],[-5.11321,39.38725,567.1122],[-5.0987,39.39838,573.8472],[-5.08333,39.39131,567.0251],[-5.05681,39.36332,526.5799],[-4.99194,39.37086,413.0],[-4.94437,39.39191,470.3625],[-4.95597,39.39961,597.2275],[-4.96649,39.40623,634.4647],[-4.97142,39.40974,639.3809],[-4.98444,39.42095,574.8614],[-4.99483,39.43266,586.51],[-5.02462,39.4593,606.1605],[-5.03925,39.47811,714.7589],[-5.04643,39.48201,808.4655],[-5.06428,39.48555,893.1622],[-5.07925,39.49284,767.3914],[-5.08689,39.50007,806.2911],[-5.10129,39.50937,898.2987],[-5.12263,39.5272,838.7238],[-5.1594,39.56394,1105.1104],[-5.16684,39.5688,1078.8209],[-5.18291,39.57712,1209.2783],[-5.19027,39.58234,1222.0398],[-5.19645,39.58766,1201.8069],[-5.19952,39.59358,1130.6924],[-5.19761,39.59965,868.765],[-5.18678,39.61143,703.634],[-5.18175,39.61805,656.2265],[-5.17583,39.62422,640.676],[-5.17149,39.63097,625.8591],[-5.161,39.64321,588.0893],[-5.15738,39.64967,573.4604],[-5.15503,39.65657,559.9869],[-5.15182,39.66301,538.2043],[-5.15048,39.68412,540.9554],[-5.14614,39.69796,543.1342],[-5.14242,39.70484,524.2391],[-5.14059,39.71236,476.7785],[-5.14172,39.72031,467.1299],[-5.14893,39.72869,475.3082],[-5.16242,39.74124,443.6604],[-5.16536,39.74719,431.0785],[-5.15909,39.76225,405.5172],[-5.15924,39.77178,390.2269],[-5.16381,39.78491,349.2676],[-5.16813,39.79289,342.7775],[-5.17573,39.79649,347.7097],[-5.18234,39.79693,355.0579],[-5.20224,39.79457,358.422],[-5.20875,39.79274,357.5872],[-5.22911,39.77933,372.9871],[-5.23784,39.77142,347.4423],[-5.24892,39.75737,333.5807],[-5.25399,39.75396,366.0794],[-5.26027,39.75225,330.9479],[-5.27407,39.75287,343.6381],[-5.30812,39.7583,358.5905],[-5.31342,39.76321,351.7323],[-5.31693,39.77189,346.5961],[-5.31435,39.79344,351.0296],[-5.31187,39.80333,338.2307],[-5.31039,39.81488,349.5483],[-5.30776,39.82692,368.1065],[-5.30285,39.83524,355.171],[-5.2921,39.84837,339.5762],[-5.28905,39.85485,344.533],[-5.28931,39.8617,335.6396],[-5.29375,39.86785,346.8702],[-5.29949,39.8739,372.7931],[-5.30603,39.87956,389.7549],[-5.31321,39.88428,366.7529],[-5.3215,39.88749,342.3091],[-5.33024,39.88894,334.2382],[-5.35778,39.88718,315.2371],[-5.37675,39.88395,318.4931],[-5.38615,39.88103,318.1404],[-5.3906,39.89359,308.9891],[-5.39101,39.92041,293.5974],[-5.37411,39.99482,288.6686],[-5.36889,40.04867,280.1697],[-5.37114,40.05802,286.6969],[-5.37039,40.06833,286.468],[-5.36504,40.09326,314.6235],[-5.3607,40.10153,298.9734],[-5.35763,40.10533,288.8233],[-5.32796,40.1159,355.5369],[-5.34538,40.1376,334.4444],[-5.34918,40.1452,346.1074],[-5.35406,40.15143,382.4071],[-5.3615,40.16484,485.8049],[-5.36471,40.20969,752.1761],[-5.36378,40.21744,904.2137],[-5.36104,40.22488,871.5076],[-5.35003,40.24545,1310.2628],[-5.3498,40.25103,1431.3643],[-5.3546,40.25517,1811.3383],[-5.37308,40.25442,1993.3403],[-5.42359,40.24313,2094.7153],[-5.4578,40.22111,1961.7999],[-5.46454,40.21481,1960.1514],[-5.47814,40.20421,2039.7124],[-5.4863,40.20134,2087.8579],[-5.49452,40.19925,2212.8628],[-5.50072,40.19837,2170.6011],[-5.53981,40.19744,2005.6187],[-5.57774,40.20778,2000.1359],[-5.60381,40.21941,2124.7253],[-5.62704,40.244,1902.7297],[-5.65859,40.26594,1308.8555],[-5.68691,40.2815,1610.0088],[-5.72773,40.29397,2145.6152],[-5.76243,40.28441,2121.7915],[-5.78365,40.28615,1777.5513],[-5.7898,40.29046,1507.7328],[-5.79181,40.29604,1318.6895],[-5.783,40.30808,1568.2964],[-5.78075,40.31506,1548.5179],[-5.78158,40.32335,1584.3691],[-5.78538,40.33165,1400.8997],[-5.79499,40.34183,1318.5127],[-5.80416,40.34296,1438.2773],[-5.81333,40.34085,1383.7397],[-5.83408,40.33222,1081.7743],[-5.86762,40.32493,895.8301],[-5.87506,40.32167,923.3027],[-5.88181,40.31749,830.5012],[-5.88581,40.31129,792.7295],[-5.88821,40.30436,762.3918],[-5.89181,40.29689,656.0499],[-5.89646,40.29,600.5377],[-5.90369,40.28426,667.9493],[-5.91245,40.28075,627.8534]]]}}