{"type":"Feature","properties":{"featurecla":"Lake","scalerank":7,"name":"null370","name_abb":null,"name_alt":null,"note":"_untitled_133","delta":null,"dam_name":null,"year":-99,"admin":null,"min_zoom":5.7,"min_label":6.7},
"geometry":{"type": "Polygon","coordinates": [[[-5.2215740572483176,39.8169830704102,418.5597],[-5.2336429864607226,39.8152168856474,452.2833],[-5.2561618421863159,39.80079304341794,505.9699],[-5.2694082279072347,39.79667194563811,448.7341],[-5.2863341652173119,39.797849402146625,393.0867],[-5.2981087303025731,39.802853592307883,348.4609],[-5.3636047485893528,39.8440645701063,305.2247],[-5.3750849495474986,39.860548961225675,298.5],[-5.3519773655676488,39.871734798056679,309.7032],[-5.3562456454110654,39.881743178379168,315.08],[-5.3619857458901379,39.891162830447371,313.9728],[-5.3694920311319834,39.8996993901342,313.7909],[-5.37920604732733,39.906469765058233,309.5483],[-5.3878897890777182,39.8996993901342,306.6374],[-5.390539066221919,39.89705011299,301.4205],[-5.3928939792389494,39.892929015210171,308.6206],[-5.399075625908722,39.894106471718686,308.8844],[-5.4029023595614376,39.894400835845829,305.8971],[-5.4139410143288842,39.892929015210171,301.2474],[-5.4139410143288842,39.88527554790474,311.3035],[-5.4033439057521377,39.881448814252025,320.4334],[-5.3993699900358649,39.877622080599309,315.5602],[-5.4002530824172652,39.871734798056679,315.8672],[-5.4133522860746268,39.860548961225675,315.7399],[-5.429542313066861,39.856722227572959,313.808],[-5.4648660083226446,39.858194048208617,321.9967],[-5.4809088532513206,39.855544771064444,316.1309],[-5.6422203949194909,39.798143766273768,525.2109],[-5.68092927763729,39.79667194563811,294.7296],[-5.7664420565690477,39.803442320562141,289.2006],[-5.8213409662791094,39.800204315163683,362.9153],[-5.8391499959705868,39.803442320562141,298.3988],[-5.89081090028219,39.821987260571433,262.5725],[-5.9105332967999971,39.824636537715605,252.0396],[-5.91215229949924,39.827285814859806,265.4697],[-5.9281951444279173,39.840826564707868,288.0967],[-5.9346711552248053,39.8449476624877,279.9959],[-5.9488006333271244,39.850834945030329,352.3804],[-5.95719001095037,39.852012401538872,264.1106],[-5.9682286657178167,39.851718037411729,294.5183],[-5.9757349509596622,39.855839135191559,305.1848],[-5.9822109617565786,39.8578996840815,312.4488],[-5.9885397904899094,39.8570165917001,245.2866],[-5.9956045295410547,39.851718037411729,294.0568],[-5.9845658747736081,39.844653298360555,234.9196],[-5.9003777344139507,39.8134507008846,277.485],[-5.8900749899643472,39.806974690087713,294.279],[-5.8828630688496162,39.803736684689255,318.0057],[-5.8665258597938248,39.8049141411978,336.3257],[-5.8590195745519509,39.803442320562141,273.1957],[-5.8537210202635777,39.79843813040091,267.7092],[-5.8453316426403319,39.782836831662905,300.1506],[-5.8345873520000282,39.779010098010218,269.9008],[-5.8235486972325816,39.777243913247418,434.41],[-5.8007354773799022,39.7760664567389,349.5351],[-5.78498699657834,39.779304462137333,405.166],[-5.7626153229163322,39.793433940239652,342.9825],[-5.752901306720986,39.79667194563811,287.3357],[-5.6366274765039748,39.782836831662905,355.9615],[-5.6214677239566981,39.786369201188506,390.006],[-5.5914425829892593,39.798143766273768,298.0],[-5.5784905613954834,39.79667194563811,373.3815],[-5.5606815317040059,39.814333793266,383.7379],[-5.5334528499443252,39.820221075808632,384.6432],[-5.502838980722629,39.81757179866446,332.5357],[-5.4748743886451336,39.810212695486172,298.5],[-5.4514724405381676,39.79843813040091,298.5],[-5.4351352314823487,39.79578885325671,298.5],[-5.4276289462405032,39.806974690087713,298.5],[-5.4202698430622149,39.8152168856474,298.5],[-5.4067290932141532,39.815805613901659,298.5],[-5.4002530824172652,39.809329603104771,298.5],[-5.4139410143288842,39.79667194563811,331.4931],[-5.4033439057521377,39.793728304366795,367.8228],[-5.390539066221919,39.795494489129567,355.7053],[-5.3775870446281147,39.801381771672226,298.5],[-5.3662540257335536,39.810212695486172,325.935],[-5.3493280884234764,39.799615586909425,377.396],[-5.327839507142869,39.791079027222594,397.4871],[-5.3029657384002462,39.785191744679963,348.7291],[-5.276767331085523,39.782836831662905,417.2153],[-5.2527766547243,39.787546657697021,462.17],[-5.2262838832824343,39.798143766273768,415.2729],[-5.2112713127987149,39.809623967231886,400.5833],[-5.2215740572483176,39.8169830704102,418.5597]]]}}