{"type":"Feature","properties":{"id":138926.0,"name":null,"lge_id":null,"pfafstette":47133.0,"lke_type":"N","altitude":372,"objectid":87940,"scalerank":12,"featurecla":"Lake","note":"_untitled_87940","funkyname":0,"min_zoom":7.0,"min_label":8.0},
"geometry":{"type": "Polygon","coordinates": [[[-6.1381729808537671,40.264227606244077,393.5501],[-6.1381729808537671,40.264227606244077,393.5501],[-6.1652725902287671,40.255133367962827,397.1937],[-6.1685684886662671,40.242010809369077,376.0],[-6.1594742503850171,40.232550360150327,379.425],[-6.1485489574162671,40.233160711712827,376.0],[-6.1345108714787671,40.229864813275327,376.0],[-6.1257218089787671,40.234991766400327,376.0],[-6.1135758128850171,40.237189032025327,376.0],[-6.0941055980412671,40.238043524212827,376.0],[-6.0834854808537671,40.248419500775327,379.1754],[-6.0867813792912671,40.258734442181577,412.0994],[-6.1014298167912671,40.256354071087827,389.4283],[-6.1059464183537671,40.274542547650327,399.6741],[-6.1151016917912671,40.296759344525327,446.3969],[-6.1375626292912671,40.287970282025327,404.6688],[-6.1327408519475171,40.277594305462827,376.0],[-6.1381729808537671,40.264227606244077,393.5501]]]}}