{"type":"Feature","properties":{"featurecla":"Lake Centerline","scalerank":5,"rivernum":165,"dissolve":"165Lake Centerline","name":"Tajo1","name_alt":null,"note":null,"min_zoom":4.7,"strokeweig":0.25,"name_en":"Tajo","min_label":5.7},
"geometry":{"type": "LineString","coordinates": [[-5.99560546875,39.85187409061912,294.0568],[-5.9404296875,39.83698151249412,261.3032],[-5.9007324218749773,39.819598699994117,248.0603],[-5.82470703125,39.797235418744116,324.54],[-5.8025878906249773,39.792254949994117,505.2611],[-5.7306396484374886,39.798456121869116,308.8694],[-5.6636230468749886,39.791034246869117,380.3806],[-5.6279296875,39.79535553593162,392.1974],[-5.5978271484374886,39.80341217655662,323.8878],[-5.572509765625,39.814471746869117,431.5067],[-5.54443359375,39.828241278119116,404.3456],[-5.5056640624999886,39.83307526249412,347.8523],[-5.4650390624999829,39.83319733280662,338.5976],[-5.4339355468749773,39.835711981244117,342.8349],[-5.3917480468749943,39.834491278119117,298.5],[-5.360595703125,39.82440827030662,350.8342],[-5.3433593749999773,39.80963776249412,407.8084],[-5.309375,39.79755280155662,333.1604],[-5.2763183593749829,39.791034246869117,418.2427],[-5.25537109375,39.79352448124412,466.6496],[-5.2390624999999886,39.80341217655662,472.4594],[-5.2242187499999773,39.81012604374412,426.6846],[-5.2167236328124886,39.812127996869116,400.4126],[-5.2148925781249886,39.81232330936912,394.6038]]}}