{"type":"Feature","properties":{"featurecla":"River","scalerank":6,"rivernum":303,"dissolve":"303River","name":"Garonne4","name_alt":null,"note":"Changed in 2.0","min_zoom":5.0,"strokeweig":0.15,"name_en":"Garonne","min_label":6.0},
"geometry":{"type": "LineString","coordinates": [[0.924462890625023,42.646112371869116,1878.2742],[0.919677734375,42.675409246869116,1772.5477],[0.902587890625,42.698993231244117,1550.1768],[0.864501953125,42.707782293744117,1488.4735],[0.8212890625,42.711932684369117,1800.7292],[0.791894531250023,42.72418854374412,1030.8625],[0.768945312500023,42.738055731244117,1123.9756],[0.726318359375,42.75055573124412,1477.621]]}}