{"type":"Feature","properties":{"GID_3":"ESP.12.2.4_1","GID_0":"ESP","country":"Spain","GID_1":"ESP.12_1","province":"Galicia","NL_NAME_1":"NA","GID_2":"ESP.12.2_1","county":"Lugo","NL_NAME_2":"NA","city":"n.a.(172)","VARNAME_3":"NA","NL_NAME_3":"NA","TYPE_3":"Comarca","ENGTYPE_3":"Comarca","CC_3":"NA","HASC_3":"NA","name":"n.a.(172).city"},
"geometry":{"type": "MultiPolygon","coordinates": [[[[-7.2746,43.2736,555.0203],[-7.2729,43.2683,570.4075],[-7.2693,43.2671,546.8392],[-7.2597,43.2683,440.5327],[-7.2584,43.2638,592.9047],[-7.2505,43.2525,641.0891],[-7.2468,43.2519,606.3894],[-7.2375,43.2519,348.3115],[-7.229,43.2546,299.444],[-7.2239,43.252,342.9561],[-7.2178,43.2522,244.0653],[-7.2081,43.2546,212.0072],[-7.2096,43.2574,240.2475],[-7.2044,43.2577,179.0767],[-7.2041,43.2561,195.9592],[-7.1817,43.259,751.133],[-7.1598,43.2647,660.1899],[-7.1453,43.2636,676.0402],[-7.1451,43.2615,677.7834],[-7.1408,43.2605,761.4191],[-7.136,43.2556,840.847],[-7.13,43.261,864.1344],[-7.1284,43.269,882.2989],[-7.118,43.2859,874.1567],[-7.1179,43.2953,581.6951],[-7.1092,43.2923,731.7996],[-7.1024,43.2951,792.3416],[-7.0963,43.2945,822.8317],[-7.0962,43.2973,919.4631],[-7.0927,43.296,900.2059],[-7.0865,43.3003,909.7338],[-7.0973,43.3014,913.0829],[-7.1011,43.3041,851.6313],[-7.1071,43.3141,780.3645],[-7.1114,43.3163,788.791],[-7.1151,43.3261,580.8381],[-7.1255,43.3317,597.3663],[-7.1306,43.3302,498.1317],[-7.1302,43.3415,378.5131],[-7.1326,43.3477,162.6012],[-7.1281,43.3556,175.1761],[-7.1313,43.3634,438.8284],[-7.1274,43.3726,464.9862],[-7.1342,43.3774,546.9522],[-7.1369,43.3827,429.9988],[-7.1389,43.3833,417.9155],[-7.1503,43.3796,252.7221],[-7.1561,43.3745,202.6839],[-7.1594,43.3747,175.9731],[-7.1628,43.3802,129.6899],[-7.1671,43.3793,104.5399],[-7.1723,43.3834,70.3237],[-7.1766,43.3825,89.2173],[-7.1752,43.3862,87.3642],[-7.1785,43.388,83.1159],[-7.1774,43.3921,77.3058],[-7.1821,43.392,87.4237],[-7.1801,43.3962,73.2777],[-7.1725,43.4018,54.2222],[-7.1744,43.4053,52.0946],[-7.1684,43.4035,54.0862],[-7.1689,43.4088,86.3747],[-7.1712,43.409,100.6027],[-7.1767,43.4146,352.9817],[-7.1696,43.4221,229.6615],[-7.1746,43.4246,263.1952],[-7.1728,43.4304,397.7591],[-7.1618,43.432,351.2331],[-7.152,43.4287,219.2351],[-7.1419,43.4307,70.347],[-7.1297,43.4252,35.5726],[-7.1293,43.4237,23.5721],[-7.1176,43.4262,33.6037],[-7.1126,43.4253,40.9756],[-7.1085,43.429,62.5161],[-7.1027,43.427,19.0415],[-7.1004,43.4295,35.0089],[-7.1047,43.4325,12.6927],[-7.097,43.4329,18.6235],[-7.0991,43.4399,3.4731],[-7.0978,43.4417,3.54],[-7.0892,43.4453,2.226],[-7.0861,43.4433,20.8425],[-7.0853,43.4445,91.9492],[-7.0897,43.4478,59.6713],[-7.0902,43.4539,12.8291],[-7.0779,43.4649,1.2802],[-7.0715,43.4658,1.0243],[-7.0692,43.4701,8.5236],[-7.0617,43.474,20.0916],[-7.0558,43.4724,0.6967],[-7.0482,43.4774,0.2147],[-7.0504,43.4829,0.0],[-7.054,43.4854,0.8683],[-7.0537,43.4932,1.0259],[-7.0557,43.4954,1.1353],[-7.054,43.4979,0.0],[-7.054,43.5037,28.1111],[-7.0515,43.5065,0.0],[-7.0521,43.511,5.1097],[-7.0496,43.5201,0.0],[-7.0454,43.5235,12.387],[-7.0437,43.5296,1.9713],[-7.0379,43.5315,0.0],[-7.0357,43.5343,0.0],[-7.0365,43.5407,17.584],[-7.0351,43.5507,2.9089],[-7.0363,43.5521,0.0],[-7.0401,43.5529,7.0533],[-7.0415,43.5571,0.0],[-7.0468,43.5537,12.2287],[-7.0485,43.5574,0.0],[-7.0524,43.5563,3.9534],[-7.0579,43.5596,0.0],[-7.0665,43.5588,0.0],[-7.0662,43.5549,3.0892],[-7.0718,43.5557,0.0],[-7.0732,43.5546,0.0],[-7.084,43.5579,0.0],[-7.0918,43.5557,0.0],[-7.0993,43.559,0.0],[-7.1154,43.5618,4.047],[-7.1168,43.5635,0.0],[-7.1193,43.5612,0.0],[-7.1176,43.5576,1.8759],[-7.1196,43.5557,1.6193],[-7.1235,43.5585,0.0],[-7.1401,43.5576,0.422],[-7.1462,43.5557,0.0],[-7.1501,43.5574,0.0],[-7.1574,43.5557,0.0],[-7.1704,43.556,0.0],[-7.1762,43.559,0.0],[-7.1762,43.564,0.0],[-7.1801,43.5624,0.0],[-7.1954,43.5626,0.0],[-7.2201,43.5649,3.5064],[-7.2374,43.5693,0.0],[-7.2374,43.5665,12.5116],[-7.2454,43.5651,6.0652],[-7.2446,43.559,1.3644],[-7.2426,43.5568,6.1499],[-7.2426,43.5518,9.5853],[-7.2529,43.5479,5.2805],[-7.2607,43.549,1.308],[-7.2629,43.5424,0.0],[-7.2671,43.5407,0.0],[-7.2621,43.551,2.0346],[-7.2593,43.5535,6.3093],[-7.2515,43.5554,0.0],[-7.254,43.5574,0.0],[-7.2618,43.5588,2.8883],[-7.2571,43.5604,0.0],[-7.2554,43.5654,0.0],[-7.2485,43.569,0.0],[-7.2499,43.5721,6.7689],[-7.2457,43.5743,0.0],[-7.246,43.5765,0.0],[-7.2537,43.5793,0.0],[-7.2626,43.5799,1.9529],[-7.2643,43.5826,0.0],[-7.2701,43.5849,2.8368],[-7.2718,43.5871,0.0],[-7.2768,43.5879,0.0],[-7.2824,43.5913,1.4199],[-7.2876,43.5913,4.6712],[-7.2901,43.5932,4.3836],[-7.2949,43.5924,1.6116],[-7.2954,43.594,0.0],[-7.2932,43.5979,0.0],[-7.296,43.5993,4.4633],[-7.2968,43.6026,0.0],[-7.3049,43.6063,0.0],[-7.3093,43.6174,0.0],[-7.3185,43.6207,3.2089],[-7.3251,43.6287,0.9371],[-7.3321,43.6268,15.587],[-7.3332,43.6276,27.3834],[-7.3324,43.6318,0.0],[-7.3374,43.6318,23.5783],[-7.3368,43.636,6.4238],[-7.3349,43.6368,6.4238],[-7.3432,43.6404,20.8418],[-7.3435,43.6426,10.2183],[-7.3415,43.6443,0.0],[-7.3468,43.6482,0.0],[-7.3507,43.649,0.0],[-7.3499,43.6512,0.0],[-7.3518,43.6549,3.3553],[-7.3501,43.6568,0.0],[-7.3463,43.6565,0.0],[-7.3562,43.6624,2.7802],[-7.3574,43.6649,0.0],[-7.3554,43.6701,0.0],[-7.3576,43.6721,0.0],[-7.3612,43.6721,0.0],[-7.369,43.6768,3.7354],[-7.3762,43.6751,8.0221],[-7.3793,43.6768,0.7623],[-7.3846,43.6768,22.5842],[-7.3882,43.6793,0.0],[-7.3957,43.6799,10.5882],[-7.4018,43.6837,15.4787],[-7.4037,43.6824,2.2041],[-7.4035,43.6865,2.352],[-7.4071,43.6876,16.4522],[-7.4076,43.6899,0.3688],[-7.4151,43.6907,12.9053],[-7.4168,43.6924,0.0],[-7.4304,43.6935,5.245],[-7.4343,43.6924,7.4842],[-7.4399,43.6949,7.6349],[-7.4376,43.696,0.0],[-7.4387,43.6974,2.4397],[-7.4412,43.6974,0.0],[-7.446,43.6938,3.2666],[-7.4435,43.6976,0.981],[-7.4468,43.6996,0.0],[-7.4563,43.6982,11.7859],[-7.4576,43.701,0.4111],[-7.4626,43.7021,6.613],[-7.4629,43.7046,5.3046],[-7.4593,43.7088,2.4954],[-7.4599,43.7126,1.3294],[-7.4635,43.7054,5.3046],[-7.469,43.7029,3.0348],[-7.4715,43.7038,0.0],[-7.4724,43.7065,0.8178],[-7.4774,43.7071,1.1335],[-7.479,43.7088,1.8415],[-7.4782,43.7135,0.0],[-7.4724,43.716,0.0],[-7.471,43.7182,0.0],[-7.4585,43.7165,1.5031],[-7.4615,43.7188,0.0],[-7.4699,43.7201,1.7045],[-7.4701,43.7215,0.0],[-7.4662,43.7229,0.0],[-7.4668,43.7238,0.0],[-7.4726,43.7257,0.0],[-7.4832,43.7246,54.6431],[-7.4899,43.7274,0.0],[-7.4885,43.7304,0.0],[-7.4901,43.7329,1.9184],[-7.4926,43.7332,0.0],[-7.4943,43.7313,0.0],[-7.4921,43.7296,0.0],[-7.4929,43.7276,5.462],[-7.5007,43.7262,0.0],[-7.5015,43.7246,5.0862],[-7.5112,43.7262,3.1312],[-7.5149,43.7199,0.7529],[-7.5165,43.721,0.0],[-7.5154,43.7232,1.037],[-7.5168,43.7307,0.0],[-7.519,43.7304,39.5574],[-7.5237,43.7365,4.0818],[-7.5313,43.7343,0.0],[-7.531,43.7324,0.0],[-7.5349,43.7299,32.0776],[-7.5396,43.7321,0.0],[-7.5457,43.7321,0.0],[-7.5471,43.7337,0.0],[-7.5504,43.7299,47.2494],[-7.5576,43.7301,0.0],[-7.5507,43.7257,22.8506],[-7.551,43.724,0.0],[-7.5538,43.7229,0.0],[-7.551,43.7199,0.3881],[-7.5515,43.7168,14.1421],[-7.5565,43.716,0.0],[-7.5588,43.7124,5.7833],[-7.5649,43.7104,22.3617],[-7.5846,43.7121,0.0],[-7.5863,43.7065,0.0],[-7.5838,43.7021,16.5765],[-7.5807,43.7004,0.0],[-7.581,43.6974,0.0],[-7.5768,43.6951,5.6869],[-7.5771,43.6921,5.2738],[-7.5829,43.6879,5.0393],[-7.591,43.6871,0.0],[-7.5962,43.6821,0.0],[-7.6032,43.6824,0.0],[-7.5954,43.6796,1.0038],[-7.5999,43.6782,1.0125],[-7.5949,43.6732,3.5035],[-7.594,43.6693,35.6226],[-7.5965,43.6671,3.4439],[-7.5976,43.6587,13.2077],[-7.5999,43.6576,7.081],[-7.6024,43.6585,3.5535],[-7.6026,43.6621,9.4561],[-7.5996,43.6635,0.2725],[-7.6001,43.6662,1.0086],[-7.5968,43.6688,3.5401],[-7.6118,43.6724,0.6676],[-7.6113,43.6782,6.62],[-7.614,43.6787,13.9484],[-7.6132,43.6896,6.6416],[-7.6051,43.6949,0.0],[-7.6051,43.7021,0.0],[-7.6076,43.7024,0.0],[-7.6118,43.6987,25.4503],[-7.6149,43.7021,20.4489],[-7.611,43.7107,5.0358],[-7.6065,43.7135,2.7032],[-7.6063,43.7182,0.0],[-7.6096,43.7185,6.5951],[-7.6135,43.7154,75.9073],[-7.6146,43.719,0.0],[-7.6237,43.7165,12.2108],[-7.6293,43.7204,16.4344],[-7.6304,43.7224,5.2927],[-7.6268,43.7254,0.0],[-7.6301,43.7293,0.0],[-7.6304,43.7357,0.0],[-7.6349,43.7388,0.0],[-7.634,43.7407,80.943],[-7.631,43.7407,0.0],[-7.6296,43.7429,0.0],[-7.6296,43.7457,0.0],[-7.6329,43.7501,21.6713],[-7.6363,43.7507,8.1988],[-7.6379,43.7532,17.658],[-7.6474,43.7521,0.0],[-7.6513,43.7485,0.0],[-7.6504,43.7435,2.1986],[-7.6521,43.7429,2.5013],[-7.6557,43.7465,0.0],[-7.6704,43.7482,0.0],[-7.6743,43.7457,7.7954],[-7.6746,43.7401,10.5778],[-7.6762,43.739,10.5778],[-7.6729,43.7357,2.027],[-7.6749,43.734,0.6718],[-7.6799,43.7337,3.3577],[-7.6796,43.7318,14.8481],[-7.6821,43.7299,24.1956],[-7.691,43.7301,32.1554],[-7.6954,43.7343,5.1297],[-7.6976,43.7335,4.2031],[-7.6979,43.731,6.2817],[-7.6938,43.7243,0.0],[-7.6957,43.7207,3.3727],[-7.689,43.714,9.3322],[-7.6893,43.7107,4.0267],[-7.6913,43.7085,2.6906],[-7.6907,43.7124,0.0],[-7.6921,43.7137,0.0],[-7.6938,43.7137,0.0],[-7.6949,43.7104,0.0],[-7.6982,43.7132,2.9851],[-7.701,43.7126,16.4729],[-7.7029,43.7096,28.7018],[-7.7071,43.711,2.3715],[-7.7052,43.7078,15.7704],[-7.7014,43.7066,0.1738],[-7.7073,43.7028,4.6981],[-7.7072,43.7012,47.2919],[-7.7016,43.6991,147.8042],[-7.7029,43.6958,155.2243],[-7.6984,43.6956,53.7799],[-7.7034,43.6926,103.3552],[-7.7024,43.6863,107.5497],[-7.7065,43.6865,94.0569],[-7.7088,43.685,137.3624],[-7.7164,43.6881,101.8824],[-7.7191,43.6873,104.0424],[-7.7127,43.6794,125.8996],[-7.7075,43.6786,132.8519],[-7.7085,43.6707,107.7482],[-7.7065,43.6722,139.8757],[-7.7009,43.6684,123.6637],[-7.6908,43.6546,136.6918],[-7.6962,43.6533,135.3653],[-7.694,43.651,140.3242],[-7.6945,43.6481,159.2555],[-7.7012,43.644,163.656],[-7.7062,43.6471,200.4468],[-7.7095,43.6442,154.9493],[-7.7169,43.6454,195.4687],[-7.7154,43.6391,282.8103],[-7.7185,43.6376,210.2383],[-7.7169,43.6359,263.541],[-7.7187,43.6349,236.2027],[-7.7181,43.6333,241.4259],[-7.7251,43.6276,234.3048],[-7.7265,43.6243,223.0727],[-7.7317,43.6256,239.139],[-7.7309,43.6217,241.1145],[-7.7353,43.6213,204.9383],[-7.7328,43.6163,207.3652],[-7.7247,43.613,219.6484],[-7.725,43.6117,282.5038],[-7.7306,43.6105,234.9861],[-7.7222,43.6081,225.5648],[-7.7246,43.6041,238.458],[-7.7302,43.6028,243.6905],[-7.7294,43.5999,246.0525],[-7.7207,43.5989,263.7018],[-7.7197,43.5892,298.2769],[-7.722,43.5853,300.2195],[-7.7176,43.584,248.6689],[-7.7205,43.5793,253.4714],[-7.7278,43.583,277.3425],[-7.7292,43.5813,264.2154],[-7.74,43.5795,274.8799],[-7.7423,43.5819,281.0193],[-7.7461,43.5807,282.7062],[-7.7486,43.5776,289.5038],[-7.7453,43.5755,353.7088],[-7.7436,43.5701,317.8526],[-7.7458,43.569,286.8936],[-7.749,43.5613,296.8129],[-7.7523,43.5596,288.4792],[-7.7505,43.5569,283.9188],[-7.748,43.5561,294.2303],[-7.7472,43.5483,370.6121],[-7.7389,43.5457,325.5715],[-7.737,43.5481,352.4013],[-7.7366,43.5461,319.673],[-7.7339,43.5463,358.6102],[-7.7345,43.5447,352.0069],[-7.7289,43.5441,354.2477],[-7.7313,43.5425,361.6644],[-7.7289,43.5421,334.7762],[-7.7307,43.5415,361.9648],[-7.7294,43.5387,368.3074],[-7.7274,43.5403,373.7998],[-7.7216,43.5386,371.9645],[-7.7207,43.5347,372.1675],[-7.7162,43.5341,382.797],[-7.717,43.537,385.2126],[-7.7134,43.5372,423.6372],[-7.712,43.5387,423.6372],[-7.7089,43.5374,400.5032],[-7.7071,43.5384,405.2589],[-7.7094,43.5359,429.0919],[-7.708,43.5331,420.4646],[-7.7045,43.5325,426.8564],[-7.706,43.532,453.8508],[-7.7018,43.5297,430.8815],[-7.6999,43.5229,461.7054],[-7.7014,43.5095,492.3646],[-7.6974,43.5099,493.0279],[-7.6918,43.5134,597.8254],[-7.6898,43.5172,632.4816],[-7.682,43.519,710.3612],[-7.6798,43.5223,712.5753],[-7.6704,43.522,554.2112],[-7.6658,43.5271,576.8494],[-7.6625,43.5223,504.0855],[-7.6589,43.5233,494.4244],[-7.6511,43.5215,473.0444],[-7.6496,43.5196,535.8744],[-7.6555,43.5104,747.2059],[-7.652,43.5013,725.1283],[-7.6544,43.4941,788.905],[-7.6468,43.4877,787.923],[-7.6275,43.4974,628.3999],[-7.6259,43.5043,648.7014],[-7.6295,43.5093,636.1929],[-7.6228,43.517,645.3424],[-7.6193,43.5253,618.3952],[-7.6022,43.5229,449.1068],[-7.5959,43.5315,330.0823],[-7.5967,43.534,321.9026],[-7.5926,43.5366,273.7256],[-7.5915,43.5399,279.7565],[-7.5893,43.5404,283.5402],[-7.5839,43.5371,320.3289],[-7.5685,43.5344,633.8595],[-7.5588,43.5247,699.8777],[-7.5439,43.52,914.2656],[-7.5492,43.5079,985.5497],[-7.5506,43.4997,1000.9777],[-7.5631,43.4919,895.9518],[-7.5717,43.4805,835.3696],[-7.569,43.4676,966.5397],[-7.5721,43.4642,1014.803],[-7.5525,43.4608,834.1702],[-7.5445,43.4627,861.6519],[-7.5397,43.4665,780.1865],[-7.5365,43.464,763.8561],[-7.5373,43.4594,743.808],[-7.5352,43.4573,739.6871],[-7.5209,43.4512,709.8682],[-7.476,43.4528,697.51],[-7.4482,43.4575,571.5591],[-7.4484,43.4488,615.1567],[-7.4521,43.4411,680.6635],[-7.4525,43.4272,669.3021],[-7.4492,43.4205,539.8581],[-7.4286,43.4169,692.827],[-7.4239,43.4128,628.3542],[-7.4366,43.4011,545.0825],[-7.4321,43.3997,581.6133],[-7.4307,43.3976,607.2717],[-7.4324,43.3934,662.6829],[-7.4284,43.3836,539.579],[-7.4248,43.3859,578.6854],[-7.4195,43.3818,434.8438],[-7.4134,43.3818,391.7599],[-7.4054,43.3868,325.1876],[-7.3908,43.3914,284.0848],[-7.389,43.3877,409.435],[-7.3774,43.3824,689.5096],[-7.3775,43.3802,699.8539],[-7.3667,43.3855,628.6868],[-7.3534,43.3791,602.0445],[-7.3457,43.3815,515.0235],[-7.3367,43.3803,541.7719],[-7.3349,43.3774,579.9382],[-7.3359,43.3732,588.8956],[-7.3341,43.3715,568.405],[-7.3241,43.3688,785.6283],[-7.3196,43.3758,794.5361],[-7.3128,43.3649,762.1434],[-7.3061,43.3625,644.7094],[-7.305,43.3597,606.1487],[-7.2999,43.3567,557.6841],[-7.3004,43.3519,594.45],[-7.2972,43.3476,569.0725],[-7.2969,43.3401,529.1537],[-7.2988,43.3372,538.3631],[-7.2963,43.334,525.1094],[-7.2969,43.3308,526.9105],[-7.2914,43.3232,603.3064],[-7.2913,43.3177,583.8944],[-7.3047,43.3138,467.6043],[-7.3046,43.3077,463.238],[-7.3071,43.3055,459.2844],[-7.3079,43.2971,476.8849],[-7.3019,43.2954,475.7017],[-7.2976,43.2971,492.6743],[-7.2943,43.2938,512.9955],[-7.293,43.2967,525.5302],[-7.2897,43.2937,537.8351],[-7.2765,43.2908,435.6667],[-7.2733,43.2827,502.564],[-7.2746,43.2736,555.0203]]],
[[[-7.4357,43.7001,13.9033],[-7.4379,43.701,6.2285],[-7.4407,43.6987,0.0],[-7.436,43.6971,0.2668],[-7.4357,43.7001,13.9033]]],
[[[-7.6287,43.7604,0.0],[-7.6293,43.7618,4.752],[-7.6321,43.7615,0.0],[-7.6346,43.7582,0.0],[-7.6329,43.7562,2.112],[-7.6293,43.7565,0.0],[-7.6279,43.7582,0.0],[-7.6287,43.7604,0.0]]],
[[[-7.4412,43.7015,0.0],[-7.444,43.7021,0.0],[-7.4446,43.701,0.0],[-7.441,43.6999,0.0],[-7.4412,43.7015,0.0]]],
[[[-7.4371,43.7143,0.0],[-7.4371,43.7157,0.0],[-7.4421,43.7154,0.0],[-7.4415,43.7143,1.2642],[-7.4371,43.7143,0.0]]],
[[[-7.4382,43.7176,0.0],[-7.4387,43.719,0.0],[-7.4424,43.7163,0.0],[-7.4412,43.716,2.1654],[-7.4382,43.7176,0.0]]]]}}