{"type":"Feature","properties":{"GID_3":"ESP.1.8.7_1","GID_0":"ESP","country":"Spain","GID_1":"ESP.1_1","province":"Andalucía","NL_NAME_1":"NA","GID_2":"ESP.1.8_1","county":"Sevilla","NL_NAME_2":"NA","city":"n.a.(232)","VARNAME_3":"NA","NL_NAME_3":"NA","TYPE_3":"Comarca","ENGTYPE_3":"Comarca","CC_3":"NA","HASC_3":"NA","name":"n.a.(232).city"},
"geometry":{"type": "MultiPolygon","coordinates": [[[[-5.446,36.9524,191.4564],[-5.4461,36.9465,421.2919],[-5.4411,36.944,396.8546],[-5.4388,36.9353,393.9547],[-5.4127,36.9407,506.6234],[-5.4165,36.9443,530.737],[-5.4134,36.9535,495.4867],[-5.4008,36.9628,415.2428],[-5.3932,36.9722,399.9863],[-5.3818,36.9794,373.0832],[-5.3758,36.98,302.5045],[-5.374,36.9824,248.7606],[-5.3652,36.9857,242.793],[-5.3606,36.9852,239.5768],[-5.3595,36.9925,262.6947],[-5.3452,36.9974,291.4671],[-5.3395,37.0046,350.1445],[-5.3378,37.0111,407.7892],[-5.302,37.0374,437.5801],[-5.3016,37.018,477.4546],[-5.3001,37.0138,466.8017],[-5.2936,37.0104,437.8535],[-5.2851,37.0002,355.1339],[-5.2737,36.9902,384.6517],[-5.2679,36.9783,647.7926],[-5.262,36.9754,705.7482],[-5.2566,36.9641,644.305],[-5.2349,36.9412,554.7313],[-5.2257999999999996,36.9419,596.955],[-5.2197,36.9509,561.1411],[-5.2156,36.9519,529.7124],[-5.2059,36.9627,433.9185],[-5.1911,36.9667,470.388],[-5.1892,36.97,502.1489],[-5.1816,36.9717,535.1985],[-5.1742,36.9772,548.3489],[-5.1625,36.9814,604.3484],[-5.1583,36.9893,664.2281],[-5.1479,36.9971,583.8325],[-5.1422,37.0039,548.9639],[-5.1422,37.0059,533.1754],[-5.1326,37.0115,501.1804],[-5.1227,37.0277,397.4807],[-5.1198,37.0285,403.587],[-5.1174,37.0244,409.2587],[-5.1132,37.0243,401.4037],[-5.1121,37.0191,402.2866],[-5.1025,37.0257,422.7689],[-5.0913,37.0275,435.1527],[-5.0828,37.0315,446.7972],[-5.0742,37.0294,473.8618],[-5.0722,37.0318,488.6718],[-5.0552,37.0327,535.418],[-5.053,37.0306,553.4621],[-5.0479,37.0387,588.2528],[-5.0328,37.049,613.9564],[-5.0278,37.0441,600.4686],[-5.0239,37.046,596.6868],[-5.0275,37.0499,586.011],[-5.0258,37.0519,601.7231],[-5.0095,37.0548,598.2322],[-4.9882,37.0646,615.8874],[-4.979,37.07,515.391],[-4.9783,37.073,490.9406],[-4.9721,37.0754,616.8848],[-4.9544,37.0914,518.0505],[-4.9463,37.0966,540.5745],[-4.9356,37.1005,434.8896],[-4.9306,37.0999,455.6548],[-4.9269,37.1035,561.5475],[-4.9225,37.1033,572.6624],[-4.9218,37.1069,612.6846],[-4.917,37.108,625.9636],[-4.9168,37.111,613.2952],[-4.9082,37.1147,540.6475],[-4.9032,37.1388,468.0107],[-4.9119,37.1441,462.2812],[-4.9245,37.1486,456.0667],[-4.9357,37.1562,441.7148],[-4.9465,37.1576,428.7344],[-4.9548,37.1618,412.6743],[-4.9603,37.1706,387.1227],[-4.9712,37.1741,350.3773],[-4.9745,37.1788,317.5634],[-4.9784,37.1767,346.5633],[-4.9847,37.1768,333.2201],[-4.9857,37.1701,355.9634],[-4.9995,37.1673,340.71],[-5.0026,37.1693,380.3551],[-5.0056,37.169,372.7786],[-5.0106,37.1725,385.3482],[-5.0105,37.1749,397.4894],[-5.0152,37.1751,367.8417],[-5.0174,37.1722,352.2158],[-5.0123,37.1661,351.2975],[-5.0166,37.1639,380.4194],[-5.0184,37.1606,364.2357],[-5.0266,37.1601,403.9156],[-5.0293,37.1624,438.297],[-5.0322,37.1598,389.5218],[-5.0301,37.1571,385.9458],[-5.0326,37.1531,373.1321],[-5.0396,37.1491,394.7656],[-5.0428,37.1509,456.2381],[-5.0449,37.1496,426.4601],[-5.0428,37.1468,401.6921],[-5.0449,37.1443,406.9841],[-5.0489,37.1453,410.8789],[-5.053,37.1431,427.8893],[-5.053,37.1485,428.1916],[-5.0601,37.149,470.4738],[-5.0584,37.144,455.212],[-5.0605,37.143,445.3922],[-5.061,37.14,431.1746],[-5.0584,37.1387,480.6704],[-5.069,37.1332,524.4104],[-5.0732,37.1345,487.9012],[-5.08,37.1247,543.3497],[-5.0852,37.1228,563.3851],[-5.0868,37.1242,554.8129],[-5.0907,37.1238,541.8193],[-5.0899,37.1177,528.6076],[-5.0917,37.1125,473.3574],[-5.1052,37.1115,528.2522],[-5.1063,37.117,563.9244],[-5.1158,37.1163,568.6055],[-5.1161,37.1142,561.5448],[-5.1199,37.1135,510.0652],[-5.1214,37.1056,459.7583],[-5.1318,37.1029,437.3812],[-5.1344,37.0993,412.9918],[-5.1347,37.0944,386.96],[-5.1386,37.0908,450.1302],[-5.1527,37.0884,394.3603],[-5.1559,37.0825,323.7525],[-5.164,37.0834,321.5551],[-5.1703,37.0816,313.935],[-5.1707,37.0829,311.9614],[-5.1673,37.0843,331.8663],[-5.1666,37.0894,323.8379],[-5.169,37.0931,304.4676],[-5.1689,37.0975,307.7239],[-5.1732,37.0962,304.212],[-5.1801,37.0991,296.3723],[-5.1876,37.0984,328.223],[-5.1921,37.1033,317.4328],[-5.196,37.1037,270.6935],[-5.1947,37.1051,328.1238],[-5.1986,37.1068,327.3911],[-5.2032,37.1048,262.6986],[-5.2036,37.1118,268.0661],[-5.1986,37.1141,334.8423],[-5.2004,37.1184,262.5],[-5.2038,37.1196,265.4788],[-5.2058,37.1228,281.2521],[-5.2093,37.1189,262.5],[-5.2118,37.1195,262.5],[-5.2122,37.1226,283.822],[-5.2159,37.1215,262.5],[-5.2141,37.1272,275.4962],[-5.2168,37.1345,323.8383],[-5.2129,37.1371,336.6241],[-5.2106,37.1417,371.3682],[-5.2025,37.1443,427.6272],[-5.2021,37.1494,359.7467],[-5.1985,37.1541,287.7949],[-5.199,37.1572,279.8689],[-5.206,37.1646,261.7352],[-5.2061,37.1702,252.6945],[-5.2087,37.1767,246.3693],[-5.2129,37.181,230.0204],[-5.2118,37.1914,220.9686],[-5.2157,37.201,195.1777],[-5.215,37.204,206.9479],[-5.2198,37.2081,191.2073],[-5.2368,37.217,177.4431],[-5.2427,37.2249,172.1295],[-5.243,37.2314,168.4709],[-5.2473,37.2384,165.117],[-5.2517,37.2421,160.8452],[-5.2511,37.2519,159.6403],[-5.2574,37.2568,154.1812],[-5.2577,37.2605,150.0623],[-5.2616,37.265,148.4572],[-5.2772,37.2528,200.5635],[-5.2866,37.2412,186.2563],[-5.2953,37.2361,174.804],[-5.3271,37.2239,185.4148],[-5.347,37.2101,191.2107],[-5.352,37.2096,185.6863],[-5.3777,37.2194,189.5108],[-5.391,37.2287,175.1252],[-5.3985,37.2304,166.7136],[-5.4015,37.2338,158.226],[-5.4065,37.2353,155.0727],[-5.417,37.2322,149.396],[-5.4296,37.2348,147.2886],[-5.4291,37.2328,147.8464],[-5.4331,37.2243,161.2244],[-5.4415,37.2237,144.6393],[-5.4586,37.2156,139.1796],[-5.4624,37.2111,126.8672],[-5.4786,37.2099,117.477],[-5.4824,37.2077,120.214],[-5.4798,37.2048,133.3128],[-5.4807,37.2037,131.0832],[-5.4784,37.1986,151.0956],[-5.4904,37.2,126.7365],[-5.4927,37.2021,124.723],[-5.4927,37.195,120.1724],[-5.4953,37.1889,128.8202],[-5.5058,37.1881,125.211],[-5.5092,37.1901,122.8072],[-5.5316,37.1878,106.693],[-5.5368,37.185,102.689],[-5.5356,37.1772,112.9071],[-5.5446,37.1753,110.7383],[-5.5456,37.1723,106.5109],[-5.5492,37.1694,99.8158],[-5.5655,37.1622,95.5435],[-5.5774,37.1535,94.7658],[-5.5732,37.1407,103.1555],[-5.5808,37.1401,99.0511],[-5.5824,37.1325,98.6876],[-5.5707,37.1297,104.6382],[-5.5723,37.1212,104.3789],[-5.5694,37.1135,113.0973],[-5.5698,37.1057,112.509],[-5.5677,37.0989,119.6669],[-5.5715,37.0955,117.2343],[-5.5677,37.0903,127.9593],[-5.5702,37.087,178.3874],[-5.5676,37.0813,183.4922],[-5.5799,37.0787,160.8401],[-5.5964,37.0701,138.4388],[-5.5948,37.0679,140.3386],[-5.5967,37.0671,136.3216],[-5.599,37.0685,131.7707],[-5.6042,37.0681,130.9032],[-5.6095,37.0434,143.4642],[-5.607,37.0308,111.9708],[-5.6054,37.0309,121.3142],[-5.6053,37.0172,83.9849],[-5.5822,36.979,177.1926],[-5.5801,36.9686,195.9118],[-5.5594,36.9389,200.4329],[-5.5507,36.9231,139.4402],[-5.5469,36.9259,139.9114],[-5.5456,36.9304,141.6688],[-5.5348,36.9303,150.1705],[-5.5326,36.9359,150.1446],[-5.5244,36.9377,150.0128],[-5.5203,36.9449,154.2792],[-5.5208,36.9476,154.1557],[-5.5151,36.9502,173.0177],[-5.5144,36.9556,215.0914],[-5.5121,36.9577,249.7354],[-5.5022,36.9583,198.523],[-5.4983,36.9662,209.8941],[-5.4933,36.9709,217.091],[-5.4897,36.9729,226.078],[-5.4817,36.9722,232.2654],[-5.4696,36.984,258.5893],[-5.4701,36.9917,296.3076],[-5.4729,36.9953,275.8577],[-5.483,37.0022,231.8751],[-5.487,37.0071,208.1],[-5.4949,37.0113,187.1708],[-5.5108,37.0336,221.7953],[-5.4967,37.0397,219.4877],[-5.4732,37.0429,299.5808],[-5.4647,37.0408,272.1107],[-5.4593,37.0422,241.1565],[-5.4478,37.0502,251.2624],[-5.4417,37.0495,240.2759],[-5.4335,37.0525,240.5831],[-5.4279,37.0452,232.8687],[-5.427,37.0379,255.2222],[-5.4213,37.0245,289.9734],[-5.4209,37.0112,340.7574],[-5.4259,37.0057,316.4812],[-5.4269,36.9997,371.3691],[-5.4353,36.991,340.9853],[-5.4426,36.9896,322.187],[-5.443,36.987,329.2504],[-5.4454,36.9853,319.1638],[-5.4528,36.9824,273.8778],[-5.4568,36.9778,257.807],[-5.4599,36.978,250.0139],[-5.4601,36.9752,277.9724],[-5.457,36.9742,302.3602],[-5.4544,36.9612,212.3861],[-5.4458,36.9567,223.2609],[-5.4478,36.9542,193.8756],[-5.446,36.9524,191.4564]]]]}}