{"type": "Feature","bbox": [1.1565,38.6407,1.651,39.1188],"geometry": {"type": "MultiPolygon","coordinates": [[[[1.4221,38.7921,19.0526],[1.4165,38.7854,0.0],[1.4188,38.7788,0.0],[1.424,38.7801,0.0],[1.4249,38.7824,41.7908],[1.4293,38.7799,31.8705],[1.4329,38.7729,0.0],[1.4313,38.771,0.0],[1.4346,38.7646,0.0],[1.4346,38.756,0.0],[1.4321,38.7543,0.0],[1.4301,38.756,0.0],[1.4296,38.7549,0.5119],[1.4307,38.7524,0.0],[1.4329,38.7526,0.22],[1.4329,38.7501,0.9703],[1.4304,38.7518,0.0],[1.4313,38.7451,2.5478],[1.4285,38.7388,0.3534],[1.4218,38.7335,0.8752],[1.4176,38.7335,0.7705],[1.4165,38.7357,0.0],[1.4146,38.736,0.0],[1.4126,38.7321,0.0],[1.4054,38.7282,1.476],[1.3993,38.7296,2.4319],[1.3985,38.7337,0.0],[1.3962,38.7354,1.9225],[1.394,38.7324,0.0],[1.3954,38.731,2.0272],[1.3921,38.7268,12.7349],[1.3865,38.7243,0.0],[1.3868,38.7221,0.3558],[1.3799,38.7193,0.9881],[1.3796,38.7171,0.0],[1.3868,38.7118,6.5613],[1.3893,38.6999,0.0],[1.3882,38.694,1.548],[1.3801,38.6929,1.6743],[1.3818,38.6874,4.4975],[1.381,38.6851,0.0],[1.3879,38.6662,0.0],[1.3829,38.6479,0.0],[1.3854,38.6407,5.4222],[1.3946,38.6407,0.0],[1.401,38.6457,6.1196],[1.4101,38.6499,0.0],[1.4112,38.6535,0.0],[1.4165,38.6565,0.0],[1.4174,38.6599,4.6365],[1.421,38.6629,0.0],[1.4237,38.6632,0.0],[1.4249,38.666,25.0172],[1.4299,38.6643,0.0],[1.4371,38.6796,1.6345],[1.4463,38.6846,1.7545],[1.4654,38.6843,1.3642],[1.4832,38.679,4.1558],[1.5076,38.6671,7.8371],[1.5229,38.6532,0.0],[1.526,38.6524,5.602],[1.571,38.6499,0.0],[1.574,38.6521,19.6035],[1.576,38.6576,25.4535],[1.5854,38.6621,62.7014],[1.5849,38.671,28.5407],[1.5821,38.6721,29.0266],[1.5826,38.6774,27.7481],[1.5776,38.6849,0.0],[1.5724,38.6862,57.3867],[1.5699,38.6896,1.5063],[1.5707,38.6918,0.0],[1.5615,38.6924,0.0],[1.554,38.6885,4.1798],[1.5524,38.6857,0.0],[1.5371,38.679,0.0],[1.5301,38.6735,14.8184],[1.506,38.6832,0.0],[1.4863,38.6965,5.869],[1.4787,38.7038,0.0],[1.4785,38.7065,6.6799],[1.481,38.7071,0.0],[1.4793,38.7129,0.0],[1.4768,38.7138,0.0],[1.4713,38.7201,4.1924],[1.4732,38.7287,0.0],[1.4649,38.7235,8.4093],[1.4607,38.7243,0.0],[1.459,38.7268,0.0],[1.4557,38.7268,0.0],[1.4588,38.7257,0.0],[1.4576,38.724,1.5772],[1.4546,38.7274,0.0],[1.4576,38.7282,0.0],[1.4529,38.7318,0.0],[1.4504,38.7304,3.0138],[1.4468,38.7337,0.4874],[1.4443,38.7393,0.0],[1.4396,38.7446,0.0],[1.4363,38.7604,0.0],[1.4363,38.7674,0.0],[1.4315,38.781,12.0508],[1.4318,38.7849,3.2846],[1.4251,38.7932,26.4139],[1.4265,38.794,15.7098],[1.4235,38.7996,3.8755],[1.421,38.7996,4.8178],[1.4232,38.7974,2.0944],[1.4213,38.7976,0.0],[1.4188,38.7954,9.9962],[1.4221,38.7921,19.0526]]],
[[[1.4849,38.7876,0.0],[1.481,38.7882,0.353],[1.4807,38.7874,0.353],[1.4851,38.7863,0.0],[1.4849,38.7876,0.0]]],
[[[1.4793,38.7879,0.0],[1.4812,38.7888,0.0],[1.4796,38.7962,11.1654],[1.4826,38.7985,0.0],[1.4782,38.8007,7.7405],[1.4793,38.8051,0.0],[1.4771,38.8054,2.7504],[1.4735,38.7982,0.0],[1.4765,38.7907,2.0603],[1.4793,38.7879,0.0]]],
[[[1.439,38.8871,0.6328],[1.4399,38.889,0.0],[1.4371,38.8882,0.0],[1.4382,38.8871,0.6328],[1.439,38.8871,0.6328]]],
[[[1.4274,38.7765,0.0],[1.4271,38.7771,0.0],[1.4251,38.7774,0.0],[1.4279,38.7754,0.0],[1.4274,38.7765,0.0]]],
[[[1.4171,38.7918,0.0],[1.4207,38.7912,0.0],[1.4174,38.7957,0.0],[1.4163,38.7943,0.0],[1.4171,38.7918,0.0]]],
[[[1.4049,38.814,0.0],[1.4026,38.8149,0.0],[1.4021,38.8143,0.0],[1.4057,38.8138,0.0],[1.4049,38.814,0.0]]],
[[[1.4038,38.8154,0.0],[1.4051,38.8168,0.0],[1.4018,38.8165,0.0],[1.4021,38.8157,0.0],[1.4038,38.8154,0.0]]],
[[[1.411,38.8182,0.0],[1.4099,38.819,0.0],[1.4088,38.8176,0.0],[1.4115,38.8135,0.0],[1.4126,38.8154,2.27],[1.411,38.8182,0.0]]],
[[[1.436,38.8838,0.0],[1.4362,38.8854,0.0],[1.4346,38.8857,0.0],[1.4332,38.8832,0.0],[1.4357,38.8832,0.0],[1.436,38.8838,0.0]]],
[[[1.4249,38.896,1.9543],[1.4243,38.8974,0.0],[1.4221,38.8971,0.0],[1.4226,38.8954,0.0],[1.4249,38.896,1.9543]]],
[[[1.4638,38.9135,0.0],[1.4771,38.9126,0.0],[1.4749,38.9151,1.1546],[1.4796,38.9151,0.0],[1.479,38.9168,4.3538],[1.4821,38.9182,0.0],[1.4824,38.921,22.1876],[1.4846,38.921,6.1992],[1.4846,38.9229,21.5655],[1.4868,38.9224,0.0],[1.4868,38.9251,0.0],[1.4882,38.9238,0.0],[1.4899,38.9246,0.0],[1.4882,38.9265,11.6599],[1.4954,38.9287,0.0],[1.4965,38.9307,18.1975],[1.5018,38.9299,0.0],[1.501,38.9318,11.0513],[1.5054,38.9324,0.0],[1.5107,38.9432,0.0],[1.511,38.9468,8.3468],[1.5165,38.9468,7.5756],[1.5204,38.9435,0.0],[1.5293,38.9454,0.0],[1.5271,38.9521,0.0],[1.5201,38.9518,23.7185],[1.5199,38.9529,0.5884],[1.5299,38.9535,0.0],[1.5321,38.9554,0.0],[1.5318,38.9574,0.0],[1.529,38.9585,27.1734],[1.5335,38.9621,0.0],[1.5324,38.9632,0.0],[1.5332,38.9726,0.0],[1.5312,38.9796,4.0285],[1.534,38.9829,5.0055],[1.5374,38.9829,0.322],[1.5382,38.9804,0.0],[1.5426,38.9837,0.0],[1.5465,38.9829,0.0],[1.5468,38.9874,1.2622],[1.5493,38.9865,0.0],[1.5485,38.9899,1.1212],[1.5499,38.9907,4.5459],[1.5504,38.9896,1.1212],[1.5515,38.9921,3.5424],[1.5576,38.9904,0.0],[1.5626,38.9929,0.5424],[1.5701,38.9904,0.0],[1.574,38.991,0.3641],[1.5743,38.9896,0.0],[1.5768,38.9901,0.0],[1.579,38.9885,0.0],[1.5821,38.989,0.0],[1.5804,38.9918,2.0372],[1.5815,38.994,0.0],[1.5801,38.9943,2.0221],[1.5818,38.9971,0.0],[1.5799,38.9974,0.0],[1.5807,38.9993,0.0],[1.5782,39.0018,0.0],[1.5821,39.0021,1.829],[1.5824,39.0099,4.8827],[1.5874,39.0107,0.9459],[1.5876,39.0129,0.0],[1.5843,39.0157,14.6731],[1.594,39.0149,0.0],[1.5965,39.0179,0.0],[1.5946,39.0213,0.0],[1.5968,39.0235,1.5579],[1.5987,39.0226,2.8568],[1.604,39.0243,2.4858],[1.6065,39.0296,6.1796],[1.6151,39.024,10.8887],[1.6215,39.0271,0.0],[1.6207,39.0285,0.0],[1.6168,39.0285,23.8672],[1.621,39.0335,0.0],[1.6207,39.0363,0.0],[1.6085,39.0357,2.1336],[1.6099,39.044,1.6031],[1.6063,39.0449,2.4173],[1.5943,39.0529,0.0],[1.5882,39.0624,1.8794],[1.5921,39.0762,12.3859],[1.5999,39.0732,0.0],[1.6085,39.0774,9.9322],[1.6121,39.081,0.6502],[1.6112,39.0821,0.0],[1.6079,39.0793,13.8417],[1.6024,39.0796,17.1999],[1.6015,39.0826,0.0],[1.5985,39.0832,3.496],[1.6049,39.091,0.0],[1.5968,39.0932,9.4131],[1.5932,39.0982,1.1812],[1.5907,39.0951,24.5104],[1.5887,39.0951,29.5643],[1.5826,39.0982,9.1176],[1.5707,39.0971,0.0],[1.5676,39.0982,6.1435],[1.5629,39.0935,47.9684],[1.5587,39.0929,53.005],[1.5554,39.0999,2.806],[1.5504,39.101,64.6091],[1.5443,39.106,8.5889],[1.5376,39.1068,24.2143],[1.5426,39.1121,0.0],[1.5424,39.1162,0.0],[1.5324,39.1188,0.0],[1.5251,39.1152,20.993],[1.5138,39.1165,0.0],[1.5168,39.1096,5.4557],[1.5138,39.1099,9.4955],[1.5107,39.1143,1.3582],[1.5074,39.1143,0.0],[1.506,39.1107,21.8545],[1.5087,39.103,9.3334],[1.4985,39.0996,3.186],[1.4926,39.1024,12.7753],[1.4935,39.1085,0.0],[1.4899,39.1101,17.2791],[1.4868,39.1101,17.9264],[1.4851,39.1082,10.7839],[1.486,39.1049,2.4829],[1.4835,39.101,6.418],[1.4787,39.1051,10.1378],[1.4735,39.1051,12.8503],[1.4699,39.1004,11.3459],[1.4668,39.1004,10.0666],[1.4632,39.1037,1.596],[1.4618,39.1024,0.0],[1.4638,39.101,1.4282],[1.4635,39.099,2.3735],[1.4524,39.0968,4.8341],[1.4493,39.0918,0.0],[1.4526,39.0893,0.0],[1.4449,39.0887,4.1886],[1.4401,39.0812,0.0],[1.4374,39.0838,0.0],[1.4399,39.0863,0.0],[1.4396,39.0879,0.0],[1.4349,39.0874,21.2618],[1.4276,39.0924,0.0],[1.4243,39.0924,0.0],[1.4199,39.0893,15.557],[1.4196,39.0846,124.5669],[1.416,39.0818,0.0],[1.4168,39.0779,14.2662],[1.409,39.0782,0.0],[1.4057,39.0754,64.4915],[1.4035,39.0776,0.0],[1.399,39.0771,0.0],[1.3974,39.0801,63.1445],[1.3882,39.0796,6.5439],[1.3851,39.0774,19.3525],[1.3807,39.0707,0.0],[1.381,39.0679,8.148],[1.3763,39.0629,27.2101],[1.3657,39.0643,6.3333],[1.3638,39.0738,0.0],[1.3588,39.074,0.0],[1.3565,39.0715,0.0],[1.3565,39.0687,62.4456],[1.3524,39.0649,133.703],[1.3479,39.0638,1.8292],[1.346,39.0674,0.0],[1.3443,39.066,0.0],[1.3457,39.0596,101.9],[1.3426,39.0537,79.7104],[1.3329,39.0551,37.3931],[1.3315,39.0537,114.0409],[1.3265,39.0537,114.8231],[1.3243,39.0518,48.4598],[1.3257,39.0482,51.7667],[1.3165,39.0443,2.7968],[1.311,39.0443,0.0],[1.3046,39.036,27.2786],[1.2974,39.0335,12.0674],[1.2899,39.0282,0.0],[1.2912,39.0235,0.0],[1.2946,39.0199,0.0],[1.2943,39.0168,14.5212],[1.2915,39.014,4.6348],[1.294,39.0135,0.0],[1.2937,39.0101,0.0],[1.2979,39.011,25.4493],[1.2985,39.0096,3.791],[1.296,39.0088,0.0],[1.294,39.0057,2.4573],[1.2921,39.0057,0.0],[1.2924,39.0029,3.1036],[1.2893,39.0051,0.0],[1.2904,39.0021,0.0],[1.286,39.0007,0.0],[1.2835,38.9971,6.0743],[1.2849,38.9962,0.0],[1.2843,38.9929,0.0],[1.2882,38.9915,2.5538],[1.286,38.9899,0.0],[1.2918,38.989,9.3772],[1.2963,38.9851,8.529],[1.2932,38.9821,0.0],[1.2976,38.979,12.1214],[1.2979,38.9763,0.0],[1.3065,38.979,5.0528],[1.3074,38.9735,2.4984],[1.3046,38.9729,0.0],[1.3013,38.9685,3.0255],[1.2957,38.969,0.0],[1.2921,38.9726,0.1322],[1.2874,38.9715,2.3199],[1.2865,38.9735,2.599],[1.2835,38.9743,0.0],[1.2821,38.9724,0.4278],[1.2768,38.9721,0.0],[1.2765,38.9701,2.5635],[1.2657,38.9696,0.0],[1.2685,38.9665,5.2453],[1.2626,38.9679,0.6938],[1.2635,38.9699,0.0],[1.2604,38.9715,0.6375],[1.2596,38.9679,0.0],[1.2501,38.9696,0.0],[1.2501,38.9674,3.5007],[1.2463,38.9679,0.0],[1.2446,38.9665,4.6727],[1.2399,38.9679,0.0],[1.2435,38.971,11.1576],[1.2435,38.9732,8.4937],[1.236,38.9718,1.9769],[1.2362,38.9699,8.6359],[1.2337,38.9693,0.0],[1.2324,38.9746,0.0],[1.2288,38.9749,0.0],[1.229,38.9721,0.0],[1.2271,38.9676,3.3414],[1.2254,38.9671,3.3414],[1.2254,38.9646,14.2524],[1.2199,38.9629,1.0854],[1.2185,38.9601,8.1395],[1.2146,38.9585,0.0],[1.2157,38.9554,0.0],[1.2193,38.9543,17.1941],[1.2188,38.9507,1.8671],[1.2268,38.9499,4.2065],[1.2251,38.9488,0.0],[1.2276,38.9465,16.7804],[1.226,38.9449,0.0],[1.2307,38.9449,0.0],[1.2293,38.944,0.0],[1.2304,38.9407,2.2819],[1.2343,38.9407,12.9171],[1.2357,38.939,7.8167],[1.2346,38.9351,34.2152],[1.2313,38.9338,0.0],[1.2326,38.9301,18.8397],[1.231,38.931,0.0],[1.2279,38.9287,34.8282],[1.2276,38.9249,40.3028],[1.2204,38.9229,0.0],[1.2213,38.9196,10.6282],[1.2185,38.9176,0.0],[1.2182,38.9151,0.0],[1.2218,38.9151,0.0],[1.2238,38.9132,7.0155],[1.2196,38.9138,0.0],[1.2193,38.911,28.5411],[1.2165,38.9093,0.0],[1.2129,38.9032,0.0],[1.2132,38.8971,0.0],[1.216,38.896,0.0],[1.2165,38.8929,0.0],[1.2201,38.8893,0.0],[1.2243,38.8896,0.0],[1.2246,38.8851,0.0],[1.2224,38.8782,0.0],[1.2268,38.8749,70.9192],[1.2254,38.8732,25.6451],[1.2268,38.8724,25.6451],[1.224,38.8704,0.0],[1.2335,38.8726,18.6237],[1.2321,38.8707,0.0],[1.2354,38.8718,0.0],[1.2379,38.869,4.352],[1.2407,38.8688,65.9359],[1.2443,38.8638,140.3307],[1.2443,38.8618,95.0598],[1.2426,38.8613,0.0],[1.246,38.8593,118.1152],[1.2451,38.856,0.0],[1.2479,38.8565,3.1418],[1.249,38.8551,0.0],[1.2554,38.859,0.0],[1.2557,38.8651,12.3819],[1.2654,38.8749,0.0],[1.266,38.8771,65.0903],[1.2718,38.8788,18.7971],[1.2749,38.8774,16.8449],[1.2799,38.8779,7.4755],[1.2826,38.874,0.0],[1.2843,38.876,5.4481],[1.2965,38.8763,3.5985],[1.2993,38.8729,0.0],[1.2976,38.8696,0.0],[1.3021,38.8685,0.0],[1.3032,38.8701,2.3258],[1.3051,38.8671,17.7234],[1.3029,38.8657,0.0],[1.3004,38.8665,0.0],[1.2979,38.8638,0.0],[1.2974,38.8621,0.0],[1.3015,38.8604,0.0],[1.3029,38.8621,22.6403],[1.3076,38.8621,6.9778],[1.3101,38.8646,0.0],[1.3107,38.8679,0.6809],[1.3168,38.8671,2.3509],[1.321,38.8643,6.1066],[1.3218,38.8618,0.0],[1.3196,38.8557,0.0],[1.3215,38.8557,0.613],[1.3243,38.8624,5.84],[1.3288,38.8638,0.0],[1.3288,38.8668,3.0972],[1.3357,38.8657,0.0],[1.3357,38.8679,0.0],[1.3443,38.8704,0.0],[1.3585,38.8626,0.3001],[1.3651,38.854,0.0],[1.3671,38.8479,0.0],[1.3704,38.844,19.0643],[1.3676,38.8354,0.0],[1.3721,38.8329,21.3468],[1.3701,38.8299,0.0],[1.371,38.8279,0.0],[1.3718,38.8301,0.0],[1.3765,38.8318,0.0],[1.3774,38.8338,2.9402],[1.3813,38.8343,8.0241],[1.3851,38.8421,3.3276],[1.3931,38.8404,1.0376],[1.406,38.8296,0.0],[1.4071,38.8326,0.0],[1.4032,38.8404,0.9339],[1.4024,38.8488,0.0],[1.4051,38.8521,0.0],[1.4051,38.8568,0.0],[1.4071,38.8568,0.0],[1.4082,38.8587,4.0124],[1.406,38.8629,12.5287],[1.4082,38.8701,4.3479],[1.4054,38.8699,3.2185],[1.4032,38.876,0.0],[1.4104,38.8913,6.1052],[1.4182,38.8965,0.2606],[1.4229,38.9046,7.0841],[1.4376,38.9021,2.935],[1.4393,38.9079,18.5406],[1.4424,38.9096,0.0],[1.4363,38.9115,0.0],[1.4379,38.914,0.2906],[1.4532,38.9087,1.7554],[1.4543,38.9043,2.9486],[1.4532,38.9038,1.1826],[1.4563,38.9032,0.0],[1.4593,38.9054,0.0],[1.4585,38.9071,0.0],[1.4543,38.9076,0.0],[1.4557,38.9115,0.0],[1.4521,38.9146,0.4601],[1.459,38.9182,0.5101],[1.4626,38.9165,6.8426],[1.4638,38.9135,0.0]]],
[[[1.5849,38.9835,16.1261],[1.5854,38.9865,6.1208],[1.5829,38.986,0.0],[1.5824,38.9829,0.0],[1.5837,38.9813,0.0],[1.586,38.9818,0.0],[1.5849,38.9835,16.1261]]],
[[[1.6421,39.0399,14.7941],[1.6421,39.0415,0.0],[1.6368,39.041,0.0],[1.6404,39.0374,11.1465],[1.6407,39.0337,0.0],[1.6457,39.0315,0.0],[1.651,39.0318,0.0],[1.6499,39.0349,0.0],[1.646,39.0368,17.3747],[1.6465,39.0407,0.0],[1.6421,39.0399,14.7941]]],
[[[1.2029,38.8701,0.0],[1.1951,38.871,0.0],[1.1901,38.8654,2.0464],[1.1904,38.8638,2.0464],[1.1876,38.8626,0.0],[1.2026,38.8638,14.0822],[1.204,38.8676,14.9761],[1.2029,38.8701,0.0]]],
[[[1.2157,38.8696,0.0],[1.2087,38.8704,0.0],[1.2062,38.8676,0.0],[1.2087,38.8662,0.0],[1.2124,38.8674,0.0],[1.2121,38.8654,0.0],[1.2149,38.8654,0.0],[1.2157,38.8696,0.0]]],
[[[1.199,38.9596,0.0],[1.1915,38.9604,6.7795],[1.1868,38.9565,0.0],[1.1951,38.9571,13.0038],[1.1982,38.9554,0.0],[1.2007,38.9568,0.0],[1.199,38.9596,0.0]]],
[[[1.1665,38.9682,0.0],[1.1663,38.9696,0.0],[1.1646,38.9699,0.0],[1.1649,38.9668,0.0],[1.1665,38.9682,0.0]]],
[[[1.2165,38.9718,9.4776],[1.2146,38.9724,0.0],[1.2137,38.9682,0.0],[1.2193,38.9663,0.0],[1.2204,38.969,0.0],[1.2165,38.9718,9.4776]]],
[[[1.1665,38.9732,0.0],[1.1643,38.974,0.0],[1.164,38.9715,3.5179],[1.1676,38.9712,0.0],[1.1665,38.9732,0.0]]],
[[[1.1618,38.9813,0.0],[1.1621,38.9835,0.0],[1.1601,38.9829,0.0],[1.1607,38.9813,0.0],[1.1571,38.9799,0.0],[1.1565,38.9782,0.0],[1.1615,38.9782,0.0],[1.1618,38.9813,0.0]]],
[[[1.4329,39.0915,0.0],[1.4324,39.0932,2.4142],[1.431,39.0907,0.0],[1.4321,39.0904,3.2344],[1.4329,39.0915,0.0]]],
[[[1.2151,38.9954,0.0],[1.2132,38.996,0.0],[1.206,38.989,0.0],[1.2079,38.9868,0.0],[1.2057,38.984,0.0],[1.2062,38.981,0.0],[1.2135,38.9754,0.0],[1.2165,38.9782,5.6563],[1.2193,38.9779,0.0],[1.2188,38.9821,0.0],[1.2115,38.984,0.0],[1.2171,38.9879,1.4541],[1.2154,38.989,0.0],[1.2168,38.9924,22.0396],[1.2151,38.9954,0.0]]],
[[[1.3171,39.0496,0.0],[1.3171,39.051,0.0],[1.3146,39.0499,0.0],[1.316,39.0482,0.0],[1.3171,39.0496,0.0]]]]}
,"properties": {"GID_3": "ESP.13.1.2_1","GID_0": "ESP","country": "Spain","GID_1": "ESP.13_1","province": "IslasBaleares","NL_NAME_1": "NA","GID_2": "ESP.13.1_1","county": "Baleares","NL_NAME_2": "NA","city": "n.a.(52)","VARNAME_3": "NA","NL_NAME_3": "NA","TYPE_3": "Comarca","ENGTYPE_3": "Comarca","CC_3": "NA","HASC_3": "NA","name": "n.a.(52).city","area_km2": 668.7017,"hist_schema_id": "Elevation0-9000","hist_area_km2": {"0": 70.7972,"25": 89.5976,"50": 87.311,"75": 76.4173,"100": 67.314,"125": 66.0296,"150": 55.663,"175": 50.5095,"200": 35.5264,"225": 24.1553,"250": 16.1968,"275": 10.7928,"300": 8.1729,"325": 4.7619,"350": 2.785,"375": 1.6978,"400": 0.5609,"425": 0.1485,"450": 0.198,"475": 0.066}}}