{"type":"Feature","properties":{"GID_3":"ESP.5.6.3_1","GID_0":"ESP","country":"Spain","GID_1":"ESP.5_1","province":"CastillayLeón","NL_NAME_1":"NA","GID_2":"ESP.5.6_1","county":"Segovia","NL_NAME_2":"NA","city":"n.a.(225)","VARNAME_3":"NA","NL_NAME_3":"NA","TYPE_3":"Comarca","ENGTYPE_3":"Comarca","CC_3":"NA","HASC_3":"NA","name":"n.a.(225).city"},
"geometry":{"type": "MultiPolygon","coordinates": [[[[-4.0754,40.7892,1977.6899],[-4.07,40.7938,1981.884],[-4.0469,40.7903,1921.7981],[-4.0421,40.7838,2059.6875],[-4.0213,40.7813,1941.2286],[-4.0024,40.7884,1853.1122],[-3.9796,40.7842,2255.8215],[-3.9779,40.7878,2238.1672],[-3.9796,40.7998,2027.1692],[-3.9753,40.8039,1982.2665],[-3.9751,40.8071,1975.9371],[-3.9677,40.8119,1897.3143],[-3.962,40.8221,1832.134],[-3.9648,40.8385,2238.9951],[-3.9624,40.844,2287.7063],[-3.9571,40.8482,2358.2246],[-3.9465,40.8648,2147.6729],[-3.9475,40.8733,2110.5925],[-3.9438,40.8785,2056.4102],[-3.9432,40.8887,2069.5681],[-3.9473,40.8888,2058.5186],[-3.9526,40.8935,2116.5547],[-3.9455,40.9036,2039.0007],[-3.942,40.9116,2061.9355],[-3.9372,40.9159,2037.6698],[-3.9377,40.9272,2020.2156],[-3.9277,40.9276,1959.3195],[-3.9224,40.9299,2052.9597],[-3.9175,40.9428,1975.0393],[-3.9119,40.9447,2002.6993],[-3.9124,40.9503,1995.655],[-3.9075,40.9559,1939.2249],[-3.8989,40.9591,1983.9645],[-3.895,40.967,2096.3289],[-3.8808,40.9729,2139.3765],[-3.8801,40.9746,2128.1689],[-3.874,40.9752,2119.0076],[-3.8693,40.9714,2142.7786],[-3.8596,40.9789,2083.802],[-3.8483,40.9799,2196.5288],[-3.8431,40.9829,2180.2805],[-3.8302,40.9862,2064.8762],[-3.8224,40.9848,1949.2153],[-3.8149,40.9863,1776.5924],[-3.7818,41.0002,2075.4849],[-3.7673,41.0162,2093.8362],[-3.7669,41.019,2073.063],[-3.7589,41.027,2068.2922],[-3.7556,41.0277,2055.7773],[-3.7497,41.0351,2008.451],[-3.7392,41.0539,1849.1111],[-3.7295,41.0622,1898.3163],[-3.7203,41.0656,1943.0934],[-3.7158,41.0715,1856.51],[-3.695,41.0832,1757.5361],[-3.6875,41.0852,1766.313],[-3.6803,41.0842,1808.3256],[-3.6767,41.0864,1813.5997],[-3.6721,41.0918,1767.3815],[-3.6506,41.1073,1780.303],[-3.6435,41.1205,1818.0692],[-3.6341,41.1257,1810.2057],[-3.6318,41.1339,1665.0475],[-3.6195,41.1427,1622.0105],[-3.6136,41.1491,1630.7404],[-3.6002,41.1552,1632.4326],[-3.5916,41.1543,1540.5933],[-3.59,41.1583,1491.2546],[-3.5834,41.1611,1264.5995],[-3.569,41.1594,1726.4438],[-3.5574,41.1645,1804.9335],[-3.527,41.1662,1859.2235],[-3.5158,41.1624,1832.808],[-3.5095,41.1686,1867.4792],[-3.5072,41.1688,1898.1415],[-3.5006,41.1791,1975.7883],[-3.4936,41.1775,2062.6304],[-3.4869,41.181,2064.0718],[-3.4816,41.1803,2166.9424],[-3.4745,41.1837,2180.2852],[-3.4668,41.1833,2215.9019],[-3.4687,41.1862,2131.0195],[-3.4665,41.1888,2068.0344],[-3.4602,41.191,2179.7261],[-3.4539,41.202,1965.8018],[-3.4545,41.2066,1922.0067],[-3.4509,41.2074,1825.5181],[-3.4493,41.2139,1644.0209],[-3.4521,41.2175,1616.6259],[-3.4537,41.2157,1563.213],[-3.4621,41.2182,1437.9186],[-3.495,41.2166,1332.3928],[-3.5073,41.2204,1274.9902],[-3.5145,41.2266,1233.8353],[-3.5277,41.233,1205.701],[-3.5287,41.2388,1171.7096],[-3.536,41.2475,1125.6545],[-3.5379,41.2525,1097.77],[-3.5447,41.2596,1082.1824],[-3.5433,41.2617,1074.2089],[-3.5456,41.265,1124.7316],[-3.5497,41.2672,1154.7783],[-3.555,41.2603,1106.998],[-3.5565,41.2605,1092.2338],[-3.5617,41.2523,1162.3004],[-3.5673,41.2557,1148.7107],[-3.5757,41.2563,1115.803],[-3.579,41.255,1113.7255],[-3.594,41.2577,1049.2345],[-3.6054,41.2545,1061.5027],[-3.6156,41.2494,1031.7518],[-3.6113,41.2452,1048.1727],[-3.6081,41.2448,1058.9111],[-3.6044,41.2419,1075.7963],[-3.6176,41.2407,1042.5402],[-3.6201,41.2411,1039.6917],[-3.6253,41.2467,1025.1283],[-3.6276,41.2469,1031.0754],[-3.6473,41.2433,982.9053],[-3.6485,41.2487,985.6482],[-3.6533,41.2455,993.6334],[-3.656,41.2478,1004.8243],[-3.6716,41.2447,1009.9703],[-3.6728,41.234,1032.6027],[-3.6876,41.2267,992.691],[-3.6896,41.2291,985.1103],[-3.703,41.2254,1030.0173],[-3.7126,41.225,1049.8129],[-3.7186,41.2274,1030.3389],[-3.7281,41.2237,1062.3486],[-3.7337,41.2258,1045.7643],[-3.7437,41.2224,1026.6687],[-3.7459,41.2242,1019.8479],[-3.7486,41.221,1013.6276],[-3.7585,41.2195,969.0393],[-3.7603,41.2154,1041.675],[-3.7854,41.2164,1024.7965],[-3.7957,41.2082,1045.4109],[-3.7967,41.2035,1066.0262],[-3.806,41.2017,1043.197],[-3.8098,41.203,1030.4022],[-3.8142,41.1988,1021.188],[-3.8204,41.1979,1005.7449],[-3.8226,41.2003,1001.6484],[-3.8392,41.2003,988.8227],[-3.8569,41.2073,1035.5125],[-3.8578,41.212,1031.7896],[-3.8646,41.2129,1035.616],[-3.8702,41.211,1022.2939],[-3.88,41.2126,985.0339],[-3.8861,41.2183,970.1257],[-3.9048,41.2264,961.463],[-3.9265,41.2087,939.4484],[-3.9332,41.2006,929.4863],[-3.9382,41.2008,935.5116],[-3.9421,41.2076,934.5992],[-3.948,41.209,925.5],[-3.9602,41.1998,906.6404],[-3.9534,41.1959,904.1964],[-3.9487,41.1961,909.1843],[-3.9468,41.1939,902.4102],[-3.945,41.1939,903.3702],[-3.9447,41.1981,903.9598],[-3.9423,41.1976,905.5369],[-3.9414,41.1966,906.2073],[-3.9438,41.1949,903.3702],[-3.9394,41.1943,910.803],[-3.938,41.1914,908.6077],[-3.9289,41.1912,917.9803],[-3.9298,41.1924,906.5109],[-3.9282,41.1925,920.9612],[-3.9207,41.1877,930.4119],[-3.9178,41.1821,925.8391],[-3.922,41.1802,950.2452],[-3.9227,41.173,985.3274],[-3.9275,41.1612,1035.3972],[-3.9339,41.1588,1013.8754],[-3.9398,41.1595,1000.1978],[-3.9556,41.1509,1005.759],[-3.9588,41.1482,1019.0375],[-3.9564,41.1412,1045.9344],[-3.9644,41.1427,1036.0603],[-3.9751,41.1489,1006.2379],[-3.9815,41.1429,986.8293],[-3.9819,41.1396,997.4862],[-3.9803,41.1355,999.3491],[-3.9767,41.1351,997.3516],[-3.9842,41.1311,996.0479],[-3.9826,41.1332,979.6971],[-3.9836,41.1346,986.1913],[-3.9933,41.1294,994.3419],[-3.992,41.1202,1011.9175],[-3.9844,41.1124,1040.9983],[-3.9639,41.1008,1081.913],[-3.9628,41.0989,1085.0459],[-3.9487,41.0993,1093.2179],[-3.948,41.0972,1091.4608],[-3.9454,41.0977,1086.6951],[-3.9423,41.0892,1141.6871],[-3.9335,41.0866,1147.458],[-3.9319,41.0881,1141.7097],[-3.9234,41.0814,1168.6331],[-3.9106,41.0827,1194.6992],[-3.9145,41.0719,1250.7568],[-3.9119,41.0665,1257.428],[-3.913,41.0591,1258.6724],[-3.9191,41.0536,1217.8174],[-3.932,41.0468,1164.5918],[-3.9455,41.0483,1142.2748],[-3.9496,41.0515,1133.2294],[-3.9524,41.0572,1114.5608],[-3.9614,41.0563,1125.9407],[-3.9805,41.0649,1090.5101],[-4.0028,41.0661,1089.6423],[-4.0045,41.072,1080.6204],[-4.0036,41.0809,1012.6976],[-4.0095,41.0863,1002.1433],[-4.0084,41.0969,1061.6951],[-4.0039,41.1037,1075.2834],[-4.0038,41.1098,1050.5811],[-4.0111,41.133,968.4017],[-4.0198,41.1352,953.5398],[-4.0194,41.1388,947.6204],[-4.0225,41.1356,954.9326],[-4.0376,41.1502,949.7263],[-4.0448,41.1542,949.7826],[-4.048,41.1596,936.7822],[-4.0638,41.1622,934.3412],[-4.068,41.1598,937.4158],[-4.0741,41.1627,936.9296],[-4.0793,41.1561,943.9349],[-4.0741,41.1508,951.24],[-4.0847,41.1417,970.5312],[-4.0817,41.1382,958.5609],[-4.0833,41.1321,929.2554],[-4.0775,41.1283,983.5507],[-4.0728,41.121,993.3646],[-4.0767,41.1131,937.0613],[-4.067,41.1129,954.2042],[-4.0626,41.1028,995.2451],[-4.0676,41.1017,993.1823],[-4.0682,41.0995,995.4122],[-4.08,41.0927,923.9402],[-4.0825,41.0855,952.3159],[-4.0869,41.0818,996.816],[-4.0952,41.0837,975.4299],[-4.0952,41.0823,975.4299],[-4.1118,41.0787,949.2817],[-4.1255,41.0634,961.5809],[-4.1289,41.063,958.5748],[-4.136,41.049,966.4597],[-4.1519,41.0424,960.8477],[-4.1518,41.0399,976.6603],[-4.1594,41.0304,958.7682],[-4.1597,41.0252,953.6371],[-4.1707,41.0251,930.694],[-4.1744,41.0154,964.9613],[-4.1817,41.0197,946.0112],[-4.1911,41.0169,921.0558],[-4.1925,41.0189,907.7224],[-4.1942,41.0186,905.6946],[-4.1983,41.0247,951.2338],[-4.2039,41.0387,971.0655],[-4.2251,41.0276,958.8143],[-4.2437,41.0153,866.8067],[-4.2468,41.0151,856.5989],[-4.2422,41.0002,883.3303],[-4.2397,40.982,914.8823],[-4.2371,40.9825,911.1294],[-4.2277,40.9772,908.4064],[-4.2195,40.9804,894.6904],[-4.2086,40.9731,884.584],[-4.2057,40.9688,882.5142],[-4.2053,40.9711,884.8838],[-4.1985,40.9731,893.3318],[-4.1929,40.9789,920.0472],[-4.1901,40.9792,933.5255],[-4.1862,40.9767,947.4817],[-4.1808,40.9806,955.1995],[-4.1769,40.9765,977.6158],[-4.1832,40.9702,950.7275],[-4.182,40.9686,938.3709],[-4.1849,40.9645,911.1353],[-4.1887,40.9616,885.509],[-4.1903,40.9627,891.5455],[-4.1917,40.96,883.2848],[-4.1887,40.9562,889.8719],[-4.1871,40.9574,886.8442],[-4.1841,40.9544,891.3082],[-4.1829,40.9499,909.7319],[-4.1772,40.9464,918.1575],[-4.1775,40.9452,921.6448],[-4.181,40.9455,917.0167],[-4.1893,40.9392,899.7279],[-4.1988,40.9361,924.205],[-4.2039,40.9315,926.6669],[-4.2057,40.9229,941.2705],[-4.2099,40.9243,945.1225],[-4.2194,40.9224,958.7095],[-4.2201,40.9215,960.583],[-4.2173,40.919,938.3499],[-4.2244,40.9046,995.4932],[-4.2223,40.9025,996.9531],[-4.2395,40.9019,1014.8603],[-4.2408,40.8984,1012.7587],[-4.244,40.8982,1014.2828],[-4.2451,40.8968,1021.9243],[-4.2439,40.8955,1013.0333],[-4.2458,40.8957,1021.9243],[-4.2488,40.8912,1042.5198],[-4.2674,40.8907,1025.4874],[-4.2729,40.8874,990.4666],[-4.2707,40.8776,1008.454],[-4.2765,40.8797,989.8806],[-4.2788,40.8783,988.2385],[-4.2835,40.8822,972.1133],[-4.2843,40.8799,972.7334],[-4.2824,40.8776,977.4085],[-4.2889,40.8755,985.3634],[-4.2895,40.8713,972.3651],[-4.2961,40.8723,950.9585],[-4.2969,40.8704,970.6474],[-4.2996,40.8739,953.1929],[-4.2987,40.8706,961.2822],[-4.3052,40.8734,941.3308],[-4.3002,40.8631,982.4757],[-4.2879,40.8528,1008.6714],[-4.2943,40.852,982.0664],[-4.2954,40.8539,1001.6763],[-4.2975,40.8527,1000.8149],[-4.3031,40.8546,982.5509],[-4.3038,40.8527,964.5032],[-4.3132,40.8521,920.9965],[-4.3226,40.8481,973.2116],[-4.3275,40.8486,964.5355],[-4.3293,40.8457,967.7736],[-4.3323,40.8459,969.5452],[-4.3334,40.8479,972.333],[-4.3274,40.85,966.6102],[-4.3325,40.859,969.3286],[-4.3338,40.858,973.9064],[-4.3405,40.8607,936.1373],[-4.3599,40.8618,1001.5526],[-4.3632,40.8655,1006.793],[-4.3846,40.8659,1014.9796],[-4.3954,40.8534,1040.4795],[-4.4047,40.853,1016.6096],[-4.4156,40.8596,1013.4213],[-4.4273,40.8629,980.5848],[-4.4312,40.8608,990.1184],[-4.4344,40.8566,1006.9837],[-4.4398,40.8411,1016.5507],[-4.4362,40.8346,1025.2604],[-4.4373,40.8308,1030.9761],[-4.436,40.8292,1027.4509],[-4.439,40.828,1027.2749],[-4.4488,40.8296,1029.7286],[-4.4544,40.8262,1039.4536],[-4.4652,40.8132,1091.2756],[-4.4676,40.8039,1107.6793],[-4.4705,40.8001,1104.7728],[-4.4731,40.8,1099.7092],[-4.4805,40.7945,1089.8682],[-4.4813,40.7916,1088.3792],[-4.4805,40.7862,1111.7852],[-4.4724,40.7821,1121.6827],[-4.4737,40.7747,1114.1442],[-4.467,40.7691,1102.337],[-4.4598,40.7588,1155.9951],[-4.4544,40.7545,1143.9048],[-4.4386,40.7498,1138.2888],[-4.431,40.7424,1174.6218],[-4.4304,40.7362,1199.0831],[-4.4268,40.7296,1295.6992],[-4.4301,40.7282,1294.6891],[-4.4322,40.7172,1485.0237],[-4.4356,40.7159,1473.0649],[-4.4346,40.7062,1397.2357],[-4.4318,40.7041,1360.2435],[-4.422,40.6753,1252.9637],[-4.4192,40.655,1392.4196],[-4.4195,40.6334,1482.7085],[-4.4072,40.6344,1519.4019],[-4.3939,40.6332,1584.365],[-4.3646,40.6375,1587.6633],[-4.3325,40.6371,1447.1591],[-4.3349,40.6395,1478.4614],[-4.328,40.6473,1477.1997],[-4.3196,40.6475,1550.8542],[-4.3233,40.6522,1583.1023],[-4.3247,40.6577,1623.1978],[-4.3185,40.6617,1603.329],[-4.3173,40.6669,1619.2927],[-4.2942,40.6765,1648.3485],[-4.2903,40.6804,1630.1587],[-4.2855,40.6805,1603.3005],[-4.275,40.6763,1565.0254],[-4.2733,40.6813,1548.405],[-4.2655,40.6851,1590.4771],[-4.2584,40.6859,1647.5885],[-4.2528,40.6895,1687.7139],[-4.2513,40.6884,1712.1339],[-4.2453,40.6899,1734.7773],[-4.2322,40.6883,1700.043],[-4.2154,40.693,1714.3413],[-4.1875,40.6959,1624.1602],[-4.1836,40.698,1539.0825],[-4.1722,40.6925,1451.6223],[-4.165,40.6932,1649.3514],[-4.1602,40.6898,1797.3284],[-4.1564,40.6923,1734.1598],[-4.1509,40.6926,1638.3922],[-4.1449,40.6952,1628.8414],[-4.139,40.7127,1548.2261],[-4.1348,40.7188,1492.9781],[-4.126,40.7245,1567.0312],[-4.1251,40.7297,1636.8783],[-4.115,40.7423,1689.5215],[-4.1065,40.7462,1734.7064],[-4.0976,40.7481,1891.7229],[-4.094,40.7562,1796.5736],[-4.0965,40.7647,1990.9824],[-4.0805,40.7769,1801.8843],[-4.0785,40.7822,1767.8923],[-4.0788,40.7889,1978.5781],[-4.0754,40.7892,1977.6899]]]]}}