{"type":"Feature","properties":{"GID_3":"ESP.1.7.2_1","GID_0":"ESP","country":"Spain","GID_1":"ESP.1_1","province":"Andalucía","NL_NAME_1":"NA","GID_2":"ESP.1.7_1","county":"Málaga","NL_NAME_2":"NA","city":"n.a.(182)","VARNAME_3":"NA","NL_NAME_3":"NA","TYPE_3":"Comarca","ENGTYPE_3":"Comarca","CC_3":"NA","HASC_3":"NA","name":"n.a.(182).city"},
"geometry":{"type": "MultiPolygon","coordinates": [[[[-4.9999,36.8892,612.8609],[-5.0032,36.8894,596.7764],[-5.0019,36.8919,570.1329],[-5.0042,36.8933,568.4628],[-5.0028,36.8954,537.7637],[-5.0003,36.8937,530.6339],[-4.9938,36.8946,524.4371],[-4.9915,36.8916,508.3756],[-4.979,36.8879,488.5069],[-4.9775,36.8821,498.5458],[-4.9553,36.8777,716.9845],[-4.9547,36.8796,703.6705],[-4.9505,36.8817,636.8613],[-4.9409,36.8777,679.6436],[-4.9306,36.8763,790.3785],[-4.9227,36.871,775.3424],[-4.9218,36.8677,766.215],[-4.9177,36.8654,718.8509],[-4.9095,36.8661,699.7858],[-4.9068,36.861,664.6454],[-4.9071,36.8532,602.645],[-4.9027,36.846,460.5105],[-4.8969,36.8423,441.6536],[-4.8909,36.846,434.0132],[-4.8876,36.8501,428.3618],[-4.8838,36.845,609.1501],[-4.8815,36.8484,609.575],[-4.8722,36.8477,751.1213],[-4.8634,36.8517,793.3528],[-4.8577,36.8515,1017.518],[-4.841,36.8556,691.2726],[-4.8392,36.8626,554.0745],[-4.8275,36.8672,632.6085],[-4.8218,36.8674,685.5302],[-4.8132,36.8643,600.9385],[-4.8084,36.8671,623.5355],[-4.7977,36.8636,647.9261],[-4.7903,36.853,769.8115],[-4.7865,36.8634,557.8055],[-4.772,36.8815,300.8782],[-4.7647,36.897,386.3407],[-4.7626,36.9039,195.097],[-4.7632,36.9101,187.5],[-4.7687,36.912,192.3881],[-4.7713,36.915,195.4437],[-4.7685,36.9194,613.3716],[-4.7275,36.9244,665.1909],[-4.7163,36.9279,639.0032],[-4.6829,36.9152,364.8388],[-4.6996,36.9307,798.1616],[-4.7119,36.9325,945.1211],[-4.7133,36.9426,1145.3445],[-4.6878,36.9549,416.2156],[-4.683,36.9527,421.4167],[-4.6724,36.9568,564.4319],[-4.6708,36.9595,621.5945],[-4.6577,36.9606,715.032],[-4.6393,36.9588,808.5471],[-4.6399,36.9517,704.1592],[-4.6475,36.9384,684.7133],[-4.6533,36.9331,634.4896],[-4.6579,36.9172,522.2931],[-4.6682,36.9187,535.0091],[-4.6715,36.9114,424.8551],[-4.659,36.9064,448.713],[-4.6348,36.9008,467.4596],[-4.6252,36.9001,438.3318],[-4.6063,36.8942,512.0145],[-4.5766,36.8925,628.1747],[-4.5517,36.8996,525.2147],[-4.5365,36.9001,455.6623],[-4.4921,36.9076,527.4407],[-4.4927,36.9023,543.8588],[-4.4905,36.8935,522.0953],[-4.4913,36.8818,484.6812],[-4.4888,36.8786,403.8864],[-4.489,36.875,362.8219],[-4.4859,36.8742,387.7064],[-4.4842,36.8689,513.729],[-4.4769,36.8663,591.6772],[-4.4763,36.8633,610.559],[-4.4713,36.8625,613.3621],[-4.4699,36.8563,611.1057],[-4.4656,36.8497,577.4033],[-4.453,36.8459,378.7978],[-4.4482,36.8403,306.7958],[-4.4457,36.8423,345.5677],[-4.4442,36.8411,334.7296],[-4.4424,36.8431,335.4367],[-4.4408,36.8427,344.7302],[-4.4415,36.8449,342.3089],[-4.4383,36.8443,381.2214],[-4.4361,36.8465,360.0443],[-4.4333,36.8457,373.7215],[-4.428,36.8499,398.2422],[-4.4266,36.8486,439.6246],[-4.4256,36.8511,423.6887],[-4.4221,36.851,420.2368],[-4.4212,36.8483,480.7758],[-4.4191,36.8478,429.8823],[-4.4189,36.8498,445.3115],[-4.4143,36.8493,449.7236],[-4.4137,36.8509,468.5017],[-4.4089,36.8517,473.6621],[-4.3983,36.8441,537.2445],[-4.3923,36.852,652.3564],[-4.3825,36.8581,881.9556],[-4.3844,36.8605,931.4581],[-4.3822,36.8635,953.8851],[-4.3843,36.8655,915.5546],[-4.3803,36.8799,797.7371],[-4.3713,36.8895,583.1855],[-4.3724,36.8908,581.5544],[-4.371,36.8933,570.8019],[-4.3642,36.8939,613.7792],[-4.3589,36.8915,652.8589],[-4.3579,36.8881,662.8209],[-4.3535,36.8881,666.9168],[-4.3501,36.8847,699.1132],[-4.344,36.8821,738.6939],[-4.3426,36.8783,808.738],[-4.3296,36.8749,711.8646],[-4.3252,36.8705,582.3978],[-4.3235,36.8641,469.3414],[-4.3214,36.8641,450.0706],[-4.3214,36.862,431.8487],[-4.3191,36.8608,433.2344],[-4.3157,36.8622,455.6552],[-4.3089,36.8608,407.278],[-4.3076,36.8624,415.4881],[-4.3032,36.8625,382.2936],[-4.2984,36.8619,353.6435],[-4.297,36.8597,337.4803],[-4.2812,36.8578,309.0267],[-4.2767,36.8683,449.63],[-4.278,36.8699,479.1744],[-4.2771,36.874,381.0977],[-4.2738,36.8763,268.9406],[-4.2763,36.8784,273.5126],[-4.2736,36.8818,318.9525],[-4.2643,36.888,359.4785],[-4.2597,36.8887,388.8128],[-4.2598,36.8927,443.1888],[-4.2571,36.8959,417.3835],[-4.2568,36.8995,416.4459],[-4.2504,36.9018,522.7739],[-4.2502,36.9051,497.9349],[-4.2408,36.9085,490.6429],[-4.2351,36.9153,519.1234],[-4.2388,36.9284,707.1536],[-4.243,36.9281,683.0928],[-4.2541,36.9347,572.7009],[-4.2437,36.9436,564.6812],[-4.2336,36.9464,635.043],[-4.2168,36.9555,922.3496],[-4.2169,36.9637,1078.3726],[-4.2191,36.9704,1076.7941],[-4.193,36.9805,1446.8112],[-4.207,36.9862,1272.6117],[-4.2153,36.9918,1216.1412],[-4.2205,37.0054,1098.3447],[-4.2243,37.0092,1089.5549],[-4.2232,37.0124,1081.0073],[-4.2312,37.017,1055.8407],[-4.2518,37.023,1111.8015],[-4.2549,37.0226,1044.9644],[-4.26,37.0174,1162.583],[-4.2724,37.0149,1363.0333],[-4.2699,37.0271,1154.8376],[-4.2726,37.0418,860.9993],[-4.2804,37.0549,1119.9691],[-4.2845,37.0889,830.2739],[-4.2833,37.0919,823.5163],[-4.2865,37.0983,866.8465],[-4.2855,37.1086,847.7124],[-4.2871,37.1117,846.3348],[-4.2869,37.1196,786.3591],[-4.2914,37.1303,725.1919],[-4.2968,37.1335,773.3041],[-4.3027,37.1452,741.2273],[-4.3092,37.153,717.546],[-4.3232,37.1808,675.5328],[-4.3321,37.1912,581.2689],[-4.3306,37.1966,547.2898],[-4.326,37.2026,526.6085],[-4.3225,37.2046,536.9952],[-4.3287,37.2053,598.2314],[-4.3449,37.2141,721.0501],[-4.3724,37.2159,755.1052],[-4.3849,37.2383,790.5912],[-4.3773,37.2418,773.2311],[-4.3771,37.2451,763.4415],[-4.3796,37.2458,760.3222],[-4.3798,37.2483,784.6384],[-4.3759,37.2573,733.0551],[-4.3801,37.2603,650.4936],[-4.3807,37.2634,514.7445],[-4.3776,37.2704,417.3267],[-4.3796,37.2753,415.0],[-4.3833,37.2774,415.0],[-4.389,37.274,333.9968],[-4.3917,37.274,345.6669],[-4.3941,37.2763,375.7001],[-4.3974,37.275,329.7061],[-4.4029,37.2766,328.3916],[-4.4064,37.2742,328.2706],[-4.4123,37.2771,330.7138],[-4.4127,37.2796,332.8206],[-4.4178,37.2824,333.0867],[-4.4246,37.2794,321.9395],[-4.4266,37.2762,317.6466],[-4.4334,37.274,317.0925],[-4.435,37.2768,335.015],[-4.4439,37.278,318.1887],[-4.4467,37.2764,317.8503],[-4.4469,37.2735,320.3139],[-4.4509,37.2708,321.6873],[-4.4566,37.2619,313.9515],[-4.456,37.2593,342.9804],[-4.458,37.258,341.8829],[-4.4607,37.2594,316.4368],[-4.4677,37.2579,355.1693],[-4.4656,37.2545,319.0484],[-4.4615,37.2548,316.597],[-4.4668,37.2511,308.2576],[-4.4716,37.2516,312.7318],[-4.4769,37.2574,334.1082],[-4.4856,37.252,349.7813],[-4.4831,37.2483,348.7071],[-4.4773,37.2457,306.3663],[-4.4777,37.2443,306.5826],[-4.48,37.2433,305.7395],[-4.4807,37.2383,309.1478],[-4.4856,37.237,311.3323],[-4.491,37.2386,306.9499],[-4.4893,37.2311,322.6962],[-4.4916,37.2276,363.7367],[-4.4979,37.2234,442.6933],[-4.4993,37.2235,436.7967],[-4.4992,37.2304,375.076],[-4.5088,37.2219,428.2348],[-4.5336,37.2121,483.405],[-4.5393,37.2113,468.9349],[-4.5396,37.2152,482.1311],[-4.5446,37.2174,490.3824],[-4.553,37.217,486.8494],[-4.561,37.2193,494.3595],[-4.5703,37.2161,470.5885],[-4.5701,37.2111,446.345],[-4.5761,37.2092,441.2849],[-4.5848,37.2112,459.6298],[-4.6022,37.2093,435.6602],[-4.6041,37.2151,421.7424],[-4.6015,37.219,420.3056],[-4.5961,37.2215,396.204],[-4.5964,37.2257,391.8505],[-4.6048,37.2381,369.4586],[-4.61,37.2394,363.6958],[-4.6142,37.2432,370.394],[-4.6136,37.2551,325.9116],[-4.6169,37.2562,252.91],[-4.6218,37.254,259.3523],[-4.6301,37.2545,268.2654],[-4.6452,37.2469,276.4532],[-4.6532,37.2559,259.0721],[-4.6586,37.2578,325.2854],[-4.6623,37.2575,332.4342],[-4.6653,37.2537,337.34],[-4.6696,37.2555,370.5328],[-4.6695,37.2528,346.7589],[-4.6758,37.2581,384.349],[-4.6824,37.2564,403.9739],[-4.6825,37.2544,402.0163],[-4.685,37.2543,396.1485],[-4.6844,37.2523,407.5201],[-4.6909,37.2519,407.6459],[-4.6994,37.2568,404.775],[-4.7139,37.2529,420.5306],[-4.7196,37.2597,410.5342],[-4.7333,37.2501,423.2281],[-4.7356,37.2449,427.3085],[-4.7302,37.2422,435.5752],[-4.7178,37.2399,433.1074],[-4.7296,37.2304,413.272],[-4.7322,37.2262,408.5657],[-4.7271,37.2111,421.4615],[-4.7234,37.2122,429.5713],[-4.7206,37.2083,435.3707],[-4.7111,37.2069,473.8015],[-4.7135,37.2035,469.8535],[-4.712,37.2024,472.4763],[-4.7135,37.2017,462.1573],[-4.7085,37.1977,450.2977],[-4.7318,37.1856,462.4943],[-4.7602,37.1771,481.9352],[-4.7615,37.171,473.9867],[-4.7797,37.1667,461.3607],[-4.7813,37.1593,442.5839],[-4.7855,37.1568,459.4357],[-4.791,37.1602,457.0631],[-4.7918,37.1544,450.5841],[-4.7941,37.1535,448.9151],[-4.8011,37.1606,436.3209],[-4.7991,37.1723,447.6103],[-4.804,37.1735,422.2903],[-4.8063,37.1712,419.4045],[-4.8115,37.1751,416.9517],[-4.8145,37.1806,421.7113],[-4.8222,37.1799,472.091],[-4.8273,37.187,473.1908],[-4.8192,37.1921,437.6709],[-4.8222,37.1958,434.6596],[-4.8191,37.1975,428.0036],[-4.8258,37.2007,437.3145],[-4.8432,37.2013,458.2234],[-4.8469,37.1989,459.0037],[-4.8537,37.1986,467.4217],[-4.8536,37.1937,505.6799],[-4.8588,37.1907,512.8207],[-4.8589,37.1841,515.1247],[-4.8567,37.1841,520.4863],[-4.8558,37.1782,552.1993],[-4.86,37.1756,553.8496],[-4.8566,37.1736,580.0132],[-4.8754,37.1582,617.1936],[-4.8807,37.1632,628.9294],[-4.8897,37.1551,625.2437],[-4.8975,37.1561,516.256],[-4.9002,37.1597,511.4923],[-4.8964,37.1633,538.6874],[-4.896,37.1674,519.5749],[-4.9039,37.1753,463.5901],[-4.903,37.1777,448.9786],[-4.905,37.1819,432.7166],[-4.9077,37.1748,458.0672],[-4.9187,37.1739,461.5998],[-4.9218,37.175,443.4972],[-4.925,37.1707,421.7128],[-4.9395,37.1757,402.7003],[-4.9397,37.1678,436.0412],[-4.9413,37.1669,444.8877],[-4.9425,37.1576,430.7586],[-4.9357,37.1562,441.7148],[-4.9245,37.1486,456.0667],[-4.9119,37.1441,462.2812],[-4.9032,37.1388,468.0107],[-4.9082,37.1147,540.6475],[-4.9168,37.111,613.2952],[-4.917,37.108,625.9636],[-4.9218,37.1069,612.6846],[-4.9225,37.1033,572.6624],[-4.9269,37.1035,561.5475],[-4.9306,37.0999,455.6548],[-4.9356,37.1005,434.8896],[-4.9463,37.0966,540.5745],[-4.9544,37.0914,518.0505],[-4.9721,37.0754,616.8848],[-4.9783,37.073,490.9406],[-4.979,37.07,515.391],[-4.9882,37.0646,615.8874],[-5.0095,37.0548,598.2322],[-5.0258,37.0519,601.7231],[-5.0275,37.0499,586.011],[-5.0239,37.046,596.6868],[-5.0278,37.0441,600.4686],[-5.0328,37.049,613.9564],[-5.0479,37.0387,588.2528],[-5.053,37.0306,553.4621],[-5.0552,37.0327,535.418],[-5.0722,37.0318,488.6718],[-5.0742,37.0294,473.8618],[-5.0828,37.0315,446.7972],[-5.0913,37.0275,435.1527],[-5.1025,37.0257,422.7689],[-5.1121,37.0191,402.2866],[-5.1132,37.0243,401.4037],[-5.1174,37.0244,409.2587],[-5.1198,37.0285,403.587],[-5.1227,37.0277,397.4807],[-5.1326,37.0115,501.1804],[-5.1422,37.0059,533.1754],[-5.1422,37.0039,548.9639],[-5.1278,36.9959,486.0229],[-5.1238,36.991,468.7364],[-5.1182,36.9885,451.1409],[-5.115,36.989,445.9014],[-5.1106,36.984,441.8503],[-5.1123,36.9835,444.777],[-5.1103,36.9821,453.3366],[-5.1122,36.9811,446.2327],[-5.1123,36.9765,458.1344],[-5.0981,36.9719,493.7966],[-5.0954,36.9683,502.7923],[-5.1007999999999996,36.964,603.8154],[-5.104,36.9643,645.626],[-5.11,36.9594,833.1324],[-5.1049,36.9531,648.488],[-5.0992,36.9317,663.3379],[-5.0916,36.9211,819.8275],[-5.0603,36.9,979.1643],[-5.063,36.8989,978.4905],[-5.0664,36.8931,929.1],[-5.0739,36.8883,871.4266],[-5.0725,36.887,818.626],[-5.0728,36.8741,786.1431],[-5.0673,36.8756,772.2928],[-5.0646,36.8738,794.8221],[-5.0672,36.8715,854.8698],[-5.0622,36.8676,808.5379],[-5.0677,36.8571,906.5336],[-5.0743,36.8513,937.9965],[-5.072,36.8483,933.4847],[-5.0608,36.844,879.5907],[-5.0573,36.8473,917.5419],[-5.0554,36.8472,899.4929],[-5.0527,36.8516,911.8101],[-5.0474,36.854,896.4174],[-5.0395,36.8636,908.9777],[-5.0281,36.8709,809.3723],[-5.027,36.8746,736.8911],[-5.0196,36.8779,693.0055],[-5.0015,36.8761,632.6965],[-5.001,36.8793,637.9113],[-5.0049,36.8826,671.6245],[-4.9999,36.8892,612.8609]]]]}}