{"type":"Feature","properties":{"featurecla":"River","scalerank":9,"rivernum":1061,"dissolve":"1061River","name":"Mio","name_alt":null,"note":null,"min_zoom":7.1,"strokeweig":0.15,"name_en":"Mio","min_label":8.1},
"geometry":{"type": "LineString","coordinates": [[-7.2583984374999773,43.194452215619116,632.0919],[-7.3497070312499773,43.25531647343162,438.6059],[-7.361572265625,43.25995514530662,474.4679],[-7.3770507812499773,43.26105377811912,420.9967],[-7.3994140625,43.25653717655662,415.0947],[-7.4173339843749773,43.24677155155662,411.1305],[-7.43125,43.232538153119116,430.6958],[-7.4418212890624886,43.214862371869117,406.1016],[-7.443359375,43.204706121869116,416.1559],[-7.44189453125,43.19647858280662,403.3394],[-7.4448730468749886,43.18854401249412,408.5789],[-7.4598144531249773,43.17914459843162,400.1199],[-7.4780761718749886,43.17670319218162,402.9856],[-7.5196777343749943,43.181659246869117,396.1972],[-7.5360595703124886,43.17694733280662,390.9879],[-7.5928710937499773,43.14325592655662,397.7499],[-7.6074707031249886,43.127069403119116,392.6955],[-7.6233886718749773,43.08661530155662,409.239],[-7.6170410156249773,43.05548737186912,445.8956],[-7.5947265625,43.028583074994117,430.597],[-7.548583984375,42.98981354374412,368.5123]]}}