{"type":"Feature","properties":{"featurecla":"River","scalerank":9,"rivernum":1061,"dissolve":"1061River","name":"Mio1","name_alt":null,"note":null,"min_zoom":7.1,"strokeweig":0.2,"name_en":"Mio","min_label":8.1},
"geometry":{"type": "LineString","coordinates": [[-7.548583984375,42.98981354374412,368.5123],[-7.5341796875,42.978143621869116,405.8373],[-7.52197265625,42.96466705936912,383.435],[-7.5151855468749886,42.94867584843162,393.0827],[-7.5169433593749773,42.929706121869117,362.2658],[-7.5213378906249773,42.919061590619116,361.1478],[-7.5686523437499886,42.84406159061912,399.0095],[-7.574462890625,42.83917877811912,376.1628],[-7.5869628906249886,42.83063385624412,397.5611],[-7.5980957031249829,42.82074616093162,371.4171],[-7.636474609375,42.774188543744117,330.2679],[-7.6443847656249773,42.76203034061912,320.0],[-7.653564453125,42.750848699994116,354.529],[-7.6658691406249773,42.742206121869117,432.1011],[-7.67919921875,42.735858465619117,337.1929],[-7.6806640625,42.73187897343162,410.3229],[-7.6821777343749886,42.71613190311912,419.3778],[-7.6849121093749773,42.71088287968162,350.8725],[-7.68994140625,42.706805731244117,398.4416],[-7.6980468749999886,42.70270416874412,453.7578],[-7.7188476562499773,42.695331121869117,355.4791],[-7.7234374999999886,42.691034246869116,414.0358],[-7.7246582031249886,42.686151434369116,320.0],[-7.7249023437499886,42.665790106244117,403.6984],[-7.7203857421874886,42.65473053593162,383.7672],[-7.7127441406249773,42.64557526249412,351.9848],[-7.7066406249999773,42.63629791874412,549.2257],[-7.70654296875,42.62482330936912,319.2933],[-7.705078125,42.61469147343162,531.4853],[-7.7141601562499886,42.60114166874412,467.8712],[-7.718505859375,42.587665106244117,327.5061],[-7.7166503906249773,42.57416412968162,491.1089],[-7.70703125,42.56085846561912,384.0156],[-7.703369140625,42.55914948124412,484.0015],[-7.69970703125,42.55890534061912,449.2476],[-7.6962890625,42.55756256718162,303.9115],[-7.693603515625,42.55267975468162,312.7761],[-7.693359375,42.54755280155662,480.3601],[-7.6951171874999886,42.54364655155662,408.0062],[-7.7002929687499773,42.53607819218162,433.9426],[-7.7032226562499773,42.526629949994117,446.0261],[-7.7059082031249773,42.50751373905662,527.1749],[-7.7085449218749886,42.49799225468162,207.5645],[-7.7126953124999886,42.49091217655662,290.0996],[-7.8302246093749943,42.37213776249412,127.6021],[-7.8524658203124886,42.358661199994117,129.6182],[-7.8795654296874886,42.351092840619117,112.3617],[-7.9097656249999773,42.34735748905662,120.011],[-8.0081054687499886,42.35004303593162,155.1777],[-8.0277587890624886,42.346454168744117,459.8596],[-8.0459960937499773,42.33930084843162,339.2135],[-8.05419921875,42.333368231244116,129.0434],[-8.071875,42.312372137494116,85.0],[-8.08251953125,42.30487702030662,85.0],[-8.120849609375,42.28681061405662,209.7821],[-8.1409179687499886,42.26947662968162,299.6945],[-8.1708984375,42.225116278119117,114.2378],[-8.1890624999999773,42.206073309369117,76.5282],[-8.1831542968749886,42.20184967655662,193.6256],[-8.1688964843749829,42.19440338749412,295.4965],[-8.1640625,42.189227606244117,194.7523],[-8.1629394531249773,42.175409246869116,94.6696],[-8.1730224609374886,42.166766668744117,105.2165],[-8.1880371093749886,42.162127996869117,244.374]]}}