{"type": "Feature","id": "5801","bbox": [-3.28008,42.49668,-2.23913,43.20498],"geometry": {"type": "Polygon","coordinates": [[[-2.89539,43.04748,593.8721],[-2.94827,43.08387,582.2767],[-2.95679,43.09602,635.9984],[-2.95402,43.10928,529.9639],[-2.93674,43.13539,165.0078],[-2.93591,43.14686,169.2325],[-2.95037,43.17348,593.3381],[-2.97048,43.19326,514.4958],[-2.98431,43.20182,965.595],[-2.99933,43.20498,493.8545],[-3.01538,43.19984,706.6377],[-3.02184,43.19168,334.4686],[-3.02527,43.17041,166.7481],[-3.03147,43.16088,187.6294],[-3.04326,43.15471,261.897],[-3.10408,43.14522,276.7086],[-3.11674,43.14975,321.0788],[-3.14184,43.16512,310.9813],[-3.15954,43.15494,243.0175],[-3.16481,43.14698,295.535],[-3.17257,43.13137,346.3426],[-3.17083,43.12243,497.7391],[-3.1651,43.11654,412.7692],[-3.14758,43.11127,401.4433],[-3.14184,43.10414,444.7434],[-3.14275,43.09246,445.8609],[-3.14815,43.07422,579.164],[-3.14851,43.05045,447.0762],[-3.15512,43.0396,566.7015],[-3.16094,43.03303,666.996],[-3.16512,43.02668,1072.5396],[-3.16047,43.02296,1085.1567],[-3.15223,43.01986,1043.5076],[-3.12161,43.01358,1075.4612],[-3.09208,43.01221,1067.8815],[-3.08495,43.01071,957.8707],[-3.07353,43.01396,936.8452],[-3.05526,43.04314,364.9119],[-3.03673,43.04972,480.525],[-3.02862,43.04735,558.3679],[-3.02361,43.04311,320.2295],[-3.02358,43.03711,424.3048],[-3.02288,43.03133,455.5963],[-3.01609,43.02541,287.6255],[-2.99712,43.02084,397.8117],[-2.9895,43.01469,562.8121],[-2.98741,43.00893,524.1049],[-2.98971,43.00048,354.4878],[-2.99291,42.99428,291.5952],[-2.997,42.99092,288.4052],[-2.99932,42.98947,281.5303],[-3.00165,42.98906,278.649],[-3.0086,42.98898,279.5623],[-3.02702,42.9865,450.42],[-3.03937,42.98704,692.899],[-3.03963,42.97805,858.9445],[-3.03428,42.97262,442.9615],[-3.02544,42.96508,725.0273],[-3.01229,42.95846,576.558],[-2.98338,42.951,403.3502],[-2.97852,42.94448,471.8575],[-2.97713,42.93903,602.0539],[-2.97906,42.93361,828.038],[-2.98227,42.9294,831.3574],[-2.98746,42.92632,877.3219],[-3.00087,42.92327,965.1851],[-3.00896,42.92327,983.0934],[-3.0217,42.91446,1076.6183],[-3.02919,42.91025,999.7495],[-3.0379,42.90885,896.1582],[-3.05898,42.90867,610.1667],[-3.07528,42.90557,636.0318],[-3.08474,42.90555,715.3077],[-3.09441,42.9065,826.199],[-3.10415,42.90852,971.4923],[-3.12391,42.91077,887.332],[-3.13306,42.91304,871.4503],[-3.14104,42.91609,850.3496],[-3.14649,42.92126,884.5469],[-3.1512,42.93428,965.4478],[-3.15745,42.93934,841.7421],[-3.16605,42.94286,806.2062],[-3.17595,42.94508,812.3844],[-3.18833,42.94673,833.3033],[-3.22411,42.94379,907.6478],[-3.23318,42.93815,930.165],[-3.23998,42.93157,922.958],[-3.24442,42.92462,914.4933],[-3.25602,42.91226,1170.6584],[-3.27026,42.90095,1073.623],[-3.27545,42.89392,1014.9739],[-3.2791,42.8872,1049.5372],[-3.28008,42.88035,855.0936],[-3.27592,42.8747,1043.0234],[-3.26181,42.86493,1001.802],[-3.23145,42.83589,727.8368],[-3.22429,42.83183,741.0518],[-3.21739,42.82974,958.4879],[-3.21192,42.83206,1159.5212],[-3.20998,42.83728,923.2102],[-3.21091,42.84286,842.4132],[-3.20737,42.84886,933.1158],[-3.20272,42.85506,976.2965],[-3.19569,42.86033,852.6828],[-3.18755,42.86371,826.9458],[-3.17812,42.86524,865.9224],[-3.15908,42.86462,610.179],[-3.15148,42.86811,630.8979],[-3.14422,42.87353,737.2086],[-3.13022,42.88862,1004.7316],[-3.12123,42.89033,787.1721],[-3.11422,42.88692,794.0131],[-3.11042,42.87961,1000.7667],[-3.11254,42.86826,818.3705],[-3.11931,42.85831,671.0245],[-3.13022,42.84521,648.3954],[-3.1413,42.8347,739.8952],[-3.14768,42.8254,783.9442],[-3.1512,42.81759,783.0314],[-3.15187,42.81015,991.7192],[-3.14774,42.80369,1113.5713],[-3.14159,42.79796,1241.5629],[-3.13445,42.79323,1162.762],[-3.129,42.78625,1216.0868],[-3.13223,42.77739,1083.6405],[-3.13631,42.7699,1034.7516],[-3.12386,42.77005,776.855],[-3.11957,42.76871,721.4597],[-3.09399,42.77444,732.7794],[-3.0635,42.7853,625.4528],[-3.03144,42.77274,554.7326],[-3.0032,42.75323,542.5625],[-2.98413,42.74313,544.7676],[-2.96868,42.73775,514.6881],[-2.94335,42.71434,489.7016],[-2.91793,42.70579,493.7465],[-2.85246,42.66541,540.9037],[-2.84171,42.65582,523.5294],[-2.83731,42.64412,637.3127],[-2.83747,42.63445,511.5746],[-2.83602,42.62146,633.0099],[-2.82993,42.61381,529.5178],[-2.81623,42.62022,766.3584],[-2.81267,42.61109,549.2649],[-2.81478,42.60588,482.0481],[-2.82677,42.596,476.9232],[-2.82682,42.59019,454.4007],[-2.82104,42.58427,490.4978],[-2.813,42.58081,487.7283],[-2.80597,42.58236,498.5202],[-2.79349,42.58691,520.8497],[-2.77998,42.58562,506.7518],[-2.77339,42.60156,599.6058],[-2.76967,42.60882,805.4471],[-2.76184,42.61451,954.7505],[-2.7474,42.61869,888.5615],[-2.73399,42.61572,893.7906],[-2.69944,42.59771,1116.1313],[-2.68913,42.58949,946.5329],[-2.68564,42.58179,727.9992],[-2.68518,42.57471,619.4014],[-2.68725,42.56792,588.4321],[-2.68774,42.55342,530.8773],[-2.68466,42.53777,465.7864],[-2.67676,42.53689,478.1025],[-2.66745,42.53317,459.1778],[-2.63208,42.51252,492.0712],[-2.61787,42.50772,454.2771],[-2.61139,42.51376,472.8497],[-2.60617,42.51686,485.1298],[-2.59506,42.51751,502.2872],[-2.58513,42.51198,517.2319],[-2.58345,42.49668,476.5509],[-2.57134,42.50562,440.0871],[-2.55775,42.51084,514.3355],[-2.54165,42.51237,432.2805],[-2.52204,42.51035,398.1849],[-2.52418,42.51322,397.1532],[-2.52532,42.5143,403.1148],[-2.52651,42.51513,404.7906],[-2.52883,42.51717,415.232],[-2.52403,42.5251,423.4834],[-2.51806,42.53105,413.5933],[-2.51062,42.53523,424.4734],[-2.50152,42.53766,482.5203],[-2.49165,42.52009,453.6039],[-2.46204,42.50725,444.4902],[-2.42713,42.49937,432.3849],[-2.40607,42.4971,423.2623],[-2.40287,42.51224,458.5041],[-2.39401,42.56497,670.1328],[-2.39807,42.58396,672.8438],[-2.40067,42.59073,756.5859],[-2.40587,42.59611,756.4431],[-2.41331,42.59828,857.8038],[-2.42132,42.5988,863.804],[-2.44173,42.57898,699.1031],[-2.45005,42.57601,718.2467],[-2.45801,42.57812,637.2109],[-2.47336,42.58471,687.1967],[-2.48137,42.58588,726.9023],[-2.48809,42.58991,664.3728],[-2.49328,42.59531,680.8729],[-2.49455,42.602,739.1827],[-2.49274,42.60934,856.4254],[-2.47868,42.6191,832.6638],[-2.47018,42.62285,732.3208],[-2.45067,42.63481,719.7186],[-2.43786,42.64556,689.8715],[-2.41801,42.65753,746.993],[-2.40871,42.66021,693.2217],[-2.39951,42.65993,626.5275],[-2.39104,42.65859,594.345],[-2.3853,42.65613,588.8218],[-2.38096,42.65285,618.4102],[-2.37259,42.64184,925.7644],[-2.36587,42.63791,1079.4038],[-2.34809,42.63812,1290.0902],[-2.3383,42.63949,1211.2889],[-2.32843,42.64298,1082.9227],[-2.29846,42.65776,892.5092],[-2.2927,42.66308,774.3884],[-2.29316,42.67202,690.9637],[-2.29593,42.67791,562.5433],[-2.30686,42.68008,618.4719],[-2.31202,42.68292,559.866],[-2.32071,42.72101,886.481],[-2.32037,42.72899,980.5645],[-2.31208,42.73775,1064.4816],[-2.28492,42.74468,1149.8583],[-2.27942,42.75093,1077.1807],[-2.27699,42.75964,860.3761],[-2.27652,42.77605,755.5837],[-2.27443,42.79098,1016.792],[-2.26342,42.81372,972.3525],[-2.24231,42.83919,967.6122],[-2.23978,42.84943,1090.0737],[-2.23913,42.85831,704.9773],[-2.25296,42.90007,978.2123],[-2.28119,42.90099,1031.0565],[-2.29013,42.90598,1062.5048],[-2.30841,42.9286,1278.6277],[-2.3547,42.9501,1220.6311],[-2.50313,42.96062,1066.9303],[-2.52919,42.96914,855.3691],[-2.53519,42.97338,983.0723],[-2.53778,42.9728,915.9735],[-2.54939,42.96459,684.1788],[-2.55482,42.96282,819.7585],[-2.55902,42.96283,866.4307],[-2.60282,42.98235,705.7687],[-2.59562,43.00377,589.0844],[-2.58892,43.01012,527.228],[-2.54131,43.02576,562.1679],[-2.53366,43.03445,363.5727],[-2.53223,43.04726,557.3549],[-2.54655,43.08804,521.0992],[-2.60024,43.08146,854.9986],[-2.62245,43.08766,806.3605],[-2.63744,43.08547,745.4613],[-2.65685,43.07576,663.2059],[-2.65866,43.07289,624.3742],[-2.65726,43.06975,628.3777],[-2.63524,43.04714,603.5122],[-2.6298,43.03547,616.67],[-2.63313,43.02487,585.3657],[-2.63665,43.02284,636.6626],[-2.64052,43.02272,657.035],[-2.66795,43.02723,669.9008],[-2.6869,43.02148,594.7292],[-2.69791,43.02062,735.085],[-2.73837,43.03316,721.2115],[-2.78186,43.02671,1271.6642],[-2.82926,43.03717,911.2389],[-2.8512,43.04688,946.786],[-2.86268,43.04882,970.9972],[-2.89539,43.04748,593.8721]],
[[-2.53824,42.64337,736.0825],[-2.54276,42.64621,802.4467],[-2.54514,42.65001,796.6273],[-2.55041,42.65182,815.4158],[-2.55692,42.65337,779.4221],[-2.63407,42.65476,806.9796],[-2.68435,42.67029,737.9366],[-2.75244,42.68184,658.0013],[-2.81414,42.70292,514.2432],[-2.84075,42.71775,554.2864],[-2.86532,42.73628,499.6618],[-2.87016,42.74468,500.1533],[-2.86811,42.7514,503.1309],[-2.85354,42.76369,513.4756],[-2.83287,42.78726,617.998],[-2.82708,42.79183,578.4431],[-2.81659,42.79398,561.0663],[-2.7528,42.79697,867.3345],[-2.72613,42.79506,829.454],[-2.71502,42.793,719.2767],[-2.70042,42.78796,808.9468],[-2.6389,42.77424,723.9814],[-2.62629,42.7732,822.3284],[-2.61668,42.77419,894.8939],[-2.60813,42.77661,938.9196],[-2.60154,42.7761,878.818],[-2.59635,42.77364,953.2711],[-2.5927,42.76925,843.1937],[-2.58694,42.76488,795.4448],[-2.57811,42.76049,982.2064],[-2.5695,42.7591,1015.5276],[-2.55919,42.75935,1128.3285],[-2.55607,42.75638,1109.2441],[-2.55777,42.74824,1037.0233],[-2.56035,42.74385,999.5591],[-2.56193,42.73915,974.1359],[-2.57128,42.72525,763.1267],[-2.57516,42.72132,755.8434],[-2.58043,42.71848,770.5959],[-2.59312,42.71589,670.2236],[-2.59821,42.71316,720.209],[-2.6003,42.70907,693.6088],[-2.60079,42.70437,651.3368],[-2.59705,42.70029,631.3812],[-2.59216,42.69626,646.4451],[-2.58684,42.69254,691.3135],[-2.58198,42.68825,748.0081],[-2.57214,42.6774,860.7034],[-2.56607,42.67453,874.2853],[-2.5595,42.67352,817.3312],[-2.5533,42.67538,802.346],[-2.5471,42.67807,807.7325],[-2.53772,42.68597,803.9215],[-2.53235,42.68882,788.3961],[-2.52578,42.68949,756.8223],[-2.52255,42.68639,748.4318],[-2.51953,42.68096,751.5151],[-2.51829,42.67453,763.7545],[-2.51444,42.66577,792.0811],[-2.51294,42.65337,810.0561],[-2.51527,42.64931,771.1653],[-2.52604,42.64474,738.0206],[-2.53824,42.64337,736.0825]]]}
,"properties": {"ISO3166-1-Alpha-3": "ESP","country": "Spain","fill": "#F00","name": "Álava","area_km2": 2888.517,"hist_schema_id": "Elevation0-9000","hist_area_km2": {"100": 0.077,"125": 2.846,"150": 5.306,"175": 7.551,"200": 13.016,"225": 18.188,"250": 21.27,"275": 22.944,"300": 24.437,"325": 21.619,"350": 21.977,"375": 23.791,"400": 25.517,"425": 29.01,"450": 39.135,"475": 60.618,"500": 115.831,"525": 178.142,"550": 209.383,"575": 205.424,"600": 201.767,"625": 172.571,"650": 142.728,"675": 126.147,"700": 112.934,"725": 111.275,"750": 111.067,"775": 103.929,"800": 92.735,"825": 95.697,"850": 83.141,"875": 67.926,"900": 57.972,"925": 52.781,"950": 48.926,"975": 49.784,"1000": 47.54,"1025": 40.536,"1050": 28.243,"1075": 26.556,"1100": 21.887,"1125": 15.717,"1150": 10.26,"1175": 7.043,"1200": 4.618,"1225": 2.894,"1250": 1.93,"1275": 1.354,"1300": 1.137,"1325": 0.794,"1350": 0.343,"1375": 0.109,"1400": 0.031,"1425": 0.062}}}