{"type":"Feature","properties":{"GID_3":"ESP.6.3.3_1","GID_0":"ESP","country":"Spain","GID_1":"ESP.6_1","province":"Cataluña","NL_NAME_1":"NA","GID_2":"ESP.6.3_1","county":"Lleida","NL_NAME_2":"NA","city":"n.a.(161)","VARNAME_3":"NA","NL_NAME_3":"NA","TYPE_3":"Comarca","ENGTYPE_3":"Comarca","CC_3":"NA","HASC_3":"NA","name":"n.a.(161).city"},
"geometry":{"type": "MultiPolygon","coordinates": [[[[1.1751,42.7088,2789.8135],[1.165,42.7095,2570.0601],[1.1332,42.7283,2413.219],[1.1341,42.7328,2324.4709],[1.1331,42.7368,2196.2444],[1.1302,42.7391,2090.501],[1.1311,42.7451,2146.2815],[1.1292,42.7527,2311.3706],[1.1175,42.7633,2352.7253],[1.1087,42.7659,2331.3245],[1.1086,42.7702,2315.5635],[1.107,42.7715,2317.8757],[1.09,42.7767,2337.7827],[1.078,42.7877,2590.1426],[1.0732,42.7824,2567.813],[1.0441,42.7808,2647.6113],[1.0425,42.7813,2647.6113],[1.0437,42.7839,2546.2148],[1.0368,42.7859,2496.3162],[1.0305,42.7756,2128.8845],[1.0309,42.7727,2075.7949],[1.0277,42.7711,2040.8757],[1.0261,42.7672,1927.3401],[1.029,42.7641,1857.9133],[1.0274,42.7599,1635.1711],[1.0322,42.7543,1709.8955],[1.0269,42.7425,1890.0867],[1.0286,42.7327,2009.3698],[1.0213,42.7268,2132.001],[1.0263,42.717,2449.5637],[1.0276,42.7097,2532.1843],[1.011,42.7094,2584.7075],[1.0053,42.7127,2576.4731],[0.9932,42.7008,2317.2896],[0.9799,42.6977,2114.2126],[0.9756,42.6926,2454.0454],[0.9865,42.684,2520.9937],[0.9772,42.6752,2253.9392],[0.9791,42.6663,2059.7505],[0.983,42.6633,2067.7363],[0.9693,42.6592,1677.8605],[0.9727,42.6504,1808.2819],[0.9726,42.6455,1831.9521],[0.9706,42.6399,1914.4375],[0.9642,42.6315,2101.1699],[0.9619,42.6312,2078.8318],[0.9588,42.625,2206.4094],[0.9632,42.6162,2325.073],[0.9686,42.6151,2336.0234],[0.9691,42.61,2341.8157],[0.9664,42.6039,2501.9971],[0.9537,42.6018,2722.4583],[0.9533,42.5946,2761.0994],[0.9434,42.5892,2740.4236],[0.918,42.5934,2828.0889],[0.9121,42.6067,2684.0781],[0.8912,42.6124,2626.0688],[0.8942,42.6149,2648.4189],[0.8964,42.6239,2602.3765],[0.8952,42.6261,2603.2231],[0.8846,42.6279,2587.3657],[0.8819,42.6314,2683.8726],[0.8777,42.6325,2697.8281],[0.8738,42.6263,2481.1646],[0.8675,42.623,2566.6404],[0.8564,42.6213,2518.23],[0.8458,42.6155,2667.9209],[0.8399,42.6091,2659.5776],[0.8313,42.6092,2590.3315],[0.8257,42.6057,2858.489],[0.8216,42.6124,2656.5796],[0.8131,42.6151,2817.6973],[0.8126,42.6187,2734.499],[0.8056,42.619,2696.0278],[0.7675,42.6113,1532.7827],[0.7659,42.6031,1482.0083],[0.7611,42.5951,1422.0],[0.7599,42.5806,1422.0],[0.7578,42.5762,1375.8022],[0.7586,42.5722,1328.2122],[0.7473,42.5566,1302.3218],[0.7481,42.5522,1250.5414],[0.7409,42.545,1138.8923],[0.7496,42.535,1948.303],[0.7454,42.5353,1734.9167],[0.7351,42.5401,1104.0649],[0.7248,42.5305,1045.2339],[0.7216,42.5252,1038.0051],[0.7239,42.52,1030.6752],[0.7193,42.5128,1022.2598],[0.73,42.5124,1220.2744],[0.7395,42.5052,1620.4926],[0.7333,42.5045,1606.6597],[0.7296,42.4973,1585.8185],[0.7265,42.4981,1537.1753],[0.7133,42.4873,982.5165],[0.7051,42.4944,1246.9237],[0.7005,42.4959,1415.0208],[0.6993,42.4952,1370.4419],[0.7008,42.491,1160.5739],[0.698,42.4864,1304.5281],[0.6905,42.4876,1337.0771],[0.6969,42.4741,1209.76],[0.7061,42.4647,1050.1904],[0.7085,42.4589,985.3286],[0.7063,42.4566,965.545],[0.7065,42.4493,958.2222],[0.7107,42.4389,895.0898],[0.7102,42.4364,893.96],[0.7192,42.429,884.7465],[0.7263,42.4269,887.4537],[0.7359,42.414,855.4208],[0.7345,42.4079,854.5798],[0.7283,42.4079,899.9932],[0.726,42.4053,1015.8212],[0.7365,42.3993,1013.808],[0.7382,42.3997,932.7004],[0.7405,42.3916,902.5693],[0.7418,42.3919,902.5693],[0.7461,42.3848,820.4772],[0.7431,42.3791,811.7002],[0.7353,42.3762,1066.8939],[0.7343,42.3715,1004.5752],[0.7228,42.3688,1076.0204],[0.7233,42.3656,1119.3733],[0.7368,42.3621,945.1587],[0.7462,42.3569,848.5754],[0.7606,42.3571,969.4247],[0.7599,42.3585,973.3586],[0.7625,42.3601,973.4581],[0.7614,42.3667,1288.3665],[0.7663,42.3697,1304.1605],[0.7705,42.3759,1581.0916],[0.7823,42.3743,1556.4354],[0.7861,42.3711,1508.9769],[0.7896,42.3717,1475.9423],[0.7908,42.3737,1457.595],[0.7993,42.3627,1553.7434],[0.8088,42.3577,1440.2726],[0.806,42.3543,1324.5779],[0.7978,42.3522,1171.3378],[0.7956,42.3476,1398.953],[0.7726,42.3463,1109.4243],[0.767,42.3489,948.6835],[0.7633,42.3478,856.3329],[0.7682,42.3436,914.7786],[0.776,42.3411,1013.9905],[0.7712,42.3334,1510.7993],[0.7906,42.3278,1676.9343],[0.7994,42.3203,1787.9585],[0.815,42.3149,1637.3657],[0.8463,42.3144,1603.3452],[0.8581,42.3097,1544.4717],[0.8566,42.3067,1476.4434],[0.8635,42.3056,1487.1526],[0.8658,42.3026,1546.4697],[0.8705,42.3018,1615.6895],[0.874,42.2989,1675.5828],[0.8805,42.3009,1656.5342],[0.8829,42.3048,1669.0109],[0.8867,42.3053,1679.3369],[0.8954,42.2983,1454.6128],[0.8994,42.2992,1353.3169],[0.9074,42.2977,1220.7183],[0.9169,42.2929,1094.3153],[0.9225,42.2921,1054.845],[0.9248,42.2936,995.441],[0.9284,42.2914,867.2642],[0.9324,42.2919,819.2505],[0.9369,42.2961,683.4161],[0.939,42.2926,658.8639],[0.9376,42.2877,741.8827],[0.95009999999999994,42.2844,1072.1221],[0.961,42.2878,1202.6515],[0.9641,42.3051,1331.0239],[0.9662,42.3088,1263.6071],[0.9737,42.3138,1433.8126],[0.9747,42.2982,1376.5695],[0.9943,42.2969,1079.2112],[0.9973,42.2937,976.0937],[1.0025,42.2919,898.1094],[1.0136,42.2913,814.0918],[1.0149,42.2894,766.5863],[1.0251,42.2852,907.4243],[1.0279,42.2893,1035.1442],[1.0385,42.2856,573.3506],[1.0393,42.282,622.3568],[1.0547,42.2819,730.95],[1.0631,42.277,807.7983],[1.0763,42.2759,970.48],[1.0866,42.2775,1170.6921],[1.0944,42.2741,1306.0201],[1.1176,42.2686,1704.4578],[1.116,42.2733,1693.2512],[1.1314,42.2626,1845.4448],[1.1395,42.2601,1826.8972],[1.1487,42.2601,1847.0353],[1.1501,42.2621,1828.978],[1.1517,42.259,1856.5046],[1.153,42.2655,1793.839],[1.1545,42.2677,1733.2643],[1.157,42.2681,1703.8995],[1.1578,42.2706,1640.6691],[1.1569,42.2779,1541.217],[1.1376,42.2895,1340.6919],[1.1227,42.2951,1044.7744],[1.1289,42.2991,1151.5538],[1.1353,42.3074,1167.0781],[1.1417,42.306,1261.2512],[1.1581,42.3068,1546.7097],[1.1658,42.309,1606.9624],[1.1668,42.3104,1606.9624],[1.1638,42.3149,1678.5868],[1.1728,42.3269,1827.3362],[1.1755,42.3278,1771.3214],[1.1719,42.3285,1844.6974],[1.1836,42.337,1777.1635],[1.184,42.3422,1718.4524],[1.1883,42.3486,1645.9441],[1.1969,42.3513,1568.4249],[1.1996,42.3507,1613.3734],[1.2097,42.3591,1729.6743],[1.2281,42.3683,1757.335],[1.2354,42.3696,1720.5383],[1.2367,42.3746,1834.5642],[1.2445,42.3837,2044.9581],[1.2459,42.4101,2037.3553],[1.2442,42.4155,2173.0496],[1.2473,42.4182,2169.1904],[1.2599,42.4201,1987.387],[1.2518,42.4417,1708.6229],[1.2537,42.4429,1678.4043],[1.2535,42.4473,1517.5084],[1.2561,42.452,1349.3215],[1.2592,42.4494,1332.4764],[1.2662,42.4477,1331.4973],[1.2709,42.4421,1346.8525],[1.2723,42.4435,1346.8525],[1.2821,42.4438,1380.5632],[1.2853,42.447,1443.1831],[1.2936,42.449,1440.8605],[1.3027,42.4485,1516.5928],[1.3087,42.4501,1535.1639],[1.3115,42.4499,1520.9786],[1.3175,42.4448,1532.3818],[1.3212,42.4448,1568.135],[1.3279,42.4545,1538.6538],[1.3413,42.4668,1621.089],[1.3454,42.4743,1827.0171],[1.3463,42.481,1851.2764],[1.3558,42.4812,1784.4451],[1.3593,42.4836,1673.9731],[1.3619,42.4913,1723.4916],[1.3674,42.4968,1817.4143],[1.3718,42.4979,1796.7889],[1.3709,42.4996,1833.3638],[1.373,42.5037,1994.6602],[1.3683,42.5067,2162.3174],[1.3669,42.5136,2250.5461],[1.3636,42.519,2428.7144],[1.3717,42.5188,2461.668],[1.3757,42.5148,2521.9419],[1.3851,42.5146,2752.1924],[1.3937,42.5204,2674.5996],[1.395,42.526,2731.0752],[1.4089,42.5277,2726.2808],[1.4192,42.5451,2318.8628],[1.4193,42.5495,2369.6467],[1.4262,42.5587,2492.1628],[1.4446,42.5667,2492.6799],[1.4444,42.572,2588.7607],[1.4331,42.5756,2630.2109],[1.4273,42.5831,2651.2297],[1.4284,42.5878,2843.1396],[1.4407,42.5881,2747.2476],[1.4442,42.5924,2847.9438],[1.442,42.5993,2813.5034],[1.4289,42.6134,2631.5725],[1.4299,42.6153,2582.6025],[1.4209,42.6249,2805.7593],[1.413,42.6526,2793.6846],[1.4055,42.6569,2920.958],[1.3928,42.6674,2919.1953],[1.3871,42.6688,3016.3682],[1.3892,42.6731,2858.7656],[1.3862,42.6781,2878.8291],[1.3879,42.6873,2590.5813],[1.377,42.6941,2600.4731],[1.3653,42.6952,2597.5544],[1.3544,42.7003,2531.9602],[1.3518,42.7029,2448.3472],[1.3528,42.7113,2473.9873],[1.3554,42.7134,2495.2671],[1.3574,42.7194,2504.6738],[1.3401,42.7188,2373.1011],[1.3353,42.724,2477.6621],[1.3259,42.7241,2493.3667],[1.3093,42.7179,2543.3582],[1.2953,42.7191,2447.5693],[1.2781,42.7148,2738.8198],[1.2772,42.7163,2700.7603],[1.2692,42.718,2649.8875],[1.2519,42.7148,2553.3469],[1.2509,42.7187,2458.769],[1.2425,42.7241,2281.9897],[1.2293,42.7277,2577.3364],[1.2163,42.7207,2526.4744],[1.1891,42.7164,2528.9631],[1.1751,42.7088,2789.8135]]]]}}