{"type": "Feature","bbox": [-5.8629,43.4069,-5.311,43.6007],"geometry": {"type": "MultiPolygon","coordinates": [[[[-5.589,43.5476,2.4357],[-5.6093,43.5499,29.4496],[-5.6132,43.5568,0.0],[-5.6199,43.5579,0.0],[-5.6238,43.5518,23.5777],[-5.6279,43.5504,68.4091],[-5.639,43.5524,0.0],[-5.6393,43.5488,0.0],[-5.6429,43.5496,0.0],[-5.644,43.5465,0.0],[-5.6479,43.5454,0.0],[-5.6451,43.5426,7.3688],[-5.6454,43.5401,8.5816],[-5.6579,43.5421,1.3682],[-5.661,43.5443,1.6062],[-5.6596,43.5485,3.207],[-5.6646,43.5507,0.0],[-5.6696,43.5476,0.0],[-5.6674,43.5451,0.0],[-5.6701,43.5415,12.7978],[-5.6799,43.5418,2.7811],[-5.6812,43.5451,1.7831],[-5.6924,43.5432,5.9261],[-5.6946,43.5457,2.3384],[-5.6837,43.5565,4.4459],[-5.6835,43.5588,0.7694],[-5.6862,43.5604,1.7306],[-5.6851,43.5571,0.0],[-5.6879,43.5576,0.0],[-5.6907,43.5551,0.7139],[-5.6904,43.5529,3.5361],[-5.696,43.5507,2.1137],[-5.6971,43.5532,5.2876],[-5.696,43.5554,2.0992],[-5.6924,43.5557,0.0],[-5.6985,43.5588,0.0],[-5.6954,43.5618,0.8732],[-5.6996,43.5618,1.7356],[-5.7001,43.5632,0.0],[-5.6971,43.5643,0.0],[-5.6993,43.5649,0.6316],[-5.6999,43.5671,2.455],[-5.6924,43.5635,0.8957],[-5.6904,43.5654,0.0],[-5.6849,43.5662,0.0],[-5.6832,43.5696,2.7902],[-5.6932,43.5665,5.2957],[-5.6965,43.5676,4.2454],[-5.6993,43.569,6.9951],[-5.6962,43.5732,1.8237],[-5.6976,43.5757,0.0],[-5.7007,43.5718,42.6693],[-5.7076,43.5718,4.7255],[-5.7121,43.5687,8.3867],[-5.7157,43.5685,28.0524],[-5.7271,43.5735,3.5441],[-5.7343,43.5729,15.7381],[-5.7385,43.579,0.0],[-5.7435,43.5801,0.0],[-5.7429,43.5821,0.0],[-5.7449,43.584,0.0],[-5.7499,43.5851,9.5837],[-5.7543,43.5838,0.0],[-5.7599,43.5868,2.9756],[-5.761,43.5907,6.7043],[-5.7593,43.5949,0.0],[-5.7654,43.594,5.3915],[-5.7651,43.5968,0.0],[-5.7674,43.5965,6.9702],[-5.7665,43.5996,0.0],[-5.7704,43.6007,0.0],[-5.7737,43.5997,14.4513],[-5.775,43.5928,22.4683],[-5.7769,43.5913,33.5243],[-5.7811,43.5916,28.6113],[-5.7982,43.5804,82.4834],[-5.8224,43.5711,96.7247],[-5.8329,43.5649,77.4663],[-5.8323,43.5634,124.6968],[-5.842,43.5605,50.1989],[-5.8548,43.5522,20.4279],[-5.847,43.5475,32.2226],[-5.8629,43.5309,68.8902],[-5.8627,43.5285,51.3108],[-5.839,43.5098,187.6348],[-5.8248,43.5025,164.1977],[-5.8211,43.504,106.6193],[-5.8202,43.5012,114.916],[-5.8151,43.4974,155.121],[-5.8182,43.491,189.2073],[-5.811,43.4903,110.7715],[-5.8111,43.4858,122.9519],[-5.8035,43.4851,157.652],[-5.8036,43.4826,159.2058],[-5.8012,43.48,154.9708],[-5.7975,43.4802,123.9074],[-5.7902,43.4751,74.8661],[-5.787,43.476,66.633],[-5.7876,43.4721,85.8293],[-5.7796,43.4633,110.4147],[-5.7658,43.4613,154.2343],[-5.7586,43.4559,225.2294],[-5.7564,43.4515,250.4743],[-5.7475,43.4478,131.0903],[-5.7411,43.4495,120.777],[-5.7335,43.4485,123.3738],[-5.7301,43.4499,86.2041],[-5.7297,43.4537,83.1295],[-5.7257,43.4574,68.6697],[-5.7204,43.4563,77.9691],[-5.7175,43.4511,83.1848],[-5.7049,43.4587,133.7044],[-5.6978,43.466,283.2621],[-5.6824,43.454,292.7923],[-5.6732,43.4563,418.5961],[-5.663,43.4562,495.2981],[-5.6612,43.4548,497.0963],[-5.6547,43.4558,447.1619],[-5.6505,43.4536,429.6138],[-5.6452,43.4549,450.9496],[-5.6401,43.4504,459.7095],[-5.6349,43.45,545.7402],[-5.624,43.443,415.2469],[-5.6122,43.4434,237.133],[-5.6052,43.4418,370.7783],[-5.5854,43.4432,651.1518],[-5.5797,43.4341,570.9734],[-5.5647,43.4263,614.3853],[-5.5558,43.4283,608.167],[-5.5385,43.4225,557.5881],[-5.5116,43.4219,394.8518],[-5.4996,43.4137,442.717],[-5.4964,43.4159,555.8647],[-5.4752,43.4155,553.2173],[-5.4696,43.4133,520.3655],[-5.4557,43.4132,494.3712],[-5.4477,43.4114,418.7753],[-5.4428,43.4168,387.4242],[-5.4368,43.4195,258.8609],[-5.4369,43.4249,220.8978],[-5.4328,43.4315,182.8703],[-5.4333,43.4347,216.4478],[-5.4351,43.4351,168.3443],[-5.4235,43.4379,407.8575],[-5.412,43.4375,472.4878],[-5.4096,43.4347,504.1099],[-5.4003,43.431,436.1299],[-5.3966,43.425,450.1768],[-5.3919,43.4227,475.803],[-5.3765,43.4208,426.3604],[-5.3758,43.4178,380.5197],[-5.3728,43.4166,394.4004],[-5.3699,43.4091,469.0646],[-5.3661,43.4069,455.7747],[-5.359,43.4181,439.575],[-5.3564,43.4181,435.8702],[-5.3477,43.4267,302.7795],[-5.3429,43.4242,208.357],[-5.3397,43.4267,257.7424],[-5.336,43.4507,89.509],[-5.3421,43.46,274.8082],[-5.3359,43.4667,322.1515],[-5.3378,43.4729,183.49],[-5.3444,43.481,161.4212],[-5.3439,43.4874,258.3709],[-5.3388,43.4918,210.2107],[-5.3372,43.5056,154.4214],[-5.3259,43.513,124.7072],[-5.3154,43.5155,149.0783],[-5.311,43.5193,128.9986],[-5.3128,43.5267,117.1607],[-5.3121,43.5337,12.5385],[-5.3212,43.5326,26.6372],[-5.3268,43.5343,0.0],[-5.3362,43.5321,0.0],[-5.3474,43.5343,0.0],[-5.354,43.5304,58.4077],[-5.3649,43.5329,7.0562],[-5.3682,43.5374,0.0],[-5.3729,43.5399,8.9235],[-5.3749,43.5337,14.0357],[-5.3854,43.5326,4.237],[-5.3868,43.526,3.9625],[-5.3813,43.5271,1.7535],[-5.379,43.5243,0.3458],[-5.3821,43.5215,6.7486],[-5.3835,43.5218,6.7486],[-5.3835,43.5238,0.0],[-5.3912,43.5224,0.0],[-5.3899,43.5207,0.0],[-5.3926,43.5193,0.0],[-5.3918,43.5171,0.0],[-5.3932,43.5135,0.7748],[-5.4157,43.509,1.7581],[-5.414,43.511,14.083],[-5.4068,43.5115,0.0],[-5.4054,43.5137,0.0],[-5.3954,43.5151,0.0],[-5.3946,43.5168,0.0],[-5.3968,43.5182,0.0],[-5.3993,43.5157,0.0],[-5.3996,43.5204,0.0],[-5.3879,43.526,3.9625],[-5.3865,43.5285,10.3444],[-5.3868,43.531,0.0],[-5.389,43.5318,25.1984],[-5.3887,43.5357,42.2339],[-5.386,43.5374,0.0],[-5.3879,43.5379,0.0],[-5.3876,43.5401,0.0],[-5.3987,43.5443,9.152],[-5.396,43.5474,0.0],[-5.396,43.5501,0.0],[-5.4115,43.5546,1.888],[-5.4304,43.5504,49.2007],[-5.4385,43.5524,0.0],[-5.4493,43.5507,3.8874],[-5.4743,43.551,17.175],[-5.4904,43.5462,21.1182],[-5.4935,43.5438,0.0],[-5.4985,43.5496,0.0],[-5.5046,43.5504,32.1842],[-5.5096,43.5485,61.7791],[-5.516,43.5521,0.0],[-5.5251,43.5499,21.1128],[-5.5279,43.5451,23.4344],[-5.5471,43.5504,52.9729],[-5.5626,43.5496,18.3821],[-5.569,43.5515,0.0],[-5.579,43.5488,8.3069],[-5.5865,43.5496,12.1784],[-5.589,43.5476,2.4357]]]]}
,"properties": {"GID_3": "ESP.17.1.4_1","GID_0": "ESP","country": "Spain","GID_1": "ESP.17_1","province": "PrincipadodeAsturias","NL_NAME_1": "NA","GID_2": "ESP.17.1_1","county": "Asturias","NL_NAME_2": "NA","city": "n.a.(108)","VARNAME_3": "NA","NL_NAME_3": "NA","TYPE_3": "Comarca","ENGTYPE_3": "Comarca","CC_3": "NA","HASC_3": "NA","name": "n.a.(108).city","area_km2": 521.3024,"hist_schema_id": "Elevation0-9000","hist_area_km2": {"-25": 0.2151,"0": 20.6755,"25": 45.5196,"50": 49.6465,"75": 53.7402,"100": 55.7415,"125": 52.9889,"150": 58.1118,"175": 37.0222,"200": 21.0166,"225": 17.3711,"250": 16.032,"275": 13.4024,"300": 11.834,"325": 10.8031,"350": 9.7114,"375": 8.5881,"400": 8.2655,"425": 7.6654,"450": 5.8182,"475": 4.2176,"500": 4.4026,"525": 3.0942,"550": 2.3861,"575": 1.5857,"600": 0.8776,"625": 0.3849,"650": 0.1847}}}