{"type":"Feature","properties":{"GID_3":"ESP.1.8.2_1","GID_0":"ESP","country":"Spain","GID_1":"ESP.1_1","province":"Andalucía","NL_NAME_1":"NA","GID_2":"ESP.1.8_1","county":"Sevilla","NL_NAME_2":"NA","city":"n.a.(227)","VARNAME_3":"NA","NL_NAME_3":"NA","TYPE_3":"Comarca","ENGTYPE_3":"Comarca","CC_3":"NA","HASC_3":"NA","name":"n.a.(227).city"},
"geometry":{"type": "MultiPolygon","coordinates": [[[[-5.9775,36.8455,214.9447],[-5.973,36.8442,174.3176],[-5.9608,36.8513,168.6382],[-5.9527,36.8531,195.4199],[-5.9412,36.852,176.9317],[-5.9252,36.8531,125.0502],[-5.8909,36.8422,180.6659],[-5.8886,36.8433,176.1639],[-5.8902,36.8444,173.9812],[-5.8887,36.8468,165.5077],[-5.8934,36.8516,96.5568],[-5.8764,36.8947,89.698],[-5.8695,36.8937,102.7053],[-5.8598,36.9,107.7067],[-5.8454,36.9152,170.4388],[-5.8371,36.9144,179.7958],[-5.8316,36.9157,110.3161],[-5.8048,36.9255,185.4779],[-5.774,36.9243,108.7499],[-5.7618,36.9256,151.4463],[-5.7439,36.923,149.2162],[-5.7362,36.9182,157.3668],[-5.7257,36.9216,177.4726],[-5.7169,36.9195,172.3692],[-5.7031,36.9256,151.6457],[-5.696,36.9353,164.0386],[-5.6935,36.9458,130.1325],[-5.6945,36.9568,184.6505],[-5.6678,36.976,196.4273],[-5.666,36.9758,196.4273],[-5.6559,36.9641,189.6644],[-5.6495,36.9543,169.3602],[-5.6323,36.9507,178.3038],[-5.626,36.9545,107.8632],[-5.6184,36.9405,123.0293],[-5.6147,36.9426,137.5439],[-5.61,36.9416,128.4346],[-5.6071,36.9451,138.3895],[-5.6057,36.9509,153.9385],[-5.5954,36.9449,148.3572],[-5.588,36.9469,153.3438],[-5.5856,36.9209,156.9779],[-5.5829,36.9149,130.2947],[-5.5337,36.8935,257.0348],[-5.5389,36.9061,227.6817],[-5.5801,36.9686,195.9118],[-5.5822,36.979,177.1926],[-5.6053,37.0172,83.9849],[-5.6054,37.0309,121.3142],[-5.607,37.0308,111.9708],[-5.6095,37.0434,143.4642],[-5.6042,37.0681,130.9032],[-5.599,37.0685,131.7707],[-5.5967,37.0671,136.3216],[-5.5948,37.0679,140.3386],[-5.5964,37.0701,138.4388],[-5.5799,37.0787,160.8401],[-5.5676,37.0813,183.4922],[-5.5702,37.087,178.3874],[-5.5677,37.0903,127.9593],[-5.5715,37.0955,117.2343],[-5.5677,37.0989,119.6669],[-5.5698,37.1057,112.509],[-5.5694,37.1135,113.0973],[-5.5723,37.1212,104.3789],[-5.5707,37.1297,104.6382],[-5.5824,37.1325,98.6876],[-5.5808,37.1401,99.0511],[-5.5732,37.1407,103.1555],[-5.5774,37.1535,94.7658],[-5.5655,37.1622,95.5435],[-5.5492,37.1694,99.8158],[-5.5456,37.1723,106.5109],[-5.5446,37.1753,110.7383],[-5.5356,37.1772,112.9071],[-5.5368,37.185,102.689],[-5.5316,37.1878,106.693],[-5.5092,37.1901,122.8072],[-5.5058,37.1881,125.211],[-5.4953,37.1889,128.8202],[-5.4927,37.195,120.1724],[-5.4927,37.2021,124.723],[-5.4904,37.2,126.7365],[-5.4784,37.1986,151.0956],[-5.4807,37.2037,131.0832],[-5.4798,37.2048,133.3128],[-5.4824,37.2077,120.214],[-5.4786,37.2099,117.477],[-5.4624,37.2111,126.8672],[-5.4586,37.2156,139.1796],[-5.4415,37.2237,144.6393],[-5.4331,37.2243,161.2244],[-5.4291,37.2328,147.8464],[-5.4296,37.2348,147.2886],[-5.417,37.2322,149.396],[-5.4065,37.2353,155.0727],[-5.4015,37.2338,158.226],[-5.3985,37.2304,166.7136],[-5.391,37.2287,175.1252],[-5.3777,37.2194,189.5108],[-5.352,37.2096,185.6863],[-5.347,37.2101,191.2107],[-5.3271,37.2239,185.4148],[-5.2953,37.2361,174.804],[-5.2866,37.2412,186.2563],[-5.2772,37.2528,200.5635],[-5.2616,37.265,148.4572],[-5.2577,37.2605,150.0623],[-5.2574,37.2568,154.1812],[-5.2511,37.2519,159.6403],[-5.2517,37.2421,160.8452],[-5.2473,37.2384,165.117],[-5.243,37.2314,168.4709],[-5.2427,37.2249,172.1295],[-5.2368,37.217,177.4431],[-5.2198,37.2081,191.2073],[-5.215,37.204,206.9479],[-5.2157,37.201,195.1777],[-5.2118,37.1914,220.9686],[-5.2129,37.181,230.0204],[-5.2087,37.1767,246.3693],[-5.2061,37.1702,252.6945],[-5.206,37.1646,261.7352],[-5.199,37.1572,279.8689],[-5.1985,37.1541,287.7949],[-5.2021,37.1494,359.7467],[-5.2025,37.1443,427.6272],[-5.2106,37.1417,371.3682],[-5.2129,37.1371,336.6241],[-5.2168,37.1345,323.8383],[-5.2141,37.1272,275.4962],[-5.2159,37.1215,262.5],[-5.2122,37.1226,283.822],[-5.2118,37.1195,262.5],[-5.2093,37.1189,262.5],[-5.2058,37.1228,281.2521],[-5.2038,37.1196,265.4788],[-5.2004,37.1184,262.5],[-5.1986,37.1141,334.8423],[-5.2036,37.1118,268.0661],[-5.2032,37.1048,262.6986],[-5.1986,37.1068,327.3911],[-5.1947,37.1051,328.1238],[-5.196,37.1037,270.6935],[-5.1921,37.1033,317.4328],[-5.1876,37.0984,328.223],[-5.1801,37.0991,296.3723],[-5.1732,37.0962,304.212],[-5.1689,37.0975,307.7239],[-5.169,37.0931,304.4676],[-5.1666,37.0894,323.8379],[-5.1673,37.0843,331.8663],[-5.1707,37.0829,311.9614],[-5.1703,37.0816,313.935],[-5.164,37.0834,321.5551],[-5.1559,37.0825,323.7525],[-5.1527,37.0884,394.3603],[-5.1386,37.0908,450.1302],[-5.1347,37.0944,386.96],[-5.1344,37.0993,412.9918],[-5.1318,37.1029,437.3812],[-5.1214,37.1056,459.7583],[-5.1199,37.1135,510.0652],[-5.1161,37.1142,561.5448],[-5.1158,37.1163,568.6055],[-5.1063,37.117,563.9244],[-5.1052,37.1115,528.2522],[-5.0917,37.1125,473.3574],[-5.0899,37.1177,528.6076],[-5.0907,37.1238,541.8193],[-5.0868,37.1242,554.8129],[-5.0852,37.1228,563.3851],[-5.08,37.1247,543.3497],[-5.0732,37.1345,487.9012],[-5.069,37.1332,524.4104],[-5.0584,37.1387,480.6704],[-5.061,37.14,431.1746],[-5.0605,37.143,445.3922],[-5.0584,37.144,455.212],[-5.0601,37.149,470.4738],[-5.053,37.1485,428.1916],[-5.053,37.1431,427.8893],[-5.0489,37.1453,410.8789],[-5.0449,37.1443,406.9841],[-5.0428,37.1468,401.6921],[-5.0449,37.1496,426.4601],[-5.0428,37.1509,456.2381],[-5.0396,37.1491,394.7656],[-5.0326,37.1531,373.1321],[-5.0301,37.1571,385.9458],[-5.0322,37.1598,389.5218],[-5.0293,37.1624,438.297],[-5.0266,37.1601,403.9156],[-5.0184,37.1606,364.2357],[-5.0166,37.1639,380.4194],[-5.0123,37.1661,351.2975],[-5.0174,37.1722,352.2158],[-5.0152,37.1751,367.8417],[-5.0105,37.1749,397.4894],[-5.0106,37.1725,385.3482],[-5.0056,37.169,372.7786],[-5.0026,37.1693,380.3551],[-4.9995,37.1673,340.71],[-4.9857,37.1701,355.9634],[-4.9847,37.1768,333.2201],[-4.9784,37.1767,346.5633],[-4.9663,37.1805,344.3981],[-4.9678,37.1876,332.6878],[-4.9895,37.2296,269.8109],[-4.9972,37.2421,270.1249],[-5.0057,37.2467,246.3248],[-5.0078,37.2605,237.2304],[-5.0054,37.2626,239.8249],[-5.0062,37.2644,235.5534],[-5.0025,37.2677,233.1296],[-5.004,37.2702,234.9668],[-5.0015,37.277,229.2294],[-5.0052,37.2811,223.6012],[-5.0026,37.2818,226.2595],[-5.0019,37.285,224.5971],[-4.9995,37.2853,222.7739],[-4.9957,37.2949,219.9749],[-4.9987,37.2995,217.6997],[-4.9976,37.3007,218.9154],[-5.0009,37.3029,213.5182],[-4.9945,37.3134,210.8646],[-4.9956,37.3188,211.6642],[-4.9921,37.3229,205.4002],[-4.99,37.3231,206.7607],[-4.9903,37.3345,199.2289],[-4.9875,37.3382,197.9316],[-4.9868,37.3446,195.8459],[-4.9816,37.3507,191.9617],[-4.9828,37.3526,189.9731],[-4.9797,37.3545,188.4163],[-4.9825,37.3592,188.0841],[-4.982,37.3616,187.5247],[-4.9858,37.3678,184.0892],[-4.9889,37.3697,183.2691],[-4.9698,37.3757,201.4862],[-4.9707,37.3767,195.6319],[-4.9669,37.3779,200.9846],[-4.9659,37.3768,213.5177],[-4.9358,37.3868,248.8163],[-4.9122,37.4085,262.5302],[-4.9061,37.4112,222.5464],[-4.8868,37.4259,161.8915],[-4.8846,37.438,135.5198],[-4.8824,37.4401,136.3235],[-4.8825,37.4453,134.2678],[-4.8794,37.4461,137.4595],[-4.8752,37.4505,145.5929],[-4.8834,37.454,136.9429],[-4.8884,37.4609,133.8384],[-4.8942,37.4595,132.2844],[-4.9044,37.4682,130.6229],[-4.91,37.4803,127.042],[-4.9034,37.4878,130.6814],[-4.9048,37.4899,126.9192],[-4.9084,37.4881,126.341],[-4.91,37.489,127.5987],[-4.9143,37.4832,132.0918],[-4.916,37.4927,124.4426],[-4.9132999999999996,37.4953,124.2563],[-4.9076,37.495,126.9139],[-4.9059,37.4999,130.7677],[-4.9081,37.502,136.0308],[-4.9127,37.4991,134.4813],[-4.9245,37.5004,135.2555],[-4.931,37.5056,121.5257],[-4.9307,37.5098,121.7822],[-4.9275,37.5125,122.5161],[-4.9309,37.5136,121.6257],[-4.9331,37.5111,122.5094],[-4.9344,37.5115,123.6292],[-4.9338,37.5199,120.6868],[-4.9475,37.5208,118.8095],[-4.9488,37.522,118.6618],[-4.9401,37.5276,126.4152],[-4.9408,37.5366,133.7407],[-4.9342,37.541,137.6929],[-4.9319,37.5459,139.7407],[-4.9358,37.5512,144.3791],[-4.9323,37.5537,145.6815],[-4.9333,37.5559,147.4721],[-4.9307,37.5596,160.7612],[-4.9321,37.5607,151.3038],[-4.9314,37.5631,152.1563],[-4.9368,37.5671,157.4184],[-4.9354,37.568,167.3128],[-4.9375,37.5719,163.5291],[-4.9325,37.5729,166.0547],[-4.9302,37.5757,172.5395],[-4.9349,37.583,178.4496],[-4.9349,37.5875,183.4466],[-4.9302,37.5899,188.6186],[-4.9348,37.5999,251.4439],[-4.9316,37.6174,240.6079],[-4.94,37.6213,230.9725],[-4.9421,37.618,240.5504],[-4.9477,37.6152,238.0897],[-4.9576,37.6129,225.0268],[-4.9568,37.6114,225.7721],[-4.9593,37.6095,223.2141],[-4.9652,37.6109,218.4805],[-4.9738,37.5999,215.4184],[-4.9747,37.603,213.7795],[-4.9681,37.6124,215.5277],[-4.9653,37.6115,218.4805],[-4.958,37.6217,215.3163],[-4.9536,37.6525,186.7494],[-4.9714,37.6724,167.8814],[-4.9826,37.6763,174.8431],[-4.9868,37.6886,155.3488],[-4.9905,37.6921,168.3539],[-4.9887,37.6935,167.0017],[-4.9916,37.6969,173.8573],[-4.9964,37.6991,173.475],[-4.9997,37.7066,174.5349],[-5.0476,37.7182,162.3867],[-5.0506,37.717,165.8599],[-5.0505,37.7157,165.8599],[-5.0725,37.7077,165.2785],[-5.0743,37.701,177.6776],[-5.0798,37.701,178.6588],[-5.0866,37.6977,176.7334],[-5.0866,37.6957,176.5489],[-5.0889,37.6947,173.5937],[-5.0857,37.6886,176.9455],[-5.0903,37.6836,175.291],[-5.0914,37.68,175.4422],[-5.0901,37.6764,174.7747],[-5.083,37.6701,167.1086],[-5.0797,37.6712,176.2074],[-5.0763,37.6689,175.6455],[-5.0767,37.6647,173.5754],[-5.0739,37.6625,168.3654],[-5.0721,37.6635,169.9368],[-5.0705,37.6607,170.6392],[-5.0815,37.6606,176.4552],[-5.091,37.6679,172.9046],[-5.0978,37.6703,160.3387],[-5.0933,37.675,172.8013],[-5.0998,37.6837,164.7904],[-5.1007999999999996,37.6894,165.0943],[-5.1081,37.7004,154.2419],[-5.1126,37.7026,154.0497],[-5.1296,37.6988,150.1217],[-5.1161,37.6919,155.8829],[-5.1131,37.6882,157.8475],[-5.1125,37.6777,172.9762],[-5.1099,37.6741,173.9173],[-5.111,37.6708,174.0727],[-5.1078,37.6626,175.9282],[-5.1185,37.6674,175.3296],[-5.1257,37.6659,173.6361],[-5.1339,37.6685,175.1352],[-5.1372,37.6682,171.688],[-5.1499,37.6609,171.4542],[-5.16,37.6718,136.3972],[-5.1766,37.6806,137.6711],[-5.2118,37.6635,66.1887],[-5.2257999999999996,37.6541,124.4779],[-5.2352,37.6502,132.6701],[-5.2535,37.6361,136.3049],[-5.2744,37.6253,133.844],[-5.2996,37.6229,127.993],[-5.3117,37.6196,110.3064],[-5.3234,37.6141,76.4915],[-5.3228,37.6115,76.9196],[-5.3365,37.5978,130.0519],[-5.3434,37.5937,129.3153],[-5.3436,37.5874,132.4856],[-5.3474,37.5852,145.9226],[-5.3517,37.5843,143.3608],[-5.3582,37.5856,125.0288],[-5.3569,37.5966,119.3113],[-5.3595,37.6051,101.1548],[-5.3813,37.6112,83.841],[-5.3819,37.6146,88.2134],[-5.3843,37.6144,80.5437],[-5.3892,37.62,73.645],[-5.3917,37.6207,73.1636],[-5.3916,37.6239,83.2874],[-5.4117,37.6132,120.9612],[-5.4269,37.5987,92.4116],[-5.4737,37.5861,116.2064],[-5.4983,37.5819,88.7248],[-5.502,37.5832,73.9496],[-5.5084,37.5816,71.659],[-5.5102,37.5845,67.1097],[-5.5145,37.5851,65.5036],[-5.5159,37.5874,63.1167],[-5.5352,37.5957,49.0],[-5.5418,37.5958,49.0],[-5.5557,37.6001,49.0],[-5.5642,37.5995,68.9407],[-5.5797,37.6059,35.3514],[-5.592,37.6067,34.3251],[-5.6018,37.6207,23.1016],[-5.6118,37.618,25.4118],[-5.6216,37.6071,26.7533],[-5.6357,37.6094,28.9339],[-5.6429,37.6131,24.4448],[-5.6473,37.6135,27.9545],[-5.6533,37.6114,19.9469],[-5.6588,37.6056,19.3599],[-5.6588,37.6006,25.6841],[-5.6506,37.5926,26.8719],[-5.6499,37.5874,25.0149],[-5.6513,37.586,25.6221],[-5.6659,37.583,24.0545],[-5.6742,37.5851,27.7233],[-5.6762,37.58,31.5817],[-5.6788,37.5803,34.8657],[-5.6856,37.5753,53.7223],[-5.694,37.5776,48.4284],[-5.7151,37.5773,46.1413],[-5.7225,37.576,34.127],[-5.7309,37.5719,41.32],[-5.7536,37.5682,37.4696],[-5.7638,37.5683,38.1347],[-5.7689,37.567,33.8349],[-5.7715,37.5641,33.8491],[-5.7785,37.5731,27.4089],[-5.8011,37.5666,26.6055],[-5.811,37.5668,25.3727],[-5.8188,37.5648,24.2248],[-5.8499,37.5494,21.4546],[-5.8687,37.5278,23.3713],[-5.8591,37.5202,29.5355],[-5.8558,37.5113,32.1688],[-5.8459,37.5044,37.7779],[-5.8399,37.4978,35.6201],[-5.8381,37.4873,43.2259],[-5.8287,37.4659,52.087],[-5.8233,37.4405,53.7345],[-5.8175,37.4232,60.7409],[-5.8191,37.3904,70.2746],[-5.8427,37.3872,51.4844],[-5.8874,37.3871,36.3096],[-5.9046,37.3771,27.5036],[-5.9083,37.3776,22.4837],[-5.9107,37.3756,20.51],[-5.9479,37.3661,12.4676],[-5.9404,37.3642,12.9919],[-5.9265,37.3539,30.1957],[-5.9222,37.347,36.333],[-5.9036,37.3287,88.4895],[-5.9156,37.3086,55.0595],[-5.919,37.3074,56.0446],[-5.9161,37.3014,56.9961],[-5.9058,37.2988,53.1129],[-5.8971,37.2904,56.2808],[-5.8944,37.2848,59.2176],[-5.8833,37.2771,60.2341],[-5.8935,37.2669,54.238],[-5.8946,37.2632,53.3478],[-5.8925,37.2607,52.3488],[-5.8977,37.2559,52.3105],[-5.8954,37.2517,53.6048],[-5.9009,37.2293,31.1052],[-5.9039,37.2258,30.0069],[-5.9075,37.2265,28.2055],[-5.9179,37.2202,21.9403],[-5.921,37.2175,21.7026],[-5.922,37.2127,18.5983],[-5.9083,37.2134,28.2208],[-5.908,37.2087,29.3695],[-5.9039,37.2035,28.6957],[-5.8919,37.1974,24.0105],[-5.8902,37.195,21.5696],[-5.8804,37.1917,16.6708],[-5.8781,37.189,16.3624],[-5.8775,37.1763,13.8688],[-5.8743,37.1698,27.6235],[-5.8571,37.1529,13.9034],[-5.8426,37.1414,25.9311],[-5.8422,37.1396,24.7879],[-5.8478,37.1306,18.3028],[-5.8614,37.1186,9.5821],[-5.8599,37.1158,9.6308],[-5.8871,37.1101,7.2975],[-5.8858,37.1079,7.436],[-5.9184,37.1012,6.5294],[-5.9191,37.0984,6.5667],[-5.9285,37.0913,5.8923],[-5.9304,37.0813,4.8382],[-5.9368,37.0785,4.9913],[-5.9476,37.1011,3.6868],[-5.9823,37.1389,2.0171],[-5.9902,37.1496,2.4133],[-5.9962,37.1639,1.8772],[-6.0339,37.1538,1.7663],[-6.0393,37.1501,1.1574],[-6.0382,37.1428,0.9527],[-6.0487,37.1327,1.2161],[-6.0431,37.1293,1.008],[-6.0302,37.1268,0.5281],[-6.0264,37.1216,1.5046],[-6.029,37.1165,0.562],[-6.0418,37.1091,0.2178],[-6.0424,37.1056,1.2824],[-6.0356,37.0892,1.3143],[-6.0452,37.0557,1.2635],[-6.0533,37.0542,0.9748],[-6.0731,37.0594,1.3679],[-6.0749,37.061,1.2375],[-6.0732,37.0689,1.3187],[-6.0749,37.073,1.3571],[-6.0784,37.0758,1.2637],[-6.0825,37.0761,1.2397],[-6.1024,37.0495,0.5976],[-6.1078,37.0446,0.9196],[-6.1204,37.0368,0.0],[-6.1435,37.0295,0.0],[-6.1519,37.0249,0.0],[-6.1566,37.0195,0.3722],[-6.1883,36.9395,0.0],[-6.1963,36.9248,0.0],[-6.2016,36.9166,0.0],[-6.2114,36.9087,0.0],[-6.2308,36.8981,0.0],[-6.2294,36.8961,0.0],[-6.2085,36.8934,0.5873],[-6.187,36.8936,24.9065],[-6.1835,36.8915,46.6848],[-6.1554,36.8854,20.4973],[-6.1431,36.8762,3.4307],[-6.1218,36.8638,1.9842],[-6.1043,36.8573,2.0522],[-6.0846,36.8545,3.4614],[-6.0504,36.8535,48.3601],[-6.0362,36.8493,65.9242],[-5.9775,36.8455,214.9447]],
[[-5.0297,37.6305,190.0465],[-5.0294,37.628,191.0645],[-5.0336,37.6244,191.0485],[-5.0335,37.6208,191.881],[-5.0294,37.613,194.1703],[-5.0245,37.5949,194.69],[-5.0171,37.5936,193.157],[-5.018,37.5921,193.2238],[-5.0251,37.594,194.69],[-5.0269,37.5962,193.4273],[-5.0309,37.6106,194.5991],[-5.0478,37.6082,177.6262],[-5.04,37.6259,190.1075],[-5.0452,37.6299,187.4518],[-5.0848,37.6438,177.2528],[-5.084,37.6481,177.0129],[-5.0537,37.6424,178.1772],[-5.0485,37.6369,181.2081],[-5.0467,37.632,185.9249],[-5.0341,37.6385,189.7338],[-5.0334,37.642,190.4088],[-5.0311,37.6415,189.912],[-5.0264,37.6352,190.308],[-5.0299,37.6322,189.8001],[-5.0297,37.6305,190.0465]]]]}}