{"type":"Feature","properties":{"ISO3166-1-Alpha-3":"ESP","country":"Spain","fill":"#00F","id":"5821","name":"Granada"},
"geometry":{"type": "Polygon","coordinates": [[[-2.35094,38.02362,1343.246],[-2.36117,38.02435,1349.2634],[-2.46584,38.04938,1709.478],[-2.54738,38.08065,1290.3027],[-2.60248,38.06203,1358.856],[-2.59835,38.00575,1695.9557],[-2.67077,37.96148,1858.4797],[-2.68648,37.97139,1834.0472],[-2.69164,37.97318,1883.1385],[-2.69964,37.97264,1790.9109],[-2.78628,37.91245,2028.4431],[-2.88965,37.77432,1040.1996],[-2.90023,37.74825,991.7914],[-2.90206,37.66566,905.7811],[-2.97619,37.63273,820.6121],[-2.98339,37.60149,797.906],[-3.03123,37.61293,658.0896],[-3.05134,37.61289,604.2523],[-3.07051,37.60741,612.5937],[-3.0908,37.59602,635.6821],[-3.18728,37.63587,832.7447],[-3.2234,37.63925,884.2915],[-3.25183,37.63303,974.2338],[-3.2755,37.61623,1012.9761],[-3.29739,37.58778,913.2612],[-3.31511,37.57782,979.3336],[-3.39926,37.56411,991.4958],[-3.42403,37.56852,984.6293],[-3.46826,37.60634,1079.6151],[-3.49149,37.61643,1037.1665],[-3.50714,37.61335,1044.0579],[-3.62716,37.52942,1114.4644],[-3.68307,37.51812,1353.6914],[-3.79188,37.4663,1014.5436],[-3.84131,37.38634,903.2205],[-3.95079,37.37844,1080.5707],[-4.00087,37.40211,971.5354],[-4.07638,37.40352,876.2312],[-4.09388,37.39615,822.5942],[-4.13717,37.35757,804.6417],[-4.15473,37.3489,703.4301],[-4.17212,37.34669,707.5828],[-4.20917,37.35236,850.0677],[-4.21722,37.3504,830.2268],[-4.22506,37.34354,837.3311],[-4.23551,37.32721,796.9263],[-4.23712,37.29642,820.4288],[-4.2634,37.26039,415.0],[-4.25516,37.2295,653.0333],[-4.3203,37.18657,635.3784],[-4.28708,37.11968,786.3591],[-4.28063,37.05669,1161.0597],[-4.27332,37.03805,840.8059],[-4.26096,37.02397,1089.1602],[-4.14847,36.94847,1027.7998],[-3.87562,36.85305,1339.6873],[-3.82723,36.85546,1479.1305],[-3.7682,36.80192,849.452],[-3.78228,36.76451,354.5],[-3.77724,36.7358,0.0],[-3.73128,36.7241,91.9068],[-3.67982,36.72881,1.3884],[-3.66567,36.73937,0.0],[-3.63242,36.74128,0.0],[-3.6011,36.74255,0.0],[-3.5864,36.72658,0.0],[-3.54983,36.71237,0.0],[-3.53606,36.71841,0.0],[-3.51596,36.72105,3.2693],[-3.4776,36.6961,0.0],[-3.41515,36.69552,0.0],[-3.37877,36.71389,134.959],[-3.35831,36.72594,54.7593],[-3.34439,36.73692,72.5077],[-3.32958,36.7449,175.7876],[-3.22789,36.75483,85.3516],[-3.15671,36.74453,0.0],[-3.12822,36.74638,0.0],[-3.14023,36.78785,338.7617],[-3.02902,36.84446,721.8312],[-3.04344,36.87913,609.4965],[-3.05227,36.8875,453.4883],[-3.06476,36.89423,710.7548],[-3.07266,36.90227,853.6707],[-3.06772,36.91469,645.1814],[-2.99691,36.97065,718.466],[-2.9908,36.98618,808.8726],[-2.99265,36.99927,987.7703],[-3.00881,37.03614,1427.7893],[-3.01536,37.06966,1708.5126],[-3.01113,37.08508,2067.8479],[-2.99772,37.09547,2570.3157],[-2.9625,37.09666,2301.4998],[-2.95234,37.10082,2183.1133],[-2.9439,37.1131,1889.824],[-2.93607,37.14402,1614.9771],[-2.92786,37.15737,1445.632],[-2.91742,37.16322,1214.9534],[-2.89398,37.17014,1129.4368],[-2.88472,37.1794,1065.3477],[-2.85993,37.26091,1473.4233],[-2.85482,37.2671,1555.9723],[-2.8465,37.27161,1663.9985],[-2.83486,37.27299,1770.9741],[-2.80439,37.26853,1988.1029],[-2.79464,37.26348,1958.8979],[-2.76994,37.23804,1913.2207],[-2.75695,37.23237,1900.8035],[-2.71036,37.22955,1932.1648],[-2.66011,37.21201,1985.9888],[-2.66556,37.28441,1661.5419],[-2.66389,37.29074,1587.1776],[-2.65496,37.3046,1418.3597],[-2.65258,37.31229,1330.6896],[-2.64871,37.36873,1105.8298],[-2.64214,37.38322,1058.7321],[-2.49015,37.48937,1327.2701],[-2.35848,37.52223,1368.8252],[-2.376,37.61214,1228.4226],[-2.31593,37.62209,1718.4038],[-2.32149,37.69774,995.556],[-2.31308,37.71501,1007.7651],[-2.28886,37.74644,1122.5754],[-2.28236,37.76407,1138.158],[-2.29049,37.82063,1108.702],[-2.28592,37.86478,1092.6235],[-2.28032,37.87448,1097.5056],[-2.27165,37.8817,1168.5773],[-2.20965,37.91567,1443.3811],[-2.20965,37.91567,1443.3811],[-2.23224,37.92642,1425.2859],[-2.26143,37.95352,1140.8448],[-2.28182,37.97828,1116.5896],[-2.295,37.99835,1217.4237],[-2.29569,37.9998,1264.0975],[-2.29624,38.00057,1315.1731],[-2.3043,38.00636,1290.1927],[-2.33853,38.02649,1360.9863],[-2.35094,38.02362,1343.246]]]}}