{"type":"Feature","properties":{"GID_3":"ESP.10.3.18_1","GID_0":"ESP","country":"Spain","GID_1":"ESP.10_1","province":"ComunidadValenciana","NL_NAME_1":"NA","GID_2":"ESP.10.3_1","county":"Valencia","NL_NAME_2":"NA","city":"ValldeConfrents","VARNAME_3":"NA","NL_NAME_3":"NA","TYPE_3":"Comarca","ENGTYPE_3":"Comarca","CC_3":"NA","HASC_3":"NA","name":"Vallde_Confrents.city"},
"geometry":{"type": "MultiPolygon","coordinates": [[[[-1.2637,39.0684,1063.1798],[-1.2652,39.0525,1062.0026],[-1.2667,39.051,1052.1008],[-1.2638,39.0451,1102.9753],[-1.2592,39.0414,1024.2103],[-1.252,39.0396,1178.0806],[-1.2395,39.0306,1167.3312],[-1.2265,39.0247,1167.1938],[-1.2085,39.0051,862.2512],[-1.2017,38.993,828.8344],[-1.1932,38.9882,806.2446],[-1.1608,38.9548,917.6382],[-1.1545,38.9397,957.7861],[-1.1527,38.9392,993.1722],[-1.1466,38.9294,1060.3105],[-1.1383,38.9276,768.2703],[-1.1298,38.9294,705.665],[-1.1059,38.9286,665.8156],[-1.0426,38.9368,872.5829],[-1.0362,38.9343,933.9448],[-1.0134,38.9392,992.2626],[-1.0074,38.9458,1018.1583],[-0.9993,38.9495,1047.0555],[-0.9918,38.9473,1004.8157],[-0.9877,38.9478,1014.1254],[-0.9772,38.9428,998.636],[-0.9593,38.9446,1055.2782],[-0.9394,38.9488,904.3242],[-0.9137,38.9633,840.7731],[-0.9027,38.9738,790.0132],[-0.8979,38.9819,770.9948],[-0.896,38.9823,779.748],[-0.8943,38.9927,726.9866],[-0.8889,38.9976,710.6684],[-0.8906,38.9984,730.0331],[-0.8862,39.0048,711.6596],[-0.8873,39.0057,695.9412],[-0.8837,39.0076,710.0153],[-0.882,39.0124,696.3417],[-0.8783,39.0116,658.3412],[-0.8888,39.0248,1003.5076],[-0.8935,39.0379,959.4338],[-0.9007,39.0491,937.9615],[-0.899,39.0549,904.4681],[-0.9023,39.0608,729.673],[-0.9024,39.0714,576.4259],[-0.8947,39.0774,557.2473],[-0.9064,39.0895,822.1344],[-0.9058,39.097,926.8566],[-0.9156,39.107,827.6332],[-0.9164,39.1127,799.0135],[-0.9132,39.1176,769.3908],[-0.9166,39.1312,774.4605],[-0.9137,39.1356,708.2628],[-0.9133,39.1475,938.3453],[-0.9189,39.1512,916.7219],[-0.9088,39.1585,922.7075],[-0.8912,39.1642,853.9494],[-0.8878,39.1686,833.1484],[-0.8643,39.1671,740.0114],[-0.8457,39.171,629.5068],[-0.8567,39.1805,665.2355],[-0.8676,39.1973,707.8402],[-0.8642,39.1992,665.4376],[-0.8663,39.1995,688.0505],[-0.8702,39.2041,770.2453],[-0.8756,39.2159,760.3386],[-0.8768,39.2248,771.6909],[-0.845,39.2324,670.9695],[-0.8274,39.2482,598.1113],[-0.8266,39.2519,573.4072],[-0.82,39.2561,478.4123],[-0.8179,39.2603,402.4127],[-0.8075,39.2658,222.1991],[-0.8148,39.2731,162.7267],[-0.824,39.2712,178.7136],[-0.8364,39.2744,186.5597],[-0.839,39.2772,213.4472],[-0.8369,39.279,190.2115],[-0.8377,39.2805,172.858],[-0.8477,39.282,203.0512],[-0.8498,39.2849,181.4386],[-0.8538,39.2834,188.9844],[-0.8512,39.2792,231.5396],[-0.8534,39.2748,190.875],[-0.8619,39.2752,207.5173],[-0.8664,39.2719,224.9149],[-0.8777,39.2731,264.616],[-0.8819,39.2769,210.25],[-0.8864,39.2746,221.8352],[-0.888,39.2714,288.9624],[-0.8898,39.2752,412.4259],[-0.8892,39.2878,539.3548],[-0.8928,39.2917,629.6851],[-0.8996,39.3101,638.2642],[-0.9272,39.3154,767.7435],[-0.9462,39.3247,1057.0548],[-0.9655,39.3305,966.4653],[-0.9734,39.3353,946.9261],[-0.9954,39.3404,802.999],[-1.0132,39.3303,686.4369],[-1.0285,39.3238,726.6199],[-1.0637,39.3153,714.853],[-1.0667,39.313,708.343],[-1.0732,39.3117,720.3329],[-1.0922,39.3119,712.7789],[-1.0883,39.2976,709.7571],[-1.0888,39.2941,716.4592],[-1.0922,39.2913,688.2524],[-1.0989,39.2929,675.1953],[-1.1018,39.2892,552.6407],[-1.112,39.2852,353.7101],[-1.1122,39.2824,360.9512],[-1.1151,39.2838,362.0999],[-1.1188,39.276,598.1519],[-1.1758,39.2657,759.472],[-1.1763,39.2303,742.0649],[-1.1808,39.2119,810.6659],[-1.1922,39.1939,678.5129],[-1.1944,39.1804,763.5428],[-1.2105,39.1623,857.1449],[-1.2269,39.1517,983.461],[-1.2404,39.1138,1004.8362],[-1.2557,39.1062,1103.5811],[-1.2557,39.0841,1123.9609],[-1.2656,39.0755,1105.1998],[-1.2637,39.0684,1063.1798]]]]}}