{"type": "Feature","bbox": [-0.9719,40.6595,0.2935,41.3543],"geometry": {"type": "MultiPolygon","coordinates": [[[[0.1125,40.7272,1280.0425],[0.1119,40.7247,1277.797],[0.1166,40.7251,1344.6177],[0.1238,40.7208,1333.5088],[0.1414,40.7185,1246.5487],[0.1639,40.7236,1309.967],[0.1647,40.7278,1321.0217],[0.1684,40.7295,1313.3733],[0.1708,40.7329,1337.5345],[0.1675,40.7395,1242.2286],[0.1645,40.7401,1234.7638],[0.1632,40.7425,1234.583],[0.1649,40.7433,1241.3702],[0.1592,40.7506,1184.8247],[0.1646,40.7487,1093.6914],[0.168,40.7448,1096.9967],[0.1754,40.7412,1072.6097],[0.1763,40.7438,1122.7006],[0.174,40.749,1153.2179],[0.1763,40.751,1183.7434],[0.1753,40.755,1174.9534],[0.1813,40.7533,1204.3712],[0.1841,40.7556,1175.2152],[0.185,40.7531,1203.135],[0.1902,40.7503,1155.9651],[0.1963,40.7586,1172.3918],[0.2016,40.7576,1124.5536],[0.212,40.7675,1191.7809],[0.2239,40.7656,880.3981],[0.23,40.7675,889.5876],[0.2294,40.7712,972.1086],[0.2347,40.7762,1149.4558],[0.2329,40.7794,1212.7073],[0.2336,40.787,1209.3113],[0.2444,40.7921,1066.767],[0.2499,40.7985,977.2852],[0.2578,40.8003,748.9964],[0.2586,40.8046,883.7894],[0.2652,40.8138,1130.2092],[0.2718,40.817,1181.1548],[0.272,40.8188,1019.7178],[0.2783,40.8211,874.3154],[0.2664,40.8315,654.4946],[0.2666,40.8335,624.8558],[0.2617,40.8373,611.3322],[0.2625,40.8388,725.8162],[0.26,40.8392,632.7948],[0.2587,40.8463,604.5035],[0.2554,40.8467,588.2632],[0.2577,40.8485,576.7176],[0.2552,40.8509,569.3044],[0.2558,40.8531,568.8886],[0.2508,40.8563,563.8445],[0.2534,40.86,560.8262],[0.2517,40.8627,561.4531],[0.2543,40.8663,542.8808],[0.2535,40.8702,530.063],[0.2554,40.8746,532.5691],[0.2518,40.8766,550.2089],[0.2505,40.8795,525.8368],[0.2453,40.8805,532.6501],[0.239,40.8849,500.6156],[0.2413,40.8868,499.0855],[0.246,40.8872,513.1525],[0.2459,40.8922,491.405],[0.2501,40.896,481.274],[0.2496,40.9016,483.8942],[0.2533,40.9066,473.3708],[0.2499,40.9073,472.7958],[0.2488,40.9105,472.9196],[0.2541,40.9118,462.1766],[0.2539,40.9197,454.4396],[0.2606,40.9285,442.9286],[0.2674,40.929,437.7567],[0.2743,40.9366,421.0627],[0.2717,40.9448,412.7621],[0.2761,40.9481,408.3043],[0.276,40.951,440.9589],[0.281,40.9512,419.2271],[0.2854,40.9604,404.7156],[0.2843,40.9647,422.0361],[0.2935,40.9706,396.7791],[0.2894,40.9743,400.6771],[0.2834,40.9728,384.6301],[0.2811,40.9749,383.8322],[0.2824,40.9822,375.0733],[0.2811,40.9872,403.3088],[0.2723,40.9935,362.4189],[0.2719,40.996,370.2631],[0.2685,40.9983,359.0668],[0.2694,41.0019,353.6884],[0.275,41.0053,354.6671],[0.2743,41.0072,351.1072],[0.2706,41.0095,356.1529],[0.2645,41.0103,345.778],[0.2589,41.0139,344.8521],[0.261,41.0189,344.9167],[0.2764,41.0181,332.8634],[0.2799,41.0198,346.191],[0.2709,41.026,330.832],[0.2625,41.0267,325.3882],[0.253,41.033,315.1909],[0.2462,41.0413,310.0299],[0.2435,41.0402,325.1435],[0.2424,41.0349,311.8094],[0.2343,41.0346,305.1034],[0.2304,41.037,304.6223],[0.2301,41.0398,296.22],[0.2348,41.046,311.2318],[0.2331,41.0471,305.8322],[0.2259,41.0461,289.8351],[0.2202,41.0417,294.1429],[0.2178,41.0437,284.3521],[0.2178,41.0466,284.5186],[0.2209,41.0498,282.4394],[0.2302,41.0539,274.9681],[0.2288,41.0588,293.0255],[0.2223,41.0592,269.264],[0.2182,41.0629,265.8681],[0.2204,41.0715,261.0264],[0.1969,41.068,330.0952],[0.1673,41.0708,454.414],[0.1459,41.0631,407.9668],[0.1446,41.0658,364.4345],[0.1268,41.0718,342.5],[0.1183,41.0768,307.619],[0.0933,41.0801,448.9993],[0.0725,41.0794,474.1841],[0.0576,41.0751,456.1308],[0.0547,41.0685,510.2818],[0.0557,41.0667,502.08],[0.0511,41.0592,498.5839],[0.0519,41.0548,505.7903],[0.0497,41.053,500.6044],[0.0467,41.0534,496.6919],[0.0413,41.0484,483.5366],[0.037,41.0466,488.1064],[0.0251,41.0648,370.5688],[0.0194,41.0679,353.9335],[0.0132,41.0747,359.857],[0.0114,41.079,329.423],[0.0004,41.0893,285.3091],[-0.0048,41.097,264.787],[-0.0086,41.104,252.1416],[-0.0122,41.1203,220.5],[-0.0257,41.1281,244.1416],[-0.0382,41.1291,262.9164],[-0.0433,41.134,264.0765],[-0.0532,41.1387,283.1133],[-0.0714,41.144,319.5317],[-0.0784,41.1506,413.477],[-0.1035,41.1496,390.358],[-0.1224,41.1567,279.9633],[-0.1345,41.1628,272.83],[-0.1504,41.1743,258.2718],[-0.1803,41.1879,193.2837],[-0.2054,41.192,229.4011],[-0.2224,41.1889,305.5649],[-0.2252,41.19,304.6644],[-0.2321,41.1959,284.9305],[-0.2431,41.2098,244.3087],[-0.247,41.2122,236.9863],[-0.2686,41.215,253.8008],[-0.2726,41.218,238.6412],[-0.2786,41.2268,211.3758],[-0.3133,41.2557,168.0912],[-0.318,41.2576,157.0025],[-0.3237,41.2553,149.2331],[-0.323,41.2456,154.9507],[-0.3305,41.2445,172.0063],[-0.3372,41.2414,165.9833],[-0.3399,41.2442,195.7834],[-0.358,41.253,263.2446],[-0.3779,41.2655,255.0844],[-0.3858,41.2655,251.8634],[-0.4058,41.2724,279.7631],[-0.4113,41.2791,252.4105],[-0.4204,41.2855,221.5816],[-0.4287,41.2941,179.1651],[-0.4257,41.298,175.737],[-0.4269,41.3029,171.742],[-0.4247,41.3051,169.0614],[-0.4266,41.3085,166.7544],[-0.4207,41.3118,178.1255],[-0.4242,41.3122,159.6317],[-0.4242,41.3135,159.6317],[-0.444,41.3132,236.6918],[-0.4594,41.3183,295.7269],[-0.4597,41.316,299.8707],[-0.4701,41.3183,300.092],[-0.4747,41.3241,271.3389],[-0.4799,41.346,173.8686],[-0.4985,41.353,179.1672],[-0.5101,41.3541,182.324],[-0.5214,41.3505,189.1803],[-0.5225,41.3484,190.7041],[-0.5434,41.349,197.6609],[-0.5506,41.3455,204.0677],[-0.5589,41.3543,210.3873],[-0.5677,41.3539,213.8946],[-0.5817,41.3481,226.5251],[-0.5818,41.3214,332.7908],[-0.5773,41.314,331.4863],[-0.5655,41.3033,312.0853],[-0.5516,41.3029,297.8073],[-0.5448,41.3006,294.8335],[-0.5447,41.2989,289.2388],[-0.5351,41.2947,288.7113],[-0.5271,41.2882,249.9104],[-0.5081,41.2558,270.0872],[-0.5068,41.2471,279.102],[-0.5096,41.2383,277.9093],[-0.5141,41.2346,276.9222],[-0.5315,41.2278,303.5517],[-0.5422,41.247,299.1114],[-0.5484,41.2678,292.9492],[-0.5749,41.2952,319.5768],[-0.6052,41.3233,291.7011],[-0.6297,41.3118,362.1586],[-0.6319,41.3018,364.8004],[-0.6272,41.28,338.5159],[-0.6287,41.2598,349.1255],[-0.6254,41.2482,365.5424],[-0.6427,41.2384,400.6329],[-0.6631,41.2394,424.886],[-0.6692,41.2369,441.3078],[-0.6605,41.2297,435.015],[-0.6389,41.2172,402.3185],[-0.6287,41.2044,398.8401],[-0.6218,41.1988,406.4819],[-0.6113,41.1948,405.7586],[-0.6099,41.1917,410.6098],[-0.6218,41.1843,439.8559],[-0.6241,41.1799,445.8561],[-0.6408,41.171,480.1397],[-0.6445,41.1654,501.2986],[-0.665,41.146,582.6774],[-0.672,41.1342,717.1191],[-0.6719,41.13,731.6907],[-0.6803,41.1208,755.0225],[-0.6939,41.1123,907.3364],[-0.6965,41.1155,895.4792],[-0.7121,41.1218,946.2145],[-0.7155,41.1247,914.8407],[-0.7138,41.1263,910.285],[-0.7223,41.1335,886.1888],[-0.7223,41.1377,892.0859],[-0.7258,41.138,902.2051],[-0.7277,41.1439,919.7491],[-0.7332,41.1452,924.9235],[-0.7359,41.1507,861.2027],[-0.7453,41.1573,743.4399],[-0.7464,41.1618,722.4581],[-0.7507,41.1654,657.0031],[-0.7614,41.1697,707.5084],[-0.7649,41.1641,726.4122],[-0.7648,41.1589,754.1163],[-0.7763,41.1526,806.5518],[-0.7805,41.1474,830.4647],[-0.7816,41.1438,841.3237],[-0.7795,41.138,863.1381],[-0.7846,41.1366,840.8236],[-0.7824,41.1265,781.7306],[-0.7837,41.1176,829.5517],[-0.7915,41.1115,839.999],[-0.7885,41.1079,824.2921],[-0.799,41.1033,780.6969],[-0.8085,41.1015,708.3989],[-0.8114,41.1023,684.2077],[-0.8117,41.1008,683.5999],[-0.8285,41.0964,687.5569],[-0.8598,41.108,715.0667],[-0.8713,41.1165,811.0911],[-0.8711,41.1194,783.8743],[-0.8755,41.1212,776.2978],[-0.8836,41.1301,808.4538],[-0.8834,41.1354,776.9856],[-0.886,41.1409,728.8899],[-0.8832,41.1488,675.5359],[-0.8895,41.1473,690.6528],[-0.8914,41.1452,718.4277],[-0.8936,41.1325,788.0394],[-0.8905,41.1256,849.4368],[-0.8933,41.1225,850.7297],[-0.9004,41.1192,827.92],[-0.9016,41.1119,864.1643],[-0.9153,41.1052,801.1462],[-0.9125,41.093,810.8337],[-0.9377,41.0834,932.6771],[-0.9449,41.0753,926.4277],[-0.9572,41.0764,867.4966],[-0.9594,41.0744,846.6917],[-0.958,41.0714,863.2153],[-0.9588,41.0669,862.9165],[-0.9613,41.064,864.4475],[-0.9583,41.0616,895.3593],[-0.9601,41.0569,902.1234],[-0.9571,41.0462,921.8976],[-0.9621,41.0344,962.4578],[-0.9659,41.0329,956.8786],[-0.9717,41.0262,974.5688],[-0.9719,41.0235,971.7389],[-0.9641,41.0189,986.5184],[-0.9588,41.0325,957.1078],[-0.951,41.0452,949.9512],[-0.9506,41.0493,936.8348],[-0.9343,41.0585,911.7336],[-0.9246,41.0554,926.1581],[-0.917,41.0492,887.4411],[-0.9053,41.0447,887.0549],[-0.8901,41.0358,877.6144],[-0.8885,41.0326,879.2354],[-0.8576,41.0194,884.4047],[-0.8458,41.0258,838.3763],[-0.8437,41.0288,843.8505],[-0.835,41.0227,818.769],[-0.8311,41.0228,809.8012],[-0.8138,41.0137,837.1005],[-0.8114,41.0158,822.1254],[-0.8074,41.0125,842.1302],[-0.8075,41.0001,836.4374],[-0.801,40.9976,784.5928],[-0.7996,40.9955,777.5796],[-0.7903,40.9926,729.6616],[-0.7781,40.9918,701.2711],[-0.7734,40.995,662.8448],[-0.7591,40.9941,638.2299],[-0.7442,40.9962,616.0914],[-0.7333,40.9942,645.116],[-0.7297,40.9905,684.187],[-0.7014,40.9869,716.0564],[-0.7003,40.9848,621.0353],[-0.6908,40.981,625.3351],[-0.6767,40.9799,681.8741],[-0.666,40.9755,745.1252],[-0.6655,40.973,800.9881],[-0.66,40.9701,793.6683],[-0.6639,40.9623,798.9011],[-0.6614,40.96,790.6194],[-0.6612,40.9562,793.3121],[-0.6558,40.9506,797.604],[-0.6409,40.9446,794.2303],[-0.6324,40.9377,789.405],[-0.634,40.9345,800.1709],[-0.6297,40.9368,803.9834],[-0.6274,40.9364,812.4529],[-0.6249,40.9402,807.8418],[-0.6111,40.939,757.5712],[-0.5938,40.9482,621.5],[-0.5869,40.9422,727.6106],[-0.5797,40.9387,765.5125],[-0.552,40.9317,821.1952],[-0.5439,40.9264,790.6395],[-0.5197,40.9172,884.2685],[-0.5221,40.9118,905.0505],[-0.5348,40.8993,843.8481],[-0.5431,40.8818,895.4855],[-0.5498,40.8726,929.1443],[-0.5594,40.8662,960.1506],[-0.5572,40.8471,1078.3071],[-0.5513,40.8474,975.4539],[-0.5466,40.8436,1028.6549],[-0.5461,40.8396,1058.5883],[-0.5507,40.8352,1040.6974],[-0.5571,40.8233,1075.6863],[-0.5551,40.8256,1066.8842],[-0.5499,40.8258,1062.6901],[-0.5322,40.8167,929.5469],[-0.5233,40.8157,895.5524],[-0.504,40.7882,1118.6865],[-0.5035,40.7808,1137.7908],[-0.4972,40.7795,1148.646],[-0.493,40.7746,1095.9441],[-0.4954,40.7722,1119.9028],[-0.4961,40.7672,1134.4958],[-0.4884,40.7618,1227.9521],[-0.4795,40.7513,1211.0908],[-0.4815,40.7452,1146.8623],[-0.4868,40.739,1207.3721],[-0.4903,40.7315,1160.8677],[-0.4894,40.7233,1161.38],[-0.4832,40.7129,1149.3118],[-0.4775,40.7121,1154.7393],[-0.47,40.7029,1105.6965],[-0.4789,40.6974,1031.2012],[-0.4714,40.6859,901.6073],[-0.4684,40.6841,751.1357],[-0.4602,40.693,715.6729],[-0.448,40.6952,724.6393],[-0.4455,40.6985,687.5455],[-0.4415,40.7,684.9667],[-0.436,40.7002,718.4479],[-0.4304,40.6977,689.9604],[-0.4282,40.701,699.1595],[-0.407,40.6943,1112.8464],[-0.4041,40.6811,1181.7253],[-0.4021,40.6781,1183.7991],[-0.381,40.6708,1018.5336],[-0.3815,40.6616,897.6359],[-0.378,40.6674,933.1959],[-0.372,40.6673,912.3549],[-0.3703,40.669,895.7557],[-0.3728,40.6706,927.0154],[-0.3696,40.6701,895.7557],[-0.3705,40.672,867.4885],[-0.3561,40.6777,978.6682],[-0.3288,40.6803,821.5286],[-0.3258,40.678,844.8398],[-0.3221,40.6777,850.2413],[-0.32,40.6678,922.8073],[-0.3169,40.6636,938.5287],[-0.3069,40.6595,1083.2207],[-0.3061,40.664,1081.3979],[-0.299,40.6677,1100.8542],[-0.2936,40.674,1063.0989],[-0.2894,40.6722,1059.7705],[-0.2789,40.6802,1078.5461],[-0.2609,40.6851,1074.6313],[-0.25,40.6908,1064.2395],[-0.2359,40.6911,1088.9695],[-0.2375,40.698,974.5011],[-0.2335,40.7086,976.1346],[-0.2363,40.7097,983.9313],[-0.2392,40.7181,944.1832],[-0.2371,40.7238,938.8024],[-0.2328,40.7262,924.3779],[-0.2316,40.7328,924.5692],[-0.2292,40.7357,921.6633],[-0.2304,40.7383,930.071],[-0.2268,40.7438,936.1041],[-0.227,40.7477,904.895],[-0.224,40.7542,919.7492],[-0.213,40.7581,907.8961],[-0.2104,40.7674,878.2548],[-0.2058,40.771,886.3688],[-0.2055,40.7734,889.2732],[-0.2024,40.7748,866.891],[-0.2007,40.7772,904.7983],[-0.2017,40.7796,909.5123],[-0.1944,40.7818,837.0272],[-0.1971,40.7845,855.537],[-0.1667,40.7858,848.4878],[-0.1649,40.7887,852.7717],[-0.1445,40.7855,534.5211],[-0.1471,40.7751,821.6123],[-0.1438,40.7687,849.9292],[-0.1385,40.7663,881.0272],[-0.1331,40.758,899.3375],[-0.1257,40.7529,867.7047],[-0.1129,40.7483,841.7173],[-0.1074,40.7434,774.3401],[-0.0864,40.7382,840.5778],[-0.0804,40.7337,897.8563],[-0.0647,40.7274,1088.3181],[-0.0559,40.7268,956.3405],[-0.0537,40.7279,892.2009],[-0.0307,40.7226,1168.7485],[-0.0286,40.7263,1139.592],[-0.0226,40.7302,1055.3092],[-0.0177,40.7312,1083.1072],[0.0158,40.7285,990.5001],[0.018,40.7259,997.0726],[0.0161,40.7233,995.1602],[0.0188,40.7196,974.2049],[0.0239,40.7176,977.9241],[0.0284,40.7132,1029.5447],[0.0245,40.7073,1061.2339],[0.0243,40.7024,1098.7241],[0.0269,40.7004,1176.3445],[0.0265,40.695,1225.9901],[0.0422,40.691,1052.4026],[0.0727,40.7143,1181.4738],[0.1125,40.7272,1280.0425]]]]}
,"properties": {"GID_3": "ESP.2.2.1_1","GID_0": "ESP","country": "Spain","GID_1": "ESP.2_1","province": "Aragón","NL_NAME_1": "NA","GID_2": "ESP.2.2_1","county": "Teruel","NL_NAME_2": "NA","city": "n.a.(248)","VARNAME_3": "NA","NL_NAME_3": "NA","TYPE_3": "Comarca","ENGTYPE_3": "Comarca","CC_3": "NA","HASC_3": "NA","name": "n.a.(248).city","area_km2": 4018.937,"hist_schema_id": "Elevation0-9000","hist_area_km2": {"150": 0.494,"175": 6.709,"200": 17.818,"225": 48.439,"250": 99.754,"275": 131.499,"300": 108.427,"325": 139.242,"350": 166.353,"375": 152.775,"400": 163.36,"425": 156.181,"450": 156.015,"475": 162.996,"500": 155.245,"525": 162.411,"550": 159.682,"575": 153.47,"600": 143.013,"625": 125.945,"650": 125.728,"675": 122.329,"700": 127.786,"725": 135.529,"750": 138.637,"775": 150.704,"800": 147.133,"825": 135.416,"850": 102.344,"875": 74.3,"900": 58.27,"925": 50.552,"950": 42.553,"975": 35.023,"1000": 30.439,"1025": 27.214,"1050": 23.057,"1075": 18.934,"1100": 17.105,"1125": 14.537,"1150": 11.581,"1175": 7.951,"1200": 4.353,"1225": 2.297,"1250": 1.976,"1275": 1.526,"1300": 0.852,"1325": 0.594,"1350": 0.337,"1375": 0.048}}}