{"type": "Feature","bbox": [-3.5405,40.8413,-2.4694,41.3276],"geometry": {"type": "MultiPolygon","coordinates": [[[[-3.3217,40.8459,925.4457],[-3.3194,40.8421,937.692],[-3.3057,40.8452,931.4506],[-3.3008,40.844,929.7271],[-3.3003,40.8425,927.0524],[-3.2975,40.8433,930.4019],[-3.2883,40.8413,932.4506],[-3.2868,40.8426,931.4455],[-3.2872,40.8477,936.2397],[-3.2857,40.8466,930.622],[-3.2748,40.8612,949.4862],[-3.2625,40.8672,931.1983],[-3.2617,40.8722,938.4569],[-3.2596,40.8748,942.0892],[-3.2546,40.8758,929.8933],[-3.2479,40.8809,945.6469],[-3.2458,40.8723,954.5314],[-3.2022,40.8777,841.3458],[-3.1933,40.8768,807.3304],[-3.1788,40.879,771.2477],[-3.1721,40.883,817.4708],[-3.1415,40.8836,876.7266],[-3.1326,40.8858,754.9437],[-3.1193,40.8837,729.6418],[-3.1183,40.8932,732.6786],[-3.1133,40.8967,741.4808],[-3.1098,40.8968,731.7877],[-3.1105,40.8937,771.9988],[-3.1051,40.891,757.076],[-3.0996,40.8907,741.9292],[-3.0934,40.9,736.4726],[-3.0885,40.9024,751.8489],[-3.083,40.9083,739.7483],[-3.0772,40.9092,743.5157],[-3.0704,40.914,838.9676],[-3.0659,40.9141,810.4254],[-3.068,40.916,822.1737],[-3.0604,40.9215,775.4766],[-3.0486,40.9194,853.9359],[-3.0325,40.9226,843.808],[-3.0354,40.9287,878.6571],[-3.0335,40.9337,869.6248],[-3.0191,40.931,871.6035],[-3.0056,40.9254,838.3182],[-2.9897,40.9114,783.939],[-2.9876,40.9078,771.1594],[-2.9907,40.9018,771.5934],[-2.989,40.9038,768.0121],[-2.9762,40.9029,776.8597],[-2.9596,40.9176,790.1176],[-2.963,40.9243,813.6935],[-2.9616,40.9274,822.7529],[-2.9619,40.9514,902.495],[-2.9688,40.9632,888.8821],[-2.9721,40.9744,934.2003],[-2.9643,40.9712,923.1339],[-2.9607,40.972,909.022],[-2.9559,40.9693,877.7292],[-2.9479,40.9681,817.9072],[-2.9368,40.9706,816.598],[-2.927,40.9708,882.0167],[-2.9238,40.9671,849.3134],[-2.9218,40.9597,820.0519],[-2.9226,40.9529,796.0209],[-2.9139,40.9484,798.6021],[-2.9106,40.9421,799.7532],[-2.9048,40.9473,815.2507],[-2.9025,40.9467,806.7994],[-2.9011,40.9505,824.4648],[-2.8955,40.9546,835.0347],[-2.8929,40.9533,825.7358],[-2.885,40.966,893.2388],[-2.8624,40.9559,861.34],[-2.8454,40.9571,846.9976],[-2.8346,40.9597,871.5278],[-2.831,40.9622,865.293],[-2.8232,40.9779,905.4448],[-2.8175,40.9828,925.2159],[-2.8167,40.9858,936.42],[-2.8127,40.9873,939.3859],[-2.8006,40.9806,847.0453],[-2.7955,40.9818,892.1105],[-2.7913,40.9802,943.1826],[-2.7838,40.9834,980.1589],[-2.7674,40.9839,969.7307],[-2.7536,40.9863,982.9128],[-2.7418,40.9825,980.5111],[-2.7345,40.9837,1005.465],[-2.7276,40.9904,1010.0026],[-2.7198,40.9914,1013.1534],[-2.7113,40.9957,1016.0965],[-2.7074,40.998,1045.5447],[-2.7055,41.0018,1012.0421],[-2.7026,41.0007,1029.2314],[-2.6971,40.9944,972.1567],[-2.6931,40.9946,1000.4114],[-2.682,40.9896,1108.1979],[-2.6768,40.9905,1045.5759],[-2.6675,40.9961,1112.4143],[-2.6565,40.9901,1128.2808],[-2.6421,40.9892,1114.2307],[-2.6366,40.993899999999996,1098.5011],[-2.6311,40.9961,1090.7589],[-2.614,40.9977,1071.3887],[-2.6059,41.0047,1112.6586],[-2.6032,41.0097,1099.5627],[-2.5977,41.0093,1122.7937],[-2.5928,41.006,1129.1016],[-2.5895,41.0085,1145.2515],[-2.5798,41.001,1158.9094],[-2.5785,40.9882,1135.2491],[-2.5687,40.9839,1139.323],[-2.5514,40.9913,1166.5791],[-2.5474,40.9946,1160.7146],[-2.523,41.001,1145.6465],[-2.5069,41.0212,1198.5286],[-2.495,41.0271,1162.8313],[-2.496,41.0365,1180.2786],[-2.5061,41.0392,1207.5925],[-2.5019,41.0421,1190.8264],[-2.5006,41.0452,1173.2728],[-2.5012,41.0598,1154.8951],[-2.4991,41.0645,1145.4241],[-2.4815,41.078,1189.473],[-2.4694,41.0781,1206.4788],[-2.4694,41.0898,1201.2903],[-2.4803,41.1136,1251.7156],[-2.4854,41.1179,1283.7452],[-2.5036,41.1175,1174.3682],[-2.5088,41.118899999999996,1190.6576],[-2.5116,41.1315,1210.4404],[-2.5173,41.137,1158.0425],[-2.5169,41.1465,1205.8726],[-2.5364,41.1625,1231.7529],[-2.5418,41.1511,1220.6685],[-2.5551,41.1467,1216.3141],[-2.5675,41.1449,1207.8088],[-2.5755,41.1395,1183.7455],[-2.5812,41.1408,1182.2086],[-2.596,41.1516,1106.6562],[-2.5936,41.1566,1125.8557],[-2.5848,41.1614,1112.1008],[-2.5826,41.1644,1153.9016],[-2.5771,41.1778,1158.5824],[-2.5781,41.1793,1197.4943],[-2.6025,41.1887,1221.8145],[-2.6193,41.1833,1174.6737],[-2.622,41.188,1212.9414],[-2.6199,41.1954,1210.9327],[-2.6057,41.1936,1221.5586],[-2.6008,41.1948,1224.1099],[-2.5931,41.2009,1140.719],[-2.5873,41.2138,1138.7727],[-2.5894,41.2245,1156.8678],[-2.6169,41.2194,1198.8442],[-2.6238,41.2237,1182.4983],[-2.6291,41.2152,1218.4839],[-2.6362,41.2238,1172.8025],[-2.6346,41.2319,1133.9983],[-2.6451,41.2379,1105.785],[-2.6459,41.2402,1121.4067],[-2.6548,41.2407,1134.8507],[-2.6692,41.2371,1166.1213],[-2.6953,41.2456,1134.1438],[-2.7095,41.252,1117.9003],[-2.714,41.2611,1138.8904],[-2.7167,41.2757,1161.6711],[-2.73,41.2717,1144.3529],[-2.7609,41.274,1147.3818],[-2.7673,41.2692,1164.6169],[-2.7764,41.2575,1183.6758],[-2.7754,41.2501,1212.3386],[-2.7824,41.2538,1203.9146],[-2.8035,41.2565,1237.1891],[-2.8222,41.2566,1215.6082],[-2.8217,41.2584,1211.8074],[-2.8324,41.2636,1238.0146],[-2.8668,41.2745,1133.7234],[-2.8636,41.2813,1176.2628],[-2.864,41.2874,1253.1885],[-2.8658,41.2918,1257.637],[-2.873,41.2985,1215.3838],[-2.8668,41.3131,1206.0317],[-2.8689,41.3171,1173.598],[-2.8754,41.3214,1168.2731],[-2.8826,41.3218,1177.6434],[-2.8884,41.3252,1194.5376],[-2.8979,41.3248,1172.2834],[-2.9066,41.3276,1202.5461],[-2.9109,41.3212,1223.2502],[-2.9242,41.3186,1211.0637],[-2.934,41.3134,1227.5939],[-2.9411,41.3139,1238.4343],[-2.94,41.306,1243.0231],[-2.944,41.2975,1247.0066],[-2.9501,41.2926,1249.5725],[-2.966,41.2932,1266.7252],[-2.9674,41.2919,1264.5896],[-2.9792,41.2908,1350.4728],[-3.0059,41.2844,1361.6401],[-3.0113,41.2854,1357.7285],[-3.0179,41.2891,1442.2594],[-3.0355,41.2812,1455.1183],[-3.0606,41.2765,1519.23],[-3.0618,41.2734,1521.5833],[-3.0729,41.2778,1509.5856],[-3.0834,41.2797,1497.3076],[-3.0899,41.2834,1477.0785],[-3.0938,41.284,1467.0258],[-3.0978,41.2799,1476.059],[-3.1001,41.2801,1461.9271],[-3.1086,41.2879,1483.3914],[-3.125,41.2909,1486.8514],[-3.13,41.2882,1420.1201],[-3.1412,41.2922,1441.1606],[-3.1483,41.292,1430.7628],[-3.1648,41.2954,1483.9419],[-3.1708,41.299,1502.756],[-3.1785,41.2998,1485.1633],[-3.1885,41.3039,1491.0779],[-3.1921,41.3027,1481.1826],[-3.1997,41.3044,1484.9635],[-3.2036,41.3032,1464.3657],[-3.2073,41.3042,1491.5121],[-3.215,41.2984,1406.6886],[-3.2262,41.2981,1398.3378],[-3.2389,41.2879,1289.6538],[-3.2378,41.2855,1342.2068],[-3.24,41.2851,1311.6794],[-3.2398,41.283,1297.4127],[-3.2378,41.2794,1343.0764],[-3.2548,41.2577,1439.4495],[-3.259,41.2697,1447.1536],[-3.2667,41.2719,1517.0144],[-3.271,41.2752,1584.178],[-3.2757,41.275,1656.8995],[-3.2878,41.2659,1600.7731],[-3.2901,41.2579,1643.5634],[-3.2978,41.257,1604.0957],[-3.3027,41.2577,1574.3645],[-3.3063,41.2606,1576.0894],[-3.3128,41.2617,1546.0972],[-3.321,41.2606,1512.9841],[-3.3227,41.2618,1540.4146],[-3.3299,41.2588,1572.8286],[-3.3304,41.2555,1619.3519],[-3.3363,41.253,1697.724],[-3.3456,41.256,1737.9137],[-3.3564,41.2562,1731.1243],[-3.3693,41.2604,1762.3679],[-3.3942,41.257,1781.4305],[-3.4061,41.2618,1939.2112],[-3.4097,41.2606,1893.1018],[-3.4151,41.2732,1559.5497],[-3.4142,41.265,1730.8888],[-3.4106,41.2599,1890.7667],[-3.4057,41.2596,1973.1346],[-3.3994,41.2545,2020.4067],[-3.4002,41.2493,1943.5288],[-3.3979,41.2433,1947.0306],[-3.4062,41.2336,1901.4266],[-3.4029,41.2282,1889.5691],[-3.4041,41.218,1828.1409],[-3.4024,41.2136,1909.8793],[-3.4091,41.2118,1819.4537],[-3.42,41.2164,1709.7493],[-3.4251,41.2142,1767.4286],[-3.4441,41.2153,1840.7079],[-3.4602,41.191,2179.7261],[-3.4665,41.1888,2068.0344],[-3.4687,41.1862,2131.0195],[-3.4668,41.1833,2215.9019],[-3.4745,41.1837,2180.2852],[-3.4816,41.1803,2166.9424],[-3.4869,41.181,2064.0718],[-3.4936,41.1775,2062.6304],[-3.5006,41.1791,1975.7883],[-3.5072,41.1688,1898.1415],[-3.5095,41.1686,1867.4792],[-3.5158,41.1624,1832.808],[-3.527,41.1662,1859.2235],[-3.5397,41.165,2120.4976],[-3.5365,41.1604,2046.0344],[-3.5405,41.1505,1976.1637],[-3.5334,41.1471,1838.6495],[-3.5292,41.1407,1573.9531],[-3.5111,41.1342,1485.6208],[-3.4995,41.1237,1355.27],[-3.4921,41.1135,1367.0222],[-3.4923,41.1075,1303.9487],[-3.4894,41.1047,1272.6559],[-3.4907,41.1005,1272.0881],[-3.488,41.0941,1233.4167],[-3.4833,41.0929,1283.9263],[-3.4755,41.0957,1248.7263],[-3.4566,41.0874,1193.5436],[-3.4556,41.0845,1181.079],[-3.4485,41.0817,1172.5852],[-3.4323,41.0849,1161.9255],[-3.4258,41.0834,1135.5806],[-3.4278,41.0822,1142.2567],[-3.4257,41.0733,1148.4241],[-3.4274,41.0658,1214.9911],[-3.4328,41.0628,1266.4648],[-3.4316,41.0586,1260.6249],[-3.4354,41.0535,1317.9863],[-3.4345,41.0493,1357.8495],[-3.4379,41.0467,1454.691],[-3.4382,41.0426,1601.7992],[-3.4308,41.0415,1668.3481],[-3.4289,41.0399,1655.1257],[-3.422,41.026,1671.7673],[-3.3976,41.0074,1723.9263],[-3.3945,41.0003,1754.095],[-3.4004,40.9957,1743.7413],[-3.4181,40.9876,1643.7299],[-3.4166,40.9773,1509.1492],[-3.4215,40.9673,1463.2368],[-3.4277,40.9603,1431.0607],[-3.4313,40.9493,1173.0328],[-3.4349,40.9461,1126.1311],[-3.4336,40.9376,954.6084],[-3.4356,40.9337,1049.5863],[-3.4471,40.9224,944.0695],[-3.4464,40.9188,885.1508],[-3.4494,40.9129,755.9279],[-3.4445,40.9082,746.1274],[-3.4516,40.9064,741.3197],[-3.458,40.9092,752.6954],[-3.46,40.9083,734.5611],[-3.4604,40.9052,771.4862],[-3.4583,40.9023,748.353],[-3.4607,40.9006,769.9856],[-3.4601,40.8986,781.6969],[-3.4543,40.899,740.9509],[-3.4506,40.8952,753.8611],[-3.4474,40.8961,731.2103],[-3.4402,40.8919,743.1011],[-3.4441,40.8879,725.4921],[-3.4397,40.8779,703.9717],[-3.4219,40.8699,864.8512],[-3.4143,40.8733,910.5422],[-3.4052,40.8684,774.0737],[-3.4023,40.8623,723.5518],[-3.4007,40.8623,723.5518],[-3.3995,40.8649,725.973],[-3.3885,40.8651,732.4034],[-3.3859,40.8696,736.1664],[-3.3831,40.8711,738.2985],[-3.3753,40.8676,770.2046],[-3.3622,40.8669,766.3745],[-3.3462,40.8714,852.3832],[-3.3399,40.8766,867.3214],[-3.3317,40.8734,832.0026],[-3.3289,40.8747,849.6997],[-3.3269,40.8715,807.9219],[-3.3226,40.869,841.6584],[-3.3215,40.8664,855.6304],[-3.3227,40.8645,827.862],[-3.3179,40.856,895.2886],[-3.3215,40.854,862.5065],[-3.32,40.8485,923.2034],[-3.3217,40.8459,925.4457]]]]}
,"properties": {"GID_3": "ESP.4.4.5_1","GID_0": "ESP","country": "Spain","GID_1": "ESP.4_1","province": "Castilla-LaMancha","NL_NAME_1": "NA","GID_2": "ESP.4.4_1","county": "Guadalajara","NL_NAME_2": "NA","city": "n.a.(123)","VARNAME_3": "NA","NL_NAME_3": "NA","TYPE_3": "Comarca","ENGTYPE_3": "Comarca","CC_3": "NA","HASC_3": "NA","name": "n.a.(123).city","area_km2": 2906.915,"hist_schema_id": "Elevation0-9000","hist_area_km2": {"700": 0.064,"725": 2.452,"750": 8.255,"775": 14.759,"800": 22.943,"825": 39.514,"850": 57.095,"875": 74.652,"900": 95.251,"925": 112.75,"950": 139.913,"975": 138.673,"1000": 160.819,"1025": 168.286,"1050": 158.983,"1075": 162.121,"1100": 166.185,"1125": 149.851,"1150": 145.195,"1175": 115.842,"1200": 96.787,"1225": 77.682,"1250": 55.636,"1275": 47.558,"1300": 48.235,"1325": 53.043,"1350": 63.426,"1375": 71.039,"1400": 65.52,"1425": 54.324,"1450": 44.023,"1475": 37.372,"1500": 32.413,"1525": 28.105,"1550": 22.536,"1575": 20.797,"1600": 19.185,"1625": 18.147,"1650": 17.653,"1675": 15.289,"1700": 12.96,"1725": 11.364,"1750": 9.385,"1775": 8.602,"1800": 7.118,"1825": 5.665,"1850": 4.708,"1875": 4.341,"1900": 3.719,"1925": 3.495,"1950": 2.649,"1975": 2.043,"2000": 2.33,"2025": 1.676,"2050": 1.277,"2075": 0.686,"2100": 0.734,"2125": 0.654,"2150": 0.335,"2175": 0.479,"2200": 0.287,"2225": 0.032}}}