{"type":"Feature","properties":{"GID_1":"ESP.12_1","GID_0":"ESP","country":"Spain","province":"Galicia","VARNAME_1":"Galice|Gal¡cia|Galicien|Galiza|G","NL_NAME_1":"NA","TYPE_1":"ComunidadAutónoma","ENGTYPE_1":"AutonomousCommunity","CC_1":"12","HASC_1":"ES.GA","ISO_1":"ES-GA","name":"Galicia.province"},
"geometry":{"type": "MultiPolygon","coordinates": [[[[-7.5272,41.8402,710.3943],[-7.5113,41.8466,610.7433],[-7.5056,41.8508,533.5366],[-7.5076,41.8556,643.6135],[-7.5133,41.8621,807.5149],[-7.5113,41.8653,795.3839],[-7.5022,41.8694,726.0727],[-7.4913,41.8712,678.4385],[-7.4852,41.8613,542.7062],[-7.4742,41.8638,433.1166],[-7.4525,41.8651,365.3174],[-7.4456,41.8578,365.4502],[-7.4488,41.8528,364.1566],[-7.4475,41.8449,376.9325],[-7.4437,41.8394,390.8703],[-7.4272,41.8331,360.9568],[-7.4258,41.8302,361.1303],[-7.4264,41.8263,359.8265],[-7.4303,41.8248,360.8363],[-7.4309,41.8229,360.6088],[-7.4247,41.8165,363.2625],[-7.4295,41.8124,374.2704],[-7.4276,41.8074,358.3216],[-7.4211,41.8113,366.124],[-7.4163,41.8116,365.9279],[-7.4157,41.8135,366.288],[-7.4088,41.8167,369.9874],[-7.4027,41.8218,381.277],[-7.4026,41.8255,379.3411],[-7.3976,41.8264,383.5883],[-7.3952,41.8295,382.6259],[-7.3948,41.8332,389.0081],[-7.3916,41.835,389.7019],[-7.3904,41.8423,401.2947],[-7.3862,41.8413,442.6737],[-7.3726,41.849,564.9973],[-7.3696,41.8488,624.5328],[-7.3658,41.8528,654.9526],[-7.3639,41.8528,678.6087],[-7.3564,41.8405,757.8528],[-7.3349,41.8451,1038.9198],[-7.3153,41.8425,935.7664],[-7.3051,41.8473,806.6605],[-7.301,41.8516,807.4335],[-7.2838,41.8522,691.8037],[-7.272,41.8596,752.1861],[-7.2622,41.8628,800.6614],[-7.2578,41.8659,803.1307],[-7.245,41.8688,595.5873],[-7.232,41.8673,644.6799],[-7.2195,41.8728,667.7866],[-7.2083,41.88,625.8039],[-7.2049,41.879,650.4164],[-7.1967,41.88,692.3254],[-7.1852,41.8964,726.9479],[-7.1816,41.9084,587.6255],[-7.182,41.9129,523.6537],[-7.1735,41.9191,545.3814],[-7.1787,41.921,565.4482],[-7.1755,41.9226,568.7334],[-7.1783,41.9253,557.0784],[-7.18,41.9317,553.7794],[-7.1838,41.933,561.7686],[-7.1852,41.9354,611.3729],[-7.1833,41.9377,586.4722],[-7.1858,41.9379,579.1847],[-7.1871,41.9415,571.4816],[-7.1895,41.9416,578.9827],[-7.1838,41.9447,604.3234],[-7.1874,41.9475,584.8997],[-7.1821,41.9518,612.4702],[-7.1833,41.9567,586.8704],[-7.1877,41.9567,603.2896],[-7.1853,41.9599,598.2296],[-7.1869,41.9663,582.6843],[-7.1854,41.9723,586.7473],[-7.1774,41.9802,669.5458],[-7.1649,41.9796,648.3251],[-7.1584,41.9762,656.1356],[-7.1544,41.98,840.1616],[-7.1519,41.9866,892.0062],[-7.1414,41.9907,975.4486],[-7.1331,41.988,1042.9312],[-7.119,41.9866,1138.2175],[-7.1111,41.9821,1073.0413],[-7.0875,41.9735,1116.9059],[-7.0846,41.964,1065.8881],[-7.0807,41.9574,854.2008],[-7.0769,41.9519,746.647],[-7.0734,41.95,781.6624],[-7.0654,41.9489,748.9957],[-7.0622,41.9505,754.2435],[-7.0537,41.9491,739.1119],[-7.049,41.9507,736.744],[-7.0461,41.9546,742.7148],[-7.043,41.955,744.3184],[-7.0364,41.9511,873.1997],[-7.0108,41.9494,982.6075],[-7.0062,41.9506,973.9866],[-6.9999,41.9618,987.3273],[-6.9834,41.9729,979.7968],[-6.9904,41.9826,971.0684],[-6.9915,41.9859,957.0869],[-6.9902,41.9897,976.9229],[-6.9863,41.9948,993.632],[-6.9869,41.997,1000.4512],[-6.9794,42.0002,1013.5721],[-6.9762,42.009,1052.5121],[-6.9695,42.0153,1142.9873],[-6.9663,42.0238,1373.1157],[-6.961,42.0272,1457.9175],[-6.9645,42.0337,1240.1316],[-6.973,42.0391,1343.3248],[-6.9746,42.0551,1635.1083],[-6.9945,42.0514,1306.5232],[-7.0125,42.0527,1105.5365],[-7.0219,42.0609,1353.9661],[-7.0309,42.0633,1456.5173],[-7.0339,42.0715,1413.2279],[-7.0334,42.0742,1391.1766],[-7.0199,42.0831,960.8871],[-7.0168,42.0812,981.1778],[-7.0123,42.0851,976.9111],[-7.0031,42.0839,984.5519],[-7.003,42.0877,984.0842],[-7.0002,42.0897,992.6849],[-7.002,42.091,1009.11],[-7.0027,42.0963,1006.3821],[-6.9978,42.1008,1015.8009],[-6.995,42.1016,1006.5812],[-6.9945,42.0997,1008.0562],[-6.9913,42.0995,1017.2858],[-6.9899,42.1025,1034.5],[-6.9921,42.1047,1047.0032],[-6.9917,42.1066,1067.5883],[-6.9893,42.1077,1034.5],[-6.9887,42.1119,1034.5],[-6.9908,42.1151,1034.5],[-6.989,42.1165,1048.8247],[-6.9897,42.1213,1041.3353],[-6.9863,42.1242,1042.5421],[-6.9814,42.1233,1216.0723],[-6.9732,42.1247,1325.0146],[-6.9652,42.1285,1425.8987],[-6.9563,42.1294,1405.2377],[-6.9444,42.1417,1330.9109],[-6.9465,42.1456,1215.1709],[-6.9409,42.1668,1487.2026],[-6.9434,42.1722,1520.9575],[-6.9382,42.1774,1486.8943],[-6.9146,42.1894,1601.2982],[-6.9109,42.1884,1642.772],[-6.9009,42.1896,1685.9089],[-6.8887,42.2018,1673.7828],[-6.8931,42.2072,1745.8828],[-6.8867,42.2143,1738.4387],[-6.8697,42.2237,1637.0892],[-6.8678,42.2231,1637.0892],[-6.8566,42.2271,1721.45],[-6.8435,42.2283,1625.6562],[-6.8296,42.2261,1683.8307],[-6.8158,42.2208,1761.8771],[-6.8022,42.2184,1795.7256],[-6.7966,42.209,1894.5441],[-6.7946,42.2122,1936.5544],[-6.787,42.2157,1936.5812],[-6.7908,42.2183,1889.6243],[-6.7949,42.2245,1951.6108],[-6.7949,42.2277,2007.1577],[-6.8017,42.2345,2007.4873],[-6.803,42.2387,2031.4871],[-6.8013,42.2408,2023.7168],[-6.7957,42.2423,2097.449],[-6.7928,42.2466,2064.2571],[-6.794,42.2494,2091.6934],[-6.7874,42.2542,1985.8877],[-6.7758,42.2555,2050.9526],[-6.774,42.2542,2078.9165],[-6.7669,42.2574,1938.6517],[-6.7646,42.2679,1878.0],[-6.7658,42.271,1860.0214],[-6.7552,42.2828,1791.1627],[-6.7524,42.2887,1688.3135],[-6.741,42.2986,1828.1794],[-6.743,42.3033,1782.7615],[-6.736,42.311,1811.4801],[-6.7363,42.3186,1781.9999],[-6.7396,42.3212,1781.6033],[-6.7339,42.318,1804.5729],[-6.7369,42.325,1810.7551],[-6.7406,42.3284,1844.6165],[-6.7381,42.3401,1797.9454],[-6.7389,42.3448,1775.821],[-6.7338,42.3591,1870.8273],[-6.7494,42.3628,1749.2657],[-6.7577,42.3675,1692.8053],[-6.7664,42.365,1454.1603],[-6.7688,42.373,1418.9977],[-6.774,42.3788,1441.7465],[-6.7878,42.3826,1270.2457],[-6.7958,42.382,1315.2988],[-6.8017,42.3837,1266.7361],[-6.8021,42.3863,1111.4404],[-6.8094,42.3846,1165.2904],[-6.8207,42.3856,901.6794],[-6.8233,42.3919,833.3298],[-6.8334,42.3954,516.8658],[-6.8434,42.4058,360.826],[-6.8379,42.4091,367.2704],[-6.8311,42.4083,421.0047],[-6.8288,42.4168,362.1684],[-6.8208,42.4214,420.7645],[-6.8247,42.4259,377.9111],[-6.8145,42.4269,390.3417],[-6.8216,42.4333,369.9298],[-6.8201,42.4377,372.4368],[-6.8222,42.4539,386.9343],[-6.8113,42.4612,394.4912],[-6.8085,42.4694,403.9097],[-6.8146,42.4739,610.2737],[-6.8191,42.4823,837.0959],[-6.8253,42.4857,687.856],[-6.8226,42.4908,736.3608],[-6.8266,42.4929,631.4163],[-6.8329,42.4922,481.826],[-6.8372,42.4956,512.3343],[-6.8409,42.4889,781.9115],[-6.8487,42.487,876.1375],[-6.8599,42.4887,847.1024],[-6.8766,42.4992,804.645],[-6.8971,42.5039,1020.8228],[-6.9062,42.5078,1062.7977],[-6.9131,42.5071,963.7187],[-6.9164,42.5084,973.0397],[-6.9146,42.5101,879.3885],[-6.9249,42.5194,840.0114],[-6.9321,42.5205,993.7687],[-6.9348,42.5192,1028.4612],[-6.9599,42.5177,1072.3972],[-6.9654,42.5127,1089.7563],[-6.9734,42.494,1463.8384],[-6.9789,42.4932,1501.6588],[-6.9972,42.4995,1490.2354],[-7.0006,42.502,1521.1732],[-7.0008,42.5057,1597.8171],[-7.0195,42.5015,1463.2201],[-7.0285,42.4978,1363.3859],[-7.0325,42.5043,1351.9183],[-7.0456,42.5078,1282.2769],[-7.0517,42.5086,1298.6704],[-7.0597,42.5066,1240.5942],[-7.0737,42.5067,1429.8335],[-7.0769,42.5082,1503.3953],[-7.0717,42.5104,1414.4502],[-7.0695,42.5132,1291.5889],[-7.0686,42.5182,1306.8921],[-7.0597,42.5293,1427.854],[-7.0618,42.5375,1430.5363],[-7.0674,42.5363,1392.1687],[-7.0708,42.5379,1404.8247],[-7.0641,42.5482,1282.0764],[-7.0645,42.551,1300.926],[-7.0688,42.5544,1256.0602],[-7.0626,42.5527,1368.7069],[-7.0558,42.5597,1327.733],[-7.057,42.5643,1222.3894],[-7.0546,42.5716,993.6606],[-7.0484,42.5725,821.1523],[-7.0456,42.5743,808.9467],[-7.0451,42.577,848.5399],[-7.034,42.5841,1284.9226],[-7.0347,42.5873,1281.4755],[-7.0442,42.5895,1243.9987],[-7.05,42.5979,1275.4503],[-7.0454,42.6042,1442.4869],[-7.047,42.6123,1447.0134],[-7.0457,42.6222,1550.026],[-7.0479,42.626,1557.6299],[-7.0469,42.6327,1554.59],[-7.0418,42.6361,1521.4724],[-7.0379,42.636,1530.9132],[-7.0316,42.6396,1472.9055],[-7.0289,42.6394,1465.0404],[-7.0177,42.6452,1307.1187],[-7.0129,42.6418,1371.6068],[-7.0042,42.6428,1424.7307],[-7.0089,42.6492,1159.2886],[-7.0213,42.6519,1078.1117],[-7.0203,42.6547,1069.5814],[-7.0125,42.6578,1000.825],[-7.0172,42.6611,1059.7186],[-7.0154,42.6646,963.9158],[-7.0206,42.6665,1030.2527],[-7.0216,42.6692,1016.0212],[-7.0317,42.6756,1053.2644],[-7.0339,42.684,1239.0488],[-7.045,42.6947,1324.1984],[-7.0366,42.7002,1060.9406],[-7.0289,42.7105,1380.6155],[-7.0249,42.7125,1391.2679],[-7.0198,42.7102,1274.9406],[-7.0215,42.714,1288.3917],[-7.0107,42.7236,1142.9592],[-7.0029,42.7238,1205.3993],[-6.9993,42.7269,1211.234],[-6.9941,42.7256,1228.157],[-6.99,42.7266,1258.2365],[-6.9836,42.7187,1326.5702],[-6.9727,42.725,1106.6263],[-6.969,42.7294,1160.9391],[-6.9727,42.7379,1137.8169],[-6.9666,42.7387,1042.8124],[-6.9658,42.7423,1101.8491],[-6.9677,42.7475,1135.1285],[-6.9593,42.755,1257.6687],[-6.9564,42.7556,1274.9199],[-6.9468,42.7415,1241.4604],[-6.9355,42.7408,1226.9427],[-6.904,42.7595,1694.0736],[-6.8992,42.7651,1746.274],[-6.8961,42.7651,1751.7771],[-6.8977,42.7667,1726.6067],[-6.8968,42.7719,1768.5588],[-6.8906,42.7773,1718.1121],[-6.8797,42.7823,1580.5493],[-6.8756,42.7824,1665.1422],[-6.8673,42.7871,1622.1332],[-6.8639,42.7928,1620.5608],[-6.8644,42.7974,1641.2172],[-6.8686,42.7992,1730.249],[-6.8691,42.8008,1733.8929],[-6.8628,42.8069,1718.0933],[-6.8542,42.8106,1819.0752],[-6.8513,42.8187,1824.6176],[-6.8402,42.8233,1781.1305],[-6.844,42.8281,1697.9707],[-6.8412,42.8323,1819.168],[-6.8481,42.8334,1811.2076],[-6.853,42.8387,1786.6919],[-6.8594,42.8485,1470.1422],[-6.8711,42.8738,1179.6613],[-6.8336,42.882,1449.019],[-6.8403,42.8781,1458.9192],[-6.8373,42.8774,1460.1051],[-6.8353,42.8736,1493.3059],[-6.8197,42.8673,1653.032],[-6.8148,42.8708,1666.7175],[-6.8259,42.8769,1516.3782],[-6.8276,42.8799,1470.8208],[-6.8276,42.8886,1347.6429],[-6.833,42.8978,1049.8156],[-6.8438,42.9062,1048.2092],[-6.8479,42.9143,840.1595],[-6.824,42.915,1350.1602],[-6.8357,42.9163,1245.5378],[-6.8417,42.9282,1418.0934],[-6.8345,42.9409,1176.1406],[-6.8359,42.9577,1193.1654],[-6.8618,42.9793,964.2573],[-6.8647,42.9838,927.6443],[-6.8677,42.9837,982.6566],[-6.8716,42.9889,928.2128],[-6.8805,42.9913,1152.3556],[-6.8936,42.9879,1049.1013],[-6.9102,42.9901,969.1598],[-6.9219,43.0013,899.3167],[-6.9307,43.0046,815.0916],[-6.9323,43.0086,744.4843],[-6.9354,43.0103,736.4739],[-6.9405,43.0114,791.6478],[-6.9464,43.0324,752.9008],[-6.957,43.0367,448.7833],[-6.9559,43.0346,505.7004],[-6.9577,43.0335,468.1724],[-6.9578,43.0291,419.3542],[-6.9643,43.0265,276.9767],[-6.9605,43.0229,260.4196],[-6.9606,43.0212,260.4832],[-6.9638,43.0196,256.7441],[-6.9594,43.0144,264.3482],[-6.9619,43.012,268.446],[-6.9598,43.0072,268.8669],[-6.962,43.0057,268.0793],[-6.9598,43.0044,293.9345],[-6.9619,43.0008,272.8402],[-6.9559,42.9961,317.7401],[-6.9636,42.9957,293.6933],[-6.9637,42.9928,275.1794],[-6.9618,42.9938,303.3269],[-6.9621,42.9906,298.7253],[-6.972,42.994,624.093],[-6.9724,42.9963,654.033],[-6.975,42.9963,674.8499],[-6.9795,43.0048,616.7131],[-6.9836,43.004,799.9954],[-6.9857,43.0142,817.1897],[-6.997,43.0194,820.4394],[-6.9948,43.0263,850.0966],[-6.9968,43.0277,834.786],[-6.9911,43.0308,886.3162],[-6.9871,43.0292,859.2169],[-6.9818,43.0413,517.499],[-6.9778,43.0379,644.7369],[-6.9757,43.0319,710.4988],[-6.9723,43.0303,454.0028],[-6.9689,43.0327,448.0895],[-6.969,43.0351,445.022],[-6.9645,43.0346,296.692],[-6.9659,43.0377,251.5243],[-6.9632,43.0443,268.3885],[-6.9646,43.0504,296.9178],[-6.962,43.0524,297.6211],[-6.9679,43.0557,251.8981],[-6.966,43.0613,239.0841],[-6.9611,43.0611,246.2765],[-6.9559,43.0635,310.1636],[-6.9572,43.0681,234.6246],[-6.9503,43.0682,224.7262],[-6.9517,43.0762,230.2158],[-6.9442,43.0774,224.0382],[-6.9401,43.0806,258.3918],[-6.938,43.0867,215.75],[-6.9341,43.0816,433.5914],[-6.9232,43.0818,700.0638],[-6.9155,43.0734,892.5295],[-6.9109,43.078,570.3639],[-6.9009,43.0838,227.9594],[-6.8989,43.088,308.8394],[-6.8938,43.0918,503.2359],[-6.8902,43.0905,549.6937],[-6.8712,43.0912,895.6396],[-6.8651,43.1011,927.9638],[-6.8564,43.1062,1090.6271],[-6.8555,43.1085,1113.5813],[-6.8515,43.109,1112.6318],[-6.8275,43.1231,1204.5419],[-6.8267,43.1313,1096.2385],[-6.8238,43.137,1054.3105],[-6.8245,43.1403,1049.0173],[-6.8214,43.1432,989.4337],[-6.8262,43.1458,819.9796],[-6.8297,43.1519,525.1308],[-6.8367,43.1576,348.9802],[-6.8388,43.1661,233.4568],[-6.8469,43.167,508.3887],[-6.8558,43.1722,504.4244],[-6.8617,43.1822,461.7913],[-6.8672,43.1819,331.5654],[-6.8716,43.1798,214.0],[-6.8681,43.19,220.986],[-6.8703,43.1878,236.9154],[-6.8745,43.1868,340.673],[-6.8764,43.1758,459.7418],[-6.8802,43.1702,607.369],[-6.8861,43.1667,645.6971],[-6.882,43.1605,622.9309],[-6.8853,43.1568,611.4104],[-6.8927,43.1549,720.3586],[-6.902,43.1551,712.5153],[-6.9057,43.1497,821.2881],[-6.9142,43.1469,949.113],[-6.9193,43.141,983.2039],[-6.9267,43.1405,799.9935],[-6.9295,43.1428,744.183],[-6.9372,43.1393,785.9821],[-6.9385,43.1329,1027.5436],[-6.9414,43.1318,998.7542],[-6.9572,43.1354,1153.918],[-6.957,43.1397,1180.9053],[-6.9614,43.1456,1142.6348],[-6.9649,43.1487,1009.9538],[-6.9733,43.1495,1022.6048],[-6.9806,43.1668,742.0911],[-6.9739,43.1789,740.3356],[-6.965,43.187,595.9439],[-6.9657,43.1947,431.7918],[-6.9709,43.2042,328.5467],[-6.9862,43.2021,609.0404],[-6.9926,43.2086,710.7258],[-7.0013,43.2072,722.9226],[-7.0094,43.2228,600.5427],[-7.0171,43.2216,634.247],[-7.0168,43.2148,702.3888],[-7.0199,43.2132,699.5663],[-7.034,43.2281,843.1058],[-7.0411,43.2286,774.1978],[-7.0464,43.2312,746.4479],[-7.0505,43.2378,772.8976],[-7.0614,43.244,852.7102],[-7.0651,43.2494,810.8176],[-7.0714,43.2712,805.2315],[-7.0704,43.2758,745.7971],[-7.069,43.2754,748.9711],[-7.0696,43.2794,745.7729],[-7.0663,43.2796,772.4926],[-7.0681,43.2832,758.4931],[-7.0645,43.2887,790.2269],[-7.0651,43.2991,811.8293],[-7.0596,43.3053,859.8615],[-7.0675,43.3069,887.5891],[-7.0738,43.3057,916.9156],[-7.0785,43.3004,910.0416],[-7.0973,43.3014,913.0829],[-7.1011,43.3041,851.6313],[-7.1071,43.3141,780.3645],[-7.1114,43.3163,788.791],[-7.1151,43.3261,580.8381],[-7.1255,43.3317,597.3663],[-7.1306,43.3302,498.1317],[-7.1302,43.3415,378.5131],[-7.1326,43.3477,162.6012],[-7.1281,43.3556,175.1761],[-7.1313,43.3634,438.8284],[-7.1274,43.3726,464.9862],[-7.1342,43.3774,546.9522],[-7.1369,43.3827,429.9988],[-7.1389,43.3833,417.9155],[-7.1503,43.3796,252.7221],[-7.1561,43.3745,202.6839],[-7.1594,43.3747,175.9731],[-7.1628,43.3802,129.6899],[-7.1671,43.3793,104.5399],[-7.1723,43.3834,70.3237],[-7.1766,43.3825,89.2173],[-7.1752,43.3862,87.3642],[-7.1785,43.388,83.1159],[-7.1774,43.3921,77.3058],[-7.1821,43.392,87.4237],[-7.1801,43.3962,73.2777],[-7.1725,43.4018,54.2222],[-7.1744,43.4053,52.0946],[-7.1684,43.4035,54.0862],[-7.1689,43.4088,86.3747],[-7.1712,43.409,100.6027],[-7.1767,43.4146,352.9817],[-7.1696,43.4221,229.6615],[-7.1746,43.4246,263.1952],[-7.1728,43.4304,397.7591],[-7.1618,43.432,351.2331],[-7.152,43.4287,219.2351],[-7.1419,43.4307,70.347],[-7.1297,43.4252,35.5726],[-7.1293,43.4237,23.5721],[-7.1176,43.4262,33.6037],[-7.1126,43.4253,40.9756],[-7.1085,43.429,62.5161],[-7.1027,43.427,19.0415],[-7.1004,43.4295,35.0089],[-7.1047,43.4325,12.6927],[-7.097,43.4329,18.6235],[-7.0991,43.4399,3.4731],[-7.0978,43.4417,3.54],[-7.0892,43.4453,2.226],[-7.0861,43.4433,20.8425],[-7.0853,43.4445,91.9492],[-7.0897,43.4478,59.6713],[-7.0902,43.4539,12.8291],[-7.0779,43.4649,1.2802],[-7.0715,43.4658,1.0243],[-7.0692,43.4701,8.5236],[-7.0617,43.474,20.0916],[-7.0558,43.4724,0.6967],[-7.0482,43.4774,0.2147],[-7.0504,43.4829,0.0],[-7.054,43.4854,0.8683],[-7.0537,43.4932,1.0259],[-7.0557,43.4954,1.1353],[-7.054,43.4979,0.0],[-7.054,43.5037,28.1111],[-7.0515,43.5065,0.0],[-7.0521,43.511,5.1097],[-7.0496,43.5201,0.0],[-7.0454,43.5235,12.387],[-7.0437,43.5296,1.9713],[-7.0371,43.5321,0.984],[-7.0354,43.5354,0.0],[-7.0365,43.5407,17.584],[-7.0351,43.5507,2.9089],[-7.041,43.5537,14.9367],[-7.0404,43.5565,0.0],[-7.0432,43.5571,0.0],[-7.0468,43.5537,12.2287],[-7.049,43.5576,0.0],[-7.0524,43.5563,3.9534],[-7.061,43.5599,0.0],[-7.0665,43.5588,0.0],[-7.0662,43.5549,3.0892],[-7.0718,43.5557,0.0],[-7.0732,43.5546,0.0],[-7.084,43.5579,0.0],[-7.0918,43.5557,0.0],[-7.0993,43.559,0.0],[-7.1154,43.5618,4.047],[-7.1171,43.5635,0.0],[-7.1193,43.5612,0.0],[-7.1176,43.5576,1.8759],[-7.1196,43.5557,1.6193],[-7.1235,43.5585,0.0],[-7.1401,43.5576,0.422],[-7.1462,43.5557,0.0],[-7.1501,43.5574,0.0],[-7.1574,43.5557,0.0],[-7.1704,43.556,0.0],[-7.1762,43.559,0.0],[-7.1762,43.564,0.0],[-7.1801,43.5624,0.0],[-7.1954,43.5626,0.0],[-7.2201,43.5649,3.5064],[-7.2374,43.5693,0.0],[-7.2374,43.5665,12.5116],[-7.2454,43.5651,6.0652],[-7.2446,43.559,1.3644],[-7.2426,43.5568,6.1499],[-7.2426,43.5518,9.5853],[-7.2529,43.5479,5.2805],[-7.2607,43.549,1.308],[-7.2629,43.5424,0.0],[-7.2671,43.5407,0.0],[-7.2621,43.551,2.0346],[-7.2593,43.5535,6.3093],[-7.2515,43.5554,0.0],[-7.254,43.5574,0.0],[-7.2618,43.5588,2.8883],[-7.2571,43.5604,0.0],[-7.2554,43.5654,0.0],[-7.2485,43.569,0.0],[-7.2499,43.5721,6.7689],[-7.2457,43.5743,0.0],[-7.246,43.5765,0.0],[-7.2537,43.5793,0.0],[-7.2626,43.5799,1.9529],[-7.2643,43.5826,0.0],[-7.2701,43.5849,2.8368],[-7.2718,43.5871,0.0],[-7.2768,43.5879,0.0],[-7.2824,43.5913,1.4199],[-7.2876,43.5913,4.6712],[-7.2901,43.5932,4.3836],[-7.2949,43.5924,1.6116],[-7.2954,43.594,0.0],[-7.2932,43.5979,0.0],[-7.296,43.5993,4.4633],[-7.2968,43.6026,0.0],[-7.3049,43.6063,0.0],[-7.3093,43.6174,0.0],[-7.3185,43.6207,3.2089],[-7.3251,43.6287,0.9371],[-7.3321,43.6268,15.587],[-7.3332,43.6276,27.3834],[-7.3324,43.6318,0.0],[-7.3374,43.6318,23.5783],[-7.3368,43.636,6.4238],[-7.3349,43.6368,6.4238],[-7.3432,43.6404,20.8418],[-7.3435,43.6426,10.2183],[-7.3415,43.6443,0.0],[-7.3468,43.6482,0.0],[-7.3507,43.649,0.0],[-7.3499,43.6512,0.0],[-7.3518,43.6549,3.3553],[-7.3501,43.6568,0.0],[-7.3463,43.6565,0.0],[-7.3562,43.6624,2.7802],[-7.3574,43.6649,0.0],[-7.3554,43.6701,0.0],[-7.3576,43.6721,0.0],[-7.3612,43.6721,0.0],[-7.369,43.6768,3.7354],[-7.3762,43.6751,8.0221],[-7.3793,43.6768,0.7623],[-7.3846,43.6768,22.5842],[-7.3882,43.6793,0.0],[-7.3957,43.6799,10.5882],[-7.4018,43.6837,15.4787],[-7.4037,43.6824,2.2041],[-7.4035,43.6865,2.352],[-7.4071,43.6876,16.4522],[-7.4076,43.6899,0.3688],[-7.4151,43.6907,12.9053],[-7.4168,43.6924,0.0],[-7.4304,43.6935,5.245],[-7.4343,43.6924,7.4842],[-7.4399,43.6949,7.6349],[-7.4376,43.696,0.0],[-7.4387,43.6974,2.4397],[-7.4412,43.6974,0.0],[-7.446,43.6938,3.2666],[-7.4435,43.6976,0.981],[-7.4468,43.6996,0.0],[-7.4563,43.6982,11.7859],[-7.4576,43.701,0.4111],[-7.4626,43.7021,6.613],[-7.4629,43.7046,5.3046],[-7.4593,43.7088,2.4954],[-7.4599,43.7126,1.3294],[-7.4637,43.7051,5.3046],[-7.471,43.7032,3.4344],[-7.4718,43.7062,0.8178],[-7.4774,43.7071,1.1335],[-7.479,43.7088,1.8415],[-7.4782,43.7135,0.0],[-7.4724,43.716,0.0],[-7.471,43.7182,0.0],[-7.4585,43.7168,1.5031],[-7.4615,43.7188,0.0],[-7.4699,43.7201,1.7045],[-7.4701,43.7215,0.0],[-7.4662,43.7229,0.0],[-7.4668,43.7238,0.0],[-7.4726,43.7257,0.0],[-7.4821,43.7243,7.3926],[-7.4899,43.7274,0.0],[-7.4885,43.7304,0.0],[-7.4913,43.7332,0.0],[-7.4943,43.7313,0.0],[-7.4921,43.7285,5.462],[-7.4943,43.7268,39.3467],[-7.5007,43.7262,0.0],[-7.5015,43.7246,5.0862],[-7.5112,43.7262,3.1312],[-7.5149,43.7199,0.7529],[-7.5165,43.721,0.0],[-7.5154,43.7232,1.037],[-7.5168,43.7307,0.0],[-7.519,43.7304,39.5574],[-7.5237,43.7365,4.0818],[-7.5313,43.7343,0.0],[-7.531,43.7324,0.0],[-7.5349,43.7299,32.0776],[-7.5396,43.7321,0.0],[-7.5457,43.7321,0.0],[-7.5476,43.7337,0.0],[-7.5504,43.7299,47.2494],[-7.5576,43.7301,0.0],[-7.5507,43.7257,22.8506],[-7.551,43.724,0.0],[-7.5538,43.7229,0.0],[-7.551,43.719,0.3881],[-7.5518,43.7165,14.1421],[-7.5565,43.716,0.0],[-7.5588,43.7124,5.7833],[-7.5649,43.7104,22.3617],[-7.5846,43.7121,0.0],[-7.5863,43.7065,0.0],[-7.5838,43.7021,16.5765],[-7.5807,43.7004,0.0],[-7.581,43.6974,0.0],[-7.5768,43.6951,5.6869],[-7.5768,43.6926,5.2738],[-7.5829,43.6879,5.0393],[-7.591,43.6871,0.0],[-7.5962,43.6821,0.0],[-7.6032,43.6824,0.0],[-7.5954,43.6796,1.0038],[-7.5999,43.6782,1.0125],[-7.5949,43.6732,3.5035],[-7.594,43.6693,35.6226],[-7.5965,43.6671,3.4439],[-7.5976,43.6587,13.2077],[-7.6015,43.6579,7.6772],[-7.6026,43.6621,9.4561],[-7.5996,43.6635,0.2725],[-7.6001,43.6662,1.0086],[-7.5968,43.6688,3.5401],[-7.6118,43.6724,0.6676],[-7.6113,43.6782,6.62],[-7.614,43.6787,13.9484],[-7.6132,43.6896,6.6416],[-7.6051,43.6949,0.0],[-7.6051,43.7021,0.0],[-7.6076,43.7024,0.0],[-7.6118,43.6987,25.4503],[-7.6149,43.7021,20.4489],[-7.611,43.7107,5.0358],[-7.6065,43.7135,2.7032],[-7.6063,43.7182,0.0],[-7.6096,43.7185,6.5951],[-7.6135,43.7154,75.9073],[-7.6146,43.719,0.0],[-7.6237,43.7165,12.2108],[-7.6293,43.7204,16.4344],[-7.6304,43.7224,5.2927],[-7.6268,43.7254,0.0],[-7.6301,43.7293,0.0],[-7.6304,43.7357,0.0],[-7.6349,43.7388,0.0],[-7.634,43.7407,80.943],[-7.6307,43.741,0.0],[-7.6296,43.7457,0.0],[-7.6329,43.7501,21.6713],[-7.6363,43.7507,8.1988],[-7.6379,43.7532,17.658],[-7.6499,43.751,0.0],[-7.6499,43.7487,0.0],[-7.6515,43.7479,0.0],[-7.6504,43.7435,2.1986],[-7.6521,43.7429,2.5013],[-7.6538,43.7432,29.8972],[-7.6543,43.746,0.0],[-7.659,43.7474,0.0],[-7.6682,43.7485,1.9919],[-7.6726,43.7471,0.0],[-7.6749,43.7446,0.0],[-7.6746,43.7401,10.5778],[-7.6762,43.739,10.5778],[-7.6729,43.7357,2.027],[-7.6749,43.734,0.6718],[-7.6799,43.7337,3.3577],[-7.6796,43.7318,14.8481],[-7.6829,43.7296,16.4248],[-7.691,43.7301,32.1554],[-7.6965,43.7343,5.1297],[-7.6979,43.731,6.2817],[-7.6938,43.7243,0.0],[-7.6957,43.7207,3.3727],[-7.689,43.714,9.3322],[-7.6904,43.7085,22.4997],[-7.6921,43.7137,0.0],[-7.6938,43.7137,0.0],[-7.6949,43.7104,0.0],[-7.7001,43.7132,16.4729],[-7.7029,43.7096,28.7018],[-7.7071,43.711,2.3715],[-7.7074,43.7082,5.5134],[-7.7099,43.7088,0.0],[-7.7087,43.7118,0.7253],[-7.7029,43.7121,3.1655],[-7.7015,43.7146,22.9902],[-7.6965,43.7154,0.0],[-7.7021,43.7207,13.0568],[-7.6999,43.7249,0.0],[-7.701,43.7365,0.0],[-7.699,43.7388,33.7887],[-7.6868,43.7429,32.3383],[-7.6913,43.7485,48.7389],[-7.689,43.7515,0.0],[-7.6885,43.756,3.2807],[-7.6843,43.759,34.2359],[-7.6751,43.7619,0.0],[-7.6762,43.7699,0.0],[-7.6707,43.7721,16.0252],[-7.669,43.7704,0.0],[-7.6668,43.771,1.7572],[-7.6635,43.7724,0.0],[-7.6621,43.7754,21.9919],[-7.6624,43.7774,13.2513],[-7.6687,43.7826,2.9241],[-7.6732,43.7835,43.8412],[-7.6757,43.7876,0.0],[-7.684,43.7874,2.5753],[-7.6893,43.7915,0.0],[-7.6899,43.7904,0.0],[-7.6868,43.7865,0.0],[-7.6885,43.7765,7.3061],[-7.7149,43.766,0.0],[-7.7179,43.7615,0.0],[-7.716,43.7557,25.9858],[-7.7182,43.7582,0.0],[-7.7218,43.7571,0.0],[-7.7265,43.7543,0.0],[-7.7265,43.7521,0.0],[-7.7287,43.7507,0.0],[-7.7329,43.751,0.0],[-7.7343,43.7487,0.0],[-7.7446,43.7449,14.0216],[-7.7518,43.7485,0.1092],[-7.7543,43.7418,62.4757],[-7.7599,43.7388,3.914],[-7.766,43.7376,27.808],[-7.7738,43.7401,0.0],[-7.7746,43.7379,0.0],[-7.7726,43.736,0.4604],[-7.7754,43.7343,0.0],[-7.7882,43.734,0.0],[-7.794,43.736,0.0],[-7.7982,43.7324,0.0],[-7.7965,43.7263,0.0],[-7.8035,43.7215,14.4202],[-7.8049,43.7218,13.6137],[-7.8065,43.7271,0.0],[-7.8126,43.7268,3.8041],[-7.8143,43.7221,0.1642],[-7.8096,43.7218,1.7747],[-7.8076,43.7168,4.4105],[-7.8171,43.7129,0.9699],[-7.8221,43.7157,0.0],[-7.8254,43.7157,0.0],[-7.8285,43.7132,8.8156],[-7.8296,43.7088,0.0],[-7.8263,43.7068,3.2216],[-7.8251,43.7012,0.0],[-7.8187,43.7012,6.9324],[-7.8135,43.6974,2.3205],[-7.8087,43.6971,12.2207],[-7.8082,43.6954,5.6794],[-7.8135,43.696,0.0],[-7.8207,43.694,0.1787],[-7.824,43.6971,0.0],[-7.8357,43.6976,0.4791],[-7.8376,43.7012,0.9436],[-7.8301,43.7024,0.0],[-7.8332,43.7049,0.0],[-7.8493,43.7032,3.0278],[-7.8576,43.7065,1.2668],[-7.861,43.7062,0.0],[-7.861,43.7043,0.0],[-7.864,43.7035,0.0],[-7.8649,43.7004,40.3954],[-7.8687,43.6979,0.0],[-7.8604,43.6893,1.1266],[-7.8593,43.6871,7.1803],[-7.8601,43.6832,0.0],[-7.8546,43.6829,2.6623],[-7.8515,43.6785,0.0],[-7.8446,43.676,5.6974],[-7.8446,43.671,0.0],[-7.8479,43.6688,0.9083],[-7.8507,43.6726,0.0],[-7.8518,43.6712,0.2971],[-7.8651,43.6682,10.4096],[-7.8671,43.6651,0.0],[-7.8718,43.6651,4.5252],[-7.8751,43.6676,0.1128],[-7.8776,43.6643,0.0302],[-7.8851,43.6638,0.0],[-7.8874,43.6662,3.2239],[-7.8968,43.6707,0.4139],[-7.8929,43.671,0.3376],[-7.8904,43.6685,0.0],[-7.8832,43.6668,0.0],[-7.879,43.671,0.6802],[-7.8718,43.6718,0.0],[-7.8707,43.6749,3.0622],[-7.8715,43.681,0.0],[-7.8779,43.6835,0.0],[-7.8876,43.6846,-0.1671],[-7.8904,43.6868,0.3192],[-7.8893,43.6896,3.3337],[-7.8782,43.6871,9.5526],[-7.8813,43.6918,19.003],[-7.8793,43.6968,8.3576],[-7.8796,43.701,21.6848],[-7.8771,43.7015,0.0],[-7.8737,43.706,1.825],[-7.8699,43.7065,0.0],[-7.8721,43.7115,37.5389],[-7.876,43.7135,0.0],[-7.8774,43.7215,0.0],[-7.8751,43.7218,26.3077],[-7.8737,43.7163,11.6906],[-7.8701,43.7157,29.2994],[-7.8687,43.7135,0.1134],[-7.8587,43.7093,14.5396],[-7.849,43.7096,0.0],[-7.849,43.711,0.0],[-7.854,43.7132,16.2596],[-7.8496,43.7171,0.0],[-7.851,43.7187,0.0],[-7.8546,43.7191,4.6402],[-7.8543,43.7257,0.0],[-7.8607,43.7251,22.8022],[-7.8718,43.7324,1.2823],[-7.8726,43.7376,6.9969],[-7.8693,43.7396,3.1196],[-7.8674,43.7396,9.272],[-7.8649,43.7349,1.2276],[-7.8621,43.7337,0.0],[-7.864,43.7368,0.4378],[-7.8637,43.741,3.923],[-7.8662,43.744,2.9802],[-7.8624,43.7462,3.4494],[-7.864,43.7501,38.8499],[-7.8626,43.7568,15.1655],[-7.8587,43.7588,0.0],[-7.8596,43.764,34.1106],[-7.8679,43.7707,58.1663],[-7.8682,43.7743,0.0],[-7.8696,43.7746,0.0],[-7.8785,43.7663,0.0],[-7.8907,43.7635,26.2792],[-7.8974,43.7637,131.8612],[-7.9038,43.769,0.0],[-7.906,43.769,0.0],[-7.9085,43.7615,82.0215],[-7.9154,43.7551,0.0],[-7.9171,43.7504,51.2941],[-7.9212,43.7476,63.6523],[-7.9212,43.744,104.8101],[-7.9296,43.7396,24.5539],[-7.9343,43.7401,141.1771],[-7.9404,43.7435,0.0],[-7.9507,43.7418,0.0],[-7.9507,43.7376,0.0],[-7.9468,43.7335,67.4832],[-7.9515,43.7293,8.5959],[-7.9635,43.7212,33.6577],[-7.9668,43.7212,0.0],[-7.9707,43.7188,0.305],[-7.9776,43.7207,0.0],[-7.9763,43.7185,10.5673],[-7.9782,43.7154,75.3494],[-7.9938,43.7101,2.8801],[-7.9996,43.7057,0.0],[-8.006,43.7043,3.7169],[-8.0151,43.7118,8.2237],[-8.0232,43.7121,0.0],[-8.0257,43.7096,8.716],[-8.0313,43.7143,0.371],[-8.0335,43.7143,0.0],[-8.0399,43.714,0.0],[-8.0438,43.7113,19.7066],[-8.0474,43.7135,0.0],[-8.0471,43.7121,0.0],[-8.0562,43.7099,0.0],[-8.0554,43.7079,0.0],[-8.0588,43.7046,23.878],[-8.0624,43.7054,0.0],[-8.0635,43.7015,0.0],[-8.0651,43.701,0.0],[-8.0638,43.6974,0.0],[-8.0682,43.6954,0.0],[-8.066,43.6926,0.0],[-8.0688,43.6893,0.0],[-8.0668,43.6829,5.6237],[-8.0735,43.6835,4.793],[-8.0754,43.6821,0.0],[-8.071,43.6743,1.4539],[-8.0746,43.6738,0.0],[-8.0735,43.6693,1.8857],[-8.076,43.6682,0.0],[-8.0724,43.6654,0.0],[-8.0735,43.6615,7.9628],[-8.0765,43.6607,0.0],[-8.0724,43.6582,0.0],[-8.0704,43.6549,0.0],[-8.0696,43.6563,0.359],[-8.0704,43.6579,4.7843],[-8.0688,43.6593,9.2348],[-8.0654,43.6579,0.0],[-8.0554,43.659,3.6383],[-8.0524,43.6576,8.2874],[-8.0504,43.6515,3.5944],[-8.0518,43.6493,3.6828],[-8.0707,43.6512,0.0],[-8.0718,43.6488,0.0],[-8.066,43.6421,0.0],[-8.0601,43.6396,1.0772],[-8.0521,43.6396,2.6296],[-8.0549,43.6351,0.0],[-8.0494,43.6357,12.6466],[-8.0507,43.6332,26.8089],[-8.0576,43.6329,7.1574],[-8.0571,43.6357,0.0],[-8.0596,43.6362,0.1588],[-8.0638,43.6351,34.5454],[-8.0713,43.6407,2.3759],[-8.0796,43.6404,15.7226],[-8.0804,43.6362,0.0],[-8.0857,43.6387,8.9231],[-8.0874,43.6424,1.1043],[-8.0818,43.6468,0.0],[-8.0818,43.6526,10.7356],[-8.0871,43.6549,4.3214],[-8.0868,43.6615,0.0],[-8.0899,43.6662,0.0],[-8.0929,43.6671,0.0],[-8.0946,43.6579,6.2316],[-8.0974,43.656,0.0],[-8.0954,43.6535,56.1876],[-8.1037,43.6526,0.6305],[-8.1018,43.6449,18.8008],[-8.1104,43.6499,0.0],[-8.1135,43.6454,0.0],[-8.1088,43.641,0.0],[-8.1157,43.6382,3.2287],[-8.1182,43.6382,4.2039],[-8.1201,43.6426,0.0],[-8.1229,43.6437,6.3586],[-8.1276,43.6346,0.0],[-8.1313,43.6362,0.0],[-8.1388,43.6354,0.0],[-8.1426,43.6279,6.2373],[-8.146,43.6265,0.0],[-8.1496,43.6199,18.8373],[-8.1604,43.6143,0.0],[-8.1821,43.614,0.0],[-8.1807,43.6162,4.1516],[-8.1807,43.6226,0.0],[-8.1829,43.6213,1.9362],[-8.1876,43.6218,3.1254],[-8.1901,43.6188,3.7639],[-8.1899,43.6129,9.4739],[-8.1943,43.6138,0.0],[-8.1987,43.6124,1.1931],[-8.1974,43.6087,0.0],[-8.1943,43.6065,0.0],[-8.1954,43.604,0.0],[-8.201,43.6035,13.2151],[-8.2001,43.6001,19.2156],[-8.2021,43.5971,0.0],[-8.2132,43.594,0.1201],[-8.2126,43.5924,0.0],[-8.2165,43.5921,0.0],[-8.2185,43.5868,56.0891],[-8.2201,43.5863,0.0],[-8.2163,43.5835,0.0],[-8.2174,43.5821,0.0],[-8.2374,43.5718,2.637],[-8.246,43.5654,90.5661],[-8.249,43.5657,0.0],[-8.2543,43.5607,33.2292],[-8.2579,43.5601,7.2919],[-8.2626,43.5563,26.2562],[-8.2726,43.5549,1.9456],[-8.2774,43.5596,0.0],[-8.2796,43.559,0.0],[-8.284,43.5621,0.0],[-8.2851,43.5599,1.3057],[-8.284,43.5579,0.0],[-8.2893,43.556,2.7822],[-8.2962,43.5563,0.8795],[-8.3054,43.5649,1.7102],[-8.3079,43.5649,15.7721],[-8.3068,43.5685,12.7938],[-8.309,43.5693,0.0],[-8.3162,43.5693,0.0],[-8.3224,43.5651,36.765],[-8.3257,43.5604,0.0],[-8.3237,43.5543,14.2136],[-8.3146,43.5549,17.7926],[-8.3165,43.5535,0.0],[-8.3132,43.5518,7.5699],[-8.3154,43.5499,10.2902],[-8.3124,43.5451,0.0],[-8.3029,43.5462,6.6186],[-8.3057,43.541,0.0],[-8.2985,43.541,3.703],[-8.2987,43.5388,0.0],[-8.2965,43.5385,8.8147],[-8.2982,43.5374,0.0],[-8.2937,43.5335,5.8322],[-8.2957,43.5301,5.3485],[-8.3076,43.5232,2.56],[-8.3104,43.5235,30.3474],[-8.3107,43.5276,0.7595],[-8.3232,43.5257,0.0],[-8.3285,43.5182,6.5],[-8.3293,43.5137,6.4413],[-8.3321,43.5129,1.4986],[-8.3285,43.5104,6.0151],[-8.3315,43.5074,0.0],[-8.3196,43.5024,5.5476],[-8.319,43.4974,0.0],[-8.3224,43.4882,9.0081],[-8.3251,43.489,0.0],[-8.3265,43.4871,0.0],[-8.3251,43.4837,11.2702],[-8.3351,43.4793,0.0],[-8.336,43.4765,3.681],[-8.3393,43.4757,0.0],[-8.3443,43.4707,0.0],[-8.3426,43.4663,6.2742],[-8.3465,43.4663,0.0],[-8.3468,43.4643,16.269],[-8.3482,43.4643,0.0],[-8.3462,43.4615,0.0],[-8.3413,43.4613,3.8181],[-8.3407,43.4582,0.0],[-8.3346,43.4607,7.046],[-8.3321,43.4646,6.4082],[-8.3285,43.4646,5.3519],[-8.3174,43.4701,2.1448],[-8.3121,43.4674,8.1933],[-8.3082,43.4685,6.8926],[-8.3057,43.4654,0.0],[-8.2999,43.4654,2.9093],[-8.2985,43.4608,0.0],[-8.2896,43.4615,0.0],[-8.2863,43.4643,15.3077],[-8.2812,43.4637,0.0],[-8.2801,43.4671,6.9058],[-8.2779,43.4682,0.0],[-8.266,43.4674,0.7717],[-8.2601,43.4735,0.0],[-8.2596,43.4804,0.0],[-8.2579,43.4832,0.0],[-8.2582,43.4893,8.9089],[-8.2557,43.4904,0.0],[-8.2518,43.4896,0.0],[-8.2479,43.4932,0.8282],[-8.2451,43.4932,2.1079],[-8.2429,43.4896,4.1902],[-8.249,43.4857,0.5049],[-8.2546,43.4851,2.7232],[-8.256,43.4837,0.0],[-8.256,43.4787,0.0],[-8.2515,43.4793,0.0],[-8.254,43.4818,0.0],[-8.254,43.484,2.7232],[-8.251,43.4846,3.512],[-8.2493,43.4768,0.0],[-8.2437,43.4754,0.0],[-8.2465,43.4774,4.4166],[-8.2454,43.4785,0.6092],[-8.241,43.4735,0.0],[-8.239,43.4741,0.9008],[-8.2404,43.4774,5.5123],[-8.231,43.4807,4.0059],[-8.2307,43.4787,2.0301],[-8.2351,43.4768,5.839],[-8.236,43.4746,3.7198],[-8.2299,43.4757,1.7576],[-8.2268,43.4749,0.0],[-8.2249,43.4724,1.3673],[-8.2201,43.4774,8.5442],[-8.216,43.4771,2.7003],[-8.2146,43.481,3.6246],[-8.2113,43.4832,3.6796],[-8.2085,43.4818,4.1714],[-8.2082,43.4771,5.1657],[-8.2001,43.4779,1.1916],[-8.1974,43.4815,3.4907],[-8.1943,43.4801,0.0],[-8.1915,43.481,0.0],[-8.1926,43.4846,0.0],[-8.1915,43.4857,0.0],[-8.1979,43.486,0.0],[-8.1954,43.4888,11.3273],[-8.1868,43.4904,0.0],[-8.184,43.4938,17.9391],[-8.1765,43.494,11.4736],[-8.1749,43.4968,4.4522],[-8.171,43.4985,0.0],[-8.1735,43.5054,0.0],[-8.1654,43.5088,0.0],[-8.1668,43.5121,5.6239],[-8.1535,43.5129,3.5716],[-8.1543,43.5107,0.6626],[-8.1599,43.5079,0.0804],[-8.1635,43.4924,4.4088],[-8.1682,43.4879,3.3841],[-8.1693,43.4801,3.1274],[-8.1737,43.4771,1.3626],[-8.1771,43.4771,1.0842],[-8.1818,43.4815,0.2775],[-8.1843,43.4779,3.8973],[-8.1924,43.476,0.0],[-8.1915,43.474,1.4236],[-8.1857,43.4749,0.0],[-8.1815,43.474,3.3107],[-8.1812,43.4726,1.6389],[-8.1871,43.4707,0.0],[-8.1938,43.4718,0.0],[-8.1935,43.4704,0.0],[-8.191,43.4701,0.6213],[-8.1912,43.4651,9.8655],[-8.1976,43.4637,5.5588],[-8.2004,43.4604,20.601],[-8.2193,43.4604,10.3659],[-8.2201,43.4574,0.0],[-8.2299,43.4565,11.9662],[-8.2329,43.4574,2.6311],[-8.2324,43.4618,2.0463],[-8.2299,43.4624,0.0],[-8.2313,43.4632,0.0],[-8.2412,43.4643,0.0],[-8.2407,43.4607,1.9801],[-8.2479,43.4607,0.0],[-8.2546,43.466,0.0],[-8.2571,43.4651,0.0],[-8.2565,43.4626,4.7143],[-8.2626,43.4621,0.0],[-8.2668,43.4557,1.6354],[-8.2685,43.4557,0.0],[-8.2707,43.4588,0.0],[-8.2696,43.4635,1.7083],[-8.2735,43.4635,5.3045],[-8.2779,43.4593,4.4135],[-8.284,43.4601,6.8062],[-8.2918,43.456,0.0],[-8.3026,43.4543,0.0],[-8.3099,43.4543,0.0],[-8.3124,43.4557,0.0],[-8.3124,43.4504,0.0],[-8.3065,43.449,11.604],[-8.3035,43.4465,0.6353],[-8.3168,43.4449,0.0],[-8.3146,43.4421,15.2359],[-8.3096,43.4404,0.0],[-8.2987,43.4396,0.0],[-8.2996,43.4371,0.0],[-8.2979,43.4354,0.0],[-8.281,43.4368,13.148],[-8.2762,43.4321,3.1508],[-8.2674,43.429,26.1432],[-8.2607,43.4221,13.7877],[-8.2576,43.4221,17.6425],[-8.2579,43.4193,1.5116],[-8.2532,43.4207,14.2543],[-8.2446,43.4171,7.538],[-8.2385,43.4201,2.6433],[-8.2412,43.4221,0.0],[-8.2435,43.4215,7.6075],[-8.2446,43.4238,2.776],[-8.2382,43.4299,3.2307],[-8.2371,43.4285,0.0],[-8.2304,43.4296,3.7578],[-8.2224,43.4274,9.2471],[-8.2168,43.4226,20.2122],[-8.2165,43.4182,0.0],[-8.2104,43.4207,10.3899],[-8.204,43.4201,0.0],[-8.2024,43.4215,0.0],[-8.2029,43.4243,7.7888],[-8.1974,43.4265,2.4348],[-8.1876,43.4246,12.3264],[-8.1857,43.4221,0.0],[-8.1796,43.421,16.2551],[-8.1807,43.4188,0.0],[-8.174,43.4204,3.3504],[-8.1727,43.419,3.3504],[-8.1729,43.4113,0.0],[-8.1693,43.4129,3.6105],[-8.1679,43.4115,0.0],[-8.1654,43.4135,0.0],[-8.1521,43.4135,0.0],[-8.1499,43.421,45.5002],[-8.1396,43.4221,7.4339],[-8.1346,43.4243,0.0],[-8.1396,43.4212,0.0],[-8.1488,43.4196,9.785],[-8.1485,43.414,3.6456],[-8.1599,43.4087,5.3852],[-8.1601,43.4049,7.024],[-8.1701,43.4082,2.5209],[-8.1754,43.4124,0.0],[-8.1829,43.4135,10.7612],[-8.1896,43.4135,4.9287],[-8.1954,43.4107,0.0],[-8.2054,43.4093,0.0],[-8.209,43.4046,25.6108],[-8.2126,43.404,0.0],[-8.2132,43.4012,5.9636],[-8.2115,43.3974,0.0],[-8.2165,43.3924,6.9756],[-8.219,43.3935,3.2091],[-8.2215,43.3921,0.0],[-8.2201,43.3896,0.0],[-8.2224,43.3882,0.0],[-8.2207,43.3874,0.07],[-8.2254,43.3846,0.8451],[-8.2201,43.3846,0.0],[-8.2182,43.3776,0.0],[-8.2149,43.3782,2.6345],[-8.2146,43.3751,9.6989],[-8.2185,43.3718,4.2339],[-8.2176,43.3676,1.7283],[-8.2129,43.3668,0.0],[-8.2104,43.3635,0.0],[-8.2063,43.3646,3.855],[-8.2054,43.3621,2.6393],[-8.2121,43.3565,2.8908],[-8.2207,43.3535,0.0],[-8.2176,43.351,0.0],[-8.2124,43.3512,6.5084],[-8.2104,43.3499,6.5045],[-8.2085,43.3432,0.0],[-8.2032,43.3393,3.1612],[-8.2038,43.3365,15.219],[-8.2082,43.3379,5.7051],[-8.2107,43.3407,0.0],[-8.214,43.339,0.0],[-8.2085,43.3321,24.3334],[-8.2087,43.3271,9.9587],[-8.2065,43.3262,0.2558],[-8.2063,43.3232,0.0],[-8.2024,43.3218,2.5515],[-8.204,43.319,0.0],[-8.2101,43.3162,3.9854],[-8.2096,43.3088,4.0682],[-8.2118,43.3051,0.3111],[-8.2157,43.3037,0.0],[-8.2143,43.2943,0.3525],[-8.2154,43.2915,1.1108],[-8.2171,43.2912,0.3306],[-8.2157,43.2954,0.3406],[-8.2196,43.301,0.0],[-8.2132,43.3074,0.193],[-8.2124,43.3101,0.1605],[-8.2107,43.3104,4.0682],[-8.2124,43.3157,0.0],[-8.2146,43.3129,0.0746],[-8.2143,43.3162,0.7258],[-8.2065,43.319,0.1671],[-8.2057,43.3207,0.3671],[-8.2101,43.3271,0.0],[-8.2126,43.3276,5.0945],[-8.2146,43.3312,3.6211],[-8.2171,43.331,7.6373],[-8.2179,43.3329,2.2779],[-8.2232,43.3329,4.2324],[-8.2238,43.3363,0.0],[-8.229,43.3424,0.0],[-8.241,43.3429,2.1026],[-8.2412,43.346,0.0],[-8.2437,43.3482,2.4587],[-8.2504,43.349,0.0],[-8.2529,43.3529,1.4616],[-8.2524,43.3549,0.0],[-8.2454,43.3565,0.0],[-8.2446,43.3585,0.0],[-8.2463,43.3593,0.0],[-8.2496,43.3579,1.2829],[-8.251,43.3613,11.3278],[-8.2493,43.3632,4.0381],[-8.249,43.3615,0.0],[-8.2449,43.3621,0.9523],[-8.2501,43.3649,3.7806],[-8.2507,43.3671,0.0],[-8.2599,43.3701,16.5515],[-8.2613,43.3763,0.0],[-8.2643,43.3785,29.288],[-8.2643,43.3826,0.0],[-8.2687,43.3851,18.4642],[-8.2721,43.3849,19.2459],[-8.2721,43.3865,2.3184],[-8.2838,43.3857,0.0],[-8.2874,43.3829,18.2108],[-8.2962,43.3854,14.399],[-8.2968,43.3893,0.0],[-8.2985,43.3901,27.7985],[-8.2971,43.3979,0.0],[-8.2999,43.4001,18.8604],[-8.3032,43.3993,3.2652],[-8.3062,43.4057,0.0],[-8.3135,43.4024,0.0],[-8.3287,43.4029,10.9149],[-8.3435,43.3979,0.0],[-8.3496,43.3976,0.0],[-8.3507,43.3957,18.7733],[-8.3493,43.3924,0.0],[-8.3443,43.3913,0.0],[-8.3551,43.3901,1.6196],[-8.3504,43.3871,42.7892],[-8.3501,43.3854,18.6177],[-8.356,43.3849,0.0],[-8.3571,43.3829,0.0],[-8.356,43.381,0.0],[-8.3507,43.379,0.0],[-8.3485,43.3815,1.7709],[-8.341,43.3818,1.6588],[-8.3376,43.3782,1.0833],[-8.3396,43.3724,0.0],[-8.3454,43.3724,0.0],[-8.3435,43.369,0.0],[-8.3399,43.3676,3.0172],[-8.3476,43.3662,0.0],[-8.3496,43.3579,0.0],[-8.3526,43.3568,0.0],[-8.3471,43.354,22.7264],[-8.3501,43.3507,0.0],[-8.3474,43.3504,0.0],[-8.3476,43.3479,2.1863],[-8.3546,43.3474,0.0],[-8.3551,43.3443,6.6313],[-8.3607,43.3435,0.0],[-8.3626,43.341,0.0],[-8.3726,43.3443,0.0],[-8.374,43.344,0.0],[-8.3735,43.3407,9.8418],[-8.3749,43.3393,3.5972],[-8.3835,43.3399,6.7552],[-8.3804,43.3379,0.0],[-8.3813,43.3335,0.0],[-8.3799,43.3312,0.0],[-8.3768,43.3315,2.389],[-8.3707,43.3285,0.0],[-8.3679,43.3229,0.0],[-8.3612,43.3213,3.1268],[-8.359,43.319,15.4148],[-8.3596,43.3162,4.3588],[-8.3646,43.3201,5.0084],[-8.3693,43.3199,0.9769],[-8.3746,43.3235,1.0304],[-8.3779,43.3237,2.0887],[-8.3793,43.3249,3.1222],[-8.3787,43.3293,1.243],[-8.3818,43.3299,4.1943],[-8.3829,43.3335,1.087],[-8.3868,43.3368,11.6239],[-8.3865,43.3429,45.7679],[-8.3837,43.3429,0.0],[-8.3824,43.3451,2.6581],[-8.3824,43.3474,0.4843],[-8.3857,43.3499,0.0],[-8.3804,43.3515,0.0],[-8.381,43.3546,0.6447],[-8.3787,43.3574,0.0],[-8.3846,43.3551,0.0],[-8.3918,43.3585,3.9584],[-8.3926,43.3607,0.6554],[-8.3874,43.361,6.7529],[-8.3918,43.364,0.0],[-8.3968,43.3629,0.0],[-8.3988,43.3596,2.5015],[-8.4026,43.361,0.0],[-8.4029,43.3635,2.3608],[-8.3988,43.3638,0.5812],[-8.3996,43.3662,0.0],[-8.3979,43.3671,0.0],[-8.3915,43.3674,3.4882],[-8.3874,43.3651,0.0],[-8.3851,43.366,0.0],[-8.3846,43.3688,0.0],[-8.3921,43.374,1.3705],[-8.3954,43.3796,16.3829],[-8.3918,43.3857,0.0],[-8.3996,43.3904,1.7197],[-8.4018,43.3874,1.2551],[-8.4079,43.3879,5.8401],[-8.4096,43.386,2.9066],[-8.4079,43.3843,0.0],[-8.4104,43.3851,3.7209],[-8.4121,43.3818,1.0652],[-8.4035,43.3735,0.0],[-8.4087,43.3688,2.8665],[-8.4179,43.3718,4.2459],[-8.4188,43.3751,0.0],[-8.4215,43.3776,0.7827],[-8.4299,43.3779,45.755],[-8.4385,43.3824,0.0],[-8.4476,43.3771,5.7541],[-8.4465,43.3732,11.3414],[-8.4499,43.3732,7.7188],[-8.4529,43.371,1.7696],[-8.4582,43.3721,0.0],[-8.4599,43.371,0.0],[-8.4601,43.3693,0.0],[-8.4579,43.369,0.4968],[-8.4596,43.3626,1.0008],[-8.4571,43.3607,0.0],[-8.4629,43.3607,0.0],[-8.4713,43.3576,1.9521],[-8.474,43.3543,2.5997],[-8.4885,43.3529,2.9847],[-8.4857,43.3585,1.5841],[-8.4874,43.3613,0.0],[-8.4918,43.3613,0.0],[-8.5004,43.3535,4.8846],[-8.4999,43.3521,4.8846],[-8.4963,43.3526,5.9581],[-8.4951,43.3499,18.1349],[-8.5057,43.3326,1.6619],[-8.5046,43.3299,6.8261],[-8.5057,43.3285,15.3644],[-8.5087,43.3262,4.3184],[-8.5149,43.3282,5.7521],[-8.5176,43.3274,1.4827],[-8.5238,43.3213,17.7037],[-8.5285,43.3207,0.0],[-8.5329,43.3151,17.0271],[-8.5385,43.3162,7.0796],[-8.5476,43.3112,5.0335],[-8.556,43.3112,0.0],[-8.5637,43.3149,0.0],[-8.5676,43.3138,0.0],[-8.5779,43.3179,0.0],[-8.5904,43.3165,36.0796],[-8.5899,43.3215,0.0],[-8.591,43.3218,8.8874],[-8.6046,43.3179,13.0791],[-8.6018,43.3204,0.0],[-8.6049,43.3207,9.1508],[-8.6071,43.3235,0.0],[-8.6082,43.3224,0.0],[-8.6074,43.3176,0.7417],[-8.6099,43.3146,6.3545],[-8.6138,43.3168,1.2463],[-8.6207,43.3171,0.0],[-8.6412,43.3076,0.0],[-8.646,43.3085,4.2645],[-8.6685,43.3001,3.1905],[-8.684,43.2971,0.7428],[-8.6968,43.2915,3.2344],[-8.7135,43.2893,0.9569],[-8.7204,43.291,19.9978],[-8.7224,43.2932,6.2311],[-8.7224,43.2968,0.0],[-8.7254,43.2974,0.0],[-8.726,43.2993,0.0],[-8.7326,43.2946,3.3374],[-8.7421,43.2938,0.0],[-8.7487,43.2946,22.7959],[-8.7501,43.2968,0.0],[-8.7554,43.2971,0.0],[-8.7624,43.3021,0.0],[-8.7671,43.3001,9.1551],[-8.7749,43.3001,23.4445],[-8.781,43.3037,4.0427],[-8.7863,43.3046,8.547],[-8.7885,43.306,0.0],[-8.7879,43.3088,0.0],[-8.8024,43.3135,39.1856],[-8.8051,43.3207,0.0],[-8.8093,43.3229,11.049],[-8.8076,43.3232,0.0],[-8.8021,43.3215,0.0],[-8.8054,43.3235,0.6723],[-8.8068,43.3271,0.0],[-8.8118,43.3235,18.5105],[-8.8171,43.3235,24.0311],[-8.8174,43.3279,1.2319],[-8.8199,43.329,0.0],[-8.8235,43.3296,1.5905],[-8.8274,43.3276,1.1231],[-8.8307,43.3426,0.0],[-8.8393,43.346,0.0],[-8.8474,43.3393,0.0],[-8.8488,43.3354,7.1026],[-8.8476,43.3299,2.0449],[-8.8499,43.329,0.0],[-8.8496,43.3229,0.0],[-8.8451,43.3201,8.5885],[-8.8532,43.3204,4.0437],[-8.8571,43.3226,0.0],[-8.8568,43.3176,17.2577],[-8.8626,43.3176,2.3344],[-8.8643,43.3179,19.9904],[-8.8629,43.3213,0.0],[-8.8649,43.3224,0.0],[-8.8729,43.3235,0.0],[-8.8746,43.3154,0.0],[-8.8735,43.3126,6.5606],[-8.8763,43.3126,21.9986],[-8.8793,43.3138,0.0],[-8.8804,43.3174,9.5048],[-8.8849,43.3207,0.0],[-8.8935,43.3196,3.229],[-8.9021,43.3221,0.0],[-8.9101,43.3221,0.0],[-8.914,43.3193,0.0],[-8.9074,43.3065,0.0],[-8.9112,43.304,0.0],[-8.9071,43.2951,0.0],[-8.9076,43.2935,14.0333],[-8.9107,43.2951,0.0],[-8.9129,43.2926,12.5251],[-8.9168,43.294,0.0],[-8.9165,43.296,0.0],[-8.9187,43.2965,1.5286],[-8.9204,43.2943,3.0224],[-8.9279,43.2932,0.0],[-8.9293,43.2888,16.1938],[-8.9268,43.2835,8.6254],[-8.9299,43.2832,57.3171],[-8.9368,43.2899,0.0],[-8.9432,43.2899,3.7791],[-8.9524,43.2949,0.0],[-8.9599,43.2926,0.0],[-8.9626,43.2876,0.0],[-8.9721,43.2874,0.0],[-8.9765,43.2835,43.0327],[-8.9813,43.2835,6.1257],[-8.9843,43.2818,4.9824],[-8.9865,43.2768,24.0295],[-8.9918,43.2754,0.0],[-8.9846,43.2715,8.4132],[-8.9821,43.2651,0.0],[-8.9782,43.2626,0.0],[-8.9643,43.2613,0.63],[-8.9643,43.2632,0.0],[-8.9563,43.2643,25.2113],[-8.9512,43.2624,2.0846],[-8.9537,43.2604,9.2173],[-8.9537,43.2568,10.5778],[-8.9507,43.2538,7.7343],[-8.9529,43.2493,3.3466],[-8.9521,43.2471,24.1327],[-8.9479,43.241,4.5978],[-8.9421,43.241,0.0],[-8.9424,43.2385,0.0],[-8.9385,43.2349,0.0],[-8.9387,43.2313,0.0],[-8.9357,43.2321,10.5326],[-8.9368,43.2274,4.7795],[-8.9407,43.2232,0.7636],[-8.936,43.2249,1.2685],[-8.9318,43.2307,2.5926],[-8.9254,43.2337,0.0],[-8.9262,43.2368,0.6903],[-8.9221,43.2396,0.9557],[-8.9215,43.2429,66.3046],[-8.916,43.2443,1.9146],[-8.9124,43.2426,0.168],[-8.9129,43.2415,0.0],[-8.9168,43.2424,0.0],[-8.9165,43.2374,4.3418],[-8.9201,43.2332,5.1283],[-8.9196,43.2296,10.6888],[-8.9282,43.2251,0.6959],[-8.9296,43.2212,0.0],[-8.9457,43.2165,4.3777],[-8.9451,43.219,0.0],[-8.9479,43.2226,0.0],[-8.9438,43.2268,0.0],[-8.9443,43.2282,0.7587],[-8.9496,43.2285,17.6583],[-8.9526,43.2304,13.062],[-8.9563,43.2287,20.8998],[-8.9663,43.2293,0.0],[-8.9676,43.2282,0.0],[-8.9668,43.226,0.0],[-8.9715,43.2238,0.0],[-8.9779,43.2268,30.619],[-8.9788,43.229,0.0],[-8.9815,43.2293,0.8479],[-8.9865,43.2262,3.1903],[-8.9865,43.2215,20.8087],[-8.9907,43.2199,17.148],[-8.9926,43.2157,1.7107],[-8.9979,43.2157,1.3355],[-9.0026,43.2176,4.556],[-9.0049,43.2207,1.5693],[-9.004,43.2235,9.1244],[-8.999,43.2226,0.0],[-9.0032,43.2249,1.0878],[-9.0024,43.2279,5.1776],[-9.0037,43.2304,34.0959],[-9.0082,43.2329,8.8595],[-9.0124,43.2332,1.3582],[-9.0149,43.2304,0.0],[-9.0107,43.2246,5.2497],[-9.014,43.2246,0.0],[-9.0143,43.2215,19.1514],[-9.0201,43.2201,6.5902],[-9.0187,43.2157,0.0],[-9.0221,43.2129,4.7992],[-9.0254,43.2129,5.1912],[-9.0262,43.216,0.0],[-9.034,43.2143,2.0157],[-9.036,43.2096,0.0],[-9.034,43.2076,14.9287],[-9.0354,43.2065,0.0],[-9.0363,43.1996,9.6067],[-9.0393,43.1951,1.9303],[-9.0432,43.1915,5.4026],[-9.0579,43.1862,0.0],[-9.0601,43.1835,17.7922],[-9.074,43.1871,0.0],[-9.0776,43.1857,1.6342],[-9.0787,43.1821,0.0],[-9.086,43.1857,0.0],[-9.0915,43.1799,2.2618],[-9.0901,43.1862,9.5895],[-9.0857,43.1885,0.0],[-9.0879,43.1901,0.0],[-9.0926,43.1899,0.0],[-9.0982,43.194,0.0],[-9.0999,43.1932,0.0],[-9.0985,43.1899,0.9247],[-9.101,43.1907,0.0],[-9.101,43.1882,2.6076],[-9.104,43.1888,0.0],[-9.106,43.1857,0.0],[-9.109,43.186,0.0],[-9.1149,43.189,18.2217],[-9.1146,43.1943,0.0],[-9.1215,43.194,3.2836],[-9.1243,43.1957,1.3912],[-9.1268,43.1946,12.568],[-9.1301,43.1982,1.1535],[-9.1329,43.1929,3.3927],[-9.1337,43.1976,0.0],[-9.136,43.1979,0.0],[-9.1365,43.2018,0.0],[-9.1382,43.2012,0.0],[-9.1374,43.1935,0.0],[-9.1335,43.1924,2.1055],[-9.1343,43.1912,4.1459],[-9.1426,43.1924,0.0],[-9.1446,43.1949,0.0],[-9.1501,43.1957,0.0],[-9.1515,43.1982,0.0],[-9.154,43.1985,0.0],[-9.1521,43.1937,0.0],[-9.1529,43.191,0.0],[-9.1501,43.1874,0.0],[-9.1585,43.1829,3.207],[-9.1651,43.1832,9.9777],[-9.1687,43.1879,0.0],[-9.1746,43.1915,0.0],[-9.1751,43.1854,3.1989],[-9.1774,43.1854,0.0],[-9.179,43.1829,0.0],[-9.1799,43.1693,1.2039],[-9.1815,43.1674,0.0],[-9.1851,43.1674,0.0],[-9.1846,43.1643,6.317],[-9.186,43.1626,0.0],[-9.1896,43.1607,0.7653],[-9.1943,43.1632,0.0],[-9.1993,43.1615,0.0],[-9.1974,43.1568,6.6973],[-9.201,43.1549,12.3687],[-9.2074,43.156,4.8777],[-9.2071,43.1593,0.0],[-9.2104,43.1613,6.7164],[-9.2115,43.1646,0.0],[-9.214,43.1646,0.0],[-9.2143,43.1607,0.0],[-9.2121,43.1582,0.0],[-9.2151,43.1565,0.0],[-9.214,43.1526,0.0],[-9.2151,43.1515,0.0],[-9.2132,43.1471,0.0],[-9.2107,43.1465,0.0],[-9.2096,43.144,0.0],[-9.2079,43.1449,1.2521],[-9.2051,43.1418,3.7383],[-9.204,43.1343,0.0],[-9.206,43.134,0.0],[-9.2062,43.1324,0.0],[-9.2051,43.129,3.4616],[-9.2013,43.1274,0.0],[-9.1976,43.1312,1.0571],[-9.1971,43.1268,0.0],[-9.1932,43.1229,0.0],[-9.1904,43.1246,6.0351],[-9.1893,43.1229,0.0],[-9.1832,43.1232,0.0],[-9.1837,43.1285,0.0],[-9.1787,43.129,6.882],[-9.1799,43.1329,0.0],[-9.1779,43.1349,0.0],[-9.1785,43.1376,1.4442],[-9.1707,43.1376,5.9007],[-9.1685,43.1424,7.2742],[-9.1699,43.1451,0.0],[-9.1662,43.1504,0.0],[-9.1637,43.149,5.52],[-9.1676,43.1326,0.0],[-9.1651,43.1279,4.2229],[-9.1582,43.1288,17.1405],[-9.1507,43.1329,3.6335],[-9.1463,43.1271,5.1486],[-9.1418,43.1274,15.5364],[-9.1379,43.1349,5.5751],[-9.1326,43.1351,1.7205],[-9.1321,43.1335,0.0],[-9.1385,43.131,5.9407],[-9.1412,43.1263,10.2277],[-9.1593,43.1265,0.0],[-9.1596,43.1232,14.7095],[-9.1618,43.1226,7.0259],[-9.164,43.1176,9.5144],[-9.1637,43.1129,28.5864],[-9.1662,43.111,16.2951],[-9.1651,43.1088,15.7372],[-9.1662,43.1046,10.8098],[-9.1846,43.1032,9.2137],[-9.1851,43.1004,0.0],[-9.1824,43.0946,21.9613],[-9.1829,43.0929,0.0],[-9.189,43.0907,0.0],[-9.1885,43.089,3.3598],[-9.1946,43.0907,6.1143],[-9.1932,43.096,3.8977],[-9.1974,43.0977,10.5213],[-9.1979,43.1043,0.0],[-9.2032,43.1013,15.1183],[-9.2068,43.1026,0.754],[-9.209,43.1001,11.4592],[-9.214,43.1024,8.2759],[-9.2154,43.1046,0.0],[-9.2137,43.1051,0.0],[-9.214,43.1099,0.0],[-9.2165,43.111,1.7571],[-9.2174,43.1135,0.0],[-9.2199,43.1132,0.7395],[-9.2224,43.1087,0.0],[-9.2221,43.104,0.0],[-9.2196,43.1026,7.4707],[-9.224,43.0985,0.0],[-9.2224,43.0943,0.0],[-9.224,43.0926,0.0],[-9.2207,43.0904,0.0],[-9.221,43.0876,0.0],[-9.2249,43.0868,13.9332],[-9.2254,43.0899,0.0],[-9.2276,43.091,0.0],[-9.2379,43.0913,0.0],[-9.2435,43.0851,4.353],[-9.2454,43.0918,7.478],[-9.2479,43.0935,4.4284],[-9.2568,43.0921,0.0],[-9.2574,43.0885,0.0],[-9.2529,43.0838,11.1013],[-9.2538,43.0818,1.7224],[-9.2518,43.0793,22.6242],[-9.2504,43.0721,0.6],[-9.2518,43.069,0.0],[-9.2543,43.0679,7.6275],[-9.2557,43.0588,0.0],[-9.2582,43.0568,0.0],[-9.2599,43.0515,20.8516],[-9.2635,43.0499,15.4205],[-9.2665,43.0532,0.0],[-9.2701,43.0529,0.0],[-9.2693,43.0501,1.2008],[-9.2724,43.0449,13.1805],[-9.2851,43.0471,0.0],[-9.2912,43.0579,0.0],[-9.2999,43.0568,0.7478],[-9.2996,43.0501,0.0],[-9.3018,43.0474,3.9299],[-9.2979,43.0474,37.0078],[-9.2954,43.044,5.1178],[-9.2921,43.0426,0.0],[-9.2879,43.0435,0.0],[-9.284,43.0288,0.0],[-9.281,43.0251,18.2973],[-9.2824,43.0193,0.0],[-9.2796,43.0168,0.0],[-9.2793,43.0124,35.9654],[-9.2743,43.0079,0.0],[-9.2724,43.0096,11.3303],[-9.2632,43.0101,0.0],[-9.2582,43.0029,0.0],[-9.2532,43.004,10.3418],[-9.2521,43.0029,2.4154],[-9.2615,43.0007,0.37],[-9.2618,42.9979,0.0],[-9.2604,42.9982,2.9457],[-9.2601,42.9963,0.0],[-9.2607,42.9924,0.0],[-9.2629,42.9899,3.9784],[-9.2612,42.9851,9.6967],[-9.2629,42.981,52.1878],[-9.2607,42.9721,4.8539],[-9.2624,42.9687,5.1822],[-9.2699,42.9618,6.2847],[-9.2746,42.9635,0.0],[-9.2788,42.9626,0.0],[-9.2776,42.9593,0.0],[-9.2849,42.9551,0.0],[-9.2829,42.9435,0.0],[-9.2857,42.9432,23.2414],[-9.2879,42.9454,0.0],[-9.2896,42.9362,130.0871],[-9.2982,42.9218,0.0],[-9.2918,42.9193,0.0],[-9.2826,42.9196,11.321],[-9.2788,42.9104,0.0],[-9.2746,42.9101,3.6759],[-9.2746,42.9074,3.1581],[-9.2774,42.9049,0.0],[-9.2821,42.8929,0.0],[-9.2815,42.8893,0.0],[-9.2749,42.8862,7.8146],[-9.2743,42.8804,0.0],[-9.2696,42.8799,0.0],[-9.2649,42.8918,4.6047],[-9.2621,42.8946,0.0],[-9.2618,42.8999,0.0],[-9.2593,42.9032,0.0],[-9.2599,42.906,0.0],[-9.2557,42.9085,0.0],[-9.2574,42.9093,0.0],[-9.2621,42.9071,0.0],[-9.261,42.9104,4.4923],[-9.2649,42.9151,2.7444],[-9.2629,42.9199,0.0],[-9.2585,42.9235,0.0],[-9.251,42.926,6.4022],[-9.2471,42.9254,0.0],[-9.2421,42.9276,0.0],[-9.2338,42.9263,0.0],[-9.2315,42.9321,0.0],[-9.2332,42.9368,0.0],[-9.2324,42.9415,1.1244],[-9.2265,42.9396,0.0],[-9.2212,42.9429,1.0748],[-9.2187,42.9426,2.3312],[-9.2187,42.9371,15.5753],[-9.216,42.9346,0.0],[-9.2179,42.9313,0.4571],[-9.214,42.9282,0.0],[-9.2085,42.9271,13.0901],[-9.2101,42.9176,0.0],[-9.209,42.916,0.0],[-9.2054,42.9174,8.5933],[-9.1946,42.9174,14.167],[-9.1893,42.9149,0.0],[-9.1835,42.9157,1.8635],[-9.1824,42.9188,0.0],[-9.1862,42.9232,11.031],[-9.184,42.931,0.0],[-9.1868,42.936,12.1871],[-9.191,42.9385,9.8247],[-9.1899,42.9443,0.0],[-9.1929,42.9454,5.4274],[-9.1899,42.9524,1.9042],[-9.1851,42.9465,0.0],[-9.1812,42.9454,0.0],[-9.1804,42.9437,2.1364],[-9.179,42.9435,2.1364],[-9.1782,42.9454,0.0],[-9.174,42.944,3.7706],[-9.1746,42.9396,0.0],[-9.171,42.9338,8.7588],[-9.1704,42.9282,0.0],[-9.1657,42.9251,35.2976],[-9.1624,42.9118,0.0],[-9.1568,42.9104,0.0],[-9.1549,42.9129,4.754],[-9.1532,42.9104,0.0],[-9.1512,42.9104,0.0],[-9.1465,42.9118,5.4715],[-9.1438,42.909,3.8786],[-9.1412,42.9087,0.0],[-9.1346,42.9107,13.6644],[-9.1279,42.9071,2.9969],[-9.1271,42.9051,14.8685],[-9.1304,42.9029,14.8413],[-9.1318,42.8993,0.0],[-9.144,42.8957,0.0],[-9.1449,42.8918,0.0],[-9.139,42.8913,0.0],[-9.1393,42.8874,18.2719],[-9.1415,42.8821,0.0],[-9.1443,42.8838,0.0],[-9.1485,42.8835,0.3745],[-9.1474,42.8768,0.0],[-9.1485,42.8743,0.3087],[-9.1512,42.8743,0.0],[-9.1518,42.8707,0.0],[-9.1507,42.869,0.0],[-9.1479,42.869,1.5865],[-9.1488,42.8654,0.0],[-9.1468,42.8651,0.0],[-9.1474,42.861,0.5525],[-9.1362,42.8457,0.0],[-9.133,42.8479,5.012],[-9.1332,42.8449,0.0],[-9.1276,42.8426,0.0],[-9.1251,42.8465,2.5477],[-9.1213,42.8476,1.2782],[-9.1154,42.8457,0.0],[-9.1118,42.8424,0.0],[-9.1093,42.839,0.0],[-9.1071,42.8301,0.0],[-9.1079,42.8207,0.0],[-9.1121,42.8124,0.0],[-9.1249,42.8068,1.022],[-9.1293,42.8068,0.0],[-9.1304,42.8054,0.8842],[-9.1421,42.806,0.0],[-9.1443,42.8024,0.0],[-9.1457,42.8043,0.0],[-9.1515,42.8063,0.0],[-9.1538,42.8021,0.0],[-9.1488,42.7949,0.0],[-9.1404,42.7954,0.0],[-9.1401,42.7912,0.0],[-9.1357,42.7904,0.0],[-9.1293,42.7832,0.0],[-9.1279,42.7804,0.0],[-9.1304,42.7785,0.0],[-9.126,42.7754,0.0],[-9.1282,42.7707,0.0],[-9.1179,42.769,7.1573],[-9.1154,42.7588,0.0],[-9.1179,42.7554,0.0],[-9.1179,42.7524,0.0],[-9.1118,42.7518,0.0],[-9.1115,42.754,0.0],[-9.1037,42.7551,0.0],[-9.0935,42.7499,1.4706],[-9.0904,42.7415,0.0],[-9.0918,42.7371,0.0],[-9.0776,42.7382,0.0],[-9.0757,42.7457,1.0281],[-9.0804,42.7524,15.0413],[-9.0765,42.7571,6.7989],[-9.0671,42.7599,0.0],[-9.0582,42.759,2.2608],[-9.0551,42.7632,27.2867],[-9.0543,42.7676,38.2075],[-9.0479,42.769,3.0854],[-9.0476,42.771,3.9158],[-9.0526,42.774,0.0],[-9.0526,42.7762,0.3879],[-9.0593,42.7774,4.6286],[-9.0604,42.7804,0.0],[-9.0649,42.7829,0.0],[-9.0635,42.7865,5.7416],[-9.0424,42.7871,8.5179],[-9.0332,42.7918,0.0],[-9.0307,42.7968,7.1844],[-9.0282,42.7985,2.2944],[-9.0251,42.7985,1.1842],[-9.0224,42.7962,0.8883],[-9.0212,42.8001,1.0564],[-9.0193,42.801,0.0],[-9.0199,42.8026,0.399],[-9.0179,42.8029,3.0302],[-9.0179,42.8004,2.511],[-9.0135,42.7988,8.8914],[-9.0118,42.7962,12.7012],[-9.0135,42.7921,0.5861],[-9.0162,42.7904,0.0],[-9.0151,42.7824,1.4197],[-9.0074,42.7835,0.0],[-9.0049,42.7826,3.7905],[-9.0024,42.7785,0.0],[-8.9993,42.7824,16.6696],[-8.9974,42.7804,0.0],[-8.9918,42.7804,0.0],[-8.9893,42.7776,1.6376],[-8.9868,42.7779,0.0],[-8.9863,42.7796,1.7439],[-8.981,42.7785,0.0],[-8.9804,42.786,0.706],[-8.9776,42.7876,0.9398],[-8.9776,42.7893,1.184],[-8.9818,42.7899,4.972],[-8.9804,42.7915,0.543],[-8.9824,42.7926,1.2459],[-8.9799,42.7943,3.6963],[-8.979,42.7904,3.3417],[-8.9746,42.7915,2.7422],[-8.9732,42.7893,0.0],[-8.969,42.7893,3.5403],[-8.9663,42.7871,15.105],[-8.9676,42.7815,0.0],[-8.9663,42.779,1.3854],[-8.959,42.7793,6.0165],[-8.9504,42.784,12.039],[-8.9487,42.7893,10.3573],[-8.9443,42.7938,0.0],[-8.9462,42.796,3.4641],[-8.9457,42.7974,0.0],[-8.9415,42.8015,0.0],[-8.936,42.8029,3.4861],[-8.9351,42.8051,0.0],[-8.931,42.8065,0.6506],[-8.9324,42.8018,0.0],[-8.9282,42.8013,3.1179],[-8.9232,42.7971,19.3179],[-8.9157,42.7974,7.211],[-8.9146,42.801,4.8815],[-8.9118,42.8004,0.0],[-8.9082,42.8021,9.919],[-8.9063,42.8054,0.0],[-8.9057,42.8179,18.109],[-8.8996,42.8249,0.236],[-8.9049,42.8285,0.5207],[-8.899,42.8288,9.2654],[-8.8965,42.8274,18.7074],[-8.8915,42.8196,2.5228],[-8.8865,42.8162,0.0],[-8.8807,42.8176,3.108],[-8.8799,42.8274,1.4129],[-8.8749,42.829,1.3569],[-8.8696,42.8285,0.4674],[-8.8774,42.8265,0.2346],[-8.8785,42.8224,0.0],[-8.8765,42.8207,0.0821],[-8.8768,42.8185,0.0],[-8.8793,42.816,0.0],[-8.8868,42.8129,0.0],[-8.8951,42.8157,0.0],[-8.8965,42.814,1.7934],[-8.8957,42.8104,5.6015],[-8.8965,42.8076,8.396],[-8.8985,42.8074,0.0],[-8.8974,42.8046,0.0],[-8.9015,42.8015,1.4826],[-8.8951,42.796,0.0],[-8.8962,42.7932,4.2507],[-8.8988,42.7935,0.8776],[-8.9001,42.7912,2.3377],[-8.8912,42.7896,1.8483],[-8.8929,42.7863,0.0],[-8.8907,42.784,1.7631],[-8.8915,42.7807,0.0894],[-8.894,42.7835,1.5423],[-8.8996,42.7832,1.1583],[-8.9013,42.7857,0.0],[-8.9063,42.7868,17.9579],[-8.9101,42.7912,1.2112],[-8.9288,42.7837,7.4023],[-8.9318,42.7779,0.0],[-8.9365,42.7785,2.3355],[-8.9371,42.7757,9.2932],[-8.9404,42.7738,0.0],[-8.9393,42.7674,2.6138],[-8.9421,42.7665,0.0],[-8.9424,42.7643,5.1504],[-8.9462,42.764,0.0],[-8.9457,42.7604,18.0193],[-8.9496,42.7621,0.6719],[-8.9515,42.7565,3.0794],[-8.951,42.7526,2.5869],[-8.9568,42.7454,16.6417],[-8.9613,42.7454,11.4623],[-8.964,42.7415,5.3217],[-8.9693,42.739,2.5681],[-8.9751,42.7399,13.2788],[-8.9757,42.7451,0.8725],[-8.9779,42.7449,0.0],[-8.979,42.7426,0.8576],[-8.9896,42.7415,8.7134],[-8.9915,42.7396,0.0],[-8.991,42.7351,7.977],[-8.994,42.7324,0.0],[-8.9946,42.7287,24.7893],[-8.999,42.7265,28.835],[-9.001,42.7268,0.0],[-9.0021,42.7296,0.0],[-9.0088,42.7274,0.0],[-9.0093,42.7176,0.0],[-9.0115,42.7113,0.0],[-9.0132,42.7096,1.0868],[-9.024,42.7107,0.0],[-9.0262,42.7085,0.0],[-9.0251,42.7049,6.7509],[-9.0287,42.7032,0.0],[-9.0304,42.6982,6.2068],[-9.034,42.696,0.0],[-9.0343,42.6949,4.5219],[-9.0296,42.6924,0.0],[-9.0315,42.679,0.0],[-9.0337,42.6757,0.0],[-9.0382,42.6754,0.0],[-9.0399,42.6738,0.0],[-9.0404,42.6712,0.0],[-9.0429,42.6699,0.0],[-9.0432,42.6649,0.0],[-9.0457,42.6629,0.0],[-9.0432,42.6604,0.0],[-9.0437,42.6524,0.0],[-9.0393,42.6501,0.0],[-9.0404,42.6413,0.0],[-9.0546,42.6237,0.0],[-9.0663,42.6199,0.0],[-9.0654,42.6182,0.0],[-9.0629,42.6188,0.0],[-9.0618,42.6174,0.0],[-9.0612,42.6135,2.3398],[-9.0649,42.6107,0.0],[-9.0632,42.6071,0.0],[-9.0696,42.5996,0.0],[-9.0737,42.6032,0.0],[-9.081,42.5968,0.0],[-9.0818,42.5932,0.0],[-9.0787,42.5907,0.0],[-9.081,42.5815,0.0],[-9.0837,42.5804,0.0],[-9.0874,42.5815,0.0],[-9.0924,42.5785,0.0],[-9.0926,42.5757,0.0],[-9.0874,42.5685,0.0],[-9.0843,42.5685,0.0],[-9.0824,42.566,0.0],[-9.0779,42.5668,0.0],[-9.0738,42.5649,0.0],[-9.0726,42.5674,0.0],[-9.076,42.5715,3.3898],[-9.0699,42.5715,0.0],[-9.0696,42.5729,0.0],[-9.0721,42.5735,5.4841],[-9.0696,42.5743,5.5705],[-9.0682,42.5729,0.0],[-9.0671,42.5751,0.0],[-9.0596,42.5771,1.0874],[-9.056,42.5762,0.0],[-9.0518,42.5749,0.0],[-9.0421,42.5663,0.0],[-9.0379,42.5601,0.0],[-9.0351,42.5593,0.0],[-9.0337,42.5524,0.0],[-9.0321,42.5515,0.0],[-9.0324,42.5446,0.0],[-9.0376,42.5421,0.0],[-9.0407,42.5382,0.0],[-9.0429,42.5324,0.0],[-9.0421,42.5293,0.4339],[-9.0454,42.5251,0.0],[-9.0435,42.5182,0.0],[-9.0482,42.5185,0.0],[-9.0485,42.5171,0.0],[-9.0424,42.5168,0.0],[-9.0315,42.5207,7.0754],[-9.0232,42.5165,0.0],[-9.0201,42.519,4.0218],[-9.0174,42.5182,0.0],[-9.0176,42.5221,1.7603],[-9.0126,42.5235,0.4041],[-9.0096,42.5149,0.0],[-9.0062,42.5135,0.0],[-9.011,42.5204,0.301],[-9.0104,42.526,3.3891],[-9.0062,42.5285,0.7163],[-8.9982,42.529,1.957],[-8.9979,42.5313,8.7925],[-8.9924,42.5332,0.0],[-8.986,42.5382,0.0],[-8.9832,42.5435,9.5378],[-8.9854,42.5518,7.4391],[-8.9885,42.5543,0.0],[-8.9865,42.5599,0.0],[-8.9918,42.5593,10.819],[-8.9876,42.5624,0.0],[-8.9907,42.5638,1.9392],[-8.9821,42.5685,0.0],[-8.9726,42.5693,16.8913],[-8.971,42.5682,0.0],[-8.9682,42.5696,3.1283],[-8.9679,42.5679,0.0],[-8.9646,42.5676,0.2609],[-8.9613,42.5704,0.0],[-8.9629,42.5726,4.1667],[-8.9582,42.5776,0.0],[-8.9579,42.581,3.1393],[-8.9535,42.5849,1.3902],[-8.9454,42.5851,1.945],[-8.9399,42.5826,2.703],[-8.9368,42.5846,1.9578],[-8.9326,42.5838,5.4335],[-8.9304,42.5868,0.0],[-8.9201,42.5865,0.0],[-8.9207,42.594,0.0],[-8.9235,42.5965,10.4319],[-8.9321,42.5965,10.6639],[-8.9365,42.6018,3.6326],[-8.9371,42.6071,0.9347],[-8.9326,42.6093,0.8854],[-8.9312,42.6079,0.6015],[-8.9315,42.6046,0.2989],[-8.9301,42.6046,0.2989],[-8.9299,42.6074,0.6015],[-8.9329,42.611,4.7699],[-8.931,42.6115,0.0],[-8.931,42.6135,4.6928],[-8.9279,42.6129,0.0],[-8.9282,42.614,16.0633],[-8.9226,42.6168,0.0],[-8.9215,42.6218,29.6494],[-8.9185,42.6243,4.4217],[-8.914,42.6257,6.6259],[-8.9068,42.6318,0.0],[-8.9026,42.6326,0.0],[-8.9026,42.636,0.2121],[-8.9004,42.6387,0.0],[-8.9021,42.6418,-1.0],[-8.9004,42.6435,-1.0],[-8.8943,42.6435,9.5107],[-8.899,42.6421,-1.0],[-8.8993,42.6407,5.4884],[-8.8932,42.6413,3.3017],[-8.8807,42.6385,0.4848],[-8.8738,42.6326,12.4227],[-8.874,42.6282,9.4412],[-8.8807,42.6276,0.0],[-8.8832,42.6257,0.386],[-8.8835,42.6229,7.2581],[-8.8879,42.6201,0.4496],[-8.8865,42.6157,0.0],[-8.8887,42.6137,0.6882],[-8.8901,42.6151,0.0],[-8.8912,42.614,0.0],[-8.8876,42.6101,0.0],[-8.8849,42.6149,1.1041],[-8.8807,42.6124,1.4399],[-8.8757,42.614,5.8445],[-8.8693,42.6104,0.4765],[-8.8687,42.6082,0.0],[-8.8651,42.6096,2.8488],[-8.8618,42.606,0.7507],[-8.8568,42.6063,0.0],[-8.8571,42.6115,0.0],[-8.8601,42.6113,7.7384],[-8.8618,42.6146,4.4576],[-8.8618,42.6171,20.276],[-8.8596,42.6179,0.0],[-8.8582,42.6268,0.0],[-8.8557,42.6274,5.7024],[-8.8557,42.6299,4.1637],[-8.8535,42.6307,8.8197],[-8.8462,42.6307,8.4595],[-8.8415,42.6288,8.125],[-8.8396,42.629,4.682],[-8.8379,42.6321,1.5832],[-8.8385,42.6351,1.2891],[-8.8443,42.6374,4.7846],[-8.8462,42.6404,7.3561],[-8.856,42.6404,15.5675],[-8.861,42.6463,4.2781],[-8.8549,42.6504,0.0],[-8.8562,42.6526,9.3212],[-8.8512,42.6593,0.0],[-8.8521,42.664,11.1915],[-8.851,42.666,2.4878999999999998],[-8.8454,42.6654,0.0],[-8.8435,42.6626,0.0],[-8.8399,42.6615,0.0],[-8.8415,42.664,27.9363],[-8.8404,42.6754,0.0],[-8.8426,42.6776,5.5203],[-8.8415,42.6793,21.6336],[-8.8432,42.6824,24.4811],[-8.8424,42.6862,0.6783],[-8.8365,42.6776,3.2599],[-8.834,42.6763,1.8141],[-8.829,42.6662,0.0],[-8.8179,42.6657,5.5638],[-8.8154,42.664,4.7689],[-8.8143,42.6601,19.3182],[-8.8157,42.6574,9.5876],[-8.8196,42.6524,0.0],[-8.8213,42.6524,0.0],[-8.8204,42.6501,7.8611],[-8.8232,42.6501,0.4878],[-8.8221,42.6485,3.7731],[-8.8249,42.646,0.0],[-8.8126,42.6443,4.346],[-8.8035,42.6387,2.1368],[-8.8037,42.6368,0.0],[-8.801,42.6385,0.0],[-8.7999,42.6365,1.0516],[-8.7949,42.6368,0.5901],[-8.7876,42.6401,0.6946],[-8.7787,42.6415,0.0],[-8.7707,42.6485,0.0],[-8.7704,42.6518,0.0],[-8.7638,42.6518,0.8077],[-8.7587,42.6474,10.845],[-8.7546,42.6476,0.0],[-8.7499,42.651,3.8357],[-8.7468,42.6507,1.5697],[-8.7463,42.6585,0.0],[-8.7432,42.6635,0.0],[-8.744,42.6654,0.5421],[-8.7404,42.6649,1.866],[-8.7374,42.6696,2.1756],[-8.7301,42.6732,4.7218],[-8.7262,42.6771,0.0],[-8.7257,42.6746,2.3078],[-8.729,42.6721,0.0],[-8.7299,42.6688,1.2153],[-8.729,42.666,2.1541],[-8.7343,42.6646,1.086],[-8.739,42.661,0.4047],[-8.7418,42.6515,3.8104],[-8.7413,42.649,2.5102],[-8.7487,42.6424,0.0],[-8.7535,42.6415,3.7529],[-8.7568,42.639,0.0],[-8.7568,42.6368,1.8306],[-8.7593,42.6365,0.5395],[-8.761,42.6335,4.867],[-8.7635,42.6326,0.0507],[-8.7651,42.6285,1.2135],[-8.7704,42.6254,4.7945],[-8.7699,42.6232,7.3008],[-8.774,42.6218,0.9736],[-8.7751,42.6199,7.9269],[-8.7779,42.6137,0.0],[-8.7718,42.611,0.735],[-8.766,42.6024,4.7038],[-8.7679,42.6004,2.1058],[-8.7707,42.6004,0.0],[-8.7721,42.5971,0.0],[-8.769,42.5971,4.1681],[-8.7712,42.5962,0.0],[-8.7715,42.5935,5.5601],[-8.774,42.5935,4.1441],[-8.774,42.5974,0.0],[-8.7796,42.5951,0.6273],[-8.7799,42.5965,0.0],[-8.784,42.5976,2.0956],[-8.7851,42.5971,2.0956],[-8.7843,42.5932,3.731],[-8.7862,42.5932,1.9417],[-8.7868,42.591,5.0343],[-8.7901,42.589,0.2425],[-8.7915,42.5899,0.2425],[-8.7912,42.5857,0.5921],[-8.7965,42.5863,1.1812],[-8.7971,42.5824,3.662],[-8.7957,42.5801,8.1265],[-8.7996,42.5818,6.5258],[-8.8029,42.5799,4.8651],[-8.8054,42.5807,0.0],[-8.8051,42.5782,6.1053],[-8.8076,42.576,1.3817],[-8.8249,42.5782,0.7096],[-8.8271,42.5757,0.0],[-8.8296,42.5754,2.7859],[-8.8296,42.5679,3.0638],[-8.8318,42.5621,1.5332],[-8.8285,42.5618,4.5675],[-8.8279,42.5599,0.5825],[-8.8254,42.559,1.147],[-8.8204,42.5624,4.8049],[-8.819,42.5612,1.6939],[-8.8201,42.5565,8.6421],[-8.8221,42.5546,5.6407],[-8.8246,42.5557,0.0],[-8.8235,42.554,1.8271],[-8.8251,42.5532,4.143],[-8.8257,42.5576,2.14],[-8.8301,42.5588,0.0],[-8.8304,42.5604,0.0],[-8.834,42.5601,0.6181],[-8.8343,42.5565,3.6793],[-8.8365,42.554,2.0893],[-8.8363,42.5521,1.9024],[-8.8335,42.5507,0.5456],[-8.8315,42.5449,0.7045],[-8.8265,42.5407,3.2066],[-8.826,42.5262,1.0068],[-8.8274,42.5207,0.0],[-8.8296,42.5196,0.6816],[-8.8263,42.5185,0.0],[-8.8226,42.5204,0.0],[-8.8213,42.5185,0.0],[-8.8215,42.5229,0.6989],[-8.8151,42.5249,1.3601],[-8.8162,42.5204,7.7634],[-8.8151,42.5196,7.7634],[-8.8174,42.5193,-0.0834],[-8.8154,42.5165,5.465],[-8.8174,42.5132,0.3426],[-8.8165,42.5093,1.2345],[-8.8196,42.5088,0.3179],[-8.8162,42.5062,8.3361],[-8.8179,42.5024,1.4094],[-8.8146,42.5015,0.4968],[-8.8132,42.4979,1.1536],[-8.8071,42.5013,0.5445],[-8.8057,42.5004,1.8043],[-8.8093,42.4979,0.2598],[-8.8101,42.4946,0.0],[-8.8124,42.4946,0.0],[-8.8132,42.4929,2.0187],[-8.8118,42.4918,9.4922],[-8.8149,42.4935,3.3862],[-8.8185,42.491,5.6037],[-8.8251,42.4957,0.0],[-8.8276,42.491,0.0],[-8.8271,42.4887,1.8065],[-8.831,42.4849,0.0],[-8.8304,42.4804,0.9349],[-8.8263,42.4785,3.0083],[-8.826,42.4743,1.7295],[-8.829,42.4724,0.0],[-8.8293,42.4701,0.0],[-8.8213,42.4676,1.3058],[-8.8226,42.4646,0.2943],[-8.8221,42.4588,3.4975],[-8.8207,42.4585,0.4635],[-8.821,42.4524,0.2345],[-8.8254,42.4538,0.4497],[-8.8279,42.4571,0.0],[-8.8335,42.4582,0.3174],[-8.8351,42.456,0.0],[-8.8335,42.4529,3.5705],[-8.8354,42.4518,7.8694],[-8.8368,42.4585,0.1466],[-8.8387,42.4596,0.1647],[-8.8421,42.4554,2.7936],[-8.8482,42.454,0.989],[-8.8443,42.4565,0.7011],[-8.8465,42.4596,0.0],[-8.8488,42.4599,0.5296],[-8.8496,42.4582,0.1285],[-8.8479,42.456,0.4447],[-8.8554,42.4535,1.8125],[-8.8582,42.4501,5.7349],[-8.8685,42.4471,2.0408],[-8.871,42.4526,0.4453],[-8.8729,42.4538,2.0226],[-8.8721,42.4626,5.6926],[-8.8696,42.4649,1.1655],[-8.866,42.4649,0.0],[-8.8621,42.4699,5.1718],[-8.8565,42.4701,0.0],[-8.8557,42.4721,0.8265],[-8.8585,42.4743,0.1121],[-8.8562,42.4774,0.0],[-8.8601,42.4826,4.4697],[-8.8574,42.4868,0.0],[-8.8576,42.4912,3.7038],[-8.8596,42.494,0.0],[-8.8574,42.4957,0.0],[-8.8621,42.4957,2.6476],[-8.8621,42.4971,1.3943],[-8.8579,42.4976,0.0],[-8.8676,42.499,0.0],[-8.8707,42.4957,0.696],[-8.8729,42.496,0.4466],[-8.8729,42.4985,1.7978],[-8.871,42.4985,0.0],[-8.8712,42.501,1.0233],[-8.8782,42.4976,0.6196],[-8.8837,42.499,0.1811],[-8.884,42.4968,2.0349],[-8.8899,42.4963,0.0],[-8.8918,42.4935,0.8733],[-8.8907,42.4912,0.0],[-8.8918,42.489,0.5885],[-8.8857,42.4921,4.2983],[-8.8832,42.4882,7.9354],[-8.8871,42.486,0.0],[-8.8885,42.4826,2.0092],[-8.8899,42.4832,2.0092],[-8.8896,42.4863,1.2927],[-8.8924,42.486,5.25],[-8.8957,42.4799,6.5433],[-8.8999,42.4801,4.0599],[-8.9082,42.4746,5.1248],[-8.9137,42.4752,9.735],[-8.9185,42.4776,0.6905],[-8.9218,42.4771,2.9668],[-8.9224,42.4785,2.9668],[-8.9312,42.4776,4.3132],[-8.9379,42.4796,0.0],[-8.9379,42.4763,0.809],[-8.9399,42.4771,0.0],[-8.9404,42.476,0.0],[-8.9368,42.4729,4.7226],[-8.936,42.4685,3.8057],[-8.9393,42.4679,0.0],[-8.9415,42.4646,1.9024],[-8.9449,42.4649,0.0],[-8.9451,42.4635,0.0],[-8.9401,42.4607,0.0],[-8.9354,42.4554,1.5779],[-8.9357,42.4532,0.0],[-8.9338,42.4532,0.0],[-8.9343,42.4518,0.0],[-8.931,42.4551,0.5717],[-8.931,42.4507,0.0],[-8.9293,42.449,0.0],[-8.9276,42.4515,0.0],[-8.9237,42.4512,0.6133],[-8.9232,42.4546,0.0],[-8.9182,42.4574,0.0],[-8.9199,42.459,4.4908],[-8.9162,42.459,0.0],[-8.9132,42.4629,10.5439],[-8.9046,42.4607,4.3089],[-8.8968,42.4615,2.3445],[-8.8918,42.4574,4.5816],[-8.8865,42.4574,7.0171],[-8.8821,42.4554,4.3264],[-8.874,42.4449,4.2128],[-8.8707,42.4351,0.0],[-8.8721,42.4324,0.0],[-8.8757,42.4338,0.0],[-8.8754,42.4321,1.7299],[-8.8738,42.4321,0.0],[-8.8746,42.4301,9.0142],[-8.8807,42.4307,0.0],[-8.8796,42.429,0.5606],[-8.874,42.4282,18.3151],[-8.8738,42.4265,16.264],[-8.8765,42.4254,0.0],[-8.8765,42.4226,8.4736],[-8.8821,42.424,0.0],[-8.8813,42.4212,0.0],[-8.8785,42.4204,4.1809],[-8.8804,42.4199,0.0],[-8.8801,42.4165,12.4514],[-8.8818,42.4146,0.0],[-8.8785,42.4135,0.0],[-8.8757,42.4149,2.1875],[-8.8718,42.4132,0.0],[-8.8682,42.4143,6.4074],[-8.859,42.404,13.5008],[-8.8585,42.4015,20.2435],[-8.8599,42.3999,0.0],[-8.8587,42.3979,10.7347],[-8.8568,42.396,0.5789],[-8.8546,42.3985,0.0],[-8.8479,42.3976,7.8348],[-8.8457,42.3954,2.3868],[-8.8474,42.3937,0.0],[-8.8465,42.3907,0.8926],[-8.8424,42.3899,0.0],[-8.8429,42.3865,0.0],[-8.839,42.3838,5.0587],[-8.8351,42.3854,0.0],[-8.834,42.3887,6.8741],[-8.8321,42.3896,3.1999],[-8.8265,42.386,0.0],[-8.826,42.3913,8.1165],[-8.8229,42.391,2.9212],[-8.8215,42.3935,0.0],[-8.8185,42.394,1.3709],[-8.8246,42.3957,0.0],[-8.824,42.3982,0.5978],[-8.8199,42.3993,10.5996],[-8.8187,42.3963,0.0],[-8.8168,42.396,2.1515],[-8.8149,42.4012,6.3711],[-8.8082,42.4001,0.0],[-8.8054,42.3957,0.0],[-8.8013,42.3963,0.4377],[-8.8035,42.3996,0.0],[-8.801,42.4004,0.0],[-8.7918,42.396,0.0],[-8.7871,42.3974,12.1854],[-8.7846,42.3951,0.0],[-8.7807,42.3957,17.603],[-8.7774,42.3935,0.0],[-8.7771,42.3893,10.5465],[-8.7738,42.3879,2.8023],[-8.7712,42.3893,15.2605],[-8.7704,42.3937,0.0],[-8.7607,42.3949,0.0],[-8.7579,42.3974,2.0602],[-8.7582,42.4018,1.4684],[-8.7485,42.4026,3.5412],[-8.7485,42.4046,20.4681],[-8.7401,42.4137,0.0],[-8.7346,42.4135,0.0],[-8.7301,42.4174,15.4557],[-8.7257,42.4176,0.0],[-8.7232,42.421,5.2344],[-8.7193,42.4226,5.3202],[-8.714,42.4212,0.8416],[-8.7065,42.4271,0.0],[-8.704,42.4313,2.5082],[-8.7046,42.4343,6.7887],[-8.6974,42.4351,0.0],[-8.6954,42.4371,14.874],[-8.6896,42.4382,1.0738],[-8.6882,42.4368,8.0224],[-8.6868,42.4324,0.2715],[-8.6882,42.4299,0.9759],[-8.6851,42.4279,0.0],[-8.6854,42.4238,0.0],[-8.6815,42.4212,3.2738],[-8.6732,42.4207,3.6058],[-8.6712,42.4263,5.1556],[-8.6651,42.424,2.251],[-8.6637,42.4254,0.4962],[-8.661,42.424,1.5046],[-8.6599,42.426,1.9111],[-8.6565,42.4257,2.4495],[-8.6551,42.4279,0.0],[-8.6562,42.4307,3.5883],[-8.6524,42.4349,7.9498],[-8.6515,42.434,0.4469],[-8.6546,42.4293,0.0],[-8.6518,42.4276,1.8992],[-8.6562,42.4229,4.0866],[-8.6654,42.4204,4.4334],[-8.6815,42.4071,2.0047],[-8.6851,42.4076,0.0],[-8.6857,42.4051,0.358],[-8.6888,42.4032,6.079],[-8.6987,42.4029,0.4809],[-8.6985,42.3993,1.5468],[-8.6915,42.4004,2.9109],[-8.6943,42.3974,0.5906],[-8.6985,42.3979,0.0],[-8.6974,42.3943,1.4122],[-8.7015,42.3993,0.0],[-8.7026,42.396,0.3667],[-8.7065,42.3957,0.3256],[-8.7062,42.3976,0.444],[-8.7076,42.3976,0.0],[-8.7107,42.396,0.0],[-8.7104,42.3935,15.6437],[-8.7151,42.3915,6.2328],[-8.7149,42.3899,17.9642],[-8.719,42.3893,2.8382],[-8.7201,42.3854,6.0117],[-8.7257,42.3854,19.5658],[-8.7299,42.3757,2.5494],[-8.7354,42.374,0.0],[-8.734,42.3763,0.0],[-8.7368,42.376,0.0],[-8.7401,42.371,3.3899],[-8.7401,42.3679,5.0619],[-8.7446,42.3682,3.1634],[-8.7463,42.3651,48.753],[-8.7454,42.3618,28.9459],[-8.7471,42.3604,0.0],[-8.7468,42.3576,0.0],[-8.7518,42.3499,5.4714],[-8.7521,42.3424,13.2133],[-8.7554,42.3401,10.823],[-8.7626,42.3401,26.9173],[-8.7646,42.3362,2.5375],[-8.7679,42.3357,0.0],[-8.7704,42.3326,5.3776],[-8.7729,42.3326,0.0556],[-8.7754,42.3304,23.7195],[-8.7774,42.3312,1.879],[-8.7824,42.3279,2.9408],[-8.786,42.3274,1.0232],[-8.7868,42.3293,0.3788],[-8.7879,42.3271,0.3857],[-8.7921,42.3271,6.1055],[-8.8001,42.3321,18.1813],[-8.7982,42.3362,12.7265],[-8.7999,42.339,0.0],[-8.8068,42.3382,16.9979],[-8.8113,42.3396,0.0],[-8.8135,42.3371,1.1994],[-8.8185,42.3382,2.5884],[-8.8226,42.3371,0.0],[-8.826,42.3421,0.0],[-8.8301,42.341,0.0],[-8.8335,42.3424,0.0],[-8.8374,42.3404,1.2951],[-8.8382,42.3379,1.7996],[-8.8346,42.3368,0.7218],[-8.8329,42.3326,0.0],[-8.8274,42.3329,0.0],[-8.8271,42.3299,0.0],[-8.8293,42.3276,0.0],[-8.8268,42.326,0.0],[-8.8282,42.3226,0.0],[-8.8254,42.3232,0.0],[-8.8271,42.321,0.0],[-8.824,42.3199,19.7941],[-8.8235,42.3138,0.3609],[-8.8182,42.314,5.6678],[-8.8196,42.3124,0.0],[-8.8185,42.3068,0.0],[-8.8196,42.3035,2.4113],[-8.8221,42.3032,1.366],[-8.8232,42.3013,1.1455],[-8.8235,42.2968,1.0254],[-8.8204,42.2957,11.7394],[-8.8199,42.2901,11.2188],[-8.8229,42.2871,0.0],[-8.8229,42.2818,0.0],[-8.821,42.279,0.5017],[-8.8182,42.2801,1.0165],[-8.8168,42.2788,1.0165],[-8.8193,42.2774,0.0],[-8.8201,42.2743,5.0579],[-8.8299,42.2776,0.0],[-8.8315,42.2832,0.0],[-8.8343,42.2865,1.8421],[-8.8379,42.2876,2.3299],[-8.8382,42.2915,1.7656],[-8.8471,42.2921,0.0],[-8.8465,42.2971,0.0],[-8.8543,42.3065,15.0889],[-8.8538,42.3096,4.5712],[-8.8576,42.3093,0.0],[-8.8601,42.3037,0.0],[-8.8582,42.2985,21.4557],[-8.8587,42.2935,59.5505],[-8.8607,42.2907,0.0],[-8.8601,42.2868,0.0],[-8.8646,42.2782,0.0],[-8.8646,42.2721,0.0],[-8.8629,42.2682,7.3842],[-8.8665,42.2643,0.0],[-8.8671,42.2596,35.7451],[-8.871,42.2543,0.0],[-8.8743,42.254,0.0],[-8.8735,42.2504,0.0],[-8.8663,42.2513,3.3465],[-8.866,42.2476,1.1296],[-8.8632,42.2457,0.4388],[-8.8601,42.2554,36.3261],[-8.8551,42.2618,1.7755],[-8.8363,42.2588,15.3108],[-8.834,42.2565,0.0],[-8.8343,42.2535,0.0],[-8.8315,42.2513,0.9595],[-8.8271,42.2507,1.8435],[-8.816,42.2565,0.0],[-8.816,42.261,6.9566],[-8.8143,42.2618,11.9413],[-8.8118,42.2585,0.0],[-8.8101,42.259,18.201],[-8.806,42.2518,1.6434],[-8.7949,42.2496,2.3863],[-8.7949,42.2476,0.9059],[-8.7924,42.2463,0.407],[-8.7904,42.2482,0.7373],[-8.7876,42.2476,0.0],[-8.7879,42.256,11.3651],[-8.7854,42.2557,0.0],[-8.7849,42.2593,0.0],[-8.7824,42.2599,0.0],[-8.7846,42.2607,0.7184],[-8.784,42.2626,4.1789],[-8.771,42.2624,9.1295],[-8.7649,42.2582,0.0],[-8.7543,42.2635,0.0],[-8.7515,42.2679,3.2067],[-8.7401,42.2705,0.0],[-8.7393,42.2732,1.2403],[-8.7354,42.2729,0.0],[-8.7357,42.2824,0.8499],[-8.7321,42.2865,3.2786],[-8.7215,42.2851,2.3935],[-8.7212,42.2821,0.6338],[-8.7193,42.281,0.0],[-8.7199,42.2854,2.3935],[-8.7171,42.2887,9.5805],[-8.7126,42.2796,4.0488],[-8.7143,42.2782,0.0],[-8.7138,42.276,0.0],[-8.7071,42.2768,0.0],[-8.7063,42.279,15.6444],[-8.7018,42.2785,0.0],[-8.7004,42.2815,0.0],[-8.6949,42.279,14.9998],[-8.6899,42.2799,0.0],[-8.6785,42.2868,0.0],[-8.6776,42.2901,0.7266],[-8.6724,42.291,6.9874],[-8.669,42.2893,1.3818],[-8.6668,42.2912,13.2],[-8.661,42.2907,23.7184],[-8.6518,42.2979,20.0604],[-8.6551,42.3026,0.0],[-8.6574,42.3029,0.0],[-8.6585,42.3079,12.2469],[-8.6621,42.3107,14.486],[-8.6618,42.3121,1.8989],[-8.6599,42.316,4.923],[-8.6554,42.3196,0.4331],[-8.6493,42.319,0.0],[-8.6488,42.3221,7.2118],[-8.6465,42.3221,0.6436],[-8.6454,42.3246,7.4651],[-8.6363,42.3262,1.6152],[-8.6368,42.3326,0.0],[-8.6443,42.3365,13.8119],[-8.6446,42.3382,3.0361],[-8.641,42.3396,2.3396],[-8.6368,42.3471,17.0099],[-8.634,42.3479,7.5389],[-8.6324,42.3537,0.3177],[-8.6293,42.3532,7.2801],[-8.6299,42.3504,0.0],[-8.6279,42.3504,2.4386],[-8.6254,42.3457,13.6763],[-8.6204,42.349,3.4395],[-8.6132,42.346,3.013],[-8.6104,42.3474,6.6953],[-8.609,42.346,0.3937],[-8.6024,42.3454,0.0],[-8.5965,42.3462,13.9099],[-8.6018,42.3426,9.9221],[-8.606,42.3449,24.5242],[-8.6121,42.3443,6.0906],[-8.6157,42.3399,0.0],[-8.6157,42.3393,0.0],[-8.614,42.3399,4.0592],[-8.6118,42.3365,14.0851],[-8.6146,42.3351,24.5929],[-8.6162,42.3307,0.0],[-8.6112,42.3282,13.1163],[-8.6112,42.3265,6.9701],[-8.614,42.3262,4.9531],[-8.6143,42.324,19.7698],[-8.616,42.3235,2.5339],[-8.616,42.3201,8.1421],[-8.6196,42.3149,3.1069],[-8.6187,42.3121,15.1917],[-8.6218,42.3088,1.7248],[-8.6165,42.3046,3.4993],[-8.614,42.2982,18.7499],[-8.6176,42.2921,0.8272],[-8.6213,42.291,3.3274],[-8.6129,42.2876,3.8295],[-8.614,42.2857,18.5114],[-8.624,42.2899,0.0],[-8.6249,42.2893,0.0],[-8.6226,42.2871,0.935],[-8.6274,42.2885,0.0],[-8.6285,42.2851,16.9001],[-8.6335,42.2857,2.783],[-8.644,42.2907,0.0],[-8.6468,42.2907,0.0],[-8.6507,42.2879,1.4435],[-8.654,42.2885,0.0],[-8.6543,42.2874,0.0],[-8.6524,42.2868,9.1001],[-8.6554,42.2851,25.8374],[-8.6613,42.2851,4.121],[-8.6629,42.2807,5.7235],[-8.669,42.279,0.0],[-8.671,42.274,3.4135],[-8.6735,42.2724,0.0],[-8.6729,42.2693,8.5264],[-8.676,42.2649,2.8768],[-8.6824,42.2637,4.1377],[-8.6874,42.2593,0.0],[-8.6893,42.2613,0.0],[-8.6932,42.2582,1.5827],[-8.6954,42.2582,24.1965],[-8.6968,42.2604,2.5579],[-8.7035,42.2596,0.0],[-8.7043,42.2568,21.2306],[-8.7071,42.2554,0.0],[-8.7057,42.2529,0.0],[-8.711,42.2507,0.0],[-8.7104,42.2457,0.0],[-8.7126,42.241,1.7024],[-8.7149,42.2407,2.299],[-8.716,42.2438,0.0],[-8.7179,42.2413,2.5302],[-8.726,42.2432,1.4581],[-8.7337,42.2404,1.7878],[-8.7376,42.2349,0.0],[-8.7365,42.2315,0.0],[-8.7415,42.2274,0.0],[-8.7493,42.2263,1.5161],[-8.751,42.2307,1.7497],[-8.7449,42.2293,0.0],[-8.7426,42.2318,1.2234],[-8.746,42.2329,3.1819],[-8.7485,42.2313,3.3476],[-8.7532,42.2315,3.4606],[-8.7535,42.2326,0.0],[-8.751,42.2335,0.0],[-8.7512,42.2351,0.7782],[-8.7629,42.2315,0.0],[-8.761,42.2257,0.601],[-8.7551,42.2271,8.4546],[-8.7543,42.2257,5.6835],[-8.7593,42.2232,15.3362],[-8.7612,42.2243,0.7445],[-8.7671,42.2235,8.5275],[-8.7707,42.2254,2.0198],[-8.7751,42.2226,0.148],[-8.7757,42.2204,8.1044],[-8.7782,42.219,0.1588],[-8.7757,42.2146,0.0],[-8.7757,42.2096,3.0125],[-8.7804,42.2032,9.4899],[-8.7949,42.1974,0.0],[-8.7988,42.1999,0.0],[-8.8001,42.2038,0.0],[-8.8051,42.2001,1.1952],[-8.8029,42.1988,6.434],[-8.8004,42.1999,1.3672],[-8.796,42.1971,0.0],[-8.7965,42.194,3.957],[-8.8004,42.1946,0.6864],[-8.8024,42.1921,0.0],[-8.8085,42.1904,9.926],[-8.8124,42.1915,0.0],[-8.8149,42.1893,0.0],[-8.8165,42.1865,0.0],[-8.8121,42.1815,21.1241],[-8.8143,42.179,5.9043],[-8.8165,42.1685,5.5326],[-8.819,42.1682,0.0],[-8.8187,42.161,0.2718],[-8.8207,42.1607,0.0],[-8.8201,42.159,4.4923],[-8.824,42.1554,12.8701],[-8.8326,42.1532,4.9715],[-8.8379,42.1587,3.1534],[-8.8504,42.1568,3.9477],[-8.8512,42.1521,31.2123],[-8.8474,42.1482,0.0],[-8.844,42.1471,7.6968],[-8.8293,42.1479,3.4711],[-8.8263,42.146,1.6316],[-8.8254,42.1415,0.0],[-8.8238,42.1418,0.0],[-8.824,42.1432,0.0],[-8.8207,42.1424,2.0886],[-8.8168,42.1351,1.8076],[-8.8204,42.1268,9.1723],[-8.8218,42.1254,11.7309],[-8.8249,42.126,0.0],[-8.8274,42.1215,0.0],[-8.8246,42.1193,0.4176],[-8.8185,42.1215,0.0],[-8.8149,42.1154,5.9583],[-8.8182,42.1171,0.0],[-8.8243,42.1135,1.4945],[-8.8224,42.1168,0.0],[-8.8237,42.1176,1.6312],[-8.8274,42.1135,2.9918],[-8.8363,42.1124,4.1068],[-8.8363,42.1162,0.0],[-8.8379,42.1146,1.8439],[-8.841,42.1146,1.3142],[-8.8462,42.1185,11.1255],[-8.8443,42.1251,0.0],[-8.8526,42.1282,0.0],[-8.854,42.1224,0.0],[-8.8593,42.1229,0.0],[-8.8632,42.1215,1.5981],[-8.8676,42.1162,29.1934],[-8.8746,42.1154,0.5928],[-8.8782,42.1113,1.9776],[-8.8874,42.1138,0.0],[-8.8921,42.1121,1.6905],[-8.8951,42.114,0.0],[-8.9004,42.1126,0.0],[-8.9007,42.1099,1.5377],[-8.8985,42.1063,6.922],[-8.8996,42.1032,0.0],[-8.896,42.0996,0.0],[-8.8943,42.0882,9.1686],[-8.8957,42.0851,0.0],[-8.8918,42.0824,18.6702],[-8.8971,42.0771,0.0],[-8.894,42.0721,19.6703],[-8.8976,42.0674,0.0],[-8.8938,42.0635,1.534],[-8.894,42.0621,1.534],[-8.8915,42.0615,1.3272],[-8.8932,42.0593,0.0],[-8.8924,42.0576,0.5789],[-8.8888,42.0557,1.1685],[-8.8912,42.051,0.0],[-8.8854,42.0507,6.0426],[-8.8854,42.0474,5.2923],[-8.8885,42.0454,0.0],[-8.8885,42.0438,0.0],[-8.8871,42.041,0.0],[-8.8832,42.0401,3.0396],[-8.8846,42.0379,0.0],[-8.8843,42.0326,8.678],[-8.8888,42.0257,0.0],[-8.886,42.0249,11.532],[-8.8871,42.0218,0.0],[-8.8854,42.0207,8.1558],[-8.8857,42.0135,2.3872],[-8.8835,42.0121,12.3148],[-8.8835,42.0057,1.0391],[-8.881,42.0029,0.0],[-8.8771,42.0024,1.6011],[-8.8849,41.9946,0.4579],[-8.8849,41.9904,4.1733],[-8.8876,41.9857,0.0],[-8.8882,41.9715,0.7701],[-8.8865,41.9676,0.0],[-8.8876,41.9663,0.0],[-8.886,41.9643,30.0954],[-8.8879,41.9615,0.0],[-8.8857,41.9607,25.8142],[-8.8871,41.956,0.0],[-8.8851,41.9526,2.4852],[-8.8868,41.9512,0.0],[-8.8854,41.9429,20.8106],[-8.8885,41.9357,0.0],[-8.8843,41.9299,25.2252],[-8.8857,41.9282,3.3319],[-8.8849,41.916,0.5435],[-8.8821,41.9113,0.0],[-8.8771,41.9104,0.3205],[-8.8807,41.9049,0.0],[-8.8749,41.899,7.2315],[-8.8804,41.8915,0.0],[-8.8821,41.881,2.8266],[-8.8751,41.8707,0.2046],[-8.8733,41.8699,0.0],[-8.8654,41.8741,1.228],[-8.863,41.872,0.0],[-8.851,41.8771,0.0],[-8.8282,41.8991,0.0],[-8.8246,41.9059,0.0],[-8.8184,41.9113,0.0],[-8.8034,41.9151,2.1965],[-8.7937,41.915,0.0],[-8.7859,41.9173,0.0],[-8.7563,41.9331,0.5006],[-8.7477,41.9431,0.0],[-8.7466,41.9504,0.0],[-8.7485,41.9608,0.0],[-8.7441,41.9659,0.0],[-8.7161,41.9802,0.0],[-8.6987,41.9838,0.0],[-8.6887,41.9901,0.0],[-8.6786,41.9913,0.0],[-8.6703,41.9991,2.4582],[-8.6622,42.0026,0.0],[-8.6573,42.0184,3.3987],[-8.6591,42.0255,0.0],[-8.6576,42.0301,10.0119],[-8.654,42.0333,0.0],[-8.6464,42.0365,0.0],[-8.6413,42.0443,0.0],[-8.6359,42.0479,0.0],[-8.6283,42.0506,0.0],[-8.6009,42.0546,1.9866],[-8.5953,42.0569,0.9667],[-8.5919,42.056399999999996,1.275],[-8.5865,42.0526,5.354],[-8.5812,42.0519,9.281],[-8.546,42.0542,5.5678],[-8.5264,42.0625,17.0185],[-8.5254,42.0652,2.5],[-8.5281,42.0747,3.0],[-8.5264,42.0771,24.5994],[-8.5198,42.0796,11.2229],[-8.5037,42.0777,4.0],[-8.4861,42.0819,4.5],[-8.4782,42.0807,9.9148],[-8.443,42.0824,15.4629],[-8.4342,42.0774,13.5353],[-8.4316,42.0732,9.5576],[-8.4289,42.0723,10.9688],[-8.4194,42.0731,19.8678],[-8.4048,42.0804,20.8814],[-8.393,42.08,9.4311],[-8.3906,42.0752,17.2446],[-8.3816,42.0764,18.8769],[-8.371,42.0883,10.5],[-8.3631,42.0904,23.6553],[-8.3533,42.0898,19.2611],[-8.3427,42.0847,27.9978],[-8.3319,42.0838,23.1951],[-8.3252,42.0895,28.4563],[-8.3234,42.1007,27.8312],[-8.3171,42.1045,36.7376],[-8.3134,42.103,31.9257],[-8.3039,42.1039,32.2171],[-8.2963,42.1078,28.5228],[-8.2949,42.1111,28.056],[-8.2907,42.1119,29.4303],[-8.2891,42.1145,28.1865],[-8.2736,42.1241,44.7102],[-8.263,42.1209,32.7352],[-8.2591,42.1213,30.8471],[-8.2557,42.1267,36.1128],[-8.2561,42.1346,38.8313],[-8.2455,42.1398,46.2848],[-8.2401,42.1391,47.6141],[-8.2308,42.1329,38.6894],[-8.2219,42.1341,63.9803],[-8.2179,42.1386,55.1911],[-8.2066,42.141,41.5258],[-8.2003,42.1488,65.296],[-8.2014,42.1529,77.5947],[-8.1987,42.1543,52.6016],[-8.1964,42.1527,62.9521],[-8.1954,42.1482,130.1408],[-8.1915,42.1428,142.9496],[-8.188,42.1436,190.2928],[-8.1908,42.1402,196.0298],[-8.1876,42.1375,183.4293],[-8.1896,42.1352,212.3197],[-8.1886,42.1337,250.7309],[-8.1931,42.1301,275.9288],[-8.1933,42.1262,301.5438],[-8.1911,42.1182,329.8566],[-8.1918,42.1145,345.7327],[-8.1888,42.1112,352.4178],[-8.1859,42.0982,444.5894],[-8.1879,42.0924,489.5848],[-8.1849,42.0838,591.1818],[-8.1865,42.0814,610.1564],[-8.1854,42.0764,709.8976],[-8.1881,42.0739,759.8417],[-8.1821,42.0651,908.5679],[-8.1755,42.0653,1037.5428],[-8.1704,42.0673,1071.2726],[-8.1596,42.0758,1187.0128],[-8.1496,42.0793,1186.5142],[-8.1379,42.0758,1121.5308],[-8.1214,42.0828,1187.8617],[-8.1187,42.0823,1196.8427],[-8.0966,42.0723,1259.3971],[-8.0882,42.0576,1247.4038],[-8.0844,42.0473,1280.8776],[-8.0827,42.0282,1328.1449],[-8.086,42.0165,1279.0295],[-8.0931,42.0118,1164.0518],[-8.115,42.0049,1215.7368],[-8.1247,42.0066,1222.4757],[-8.1278,42.0056,1175.0424],[-8.1407,41.9887,975.5577],[-8.163,41.9827,718.7139],[-8.1628,41.9756,714.571],[-8.1692,41.9662,708.5414],[-8.1695,41.963,669.9155],[-8.1736,41.9624,646.1115],[-8.1762,41.9589,634.9516],[-8.1749,41.955,605.0814],[-8.1801,41.9537,586.5618],[-8.1979,41.9395,503.2556],[-8.1978,41.9375,491.2449],[-8.2025,41.9324,472.2114],[-8.2043,41.927,366.9405],[-8.2102,41.9236,357.7448],[-8.212,41.9186,335.2953],[-8.2168,41.9135,339.2727],[-8.2168,41.9053,325.0],[-8.2143,41.9012,325.0],[-8.2153,41.8982,325.0],[-8.2055,41.8937,334.4381],[-8.2013,41.8881,331.7338],[-8.2005,41.8828,325.0],[-8.1979,41.8795,325.0],[-8.2007,41.8782,325.0],[-8.2,41.8737,331.021],[-8.1925,41.8766,325.0],[-8.1829,41.875,325.0],[-8.1717,41.8791,325.0],[-8.1693,41.8765,339.7647],[-8.1664,41.8624,571.3135],[-8.1617,41.861,777.5137],[-8.165,41.8181,1207.7711],[-8.1543,41.818,1106.2001],[-8.1309,41.8089,770.4236],[-8.1244,41.8086,911.7842],[-8.1166,41.8127,1107.115],[-8.1045,41.8118,1231.6505],[-8.0939,41.808,1302.6683],[-8.0933,41.8111,1303.5865],[-8.0904,41.8124,1308.5708],[-8.0873,41.8129,1390.1155],[-8.0839,41.8107,1398.6368],[-8.0789,41.8136,1369.9844],[-8.0734,41.8132,1446.968],[-8.0655,41.8174,1394.7891],[-8.0576,41.8157,1331.8346],[-8.0552,41.8168,1362.8674],[-8.0534,41.8206,1487.2185],[-8.0508,41.8194,1475.3529],[-8.0457,41.8241,1424.7886],[-8.0413,41.8252,1511.5376],[-8.0416,41.8278,1512.3918],[-8.0387,41.83,1484.634],[-8.0301,41.8296,1410.4346],[-8.0193,41.8321,1267.5437],[-8.014,41.829,1312.7173],[-8.0058,41.8446,1294.2968],[-8.006,41.8471,1282.2915],[-8.003,41.8503,1308.1257],[-7.9957,41.8525,1344.6566],[-7.9944,41.8542,1352.3972],[-7.9956,41.858,1381.0011],[-7.9894,41.8595,1381.0133],[-7.9899,41.8625,1373.4196],[-7.9877,41.8692,1345.2214],[-7.9715,41.8764,1279.8934],[-7.9692,41.8744,1237.1365],[-7.9567,41.8752,1271.2268],[-7.9561,41.8732,1255.7083],[-7.9488,41.871,1196.9312],[-7.9285,41.8778,1367.6511],[-7.9212,41.8778,1360.9421],[-7.9197,41.8802,1361.4192],[-7.9213,41.8818,1355.5518],[-7.9101,41.9073,931.3359],[-7.9097,41.9225,838.7499],[-7.9063,41.9271,849.6119],[-7.8879,41.9268,870.43],[-7.8847,41.9243,873.2864],[-7.8837,41.9184,861.8823],[-7.8874,41.9073,853.1924],[-7.8844,41.8891,1022.7664],[-7.8848,41.8809,1002.1303],[-7.8884,41.8697,1119.3938],[-7.8882,41.8661,1184.5861],[-7.8922,41.8595,1260.0088],[-7.8879,41.8556,1256.4724],[-7.8816,41.8561,1266.1631],[-7.8728,41.8449,1386.2949],[-7.8719,41.8501,1368.7642],[-7.8663,41.8589,1305.4766],[-7.859,41.8605,1352.7637],[-7.8584,41.8626,1364.0386],[-7.8494,41.8617,1315.9379],[-7.8415,41.8665,1354.0378],[-7.8452,41.8813,1306.7948],[-7.8028,41.8819,1122.0007],[-7.7869,41.8841,1221.2454],[-7.7783,41.8869,1176.2449],[-7.7635,41.899,1231.0411],[-7.7532,41.8982,1173.6901],[-7.7498,41.8948,1122.9285],[-7.745,41.8931,1087.1191],[-7.7333,41.8923,1272.6125],[-7.7221,41.9004,1346.6824],[-7.7008,41.9077,1336.6136],[-7.6878,41.9022,1210.3503],[-7.6781,41.8932,831.9382],[-7.6682,41.8933,788.9729],[-7.6654,41.8878,754.6096],[-7.6538,41.8812,741.2955],[-7.6254,41.8799,652.8783],[-7.6184,41.8851,667.7419],[-7.6076,41.8795,581.8631],[-7.5915,41.8807,581.1855],[-7.5872,41.8795,583.9048],[-7.5858,41.8819,573.4231],[-7.5833,41.8787,611.9944],[-7.5841,41.8757,609.5279],[-7.5886,41.8735,612.6252],[-7.5893,41.8711,611.5252],[-7.5983,41.8693,648.8186],[-7.6018,41.8665,658.0264],[-7.5994,41.8647,664.9127],[-7.6001,41.8604,674.3554],[-7.6072,41.8526,704.5438],[-7.6061,41.8487,715.9272],[-7.6096,41.8487,707.2021],[-7.6115,41.8467,718.978],[-7.6119,41.8406,741.6328],[-7.6143,41.8368,745.452],[-7.6139,41.8297,752.2487],[-7.6096,41.8296,776.0648],[-7.5988,41.8331,840.4973],[-7.5739,41.8297,858.3107],[-7.5662,41.8329,847.9995],[-7.559,41.8344,814.6909],[-7.5509,41.8337,797.3535],[-7.5491,41.8358,783.0646],[-7.5441,41.8354,761.6812],[-7.5437,41.837,750.9823],[-7.5385,41.8366,648.8729],[-7.5272,41.8402,710.3943]]],
[[[-7.4351,43.6989,1.6017],[-7.4371,43.701,3.2464],[-7.4407,43.699,0.0],[-7.4362,43.6971,0.2668],[-7.4351,43.6989,1.6017]]],
[[[-7.4407,43.7001,0.0],[-7.4429,43.7021,0.0],[-7.4446,43.7012,0.0],[-7.4421,43.6999,0.0],[-7.4407,43.7001,0.0]]],
[[[-7.4399,43.7143,1.2642],[-7.4371,43.7143,0.0],[-7.4368,43.7154,0.0],[-7.4421,43.7154,0.0],[-7.4399,43.7143,1.2642]]],
[[[-7.4385,43.7174,0.0],[-7.4387,43.719,0.0],[-7.4424,43.7163,0.0],[-7.4412,43.716,2.1654],[-7.4385,43.7174,0.0]]],
[[[-7.8313,43.7099,0.0],[-7.8343,43.7113,5.4138],[-7.8382,43.7104,3.346],[-7.8374,43.7088,3.346],[-7.8343,43.7082,0.0],[-7.8313,43.7099,0.0]]],
[[[-7.6287,43.7604,0.0],[-7.6293,43.7618,4.752],[-7.6321,43.7615,0.0],[-7.6346,43.7582,0.0],[-7.6329,43.7562,2.112],[-7.6293,43.7565,0.0],[-7.6279,43.7582,0.0],[-7.6287,43.7604,0.0]]],
[[[-7.8662,43.7799,0.0],[-7.8685,43.781,0.0],[-7.8696,43.7793,0.0],[-7.8676,43.7788,0.0],[-7.8662,43.7799,0.0]]],
[[[-8.8624,42.1454,0.0],[-8.8629,42.1476,0.0],[-8.8665,42.1465,2.2802],[-8.8657,42.1446,0.0],[-8.8624,42.1454,0.0]]],
[[[-8.854,42.1471,2.6881],[-8.8565,42.149,0.0],[-8.8579,42.146,0.0],[-8.8543,42.144,2.2495],[-8.8529,42.1449,0.0],[-8.854,42.1471,2.6881]]],
[[[-8.9085,42.1782,0.0],[-8.909,42.1799,0.0],[-8.9112,42.1801,0.0],[-8.9107,42.1776,0.0],[-8.9085,42.1782,0.0]]],
[[[-8.9076,42.2065,11.3658],[-8.9099,42.2076,0.0],[-8.9104,42.206,16.0783],[-8.9132,42.2057,0.0],[-8.9101,42.1988,28.1146],[-8.9126,42.1949,0.8622],[-8.9063,42.1907,1.0155],[-8.9024,42.1937,0.0],[-8.8993,42.1926,0.3888],[-8.8971,42.1937,0.0],[-8.8937,42.1904,0.0],[-8.8893,42.1907,7.6995],[-8.8918,42.196,0.0],[-8.8962,42.1993,0.0],[-8.9054,42.2015,31.8894],[-8.9076,42.2065,11.3658]]],
[[[-8.9112,42.2499,0.0],[-8.9124,42.2513,0.0],[-8.9187,42.251,0.0],[-8.9157,42.2449,0.0],[-8.9118,42.2435,0.0],[-8.9112,42.2407,0.0],[-8.9071,42.2376,0.0],[-8.9093,42.2332,0.0],[-8.9071,42.2246,0.3564],[-8.9096,42.224,0.0],[-8.9093,42.219,0.0],[-8.9171,42.2174,0.0],[-8.9174,42.2137,0.0],[-8.9146,42.211,0.0],[-8.9063,42.2124,0.0],[-8.9038,42.2154,0.0],[-8.9001,42.2157,0.0],[-8.9001,42.2174,0.0],[-8.9029,42.2193,12.6463],[-8.9026,42.2226,0.0],[-8.9035,42.221,0.478],[-8.906,42.2232,0.0],[-8.9007,42.2268,1.7785],[-8.8951,42.2274,4.1191],[-8.9004,42.2304,5.8246],[-8.8993,42.2354,0.0],[-8.9018,42.239,0.0],[-8.9021,42.2438,0.0],[-8.9057,42.2449,23.6452],[-8.9112,42.2499,0.0]]],
[[[-8.9324,42.3479,15.4085],[-8.9335,42.3493,0.0],[-8.9379,42.3485,0.0],[-8.939,42.346,0.0],[-8.9382,42.341,0.0],[-8.9318,42.3451,3.3622],[-8.9324,42.3479,15.4085]]],
[[[-8.9201,42.3949,0.0],[-8.9207,42.4021,0.0],[-8.9254,42.3949,24.6598],[-8.9321,42.3982,1.2695],[-8.9354,42.3876,5.8086],[-8.941,42.3868,2.2424],[-8.9462,42.3807,0.0],[-8.9465,42.3788,0.0],[-8.9404,42.3707,0.0],[-8.9412,42.3682,5.5203],[-8.9449,42.3696,0.0],[-8.9468,42.3674,4.92],[-8.9496,42.3676,2.0427],[-8.9454,42.3549,0.0],[-8.9435,42.3549,0.0],[-8.9412,42.3574,14.8798],[-8.9385,42.3554,0.0],[-8.9362,42.3565,0.0],[-8.9326,42.3701,0.0],[-8.9329,42.3746,6.6171],[-8.9293,42.3774,0.0],[-8.9262,42.3893,4.4618],[-8.9229,42.3907,4.1393],[-8.9201,42.3949,0.0]]],
[[[-9.014,42.4846,0.0],[-9.0157,42.4876,0.0],[-9.0207,42.4837,0.0],[-9.0221,42.4729,0.0],[-9.0204,42.4721,0.0],[-9.0182,42.4663,0.0],[-9.014,42.4632,0.0],[-9.0099,42.4626,0.2626],[-9.0082,42.4654,5.8812],[-9.001,42.4665,0.0],[-8.9987,42.469,0.0],[-9.0049,42.4726,0.7692],[-9.0076,42.4799,0.0],[-9.014,42.4846,0.0]]],
[[[-9.0018,42.4896,0.0],[-9.0012,42.4921,0.0],[-9.0026,42.4926,0.0],[-9.0037,42.4907,0.0],[-9.0018,42.4896,0.0]]],
[[[-8.8551,42.456,0.5173],[-8.8543,42.4549,0.0],[-8.851,42.4585,0.1285],[-8.8546,42.4579,0.0],[-8.8551,42.456,0.5173]]],
[[[-8.8585,42.4649,1.0261],[-8.861,42.4663,0.0],[-8.8612,42.4643,0.0],[-8.8557,42.4615,0.0],[-8.8568,42.4646,0.0],[-8.8585,42.4649,1.0261]]],
[[[-8.8479,42.4654,0.0],[-8.8488,42.4671,0.0],[-8.8515,42.4674,0.0],[-8.8493,42.4668,0.0],[-8.8485,42.4651,0.0],[-8.8479,42.4654,0.0]]],
[[[-8.8418,42.4982,1.8225],[-8.8415,42.5007,0.0],[-8.8457,42.5004,0.1929],[-8.8465,42.494,1.7772],[-8.8529,42.4899,1.1099],[-8.8535,42.4835,0.0],[-8.8524,42.4824,0.8185],[-8.846,42.4824,2.575],[-8.844,42.4849,1.6547],[-8.8454,42.4879,8.997],[-8.8437,42.4912,6.1795],[-8.8424,42.489,0.1814],[-8.841,42.4921,0.0],[-8.8407,42.4951,0.0],[-8.8432,42.4965,3.9317],[-8.8418,42.4982,1.8225]]],
[[[-9.0046,42.4921,0.0487],[-9.0043,42.494,0.0],[-9.0068,42.4932,0.0],[-9.0065,42.4918,0.0],[-9.0046,42.4921,0.0487]]],
[[[-9.0032,42.4982,0.0],[-9.004,42.5004,1.4861],[-9.0099,42.4993,0.0],[-9.0074,42.4985,0.4712],[-9.0062,42.4943,0.0],[-9.0029,42.4968,0.0],[-9.0032,42.4982,0.0]]],
[[[-9.0432,42.5107,0.0],[-9.0426,42.5132,0.0],[-9.0499,42.5132,0.0],[-9.056,42.5076,0.0],[-9.0493,42.5054,0.0],[-9.0432,42.5107,0.0]]],
[[[-9.0782,42.5174,0.0],[-9.0782,42.5185,0.0],[-9.0804,42.5196,0.0],[-9.0796,42.5165,0.0],[-9.0782,42.5174,0.0]]],
[[[-8.8343,42.4921,2.3639],[-8.8337,42.4974,0.0],[-8.8357,42.4949,0.344],[-8.8362,42.4899,0.2293],[-8.8335,42.4899,1.3281],[-8.8343,42.4921,2.3639]]],
[[[-8.899,42.5407,1.2378],[-8.8991,42.5435,0.6264],[-8.9015,42.5438,0.0],[-8.9038,42.5393,0.0],[-8.901,42.5371,0.0],[-8.9018,42.5393,0.4628],[-8.899,42.5407,1.2378]]],
[[[-8.8746,42.5732,1.6145],[-8.8771,42.5749,1.3823],[-8.8801,42.5726,4.8048],[-8.8843,42.5732,0.2426],[-8.884,42.5699,22.4756],[-8.8857,42.5687,23.6553],[-8.8899,42.5676,0.4629],[-8.8924,42.569,0.0],[-8.8924,42.5679,0.7905],[-8.8887,42.5646,0.0],[-8.8874,42.5607,0.0],[-8.8857,42.561,9.5366],[-8.8826,42.5579,0.0],[-8.8782,42.5574,1.4061],[-8.8743,42.5629,0.8868],[-8.8729,42.5629,0.0],[-8.8726,42.5596,0.0],[-8.8707,42.5604,0.0],[-8.8693,42.556,0.0],[-8.8732,42.5557,0.0],[-8.8726,42.5529,0.6876],[-8.8749,42.5554,0.0],[-8.8738,42.5533,0.6876],[-8.8757,42.5513,1.6343],[-8.8738,42.5499,0.4024],[-8.8754,42.5474,0.0],[-8.8729,42.5468,0.0],[-8.8729,42.5451,1.1598],[-8.8782,42.5457,0.0],[-8.8807,42.5404,0.0],[-8.8738,42.5368,0.0],[-8.8735,42.5354,0.0],[-8.8751,42.5363,0.0],[-8.876,42.5349,0.0],[-8.8732,42.5349,0.0],[-8.8724,42.5374,1.7985],[-8.8718,42.5324,2.2553],[-8.8793,42.5351,0.0],[-8.8821,42.5337,0.7209],[-8.8824,42.5293,0.0],[-8.8779,42.5288,1.8188],[-8.8788,42.5276,0.0],[-8.8774,42.5271,0.0],[-8.876,42.5296,4.6078],[-8.876,42.5282,0.0837],[-8.8729,42.5276,3.9807],[-8.8751,42.5257,0.0],[-8.8715,42.5254,0.0],[-8.8718,42.5244,0.0],[-8.8687,42.5274,2.688],[-8.8643,42.5251,0.0],[-8.8643,42.5276,0.0],[-8.8687,42.5304,3.3414],[-8.8668,42.5349,0.0],[-8.8682,42.5365,5.4547],[-8.8671,42.5418,0.0],[-8.8682,42.5435,3.8647],[-8.8646,42.5454,0.0],[-8.8549,42.5465,0.0],[-8.8612,42.5488,0.1995],[-8.8632,42.5515,2.2425],[-8.8626,42.5546,2.8557],[-8.8576,42.5579,0.7443],[-8.8601,42.5629,5.4713],[-8.856,42.5643,1.3605],[-8.856,42.5657,1.4047],[-8.8632,42.5685,1.0904],[-8.8629,42.5657,2.8243],[-8.8671,42.564,4.2632],[-8.869,42.5657,0.0],[-8.8685,42.5635,5.0919],[-8.8712,42.564,1.2549],[-8.8746,42.5665,6.283],[-8.8746,42.5732,1.6145]]],
[[[-8.9126,42.5447,0.0],[-8.9171,42.5474,0.0],[-8.9174,42.5451,0.0],[-8.9157,42.5435,0.0],[-8.9126,42.5447,0.0]]],
[[[-9.0901,42.6376,0.0],[-9.0929,42.6393,0.0],[-9.0938,42.6365,0.0],[-9.0888,42.6357,0.0],[-9.0901,42.6376,0.0]]],
[[[-8.8776,42.6004,0.0],[-8.8765,42.6007,1.3233],[-8.8765,42.6032,0.5692],[-8.8785,42.6026,0.0],[-8.8776,42.6004,0.0]]],
[[[-8.7785,42.6207,0.0],[-8.7799,42.6224,0.0],[-8.7843,42.6205,0.0],[-8.7876,42.621,0.0],[-8.791,42.6162,0.0],[-8.7857,42.6137,0.0],[-8.7779,42.6182,0.0],[-8.7785,42.6207,0.0]]],
[[[-9.0821,42.7343,0.0],[-9.0835,42.7326,0.0],[-9.0812,42.7326,0.0],[-9.0799,42.736,0.0],[-9.081,42.7346,0.0],[-9.0821,42.7343,0.0]]],
[[[-9.1438,42.7393,0.0],[-9.1465,42.741,0.0],[-9.1488,42.739,0.0],[-9.1488,42.7368,0.0],[-9.1449,42.736,0.0],[-9.1432,42.7371,0.0],[-9.1438,42.7393,0.0]]],
[[[-8.9624,42.7754,0.0],[-8.966,42.7771,0.0],[-8.9671,42.7751,0.0],[-8.9626,42.7726,0.0],[-8.9624,42.7754,0.0]]],
[[[-9.1679,42.8007,0.0],[-9.1721,42.8021,0.0],[-9.1735,42.8013,0.0],[-9.1726,42.7993,0.0],[-9.1746,42.7988,0.0],[-9.1676,42.7971,0.0],[-9.1668,42.8001,0.0],[-9.1679,42.8007,0.0]]],
[[[-9.1443,42.8171,0.0],[-9.1457,42.8187,0.0],[-9.1471,42.8176,0.0],[-9.1482,42.8096,0.0],[-9.1449,42.8138,0.0],[-9.1429,42.8138,0.0],[-9.1443,42.8171,0.0]]],
[[[-9.1674,42.8662,0.0],[-9.1687,42.8685,0.0],[-9.1721,42.8676,0.0],[-9.1729,42.8621,0.0],[-9.1715,42.8596,0.0],[-9.1674,42.8604,0.0],[-9.1674,42.8662,0.0]]],
[[[-9.1846,42.8829,0.0],[-9.186,42.8849,0.0],[-9.1882,42.8846,0.0],[-9.1896,42.8807,0.0],[-9.186,42.8768,0.0],[-9.1824,42.876,0.0],[-9.1821,42.8807,0.0],[-9.1846,42.8829,0.0]]],
[[[-8.8376,43.3626,0.0],[-8.8401,43.3635,0.0],[-8.8485,43.3613,6.8815],[-8.849,43.3599,5.8021],[-8.8471,43.359,48.3051],[-8.8474,43.3568,0.0],[-8.8451,43.3549,0.0],[-8.8357,43.3576,1.7615],[-8.8354,43.3537,0.0],[-8.8324,43.3526,0.0],[-8.8315,43.3599,1.0119],[-8.8335,43.3624,0.0],[-8.8362,43.3615,0.0],[-8.8376,43.3626,0.0]]],
[[[-8.7074,42.4124,54.9625],[-8.7082,42.414,13.6882],[-8.7101,42.4138,0.0],[-8.7124,42.4107,0.0],[-8.7076,42.4076,9.2901],[-8.7085,42.4087,9.2901],[-8.7057,42.4113,37.2164],[-8.7074,42.4124,54.9625]]],
[[[-8.3785,43.3668,0.0],[-8.3801,43.3679,0.0],[-8.3813,43.3676,0.0],[-8.3774,43.3662,0.0],[-8.3785,43.3668,0.0]]],
[[[-8.4532,43.3757,1.5002],[-8.4476,43.3785,5.7541],[-8.4451,43.3826,0.0],[-8.451,43.3799,0.0],[-8.4515,43.3776,0.0],[-8.454,43.3776,0.2299],[-8.4532,43.3757,1.5002]]],
[[[-8.3371,43.5113,0.2596],[-8.3396,43.5115,2.3918],[-8.3399,43.511,2.3918],[-8.3368,43.5101,0.0],[-8.3371,43.5113,0.2596]]]]}}